{
"type": "FeatureCollection",
"name": "claims_near",
"crs": { "type": "name", "properties": { "name": "urn:ogc:def:crs:OGC:1.3:CRS84" } },
"features": [
{ "type": "Feature", "properties": { "claim": "CDC-2450990", "cname": "", "owner": "Corporation Minière Fokus 100%", "expiry": "" }, "geometry": { "type": "Polygon", "coordinates": [ [ [ -79.41666667, 48.20833333 ], [ -79.4135014, 48.20833341 ], [ -79.41348448, 48.21122866 ], [ -79.41352235, 48.21191134 ], [ -79.41348504, 48.21488658 ], [ -79.41376226, 48.21489398 ], [ -79.41417539, 48.21490599 ], [ -79.41471905, 48.21491539 ], [ -79.41505146, 48.21491114 ], [ -79.41634742, 48.21491658 ], [ -79.41666667, 48.21491756 ], [ -79.41666667, 48.20833333 ] ] ] } },
{ "type": "Feature", "properties": { "claim": "CDC-2450988", "cname": "", "owner": "Corporation Minière Fokus 100%", "expiry": "" }, "geometry": { "type": "Polygon", "coordinates": [ [ [ -79.425, 48.21497165 ], [ -79.425, 48.20833333 ], [ -79.41666667, 48.20833333 ], [ -79.41666667, 48.21491756 ], [ -79.41673231, 48.21491776 ], [ -79.41787484, 48.21493117 ], [ -79.41846966, 48.21493789 ], [ -79.41917347, 48.21495009 ], [ -79.41931074, 48.21494928 ], [ -79.41986655, 48.21494248 ], [ -79.41996345, 48.21494164 ], [ -79.42050712, 48.21494741 ], [ -79.42338703, 48.21496286 ], [ -79.42488082, 48.21497104 ], [ -79.425, 48.21497165 ] ] ] } },
{ "type": "Feature", "properties": { "claim": "CDC-2450989", "cname": "", "owner": "Corporation Minière Fokus 100%", "expiry": "" }, "geometry": { "type": "Polygon", "coordinates": [ [ [ -79.425, 48.20833333 ], [ -79.425, 48.21497165 ], [ -79.42690751, 48.21498134 ], [ -79.430428, 48.21499882 ], [ -79.43101071, 48.21500277 ], [ -79.43113049, 48.21500284 ], [ -79.4311092, 48.2118099 ], [ -79.43105561, 48.2083334 ], [ -79.425, 48.20833333 ] ] ] } },
{ "type": "Feature", "properties": { "claim": "CDC-2798833", "cname": "", "owner": "Labyrinth Resources Canada Ltd. 100%", "expiry": "" }, "geometry": { "type": "Polygon", "coordinates": [ [ [ -79.44166667, 48.23668941 ], [ -79.44165039, 48.23668291 ], [ -79.44162402, 48.23666407 ], [ -79.44159621, 48.23664546 ], [ -79.44148856, 48.23660044 ], [ -79.44136778, 48.23659141 ], [ -79.44136261, 48.23659245 ], [ -79.441327, 48.23660036 ], [ -79.44117884, 48.23664524 ], [ -79.44109806, 48.2366542 ], [ -79.44103072, 48.23664518 ], [ -79.44091013, 48.23659136 ], [ -79.44088758, 48.23659297 ], [ -79.44080191, 48.23660008 ], [ -79.4407426, 48.23659344 ], [ -79.44072025, 48.23659141 ], [ -79.4406538, 48.236618 ], [ -79.4405999, 48.23667194 ], [ -79.4405299, 48.23670528 ], [ -79.44050599, 48.23671724 ], [ -79.44045257, 48.23671723 ], [ -79.44038392, 48.23669054 ], [ -79.44031525, 48.23661806 ], [ -79.44026745, 48.23656787 ], [ -79.44023703, 48.23653733 ], [ -79.44015503, 48.23651124 ], [ -79.44006347, 48.23649217 ], [ -79.43995666, 48.23651124 ], [ -79.43985935, 48.2365447 ], [ -79.43983262, 48.2365546 ], [ -79.43981722, 48.23656231 ], [ -79.43967438, 48.23663713 ], [ -79.43957604, 48.23669008 ], [ -79.43952274, 48.23675232 ], [ -79.43951387, 48.23677004 ], [ -79.43949889, 48.23680497 ], [ -79.43944549, 48.23684312 ], [ -79.43937683, 48.23684312 ], [ -79.43937458, 48.23684218 ], [ -79.43937454, 48.23684218 ], [ -79.43937404, 48.23684195 ], [ -79.43933106, 48.23682404 ], [ -79.43927448, 48.23679223 ], [ -79.43926971, 48.23678968 ], [ -79.43922081, 48.236783 ], [ -79.43918612, 48.23677912 ], [ -79.43910532, 48.23679706 ], [ -79.4390514, 48.23685102 ], [ -79.43901685, 48.23687867 ], [ -79.43898773, 48.23690415 ], [ -79.43888855, 48.2369423 ], [ -79.43875885, 48.23697664 ], [ -79.43867288, 48.23701102 ], [ -79.43864731, 48.23702168 ], [ -79.43851976, 48.23710674 ], [ -79.43851472, 48.23711015 ], [ -79.4384079, 48.2372017 ], [ -79.43827057, 48.23727418 ], [ -79.43813324, 48.23731996 ], [ -79.43804168, 48.23732758 ], [ -79.4380231, 48.23732371 ], [ -79.43794686, 48.23730912 ], [ -79.43786614, 48.2372551 ], [ -79.43786442, 48.23725373 ], [ -79.43779754, 48.2372017 ], [ -79.43778229, 48.237175 ], [ -79.43776325, 48.23713692 ], [ -79.43775858, 48.2371291 ], [ -79.43771832, 48.23703018 ], [ -79.43770495, 48.23694924 ], [ -79.43764408, 48.23690866 ], [ -79.43697357, 48.2371216 ], [ -79.43422698, 48.23834611 ], [ -79.43333333, 48.24001339 ], [ -79.43333333, 48.24045007 ], [ -79.43412967, 48.24166669 ], [ -79.44166667, 48.24166667 ], [ -79.44166667, 48.23668941 ] ] ] } },
{ "type": "Feature", "properties": { "claim": "CDC-2798835", "cname": "", "owner": "Labyrinth Resources Canada Ltd. 100%", "expiry": "" }, "geometry": { "type": "Polygon", "coordinates": [ [ [ -79.44166667, 48.24538088 ], [ -79.44166667, 48.24166667 ], [ -79.43412967, 48.24166669 ], [ -79.43430328, 48.24193193 ], [ -79.43626403, 48.24288179 ], [ -79.43894195, 48.2438736 ], [ -79.44139862, 48.24505998 ], [ -79.44166667, 48.24538088 ] ] ] } },
{ "type": "Feature", "properties": { "claim": "CDC-2798834", "cname": "", "owner": "Labyrinth Resources Canada Ltd. 100%", "expiry": "" }, "geometry": { "type": "Polygon", "coordinates": [ [ [ -79.45, 48.24166667 ], [ -79.44166667, 48.24166667 ], [ -79.44166667, 48.24538088 ], [ -79.44273376, 48.24665834 ], [ -79.44267273, 48.24858094 ], [ -79.44208578, 48.25000002 ], [ -79.45, 48.25 ], [ -79.45, 48.24166667 ] ] ] } },
{ "type": "Feature", "properties": { "claim": "CDC-2798832", "cname": "", "owner": "Labyrinth Resources Canada Ltd. 100%", "expiry": "" }, "geometry": { "type": "Polygon", "coordinates": [ [ [ -79.45, 48.23754472 ], [ -79.44999829, 48.23754511 ], [ -79.44998296, 48.23754882 ], [ -79.44987521, 48.23760274 ], [ -79.44979436, 48.23765668 ], [ -79.44973194, 48.23778843 ], [ -79.44971466, 48.23782731 ], [ -79.44964599, 48.23789216 ], [ -79.44950104, 48.23794557 ], [ -79.4493927, 48.23796773 ], [ -79.44933627, 48.23798026 ], [ -79.44924886, 48.23798801 ], [ -79.44913482, 48.23799898 ], [ -79.44909071, 48.23799549 ], [ -79.44898623, 48.2379891 ], [ -79.44883815, 48.23798004 ], [ -79.44883782, 48.23797993 ], [ -79.44883728, 48.2379799 ], [ -79.44869996, 48.23793412 ], [ -79.44867045, 48.23792138 ], [ -79.44852858, 48.237863 ], [ -79.44836258, 48.23778367 ], [ -79.44834138, 48.23777391 ], [ -79.44815064, 48.23770143 ], [ -79.4480768, 48.23767811 ], [ -79.44800372, 48.23765588 ], [ -79.44796766, 48.2376471 ], [ -79.44785308, 48.23762132 ], [ -79.44772339, 48.23759461 ], [ -79.44749451, 48.23757554 ], [ -79.44723511, 48.23757554 ], [ -79.44707489, 48.23757554 ], [ -79.44701469, 48.237563 ], [ -79.4469806, 48.23755648 ], [ -79.44693823, 48.23754433 ], [ -79.44688416, 48.23752977 ], [ -79.44682586, 48.23750369 ], [ -79.44673834, 48.23746642 ], [ -79.44653644, 48.23741236 ], [ -79.44649742, 48.23740257 ], [ -79.44631959, 48.2373581 ], [ -79.4461441, 48.2373047 ], [ -79.44610895, 48.23729005 ], [ -79.44605188, 48.23726824 ], [ -79.44599914, 48.2372447 ], [ -79.44596862, 48.23723222 ], [ -79.44584656, 48.23720552 ], [ -79.44573975, 48.23720552 ], [ -79.44573121, 48.23720637 ], [ -79.44566192, 48.23721403 ], [ -79.44565927, 48.23721558 ], [ -79.4456211, 48.23724104 ], [ -79.44556724, 48.23725898 ], [ -79.44540566, 48.23725894 ], [ -79.44536676, 48.23725892 ], [ -79.44524384, 48.23725892 ], [ -79.44499207, 48.23728562 ], [ -79.44498847, 48.2372857 ], [ -79.44498828, 48.23728572 ], [ -79.44463822, 48.23729454 ], [ -79.44436905, 48.23728692 ], [ -79.44431305, 48.23728562 ], [ -79.44401833, 48.23724028 ], [ -79.44387086, 48.2372402 ], [ -79.44374968, 48.23724014 ], [ -79.44374949, 48.23723985 ], [ -79.44374848, 48.23723985 ], [ -79.44371033, 48.23717881 ], [ -79.44371038, 48.23717876 ], [ -79.44370936, 48.23717718 ], [ -79.44374711, 48.2371394 ], [ -79.44376373, 48.23712159 ], [ -79.44383026, 48.2371142 ], [ -79.44375238, 48.23709682 ], [ -79.44367218, 48.23707963 ], [ -79.44350731, 48.23704216 ], [ -79.4433056, 48.23704206 ], [ -79.44325364, 48.23705195 ], [ -79.44311524, 48.23707963 ], [ -79.44307616, 48.23709917 ], [ -79.44299584, 48.23714084 ], [ -79.44291972, 48.23718526 ], [ -79.44288635, 48.23720552 ], [ -79.44285651, 48.23721215 ], [ -79.44282072, 48.2372217 ], [ -79.44277758, 48.23722579 ], [ -79.44272614, 48.23723222 ], [ -79.44261932, 48.23721315 ], [ -79.44259315, 48.23720497 ], [ -79.44249766, 48.23717656 ], [ -79.44246542, 48.23716793 ], [ -79.44242859, 48.23715974 ], [ -79.44217681, 48.23710633 ], [ -79.4420395, 48.23706056 ], [ -79.44195556, 48.23706056 ], [ -79.44181061, 48.23706056 ], [ -79.4418106, 48.23696137 ], [ -79.44181573, 48.23693961 ], [ -79.4418248, 48.23689742 ], [ -79.44181362, 48.23686744 ], [ -79.44179535, 48.23682405 ], [ -79.44175721, 48.23676302 ], [ -79.44168954, 48.23669911 ], [ -79.44167782, 48.23669387 ], [ -79.44166667, 48.23668941 ], [ -79.44166667, 48.24166667 ], [ -79.45, 48.24166667 ], [ -79.45, 48.23754472 ] ] ] } },
{ "type": "Feature", "properties": { "claim": "CDC-2581577", "cname": "", "owner": "Corporation Aurifère Vior Inc. 100%", "expiry": "" }, "geometry": { "type": "Polygon", "coordinates": [ [ [ -78.51666667, 49.00833333 ], [ -78.50833333, 49.00833333 ], [ -78.50833333, 49.00896537 ], [ -78.50880385, 49.00897314 ], [ -78.51070374, 49.00898945 ], [ -78.51124508, 49.00899409 ], [ -78.51125045, 49.00899414 ], [ -78.5123851, 49.00899486 ], [ -78.51481687, 49.00899767 ], [ -78.51481841, 49.00899768 ], [ -78.51596672, 49.00899849 ], [ -78.51666667, 49.00899925 ], [ -78.51666667, 49.00833333 ] ] ] } },
{ "type": "Feature", "properties": { "claim": "CDC-2571939", "cname": "", "owner": "Route 109 Resources Inc. 100%", "expiry": "" }, "geometry": { "type": "Polygon", "coordinates": [ [ [ -78.50833333, 49.00896537 ], [ -78.50833333, 49.01666667 ], [ -78.51666667, 49.01666667 ], [ -78.51666667, 49.00899925 ], [ -78.51596672, 49.00899849 ], [ -78.51481841, 49.00899768 ], [ -78.51481687, 49.00899767 ], [ -78.5123851, 49.00899486 ], [ -78.51125045, 49.00899414 ], [ -78.51124508, 49.00899409 ], [ -78.51070374, 49.00898945 ], [ -78.50880385, 49.00897314 ], [ -78.50833333, 49.00896537 ] ] ] } },
{ "type": "Feature", "properties": { "claim": "CDC-2571942", "cname": "", "owner": "Route 109 Resources Inc. 100%", "expiry": "" }, "geometry": { "type": "Polygon", "coordinates": [ [ [ -78.51666667, 49.01666667 ], [ -78.50833333, 49.01666667 ], [ -78.50833333, 49.025 ], [ -78.51666667, 49.025 ], [ -78.51666667, 49.01666667 ] ] ] } },
{ "type": "Feature", "properties": { "claim": "CDC-2581520", "cname": "", "owner": "Corporation Aurifère Vior Inc. 100%", "expiry": "" }, "geometry": { "type": "Polygon", "coordinates": [ [ [ -78.50833333, 49.0 ], [ -78.50833333, 48.99166667 ], [ -78.5, 48.99166667 ], [ -78.5, 49.0 ], [ -78.50833333, 49.0 ] ] ] } },
{ "type": "Feature", "properties": { "claim": "CDC-2581564", "cname": "", "owner": "Corporation Aurifère Vior Inc. 100%", "expiry": "" }, "geometry": { "type": "Polygon", "coordinates": [ [ [ -78.50833333, 49.00833333 ], [ -78.50833333, 49.0 ], [ -78.5, 49.0 ], [ -78.5, 49.00833333 ], [ -78.50833333, 49.00833333 ] ] ] } },
{ "type": "Feature", "properties": { "claim": "CDC-2581578", "cname": "", "owner": "Corporation Aurifère Vior Inc. 100%", "expiry": "" }, "geometry": { "type": "Polygon", "coordinates": [ [ [ -78.50833333, 49.00833333 ], [ -78.5, 49.00833333 ], [ -78.5, 49.01666667 ], [ -78.50765173, 49.01666669 ], [ -78.50767315, 49.00895446 ], [ -78.50833333, 49.00896537 ], [ -78.50833333, 49.00833333 ] ] ] } },
{ "type": "Feature", "properties": { "claim": "CDC-2571940", "cname": "", "owner": "Route 109 Resources Inc. 100%", "expiry": "" }, "geometry": { "type": "Polygon", "coordinates": [ [ [ -78.50833333, 49.01666667 ], [ -78.50833333, 49.00896537 ], [ -78.50767315, 49.00895446 ], [ -78.50765173, 49.01666669 ], [ -78.50833333, 49.01666667 ] ] ] } },
{ "type": "Feature", "properties": { "claim": "CDC-2571943", "cname": "", "owner": "Route 109 Resources Inc. 100%", "expiry": "" }, "geometry": { "type": "Polygon", "coordinates": [ [ [ -78.50833333, 49.02361252 ], [ -78.50833333, 49.01666667 ], [ -78.50765173, 49.01666669 ], [ -78.50763244, 49.02361254 ], [ -78.50833333, 49.02361252 ] ] ] } },
{ "type": "Feature", "properties": { "claim": "CDC-2542885", "cname": "", "owner": "Corporation Aurifère Vior Inc. 100%", "expiry": "" }, "geometry": { "type": "Polygon", "coordinates": [ [ [ -78.50833333, 49.025 ], [ -78.50833334, 49.02361252 ], [ -78.50763244, 49.02361254 ], [ -78.50765173, 49.01666669 ], [ -78.5, 49.01666667 ], [ -78.49999999, 49.025 ], [ -78.50833333, 49.025 ] ] ] } },
{ "type": "Feature", "properties": { "claim": "CDC-2581551", "cname": "", "owner": "Corporation Aurifère Vior Inc. 100%", "expiry": "" }, "geometry": { "type": "Polygon", "coordinates": [ [ [ -78.5, 49.0 ], [ -78.5, 48.99166667 ], [ -78.49166667, 48.99166667 ], [ -78.49166667, 49.0 ], [ -78.5, 49.0 ] ] ] } },
{ "type": "Feature", "properties": { "claim": "CDC-2581565", "cname": "", "owner": "Corporation Aurifère Vior Inc. 100%", "expiry": "" }, "geometry": { "type": "Polygon", "coordinates": [ [ [ -78.5, 49.00833333 ], [ -78.5, 49.0 ], [ -78.49166667, 49.0 ], [ -78.49166667, 49.00833333 ], [ -78.5, 49.00833333 ] ] ] } },
{ "type": "Feature", "properties": { "claim": "CDC-2581541", "cname": "", "owner": "Corporation Aurifère Vior Inc. 100%", "expiry": "" }, "geometry": { "type": "Polygon", "coordinates": [ [ [ -78.5, 48.99166667 ], [ -78.5, 48.98333333 ], [ -78.49166667, 48.98333333 ], [ -78.49166667, 48.99166667 ], [ -78.5, 48.99166667 ] ] ] } },
{ "type": "Feature", "properties": { "claim": "CDC-2571938", "cname": "", "owner": "Route 109 Resources Inc. 100%", "expiry": "" }, "geometry": { "type": "Polygon", "coordinates": [ [ [ -78.52312979, 49.00833339 ], [ -78.52312997, 49.0090054 ], [ -78.52196799, 49.00900455 ], [ -78.52196219, 49.00900454 ], [ -78.51954835, 49.009002 ], [ -78.51838953, 49.00900111 ], [ -78.51666667, 49.00899925 ], [ -78.51666667, 49.01666667 ], [ -78.51836999, 49.01666672 ], [ -78.525, 49.01666666 ], [ -78.525, 49.00833333 ], [ -78.52312979, 49.00833339 ] ] ] } },
{ "type": "Feature", "properties": { "claim": "CDC-2581562", "cname": "", "owner": "Corporation Aurifère Vior Inc. 100%", "expiry": "" }, "geometry": { "type": "Polygon", "coordinates": [ [ [ -78.5231275, 49.00000006 ], [ -78.51666667, 49.0 ], [ -78.51666667, 49.00833333 ], [ -78.52312979, 49.00833339 ], [ -78.5231275, 49.00000006 ] ] ] } },
{ "type": "Feature", "properties": { "claim": "CDC-2581576", "cname": "", "owner": "Corporation Aurifère Vior Inc. 100%", "expiry": "" }, "geometry": { "type": "Polygon", "coordinates": [ [ [ -78.52312979, 49.00833339 ], [ -78.51666667, 49.00833333 ], [ -78.51666667, 49.00899925 ], [ -78.51838953, 49.00900111 ], [ -78.51954835, 49.009002 ], [ -78.52196219, 49.00900454 ], [ -78.52196799, 49.00900455 ], [ -78.52312997, 49.0090054 ], [ -78.52312979, 49.00833339 ] ] ] } },
{ "type": "Feature", "properties": { "claim": "CDC-2581519", "cname": "", "owner": "Corporation Aurifère Vior Inc. 100%", "expiry": "" }, "geometry": { "type": "Polygon", "coordinates": [ [ [ -78.51666667, 49.0 ], [ -78.51666667, 48.99166667 ], [ -78.50833333, 48.99166667 ], [ -78.50833333, 49.0 ], [ -78.51666667, 49.0 ] ] ] } },
{ "type": "Feature", "properties": { "claim": "CDC-2581563", "cname": "", "owner": "Corporation Aurifère Vior Inc. 100%", "expiry": "" }, "geometry": { "type": "Polygon", "coordinates": [ [ [ -78.51666667, 49.00833333 ], [ -78.51666667, 49.0 ], [ -78.50833333, 49.0 ], [ -78.50833333, 49.00833333 ], [ -78.51666667, 49.00833333 ] ] ] } },
{ "type": "Feature", "properties": { "claim": "CDC-2571941", "cname": "", "owner": "Route 109 Resources Inc. 100%", "expiry": "" }, "geometry": { "type": "Polygon", "coordinates": [ [ [ -78.525, 49.025 ], [ -78.525, 49.01666666 ], [ -78.51666667, 49.01666667 ], [ -78.51666667, 49.025 ], [ -78.525, 49.025 ] ] ] } },
{ "type": "Feature", "properties": { "claim": "CDC-1093392", "cname": "", "owner": "Glencore Canada Corporation 100%", "expiry": "" }, "geometry": { "type": "Polygon", "coordinates": [ [ [ -78.36495874, 48.73422989 ], [ -78.36645015, 48.73422352 ], [ -78.36851091, 48.73422115 ], [ -78.36853043, 48.7342216 ], [ -78.3685867, 48.71961582 ], [ -78.36502984, 48.71961995 ], [ -78.36495874, 48.73422989 ] ] ] } },
{ "type": "Feature", "properties": { "claim": "CDC-2292293", "cname": "", "owner": "Emergent Metals Corp. 100%", "expiry": "" }, "geometry": { "type": "Polygon", "coordinates": [ [ [ -78.24166667, 48.67499999 ], [ -78.23333333, 48.675 ], [ -78.23333333, 48.68333333 ], [ -78.24166666, 48.68333333 ], [ -78.24166667, 48.67499999 ] ] ] } },
{ "type": "Feature", "properties": { "claim": "CDC-2292292", "cname": "", "owner": "Emergent Metals Corp. 100%", "expiry": "" }, "geometry": { "type": "Polygon", "coordinates": [ [ [ -78.25, 48.675 ], [ -78.24166667, 48.67499999 ], [ -78.24166666, 48.68333333 ], [ -78.24999999, 48.68333333 ], [ -78.25, 48.675 ] ] ] } },
{ "type": "Feature", "properties": { "claim": "CDC-2581575", "cname": "", "owner": "Corporation Aurifère Vior Inc. 100%", "expiry": "" }, "geometry": { "type": "Polygon", "coordinates": [ [ [ -78.41666667, 49.00833333 ], [ -78.41666667, 49.0 ], [ -78.41202294, 49.00000008 ], [ -78.41184256, 49.00008988 ], [ -78.41167145, 49.00017064 ], [ -78.41144358, 49.00026546 ], [ -78.41120678, 49.00035026 ], [ -78.41096206, 49.0004247 ], [ -78.41071046, 49.00048845 ], [ -78.41045306, 49.00054123 ], [ -78.41021883, 49.00057896 ], [ -78.40970661, 49.00065109 ], [ -78.40861039, 49.00150207 ], [ -78.40862099, 49.0015182 ], [ -78.40871787, 49.00168375 ], [ -78.40879809, 49.00185311 ], [ -78.4088613, 49.00202555 ], [ -78.40890723, 49.00220035 ], [ -78.40893569, 49.00237676 ], [ -78.40894655, 49.002554 ], [ -78.40894665, 49.00256681 ], [ -78.40894891, 49.00308915 ], [ -78.40894203, 49.00325368 ], [ -78.40891763, 49.00343035 ], [ -78.40887572, 49.00360559 ], [ -78.40881649, 49.00377864 ], [ -78.40874017, 49.00394878 ], [ -78.40864711, 49.00411527 ], [ -78.40853769, 49.00427741 ], [ -78.40841239, 49.00443448 ], [ -78.40833333, 49.00451955 ], [ -78.40833333, 49.00833333 ], [ -78.41666667, 49.00833333 ] ] ] } },
{ "type": "Feature", "properties": { "claim": "CDC-2552534", "cname": "", "owner": "Corporation Aurifère Vior Inc. 100%", "expiry": "" }, "geometry": { "type": "Polygon", "coordinates": [ [ [ -78.4, 49.00833334 ], [ -78.39919239, 49.00840385 ], [ -78.39897437, 49.00850825 ], [ -78.39874644, 49.00860304 ], [ -78.39850958, 49.00868782 ], [ -78.39826479, 49.00876223 ], [ -78.39801313, 49.00882595 ], [ -78.39775567, 49.0088787 ], [ -78.39749351, 49.00892026 ], [ -78.39722779, 49.00895046 ], [ -78.39695963, 49.00896915 ], [ -78.39669018, 49.00897627 ], [ -78.39642061, 49.00897177 ], [ -78.39615206, 49.00895569 ], [ -78.39588569, 49.00892809 ], [ -78.39562263, 49.00888908 ], [ -78.39558578, 49.00888193 ], [ -78.39549997, 49.00903534 ], [ -78.39539049, 49.00919746 ], [ -78.39526513, 49.00935452 ], [ -78.39512443, 49.00950585 ], [ -78.39496897, 49.0096508 ], [ -78.39479944, 49.00978876 ], [ -78.39461656, 49.00991912 ], [ -78.3944211, 49.01004134 ], [ -78.39422836, 49.01014696 ], [ -78.39422705, 49.0101508 ], [ -78.39416441, 49.01029316 ], [ -78.39397103, 49.0106915 ], [ -78.39395729, 49.01071927 ], [ -78.39386416, 49.01088575 ], [ -78.39375468, 49.01104787 ], [ -78.39362931, 49.01120493 ], [ -78.39348859, 49.01135625 ], [ -78.39333313, 49.0115012 ], [ -78.39316358, 49.01163916 ], [ -78.39298069, 49.01176952 ], [ -78.39278522, 49.01189173 ], [ -78.39257802, 49.01200527 ], [ -78.39235997, 49.01210966 ], [ -78.39213201, 49.01220444 ], [ -78.39189511, 49.0122892 ], [ -78.39166667, 49.01235862 ], [ -78.39166667, 49.01666667 ], [ -78.4, 49.01666667 ], [ -78.4, 49.00833334 ] ] ] } },
{ "type": "Feature", "properties": { "claim": "CDC-2603976", "cname": "", "owner": "Corporation Aurifère Vior Inc. 100%", "expiry": "" }, "geometry": { "type": "Polygon", "coordinates": [ [ [ -78.4, 49.01666667 ], [ -78.40833333, 49.01666667 ], [ -78.40833333, 49.00833333 ], [ -78.4, 49.00833334 ], [ -78.4, 49.01666667 ] ] ] } },
{ "type": "Feature", "properties": { "claim": "CDC-2581589", "cname": "", "owner": "Corporation Aurifère Vior Inc. 100%", "expiry": "" }, "geometry": { "type": "Polygon", "coordinates": [ [ [ -78.40833333, 49.00833333 ], [ -78.40833333, 49.01666667 ], [ -78.41666667, 49.01666667 ], [ -78.41666667, 49.00833333 ], [ -78.40833333, 49.00833333 ] ] ] } },
{ "type": "Feature", "properties": { "claim": "CDC-2581568", "cname": "", "owner": "Corporation Aurifère Vior Inc. 100%", "expiry": "" }, "geometry": { "type": "Polygon", "coordinates": [ [ [ -78.475, 49.00833333 ], [ -78.475, 49.0 ], [ -78.46666667, 49.0 ], [ -78.46666667, 49.00833333 ], [ -78.475, 49.00833333 ] ] ] } },
{ "type": "Feature", "properties": { "claim": "CDC-2581555", "cname": "", "owner": "Corporation Aurifère Vior Inc. 100%", "expiry": "" }, "geometry": { "type": "Polygon", "coordinates": [ [ [ -78.46666667, 49.0 ], [ -78.46666667, 48.99166667 ], [ -78.45833333, 48.99166667 ], [ -78.45833333, 49.0 ], [ -78.46666667, 49.0 ] ] ] } },
{ "type": "Feature", "properties": { "claim": "CDC-2581569", "cname": "", "owner": "Corporation Aurifère Vior Inc. 100%", "expiry": "" }, "geometry": { "type": "Polygon", "coordinates": [ [ [ -78.46666667, 49.00833333 ], [ -78.46666667, 49.0 ], [ -78.45833333, 49.0 ], [ -78.45833333, 49.00833333 ], [ -78.46666667, 49.00833333 ] ] ] } },
{ "type": "Feature", "properties": { "claim": "CDC-2581570", "cname": "", "owner": "Corporation Aurifère Vior Inc. 100%", "expiry": "" }, "geometry": { "type": "Polygon", "coordinates": [ [ [ -78.45833333, 49.00833333 ], [ -78.45833333, 49.0 ], [ -78.45, 49.0 ], [ -78.45, 49.00833333 ], [ -78.45833333, 49.00833333 ] ] ] } },
{ "type": "Feature", "properties": { "claim": "CDC-2581552", "cname": "", "owner": "Corporation Aurifère Vior Inc. 100%", "expiry": "" }, "geometry": { "type": "Polygon", "coordinates": [ [ [ -78.49166667, 49.0 ], [ -78.49166667, 48.99166667 ], [ -78.48333333, 48.99166667 ], [ -78.48333333, 49.0 ], [ -78.49166667, 49.0 ] ] ] } },
{ "type": "Feature", "properties": { "claim": "CDC-2581566", "cname": "", "owner": "Corporation Aurifère Vior Inc. 100%", "expiry": "" }, "geometry": { "type": "Polygon", "coordinates": [ [ [ -78.49166667, 49.00833333 ], [ -78.49166667, 49.0 ], [ -78.48333333, 49.0 ], [ -78.48333333, 49.00833333 ], [ -78.49166667, 49.00833333 ] ] ] } },
{ "type": "Feature", "properties": { "claim": "CDC-2581553", "cname": "", "owner": "Corporation Aurifère Vior Inc. 100%", "expiry": "" }, "geometry": { "type": "Polygon", "coordinates": [ [ [ -78.48333333, 49.0 ], [ -78.48333333, 48.99166667 ], [ -78.475, 48.99166667 ], [ -78.475, 49.0 ], [ -78.48333333, 49.0 ] ] ] } },
{ "type": "Feature", "properties": { "claim": "CDC-2581567", "cname": "", "owner": "Corporation Aurifère Vior Inc. 100%", "expiry": "" }, "geometry": { "type": "Polygon", "coordinates": [ [ [ -78.48333333, 49.00833333 ], [ -78.48333333, 49.0 ], [ -78.475, 49.0 ], [ -78.475, 49.00833333 ], [ -78.48333333, 49.00833333 ] ] ] } },
{ "type": "Feature", "properties": { "claim": "CDC-2581554", "cname": "", "owner": "Corporation Aurifère Vior Inc. 100%", "expiry": "" }, "geometry": { "type": "Polygon", "coordinates": [ [ [ -78.475, 49.0 ], [ -78.475, 48.99166667 ], [ -78.46666667, 48.99166667 ], [ -78.46666667, 49.0 ], [ -78.475, 49.0 ] ] ] } },
{ "type": "Feature", "properties": { "claim": "CDC-2581543", "cname": "", "owner": "Corporation Aurifère Vior Inc. 100%", "expiry": "" }, "geometry": { "type": "Polygon", "coordinates": [ [ [ -78.48333333, 48.99166667 ], [ -78.48333333, 48.98333333 ], [ -78.475, 48.98333333 ], [ -78.475, 48.99166667 ], [ -78.48333333, 48.99166667 ] ] ] } },
{ "type": "Feature", "properties": { "claim": "CDC-2581542", "cname": "", "owner": "Corporation Aurifère Vior Inc. 100%", "expiry": "" }, "geometry": { "type": "Polygon", "coordinates": [ [ [ -78.49166667, 48.99166667 ], [ -78.49166667, 48.98333333 ], [ -78.48333333, 48.98333333 ], [ -78.48333333, 48.99166667 ], [ -78.49166667, 48.99166667 ] ] ] } },
{ "type": "Feature", "properties": { "claim": "CDC-2399612", "cname": "", "owner": "Mines Agnico-Eagle Limitée 100%", "expiry": "" }, "geometry": { "type": "Polygon", "coordinates": [ [ [ -78.11666666, 48.15833333 ], [ -78.10974806, 48.15833338 ], [ -78.10974826, 48.16666671 ], [ -78.11666666, 48.16666666 ], [ -78.11666666, 48.15833333 ] ] ] } },
{ "type": "Feature", "properties": { "claim": "CDC-2399607", "cname": "", "owner": "Mines Agnico-Eagle Limitée 100%", "expiry": "" }, "geometry": { "type": "Polygon", "coordinates": [ [ [ -78.11666666, 48.16666666 ], [ -78.10974826, 48.16666671 ], [ -78.10974835, 48.1703208 ], [ -78.10974837, 48.17062823 ], [ -78.10974837, 48.17062995 ], [ -78.11325428, 48.17063263 ], [ -78.11326101, 48.17063271 ], [ -78.11666666, 48.17063678 ], [ -78.11666666, 48.16666666 ] ] ] } },
{ "type": "Feature", "properties": { "claim": "CDC-2423789", "cname": "", "owner": "Agnico Eagle Abitibi Acquisition Corp. 100%", "expiry": "" }, "geometry": { "type": "Polygon", "coordinates": [ [ [ -78.11666666, 48.17499999 ], [ -78.11666666, 48.17063678 ], [ -78.11326101, 48.17063271 ], [ -78.11325428, 48.17063263 ], [ -78.10974837, 48.17062823 ], [ -78.10974835, 48.1703208 ], [ -78.10974826, 48.16666671 ], [ -78.10833333, 48.16666666 ], [ -78.10833333, 48.175 ], [ -78.11666666, 48.17499999 ] ] ] } },
{ "type": "Feature", "properties": { "claim": "CDC-2423788", "cname": "", "owner": "Agnico Eagle Abitibi Acquisition Corp. 100%", "expiry": "" }, "geometry": { "type": "Polygon", "coordinates": [ [ [ -78.11666666, 48.17499999 ], [ -78.11676989, 48.175 ], [ -78.11676883, 48.17395996 ], [ -78.11676826, 48.17063702 ], [ -78.11676557, 48.17063689 ], [ -78.11666666, 48.17063678 ], [ -78.11666666, 48.17499999 ] ] ] } },
{ "type": "Feature", "properties": { "claim": "CDC-2508054", "cname": "", "owner": "Agnico Eagle Abitibi Acquisition Corp. 100%", "expiry": "" }, "geometry": { "type": "Polygon", "coordinates": [ [ [ -78.1273312, 48.18526548 ], [ -78.12732499, 48.17064936 ], [ -78.1237907, 48.17064541 ], [ -78.12381743, 48.18526142 ], [ -78.1273312, 48.18526548 ] ] ] } },
{ "type": "Feature", "properties": { "claim": "CDC-2508053", "cname": "", "owner": "Agnico Eagle Abitibi Acquisition Corp. 100%", "expiry": "" }, "geometry": { "type": "Polygon", "coordinates": [ [ [ -78.13437101, 48.18527306 ], [ -78.1343616, 48.181071 ], [ -78.13435719, 48.17780955 ], [ -78.13435198, 48.17398009 ], [ -78.13435027, 48.17065704 ], [ -78.13431386, 48.17065634 ], [ -78.13083763, 48.17065321 ], [ -78.13084498, 48.18526934 ], [ -78.13435889, 48.1852731 ], [ -78.13437101, 48.18527306 ] ] ] } },
{ "type": "Feature", "properties": { "claim": "CDC-2423681", "cname": "", "owner": "Agnico Eagle Abitibi Acquisition Corp. 100%", "expiry": "" }, "geometry": { "type": "Polygon", "coordinates": [ [ [ -78.11666667, 48.18333333 ], [ -78.11666666, 48.17499999 ], [ -78.10833333, 48.175 ], [ -78.10833333, 48.18333333 ], [ -78.11666667, 48.18333333 ] ] ] } },
{ "type": "Feature", "properties": { "claim": "CDC-2423799", "cname": "", "owner": "Agnico Eagle Abitibi Acquisition Corp. 100%", "expiry": "" }, "geometry": { "type": "Polygon", "coordinates": [ [ [ -78.11666667, 48.18333333 ], [ -78.11678033, 48.18333334 ], [ -78.116776, 48.18105094 ], [ -78.11677271, 48.17778941 ], [ -78.11676989, 48.175 ], [ -78.11666666, 48.17499999 ], [ -78.11666667, 48.18333333 ] ] ] } },
{ "type": "Feature", "properties": { "claim": "CDC-2423694", "cname": "", "owner": "Agnico Eagle Abitibi Acquisition Corp. 100%", "expiry": "" }, "geometry": { "type": "Polygon", "coordinates": [ [ [ -78.11666667, 48.18333333 ], [ -78.10833333, 48.18333333 ], [ -78.10833334, 48.19166666 ], [ -78.11666667, 48.19166666 ], [ -78.11666667, 48.18333333 ] ] ] } },
{ "type": "Feature", "properties": { "claim": "CDC-2423801", "cname": "", "owner": "Agnico Eagle Abitibi Acquisition Corp. 100%", "expiry": "" }, "geometry": { "type": "Polygon", "coordinates": [ [ [ -78.11666667, 48.19166666 ], [ -78.12382549, 48.1916667 ], [ -78.12381901, 48.18598135 ], [ -78.12381743, 48.18526142 ], [ -78.12029748, 48.18525736 ], [ -78.11678976, 48.18525315 ], [ -78.11678398, 48.18525308 ], [ -78.11678033, 48.18333334 ], [ -78.11666667, 48.18333333 ], [ -78.11666667, 48.19166666 ] ] ] } },
{ "type": "Feature", "properties": { "claim": "CDC-2384616", "cname": "", "owner": "Agnico Eagle Abitibi Acquisition Corp. 100%", "expiry": "" }, "geometry": { "type": "Polygon", "coordinates": [ [ [ -78.13088825, 48.1998624 ], [ -78.13085757, 48.19441525 ], [ -78.13085518, 48.1926569 ], [ -78.13084665, 48.18598928 ], [ -78.13084498, 48.18526934 ], [ -78.1273312, 48.18526548 ], [ -78.12733282, 48.18598542 ], [ -78.1273409, 48.19265311 ], [ -78.12734317, 48.19441129 ], [ -78.1273735, 48.19986265 ], [ -78.12738479, 48.19986261 ], [ -78.13086995, 48.19986235 ], [ -78.13088825, 48.1998624 ] ] ] } },
{ "type": "Feature", "properties": { "claim": "CDC-2421786", "cname": "", "owner": "Mines Abcourt Inc. 49%", "expiry": "" }, "geometry": { "type": "Polygon", "coordinates": [ [ [ -78.15833333, 48.19166666 ], [ -78.15833334, 48.18529612 ], [ -78.1554528, 48.1852936 ], [ -78.1554419, 48.18529357 ], [ -78.15193914, 48.18529041 ], [ -78.15193409, 48.18333338 ], [ -78.15, 48.18333333 ], [ -78.15, 48.19166667 ], [ -78.15833333, 48.19166666 ] ] ] } },
{ "type": "Feature", "properties": { "claim": "CDC-2421787", "cname": "", "owner": "Mines Abcourt Inc. 49%", "expiry": "" }, "geometry": { "type": "Polygon", "coordinates": [ [ [ -78.15, 48.19166667 ], [ -78.15, 48.18528872 ], [ -78.14842547, 48.18528728 ], [ -78.14841417, 48.18528724 ], [ -78.14491182, 48.18528386 ], [ -78.14490039, 48.18528372 ], [ -78.14490225, 48.18600367 ], [ -78.14491104, 48.19166674 ], [ -78.15, 48.19166667 ] ] ] } },
{ "type": "Feature", "properties": { "claim": "CDC-2423803", "cname": "", "owner": "Agnico Eagle Abitibi Acquisition Corp. 100%", "expiry": "" }, "geometry": { "type": "Polygon", "coordinates": [ [ [ -78.11666667, 48.19166666 ], [ -78.11666666, 48.19986254 ], [ -78.11682912, 48.19986254 ], [ -78.12034386, 48.19986277 ], [ -78.12034979, 48.19986276 ], [ -78.12385875, 48.19986263 ], [ -78.12382877, 48.19440731 ], [ -78.12382661, 48.19264905 ], [ -78.12382549, 48.1916667 ], [ -78.11666667, 48.19166666 ] ] ] } },
{ "type": "Feature", "properties": { "claim": "CDC-2421790", "cname": "", "owner": "Mines Abcourt Inc. 49%", "expiry": "" }, "geometry": { "type": "Polygon", "coordinates": [ [ [ -78.15, 48.2 ], [ -78.15, 48.19166667 ], [ -78.14491104, 48.19166674 ], [ -78.1449126, 48.19267148 ], [ -78.14491547, 48.19442975 ], [ -78.14494754, 48.19986035 ], [ -78.14491579, 48.19986035 ], [ -78.14166666, 48.19986097 ], [ -78.14166666, 48.2 ], [ -78.15, 48.2 ] ] ] } },
{ "type": "Feature", "properties": { "claim": "CDC-2421779", "cname": "", "owner": "Mines Abcourt Inc. 49%", "expiry": "" }, "geometry": { "type": "Polygon", "coordinates": [ [ [ -78.15833333, 48.19166666 ], [ -78.15, 48.19166667 ], [ -78.15, 48.2 ], [ -78.15833333, 48.2 ], [ -78.15833333, 48.19166666 ] ] ] } },
{ "type": "Feature", "properties": { "claim": "CDC-2399623", "cname": "", "owner": "Mines Agnico-Eagle Limitée 100%", "expiry": "" }, "geometry": { "type": "Polygon", "coordinates": [ [ [ -78.15833333, 48.15606239 ], [ -78.15833333, 48.15 ], [ -78.15, 48.15 ], [ -78.15, 48.15605532 ], [ -78.15186077, 48.15605694 ], [ -78.1553711, 48.15605993 ], [ -78.15833333, 48.15606239 ] ] ] } },
{ "type": "Feature", "properties": { "claim": "CDC-2399615", "cname": "", "owner": "Mines Agnico-Eagle Limitée 100%", "expiry": "" }, "geometry": { "type": "Polygon", "coordinates": [ [ [ -78.15, 48.15605532 ], [ -78.15, 48.15 ], [ -78.14166667, 48.15 ], [ -78.14166667, 48.15604757 ], [ -78.14486178, 48.15605054 ], [ -78.14837614, 48.15605388 ], [ -78.15, 48.15605532 ] ] ] } },
{ "type": "Feature", "properties": { "claim": "CDC-2399599", "cname": "", "owner": "Mines Agnico-Eagle Limitée 100%", "expiry": "" }, "geometry": { "type": "Polygon", "coordinates": [ [ [ -78.14166667, 48.15 ], [ -78.13333333, 48.15 ], [ -78.13333333, 48.15833333 ], [ -78.1413341, 48.15833335 ], [ -78.14133265, 48.15604728 ], [ -78.14134757, 48.15604727 ], [ -78.14166667, 48.15604757 ], [ -78.14166667, 48.15 ] ] ] } },
{ "type": "Feature", "properties": { "claim": "CDC-2399597", "cname": "", "owner": "Mines Agnico-Eagle Limitée 100%", "expiry": "" }, "geometry": { "type": "Polygon", "coordinates": [ [ [ -78.13333333, 48.15833333 ], [ -78.13333333, 48.16666666 ], [ -78.14133942, 48.16666668 ], [ -78.14133733, 48.16341861 ], [ -78.1413341, 48.15833335 ], [ -78.13333333, 48.15833333 ] ] ] } },
{ "type": "Feature", "properties": { "claim": "CDC-2399605", "cname": "", "owner": "Mines Agnico-Eagle Limitée 100%", "expiry": "" }, "geometry": { "type": "Polygon", "coordinates": [ [ [ -78.13333333, 48.16666666 ], [ -78.13333333, 48.17065547 ], [ -78.13431386, 48.17065634 ], [ -78.13435027, 48.17065704 ], [ -78.13783068, 48.17065985 ], [ -78.1378628, 48.17066059 ], [ -78.14134199, 48.17066337 ], [ -78.14134178, 48.17035584 ], [ -78.14133942, 48.16666668 ], [ -78.13333333, 48.16666666 ] ] ] } },
{ "type": "Feature", "properties": { "claim": "CDC-2399609", "cname": "", "owner": "Mines Agnico-Eagle Limitée 100%", "expiry": "" }, "geometry": { "type": "Polygon", "coordinates": [ [ [ -78.13333333, 48.15833333 ], [ -78.13333333, 48.15 ], [ -78.125, 48.15 ], [ -78.125, 48.15603027 ], [ -78.12728845, 48.15603284 ], [ -78.12737127, 48.15603283 ], [ -78.12742637, 48.15603295 ], [ -78.12741042, 48.1583334 ], [ -78.13333333, 48.15833333 ] ] ] } },
{ "type": "Feature", "properties": { "claim": "CDC-2399614", "cname": "", "owner": "Mines Agnico-Eagle Limitée 100%", "expiry": "" }, "geometry": { "type": "Polygon", "coordinates": [ [ [ -78.13333333, 48.15833333 ], [ -78.12741042, 48.1583334 ], [ -78.12735262, 48.16666673 ], [ -78.13333333, 48.16666666 ], [ -78.13333333, 48.15833333 ] ] ] } },
{ "type": "Feature", "properties": { "claim": "CDC-2399610", "cname": "", "owner": "Mines Agnico-Eagle Limitée 100%", "expiry": "" }, "geometry": { "type": "Polygon", "coordinates": [ [ [ -78.13333333, 48.16666666 ], [ -78.12735262, 48.16666673 ], [ -78.12732499, 48.17064936 ], [ -78.13083763, 48.17065321 ], [ -78.13333333, 48.17065547 ], [ -78.13333333, 48.16666666 ] ] ] } },
{ "type": "Feature", "properties": { "claim": "CDC-2296350", "cname": "", "owner": "Agnico Eagle Abitibi Acquisition Corp. 100%", "expiry": "" }, "geometry": { "type": "Polygon", "coordinates": [ [ [ -78.12732499, 48.17064936 ], [ -78.12742637, 48.15603295 ], [ -78.12737127, 48.15603283 ], [ -78.12728845, 48.15603284 ], [ -78.1237838, 48.15602888 ], [ -78.12378597, 48.16340019 ], [ -78.12378805, 48.1703374 ], [ -78.1237907, 48.17064541 ], [ -78.12732499, 48.17064936 ] ] ] } },
{ "type": "Feature", "properties": { "claim": "CDC-2399611", "cname": "", "owner": "Mines Agnico-Eagle Limitée 100%", "expiry": "" }, "geometry": { "type": "Polygon", "coordinates": [ [ [ -78.125, 48.15603027 ], [ -78.125, 48.15 ], [ -78.11666666, 48.15 ], [ -78.11666666, 48.15833333 ], [ -78.12378448, 48.15833337 ], [ -78.1237838, 48.15602888 ], [ -78.12387602, 48.15602891 ], [ -78.125, 48.15603027 ] ] ] } },
{ "type": "Feature", "properties": { "claim": "CDC-2399593", "cname": "", "owner": "Mines Agnico-Eagle Limitée 100%", "expiry": "" }, "geometry": { "type": "Polygon", "coordinates": [ [ [ -78.12378695, 48.1666667 ], [ -78.12378597, 48.16340019 ], [ -78.12378448, 48.15833337 ], [ -78.11666666, 48.15833333 ], [ -78.11666666, 48.16666666 ], [ -78.12378695, 48.1666667 ] ] ] } },
{ "type": "Feature", "properties": { "claim": "CDC-2399600", "cname": "", "owner": "Mines Agnico-Eagle Limitée 100%", "expiry": "" }, "geometry": { "type": "Polygon", "coordinates": [ [ [ -78.11666666, 48.16666666 ], [ -78.11666666, 48.17063678 ], [ -78.11676557, 48.17063689 ], [ -78.11676826, 48.17063702 ], [ -78.12027686, 48.17064096 ], [ -78.12028076, 48.17064128 ], [ -78.1237907, 48.17064541 ], [ -78.12378805, 48.1703374 ], [ -78.12378695, 48.1666667 ], [ -78.11666666, 48.16666666 ] ] ] } },
{ "type": "Feature", "properties": { "claim": "CDC-2410797", "cname": "", "owner": "Mines Agnico-Eagle Limitée 100%", "expiry": "" }, "geometry": { "type": "Polygon", "coordinates": [ [ [ -78.16666666, 48.16666667 ], [ -78.15888912, 48.16666668 ], [ -78.15889275, 48.17037148 ], [ -78.15889306, 48.17067892 ], [ -78.15893862, 48.17068052 ], [ -78.16239901, 48.17068181 ], [ -78.16245128, 48.17068341 ], [ -78.16591034, 48.17068449 ], [ -78.16596396, 48.17068628 ], [ -78.16666667, 48.17068681 ], [ -78.16666666, 48.16666667 ] ] ] } },
{ "type": "Feature", "properties": { "claim": "CDC-2410786", "cname": "", "owner": "Mines Agnico-Eagle Limitée 100%", "expiry": "" }, "geometry": { "type": "Polygon", "coordinates": [ [ [ -78.16666666, 48.16666667 ], [ -78.16666667, 48.17068681 ], [ -78.16941907, 48.17068883 ], [ -78.1694142, 48.16666674 ], [ -78.16666666, 48.16666667 ] ] ] } },
{ "type": "Feature", "properties": { "claim": "CDC-2410860", "cname": "", "owner": "Renforth Resources Inc. 100%", "expiry": "" }, "geometry": { "type": "Polygon", "coordinates": [ [ [ -78.175, 48.16666666 ], [ -78.1694142, 48.16666674 ], [ -78.16941907, 48.17068883 ], [ -78.16947649, 48.17068896 ], [ -78.17298917, 48.17069152 ], [ -78.175, 48.17069289 ], [ -78.175, 48.16666666 ] ] ] } },
{ "type": "Feature", "properties": { "claim": "CDC-2410857", "cname": "", "owner": "Renforth Resources Inc. 100%", "expiry": "" }, "geometry": { "type": "Polygon", "coordinates": [ [ [ -78.18333334, 48.16666666 ], [ -78.175, 48.16666666 ], [ -78.175, 48.17069289 ], [ -78.17650171, 48.17069397 ], [ -78.18001426, 48.17069632 ], [ -78.18333334, 48.17069846 ], [ -78.18333334, 48.16666666 ] ] ] } },
{ "type": "Feature", "properties": { "claim": "CDC-2421785", "cname": "", "owner": "Mines Abcourt Inc. 49%", "expiry": "" }, "geometry": { "type": "Polygon", "coordinates": [ [ [ -78.15833333, 48.19166666 ], [ -78.16248232, 48.19166675 ], [ -78.16247162, 48.1860195 ], [ -78.1624695, 48.18529956 ], [ -78.15896632, 48.18529667 ], [ -78.1589557, 48.18529666 ], [ -78.15833334, 48.18529612 ], [ -78.15833333, 48.19166666 ] ] ] } },
{ "type": "Feature", "properties": { "claim": "CDC-1122608", "cname": "", "owner": "Exploration Midland inc. 100%", "expiry": "" }, "geometry": { "type": "Polygon", "coordinates": [ [ [ -78.16603641, 48.19985392 ], [ -78.16600228, 48.19444822 ], [ -78.16599869, 48.19269003 ], [ -78.1659856, 48.18602229 ], [ -78.16598344, 48.18530235 ], [ -78.16248, 48.18529956 ], [ -78.1624695, 48.18529956 ], [ -78.16247162, 48.1860195 ], [ -78.16248425, 48.19268715 ], [ -78.16248771, 48.19444552 ], [ -78.16252244, 48.19985536 ], [ -78.16603641, 48.19985392 ] ] ] } },
{ "type": "Feature", "properties": { "claim": "CDC-1122607", "cname": "", "owner": "Exploration Midland inc. 100%", "expiry": "" }, "geometry": { "type": "Polygon", "coordinates": [ [ [ -78.16955105, 48.19985265 ], [ -78.16951657, 48.19445109 ], [ -78.16951286, 48.19269281 ], [ -78.16949933, 48.18602497 ], [ -78.16949711, 48.18530503 ], [ -78.16599366, 48.18530247 ], [ -78.16598344, 48.18530235 ], [ -78.1659856, 48.18602229 ], [ -78.16599869, 48.19269003 ], [ -78.16600228, 48.19444822 ], [ -78.16603641, 48.19985392 ], [ -78.16604005, 48.19985396 ], [ -78.16955105, 48.19985265 ] ] ] } },
{ "type": "Feature", "properties": { "claim": "CDC-1122606", "cname": "", "owner": "Exploration Midland inc. 100%", "expiry": "" }, "geometry": { "type": "Polygon", "coordinates": [ [ [ -78.17306583, 48.1998511 ], [ -78.17303101, 48.19445367 ], [ -78.17302718, 48.19269539 ], [ -78.17301318, 48.18602764 ], [ -78.17301092, 48.18530769 ], [ -78.1695072, 48.18530504 ], [ -78.16949711, 48.18530503 ], [ -78.16949933, 48.18602497 ], [ -78.16951286, 48.19269281 ], [ -78.16951657, 48.19445109 ], [ -78.16955105, 48.19985265 ], [ -78.16955751, 48.19985264 ], [ -78.17306583, 48.1998511 ] ] ] } },
{ "type": "Feature", "properties": { "claim": "CDC-2421789", "cname": "", "owner": "Mines Abcourt Inc. 49%", "expiry": "" }, "geometry": { "type": "Polygon", "coordinates": [ [ [ -78.16666667, 48.2 ], [ -78.16666667, 48.19985373 ], [ -78.16604005, 48.19985396 ], [ -78.16603641, 48.19985392 ], [ -78.16252244, 48.19985536 ], [ -78.16248771, 48.19444552 ], [ -78.16248425, 48.19268715 ], [ -78.16248232, 48.19166675 ], [ -78.15833333, 48.19166666 ], [ -78.15833333, 48.2 ], [ -78.16666667, 48.2 ] ] ] } },
{ "type": "Feature", "properties": { "claim": "CDC-2410804", "cname": "", "owner": "Mines Agnico-Eagle Limitée 100%", "expiry": "" }, "geometry": { "type": "Polygon", "coordinates": [ [ [ -78.175, 48.14999999 ], [ -78.16666667, 48.15 ], [ -78.16666666, 48.15833333 ], [ -78.16940434, 48.1583334 ], [ -78.16940167, 48.15607095 ], [ -78.1694342, 48.15607097 ], [ -78.1729483, 48.15607328 ], [ -78.175, 48.15607464 ], [ -78.175, 48.14999999 ] ] ] } },
{ "type": "Feature", "properties": { "claim": "CDC-2410859", "cname": "", "owner": "Renforth Resources Inc. 100%", "expiry": "" }, "geometry": { "type": "Polygon", "coordinates": [ [ [ -78.175, 48.16666666 ], [ -78.17499999, 48.15833333 ], [ -78.16940434, 48.1583334 ], [ -78.1694142, 48.16666674 ], [ -78.175, 48.16666666 ] ] ] } },
{ "type": "Feature", "properties": { "claim": "CDC-2410777", "cname": "", "owner": "Mines Agnico-Eagle Limitée 100%", "expiry": "" }, "geometry": { "type": "Polygon", "coordinates": [ [ [ -78.16940434, 48.1583334 ], [ -78.16666666, 48.15833333 ], [ -78.16666666, 48.16666667 ], [ -78.1694142, 48.16666674 ], [ -78.16940434, 48.1583334 ] ] ] } },
{ "type": "Feature", "properties": { "claim": "CDC-2410793", "cname": "", "owner": "Mines Agnico-Eagle Limitée 100%", "expiry": "" }, "geometry": { "type": "Polygon", "coordinates": [ [ [ -78.16666666, 48.15833333 ], [ -78.16666667, 48.15 ], [ -78.15833333, 48.15 ], [ -78.15833333, 48.15606239 ], [ -78.15887874, 48.15606286 ], [ -78.15888096, 48.15833335 ], [ -78.16666666, 48.15833333 ] ] ] } },
{ "type": "Feature", "properties": { "claim": "CDC-2410781", "cname": "", "owner": "Mines Agnico-Eagle Limitée 100%", "expiry": "" }, "geometry": { "type": "Polygon", "coordinates": [ [ [ -78.16666666, 48.15833333 ], [ -78.15888096, 48.15833335 ], [ -78.15888595, 48.16343413 ], [ -78.15888912, 48.16666668 ], [ -78.16666666, 48.16666667 ], [ -78.16666666, 48.15833333 ] ] ] } },
{ "type": "Feature", "properties": { "claim": "BEX-1367", "cname": "", "owner": "Béton Fortin Inc. 100%", "expiry": "" }, "geometry": { "type": "Polygon", "coordinates": [ [ [ -78.17483918, 48.57509032 ], [ -78.16377362, 48.575115 ], [ -78.16376511, 48.57502481 ], [ -78.16186695, 48.57502299 ], [ -78.16186166, 48.57632752 ], [ -78.16315004, 48.5763233 ], [ -78.16366912, 48.57625512 ], [ -78.16472277, 48.57632608 ], [ -78.16667708, 48.57702205 ], [ -78.16885012, 48.57744445 ], [ -78.17284575, 48.57728177 ], [ -78.17494462, 48.57757626 ], [ -78.17562965, 48.5767203 ], [ -78.17533468, 48.57544439 ], [ -78.17483918, 48.57509032 ] ] ] } },
{ "type": "Feature", "properties": { "claim": "CDC-2866454", "cname": "", "owner": "Construction Norascon inc. 100%", "expiry": "" }, "geometry": { "type": "Polygon", "coordinates": [ [ [ -78.16666667, 48.575 ], [ -78.15833333, 48.575 ], [ -78.15833334, 48.58333333 ], [ -78.16666666, 48.58333333 ], [ -78.16666667, 48.575 ] ] ] } },
{ "type": "Feature", "properties": { "claim": "CDC-2866455", "cname": "", "owner": "Construction Norascon inc. 100%", "expiry": "" }, "geometry": { "type": "Polygon", "coordinates": [ [ [ -78.15455979, 48.57500008 ], [ -78.15456093, 48.5750273 ], [ -78.15465323, 48.58333341 ], [ -78.15833334, 48.58333333 ], [ -78.15833333, 48.575 ], [ -78.15455979, 48.57500008 ] ] ] } },
{ "type": "Feature", "properties": { "claim": "CDC-2866456", "cname": "", "owner": "Construction Norascon inc. 100%", "expiry": "" }, "geometry": { "type": "Polygon", "coordinates": [ [ [ -78.15, 48.58333333 ], [ -78.15421529, 48.58333341 ], [ -78.15420792, 48.58332691 ], [ -78.15408529, 48.58323057 ], [ -78.15395471, 48.58313893 ], [ -78.15381659, 48.5830523 ], [ -78.15367137, 48.58297095 ], [ -78.1535195, 48.58289512 ], [ -78.15336147, 48.58282506 ], [ -78.15319776, 48.58276099 ], [ -78.1530289, 48.58270311 ], [ -78.15285541, 48.58265161 ], [ -78.15267784, 48.58260664 ], [ -78.15249675, 48.58256835 ], [ -78.15231272, 48.58253685 ], [ -78.1521263, 48.58251225 ], [ -78.15193811, 48.58249462 ], [ -78.15174872, 48.58248402 ], [ -78.15155873, 48.58248049 ], [ -78.15136874, 48.58248402 ], [ -78.15117935, 48.58249462 ], [ -78.15099115, 48.58251225 ], [ -78.15080474, 48.58253685 ], [ -78.1506207, 48.58256835 ], [ -78.15043961, 48.58260664 ], [ -78.15026204, 48.58265161 ], [ -78.15008856, 48.58270312 ], [ -78.15, 48.58273347 ], [ -78.15, 48.58333333 ] ] ] } },
{ "type": "Feature", "properties": { "claim": "CDC-2702323", "cname": "", "owner": "Emergent Metals Corp. 100%", "expiry": "" }, "geometry": { "type": "Polygon", "coordinates": [ [ [ -78.21666667, 48.6903335 ], [ -78.21666667, 48.69166666 ], [ -78.225, 48.69166667 ], [ -78.225, 48.69031855 ], [ -78.22253718, 48.69032671 ], [ -78.21897165, 48.6903396 ], [ -78.21666667, 48.6903335 ] ] ] } },
{ "type": "Feature", "properties": { "claim": "CDC-2433827", "cname": "", "owner": "Nuvau Minerals Corp. 100%", "expiry": "" }, "geometry": { "type": "Polygon", "coordinates": [ [ [ -78.18333334, 49.75 ], [ -78.17499999, 49.75 ], [ -78.175, 49.75833333 ], [ -78.18333333, 49.75833334 ], [ -78.18333334, 49.75 ] ] ] } },
{ "type": "Feature", "properties": { "claim": "CDC-2378145", "cname": "", "owner": "Nuvau Minerals Corp. 100%", "expiry": "" }, "geometry": { "type": "Polygon", "coordinates": [ [ [ -78.17499999, 49.75 ], [ -78.16666666, 49.75 ], [ -78.16666666, 49.75833333 ], [ -78.175, 49.75833333 ], [ -78.17499999, 49.75 ] ] ] } },
{ "type": "Feature", "properties": { "claim": "CDC-2488290", "cname": "", "owner": "Nuvau Minerals Corp. 100%", "expiry": "" }, "geometry": { "type": "Polygon", "coordinates": [ [ [ -78.16666666, 49.75 ], [ -78.15833333, 49.75 ], [ -78.15833334, 49.75833333 ], [ -78.16666666, 49.75833333 ], [ -78.16666666, 49.75 ] ] ] } },
{ "type": "Feature", "properties": { "claim": "CDC-2378177", "cname": "", "owner": "Nuvau Minerals Corp. 100%", "expiry": "" }, "geometry": { "type": "Polygon", "coordinates": [ [ [ -78.15, 49.75833334 ], [ -78.15833334, 49.75833333 ], [ -78.15833333, 49.75000212 ], [ -78.158093, 49.75000001 ], [ -78.14999999, 49.75 ], [ -78.15, 49.75833334 ] ] ] } },
{ "type": "Feature", "properties": { "claim": "CDC-2378152", "cname": "", "owner": "Nuvau Minerals Corp. 100%", "expiry": "" }, "geometry": { "type": "Polygon", "coordinates": [ [ [ -78.15833334, 49.75833333 ], [ -78.15, 49.75833334 ], [ -78.14999999, 49.76666667 ], [ -78.15833333, 49.76666667 ], [ -78.15833334, 49.75833333 ] ] ] } },
{ "type": "Feature", "properties": { "claim": "CDC-2378146", "cname": "", "owner": "Nuvau Minerals Corp. 100%", "expiry": "" }, "geometry": { "type": "Polygon", "coordinates": [ [ [ -78.14999999, 49.75 ], [ -78.14166666, 49.75 ], [ -78.14166666, 49.75833334 ], [ -78.15, 49.75833334 ], [ -78.14999999, 49.75 ] ] ] } },
{ "type": "Feature", "properties": { "claim": "CDC-2378153", "cname": "", "owner": "Nuvau Minerals Corp. 100%", "expiry": "" }, "geometry": { "type": "Polygon", "coordinates": [ [ [ -78.15, 49.75833334 ], [ -78.14166666, 49.75833334 ], [ -78.14166666, 49.76666667 ], [ -78.14999999, 49.76666667 ], [ -78.15, 49.75833334 ] ] ] } },
{ "type": "Feature", "properties": { "claim": "CDC-2378147", "cname": "", "owner": "Nuvau Minerals Corp. 100%", "expiry": "" }, "geometry": { "type": "Polygon", "coordinates": [ [ [ -78.14166666, 49.75 ], [ -78.13333332, 49.75000001 ], [ -78.13333333, 49.75833334 ], [ -78.14166666, 49.75833334 ], [ -78.14166666, 49.75 ] ] ] } },
{ "type": "Feature", "properties": { "claim": "CDC-2378154", "cname": "", "owner": "Nuvau Minerals Corp. 100%", "expiry": "" }, "geometry": { "type": "Polygon", "coordinates": [ [ [ -78.14166666, 49.75833334 ], [ -78.13333333, 49.75833334 ], [ -78.13333333, 49.76666667 ], [ -78.14166666, 49.76666667 ], [ -78.14166666, 49.75833334 ] ] ] } },
{ "type": "Feature", "properties": { "claim": "CDC-2378155", "cname": "", "owner": "Nuvau Minerals Corp. 100%", "expiry": "" }, "geometry": { "type": "Polygon", "coordinates": [ [ [ -78.13333333, 49.75833334 ], [ -78.125, 49.75833334 ], [ -78.125, 49.76666667 ], [ -78.13333333, 49.76666667 ], [ -78.13333333, 49.75833334 ] ] ] } },
{ "type": "Feature", "properties": { "claim": "CDC-2385336", "cname": "", "owner": "G.L. Geoservice inc. 50%", "expiry": "" }, "geometry": { "type": "Polygon", "coordinates": [ [ [ -75.38333333, 49.99166667 ], [ -75.375, 49.99166667 ], [ -75.375, 50.0 ], [ -75.38333334, 50.0 ], [ -75.38333333, 49.99166667 ] ] ] } },
{ "type": "Feature", "properties": { "claim": "CDC-2385335", "cname": "", "owner": "G.L. Geoservice inc. 50%", "expiry": "" }, "geometry": { "type": "Polygon", "coordinates": [ [ [ -75.39166666, 49.99166667 ], [ -75.38333333, 49.99166667 ], [ -75.38333334, 50.0 ], [ -75.39166667, 50.0 ], [ -75.39166666, 49.99166667 ] ] ] } },
{ "type": "Feature", "properties": { "claim": "CDC-2385334", "cname": "", "owner": "G.L. Geoservice inc. 50%", "expiry": "" }, "geometry": { "type": "Polygon", "coordinates": [ [ [ -75.4, 49.99166667 ], [ -75.39166666, 49.99166667 ], [ -75.39166667, 50.0 ], [ -75.4, 50.00000001 ], [ -75.4, 49.99166667 ] ] ] } },
{ "type": "Feature", "properties": { "claim": "CDC-2367907", "cname": "", "owner": "G.L. Geoservice inc. 50%", "expiry": "" }, "geometry": { "type": "Polygon", "coordinates": [ [ [ -75.40833333, 49.99166667 ], [ -75.4, 49.99166667 ], [ -75.4, 50.00000001 ], [ -75.40833333, 50.0 ], [ -75.40833333, 49.99166667 ] ] ] } },
{ "type": "Feature", "properties": { "claim": "CDC-2870775", "cname": "", "owner": "Simon Dahrouge 100%", "expiry": "" }, "geometry": { "type": "Polygon", "coordinates": [ [ [ -75.41666666, 49.99166667 ], [ -75.40833333, 49.99166667 ], [ -75.40833333, 50.0 ], [ -75.41666667, 50.0 ], [ -75.41666666, 49.99166667 ] ] ] } },
{ "type": "Feature", "properties": { "claim": "CDC-2870774", "cname": "", "owner": "Simon Dahrouge 100%", "expiry": "" }, "geometry": { "type": "Polygon", "coordinates": [ [ [ -75.42499999, 49.99166667 ], [ -75.41666666, 49.99166667 ], [ -75.41666667, 50.0 ], [ -75.425, 50.0 ], [ -75.42499999, 49.99166667 ] ] ] } },
{ "type": "Feature", "properties": { "claim": "CDC-2166660", "cname": "", "owner": "Marc Bouchard 50%", "expiry": "" }, "geometry": { "type": "Polygon", "coordinates": [ [ [ -75.38333334, 50.0 ], [ -75.375, 50.0 ], [ -75.37499999, 50.00833334 ], [ -75.38333334, 50.00833334 ], [ -75.38333334, 50.0 ] ] ] } },
{ "type": "Feature", "properties": { "claim": "CDC-2371764", "cname": "", "owner": "G.L. Geoservice inc. 50%", "expiry": "" }, "geometry": { "type": "Polygon", "coordinates": [ [ [ -75.39166667, 50.0 ], [ -75.38333334, 50.0 ], [ -75.38333334, 50.00833334 ], [ -75.39166667, 50.00833334 ], [ -75.39166667, 50.0 ] ] ] } },
{ "type": "Feature", "properties": { "claim": "CDC-2444802", "cname": "", "owner": "G.L. Geoservice inc. 50%", "expiry": "" }, "geometry": { "type": "Polygon", "coordinates": [ [ [ -75.4, 50.00000001 ], [ -75.39166667, 50.0 ], [ -75.39166667, 50.00833334 ], [ -75.39999999, 50.00833334 ], [ -75.4, 50.00000001 ] ] ] } },
{ "type": "Feature", "properties": { "claim": "CDC-2367954", "cname": "", "owner": "G.L. Geoservice inc. 50%", "expiry": "" }, "geometry": { "type": "Polygon", "coordinates": [ [ [ -75.40833333, 50.0 ], [ -75.4, 50.00000001 ], [ -75.39999999, 50.00833334 ], [ -75.40833333, 50.00833334 ], [ -75.40833333, 50.0 ] ] ] } },
{ "type": "Feature", "properties": { "claim": "CDC-2870787", "cname": "", "owner": "Simon Dahrouge 100%", "expiry": "" }, "geometry": { "type": "Polygon", "coordinates": [ [ [ -75.41666667, 50.0 ], [ -75.40833333, 50.0 ], [ -75.40833333, 50.00833334 ], [ -75.41666667, 50.00833333 ], [ -75.41666667, 50.0 ] ] ] } },
{ "type": "Feature", "properties": { "claim": "CDC-2870786", "cname": "", "owner": "Simon Dahrouge 100%", "expiry": "" }, "geometry": { "type": "Polygon", "coordinates": [ [ [ -75.425, 50.0 ], [ -75.41666667, 50.0 ], [ -75.41666667, 50.00833333 ], [ -75.42500001, 50.00833334 ], [ -75.425, 50.0 ] ] ] } },
{ "type": "Feature", "properties": { "claim": "CDC-2870785", "cname": "", "owner": "Simon Dahrouge 100%", "expiry": "" }, "geometry": { "type": "Polygon", "coordinates": [ [ [ -75.43333334, 50.0 ], [ -75.425, 50.0 ], [ -75.42500001, 50.00833334 ], [ -75.43333333, 50.00833333 ], [ -75.43333334, 50.0 ] ] ] } },
{ "type": "Feature", "properties": { "claim": "CDC-2547952", "cname": "", "owner": "G.L. Geoservice inc. 50%", "expiry": "" }, "geometry": { "type": "Polygon", "coordinates": [ [ [ -75.375, 49.99166667 ], [ -75.36666667, 49.99166667 ], [ -75.36666667, 50.0 ], [ -75.375, 50.0 ], [ -75.375, 49.99166667 ] ] ] } },
{ "type": "Feature", "properties": { "claim": "CDC-2175205", "cname": "", "owner": "Marc Bouchard 50%", "expiry": "" }, "geometry": { "type": "Polygon", "coordinates": [ [ [ -75.36666667, 50.0 ], [ -75.35833333, 50.00000001 ], [ -75.35833334, 50.00833334 ], [ -75.36666666, 50.00833334 ], [ -75.36666667, 50.0 ] ] ] } },
{ "type": "Feature", "properties": { "claim": "CDC-2380215", "cname": "", "owner": "G.L. Geoservice inc. 50%", "expiry": "" }, "geometry": { "type": "Polygon", "coordinates": [ [ [ -75.375, 50.0 ], [ -75.36666667, 50.0 ], [ -75.36666666, 50.00833334 ], [ -75.37499999, 50.00833334 ], [ -75.375, 50.0 ] ] ] } },
{ "type": "Feature", "properties": { "claim": "CDC-2380217", "cname": "", "owner": "G.L. Geoservice inc. 50%", "expiry": "" }, "geometry": { "type": "Polygon", "coordinates": [ [ [ -75.36666666, 50.00833334 ], [ -75.35833334, 50.00833334 ], [ -75.35833333, 50.01666667 ], [ -75.36666667, 50.01666667 ], [ -75.36666666, 50.00833334 ] ] ] } },
{ "type": "Feature", "properties": { "claim": "CDC-2380216", "cname": "", "owner": "G.L. Geoservice inc. 50%", "expiry": "" }, "geometry": { "type": "Polygon", "coordinates": [ [ [ -75.37499999, 50.00833334 ], [ -75.36666666, 50.00833334 ], [ -75.36666667, 50.01666667 ], [ -75.375, 50.01666667 ], [ -75.37499999, 50.00833334 ] ] ] } },
{ "type": "Feature", "properties": { "claim": "CDC-2290003", "cname": "", "owner": "9148-5706 Quebec inc. (Multi-Ressources Boreal) 100%", "expiry": "" }, "geometry": { "type": "Polygon", "coordinates": [ [ [ -73.73333346, 50.33333334 ], [ -73.72500013, 50.33333334 ], [ -73.72500013, 50.34166668 ], [ -73.73333345, 50.34166668 ], [ -73.73333346, 50.33333334 ] ] ] } },
{ "type": "Feature", "properties": { "claim": "CDC-2601286", "cname": "", "owner": "9148-5706 Quebec inc. (Multi-Ressources Boreal) 100%", "expiry": "" }, "geometry": { "type": "Polygon", "coordinates": [ [ [ -73.7416668, 50.33333334 ], [ -73.73333346, 50.33333334 ], [ -73.73333345, 50.34166668 ], [ -73.74166679, 50.34166667 ], [ -73.7416668, 50.33333334 ] ] ] } },
{ "type": "Feature", "properties": { "claim": "CDC-2601288", "cname": "", "owner": "9148-5706 Quebec inc. (Multi-Ressources Boreal) 100%", "expiry": "" }, "geometry": { "type": "Polygon", "coordinates": [ [ [ -73.72500013, 50.35000001 ], [ -73.73326893, 50.35000001 ], [ -73.73329206, 50.3499895 ], [ -73.73333345, 50.34997011 ], [ -73.73333345, 50.34166668 ], [ -73.72500013, 50.34166668 ], [ -73.72500013, 50.35000001 ] ] ] } },
{ "type": "Feature", "properties": { "claim": "CDC-2846302", "cname": "", "owner": "9148-5706 Quebec inc. (Multi-Ressources Boreal) 100%", "expiry": "" }, "geometry": { "type": "Polygon", "coordinates": [ [ [ -73.73333346, 50.31666667 ], [ -73.72500012, 50.31666668 ], [ -73.72500012, 50.32500001 ], [ -73.73333346, 50.32500001 ], [ -73.73333346, 50.31666667 ] ] ] } },
{ "type": "Feature", "properties": { "claim": "CDC-2846301", "cname": "", "owner": "9148-5706 Quebec inc. (Multi-Ressources Boreal) 100%", "expiry": "" }, "geometry": { "type": "Polygon", "coordinates": [ [ [ -73.74166679, 50.31666667 ], [ -73.73333346, 50.31666667 ], [ -73.73333346, 50.32500001 ], [ -73.74166679, 50.32500001 ], [ -73.74166679, 50.31666667 ] ] ] } },
{ "type": "Feature", "properties": { "claim": "CDC-2290002", "cname": "", "owner": "9148-5706 Quebec inc. (Multi-Ressources Boreal) 100%", "expiry": "" }, "geometry": { "type": "Polygon", "coordinates": [ [ [ -73.73333346, 50.32500001 ], [ -73.72500012, 50.32500001 ], [ -73.72500013, 50.33333334 ], [ -73.73333346, 50.33333334 ], [ -73.73333346, 50.32500001 ] ] ] } },
{ "type": "Feature", "properties": { "claim": "CDC-2293017", "cname": "", "owner": "9148-5706 Quebec inc. (Multi-Ressources Boreal) 100%", "expiry": "" }, "geometry": { "type": "Polygon", "coordinates": [ [ [ -73.74166679, 50.32500001 ], [ -73.73333346, 50.32500001 ], [ -73.73333346, 50.33333334 ], [ -73.7416668, 50.33333334 ], [ -73.74166679, 50.32500001 ] ] ] } },
{ "type": "Feature", "properties": { "claim": "CDC-2853091", "cname": "", "owner": "Charles Beaudry 100%", "expiry": "" }, "geometry": { "type": "Polygon", "coordinates": [ [ [ -73.75000013, 50.325 ], [ -73.74166679, 50.32500001 ], [ -73.7416668, 50.33333334 ], [ -73.75000013, 50.33333334 ], [ -73.75000013, 50.325 ] ] ] } },
{ "type": "Feature", "properties": { "claim": "CDC-2806700", "cname": "", "owner": "Réjean Raymond 100%", "expiry": "" }, "geometry": { "type": "Polygon", "coordinates": [ [ [ -71.81666667, 45.42929347 ], [ -71.81666667, 45.425 ], [ -71.80833333, 45.425 ], [ -71.80833334, 45.42997275 ], [ -71.81090068, 45.4299727 ], [ -71.81091474, 45.4299727 ], [ -71.81091749, 45.42956009 ], [ -71.81091823, 45.42944815 ], [ -71.81306633, 45.42939037 ], [ -71.81365012, 45.42937467 ], [ -71.81442479, 45.42935382 ], [ -71.81666667, 45.42929347 ] ] ] } },
{ "type": "Feature", "properties": { "claim": "CDC-2797600", "cname": "", "owner": "Réjean Raymond 100%", "expiry": "" }, "geometry": { "type": "Polygon", "coordinates": [ [ [ -71.81666667, 45.425 ], [ -71.81666667, 45.41666667 ], [ -71.80833334, 45.41666667 ], [ -71.80833333, 45.425 ], [ -71.81666667, 45.425 ] ] ] } }
]
}
