{"type":"FeatureCollection","features":[{"type":"Feature","properties":{"c":"026732M","o":"Jeffery Brushett","e":"2021-11-25"},"geometry":{"type":"Polygon","coordinates":[[[-55.66547,46.97921],[-55.6589,46.97914],[-55.65834,47.00163],[-55.64519,47.00147],[-55.6453,46.99698],[-55.65188,46.99705],[-55.65244,46.97456],[-55.65901,46.97464],[-55.65969,46.94765],[-55.62685,46.94726],[-55.62708,46.93826],[-55.66648,46.93873],[-55.66547,46.97921]]]}},{"type":"Feature","properties":{"c":"026733M","o":"Jeffery Brushett","e":"2021-11-24"},"geometry":{"type":"Polygon","coordinates":[[[-55.65901,46.97464],[-55.65244,46.97456],[-55.65188,46.99705],[-55.6453,46.99698],[-55.64519,47.00147],[-55.63861,47.0014],[-55.6385,47.00589],[-55.61877,47.00566],[-55.61889,47.00116],[-55.62546,47.00124],[-55.62558,46.99674],[-55.63215,46.99682],[-55.63273,46.97433],[-55.6393,46.97441],[-55.63964,46.96091],[-55.63307,46.96083],[-55.63319,46.95634],[-55.62662,46.95626],[-55.62685,46.94726],[-55.65969,46.94765],[-55.65901,46.97464]]]}},{"type":"Feature","properties":{"c":"025375M","o":"Puddle Pond Resources Inc.","e":"2031-07-18"},"geometry":{"type":"Polygon","coordinates":[[[-55.91642,46.92337],[-55.90985,46.92331],[-55.90949,46.9413],[-55.88978,46.94111],[-55.88969,46.94561],[-55.86998,46.94542],[-55.86979,46.95442],[-55.86322,46.95435],[-55.86313,46.95885],[-55.85656,46.95878],[-55.85627,46.97228],[-55.81684,46.97188],[-55.81674,46.97638],[-55.79702,46.97617],[-55.79692,46.98067],[-55.79035,46.9806],[-55.79015,46.9896],[-55.78357,46.98953],[-55.78347,46.99403],[-55.76375,46.99382],[-55.76323,47.01631],[-55.7435,47.01609],[-55.74339,47.02059],[-55.73682,47.02052],[-55.7365,47.03401],[-55.72334,47.03387],[-55.72366,47.02037],[-55.73024,47.02045],[-55.73045,47.01145],[-55.73703,47.01152],[-55.73756,46.98903],[-55.74413,46.9891],[-55.74424,46.9846],[-55.77053,46.98489],[-55.77074,46.97589],[-55.77731,46.97596],[-55.77741,46.97147],[-55.78398,46.97154],[-55.78408,46.96704],[-55.81694,46.96738],[-55.81724,46.95389],[-55.84351,46.95415],[-55.84371,46.94516],[-55.85684,46.94529],[-55.85713,46.93179],[-55.8834,46.93205],[-55.88405,46.90056],[-55.86436,46.90037],[-55.86474,46.88237],[-55.8385,46.88211],[-55.8384,46.88661],[-55.83184,46.88654],[-55.83174,46.89104],[-55.82518,46.89097],[-55.82508,46.89547],[-55.81852,46.8954],[-55.81823,46.9089],[-55.81166,46.90883],[-55.81156,46.91333],[-55.805,46.91326],[-55.8049,46.91776],[-55.79833,46.91769],[-55.79823,46.92219],[-55.79167,46.92212],[-55.79157,46.92662],[-55.785,46.92655],[-55.7848,46.93555],[-55.77166,46.93541],[-55.77269,46.89042],[-55.78581,46.89056],[-55.78591,46.88606],[-55.77935,46.88599],[-55.77946,46.8815],[-55.78602,46.88157],[-55.78612,46.87707],[-55.87796,46.878],[-55.87787,46.8825],[-55.89099,46.88263],[-55.8909,46.88713],[-55.91058,46.88732],[-55.91049,46.89182],[-55.91705,46.89188],[-55.91642,46.92337]]]}},{"type":"Feature","properties":{"c":"026959M","o":"Puddle Pond Resources Inc.","e":"2029-03-19"},"geometry":{"type":"Polygon","coordinates":[[[-55.72334,47.03387],[-55.71018,47.03372],[-55.71051,47.02023],[-55.72366,47.02037],[-55.72334,47.03387]]]}},{"type":"Feature","properties":{"c":"030678M","o":"Mineral Lands Admin","e":"2026-10-21"},"geometry":{"type":"Polygon","coordinates":[[[-55.89357,47.07613],[-55.88698,47.07607],[-55.88707,47.07157],[-55.89366,47.07164],[-55.89357,47.07613]]]}},{"type":"Feature","properties":{"c":"030706M","o":"Mineral Lands Admin","e":"2026-09-30"},"geometry":{"type":"Polygon","coordinates":[[[-55.90015,47.0762],[-55.89357,47.07613],[-55.89366,47.07164],[-55.90024,47.0717],[-55.90015,47.0762]]]}},{"type":"Feature","properties":{"c":"033235M","o":NaN,"e":""},"geometry":{"type":"Polygon","coordinates":[[[-55.90006,47.0807],[-55.89347,47.08063],[-55.89357,47.07613],[-55.90015,47.0762],[-55.90006,47.0807]]]}},{"type":"Feature","properties":{"c":"033248M","o":"Mineral Lands Admin","e":"2026-06-01"},"geometry":{"type":"Polygon","coordinates":[[[-55.90655,47.08526],[-55.89996,47.08519],[-55.90006,47.0807],[-55.90664,47.08076],[-55.90655,47.08526]]]}},{"type":"Feature","properties":{"c":"035190M","o":"Stephen Stockley Agriculture and Fabrication Inc.","e":"2027-11-09"},"geometry":{"type":"Polygon","coordinates":[[[-55.60136,47.41938],[-55.59473,47.4193],[-55.59485,47.41481],[-55.60148,47.41489],[-55.60136,47.41938]]]}},{"type":"Feature","properties":{"c":"035191M","o":"Stephen Stockley Agriculture and Fabrication Inc.","e":"2027-11-09"},"geometry":{"type":"Polygon","coordinates":[[[-55.58811,47.41922],[-55.58148,47.41914],[-55.5816,47.41464],[-55.58823,47.41472],[-55.58811,47.41922]]]}},{"type":"Feature","properties":{"c":"037395M","o":"Stephen Stockley Agriculture and Fabrication Inc.","e":"2029-03-01"},"geometry":{"type":"Polygon","coordinates":[[[-55.60124,47.42388],[-55.57473,47.42356],[-55.5751,47.41006],[-55.58172,47.41014],[-55.58148,47.41914],[-55.58811,47.41922],[-55.58835,47.41023],[-55.59497,47.41031],[-55.59473,47.4193],[-55.60136,47.41938],[-55.60124,47.42388]]]}},{"type":"Feature","properties":{"c":"038479M","o":"Puddle Pond Resources Inc.","e":"2031-03-31"},"geometry":{"type":"Polygon","coordinates":[[[-55.73703,47.01152],[-55.73045,47.01145],[-55.73024,47.02045],[-55.71051,47.02023],[-55.71094,47.00223],[-55.73724,47.00253],[-55.73703,47.01152]]]}},{"type":"Feature","properties":{"c":"039184M","o":"Puddle Pond Resources Inc.","e":"2031-04-08"},"geometry":{"type":"Polygon","coordinates":[[[-55.76313,47.02081],[-55.74997,47.02066],[-55.74902,47.06115],[-55.72269,47.06086],[-55.7228,47.05636],[-55.71622,47.05629],[-55.71644,47.04729],[-55.72302,47.04736],[-55.72312,47.04286],[-55.73628,47.04301],[-55.73682,47.02052],[-55.74339,47.02059],[-55.7435,47.01609],[-55.76323,47.01631],[-55.76313,47.02081]]]}},{"type":"Feature","properties":{"c":"039233M","o":"Angie Stockley","e":"2030-05-06"},"geometry":{"type":"Polygon","coordinates":[[[-55.56725,47.45496],[-55.56062,47.45487],[-55.56074,47.45038],[-55.56737,47.45046],[-55.56725,47.45496]]]}},{"type":"Feature","properties":{"c":"039438M","o":"Cronin Exploration Inc.","e":"2030-08-05"},"geometry":{"type":"Polygon","coordinates":[[[-55.54012,46.99568],[-55.53354,46.9956],[-55.5333,47.00459],[-55.4807,47.00391],[-55.48095,46.99491],[-55.46123,46.99465],[-55.46136,46.99015],[-55.44164,46.98988],[-55.4419,46.98089],[-55.48134,46.98142],[-55.48108,46.99041],[-55.49423,46.99059],[-55.49435,46.98609],[-55.48778,46.986],[-55.48791,46.98151],[-55.49448,46.98159],[-55.49473,46.9726],[-55.48816,46.97251],[-55.48841,46.96351],[-55.50812,46.96377],[-55.508,46.96827],[-55.51457,46.96836],[-55.51432,46.97735],[-55.50775,46.97727],[-55.5075,46.98626],[-55.51407,46.98635],[-55.51395,46.99085],[-55.52709,46.99102],[-55.52734,46.98202],[-55.52077,46.98194],[-55.52089,46.97744],[-55.53404,46.97761],[-55.53453,46.95961],[-55.5411,46.9597],[-55.54012,46.99568]]]}},{"type":"Feature","properties":{"c":"039440M","o":"Cronin Exploration Inc.","e":"2030-08-05"},"geometry":{"type":"Polygon","coordinates":[[[-55.52635,47.018],[-55.51977,47.01792],[-55.51965,47.02242],[-55.51307,47.02233],[-55.51282,47.03133],[-55.49967,47.03116],[-55.49954,47.03565],[-55.49296,47.03557],[-55.49271,47.04456],[-55.47297,47.0443],[-55.47284,47.0488],[-55.4531,47.04853],[-55.45297,47.05303],[-55.44639,47.05294],[-55.44691,47.03495],[-55.43376,47.03477],[-55.43323,47.05276],[-55.43981,47.05285],[-55.43955,47.06185],[-55.43297,47.06176],[-55.4327,47.07075],[-55.42612,47.07066],[-55.42585,47.07966],[-55.41269,47.07948],[-55.41282,47.07498],[-55.40624,47.07489],[-55.40637,47.07039],[-55.39979,47.0703],[-55.401,47.02982],[-55.40758,47.02991],[-55.40771,47.02541],[-55.41429,47.0255],[-55.41455,47.01651],[-55.40798,47.01642],[-55.40824,47.00742],[-55.42797,47.0077],[-55.4281,47.0032],[-55.44783,47.00347],[-55.44796,46.99897],[-55.4611,46.99915],[-55.46097,47.00364],[-55.52672,47.00451],[-55.52635,47.018]]]}},{"type":"Feature","properties":{"c":"039648M","o":"98375 NEWFOUNDLAND & LABRADOR INC.","e":"2030-09-26"},"geometry":{"type":"Polygon","coordinates":[[[-56.0041,47.50457],[-55.99083,47.50446],[-55.99091,47.49996],[-56.00419,47.50008],[-56.0041,47.50457]]]}},{"type":"Feature","properties":{"c":"040189M","o":"George Lannon","e":"2031-02-12"},"geometry":{"type":"Polygon","coordinates":[[[-55.7349,47.10149],[-55.72173,47.10134],[-55.72162,47.10584],[-55.71503,47.10577],[-55.71525,47.09677],[-55.73501,47.09699],[-55.7349,47.10149]]]}},{"type":"Feature","properties":{"c":"041371M","o":"Karen Huebner-Thompson","e":""},"geometry":{"type":"Polygon","coordinates":[[[-55.90839,46.99529],[-55.90181,46.99522],[-55.90172,46.99972],[-55.89515,46.99966],[-55.89505,47.00416],[-55.88848,47.00409],[-55.88838,47.00859],[-55.88181,47.00853],[-55.88199,46.99953],[-55.88857,46.99959],[-55.88876,46.9906],[-55.89533,46.99066],[-55.89542,46.98616],[-55.90857,46.98629],[-55.90839,46.99529]]]}}]}