{"type":"FeatureCollection","features":[{"type":"Feature","properties":{"c":"039649M","o":"Gregory Matheson","e":"2030-09-27"},"geometry":{"type":"Polygon","coordinates":[[[-55.0,52.0],[-55.0,51.0],[-56.0,52.0],[-55.0,52.0]]]}},{"type":"Feature","properties":{"c":"039652M","o":"Gregory Matheson","e":"2030-09-27"},"geometry":{"type":"Polygon","coordinates":[[[-56.0,51.0],[-56.0,52.0],[-56.0,52.0],[-56.0,51.0]]]}},{"type":"Feature","properties":{"c":"039653M","o":"Gregory Matheson","e":"2030-09-27"},"geometry":{"type":"Polygon","coordinates":[[[-56.0,51.0],[-56.0,51.0],[-56.0,52.0],[-56.0,51.0]]]}},{"type":"Feature","properties":{"c":"040619M","o":"Luma Hydrogen Corp","e":"2031-04-18"},"geometry":{"type":"Polygon","coordinates":[[[-56.0,51.0],[-56.0,52.0],[-56.0,52.0],[-56.0,51.0]]]}}]}