{"type":"FeatureCollection","features":[{"type":"Feature","properties":{"c":"039552M","o":"Chad Wellman","e":"2030-09-02"},"geometry":{"type":"Polygon","coordinates":[[[-56.9492,51.83977],[-56.94919,51.84426],[-56.94194,51.84426],[-56.93468,51.84426],[-56.93469,51.83976],[-56.93469,51.83527],[-56.94195,51.83527],[-56.94921,51.83527],[-56.9492,51.83977]]]}},{"type":"Feature","properties":{"c":"040622M","o":"Chad Wellman","e":"2031-04-18"},"geometry":{"type":"Polygon","coordinates":[[[-56.9131,51.74534],[-56.91309,51.74983],[-56.90584,51.74983],[-56.8986,51.74982],[-56.89861,51.74533],[-56.89862,51.74083],[-56.90586,51.74084],[-56.9131,51.74084],[-56.9131,51.74534]]]}},{"type":"Feature","properties":{"c":"040625M","o":"Chad Wellman","e":"2031-04-18"},"geometry":{"type":"Polygon","coordinates":[[[-56.99272,51.95666],[-56.99272,51.96116],[-56.98545,51.96116],[-56.97817,51.96116],[-56.97817,51.95666],[-56.97817,51.95217],[-56.98545,51.95217],[-56.99272,51.95217],[-56.99272,51.95666]]]}},{"type":"Feature","properties":{"c":"040626M","o":"Chad Wellman","e":"2031-04-18"},"geometry":{"type":"Polygon","coordinates":[[[-57.0,51.98364],[-57.0,51.98813],[-56.99272,51.98813],[-56.98544,51.98813],[-56.98544,51.98363],[-56.98544,51.97914],[-56.99272,51.97914],[-57.0,51.97914],[-57.0,51.98364]]]}}]}