{"type":"FeatureCollection","features":[{"type":"Feature","properties":{"c":"039445M","o":"Wayde Guinchard","e":"2030-08-06"},"geometry":{"type":"Polygon","coordinates":[[[-57.0,51.0],[-57.0,51.0],[-57.0,51.0],[-57.0,51.0]]]}},{"type":"Feature","properties":{"c":"039802M","o":"MONTY GOULD","e":"2030-11-16"},"geometry":{"type":"Polygon","coordinates":[[[-57.0,51.0],[-57.0,51.0],[-57.0,51.0],[-57.0,51.0]]]}},{"type":"Feature","properties":{"c":"039856M","o":"Dololimestone Resources NL Corp.","e":"2030-12-04"},"geometry":{"type":"Polygon","coordinates":[[[-57.0,51.0],[-57.0,51.0],[-57.0,51.0],[-57.0,51.0]]]}},{"type":"Feature","properties":{"c":"039857M","o":"Dololimestone Resources NL Corp.","e":"2030-12-04"},"geometry":{"type":"Polygon","coordinates":[[[-57.0,51.0],[-57.0,51.0],[-57.0,51.0],[-57.0,51.0]]]}},{"type":"Feature","properties":{"c":"039858M","o":"Dololimestone Resources NL Corp.","e":"2030-12-04"},"geometry":{"type":"Polygon","coordinates":[[[-57.0,51.0],[-57.0,51.0],[-57.0,51.0],[-57.0,51.0]]]}},{"type":"Feature","properties":{"c":"039865M","o":"Dololimestone Resources NL Corp.","e":"2030-12-07"},"geometry":{"type":"Polygon","coordinates":[[[-57.0,51.0],[-57.0,51.0],[-57.0,51.0],[-57.0,51.0]]]}},{"type":"Feature","properties":{"c":"039866M","o":"Dololimestone Resources NL Corp.","e":"2030-12-07"},"geometry":{"type":"Polygon","coordinates":[[[-57.0,51.0],[-57.0,51.0],[-57.0,51.0],[-57.0,51.0]]]}},{"type":"Feature","properties":{"c":"039867M","o":"Dololimestone Resources NL Corp.","e":"2030-12-07"},"geometry":{"type":"Polygon","coordinates":[[[-57.0,51.0],[-57.0,51.0],[-57.0,51.0],[-57.0,51.0]]]}},{"type":"Feature","properties":{"c":"039868M","o":"Dololimestone Resources NL Corp.","e":"2030-12-07"},"geometry":{"type":"Polygon","coordinates":[[[-57.0,51.0],[-57.0,51.0],[-57.0,51.0],[-57.0,51.0]]]}},{"type":"Feature","properties":{"c":"039932M","o":"Dololimestone Resources NL Corp.","e":"2030-12-26"},"geometry":{"type":"Polygon","coordinates":[[[-57.0,51.0],[-57.0,51.0],[-57.0,51.0],[-57.0,51.0]]]}},{"type":"Feature","properties":{"c":"039933M","o":"Dololimestone Resources NL Corp.","e":"2030-12-26"},"geometry":{"type":"Polygon","coordinates":[[[-57.0,51.0],[-57.0,51.0],[-57.0,51.0],[-57.0,51.0]]]}},{"type":"Feature","properties":{"c":"039934M","o":"Dololimestone Resources NL Corp.","e":"2030-12-26"},"geometry":{"type":"Polygon","coordinates":[[[-57.0,51.0],[-57.0,51.0],[-57.0,51.0],[-57.0,51.0]]]}},{"type":"Feature","properties":{"c":"040130M","o":"Dololimestone Resources NL Corp.","e":"2031-02-09"},"geometry":{"type":"Polygon","coordinates":[[[-57.0,51.0],[-57.0,51.0],[-57.0,51.0],[-57.0,51.0]]]}},{"type":"Feature","properties":{"c":"040278M","o":"Dololimestone Resources NL Corp.","e":"2031-03-17"},"geometry":{"type":"Polygon","coordinates":[[[-57.0,51.0],[-57.0,51.0],[-57.0,51.0],[-57.0,51.0]]]}},{"type":"Feature","properties":{"c":"040871M","o":"Stares Contracting Corp.","e":"2031-06-04"},"geometry":{"type":"Polygon","coordinates":[[[-57.0,51.0],[-57.0,51.0],[-57.0,51.0],[-57.0,51.0]]]}},{"type":"Feature","properties":{"c":"041134M","o":"Dololimestone Resources NL Corp.","e":"2031-08-03"},"geometry":{"type":"Polygon","coordinates":[[[-57.0,51.0],[-57.0,51.0],[-57.0,51.0],[-57.0,51.0]]]}},{"type":"Feature","properties":{"c":"041135M","o":"Dololimestone Resources NL Corp.","e":"2031-08-03"},"geometry":{"type":"Polygon","coordinates":[[[-57.0,51.0],[-57.0,51.0],[-57.0,51.0],[-57.0,51.0]]]}},{"type":"Feature","properties":{"c":"041136M","o":"Dololimestone Resources NL Corp.","e":"2031-08-03"},"geometry":{"type":"Polygon","coordinates":[[[-57.0,51.0],[-57.0,51.0],[-57.0,51.0],[-57.0,51.0]]]}}]}