{"type":"FeatureCollection","features":[{"type":"Feature","properties":{"c":"019689M","o":"Magna Terra Minerals Inc.","e":"2026-11-23"},"geometry":{"type":"Polygon","coordinates":[[[-57.0,50.0],[-57.0,50.0],[-57.0,50.0],[-57.0,50.0]]]}},{"type":"Feature","properties":{"c":"023770M","o":"Magna Terra Minerals Inc.","e":"2031-02-28"},"geometry":{"type":"Polygon","coordinates":[[[-57.0,50.0],[-57.0,50.0],[-57.0,50.0],[-57.0,50.0]]]}},{"type":"Feature","properties":{"c":"023951M","o":"Long Range Exploration Corporation","e":"2031-05-19"},"geometry":{"type":"Polygon","coordinates":[[[-57.0,50.0],[-57.0,50.0],[-57.0,50.0],[-57.0,50.0]]]}},{"type":"Feature","properties":{"c":"027405M","o":"Long Range Exploration Corporation","e":"2030-12-24"},"geometry":{"type":"Polygon","coordinates":[[[-57.0,50.0],[-57.0,50.0],[-57.0,50.0],[-57.0,50.0]]]}},{"type":"Feature","properties":{"c":"026752M","o":"Evan Bailey","e":""},"geometry":{"type":"Polygon","coordinates":[[[-57.0,49.0],[-57.0,49.0],[-57.0,50.0],[-57.0,49.0]]]}},{"type":"Feature","properties":{"c":"027417M","o":"Long Range Exploration Corporation","e":"2029-10-25"},"geometry":{"type":"Polygon","coordinates":[[[-57.0,50.0],[-57.0,50.0],[-57.0,50.0],[-57.0,50.0]]]}},{"type":"Feature","properties":{"c":"027095M","o":"Gold Hunter Resources Inc","e":"2029-05-28"},"geometry":{"type":"Polygon","coordinates":[[[-57.0,50.0],[-57.0,50.0],[-57.0,50.0],[-57.0,50.0]]]}},{"type":"Feature","properties":{"c":"014079M","o":"Magna Terra Minerals Inc.","e":"2027-06-28"},"geometry":{"type":"Polygon","coordinates":[[[-57.0,50.0],[-57.0,50.0],[-57.0,50.0],[-57.0,50.0]]]}},{"type":"Feature","properties":{"c":"023774M","o":"Magna Terra Minerals Inc.","e":"2031-03-03"},"geometry":{"type":"Polygon","coordinates":[[[-57.0,50.0],[-57.0,50.0],[-57.0,50.0],[-57.0,50.0]]]}},{"type":"Feature","properties":{"c":"027290M","o":"Churchill Resources Incorporated","e":"2029-08-29"},"geometry":{"type":"Polygon","coordinates":[[[-57.0,50.0],[-57.0,50.0],[-57.0,50.0],[-57.0,50.0]]]}},{"type":"Feature","properties":{"c":"027096M","o":"Gold Hunter Resources Inc","e":"2029-05-28"},"geometry":{"type":"Polygon","coordinates":[[[-57.0,50.0],[-57.0,50.0],[-57.0,50.0],[-57.0,50.0]]]}},{"type":"Feature","properties":{"c":"027616M","o":"Churchill Resources Incorporated","e":"2030-01-30"},"geometry":{"type":"Polygon","coordinates":[[[-57.0,50.0],[-57.0,50.0],[-57.0,50.0],[-57.0,50.0]]]}},{"type":"Feature","properties":{"c":"027475M","o":"Tom McLennon","e":"2029-11-19"},"geometry":{"type":"Polygon","coordinates":[[[-57.0,50.0],[-57.0,50.0],[-57.0,50.0],[-57.0,50.0]]]}},{"type":"Feature","properties":{"c":"027495M","o":"Tom McLennon","e":"2029-12-04"},"geometry":{"type":"Polygon","coordinates":[[[-57.0,50.0],[-57.0,50.0],[-57.0,50.0],[-57.0,50.0]]]}},{"type":"Feature","properties":{"c":"030848M","o":"Long Range Exploration Corporation","e":"2030-05-23"},"geometry":{"type":"Polygon","coordinates":[[[-57.0,50.0],[-57.0,50.0],[-57.0,50.0],[-57.0,50.0]]]}},{"type":"Feature","properties":{"c":"030849M","o":"Long Range Exploration Corporation","e":"2030-05-23"},"geometry":{"type":"Polygon","coordinates":[[[-57.0,50.0],[-57.0,50.0],[-57.0,50.0],[-57.0,50.0]]]}},{"type":"Feature","properties":{"c":"030958M","o":"Magna Terra Minerals Inc.","e":"2030-08-01"},"geometry":{"type":"Polygon","coordinates":[[[-57.0,50.0],[-57.0,50.0],[-57.0,50.0],[-57.0,50.0]]]}},{"type":"Feature","properties":{"c":"031204M","o":"Magna Terra Minerals Inc.","e":"2030-09-16"},"geometry":{"type":"Polygon","coordinates":[[[-57.0,50.0],[-57.0,50.0],[-57.0,50.0],[-57.0,50.0]]]}},{"type":"Feature","properties":{"c":"031276M","o":"Long Range Exploration Corporation","e":"2030-10-08"},"geometry":{"type":"Polygon","coordinates":[[[-57.0,50.0],[-57.0,50.0],[-57.0,50.0],[-57.0,50.0]]]}},{"type":"Feature","properties":{"c":"031280M","o":"Gold Hunter Resources Inc","e":"2030-10-11"},"geometry":{"type":"Polygon","coordinates":[[[-57.0,50.0],[-57.0,50.0],[-57.0,50.0],[-57.0,50.0]]]}},{"type":"Feature","properties":{"c":"031281M","o":"Gold Hunter Resources Inc","e":"2030-10-11"},"geometry":{"type":"Polygon","coordinates":[[[-57.0,50.0],[-57.0,50.0],[-57.0,50.0],[-57.0,50.0]]]}},{"type":"Feature","properties":{"c":"031291M","o":"Gold Hunter Resources Inc","e":"2030-10-14"},"geometry":{"type":"Polygon","coordinates":[[[-57.0,50.0],[-57.0,50.0],[-57.0,50.0],[-57.0,50.0]]]}},{"type":"Feature","properties":{"c":"031416M","o":"Gold Hunter Resources Inc","e":"2030-11-08"},"geometry":{"type":"Polygon","coordinates":[[[-57.0,50.0],[-57.0,50.0],[-57.0,50.0],[-57.0,50.0]]]}},{"type":"Feature","properties":{"c":"031417M","o":"Gold Hunter Resources Inc","e":"2030-11-08"},"geometry":{"type":"Polygon","coordinates":[[[-57.0,50.0],[-57.0,50.0],[-57.0,50.0],[-57.0,50.0]]]}},{"type":"Feature","properties":{"c":"031418M","o":"Gold Hunter Resources Inc","e":"2030-11-08"},"geometry":{"type":"Polygon","coordinates":[[[-57.0,50.0],[-57.0,50.0],[-57.0,50.0],[-57.0,50.0]]]}},{"type":"Feature","properties":{"c":"031515M","o":"Fishhawk Gold Corp.","e":"2030-11-21"},"geometry":{"type":"Polygon","coordinates":[[[-57.0,50.0],[-57.0,50.0],[-57.0,50.0],[-57.0,50.0]]]}},{"type":"Feature","properties":{"c":"031989M","o":"Gold Hunter Resources Inc","e":"2031-02-04"},"geometry":{"type":"Polygon","coordinates":[[[-57.0,50.0],[-57.0,50.0],[-57.0,50.0],[-57.0,50.0]]]}},{"type":"Feature","properties":{"c":"022503M","o":"Magna Terra Minerals Inc.","e":"2031-01-21"},"geometry":{"type":"Polygon","coordinates":[[[-57.0,50.0],[-57.0,50.0],[-57.0,50.0],[-57.0,50.0]]]}},{"type":"Feature","properties":{"c":"023280M","o":"Magna Terra Minerals Inc.","e":"2026-11-16"},"geometry":{"type":"Polygon","coordinates":[[[-57.0,50.0],[-57.0,50.0],[-57.0,50.0],[-57.0,50.0]]]}},{"type":"Feature","properties":{"c":"032488M","o":"Churchill Resources Incorporated","e":"2031-05-26"},"geometry":{"type":"Polygon","coordinates":[[[-57.0,50.0],[-57.0,50.0],[-57.0,50.0],[-57.0,50.0]],[[-57.0,50.0],[-57.0,50.0],[-57.0,50.0],[-57.0,50.0]]]}},{"type":"Feature","properties":{"c":"032996M","o":"Gold Hunter Resources Inc","e":"2031-07-02"},"geometry":{"type":"Polygon","coordinates":[[[-57.0,50.0],[-57.0,50.0],[-57.0,50.0],[-57.0,50.0]]]}},{"type":"Feature","properties":{"c":"033160M","o":"Gold Hunter Resources Inc","e":"2031-07-25"},"geometry":{"type":"Polygon","coordinates":[[[-57.0,50.0],[-57.0,50.0],[-57.0,50.0],[-57.0,50.0]]]}},{"type":"Feature","properties":{"c":"033255M","o":"Churchill Resources Incorporated","e":"2031-08-14"},"geometry":{"type":"Polygon","coordinates":[[[-57.0,50.0],[-57.0,50.0],[-57.0,50.0],[-57.0,50.0]]]}},{"type":"Feature","properties":{"c":"033256M","o":"Churchill Resources Incorporated","e":"2031-08-14"},"geometry":{"type":"Polygon","coordinates":[[[-57.0,50.0],[-57.0,50.0],[-57.0,50.0],[-57.0,50.0]]]}},{"type":"Feature","properties":{"c":"034161M","o":"Long Range Exploration Corporation","e":"2027-03-31"},"geometry":{"type":"Polygon","coordinates":[[[-57.0,50.0],[-57.0,50.0],[-57.0,50.0],[-57.0,50.0]]]}},{"type":"Feature","properties":{"c":"034162M","o":"Fishhawk Gold Corp.","e":"2027-03-31"},"geometry":{"type":"Polygon","coordinates":[[[-57.0,50.0],[-57.0,50.0],[-57.0,50.0],[-57.0,50.0]]]}},{"type":"Feature","properties":{"c":"034257M","o":"Churchill Resources Incorporated","e":"2027-04-13"},"geometry":{"type":"Polygon","coordinates":[[[-57.0,50.0],[-57.0,50.0],[-57.0,50.0],[-57.0,50.0]]]}},{"type":"Feature","properties":{"c":"034282M","o":"1470199 B.C. Ltd.","e":"2027-04-14"},"geometry":{"type":"Polygon","coordinates":[[[-57.0,50.0],[-56.0,50.0],[-57.0,50.0],[-57.0,50.0]]]}},{"type":"Feature","properties":{"c":"035025M","o":"Fishhawk Gold Corp.","e":"2028-12-22"},"geometry":{"type":"Polygon","coordinates":[[[-57.0,50.0],[-57.0,50.0],[-57.0,50.0],[-57.0,50.0]]]}},{"type":"Feature","properties":{"c":"035026M","o":"Fishhawk Gold Corp.","e":"2028-11-27"},"geometry":{"type":"Polygon","coordinates":[[[-57.0,50.0],[-57.0,50.0],[-57.0,50.0],[-57.0,50.0]]]}},{"type":"Feature","properties":{"c":"035027M","o":"Fishhawk Gold Corp.","e":"2030-11-21"},"geometry":{"type":"Polygon","coordinates":[[[-57.0,50.0],[-57.0,50.0],[-57.0,50.0],[-57.0,50.0]]]}},{"type":"Feature","properties":{"c":"035324M","o":"Fishhawk Gold Corp.","e":"2030-12-12"},"geometry":{"type":"Polygon","coordinates":[[[-57.0,50.0],[-57.0,50.0],[-57.0,50.0],[-57.0,50.0]]]}},{"type":"Feature","properties":{"c":"035507M","o":"Ubique Minerals Ltd.","e":"2028-02-16"},"geometry":{"type":"Polygon","coordinates":[[[-58.0,50.0],[-57.0,50.0],[-57.0,50.0],[-58.0,50.0]]]}},{"type":"Feature","properties":{"c":"035680M","o":"Gold Hunter Resources Inc","e":"2028-03-16"},"geometry":{"type":"Polygon","coordinates":[[[-57.0,50.0],[-57.0,50.0],[-57.0,50.0],[-57.0,50.0]]]}},{"type":"Feature","properties":{"c":"035693M","o":"Long Range Exploration Corporation","e":"2028-03-16"},"geometry":{"type":"Polygon","coordinates":[[[-57.0,50.0],[-57.0,50.0],[-57.0,50.0],[-57.0,50.0]]]}},{"type":"Feature","properties":{"c":"035700M","o":"Gold Hunter Resources Inc","e":"2028-03-16"},"geometry":{"type":"Polygon","coordinates":[[[-57.0,50.0],[-57.0,50.0],[-57.0,50.0],[-57.0,50.0]]]}},{"type":"Feature","properties":{"c":"036010M","o":"Fishhawk Gold Corp.","e":"2028-04-28"},"geometry":{"type":"Polygon","coordinates":[[[-57.0,50.0],[-57.0,50.0],[-57.0,50.0],[-57.0,50.0]]]}},{"type":"Feature","properties":{"c":"036081M","o":"Mike Noseworthy","e":"2028-05-25"},"geometry":{"type":"Polygon","coordinates":[[[-57.0,50.0],[-57.0,50.0],[-57.0,50.0],[-57.0,50.0]]]}},{"type":"Feature","properties":{"c":"036234M","o":"Long Range Exploration Corporation","e":"2028-07-13"},"geometry":{"type":"Polygon","coordinates":[[[-57.0,50.0],[-57.0,50.0],[-57.0,50.0],[-57.0,50.0]]]}},{"type":"Feature","properties":{"c":"036249M","o":"Magna Terra Minerals Inc.","e":"2031-01-03"},"geometry":{"type":"Polygon","coordinates":[[[-57.0,50.0],[-57.0,50.0],[-57.0,50.0],[-57.0,50.0]]]}},{"type":"Feature","properties":{"c":"036566M","o":"Gold Hunter Resources Inc","e":"2028-09-28"},"geometry":{"type":"Polygon","coordinates":[[[-57.0,50.0],[-57.0,50.0],[-57.0,50.0],[-57.0,50.0]]]}},{"type":"Feature","properties":{"c":"036568M","o":"Ubique Minerals Ltd.","e":"2028-09-28"},"geometry":{"type":"Polygon","coordinates":[[[-57.0,50.0],[-57.0,50.0],[-57.0,50.0],[-57.0,50.0]]]}},{"type":"Feature","properties":{"c":"036577M","o":"Gold Hunter Resources Inc","e":"2028-09-28"},"geometry":{"type":"Polygon","coordinates":[[[-57.0,50.0],[-57.0,50.0],[-57.0,50.0],[-57.0,50.0]]]}},{"type":"Feature","properties":{"c":"036580M","o":"Gold Hunter Resources Inc","e":"2028-09-28"},"geometry":{"type":"Polygon","coordinates":[[[-57.0,50.0],[-57.0,50.0],[-57.0,50.0],[-57.0,50.0]]]}},{"type":"Feature","properties":{"c":"036634M","o":"Gold Hunter Resources Inc","e":"2028-10-19"},"geometry":{"type":"Polygon","coordinates":[[[-57.0,50.0],[-57.0,50.0],[-57.0,50.0],[-57.0,50.0]]]}},{"type":"Feature","properties":{"c":"036668M","o":"Mike Noseworthy","e":"2028-10-26"},"geometry":{"type":"Polygon","coordinates":[[[-57.0,50.0],[-57.0,50.0],[-57.0,50.0],[-57.0,50.0]]]}},{"type":"Feature","properties":{"c":"036674M","o":"Gold Hunter Resources Inc","e":"2028-10-26"},"geometry":{"type":"Polygon","coordinates":[[[-57.0,50.0],[-57.0,50.0],[-57.0,50.0],[-57.0,50.0]]]}},{"type":"Feature","properties":{"c":"036685M","o":"Infini Newfoundland and Labrador Ltd.","e":"2028-11-03"},"geometry":{"type":"Polygon","coordinates":[[[-57.0,50.0],[-57.0,50.0],[-57.0,50.0],[-57.0,50.0]]]}},{"type":"Feature","properties":{"c":"036708M","o":"Gold Hunter Resources Inc","e":"2028-11-02"},"geometry":{"type":"Polygon","coordinates":[[[-57.0,50.0],[-57.0,50.0],[-57.0,50.0],[-57.0,50.0]]]}},{"type":"Feature","properties":{"c":"036831M","o":"Infini Newfoundland and Labrador Ltd.","e":"2028-12-02"},"geometry":{"type":"Polygon","coordinates":[[[-58.0,50.0],[-57.0,50.0],[-57.0,50.0],[-58.0,50.0]]]}},{"type":"Feature","properties":{"c":"036832M","o":"Infini Newfoundland and Labrador Ltd.","e":"2028-12-02"},"geometry":{"type":"Polygon","coordinates":[[[-57.0,50.0],[-57.0,50.0],[-57.0,50.0],[-57.0,50.0]]]}},{"type":"Feature","properties":{"c":"037495M","o":"Infini Newfoundland and Labrador Ltd.","e":"2029-03-14"},"geometry":{"type":"Polygon","coordinates":[[[-57.0,50.0],[-57.0,50.0],[-57.0,50.0],[-57.0,50.0]]]}},{"type":"Feature","properties":{"c":"037496M","o":"Infini Newfoundland and Labrador Ltd.","e":"2029-03-14"},"geometry":{"type":"Polygon","coordinates":[[[-57.0,50.0],[-57.0,50.0],[-57.0,50.0],[-57.0,50.0]]]}},{"type":"Feature","properties":{"c":"037553M","o":"Magna Terra Minerals Inc.","e":"2029-03-23"},"geometry":{"type":"Polygon","coordinates":[[[-57.0,50.0],[-57.0,50.0],[-57.0,50.0],[-57.0,50.0]]]}},{"type":"Feature","properties":{"c":"037921M","o":"Magna Terra Minerals Inc.","e":"2029-06-17"},"geometry":{"type":"Polygon","coordinates":[[[-57.0,50.0],[-57.0,50.0],[-57.0,50.0],[-57.0,50.0]]]}},{"type":"Feature","properties":{"c":"037922M","o":"Magna Terra Minerals Inc.","e":"2029-06-17"},"geometry":{"type":"Polygon","coordinates":[[[-57.0,50.0],[-57.0,50.0],[-57.0,50.0],[-57.0,50.0]]]}},{"type":"Feature","properties":{"c":"038117M","o":"Maritime Resources Corp.","e":"2029-02-05"},"geometry":{"type":"Polygon","coordinates":[[[-56.0,50.0],[-56.0,49.0],[-57.0,49.0],[-56.0,50.0]]]}},{"type":"Feature","properties":{"c":"038122M","o":"Gold Hunter Resources Inc","e":"2029-08-08"},"geometry":{"type":"Polygon","coordinates":[[[-57.0,50.0],[-57.0,50.0],[-57.0,50.0],[-57.0,50.0]]]}},{"type":"Feature","properties":{"c":"038134M","o":"1491071 B.C. LTD","e":"2029-08-09"},"geometry":{"type":"Polygon","coordinates":[[[-57.0,50.0],[-57.0,50.0],[-57.0,50.0],[-57.0,50.0]]]}},{"type":"Feature","properties":{"c":"038218M","o":"Darrin Hicks","e":"2029-08-22"},"geometry":{"type":"Polygon","coordinates":[[[-57.0,50.0],[-57.0,50.0],[-57.0,50.0],[-57.0,50.0]]]}},{"type":"Feature","properties":{"c":"038316M","o":"Gold Hunter Resources Inc","e":"2029-09-12"},"geometry":{"type":"Polygon","coordinates":[[[-57.0,50.0],[-57.0,50.0],[-57.0,50.0],[-57.0,50.0]]]}},{"type":"Feature","properties":{"c":"038418M","o":"Mike Noseworthy","e":"2029-10-19"},"geometry":{"type":"Polygon","coordinates":[[[-57.0,50.0],[-57.0,50.0],[-57.0,50.0],[-57.0,50.0]]]}},{"type":"Feature","properties":{"c":"038419M","o":"Mike Noseworthy","e":"2029-10-19"},"geometry":{"type":"Polygon","coordinates":[[[-57.0,50.0],[-57.0,50.0],[-57.0,50.0],[-57.0,50.0]]]}},{"type":"Feature","properties":{"c":"038420M","o":"Mike Noseworthy","e":"2029-10-19"},"geometry":{"type":"Polygon","coordinates":[[[-57.0,50.0],[-57.0,50.0],[-57.0,50.0],[-57.0,50.0]]]}},{"type":"Feature","properties":{"c":"038421M","o":"Mike Noseworthy","e":"2029-10-19"},"geometry":{"type":"Polygon","coordinates":[[[-57.0,50.0],[-57.0,50.0],[-57.0,50.0],[-57.0,50.0]]]}},{"type":"Feature","properties":{"c":"026955M","o":"Churchill Resources Incorporated","e":"2029-03-12"},"geometry":{"type":"Polygon","coordinates":[[[-57.0,50.0],[-57.0,50.0],[-57.0,50.0],[-57.0,50.0]]]}},{"type":"Feature","properties":{"c":"038783M","o":"Magna Terra Minerals Inc.","e":"2030-11-19"},"geometry":{"type":"Polygon","coordinates":[[[-57.0,50.0],[-57.0,50.0],[-57.0,50.0],[-57.0,50.0]],[[-57.0,50.0],[-57.0,50.0],[-57.0,50.0],[-57.0,50.0]]]}},{"type":"Feature","properties":{"c":"038922M","o":"Pirate Gold Corp.","e":"2031-03-12"},"geometry":{"type":"Polygon","coordinates":[[[-57.0,50.0],[-57.0,50.0],[-57.0,50.0],[-57.0,50.0]]]}},{"type":"Feature","properties":{"c":"038929M","o":"Pirate Gold Corp.","e":"2031-03-12"},"geometry":{"type":"Polygon","coordinates":[[[-57.0,50.0],[-56.0,50.0],[-56.0,50.0],[-57.0,50.0]]]}},{"type":"Feature","properties":{"c":"039035M","o":"Gold Hunter Resources Inc","e":"2030-04-03"},"geometry":{"type":"Polygon","coordinates":[[[-57.0,50.0],[-57.0,50.0],[-57.0,50.0],[-57.0,50.0]]]}},{"type":"Feature","properties":{"c":"039038M","o":"Gold Hunter Resources Inc","e":"2030-04-03"},"geometry":{"type":"Polygon","coordinates":[[[-57.0,50.0],[-57.0,50.0],[-57.0,50.0],[-57.0,50.0]]]}},{"type":"Feature","properties":{"c":"039045M","o":"Kirby House","e":"2030-04-03"},"geometry":{"type":"Polygon","coordinates":[[[-57.0,50.0],[-57.0,50.0],[-57.0,50.0],[-57.0,50.0]]]}},{"type":"Feature","properties":{"c":"039055M","o":"Gold Hunter Resources Inc","e":"2030-04-03"},"geometry":{"type":"Polygon","coordinates":[[[-57.0,50.0],[-57.0,50.0],[-57.0,50.0],[-57.0,50.0]]]}},{"type":"Feature","properties":{"c":"039351M","o":"FPX Nickel Corp","e":"2030-06-26"},"geometry":{"type":"Polygon","coordinates":[[[-57.0,50.0],[-56.0,50.0],[-57.0,50.0],[-57.0,50.0]]]}},{"type":"Feature","properties":{"c":"039366M","o":"FPX Nickel Corp","e":"2030-06-26"},"geometry":{"type":"Polygon","coordinates":[[[-57.0,50.0],[-57.0,50.0],[-57.0,50.0],[-57.0,50.0]]]}},{"type":"Feature","properties":{"c":"039444M","o":"Mike Noseworthy","e":"2030-08-05"},"geometry":{"type":"Polygon","coordinates":[[[-57.0,50.0],[-57.0,50.0],[-57.0,50.0],[-57.0,50.0]]]}},{"type":"Feature","properties":{"c":"039633M","o":"Cameron Hicks","e":"2030-09-19"},"geometry":{"type":"Polygon","coordinates":[[[-57.0,50.0],[-57.0,50.0],[-57.0,50.0],[-57.0,50.0]]]}},{"type":"Feature","properties":{"c":"039710M","o":"Deepak Varshney","e":"2030-10-23"},"geometry":{"type":"Polygon","coordinates":[[[-57.0,50.0],[-57.0,50.0],[-57.0,50.0],[-57.0,50.0]]]}},{"type":"Feature","properties":{"c":"039752M","o":"Infini Newfoundland and Labrador Ltd.","e":"2030-11-07"},"geometry":{"type":"Polygon","coordinates":[[[-57.0,50.0],[-57.0,50.0],[-57.0,50.0],[-57.0,50.0]]]}},{"type":"Feature","properties":{"c":"039753M","o":"Infini Newfoundland and Labrador Ltd.","e":"2030-11-07"},"geometry":{"type":"Polygon","coordinates":[[[-57.0,50.0],[-57.0,50.0],[-57.0,50.0],[-57.0,50.0]]]}},{"type":"Feature","properties":{"c":"039754M","o":"Infini Newfoundland and Labrador Ltd.","e":"2030-11-07"},"geometry":{"type":"Polygon","coordinates":[[[-57.0,50.0],[-57.0,50.0],[-57.0,50.0],[-57.0,50.0]]]}},{"type":"Feature","properties":{"c":"039755M","o":"Infini Newfoundland and Labrador Ltd.","e":"2030-11-07"},"geometry":{"type":"Polygon","coordinates":[[[-58.0,50.0],[-57.0,50.0],[-58.0,50.0],[-58.0,50.0]]]}},{"type":"Feature","properties":{"c":"040266M","o":"Shane Stares","e":"2031-03-12"},"geometry":{"type":"Polygon","coordinates":[[[-57.0,50.0],[-57.0,50.0],[-57.0,50.0],[-57.0,50.0]]]}},{"type":"Feature","properties":{"c":"040509M","o":"Infini Newfoundland and Labrador Ltd.","e":"2029-03-14"},"geometry":{"type":"Polygon","coordinates":[[[-57.0,50.0],[-57.0,50.0],[-57.0,50.0],[-57.0,50.0]]]}},{"type":"Feature","properties":{"c":"040510M","o":"Infini Newfoundland and Labrador Ltd.","e":"2029-03-14"},"geometry":{"type":"Polygon","coordinates":[[[-57.0,50.0],[-57.0,50.0],[-57.0,50.0],[-57.0,50.0]]]}},{"type":"Feature","properties":{"c":"040513M","o":"Sarah McBreairty","e":"2031-04-11"},"geometry":{"type":"Polygon","coordinates":[[[-57.0,50.0],[-57.0,50.0],[-57.0,50.0],[-57.0,50.0]]]}},{"type":"Feature","properties":{"c":"040541M","o":"Shoreline Exploration Inc.","e":"2031-07-16"},"geometry":{"type":"Polygon","coordinates":[[[-57.0,50.0],[-57.0,50.0],[-57.0,50.0],[-57.0,50.0]]]}},{"type":"Feature","properties":{"c":"040793M","o":"Mike Noseworthy","e":""},"geometry":{"type":"Polygon","coordinates":[[[-57.0,50.0],[-57.0,50.0],[-57.0,50.0],[-57.0,50.0]]]}},{"type":"Feature","properties":{"c":"040803M","o":"Mike Noseworthy","e":"2031-05-21"},"geometry":{"type":"Polygon","coordinates":[[[-57.0,50.0],[-57.0,50.0],[-57.0,50.0],[-57.0,50.0]]]}},{"type":"Feature","properties":{"c":"040909M","o":"FPX Nickel Corp","e":"2031-06-11"},"geometry":{"type":"Polygon","coordinates":[[[-57.0,50.0],[-56.0,50.0],[-57.0,50.0],[-57.0,50.0]],[[-57.0,50.0],[-57.0,50.0],[-57.0,50.0],[-57.0,50.0]],[[-57.0,50.0],[-57.0,50.0],[-57.0,50.0],[-57.0,50.0]]]}},{"type":"Feature","properties":{"c":"040980M","o":"Churchill Resources Incorporated","e":"2031-06-20"},"geometry":{"type":"Polygon","coordinates":[[[-57.0,50.0],[-57.0,50.0],[-57.0,50.0],[-57.0,50.0]]]}},{"type":"Feature","properties":{"c":"040820M","o":"Churchill Resources Incorporated","e":"2031-05-12"},"geometry":{"type":"Polygon","coordinates":[[[-57.0,50.0],[-57.0,50.0],[-57.0,50.0],[-57.0,50.0]]]}},{"type":"Feature","properties":{"c":"041006M","o":"Grassroots Prospecting and Prospect Generation Inc.","e":"2031-07-15"},"geometry":{"type":"Polygon","coordinates":[[[-57.0,50.0],[-57.0,50.0],[-57.0,50.0],[-57.0,50.0]]]}},{"type":"Feature","properties":{"c":"041007M","o":"Grassroots Prospecting and Prospect Generation Inc.","e":"2031-07-15"},"geometry":{"type":"Polygon","coordinates":[[[-57.0,50.0],[-57.0,50.0],[-57.0,50.0],[-57.0,50.0]]]}},{"type":"Feature","properties":{"c":"041028M","o":"Patrick House","e":"2031-07-16"},"geometry":{"type":"Polygon","coordinates":[[[-57.0,50.0],[-57.0,50.0],[-57.0,50.0],[-57.0,50.0]]]}},{"type":"Feature","properties":{"c":"041112M","o":"FPX Nickel Corp","e":"2031-07-30"},"geometry":{"type":"Polygon","coordinates":[[[-57.0,49.0],[-57.0,50.0],[-57.0,50.0],[-57.0,49.0]]]}},{"type":"Feature","properties":{"c":"041137M","o":"Jay Kinden","e":"2031-08-03"},"geometry":{"type":"Polygon","coordinates":[[[-57.0,50.0],[-57.0,50.0],[-57.0,50.0],[-57.0,50.0]]]}},{"type":"Feature","properties":{"c":"041138M","o":"Jay Kinden","e":"2031-08-04"},"geometry":{"type":"Polygon","coordinates":[[[-57.0,50.0],[-57.0,50.0],[-57.0,50.0],[-57.0,50.0]]]}},{"type":"Feature","properties":{"c":"041143M","o":"1563192 B.C. Ltd","e":"2031-08-22"},"geometry":{"type":"Polygon","coordinates":[[[-57.0,50.0],[-57.0,50.0],[-57.0,50.0],[-57.0,50.0]]]}},{"type":"Feature","properties":{"c":"041288M","o":"Mike Noseworthy","e":"2031-09-22"},"geometry":{"type":"Polygon","coordinates":[[[-57.0,50.0],[-57.0,50.0],[-57.0,50.0],[-57.0,50.0]]]}},{"type":"Feature","properties":{"c":"041324M","o":"Darrin Hicks","e":""},"geometry":{"type":"Polygon","coordinates":[[[-57.0,50.0],[-57.0,50.0],[-57.0,50.0],[-57.0,50.0]]]}}]}