{"type":"FeatureCollection","features":[{"type":"Feature","properties":{"c":"CDC-2868677","o":"14130219 Canada Inc. 100%","e":""},"geometry":{"type":"Polygon","coordinates":[[[-58.025,51.39167],[-58.01667,51.39167],[-58.01667,51.38333],[-58.025,51.38333],[-58.025,51.39167]]]}},{"type":"Feature","properties":{"c":"CDC-2868675","o":"14130219 Canada Inc. 100%","e":""},"geometry":{"type":"Polygon","coordinates":[[[-58.025,51.38333],[-58.01667,51.38333],[-58.01667,51.375],[-58.025,51.375],[-58.025,51.38333]]]}},{"type":"Feature","properties":{"c":"CDC-2868679","o":"14130219 Canada Inc. 100%","e":""},"geometry":{"type":"Polygon","coordinates":[[[-58.01667,51.4],[-58.00833,51.4],[-58.00833,51.39167],[-58.01667,51.39167],[-58.01667,51.4]]]}},{"type":"Feature","properties":{"c":"CDC-2868678","o":"14130219 Canada Inc. 100%","e":""},"geometry":{"type":"Polygon","coordinates":[[[-58.01667,51.39167],[-58.00833,51.39167],[-58.00833,51.38333],[-58.01667,51.38333],[-58.01667,51.39167]]]}},{"type":"Feature","properties":{"c":"CDC-2868676","o":"14130219 Canada Inc. 100%","e":""},"geometry":{"type":"Polygon","coordinates":[[[-58.01667,51.38333],[-58.00833,51.38333],[-58.00833,51.375],[-58.01667,51.375],[-58.01667,51.38333]]]}}]}