{"type":"FeatureCollection","features":[{"type":"Feature","properties":{"c":"032196M","o":"Stephen Stockley Agriculture and Fabrication Inc.","e":"2031-03-21"},"geometry":{"type":"Polygon","coordinates":[[[-59.34313,54.83292],[-59.32757,54.83322],[-59.32706,54.82424],[-59.34261,54.82394],[-59.34287,54.82843],[-59.34313,54.83292]]]}},{"type":"Feature","properties":{"c":"034752M","o":"Stephen Stockley Agriculture and Fabrication Inc.","e":"2027-06-28"},"geometry":{"type":"Polygon","coordinates":[[[-59.44831,54.89826],[-59.44052,54.89842],[-59.43997,54.88944],[-59.44776,54.88929],[-59.44803,54.89377],[-59.44831,54.89826]]]}},{"type":"Feature","properties":{"c":"034753M","o":"Stephen Stockley Agriculture and Fabrication Inc.","e":"2027-06-28"},"geometry":{"type":"Polygon","coordinates":[[[-59.48725,54.89747],[-59.47946,54.89763],[-59.47891,54.88865],[-59.4867,54.88849],[-59.48697,54.89298],[-59.48725,54.89747]]]}},{"type":"Feature","properties":{"c":"035399M","o":"Unity Resources Inc.","e":"2028-01-31"},"geometry":{"type":"Polygon","coordinates":[[[-59.33561,54.83756],[-59.32005,54.83786],[-59.31902,54.8199],[-59.3268,54.81975],[-59.32757,54.83322],[-59.33535,54.83307],[-59.33561,54.83756]]]}},{"type":"Feature","properties":{"c":"035406M","o":"Stephen Stockley Agriculture and Fabrication Inc.","e":"2028-01-31"},"geometry":{"type":"Polygon","coordinates":[[[-59.44912,54.91173],[-59.43354,54.91204],[-59.433,54.90307],[-59.44858,54.90275],[-59.44885,54.90724],[-59.44912,54.91173]]]}},{"type":"Feature","properties":{"c":"036606M","o":"Stephen Stockley Agriculture and Fabrication Inc.","e":"2028-10-11"},"geometry":{"type":"Polygon","coordinates":[[[-59.45637,54.9026],[-59.45664,54.90708],[-59.44885,54.90724],[-59.44858,54.90275],[-59.45637,54.9026]]]}},{"type":"Feature","properties":{"c":"037174M","o":"85893 Newfoundland & Labrador Inc.","e":"2029-02-06"},"geometry":{"type":"Polygon","coordinates":[[[-59.04286,54.59116],[-59.0274,54.59142],[-59.02762,54.59591],[-59.01989,54.59604],[-59.01944,54.58706],[-59.02718,54.58693],[-59.02695,54.58244],[-59.04242,54.58218],[-59.04264,54.58667],[-59.04286,54.59116]]]}},{"type":"Feature","properties":{"c":"037180M","o":"Nidon Enterprises Ltd.","e":"2029-02-06"},"geometry":{"type":"Polygon","coordinates":[[[-59.2369,54.60121],[-59.2137,54.60164],[-59.21346,54.59715],[-59.19026,54.59757],[-59.19002,54.59308],[-59.15909,54.59364],[-59.15885,54.58914],[-59.16658,54.58901],[-59.16634,54.58452],[-59.17407,54.58438],[-59.17383,54.57989],[-59.19702,54.57947],[-59.19678,54.57498],[-59.21224,54.5747],[-59.21297,54.58817],[-59.2207,54.58803],[-59.22094,54.59252],[-59.23641,54.59223],[-59.23665,54.59672],[-59.2369,54.60121]]]}},{"type":"Feature","properties":{"c":"037185M","o":"Stephen Stockley Agriculture and Fabrication Inc.","e":"2029-02-08"},"geometry":{"type":"Polygon","coordinates":[[[-59.44133,54.91189],[-59.4416,54.91638],[-59.43381,54.91653],[-59.43354,54.91204],[-59.44133,54.91189]]]}},{"type":"Feature","properties":{"c":"037186M","o":"Stephen Stockley Agriculture and Fabrication Inc.","e":"2029-02-08"},"geometry":{"type":"Polygon","coordinates":[[[-59.44912,54.91173],[-59.4494,54.91622],[-59.4416,54.91638],[-59.44133,54.91189],[-59.44912,54.91173]]]}},{"type":"Feature","properties":{"c":"037298M","o":"Stephen Stockley Agriculture and Fabrication Inc.","e":"2029-02-14"},"geometry":{"type":"Polygon","coordinates":[[[-59.34986,54.81481],[-59.35012,54.8193],[-59.34235,54.81945],[-59.34209,54.81496],[-59.34986,54.81481]]]}},{"type":"Feature","properties":{"c":"037518M","o":"Jenille Stockley","e":"2029-03-20"},"geometry":{"type":"Polygon","coordinates":[[[-59.35921,54.8416],[-59.31253,54.8425],[-59.31099,54.81556],[-59.33432,54.81511],[-59.33457,54.8196],[-59.31902,54.8199],[-59.32005,54.83786],[-59.33561,54.83756],[-59.35117,54.83726],[-59.34986,54.81481],[-59.35764,54.81466],[-59.35895,54.83711],[-59.35921,54.8416]]]}},{"type":"Feature","properties":{"c":"037826M","o":"Stephen Stockley Agriculture and Fabrication Inc.","e":"2029-06-06"},"geometry":{"type":"Polygon","coordinates":[[[-59.45664,54.90708],[-59.45691,54.91157],[-59.44912,54.91173],[-59.44885,54.90724],[-59.45664,54.90708]]]}},{"type":"Feature","properties":{"c":"037827M","o":"Stephen Stockley Agriculture and Fabrication Inc.","e":"2029-06-06"},"geometry":{"type":"Polygon","coordinates":[[[-59.45691,54.91157],[-59.45719,54.91606],[-59.4494,54.91622],[-59.44912,54.91173],[-59.45691,54.91157]]]}},{"type":"Feature","properties":{"c":"037299M","o":"Stephen Stockley Agriculture and Fabrication Inc.","e":"2029-02-14"},"geometry":{"type":"Polygon","coordinates":[[[-59.34209,54.81496],[-59.34235,54.81945],[-59.33457,54.8196],[-59.33432,54.81511],[-59.34209,54.81496]]]}},{"type":"Feature","properties":{"c":"040699M","o":"Paradigm Minerals Inc.","e":"2028-01-31"},"geometry":{"type":"Polygon","coordinates":[[[-59.47891,54.88865],[-59.47946,54.89763],[-59.47167,54.89779],[-59.4714,54.8933],[-59.45582,54.89362],[-59.45637,54.9026],[-59.44079,54.90291],[-59.44052,54.89842],[-59.44831,54.89826],[-59.44776,54.88929],[-59.47112,54.88881],[-59.47085,54.88432],[-59.49421,54.88385],[-59.49448,54.88833],[-59.47891,54.88865]]]}},{"type":"Feature","properties":{"c":"040709M","o":"Unity Resources Inc.","e":"2028-01-31"},"geometry":{"type":"Polygon","coordinates":[[[-59.35091,54.83277],[-59.34313,54.83292],[-59.34261,54.82394],[-59.32706,54.82424],[-59.3268,54.81975],[-59.35012,54.8193],[-59.35065,54.82828],[-59.35091,54.83277]]]}},{"type":"Feature","properties":{"c":"041164M","o":"Aurora Energy Ltd.","e":"2028-09-18"},"geometry":{"type":"Polygon","coordinates":[[[-59.48619,54.75366],[-59.48674,54.76264],[-59.46345,54.76312],[-59.46155,54.73169],[-59.45379,54.73185],[-59.45325,54.72287],[-59.48427,54.72224],[-59.48454,54.72673],[-59.53108,54.72577],[-59.53276,54.7527],[-59.48619,54.75366]]]}},{"type":"Feature","properties":{"c":"041173M","o":"Aurora Energy Ltd.","e":"2028-09-18"},"geometry":{"type":"Polygon","coordinates":[[[-59.54036,54.8739],[-59.54064,54.87839],[-59.47057,54.87983],[-59.47002,54.87086],[-59.49337,54.87038],[-59.49199,54.84793],[-59.49977,54.84777],[-59.49949,54.84328],[-59.50727,54.84312],[-59.50699,54.83864],[-59.53032,54.83815],[-59.53004,54.83366],[-59.55337,54.83317],[-59.55593,54.87357],[-59.54036,54.8739]]]}}]}