{"type":"FeatureCollection","features":[{"type":"Feature","properties":{"c":"09516A","o":"","e":"2027-01-19"},"geometry":{"type":"Polygon","coordinates":[[[-61.0,46.0],[-61.0,46.0],[-61.0,46.0],[-61.0,46.0],[-61.0,46.0],[-61.0,46.0],[-61.0,46.0],[-61.0,46.0],[-61.0,46.0],[-61.0,46.0],[-60.0,46.0],[-60.0,46.0],[-60.0,46.0],[-60.0,46.0],[-61.0,46.0],[-61.0,46.0],[-61.0,46.0],[-61.0,46.0],[-61.0,46.0],[-61.0,46.0],[-61.0,46.0]]]}},{"type":"Feature","properties":{"c":"53970","o":"","e":"2026-12-21"},"geometry":{"type":"Polygon","coordinates":[[[-61.0,46.0],[-61.0,46.0],[-61.0,46.0],[-61.0,46.0],[-61.0,46.0],[-61.0,46.0],[-61.0,46.0],[-61.0,46.0],[-61.0,46.0],[-61.0,46.0],[-61.0,46.0],[-61.0,46.0],[-61.0,46.0],[-61.0,46.0],[-61.0,46.0],[-61.0,46.0],[-61.0,46.0],[-61.0,46.0],[-61.0,46.0],[-61.0,46.0],[-61.0,46.0],[-61.0,46.0],[-61.0,46.0],[-61.0,46.0],[-61.0,46.0],[-61.0,46.0],[-61.0,46.0],[-61.0,46.0],[-61.0,46.0],[-61.0,46.0],[-61.0,46.0],[-61.0,46.0],[-61.0,46.0],[-61.0,46.0],[-61.0,46.0],[-61.0,46.0],[-61.0,46.0],[-61.0,46.0],[-61.0,46.0],[-61.0,46.0],[-61.0,46.0],[-61.0,46.0],[-61.0,46.0],[-60.0,46.0],[-60.0,46.0],[-60.0,46.0],[-60.0,46.0],[-60.0,46.0],[-60.0,46.0],[-60.0,46.0],[-61.0,46.0],[-61.0,46.0],[-61.0,46.0],[-61.0,46.0],[-61.0,46.0],[-61.0,46.0],[-61.0,46.0],[-61.0,46.0],[-61.0,46.0],[-61.0,46.0],[-61.0,46.0],[-61.0,46.0],[-61.0,46.0],[-61.0,46.0],[-61.0,46.0],[-61.0,46.0],[-61.0,46.0]]]}},{"type":"Feature","properties":{"c":"53971","o":"","e":"2026-12-21"},"geometry":{"type":"Polygon","coordinates":[[[-61.0,46.0],[-61.0,46.0],[-61.0,46.0],[-61.0,46.0],[-61.0,46.0],[-61.0,46.0],[-61.0,46.0],[-61.0,46.0],[-61.0,46.0],[-61.0,46.0],[-61.0,46.0],[-61.0,46.0],[-61.0,46.0],[-61.0,46.0],[-61.0,46.0],[-60.0,46.0],[-60.0,46.0],[-60.0,46.0],[-60.0,46.0],[-60.0,46.0],[-60.0,46.0],[-60.0,46.0],[-60.0,46.0],[-61.0,46.0],[-61.0,46.0],[-61.0,46.0],[-61.0,46.0],[-61.0,46.0],[-61.0,46.0],[-61.0,46.0],[-61.0,46.0],[-61.0,46.0],[-61.0,46.0]]]}},{"type":"Feature","properties":{"c":"57133","o":"","e":"2027-06-04"},"geometry":{"type":"Polygon","coordinates":[[[-61.0,46.0],[-61.0,46.0],[-61.0,46.0],[-60.0,46.0],[-60.0,46.0],[-61.0,46.0],[-61.0,46.0]]]}},{"type":"Feature","properties":{"c":"58025","o":"","e":"2028-04-01"},"geometry":{"type":"Polygon","coordinates":[[[-61.0,46.0],[-61.0,46.0],[-61.0,46.0],[-61.0,46.0],[-60.0,46.0],[-60.0,46.0],[-60.0,46.0],[-60.0,46.0],[-60.0,46.0],[-60.0,46.0],[-60.0,46.0],[-60.0,46.0],[-60.0,46.0],[-60.0,46.0],[-61.0,46.0],[-61.0,46.0],[-61.0,46.0]]]}}]}