{"type":"FeatureCollection","features":[{"type":"Feature","properties":{"c":"033783M","o":"Mark Stockley","e":"2026-12-31"},"geometry":{"type":"Polygon","coordinates":[[[-61.0,56.0],[-61.0,56.0],[-61.0,56.0],[-61.0,56.0]]]}},{"type":"Feature","properties":{"c":"033784M","o":"Mark Stockley","e":"2026-12-31"},"geometry":{"type":"Polygon","coordinates":[[[-61.0,56.0],[-61.0,56.0],[-61.0,56.0],[-61.0,56.0]]]}},{"type":"Feature","properties":{"c":"034725M","o":"Stephen Stockley Agriculture and Fabrication Inc.","e":"2027-06-23"},"geometry":{"type":"Polygon","coordinates":[[[-61.0,56.0],[-61.0,56.0],[-61.0,56.0],[-61.0,56.0]]]}},{"type":"Feature","properties":{"c":"038963M","o":"Catalyst Rare Metals Ltd.","e":"2027-01-10"},"geometry":{"type":"Polygon","coordinates":[[[-61.0,56.0],[-61.0,56.0],[-61.0,56.0],[-61.0,56.0]]]}},{"type":"Feature","properties":{"c":"039092M","o":"Saga Metals Corp.","e":"2030-04-10"},"geometry":{"type":"Polygon","coordinates":[[[-61.0,55.0],[-61.0,55.0],[-61.0,56.0],[-61.0,55.0]]]}},{"type":"Feature","properties":{"c":"040072M","o":"Katie Lewis","e":"2031-01-30"},"geometry":{"type":"Polygon","coordinates":[[[-61.0,56.0],[-61.0,56.0],[-61.0,56.0],[-61.0,56.0]]]}},{"type":"Feature","properties":{"c":"040275M","o":"Saga Metals Corp.","e":"2031-03-16"},"geometry":{"type":"Polygon","coordinates":[[[-61.0,56.0],[-61.0,56.0],[-61.0,56.0],[-61.0,56.0]]]}},{"type":"Feature","properties":{"c":"040276M","o":"Saga Metals Corp.","e":"2031-03-16"},"geometry":{"type":"Polygon","coordinates":[[[-61.0,56.0],[-61.0,56.0],[-61.0,56.0],[-61.0,56.0]]]}},{"type":"Feature","properties":{"c":"040754M","o":"Saga Metals Corp.","e":"2031-05-13"},"geometry":{"type":"Polygon","coordinates":[[[-61.0,56.0],[-61.0,55.0],[-61.0,56.0],[-61.0,56.0]]]}},{"type":"Feature","properties":{"c":"040981M","o":"Catalyst Rare Metals Ltd.","e":"2026-12-27"},"geometry":{"type":"Polygon","coordinates":[[[-61.0,56.0],[-61.0,56.0],[-61.0,56.0],[-61.0,56.0]]]}}]}