{"type":"FeatureCollection","features":[{"type":"Feature","properties":{"c":"CDC-2882653","o":"Jerry McCullough 100%","e":""},"geometry":{"type":"Polygon","coordinates":[[[-60.71667,50.21667],[-60.70833,50.21667],[-60.70833,50.20833],[-60.71667,50.20833],[-60.71667,50.21667]]]}},{"type":"Feature","properties":{"c":"CDC-2886464","o":"Jerry McCullough 100%","e":""},"geometry":{"type":"Polygon","coordinates":[[[-60.71667,50.20833],[-60.70833,50.20833],[-60.70833,50.2],[-60.71667,50.2],[-60.71667,50.20833]]]}},{"type":"Feature","properties":{"c":"CDC-2882227","o":"Jerry McCullough 100%","e":""},"geometry":{"type":"Polygon","coordinates":[[[-60.70833,50.24167],[-60.7,50.24167],[-60.7,50.23333],[-60.70833,50.23333],[-60.70833,50.24167]]]}},{"type":"Feature","properties":{"c":"CDC-2877226","o":"Jerry McCullough 100%","e":""},"geometry":{"type":"Polygon","coordinates":[[[-60.70833,50.23333],[-60.7,50.23333],[-60.7,50.225],[-60.70833,50.225],[-60.70833,50.23333]]]}},{"type":"Feature","properties":{"c":"CDC-2877221","o":"Jerry McCullough 100%","e":""},"geometry":{"type":"Polygon","coordinates":[[[-60.70833,50.225],[-60.7,50.225],[-60.7,50.21667],[-60.70833,50.21667],[-60.70833,50.225]]]}},{"type":"Feature","properties":{"c":"CDC-2882590","o":"Jerry McCullough 100%","e":""},"geometry":{"type":"Polygon","coordinates":[[[-60.70833,50.21667],[-60.7,50.21667],[-60.7,50.20833],[-60.70833,50.20833],[-60.70833,50.21667]]]}},{"type":"Feature","properties":{"c":"CDC-2886465","o":"Jerry McCullough 100%","e":""},"geometry":{"type":"Polygon","coordinates":[[[-60.70833,50.20833],[-60.7,50.20833],[-60.7,50.2],[-60.70833,50.2],[-60.70833,50.20833]]]}},{"type":"Feature","properties":{"c":"CDC-2881992","o":"Jerry McCullough 100%","e":""},"geometry":{"type":"Polygon","coordinates":[[[-60.7,50.24167],[-60.69167,50.24167],[-60.69167,50.23333],[-60.7,50.23333],[-60.7,50.24167]]]}},{"type":"Feature","properties":{"c":"CDC-2885735","o":"Jerry McCullough 100%","e":""},"geometry":{"type":"Polygon","coordinates":[[[-60.7,50.23333],[-60.69167,50.23333],[-60.69167,50.225],[-60.7,50.225],[-60.7,50.23333]]]}},{"type":"Feature","properties":{"c":"CDC-2877222","o":"Jerry McCullough 100%","e":""},"geometry":{"type":"Polygon","coordinates":[[[-60.7,50.225],[-60.69167,50.225],[-60.69167,50.21667],[-60.7,50.21667],[-60.7,50.225]]]}},{"type":"Feature","properties":{"c":"CDC-2881987","o":"Jerry McCullough 100%","e":""},"geometry":{"type":"Polygon","coordinates":[[[-60.7,50.21667],[-60.69167,50.21667],[-60.69167,50.20833],[-60.7,50.20833],[-60.7,50.21667]]]}},{"type":"Feature","properties":{"c":"BEX-1334","o":"Minist\u00e8re des Transports - Direction de la C\u00f4te-Nord 100%","e":""},"geometry":{"type":"Polygon","coordinates":[[[-60.68928,50.26162],[-60.68465,50.26153],[-60.68479,50.25883],[-60.68941,50.25893],[-60.68928,50.26162]]]}},{"type":"Feature","properties":{"c":"CDC-2886466","o":"Jerry McCullough 100%","e":""},"geometry":{"type":"Polygon","coordinates":[[[-60.75833,50.21667],[-60.75,50.21667],[-60.75,50.20833],[-60.75833,50.20833],[-60.75833,50.21667]]]}},{"type":"Feature","properties":{"c":"CDC-2881985","o":"Jerry McCullough 100%","e":""},"geometry":{"type":"Polygon","coordinates":[[[-60.75833,50.20833],[-60.75,50.20833],[-60.75,50.2],[-60.75833,50.2],[-60.75833,50.20833]]]}},{"type":"Feature","properties":{"c":"CDC-2877228","o":"Jerry McCullough 100%","e":""},"geometry":{"type":"Polygon","coordinates":[[[-60.75,50.24167],[-60.74167,50.24167],[-60.74167,50.23333],[-60.75,50.23333],[-60.75,50.24167]]]}},{"type":"Feature","properties":{"c":"CDC-2886457","o":"Jerry McCullough 100%","e":""},"geometry":{"type":"Polygon","coordinates":[[[-60.75833,50.19167],[-60.75,50.19167],[-60.75,50.18333],[-60.75833,50.18333],[-60.75833,50.19167]]]}},{"type":"Feature","properties":{"c":"CDC-2882591","o":"Jerry McCullough 100%","e":""},"geometry":{"type":"Polygon","coordinates":[[[-60.75,50.23333],[-60.74167,50.23333],[-60.74167,50.225],[-60.75,50.225],[-60.75,50.23333]]]}},{"type":"Feature","properties":{"c":"CDC-2886467","o":"Jerry McCullough 100%","e":""},"geometry":{"type":"Polygon","coordinates":[[[-60.75,50.21667],[-60.74167,50.21667],[-60.74167,50.20833],[-60.75,50.20833],[-60.75,50.21667]]]}},{"type":"Feature","properties":{"c":"CDC-2886460","o":"Jerry McCullough 100%","e":""},"geometry":{"type":"Polygon","coordinates":[[[-60.75,50.20833],[-60.74167,50.20833],[-60.74167,50.2],[-60.75,50.2],[-60.75,50.20833]]]}},{"type":"Feature","properties":{"c":"CDC-2886459","o":"Jerry McCullough 100%","e":""},"geometry":{"type":"Polygon","coordinates":[[[-60.75,50.2],[-60.74167,50.2],[-60.74167,50.19167],[-60.75,50.19167],[-60.75,50.2]]]}},{"type":"Feature","properties":{"c":"CDC-2877229","o":"Jerry McCullough 100%","e":""},"geometry":{"type":"Polygon","coordinates":[[[-60.74167,50.24167],[-60.73333,50.24167],[-60.73333,50.23333],[-60.74167,50.23333],[-60.74167,50.24167]]]}},{"type":"Feature","properties":{"c":"CDC-2886458","o":"Jerry McCullough 100%","e":""},"geometry":{"type":"Polygon","coordinates":[[[-60.75,50.19167],[-60.74167,50.19167],[-60.74167,50.18333],[-60.75,50.18333],[-60.75,50.19167]]]}},{"type":"Feature","properties":{"c":"CDC-2882592","o":"Jerry McCullough 100%","e":""},"geometry":{"type":"Polygon","coordinates":[[[-60.74167,50.23333],[-60.73333,50.23333],[-60.73333,50.225],[-60.74167,50.225],[-60.74167,50.23333]]]}},{"type":"Feature","properties":{"c":"CDC-2877218","o":"Jerry McCullough 100%","e":""},"geometry":{"type":"Polygon","coordinates":[[[-60.74167,50.225],[-60.73333,50.225],[-60.73333,50.21667],[-60.74167,50.21667],[-60.74167,50.225]]]}},{"type":"Feature","properties":{"c":"CDC-2886468","o":"Jerry McCullough 100%","e":""},"geometry":{"type":"Polygon","coordinates":[[[-60.74167,50.21667],[-60.73333,50.21667],[-60.73333,50.20833],[-60.74167,50.20833],[-60.74167,50.21667]]]}},{"type":"Feature","properties":{"c":"CDC-2886461","o":"Jerry McCullough 100%","e":""},"geometry":{"type":"Polygon","coordinates":[[[-60.74167,50.20833],[-60.73333,50.20833],[-60.73333,50.2],[-60.74167,50.2],[-60.74167,50.20833]]]}},{"type":"Feature","properties":{"c":"CDC-2877230","o":"Jerry McCullough 100%","e":""},"geometry":{"type":"Polygon","coordinates":[[[-60.73333,50.24167],[-60.725,50.24167],[-60.725,50.23333],[-60.73333,50.23333],[-60.73333,50.24167]]]}},{"type":"Feature","properties":{"c":"CDC-2877223","o":"Jerry McCullough 100%","e":""},"geometry":{"type":"Polygon","coordinates":[[[-60.73333,50.23333],[-60.725,50.23333],[-60.725,50.225],[-60.73333,50.225],[-60.73333,50.23333]]]}},{"type":"Feature","properties":{"c":"CDC-2877219","o":"Jerry McCullough 100%","e":""},"geometry":{"type":"Polygon","coordinates":[[[-60.73333,50.225],[-60.725,50.225],[-60.725,50.21667],[-60.73333,50.21667],[-60.73333,50.225]]]}},{"type":"Feature","properties":{"c":"CDC-2882651","o":"Jerry McCullough 100%","e":""},"geometry":{"type":"Polygon","coordinates":[[[-60.73333,50.21667],[-60.725,50.21667],[-60.725,50.20833],[-60.73333,50.20833],[-60.73333,50.21667]]]}},{"type":"Feature","properties":{"c":"CDC-2886462","o":"Jerry McCullough 100%","e":""},"geometry":{"type":"Polygon","coordinates":[[[-60.73333,50.20833],[-60.725,50.20833],[-60.725,50.2],[-60.73333,50.2],[-60.73333,50.20833]]]}},{"type":"Feature","properties":{"c":"CDC-2881991","o":"Jerry McCullough 100%","e":""},"geometry":{"type":"Polygon","coordinates":[[[-60.725,50.24167],[-60.71667,50.24167],[-60.71667,50.23333],[-60.725,50.23333],[-60.725,50.24167]]]}},{"type":"Feature","properties":{"c":"CDC-2877224","o":"Jerry McCullough 100%","e":""},"geometry":{"type":"Polygon","coordinates":[[[-60.725,50.23333],[-60.71667,50.23333],[-60.71667,50.225],[-60.725,50.225],[-60.725,50.23333]]]}},{"type":"Feature","properties":{"c":"CDC-2877220","o":"Jerry McCullough 100%","e":""},"geometry":{"type":"Polygon","coordinates":[[[-60.725,50.225],[-60.71667,50.225],[-60.71667,50.21667],[-60.725,50.21667],[-60.725,50.225]]]}},{"type":"Feature","properties":{"c":"CDC-2882652","o":"Jerry McCullough 100%","e":""},"geometry":{"type":"Polygon","coordinates":[[[-60.725,50.21667],[-60.71667,50.21667],[-60.71667,50.20833],[-60.725,50.20833],[-60.725,50.21667]]]}},{"type":"Feature","properties":{"c":"CDC-2886463","o":"Jerry McCullough 100%","e":""},"geometry":{"type":"Polygon","coordinates":[[[-60.725,50.20833],[-60.71667,50.20833],[-60.71667,50.2],[-60.725,50.2],[-60.725,50.20833]]]}},{"type":"Feature","properties":{"c":"CDC-2882226","o":"Jerry McCullough 100%","e":""},"geometry":{"type":"Polygon","coordinates":[[[-60.71667,50.24167],[-60.70833,50.24167],[-60.70833,50.23333],[-60.71667,50.23333],[-60.71667,50.24167]]]}},{"type":"Feature","properties":{"c":"CDC-2877225","o":"Jerry McCullough 100%","e":""},"geometry":{"type":"Polygon","coordinates":[[[-60.71667,50.23333],[-60.70833,50.23333],[-60.70833,50.225],[-60.71667,50.225],[-60.71667,50.23333]]]}},{"type":"Feature","properties":{"c":"CDC-2885734","o":"Jerry McCullough 100%","e":""},"geometry":{"type":"Polygon","coordinates":[[[-60.71667,50.225],[-60.70833,50.225],[-60.70833,50.21667],[-60.71667,50.21667],[-60.71667,50.225]]]}},{"type":"Feature","properties":{"c":"CDC-2871432","o":"Jerry McCullough 100%","e":""},"geometry":{"type":"Polygon","coordinates":[[[-60.80833,50.29167],[-60.8,50.29167],[-60.8,50.28333],[-60.80833,50.28333],[-60.80833,50.29167]]]}},{"type":"Feature","properties":{"c":"CDC-2873997","o":"Jerry McCullough 100%","e":""},"geometry":{"type":"Polygon","coordinates":[[[-60.8,50.31667],[-60.79167,50.31667],[-60.79167,50.30833],[-60.8,50.30833],[-60.8,50.31667]]]}},{"type":"Feature","properties":{"c":"CDC-2871379","o":"Jerry McCullough 100%","e":""},"geometry":{"type":"Polygon","coordinates":[[[-60.8,50.30833],[-60.79167,50.30833],[-60.79167,50.3],[-60.8,50.3],[-60.8,50.30833]]]}},{"type":"Feature","properties":{"c":"CDC-2871386","o":"Jerry McCullough 100%","e":""},"geometry":{"type":"Polygon","coordinates":[[[-60.8,50.3],[-60.79167,50.3],[-60.79167,50.29167],[-60.8,50.29167],[-60.8,50.3]]]}},{"type":"Feature","properties":{"c":"CDC-2873914","o":"Jerry McCullough 100%","e":""},"geometry":{"type":"Polygon","coordinates":[[[-60.8,50.29167],[-60.79167,50.29167],[-60.79167,50.28333],[-60.8,50.28333],[-60.8,50.29167]]]}},{"type":"Feature","properties":{"c":"CDC-2881993","o":"Jerry McCullough 100%","e":""},"geometry":{"type":"Polygon","coordinates":[[[-60.8,50.28333],[-60.79167,50.28333],[-60.79167,50.275],[-60.8,50.275],[-60.8,50.28333]]]}},{"type":"Feature","properties":{"c":"CDC-2873998","o":"Jerry McCullough 100%","e":""},"geometry":{"type":"Polygon","coordinates":[[[-60.79167,50.31667],[-60.78333,50.31667],[-60.78333,50.30833],[-60.79167,50.30833],[-60.79167,50.31667]]]}},{"type":"Feature","properties":{"c":"CDC-2871434","o":"Jerry McCullough 100%","e":""},"geometry":{"type":"Polygon","coordinates":[[[-60.79167,50.30833],[-60.78333,50.30833],[-60.78333,50.3],[-60.79167,50.3],[-60.79167,50.30833]]]}},{"type":"Feature","properties":{"c":"CDC-2871433","o":"Jerry McCullough 100%","e":""},"geometry":{"type":"Polygon","coordinates":[[[-60.79167,50.3],[-60.78333,50.3],[-60.78333,50.29167],[-60.79167,50.29167],[-60.79167,50.3]]]}},{"type":"Feature","properties":{"c":"CDC-2873915","o":"Jerry McCullough 100%","e":""},"geometry":{"type":"Polygon","coordinates":[[[-60.79167,50.29167],[-60.78333,50.29167],[-60.78333,50.28333],[-60.79167,50.28333],[-60.79167,50.29167]]]}},{"type":"Feature","properties":{"c":"CDC-2873999","o":"Jerry McCullough 100%","e":""},"geometry":{"type":"Polygon","coordinates":[[[-60.78333,50.31667],[-60.775,50.31667],[-60.775,50.30833],[-60.78333,50.30833],[-60.78333,50.31667]]]}},{"type":"Feature","properties":{"c":"CDC-2873917","o":"Jerry McCullough 100%","e":""},"geometry":{"type":"Polygon","coordinates":[[[-60.78333,50.30833],[-60.775,50.30833],[-60.775,50.3],[-60.78333,50.3],[-60.78333,50.30833]]]}},{"type":"Feature","properties":{"c":"CDC-2873916","o":"Jerry McCullough 100%","e":""},"geometry":{"type":"Polygon","coordinates":[[[-60.78333,50.3],[-60.775,50.3],[-60.775,50.29167],[-60.78333,50.29167],[-60.78333,50.3]]]}},{"type":"Feature","properties":{"c":"CDC-2878677","o":"Jerry McCullough 100%","e":""},"geometry":{"type":"Polygon","coordinates":[[[-60.775,50.33333],[-60.76667,50.33333],[-60.76667,50.325],[-60.775,50.325],[-60.775,50.33333]]]}},{"type":"Feature","properties":{"c":"CDC-2873322","o":"Michel Robert 100%","e":""},"geometry":{"type":"Polygon","coordinates":[[[-60.76667,50.34167],[-60.75833,50.34167],[-60.75833,50.33333],[-60.76667,50.33333],[-60.76667,50.34167]]]}},{"type":"Feature","properties":{"c":"CDC-2855721","o":"Michel Robert 100%","e":""},"geometry":{"type":"Polygon","coordinates":[[[-60.76667,50.33333],[-60.75833,50.33333],[-60.75833,50.325],[-60.76667,50.325],[-60.76667,50.33333]]]}},{"type":"Feature","properties":{"c":"CDC-2878675","o":"Jerry McCullough 100%","e":""},"geometry":{"type":"Polygon","coordinates":[[[-60.76667,50.325],[-60.75833,50.325],[-60.75833,50.31667],[-60.76667,50.31667],[-60.76667,50.325]]]}},{"type":"Feature","properties":{"c":"CDC-2876129","o":"Michel Robert 100%","e":""},"geometry":{"type":"Polygon","coordinates":[[[-60.75833,50.34167],[-60.75,50.34167],[-60.75,50.33333],[-60.75833,50.33333],[-60.75833,50.34167]]]}},{"type":"Feature","properties":{"c":"CDC-2848938","o":"Cibles\u00a0Mini\u00e8res Critiques inc. 100%","e":""},"geometry":{"type":"Polygon","coordinates":[[[-60.75833,50.33333],[-60.75,50.33333],[-60.75,50.325],[-60.75833,50.325],[-60.75833,50.33333]]]}},{"type":"Feature","properties":{"c":"CDC-2878676","o":"Jerry McCullough 100%","e":""},"geometry":{"type":"Polygon","coordinates":[[[-60.75833,50.325],[-60.75,50.325],[-60.75,50.31667],[-60.75833,50.31667],[-60.75833,50.325]]]}},{"type":"Feature","properties":{"c":"CDC-2879875","o":"Jerry McCullough 100%","e":""},"geometry":{"type":"Polygon","coordinates":[[[-60.75,50.33333],[-60.74167,50.33333],[-60.74167,50.325],[-60.75,50.325],[-60.75,50.33333]]]}},{"type":"Feature","properties":{"c":"CDC-2881989","o":"Jerry McCullough 100%","e":""},"geometry":{"type":"Polygon","coordinates":[[[-60.76667,50.23333],[-60.75833,50.23333],[-60.75833,50.225],[-60.76667,50.225],[-60.76667,50.23333]]]}},{"type":"Feature","properties":{"c":"CDC-2881988","o":"Jerry McCullough 100%","e":""},"geometry":{"type":"Polygon","coordinates":[[[-60.76667,50.225],[-60.75833,50.225],[-60.75833,50.21667],[-60.76667,50.21667],[-60.76667,50.225]]]}},{"type":"Feature","properties":{"c":"CDC-2881986","o":"Jerry McCullough 100%","e":""},"geometry":{"type":"Polygon","coordinates":[[[-60.76667,50.21667],[-60.75833,50.21667],[-60.75833,50.20833],[-60.76667,50.20833],[-60.76667,50.21667]]]}},{"type":"Feature","properties":{"c":"CDC-2881984","o":"Jerry McCullough 100%","e":""},"geometry":{"type":"Polygon","coordinates":[[[-60.76667,50.20833],[-60.75833,50.20833],[-60.75833,50.2],[-60.76667,50.2],[-60.76667,50.20833]]]}},{"type":"Feature","properties":{"c":"CDC-2877227","o":"Jerry McCullough 100%","e":""},"geometry":{"type":"Polygon","coordinates":[[[-60.75833,50.24167],[-60.75,50.24167],[-60.75,50.23333],[-60.75833,50.23333],[-60.75833,50.24167]]]}},{"type":"Feature","properties":{"c":"CDC-2881990","o":"Jerry McCullough 100%","e":""},"geometry":{"type":"Polygon","coordinates":[[[-60.75833,50.23333],[-60.75,50.23333],[-60.75,50.225],[-60.75833,50.225],[-60.75833,50.23333]]]}},{"type":"Feature","properties":{"c":"CDC-2873319","o":"Jerry McCullough 100%","e":""},"geometry":{"type":"Polygon","coordinates":[[[-60.85833,50.31667],[-60.85,50.31667],[-60.85,50.30833],[-60.85833,50.30833],[-60.85833,50.31667]]]}},{"type":"Feature","properties":{"c":"CDC-2873146","o":"Jerry McCullough 100%","e":""},"geometry":{"type":"Polygon","coordinates":[[[-60.85833,50.30833],[-60.85,50.30833],[-60.85,50.3],[-60.85833,50.3],[-60.85833,50.30833]]]}},{"type":"Feature","properties":{"c":"CDC-2873140","o":"Jerry McCullough 100%","e":""},"geometry":{"type":"Polygon","coordinates":[[[-60.85833,50.3],[-60.85,50.3],[-60.85,50.29167],[-60.85833,50.29167],[-60.85833,50.3]]]}},{"type":"Feature","properties":{"c":"CDC-2873911","o":"Jerry McCullough 100%","e":""},"geometry":{"type":"Polygon","coordinates":[[[-60.85833,50.29167],[-60.85,50.29167],[-60.85,50.28333],[-60.85833,50.28333],[-60.85833,50.29167]]]}},{"type":"Feature","properties":{"c":"CDC-2874000","o":"Jerry McCullough 100%","e":""},"geometry":{"type":"Polygon","coordinates":[[[-60.85,50.325],[-60.84167,50.325],[-60.84167,50.31667],[-60.85,50.31667],[-60.85,50.325]]]}},{"type":"Feature","properties":{"c":"CDC-2873320","o":"Jerry McCullough 100%","e":""},"geometry":{"type":"Polygon","coordinates":[[[-60.85,50.31667],[-60.84167,50.31667],[-60.84167,50.30833],[-60.85,50.30833],[-60.85,50.31667]]]}},{"type":"Feature","properties":{"c":"CDC-2873147","o":"Jerry McCullough 100%","e":""},"geometry":{"type":"Polygon","coordinates":[[[-60.85,50.30833],[-60.84167,50.30833],[-60.84167,50.3],[-60.85,50.3],[-60.85,50.30833]]]}},{"type":"Feature","properties":{"c":"CDC-2873141","o":"Jerry McCullough 100%","e":""},"geometry":{"type":"Polygon","coordinates":[[[-60.85,50.3],[-60.84167,50.3],[-60.84167,50.29167],[-60.85,50.29167],[-60.85,50.3]]]}},{"type":"Feature","properties":{"c":"CDC-2848936","o":"Cibles\u00a0Mini\u00e8res Critiques inc. 100%","e":""},"geometry":{"type":"Polygon","coordinates":[[[-60.85,50.29167],[-60.84167,50.29167],[-60.84167,50.28333],[-60.85,50.28333],[-60.85,50.29167]]]}},{"type":"Feature","properties":{"c":"CDC-2874001","o":"Jerry McCullough 100%","e":""},"geometry":{"type":"Polygon","coordinates":[[[-60.84167,50.325],[-60.83333,50.325],[-60.83333,50.31667],[-60.84167,50.31667],[-60.84167,50.325]]]}},{"type":"Feature","properties":{"c":"CDC-2873321","o":"Jerry McCullough 100%","e":""},"geometry":{"type":"Polygon","coordinates":[[[-60.84167,50.31667],[-60.83333,50.31667],[-60.83333,50.30833],[-60.84167,50.30833],[-60.84167,50.31667]]]}},{"type":"Feature","properties":{"c":"CDC-2873182","o":"Jerry McCullough 100%","e":""},"geometry":{"type":"Polygon","coordinates":[[[-60.84167,50.30833],[-60.83333,50.30833],[-60.83333,50.3],[-60.84167,50.3],[-60.84167,50.30833]]]}},{"type":"Feature","properties":{"c":"CDC-2873142","o":"Jerry McCullough 100%","e":""},"geometry":{"type":"Polygon","coordinates":[[[-60.84167,50.3],[-60.83333,50.3],[-60.83333,50.29167],[-60.84167,50.29167],[-60.84167,50.3]]]}},{"type":"Feature","properties":{"c":"CDC-2873912","o":"Jerry McCullough 100%","e":""},"geometry":{"type":"Polygon","coordinates":[[[-60.84167,50.29167],[-60.83333,50.29167],[-60.83333,50.28333],[-60.84167,50.28333],[-60.84167,50.29167]]]}},{"type":"Feature","properties":{"c":"CDC-2871380","o":"Jerry McCullough 100%","e":""},"geometry":{"type":"Polygon","coordinates":[[[-60.83333,50.31667],[-60.825,50.31667],[-60.825,50.30833],[-60.83333,50.30833],[-60.83333,50.31667]]]}},{"type":"Feature","properties":{"c":"CDC-2853847","o":"STIRLING HYDROGEN INC 100%","e":""},"geometry":{"type":"Polygon","coordinates":[[[-60.83333,50.30833],[-60.825,50.30833],[-60.825,50.3],[-60.83333,50.3],[-60.83333,50.30833]]]}},{"type":"Feature","properties":{"c":"CDC-2853194","o":"STIRLING HYDROGEN INC 49%","e":""},"geometry":{"type":"Polygon","coordinates":[[[-60.83333,50.3],[-60.825,50.3],[-60.825,50.29167],[-60.83333,50.29167],[-60.83333,50.3]]]}},{"type":"Feature","properties":{"c":"CDC-2871381","o":"Jerry McCullough 100%","e":""},"geometry":{"type":"Polygon","coordinates":[[[-60.825,50.31667],[-60.81667,50.31667],[-60.81667,50.30833],[-60.825,50.30833],[-60.825,50.31667]]]}},{"type":"Feature","properties":{"c":"CDC-2848937","o":"Cibles\u00a0Mini\u00e8res Critiques inc. 100%","e":""},"geometry":{"type":"Polygon","coordinates":[[[-60.825,50.30833],[-60.81667,50.30833],[-60.81667,50.3],[-60.825,50.3],[-60.825,50.30833]]]}},{"type":"Feature","properties":{"c":"CDC-2871376","o":"Jerry McCullough 100%","e":""},"geometry":{"type":"Polygon","coordinates":[[[-60.825,50.3],[-60.81667,50.3],[-60.81667,50.29167],[-60.825,50.29167],[-60.825,50.3]]]}},{"type":"Feature","properties":{"c":"CDC-2871382","o":"Jerry McCullough 100%","e":""},"geometry":{"type":"Polygon","coordinates":[[[-60.81667,50.31667],[-60.80833,50.31667],[-60.80833,50.30833],[-60.81667,50.30833],[-60.81667,50.31667]]]}},{"type":"Feature","properties":{"c":"CDC-2885196","o":"Jerry McCullough 100%","e":""},"geometry":{"type":"Polygon","coordinates":[[[-60.81667,50.30833],[-60.80833,50.30833],[-60.80833,50.3],[-60.81667,50.3],[-60.81667,50.30833]]]}},{"type":"Feature","properties":{"c":"CDC-2871377","o":"Jerry McCullough 100%","e":""},"geometry":{"type":"Polygon","coordinates":[[[-60.81667,50.3],[-60.80833,50.3],[-60.80833,50.29167],[-60.81667,50.29167],[-60.81667,50.3]]]}},{"type":"Feature","properties":{"c":"CDC-2873913","o":"Jerry McCullough 100%","e":""},"geometry":{"type":"Polygon","coordinates":[[[-60.81667,50.29167],[-60.80833,50.29167],[-60.80833,50.28333],[-60.81667,50.28333],[-60.81667,50.29167]]]}},{"type":"Feature","properties":{"c":"CDC-2871383","o":"Jerry McCullough 100%","e":""},"geometry":{"type":"Polygon","coordinates":[[[-60.80833,50.31667],[-60.8,50.31667],[-60.8,50.30833],[-60.80833,50.30833],[-60.80833,50.31667]]]}},{"type":"Feature","properties":{"c":"CDC-2885197","o":"Jerry McCullough 100%","e":""},"geometry":{"type":"Polygon","coordinates":[[[-60.80833,50.30833],[-60.8,50.30833],[-60.8,50.3],[-60.80833,50.3],[-60.80833,50.30833]]]}},{"type":"Feature","properties":{"c":"CDC-2871378","o":"Jerry McCullough 100%","e":""},"geometry":{"type":"Polygon","coordinates":[[[-60.80833,50.3],[-60.8,50.3],[-60.8,50.29167],[-60.80833,50.29167],[-60.80833,50.3]]]}},{"type":"Feature","properties":{"c":"CDC-2879871","o":"Jerry McCullough 100%","e":""},"geometry":{"type":"Polygon","coordinates":[[[-60.90833,50.325],[-60.9,50.325],[-60.9,50.31667],[-60.90833,50.31667],[-60.90833,50.325]]]}},{"type":"Feature","properties":{"c":"CDC-2879870","o":"Jerry McCullough 100%","e":""},"geometry":{"type":"Polygon","coordinates":[[[-60.90833,50.31667],[-60.9,50.31667],[-60.9,50.30833],[-60.90833,50.30833],[-60.90833,50.31667]]]}},{"type":"Feature","properties":{"c":"CDC-2879869","o":"Jerry McCullough 100%","e":""},"geometry":{"type":"Polygon","coordinates":[[[-60.90833,50.30833],[-60.9,50.30833],[-60.9,50.3],[-60.90833,50.3],[-60.90833,50.30833]]]}},{"type":"Feature","properties":{"c":"CDC-2874025","o":"Jerry McCullough 100%","e":""},"geometry":{"type":"Polygon","coordinates":[[[-60.90833,50.3],[-60.9,50.3],[-60.9,50.29167],[-60.90833,50.29167],[-60.90833,50.3]]]}},{"type":"Feature","properties":{"c":"CDC-2879873","o":"Jerry McCullough 100%","e":""},"geometry":{"type":"Polygon","coordinates":[[[-60.9,50.33333],[-60.89167,50.33333],[-60.89167,50.325],[-60.9,50.325],[-60.9,50.33333]]]}},{"type":"Feature","properties":{"c":"CDC-2879872","o":"Jerry McCullough 100%","e":""},"geometry":{"type":"Polygon","coordinates":[[[-60.9,50.325],[-60.89167,50.325],[-60.89167,50.31667],[-60.9,50.31667],[-60.9,50.325]]]}},{"type":"Feature","properties":{"c":"CDC-2879878","o":"Jerry McCullough 100%","e":""},"geometry":{"type":"Polygon","coordinates":[[[-60.9,50.31667],[-60.89167,50.31667],[-60.89167,50.30833],[-60.9,50.30833],[-60.9,50.31667]]]}},{"type":"Feature","properties":{"c":"CDC-2873382","o":"Jerry McCullough 100%","e":""},"geometry":{"type":"Polygon","coordinates":[[[-60.9,50.30833],[-60.89167,50.30833],[-60.89167,50.3],[-60.9,50.3],[-60.9,50.30833]]]}},{"type":"Feature","properties":{"c":"CDC-2873367","o":"Jerry McCullough 100%","e":""},"geometry":{"type":"Polygon","coordinates":[[[-60.9,50.3],[-60.89167,50.3],[-60.89167,50.29167],[-60.9,50.29167],[-60.9,50.3]]]}},{"type":"Feature","properties":{"c":"CDC-2879874","o":"Jerry McCullough 100%","e":""},"geometry":{"type":"Polygon","coordinates":[[[-60.89167,50.33333],[-60.88333,50.33333],[-60.88333,50.325],[-60.89167,50.325],[-60.89167,50.33333]]]}},{"type":"Feature","properties":{"c":"CDC-2873512","o":"Jerry McCullough 100%","e":""},"geometry":{"type":"Polygon","coordinates":[[[-60.89167,50.325],[-60.88333,50.325],[-60.88333,50.31667],[-60.89167,50.31667],[-60.89167,50.325]]]}},{"type":"Feature","properties":{"c":"CDC-2873318","o":"Jerry McCullough 100%","e":""},"geometry":{"type":"Polygon","coordinates":[[[-60.89167,50.31667],[-60.88333,50.31667],[-60.88333,50.30833],[-60.89167,50.30833],[-60.89167,50.31667]]]}},{"type":"Feature","properties":{"c":"CDC-2873370","o":"Jerry McCullough 100%","e":""},"geometry":{"type":"Polygon","coordinates":[[[-60.89167,50.30833],[-60.88333,50.30833],[-60.88333,50.3],[-60.89167,50.3],[-60.89167,50.30833]]]}},{"type":"Feature","properties":{"c":"CDC-2873368","o":"Jerry McCullough 100%","e":""},"geometry":{"type":"Polygon","coordinates":[[[-60.89167,50.3],[-60.88333,50.3],[-60.88333,50.29167],[-60.89167,50.29167],[-60.89167,50.3]]]}},{"type":"Feature","properties":{"c":"CDC-2873513","o":"Jerry McCullough 100%","e":""},"geometry":{"type":"Polygon","coordinates":[[[-60.88333,50.325],[-60.875,50.325],[-60.875,50.31667],[-60.88333,50.31667],[-60.88333,50.325]]]}},{"type":"Feature","properties":{"c":"CDC-2873149","o":"Jerry McCullough 100%","e":""},"geometry":{"type":"Polygon","coordinates":[[[-60.88333,50.31667],[-60.875,50.31667],[-60.875,50.30833],[-60.88333,50.30833],[-60.88333,50.31667]]]}},{"type":"Feature","properties":{"c":"CDC-2873143","o":"Jerry McCullough 100%","e":""},"geometry":{"type":"Polygon","coordinates":[[[-60.88333,50.30833],[-60.875,50.30833],[-60.875,50.3],[-60.88333,50.3],[-60.88333,50.30833]]]}},{"type":"Feature","properties":{"c":"CDC-2873369","o":"Jerry McCullough 100%","e":""},"geometry":{"type":"Polygon","coordinates":[[[-60.88333,50.3],[-60.875,50.3],[-60.875,50.29167],[-60.88333,50.29167],[-60.88333,50.3]]]}},{"type":"Feature","properties":{"c":"CDC-2873514","o":"Jerry McCullough 100%","e":""},"geometry":{"type":"Polygon","coordinates":[[[-60.875,50.325],[-60.86667,50.325],[-60.86667,50.31667],[-60.875,50.31667],[-60.875,50.325]]]}},{"type":"Feature","properties":{"c":"CDC-2873150","o":"Jerry McCullough 100%","e":""},"geometry":{"type":"Polygon","coordinates":[[[-60.875,50.31667],[-60.86667,50.31667],[-60.86667,50.30833],[-60.875,50.30833],[-60.875,50.31667]]]}},{"type":"Feature","properties":{"c":"CDC-2873144","o":"Jerry McCullough 100%","e":""},"geometry":{"type":"Polygon","coordinates":[[[-60.875,50.30833],[-60.86667,50.30833],[-60.86667,50.3],[-60.875,50.3],[-60.875,50.30833]]]}},{"type":"Feature","properties":{"c":"CDC-2873148","o":"Jerry McCullough 100%","e":""},"geometry":{"type":"Polygon","coordinates":[[[-60.875,50.3],[-60.86667,50.3],[-60.86667,50.29167],[-60.875,50.29167],[-60.875,50.3]]]}},{"type":"Feature","properties":{"c":"CDC-2873515","o":"Jerry McCullough 100%","e":""},"geometry":{"type":"Polygon","coordinates":[[[-60.86667,50.325],[-60.85833,50.325],[-60.85833,50.31667],[-60.86667,50.31667],[-60.86667,50.325]]]}},{"type":"Feature","properties":{"c":"CDC-2873383","o":"Jerry McCullough 100%","e":""},"geometry":{"type":"Polygon","coordinates":[[[-60.86667,50.31667],[-60.85833,50.31667],[-60.85833,50.30833],[-60.86667,50.30833],[-60.86667,50.31667]]]}},{"type":"Feature","properties":{"c":"CDC-2873145","o":"Jerry McCullough 100%","e":""},"geometry":{"type":"Polygon","coordinates":[[[-60.86667,50.30833],[-60.85833,50.30833],[-60.85833,50.3],[-60.86667,50.3],[-60.86667,50.30833]]]}},{"type":"Feature","properties":{"c":"CDC-2873381","o":"Jerry McCullough 100%","e":""},"geometry":{"type":"Polygon","coordinates":[[[-60.86667,50.3],[-60.85833,50.3],[-60.85833,50.29167],[-60.86667,50.29167],[-60.86667,50.3]]]}},{"type":"Feature","properties":{"c":"CDC-2873516","o":"Jerry McCullough 100%","e":""},"geometry":{"type":"Polygon","coordinates":[[[-60.85833,50.325],[-60.85,50.325],[-60.85,50.31667],[-60.85833,50.31667],[-60.85833,50.325]]]}},{"type":"Feature","properties":{"c":"CDC-2874026","o":"Jerry McCullough 100%","e":""},"geometry":{"type":"Polygon","coordinates":[[[-60.875,50.26667],[-60.86667,50.26667],[-60.86667,50.25833],[-60.875,50.25833],[-60.875,50.26667]]]}},{"type":"Feature","properties":{"c":"CDC-2874027","o":"Jerry McCullough 100%","e":""},"geometry":{"type":"Polygon","coordinates":[[[-60.86667,50.26667],[-60.85833,50.26667],[-60.85833,50.25833],[-60.86667,50.25833],[-60.86667,50.26667]]]}},{"type":"Feature","properties":{"c":"CDC-2873918","o":"Jerry McCullough 100%","e":""},"geometry":{"type":"Polygon","coordinates":[[[-60.85,50.26667],[-60.84167,50.26667],[-60.84167,50.25833],[-60.85,50.25833],[-60.85,50.26667]]]}},{"type":"Feature","properties":{"c":"CDC-2874002","o":"Jerry McCullough 100%","e":""},"geometry":{"type":"Polygon","coordinates":[[[-60.91667,50.275],[-60.90833,50.275],[-60.90833,50.26667],[-60.91667,50.26667],[-60.91667,50.275]]]}},{"type":"Feature","properties":{"c":"CDC-2879866","o":"Jerry McCullough 100%","e":""},"geometry":{"type":"Polygon","coordinates":[[[-60.90833,50.275],[-60.9,50.275],[-60.9,50.26667],[-60.90833,50.26667],[-60.90833,50.275]]]}},{"type":"Feature","properties":{"c":"CDC-2874003","o":"Jerry McCullough 100%","e":""},"geometry":{"type":"Polygon","coordinates":[[[-60.9,50.275],[-60.89167,50.275],[-60.89167,50.26667],[-60.9,50.26667],[-60.9,50.275]]]}},{"type":"Feature","properties":{"c":"CDC-2873902","o":"Jerry McCullough 100%","e":""},"geometry":{"type":"Polygon","coordinates":[[[-60.89167,50.275],[-60.88333,50.275],[-60.88333,50.26667],[-60.89167,50.26667],[-60.89167,50.275]]]}},{"type":"Feature","properties":{"c":"CDC-2873903","o":"Jerry McCullough 100%","e":""},"geometry":{"type":"Polygon","coordinates":[[[-60.88333,50.275],[-60.875,50.275],[-60.875,50.26667],[-60.88333,50.26667],[-60.88333,50.275]]]}},{"type":"Feature","properties":{"c":"CDC-2878670","o":"Jerry McCullough 100%","e":""},"geometry":{"type":"Polygon","coordinates":[[[-60.875,50.275],[-60.86667,50.275],[-60.86667,50.26667],[-60.875,50.26667],[-60.875,50.275]]]}},{"type":"Feature","properties":{"c":"CDC-2878671","o":"Jerry McCullough 100%","e":""},"geometry":{"type":"Polygon","coordinates":[[[-60.86667,50.275],[-60.85833,50.275],[-60.85833,50.26667],[-60.86667,50.26667],[-60.86667,50.275]]]}},{"type":"Feature","properties":{"c":"CDC-2871384","o":"Jerry McCullough 100%","e":""},"geometry":{"type":"Polygon","coordinates":[[[-60.85833,50.275],[-60.85,50.275],[-60.85,50.26667],[-60.85833,50.26667],[-60.85833,50.275]]]}},{"type":"Feature","properties":{"c":"CDC-2871385","o":"Jerry McCullough 100%","e":""},"geometry":{"type":"Polygon","coordinates":[[[-60.85,50.275],[-60.84167,50.275],[-60.84167,50.26667],[-60.85,50.26667],[-60.85,50.275]]]}},{"type":"Feature","properties":{"c":"CDC-2873919","o":"Jerry McCullough 100%","e":""},"geometry":{"type":"Polygon","coordinates":[[[-60.90833,50.28333],[-60.9,50.28333],[-60.9,50.275],[-60.90833,50.275],[-60.90833,50.28333]]]}},{"type":"Feature","properties":{"c":"CDC-2873904","o":"Jerry McCullough 100%","e":""},"geometry":{"type":"Polygon","coordinates":[[[-60.9,50.28333],[-60.89167,50.28333],[-60.89167,50.275],[-60.9,50.275],[-60.9,50.28333]]]}},{"type":"Feature","properties":{"c":"CDC-2873905","o":"Jerry McCullough 100%","e":""},"geometry":{"type":"Polygon","coordinates":[[[-60.89167,50.28333],[-60.88333,50.28333],[-60.88333,50.275],[-60.89167,50.275],[-60.89167,50.28333]]]}},{"type":"Feature","properties":{"c":"CDC-2878672","o":"Jerry McCullough 100%","e":""},"geometry":{"type":"Polygon","coordinates":[[[-60.88333,50.28333],[-60.875,50.28333],[-60.875,50.275],[-60.88333,50.275],[-60.88333,50.28333]]]}},{"type":"Feature","properties":{"c":"CDC-2878673","o":"Jerry McCullough 100%","e":""},"geometry":{"type":"Polygon","coordinates":[[[-60.875,50.28333],[-60.86667,50.28333],[-60.86667,50.275],[-60.875,50.275],[-60.875,50.28333]]]}},{"type":"Feature","properties":{"c":"CDC-2878674","o":"Jerry McCullough 100%","e":""},"geometry":{"type":"Polygon","coordinates":[[[-60.86667,50.28333],[-60.85833,50.28333],[-60.85833,50.275],[-60.86667,50.275],[-60.86667,50.28333]]]}},{"type":"Feature","properties":{"c":"CDC-2848934","o":"Cibles\u00a0Mini\u00e8res Critiques inc. 100%","e":""},"geometry":{"type":"Polygon","coordinates":[[[-60.85833,50.28333],[-60.85,50.28333],[-60.85,50.275],[-60.85833,50.275],[-60.85833,50.28333]]]}},{"type":"Feature","properties":{"c":"CDC-2848935","o":"Cibles\u00a0Mini\u00e8res Critiques inc. 100%","e":""},"geometry":{"type":"Polygon","coordinates":[[[-60.85,50.28333],[-60.84167,50.28333],[-60.84167,50.275],[-60.85,50.275],[-60.85,50.28333]]]}},{"type":"Feature","properties":{"c":"CDC-2873906","o":"Jerry McCullough 100%","e":""},"geometry":{"type":"Polygon","coordinates":[[[-60.84167,50.28333],[-60.83333,50.28333],[-60.83333,50.275],[-60.84167,50.275],[-60.84167,50.28333]]]}},{"type":"Feature","properties":{"c":"CDC-2873920","o":"Jerry McCullough 100%","e":""},"geometry":{"type":"Polygon","coordinates":[[[-60.90833,50.29167],[-60.9,50.29167],[-60.9,50.28333],[-60.90833,50.28333],[-60.90833,50.29167]]]}},{"type":"Feature","properties":{"c":"CDC-2873907","o":"Jerry McCullough 100%","e":""},"geometry":{"type":"Polygon","coordinates":[[[-60.9,50.29167],[-60.89167,50.29167],[-60.89167,50.28333],[-60.9,50.28333],[-60.9,50.29167]]]}},{"type":"Feature","properties":{"c":"CDC-2873908","o":"Jerry McCullough 100%","e":""},"geometry":{"type":"Polygon","coordinates":[[[-60.89167,50.29167],[-60.88333,50.29167],[-60.88333,50.28333],[-60.89167,50.28333],[-60.89167,50.29167]]]}},{"type":"Feature","properties":{"c":"CDC-2873909","o":"Jerry McCullough 100%","e":""},"geometry":{"type":"Polygon","coordinates":[[[-60.88333,50.29167],[-60.875,50.29167],[-60.875,50.28333],[-60.88333,50.28333],[-60.88333,50.29167]]]}},{"type":"Feature","properties":{"c":"CDC-2873910","o":"Jerry McCullough 100%","e":""},"geometry":{"type":"Polygon","coordinates":[[[-60.875,50.29167],[-60.86667,50.29167],[-60.86667,50.28333],[-60.875,50.28333],[-60.875,50.29167]]]}},{"type":"Feature","properties":{"c":"CDC-2873366","o":"Jerry McCullough 100%","e":""},"geometry":{"type":"Polygon","coordinates":[[[-60.86667,50.29167],[-60.85833,50.29167],[-60.85833,50.28333],[-60.86667,50.28333],[-60.86667,50.29167]]]}},{"type":"Feature","properties":{"c":"CDC-2872246","o":"Jerry McCullough 100%","e":""},"geometry":{"type":"Polygon","coordinates":[[[-61.00833,50.25833],[-61.0,50.25833],[-61.0,50.25],[-61.00833,50.25],[-61.00833,50.25833]]]}},{"type":"Feature","properties":{"c":"CDC-2872245","o":"Jerry McCullough 100%","e":""},"geometry":{"type":"Polygon","coordinates":[[[-61.00833,50.25],[-61.0,50.25],[-61.0,50.24167],[-61.00833,50.24167],[-61.00833,50.25]]]}},{"type":"Feature","properties":{"c":"CDC-2807317","o":"Matthew Fraser 100%","e":""},"geometry":{"type":"Polygon","coordinates":[[[-61.00833,50.23333],[-61.0,50.23333],[-61.0,50.225],[-61.00833,50.225],[-61.00833,50.23333]]]}},{"type":"Feature","properties":{"c":"CDC-2807311","o":"Matthew Fraser 100%","e":""},"geometry":{"type":"Polygon","coordinates":[[[-61.00833,50.225],[-61.0,50.225],[-61.0,50.21667],[-61.00833,50.21667],[-61.00833,50.225]]]}},{"type":"Feature","properties":{"c":"CDC-2807308","o":"Matthew Fraser 100%","e":""},"geometry":{"type":"Polygon","coordinates":[[[-61.00833,50.21667],[-61.0,50.21667],[-61.0,50.20833],[-61.00833,50.20833],[-61.00833,50.21667]]]}},{"type":"Feature","properties":{"c":"CDC-2807307","o":"Matthew Fraser 100%","e":""},"geometry":{"type":"Polygon","coordinates":[[[-61.00833,50.20833],[-61.0,50.20833],[-61.0,50.2],[-61.00833,50.2],[-61.00833,50.20833]]]}},{"type":"Feature","properties":{"c":"CDC-2881832","o":"Jerry McCullough 100%","e":""},"geometry":{"type":"Polygon","coordinates":[[[-60.99362,50.25833],[-60.99167,50.25751],[-60.99167,50.25],[-61.0,50.25],[-61.0,50.25833],[-60.99362,50.25833]]]}},{"type":"Feature","properties":{"c":"CDC-2872244","o":"Jerry McCullough 100%","e":""},"geometry":{"type":"Polygon","coordinates":[[[-61.0,50.25],[-60.99167,50.25],[-60.99167,50.24167],[-61.0,50.24167],[-61.0,50.25]]]}},{"type":"Feature","properties":{"c":"CDC-2807306","o":"Matthew Fraser 100%","e":""},"geometry":{"type":"Polygon","coordinates":[[[-61.0,50.23333],[-60.99167,50.23333],[-60.99167,50.225],[-61.0,50.225],[-61.0,50.23333]]]}},{"type":"Feature","properties":{"c":"CDC-2807304","o":"Matthew Fraser 100%","e":""},"geometry":{"type":"Polygon","coordinates":[[[-61.0,50.225],[-60.99167,50.225],[-60.99167,50.21667],[-61.0,50.21667],[-61.0,50.225]]]}},{"type":"Feature","properties":{"c":"CDC-2807302","o":"Matthew Fraser 100%","e":""},"geometry":{"type":"Polygon","coordinates":[[[-61.0,50.21667],[-60.99167,50.21667],[-60.99167,50.20833],[-61.0,50.20833],[-61.0,50.21667]]]}},{"type":"Feature","properties":{"c":"CDC-2807300","o":"Matthew Fraser 100%","e":""},"geometry":{"type":"Polygon","coordinates":[[[-61.0,50.20833],[-60.99167,50.20833],[-60.99167,50.2],[-61.0,50.2],[-61.0,50.20833]]]}},{"type":"Feature","properties":{"c":"CDC-2807305","o":"Matthew Fraser 100%","e":""},"geometry":{"type":"Polygon","coordinates":[[[-60.99167,50.225],[-60.98333,50.225],[-60.98333,50.21667],[-60.99167,50.21667],[-60.99167,50.225]]]}},{"type":"Feature","properties":{"c":"CDC-2807303","o":"Matthew Fraser 100%","e":""},"geometry":{"type":"Polygon","coordinates":[[[-60.99167,50.21667],[-60.98333,50.21667],[-60.98333,50.20833],[-60.99167,50.20833],[-60.99167,50.21667]]]}},{"type":"Feature","properties":{"c":"CDC-2807301","o":"Matthew Fraser 100%","e":""},"geometry":{"type":"Polygon","coordinates":[[[-60.99167,50.20833],[-60.98333,50.20833],[-60.98333,50.2],[-60.99167,50.2],[-60.99167,50.20833]]]}},{"type":"Feature","properties":{"c":"CDC-2874024","o":"Jerry McCullough 100%","e":""},"geometry":{"type":"Polygon","coordinates":[[[-60.925,50.29167],[-60.91667,50.29167],[-60.91667,50.28333],[-60.925,50.28333],[-60.925,50.29167]]]}},{"type":"Feature","properties":{"c":"CDC-2874023","o":"Jerry McCullough 100%","e":""},"geometry":{"type":"Polygon","coordinates":[[[-60.925,50.28333],[-60.91667,50.28333],[-60.91667,50.275],[-60.925,50.275],[-60.925,50.28333]]]}},{"type":"Feature","properties":{"c":"CDC-2879865","o":"Jerry McCullough 100%","e":""},"geometry":{"type":"Polygon","coordinates":[[[-60.925,50.275],[-60.91667,50.275],[-60.91667,50.26667],[-60.925,50.26667],[-60.925,50.275]]]}},{"type":"Feature","properties":{"c":"CDC-2879868","o":"Jerry McCullough 100%","e":""},"geometry":{"type":"Polygon","coordinates":[[[-60.91667,50.30833],[-60.90833,50.30833],[-60.90833,50.3],[-60.91667,50.3],[-60.91667,50.30833]]]}},{"type":"Feature","properties":{"c":"CDC-2879867","o":"Jerry McCullough 100%","e":""},"geometry":{"type":"Polygon","coordinates":[[[-60.91667,50.3],[-60.90833,50.3],[-60.90833,50.29167],[-60.91667,50.29167],[-60.91667,50.3]]]}},{"type":"Feature","properties":{"c":"CDC-2874005","o":"Jerry McCullough 100%","e":""},"geometry":{"type":"Polygon","coordinates":[[[-60.91667,50.29167],[-60.90833,50.29167],[-60.90833,50.28333],[-60.91667,50.28333],[-60.91667,50.29167]]]}},{"type":"Feature","properties":{"c":"CDC-2874004","o":"Jerry McCullough 100%","e":""},"geometry":{"type":"Polygon","coordinates":[[[-60.91667,50.28333],[-60.90833,50.28333],[-60.90833,50.275],[-60.91667,50.275],[-60.91667,50.28333]]]}}]}