{"type":"FeatureCollection","features":[{"type":"Feature","properties":{"c":"032263M","o":"Stephen Stockley Agriculture and Fabrication Inc.","e":"2031-03-27"},"geometry":{"type":"Polygon","coordinates":[[[-61.51555,53.05319],[-61.50809,53.05309],[-61.5084,53.04411],[-61.49349,53.04392],[-61.49365,53.03943],[-61.51601,53.03971],[-61.51586,53.0442],[-61.51555,53.05319]]]}},{"type":"Feature","properties":{"c":"035812M","o":"Stephen Stockley Agriculture and Fabrication Inc.","e":"2028-04-12"},"geometry":{"type":"Polygon","coordinates":[[[-61.47129,53.03914],[-61.47874,53.03924],[-61.47858,53.04373],[-61.47113,53.04363],[-61.47129,53.03914]]]}},{"type":"Feature","properties":{"c":"035882M","o":"Stephen Stockley Agriculture and Fabrication Inc.","e":"2028-04-18"},"geometry":{"type":"Polygon","coordinates":[[[-61.49365,53.03943],[-61.49349,53.04392],[-61.47858,53.04373],[-61.47874,53.03924],[-61.48619,53.03933],[-61.49365,53.03943]]]}},{"type":"Feature","properties":{"c":"035897M","o":"Stephen Stockley Agriculture and Fabrication Inc.","e":"2028-04-20"},"geometry":{"type":"Polygon","coordinates":[[[-61.47129,53.03914],[-61.47113,53.04363],[-61.45622,53.04344],[-61.45638,53.03895],[-61.46383,53.03904],[-61.47129,53.03914]]]}},{"type":"Feature","properties":{"c":"037848M","o":"Stephen Stockley Agriculture and Fabrication Inc.","e":"2029-06-06"},"geometry":{"type":"Polygon","coordinates":[[[-61.0171,53.18528],[-61.00962,53.18515],[-61.00941,53.18964],[-61.00194,53.18952],[-61.00173,53.19401],[-60.97181,53.1935],[-60.97223,53.18452],[-60.99467,53.1849],[-60.99488,53.18041],[-61.00235,53.18054],[-61.00256,53.17604],[-61.01751,53.17629],[-61.01731,53.18078],[-61.0171,53.18528]]]}},{"type":"Feature","properties":{"c":"037856M","o":"Stephen Stockley Agriculture and Fabrication Inc.","e":"2029-06-06"},"geometry":{"type":"Polygon","coordinates":[[[-61.01025,53.17168],[-61.01772,53.1718],[-61.01751,53.17629],[-61.01004,53.17617],[-61.01025,53.17168]]]}},{"type":"Feature","properties":{"c":"040234M","o":"Russell Lawlor","e":"2031-03-01"},"geometry":{"type":"Polygon","coordinates":[[[-61.53761,53.06245],[-61.51524,53.06217],[-61.51508,53.06667],[-61.4405,53.06571],[-61.44082,53.05673],[-61.43336,53.05663],[-61.43385,53.04315],[-61.44131,53.04325],[-61.44098,53.05223],[-61.44844,53.05233],[-61.44812,53.06132],[-61.50778,53.06208],[-61.50794,53.05759],[-61.53777,53.05796],[-61.53761,53.06245]]]}},{"type":"Feature","properties":{"c":"041012M","o":"Cronin Exploration Inc.","e":"2031-07-16"},"geometry":{"type":"Polygon","coordinates":[[[-61.50794,53.05759],[-61.50048,53.05749],[-61.50032,53.06199],[-61.49286,53.06189],[-61.49333,53.04841],[-61.45606,53.04793],[-61.4559,53.05243],[-61.44098,53.05223],[-61.44147,53.03875],[-61.45638,53.03895],[-61.45622,53.04344],[-61.5084,53.04411],[-61.50825,53.0486],[-61.50794,53.05759]]]}},{"type":"Feature","properties":{"c":"041141M","o":"Cronin Exploration Inc.","e":"2031-08-05"},"geometry":{"type":"Polygon","coordinates":[[[-61.5011,53.03952],[-61.44892,53.03885],[-61.44908,53.03436],[-61.4938,53.03493],[-61.49396,53.03044],[-61.50141,53.03053],[-61.50126,53.03503],[-61.5011,53.03952]]]}},{"type":"Feature","properties":{"c":"041251M","o":"Cronin Exploration Inc.","e":"2031-09-17"},"geometry":{"type":"Polygon","coordinates":[[[-61.49286,53.06189],[-61.44812,53.06132],[-61.44844,53.05233],[-61.4559,53.05243],[-61.45606,53.04793],[-61.49333,53.04841],[-61.49318,53.05291],[-61.49286,53.06189]]]}}]}