{"type":"FeatureCollection","features":[{"type":"Feature","properties":{"c":"033783M","o":"Mark Stockley","e":"2026-12-31"},"geometry":{"type":"Polygon","coordinates":[[[-61.13413,56.12189],[-61.14217,56.12201],[-61.14195,56.1265],[-61.13392,56.12638],[-61.13413,56.12189]]]}},{"type":"Feature","properties":{"c":"033784M","o":"Mark Stockley","e":"2026-12-31"},"geometry":{"type":"Polygon","coordinates":[[[-61.22089,56.15911],[-61.22894,56.15923],[-61.22873,56.16372],[-61.22069,56.1636],[-61.22089,56.15911]]]}}]}