{"type":"FeatureCollection","features":[{"type":"Feature","properties":{"c":"51491","o":"","e":"2027-03-10"},"geometry":{"type":"Polygon","coordinates":[[[-61.13021,46.13195],[-61.125,46.13195],[-61.125,46.12848],[-61.125,46.12501],[-61.125,46.12154],[-61.13021,46.12154],[-61.13542,46.12154],[-61.13541,46.12501],[-61.13542,46.12848],[-61.13542,46.13195],[-61.13021,46.13195]]]}},{"type":"Feature","properties":{"c":"50865","o":"","e":"2027-02-08"},"geometry":{"type":"Polygon","coordinates":[[[-61.09896,46.00695],[-61.09896,46.00348],[-61.10417,46.00348],[-61.10417,46.00695],[-61.09896,46.00695]]]}},{"type":"Feature","properties":{"c":"52253","o":"","e":"2027-05-15"},"geometry":{"type":"Polygon","coordinates":[[[-61.10937,46.00695],[-61.10417,46.00695],[-61.10417,46.00348],[-61.10937,46.00348],[-61.11458,46.00348],[-61.11458,46.00695],[-61.10937,46.00695]]]}},{"type":"Feature","properties":{"c":"56641","o":"","e":"2026-11-07"},"geometry":{"type":"Polygon","coordinates":[[[-61.14062,46.18404],[-61.13542,46.18404],[-61.13542,46.18056],[-61.14062,46.18056],[-61.14583,46.18056],[-61.14583,46.18404],[-61.14062,46.18404]]]}},{"type":"Feature","properties":{"c":"56854","o":"","e":"2027-03-18"},"geometry":{"type":"Polygon","coordinates":[[[-61.125,46.11459],[-61.11979,46.11459],[-61.11979,46.11112],[-61.11979,46.10765],[-61.125,46.10765],[-61.13021,46.10765],[-61.13021,46.11112],[-61.13021,46.11459],[-61.125,46.11459]]]}},{"type":"Feature","properties":{"c":"57058","o":"","e":"2028-07-15"},"geometry":{"type":"Polygon","coordinates":[[[-61.09375,46.00695],[-61.09375,46.00348],[-61.09896,46.00348],[-61.09896,46.00695],[-61.09375,46.00695]]]}},{"type":"Feature","properties":{"c":"57059","o":"","e":"2028-07-15"},"geometry":{"type":"Polygon","coordinates":[[[-61.09896,46.0139],[-61.09896,46.01043],[-61.09896,46.00695],[-61.10417,46.00695],[-61.10417,46.01043],[-61.10417,46.0139],[-61.09896,46.0139]]]}},{"type":"Feature","properties":{"c":"57242","o":"","e":"2027-07-21"},"geometry":{"type":"Polygon","coordinates":[[[-61.11979,46.00695],[-61.11458,46.00695],[-61.11458,46.00348],[-61.11979,46.00348],[-61.125,46.00348],[-61.125,46.00695],[-61.11979,46.00695]]]}},{"type":"Feature","properties":{"c":"57243","o":"","e":"2027-07-21"},"geometry":{"type":"Polygon","coordinates":[[[-61.11979,46.01043],[-61.11458,46.01042],[-61.11458,46.00695],[-61.11979,46.00695],[-61.125,46.00695],[-61.125,46.01043],[-61.11979,46.01043]]]}},{"type":"Feature","properties":{"c":"57244","o":"","e":"2027-07-21"},"geometry":{"type":"Polygon","coordinates":[[[-61.125,46.00695],[-61.125,46.00348],[-61.125,46.0],[-61.13021,46.0],[-61.13021,46.00348],[-61.13021,46.00695],[-61.125,46.00695]]]}},{"type":"Feature","properties":{"c":"57245","o":"","e":"2027-07-21"},"geometry":{"type":"Polygon","coordinates":[[[-61.11979,46.0139],[-61.11979,46.01043],[-61.125,46.01043],[-61.125,46.0139],[-61.11979,46.0139]]]}},{"type":"Feature","properties":{"c":"57294","o":"","e":"2027-08-12"},"geometry":{"type":"Polygon","coordinates":[[[-61.10937,46.01043],[-61.10417,46.01043],[-61.10417,46.00695],[-61.10937,46.00695],[-61.11458,46.00695],[-61.11458,46.01042],[-61.10937,46.01043]]]}},{"type":"Feature","properties":{"c":"57404","o":"","e":"2027-10-17"},"geometry":{"type":"Polygon","coordinates":[[[-61.13542,46.14932],[-61.13542,46.15279],[-61.13021,46.15279],[-61.13021,46.15626],[-61.125,46.15626],[-61.11979,46.15626],[-61.11979,46.15279],[-61.125,46.15279],[-61.125,46.14932],[-61.125,46.14584],[-61.125,46.14237],[-61.125,46.1389],[-61.125,46.13543],[-61.125,46.13195],[-61.13021,46.13195],[-61.13542,46.13195],[-61.13542,46.12848],[-61.13541,46.12501],[-61.13542,46.12154],[-61.13542,46.11806],[-61.14062,46.11806],[-61.14062,46.12154],[-61.14062,46.12501],[-61.14062,46.12848],[-61.14062,46.13195],[-61.14062,46.13543],[-61.14062,46.1389],[-61.14062,46.14237],[-61.14062,46.14584],[-61.14062,46.14931],[-61.13542,46.14932]]]}},{"type":"Feature","properties":{"c":"57405","o":"","e":"2027-10-17"},"geometry":{"type":"Polygon","coordinates":[[[-61.13021,46.12154],[-61.125,46.12154],[-61.125,46.11806],[-61.125,46.11459],[-61.13021,46.11459],[-61.13021,46.11112],[-61.13021,46.10765],[-61.125,46.10765],[-61.11979,46.10765],[-61.11979,46.10417],[-61.11979,46.1007],[-61.125,46.1007],[-61.125,46.09723],[-61.13021,46.09723],[-61.13542,46.09723],[-61.13542,46.1007],[-61.13541,46.10417],[-61.13541,46.10765],[-61.13542,46.11112],[-61.13542,46.11459],[-61.13542,46.11806],[-61.13542,46.12154],[-61.13021,46.12154]]]}},{"type":"Feature","properties":{"c":"57440","o":"","e":"2027-11-12"},"geometry":{"type":"Polygon","coordinates":[[[-61.13542,46.18056],[-61.13542,46.17709],[-61.14062,46.17709],[-61.14062,46.18056],[-61.13542,46.18056]]]}},{"type":"Feature","properties":{"c":"57819","o":"","e":"2028-01-29"},"geometry":{"type":"Polygon","coordinates":[[[-61.125,46.0],[-61.125,46.00348],[-61.11979,46.00348],[-61.11458,46.00348],[-61.10937,46.00348],[-61.10417,46.00348],[-61.10417,46.00001],[-61.10417,45.99653],[-61.10937,45.99654],[-61.11458,45.99654],[-61.11979,45.99654],[-61.11979,45.99306],[-61.125,45.99306],[-61.125,45.99654],[-61.13021,45.99654],[-61.13021,46.0],[-61.125,46.0]]]}},{"type":"Feature","properties":{"c":"57879","o":"","e":"2028-03-06"},"geometry":{"type":"Polygon","coordinates":[[[-61.17708,46.2014],[-61.17187,46.2014],[-61.17187,46.19793],[-61.17187,46.19445],[-61.17708,46.19445],[-61.18229,46.19445],[-61.18229,46.19792],[-61.18229,46.2014],[-61.17708,46.2014]]]}},{"type":"Feature","properties":{"c":"58258","o":"","e":"2028-09-14"},"geometry":{"type":"Polygon","coordinates":[[[-61.13021,46.18056],[-61.13021,46.17709],[-61.13021,46.17362],[-61.13542,46.17362],[-61.13542,46.17709],[-61.13542,46.18056],[-61.13021,46.18056]]]}}]}