{"type":"FeatureCollection","features":[{"type":"Feature","properties":{"c":"CDC-2816625","o":"NQC Lithium Corp. 100%","e":""},"geometry":{"type":"Polygon","coordinates":[[[-64.99167,59.0],[-64.98333,59.0],[-64.98333,58.99167],[-64.99167,58.99167],[-64.99167,59.0]]]}},{"type":"Feature","properties":{"c":"CDC-2816626","o":"NQC Lithium Corp. 100%","e":""},"geometry":{"type":"Polygon","coordinates":[[[-64.98333,59.0],[-64.975,59.0],[-64.975,58.99167],[-64.98333,58.99167],[-64.98333,59.0]]]}},{"type":"Feature","properties":{"c":"CDC-2816627","o":"NQC Lithium Corp. 100%","e":""},"geometry":{"type":"Polygon","coordinates":[[[-64.975,59.0],[-64.96667,59.0],[-64.96667,58.99167],[-64.975,58.99167],[-64.975,59.0]]]}},{"type":"Feature","properties":{"c":"CDC-2823162","o":"NQC Lithium Corp. 100%","e":""},"geometry":{"type":"Polygon","coordinates":[[[-64.56667,59.26667],[-64.55833,59.26667],[-64.55833,59.25833],[-64.56667,59.25833],[-64.56667,59.26667]]]}},{"type":"Feature","properties":{"c":"CDC-2823163","o":"NQC Lithium Corp. 100%","e":""},"geometry":{"type":"Polygon","coordinates":[[[-64.55833,59.26667],[-64.55,59.26667],[-64.55,59.25833],[-64.55833,59.25833],[-64.55833,59.26667]]]}},{"type":"Feature","properties":{"c":"CDC-2823164","o":"NQC Lithium Corp. 100%","e":""},"geometry":{"type":"Polygon","coordinates":[[[-64.55,59.26667],[-64.54167,59.26667],[-64.54167,59.25833],[-64.55,59.25833],[-64.55,59.26667]]]}},{"type":"Feature","properties":{"c":"CDC-2857930","o":"Cibles\u00a0Mini\u00e8res Critiques inc. 100%","e":""},"geometry":{"type":"Polygon","coordinates":[[[-64.69167,59.29167],[-64.68333,59.29167],[-64.68333,59.28333],[-64.69167,59.28333],[-64.69167,59.29167]]]}},{"type":"Feature","properties":{"c":"CDC-2857931","o":"Cibles\u00a0Mini\u00e8res Critiques inc. 100%","e":""},"geometry":{"type":"Polygon","coordinates":[[[-64.68333,59.29167],[-64.675,59.29167],[-64.675,59.28333],[-64.68333,59.28333],[-64.68333,59.29167]]]}},{"type":"Feature","properties":{"c":"CDC-2823128","o":"NQC Lithium Corp. 100%","e":""},"geometry":{"type":"Polygon","coordinates":[[[-64.65,59.33333],[-64.64167,59.33333],[-64.64167,59.325],[-64.65,59.325],[-64.65,59.33333]]]}},{"type":"Feature","properties":{"c":"CDC-2823129","o":"NQC Lithium Corp. 100%","e":""},"geometry":{"type":"Polygon","coordinates":[[[-64.64167,59.33333],[-64.63333,59.33333],[-64.63333,59.325],[-64.64167,59.325],[-64.64167,59.33333]]]}},{"type":"Feature","properties":{"c":"CDC-2823130","o":"NQC Lithium Corp. 100%","e":""},"geometry":{"type":"Polygon","coordinates":[[[-64.65,59.34167],[-64.64167,59.34167],[-64.64167,59.33333],[-64.65,59.33333],[-64.65,59.34167]]]}},{"type":"Feature","properties":{"c":"CDC-2823131","o":"NQC Lithium Corp. 100%","e":""},"geometry":{"type":"Polygon","coordinates":[[[-64.64167,59.34167],[-64.63333,59.34167],[-64.63333,59.33333],[-64.64167,59.33333],[-64.64167,59.34167]]]}},{"type":"Feature","properties":{"c":"CDC-2857932","o":"Cibles\u00a0Mini\u00e8res Critiques inc. 100%","e":""},"geometry":{"type":"Polygon","coordinates":[[[-64.95,59.4],[-64.94167,59.4],[-64.94167,59.39167],[-64.95,59.39167],[-64.95,59.4]]]}}]}