{"type":"FeatureCollection","features":[{"type":"Feature","properties":{"c":"041364M","o":NaN,"e":""},"geometry":{"type":"Polygon","coordinates":[[[-66.45675,53.42189],[-66.45648,53.42638],[-66.45621,53.43087],[-66.44869,53.43071],[-66.44118,53.43055],[-66.43366,53.43039],[-66.42614,53.43023],[-66.42641,53.42574],[-66.42668,53.42125],[-66.4342,53.42141],[-66.44172,53.42157],[-66.44923,53.42173],[-66.4495,53.41724],[-66.44977,53.41275],[-66.45728,53.41291],[-66.45702,53.4174],[-66.45675,53.42189]]]}}]}