{"type":"FeatureCollection","features":[{"type":"Feature","properties":{"c":"CDC-2660814","o":"Cupani Metals Corp. 100%","e":""},"geometry":{"type":"Polygon","coordinates":[[[-66.46667,55.58333],[-66.45833,55.58333],[-66.45833,55.575],[-66.46667,55.575],[-66.46667,55.58333]]]}},{"type":"Feature","properties":{"c":"CDC-2660805","o":"Cupani Metals Corp. 100%","e":""},"geometry":{"type":"Polygon","coordinates":[[[-66.46667,55.575],[-66.45833,55.575],[-66.45833,55.56667],[-66.46667,55.56667],[-66.46667,55.575]]]}},{"type":"Feature","properties":{"c":"CDC-2660798","o":"Cupani Metals Corp. 100%","e":""},"geometry":{"type":"Polygon","coordinates":[[[-66.46667,55.56667],[-66.45833,55.56667],[-66.45833,55.55833],[-66.46667,55.55833],[-66.46667,55.56667]]]}},{"type":"Feature","properties":{"c":"CDC-2660844","o":"Cupani Metals Corp. 100%","e":""},"geometry":{"type":"Polygon","coordinates":[[[-66.45833,55.61667],[-66.45,55.61667],[-66.45,55.60833],[-66.45833,55.60833],[-66.45833,55.61667]]]}},{"type":"Feature","properties":{"c":"CDC-2660835","o":"Cupani Metals Corp. 100%","e":""},"geometry":{"type":"Polygon","coordinates":[[[-66.45833,55.60833],[-66.45,55.60833],[-66.45,55.6],[-66.45833,55.6],[-66.45833,55.60833]]]}},{"type":"Feature","properties":{"c":"CDC-2660828","o":"Cupani Metals Corp. 100%","e":""},"geometry":{"type":"Polygon","coordinates":[[[-66.45833,55.6],[-66.45,55.6],[-66.45,55.59167],[-66.45833,55.59167],[-66.45833,55.6]]]}},{"type":"Feature","properties":{"c":"CDC-2660822","o":"Cupani Metals Corp. 100%","e":""},"geometry":{"type":"Polygon","coordinates":[[[-66.45833,55.59167],[-66.45,55.59167],[-66.45,55.58333],[-66.45833,55.58333],[-66.45833,55.59167]]]}},{"type":"Feature","properties":{"c":"CDC-2660815","o":"Cupani Metals Corp. 100%","e":""},"geometry":{"type":"Polygon","coordinates":[[[-66.45833,55.58333],[-66.45,55.58333],[-66.45,55.575],[-66.45833,55.575],[-66.45833,55.58333]]]}},{"type":"Feature","properties":{"c":"CDC-2660806","o":"Cupani Metals Corp. 100%","e":""},"geometry":{"type":"Polygon","coordinates":[[[-66.45833,55.575],[-66.45,55.575],[-66.45,55.56667],[-66.45833,55.56667],[-66.45833,55.575]]]}},{"type":"Feature","properties":{"c":"CDC-2660799","o":"Cupani Metals Corp. 100%","e":""},"geometry":{"type":"Polygon","coordinates":[[[-66.45833,55.56667],[-66.45,55.56667],[-66.45,55.55833],[-66.45833,55.55833],[-66.45833,55.56667]]]}},{"type":"Feature","properties":{"c":"CDC-2660845","o":"Cupani Metals Corp. 100%","e":""},"geometry":{"type":"Polygon","coordinates":[[[-66.45,55.61667],[-66.44167,55.61667],[-66.44167,55.60833],[-66.45,55.60833],[-66.45,55.61667]]]}},{"type":"Feature","properties":{"c":"CDC-2660836","o":"Cupani Metals Corp. 100%","e":""},"geometry":{"type":"Polygon","coordinates":[[[-66.45,55.60833],[-66.44167,55.60833],[-66.44167,55.6],[-66.45,55.6],[-66.45,55.60833]]]}},{"type":"Feature","properties":{"c":"CDC-2660829","o":"Cupani Metals Corp. 100%","e":""},"geometry":{"type":"Polygon","coordinates":[[[-66.45,55.6],[-66.44167,55.6],[-66.44167,55.59167],[-66.45,55.59167],[-66.45,55.6]]]}},{"type":"Feature","properties":{"c":"CDC-2660816","o":"Cupani Metals Corp. 100%","e":""},"geometry":{"type":"Polygon","coordinates":[[[-66.45,55.58333],[-66.44167,55.58333],[-66.44167,55.575],[-66.45,55.575],[-66.45,55.58333]]]}},{"type":"Feature","properties":{"c":"CDC-2660807","o":"Cupani Metals Corp. 100%","e":""},"geometry":{"type":"Polygon","coordinates":[[[-66.45,55.575],[-66.44167,55.575],[-66.44167,55.56667],[-66.45,55.56667],[-66.45,55.575]]]}},{"type":"Feature","properties":{"c":"CDC-2660800","o":"Cupani Metals Corp. 100%","e":""},"geometry":{"type":"Polygon","coordinates":[[[-66.45,55.56667],[-66.44167,55.56667],[-66.44167,55.55833],[-66.45,55.55833],[-66.45,55.56667]]]}},{"type":"Feature","properties":{"c":"CDC-2660846","o":"Cupani Metals Corp. 100%","e":""},"geometry":{"type":"Polygon","coordinates":[[[-66.44167,55.61667],[-66.43333,55.61667],[-66.43333,55.60833],[-66.44167,55.60833],[-66.44167,55.61667]]]}},{"type":"Feature","properties":{"c":"CDC-2660837","o":"Cupani Metals Corp. 100%","e":""},"geometry":{"type":"Polygon","coordinates":[[[-66.44167,55.60833],[-66.43333,55.60833],[-66.43333,55.6],[-66.44167,55.6],[-66.44167,55.60833]]]}},{"type":"Feature","properties":{"c":"CDC-2660808","o":"Cupani Metals Corp. 100%","e":""},"geometry":{"type":"Polygon","coordinates":[[[-66.44167,55.575],[-66.43333,55.575],[-66.43333,55.56667],[-66.44167,55.56667],[-66.44167,55.575]]]}},{"type":"Feature","properties":{"c":"CDC-2660801","o":"Cupani Metals Corp. 100%","e":""},"geometry":{"type":"Polygon","coordinates":[[[-66.44167,55.56667],[-66.43333,55.56667],[-66.43333,55.55833],[-66.44167,55.55833],[-66.44167,55.56667]]]}},{"type":"Feature","properties":{"c":"CDC-2660794","o":"Cupani Metals Corp. 100%","e":""},"geometry":{"type":"Polygon","coordinates":[[[-66.44167,55.55833],[-66.43333,55.55833],[-66.43333,55.55],[-66.44167,55.55],[-66.44167,55.55833]]]}},{"type":"Feature","properties":{"c":"CDC-2660847","o":"Cupani Metals Corp. 100%","e":""},"geometry":{"type":"Polygon","coordinates":[[[-66.43333,55.61667],[-66.425,55.61667],[-66.425,55.60833],[-66.43333,55.60833],[-66.43333,55.61667]]]}},{"type":"Feature","properties":{"c":"CDC-2660838","o":"Cupani Metals Corp. 100%","e":""},"geometry":{"type":"Polygon","coordinates":[[[-66.43333,55.60833],[-66.425,55.60833],[-66.425,55.6],[-66.43333,55.6],[-66.43333,55.60833]]]}},{"type":"Feature","properties":{"c":"CDC-2660809","o":"Cupani Metals Corp. 100%","e":""},"geometry":{"type":"Polygon","coordinates":[[[-66.43333,55.575],[-66.425,55.575],[-66.425,55.56667],[-66.43333,55.56667],[-66.43333,55.575]]]}},{"type":"Feature","properties":{"c":"CDC-2660802","o":"Cupani Metals Corp. 100%","e":""},"geometry":{"type":"Polygon","coordinates":[[[-66.43333,55.56667],[-66.425,55.56667],[-66.425,55.55833],[-66.43333,55.55833],[-66.43333,55.56667]]]}},{"type":"Feature","properties":{"c":"CDC-2660795","o":"Cupani Metals Corp. 100%","e":""},"geometry":{"type":"Polygon","coordinates":[[[-66.43333,55.55833],[-66.425,55.55833],[-66.425,55.55],[-66.43333,55.55],[-66.43333,55.55833]]]}},{"type":"Feature","properties":{"c":"CDC-2660796","o":"Cupani Metals Corp. 100%","e":""},"geometry":{"type":"Polygon","coordinates":[[[-66.425,55.55833],[-66.41667,55.55833],[-66.41667,55.55],[-66.425,55.55],[-66.425,55.55833]]]}},{"type":"Feature","properties":{"c":"CDC-2666933","o":"Cupani Metals Corp. 100%","e":""},"geometry":{"type":"Polygon","coordinates":[[[-66.46667,55.5],[-66.45833,55.5],[-66.45833,55.49167],[-66.46667,55.49167],[-66.46667,55.5]]]}},{"type":"Feature","properties":{"c":"CDC-2666934","o":"Cupani Metals Corp. 100%","e":""},"geometry":{"type":"Polygon","coordinates":[[[-66.45833,55.5],[-66.45,55.5],[-66.45,55.49167],[-66.45833,55.49167],[-66.45833,55.5]]]}},{"type":"Feature","properties":{"c":"CDC-2666935","o":"Cupani Metals Corp. 100%","e":""},"geometry":{"type":"Polygon","coordinates":[[[-66.45,55.5],[-66.44167,55.5],[-66.44167,55.49167],[-66.45,55.49167],[-66.45,55.5]]]}},{"type":"Feature","properties":{"c":"CDC-2666936","o":"Cupani Metals Corp. 100%","e":""},"geometry":{"type":"Polygon","coordinates":[[[-66.44167,55.5],[-66.43333,55.5],[-66.43333,55.49167],[-66.44167,55.49167],[-66.44167,55.5]]]}},{"type":"Feature","properties":{"c":"CDC-2666937","o":"Cupani Metals Corp. 100%","e":""},"geometry":{"type":"Polygon","coordinates":[[[-66.43333,55.5],[-66.425,55.5],[-66.425,55.49167],[-66.43333,55.49167],[-66.43333,55.5]]]}},{"type":"Feature","properties":{"c":"CDC-2666938","o":"Cupani Metals Corp. 100%","e":""},"geometry":{"type":"Polygon","coordinates":[[[-66.425,55.5],[-66.41667,55.5],[-66.41667,55.49167],[-66.425,55.49167],[-66.425,55.5]]]}},{"type":"Feature","properties":{"c":"CDC-2666939","o":"Cupani Metals Corp. 100%","e":""},"geometry":{"type":"Polygon","coordinates":[[[-66.41667,55.5],[-66.40833,55.5],[-66.40833,55.49167],[-66.41667,55.49167],[-66.41667,55.5]]]}},{"type":"Feature","properties":{"c":"CDC-2666940","o":"Cupani Metals Corp. 100%","e":""},"geometry":{"type":"Polygon","coordinates":[[[-66.40833,55.5],[-66.4,55.5],[-66.4,55.49167],[-66.40833,55.49167],[-66.40833,55.5]]]}},{"type":"Feature","properties":{"c":"CDC-2833214","o":"Cupani Metals Corp. 100%","e":""},"geometry":{"type":"Polygon","coordinates":[[[-66.5,55.50833],[-66.49167,55.50833],[-66.49167,55.5],[-66.5,55.5],[-66.5,55.50833]]]}},{"type":"Feature","properties":{"c":"CDC-2833215","o":"Cupani Metals Corp. 100%","e":""},"geometry":{"type":"Polygon","coordinates":[[[-66.49167,55.50833],[-66.48333,55.50833],[-66.48333,55.5],[-66.49167,55.5],[-66.49167,55.50833]]]}},{"type":"Feature","properties":{"c":"CDC-2833216","o":"Cupani Metals Corp. 100%","e":""},"geometry":{"type":"Polygon","coordinates":[[[-66.48333,55.50833],[-66.475,55.50833],[-66.475,55.5],[-66.48333,55.5],[-66.48333,55.50833]]]}},{"type":"Feature","properties":{"c":"CDC-2833217","o":"Cupani Metals Corp. 100%","e":""},"geometry":{"type":"Polygon","coordinates":[[[-66.475,55.50833],[-66.46667,55.50833],[-66.46667,55.5],[-66.475,55.5],[-66.475,55.50833]]]}},{"type":"Feature","properties":{"c":"CDC-2666941","o":"Cupani Metals Corp. 100%","e":""},"geometry":{"type":"Polygon","coordinates":[[[-66.46667,55.50833],[-66.45833,55.50833],[-66.45833,55.5],[-66.46667,55.5],[-66.46667,55.50833]]]}},{"type":"Feature","properties":{"c":"CDC-2666942","o":"Cupani Metals Corp. 100%","e":""},"geometry":{"type":"Polygon","coordinates":[[[-66.45833,55.50833],[-66.45,55.50833],[-66.45,55.5],[-66.45833,55.5],[-66.45833,55.50833]]]}},{"type":"Feature","properties":{"c":"CDC-2833218","o":"Cupani Metals Corp. 100%","e":""},"geometry":{"type":"Polygon","coordinates":[[[-66.45,55.50833],[-66.44167,55.50833],[-66.44167,55.5],[-66.45,55.5],[-66.45,55.50833]]]}},{"type":"Feature","properties":{"c":"CDC-2833219","o":"Cupani Metals Corp. 100%","e":""},"geometry":{"type":"Polygon","coordinates":[[[-66.44167,55.50833],[-66.43333,55.50833],[-66.43333,55.5],[-66.44167,55.5],[-66.44167,55.50833]]]}},{"type":"Feature","properties":{"c":"CDC-2833220","o":"Cupani Metals Corp. 100%","e":""},"geometry":{"type":"Polygon","coordinates":[[[-66.43333,55.50833],[-66.425,55.50833],[-66.425,55.5],[-66.43333,55.5],[-66.43333,55.50833]]]}},{"type":"Feature","properties":{"c":"CDC-2833233","o":"Cupani Metals Corp. 100%","e":""},"geometry":{"type":"Polygon","coordinates":[[[-66.50833,55.51667],[-66.5,55.51667],[-66.5,55.50833],[-66.50833,55.50833],[-66.50833,55.51667]]]}},{"type":"Feature","properties":{"c":"CDC-2833221","o":"Cupani Metals Corp. 100%","e":""},"geometry":{"type":"Polygon","coordinates":[[[-66.5,55.51667],[-66.49167,55.51667],[-66.49167,55.50833],[-66.5,55.50833],[-66.5,55.51667]]]}},{"type":"Feature","properties":{"c":"CDC-2833222","o":"Cupani Metals Corp. 100%","e":""},"geometry":{"type":"Polygon","coordinates":[[[-66.49167,55.51667],[-66.48333,55.51667],[-66.48333,55.50833],[-66.49167,55.50833],[-66.49167,55.51667]]]}},{"type":"Feature","properties":{"c":"CDC-2833223","o":"Cupani Metals Corp. 100%","e":""},"geometry":{"type":"Polygon","coordinates":[[[-66.48333,55.51667],[-66.475,55.51667],[-66.475,55.50833],[-66.48333,55.50833],[-66.48333,55.51667]]]}},{"type":"Feature","properties":{"c":"CDC-2833224","o":"Cupani Metals Corp. 100%","e":""},"geometry":{"type":"Polygon","coordinates":[[[-66.475,55.51667],[-66.46667,55.51667],[-66.46667,55.50833],[-66.475,55.50833],[-66.475,55.51667]]]}},{"type":"Feature","properties":{"c":"CDC-2833225","o":"Cupani Metals Corp. 100%","e":""},"geometry":{"type":"Polygon","coordinates":[[[-66.46667,55.51667],[-66.45833,55.51667],[-66.45833,55.50833],[-66.46667,55.50833],[-66.46667,55.51667]]]}},{"type":"Feature","properties":{"c":"CDC-2833226","o":"Cupani Metals Corp. 100%","e":""},"geometry":{"type":"Polygon","coordinates":[[[-66.45833,55.51667],[-66.45,55.51667],[-66.45,55.50833],[-66.45833,55.50833],[-66.45833,55.51667]]]}},{"type":"Feature","properties":{"c":"CDC-2833236","o":"Cupani Metals Corp. 100%","e":""},"geometry":{"type":"Polygon","coordinates":[[[-66.50833,55.525],[-66.5,55.525],[-66.5,55.51667],[-66.50833,55.51667],[-66.50833,55.525]]]}},{"type":"Feature","properties":{"c":"CDC-2869994","o":"Bertrand Brassard 100%","e":""},"geometry":{"type":"Polygon","coordinates":[[[-66.5,55.5],[-66.49167,55.5],[-66.49167,55.49167],[-66.5,55.49167],[-66.5,55.5]]]}},{"type":"Feature","properties":{"c":"CDC-2869995","o":"Bertrand Brassard 100%","e":""},"geometry":{"type":"Polygon","coordinates":[[[-66.49167,55.5],[-66.48333,55.5],[-66.48333,55.49167],[-66.49167,55.49167],[-66.49167,55.5]]]}},{"type":"Feature","properties":{"c":"CDC-2833495","o":"Cupani Metals Corp. 100%","e":""},"geometry":{"type":"Polygon","coordinates":[[[-66.48333,55.5],[-66.475,55.5],[-66.475,55.49167],[-66.48333,55.49167],[-66.48333,55.5]]]}},{"type":"Feature","properties":{"c":"CDC-2833496","o":"Cupani Metals Corp. 100%","e":""},"geometry":{"type":"Polygon","coordinates":[[[-66.475,55.5],[-66.46667,55.5],[-66.46667,55.49167],[-66.475,55.49167],[-66.475,55.5]]]}},{"type":"Feature","properties":{"c":"CDC-2833227","o":"Cupani Metals Corp. 100%","e":""},"geometry":{"type":"Polygon","coordinates":[[[-66.5,55.525],[-66.49167,55.525],[-66.49167,55.51667],[-66.5,55.51667],[-66.5,55.525]]]}},{"type":"Feature","properties":{"c":"CDC-2833228","o":"Cupani Metals Corp. 100%","e":""},"geometry":{"type":"Polygon","coordinates":[[[-66.49167,55.525],[-66.48333,55.525],[-66.48333,55.51667],[-66.49167,55.51667],[-66.49167,55.525]]]}},{"type":"Feature","properties":{"c":"CDC-2833229","o":"Cupani Metals Corp. 100%","e":""},"geometry":{"type":"Polygon","coordinates":[[[-66.48333,55.525],[-66.475,55.525],[-66.475,55.51667],[-66.48333,55.51667],[-66.48333,55.525]]]}},{"type":"Feature","properties":{"c":"CDC-2833230","o":"Cupani Metals Corp. 100%","e":""},"geometry":{"type":"Polygon","coordinates":[[[-66.475,55.525],[-66.46667,55.525],[-66.46667,55.51667],[-66.475,55.51667],[-66.475,55.525]]]}},{"type":"Feature","properties":{"c":"CDC-2833241","o":"Cupani Metals Corp. 100%","e":""},"geometry":{"type":"Polygon","coordinates":[[[-66.50833,55.53333],[-66.5,55.53333],[-66.5,55.525],[-66.50833,55.525],[-66.50833,55.53333]]]}},{"type":"Feature","properties":{"c":"CDC-2833231","o":"Cupani Metals Corp. 100%","e":""},"geometry":{"type":"Polygon","coordinates":[[[-66.5,55.53333],[-66.49167,55.53333],[-66.49167,55.525],[-66.5,55.525],[-66.5,55.53333]]]}},{"type":"Feature","properties":{"c":"CDC-2833232","o":"Cupani Metals Corp. 100%","e":""},"geometry":{"type":"Polygon","coordinates":[[[-66.49167,55.53333],[-66.48333,55.53333],[-66.48333,55.525],[-66.49167,55.525],[-66.49167,55.53333]]]}},{"type":"Feature","properties":{"c":"CDC-2833247","o":"Cupani Metals Corp. 100%","e":""},"geometry":{"type":"Polygon","coordinates":[[[-66.50833,55.54167],[-66.5,55.54167],[-66.5,55.53333],[-66.50833,55.53333],[-66.50833,55.54167]]]}},{"type":"Feature","properties":{"c":"CDC-2660792","o":"Cupani Metals Corp. 100%","e":""},"geometry":{"type":"Polygon","coordinates":[[[-66.45833,55.55833],[-66.45,55.55833],[-66.45,55.55],[-66.45833,55.55],[-66.45833,55.55833]]]}},{"type":"Feature","properties":{"c":"CDC-2660793","o":"Cupani Metals Corp. 100%","e":""},"geometry":{"type":"Polygon","coordinates":[[[-66.45,55.55833],[-66.44167,55.55833],[-66.44167,55.55],[-66.45,55.55],[-66.45,55.55833]]]}},{"type":"Feature","properties":{"c":"CDC-2660797","o":"Cupani Metals Corp. 100%","e":""},"geometry":{"type":"Polygon","coordinates":[[[-66.475,55.56667],[-66.46667,55.56667],[-66.46667,55.55833],[-66.475,55.55833],[-66.475,55.56667]]]}},{"type":"Feature","properties":{"c":"CDC-2660803","o":"Cupani Metals Corp. 100%","e":""},"geometry":{"type":"Polygon","coordinates":[[[-66.48333,55.575],[-66.475,55.575],[-66.475,55.56667],[-66.48333,55.56667],[-66.48333,55.575]]]}},{"type":"Feature","properties":{"c":"CDC-2660804","o":"Cupani Metals Corp. 100%","e":""},"geometry":{"type":"Polygon","coordinates":[[[-66.475,55.575],[-66.46667,55.575],[-66.46667,55.56667],[-66.475,55.56667],[-66.475,55.575]]]}},{"type":"Feature","properties":{"c":"CDC-2660810","o":"Cupani Metals Corp. 100%","e":""},"geometry":{"type":"Polygon","coordinates":[[[-66.5,55.58333],[-66.49167,55.58333],[-66.49167,55.575],[-66.5,55.575],[-66.5,55.58333]]]}},{"type":"Feature","properties":{"c":"CDC-2660811","o":"Cupani Metals Corp. 100%","e":""},"geometry":{"type":"Polygon","coordinates":[[[-66.49167,55.58333],[-66.48333,55.58333],[-66.48333,55.575],[-66.49167,55.575],[-66.49167,55.58333]]]}},{"type":"Feature","properties":{"c":"CDC-2660812","o":"Cupani Metals Corp. 100%","e":""},"geometry":{"type":"Polygon","coordinates":[[[-66.48333,55.58333],[-66.475,55.58333],[-66.475,55.575],[-66.48333,55.575],[-66.48333,55.58333]]]}},{"type":"Feature","properties":{"c":"CDC-2660813","o":"Cupani Metals Corp. 100%","e":""},"geometry":{"type":"Polygon","coordinates":[[[-66.475,55.58333],[-66.46667,55.58333],[-66.46667,55.575],[-66.475,55.575],[-66.475,55.58333]]]}},{"type":"Feature","properties":{"c":"CDC-2660852","o":"Cupani Metals Corp. 100%","e":""},"geometry":{"type":"Polygon","coordinates":[[[-66.50833,55.59167],[-66.5,55.59167],[-66.5,55.58333],[-66.50833,55.58333],[-66.50833,55.59167]]]}},{"type":"Feature","properties":{"c":"CDC-2660817","o":"Cupani Metals Corp. 100%","e":""},"geometry":{"type":"Polygon","coordinates":[[[-66.5,55.59167],[-66.49167,55.59167],[-66.49167,55.58333],[-66.5,55.58333],[-66.5,55.59167]]]}},{"type":"Feature","properties":{"c":"CDC-2660818","o":"Cupani Metals Corp. 100%","e":""},"geometry":{"type":"Polygon","coordinates":[[[-66.49167,55.59167],[-66.48333,55.59167],[-66.48333,55.58333],[-66.49167,55.58333],[-66.49167,55.59167]]]}},{"type":"Feature","properties":{"c":"CDC-2660819","o":"Cupani Metals Corp. 100%","e":""},"geometry":{"type":"Polygon","coordinates":[[[-66.48333,55.59167],[-66.475,55.59167],[-66.475,55.58333],[-66.48333,55.58333],[-66.48333,55.59167]]]}},{"type":"Feature","properties":{"c":"CDC-2660820","o":"Cupani Metals Corp. 100%","e":""},"geometry":{"type":"Polygon","coordinates":[[[-66.475,55.59167],[-66.46667,55.59167],[-66.46667,55.58333],[-66.475,55.58333],[-66.475,55.59167]]]}},{"type":"Feature","properties":{"c":"CDC-2660821","o":"Cupani Metals Corp. 100%","e":""},"geometry":{"type":"Polygon","coordinates":[[[-66.46667,55.59167],[-66.45833,55.59167],[-66.45833,55.58333],[-66.46667,55.58333],[-66.46667,55.59167]]]}},{"type":"Feature","properties":{"c":"CDC-2660854","o":"Cupani Metals Corp. 100%","e":""},"geometry":{"type":"Polygon","coordinates":[[[-66.50833,55.6],[-66.5,55.6],[-66.5,55.59167],[-66.50833,55.59167],[-66.50833,55.6]]]}},{"type":"Feature","properties":{"c":"CDC-2660823","o":"Cupani Metals Corp. 100%","e":""},"geometry":{"type":"Polygon","coordinates":[[[-66.5,55.6],[-66.49167,55.6],[-66.49167,55.59167],[-66.5,55.59167],[-66.5,55.6]]]}},{"type":"Feature","properties":{"c":"CDC-2660824","o":"Cupani Metals Corp. 100%","e":""},"geometry":{"type":"Polygon","coordinates":[[[-66.49167,55.6],[-66.48333,55.6],[-66.48333,55.59167],[-66.49167,55.59167],[-66.49167,55.6]]]}},{"type":"Feature","properties":{"c":"CDC-2660825","o":"Cupani Metals Corp. 100%","e":""},"geometry":{"type":"Polygon","coordinates":[[[-66.48333,55.6],[-66.475,55.6],[-66.475,55.59167],[-66.48333,55.59167],[-66.48333,55.6]]]}},{"type":"Feature","properties":{"c":"CDC-2660826","o":"Cupani Metals Corp. 100%","e":""},"geometry":{"type":"Polygon","coordinates":[[[-66.475,55.6],[-66.46667,55.6],[-66.46667,55.59167],[-66.475,55.59167],[-66.475,55.6]]]}},{"type":"Feature","properties":{"c":"CDC-2660827","o":"Cupani Metals Corp. 100%","e":""},"geometry":{"type":"Polygon","coordinates":[[[-66.46667,55.6],[-66.45833,55.6],[-66.45833,55.59167],[-66.46667,55.59167],[-66.46667,55.6]]]}},{"type":"Feature","properties":{"c":"CDC-2660859","o":"Cupani Metals Corp. 100%","e":""},"geometry":{"type":"Polygon","coordinates":[[[-66.50833,55.60833],[-66.5,55.60833],[-66.5,55.6],[-66.50833,55.6],[-66.50833,55.60833]]]}},{"type":"Feature","properties":{"c":"CDC-2660830","o":"Cupani Metals Corp. 100%","e":""},"geometry":{"type":"Polygon","coordinates":[[[-66.5,55.60833],[-66.49167,55.60833],[-66.49167,55.6],[-66.5,55.6],[-66.5,55.60833]]]}},{"type":"Feature","properties":{"c":"CDC-2660831","o":"Cupani Metals Corp. 100%","e":""},"geometry":{"type":"Polygon","coordinates":[[[-66.49167,55.60833],[-66.48333,55.60833],[-66.48333,55.6],[-66.49167,55.6],[-66.49167,55.60833]]]}},{"type":"Feature","properties":{"c":"CDC-2660832","o":"Cupani Metals Corp. 100%","e":""},"geometry":{"type":"Polygon","coordinates":[[[-66.48333,55.60833],[-66.475,55.60833],[-66.475,55.6],[-66.48333,55.6],[-66.48333,55.60833]]]}},{"type":"Feature","properties":{"c":"CDC-2660833","o":"Cupani Metals Corp. 100%","e":""},"geometry":{"type":"Polygon","coordinates":[[[-66.475,55.60833],[-66.46667,55.60833],[-66.46667,55.6],[-66.475,55.6],[-66.475,55.60833]]]}},{"type":"Feature","properties":{"c":"CDC-2660834","o":"Cupani Metals Corp. 100%","e":""},"geometry":{"type":"Polygon","coordinates":[[[-66.46667,55.60833],[-66.45833,55.60833],[-66.45833,55.6],[-66.46667,55.6],[-66.46667,55.60833]]]}},{"type":"Feature","properties":{"c":"CDC-2660865","o":"Cupani Metals Corp. 100%","e":""},"geometry":{"type":"Polygon","coordinates":[[[-66.50833,55.61667],[-66.5,55.61667],[-66.5,55.60833],[-66.50833,55.60833],[-66.50833,55.61667]]]}},{"type":"Feature","properties":{"c":"CDC-2660839","o":"Cupani Metals Corp. 100%","e":""},"geometry":{"type":"Polygon","coordinates":[[[-66.5,55.61667],[-66.49167,55.61667],[-66.49167,55.60833],[-66.5,55.60833],[-66.5,55.61667]]]}},{"type":"Feature","properties":{"c":"CDC-2660840","o":"Cupani Metals Corp. 100%","e":""},"geometry":{"type":"Polygon","coordinates":[[[-66.49167,55.61667],[-66.48333,55.61667],[-66.48333,55.60833],[-66.49167,55.60833],[-66.49167,55.61667]]]}},{"type":"Feature","properties":{"c":"CDC-2660841","o":"Cupani Metals Corp. 100%","e":""},"geometry":{"type":"Polygon","coordinates":[[[-66.48333,55.61667],[-66.475,55.61667],[-66.475,55.60833],[-66.48333,55.60833],[-66.48333,55.61667]]]}},{"type":"Feature","properties":{"c":"CDC-2660842","o":"Cupani Metals Corp. 100%","e":""},"geometry":{"type":"Polygon","coordinates":[[[-66.475,55.61667],[-66.46667,55.61667],[-66.46667,55.60833],[-66.475,55.60833],[-66.475,55.61667]]]}},{"type":"Feature","properties":{"c":"CDC-2660843","o":"Cupani Metals Corp. 100%","e":""},"geometry":{"type":"Polygon","coordinates":[[[-66.46667,55.61667],[-66.45833,55.61667],[-66.45833,55.60833],[-66.46667,55.60833],[-66.46667,55.61667]]]}},{"type":"Feature","properties":{"c":"CDC-2660873","o":"Cupani Metals Corp. 100%","e":""},"geometry":{"type":"Polygon","coordinates":[[[-66.50833,55.625],[-66.5,55.625],[-66.5,55.61667],[-66.50833,55.61667],[-66.50833,55.625]]]}},{"type":"Feature","properties":{"c":"CDC-2660848","o":"Cupani Metals Corp. 100%","e":""},"geometry":{"type":"Polygon","coordinates":[[[-66.48333,55.625],[-66.475,55.625],[-66.475,55.61667],[-66.48333,55.61667],[-66.48333,55.625]]]}},{"type":"Feature","properties":{"c":"CDC-2660849","o":"Cupani Metals Corp. 100%","e":""},"geometry":{"type":"Polygon","coordinates":[[[-66.475,55.625],[-66.46667,55.625],[-66.46667,55.61667],[-66.475,55.61667],[-66.475,55.625]]]}},{"type":"Feature","properties":{"c":"CDC-2660850","o":"Cupani Metals Corp. 100%","e":""},"geometry":{"type":"Polygon","coordinates":[[[-66.46667,55.625],[-66.45833,55.625],[-66.45833,55.61667],[-66.46667,55.61667],[-66.46667,55.625]]]}}]}