{"type":"FeatureCollection","features":[{"type":"Feature","properties":{"c":"9217","o":"","e":""},"geometry":{"type":"Polygon","coordinates":[[[-66.6625,45.40418],[-66.65625,45.40418],[-66.65625,45.42501],[-66.6375,45.42501],[-66.6375,45.43334],[-66.625,45.43334],[-66.625,45.45001],[-66.6,45.45001],[-66.6,45.46668],[-66.55,45.46668],[-66.55,45.48334],[-66.525,45.48334],[-66.525,45.50001],[-66.5,45.50001],[-66.5,45.45834],[-66.525,45.45834],[-66.525,45.43751],[-66.59375,45.43751],[-66.59375,45.42084],[-66.6,45.42084],[-66.6,45.40001],[-66.61875,45.40001],[-66.61875,45.39168],[-66.6625,45.39168],[-66.6625,45.39584],[-66.6625,45.40418]]]}},{"type":"Feature","properties":{"c":"10657","o":"","e":""},"geometry":{"type":"Polygon","coordinates":[[[-66.55,45.20834],[-66.525,45.20834],[-66.525,45.21251],[-66.50625,45.21251],[-66.50625,45.21668],[-66.4625,45.21668],[-66.4625,45.20834],[-66.46875,45.20834],[-66.46875,45.20418],[-66.475,45.20418],[-66.475,45.19584],[-66.4875,45.19584],[-66.4875,45.19168],[-66.50625,45.19168],[-66.50625,45.18751],[-66.54375,45.18751],[-66.54375,45.19168],[-66.55,45.19168],[-66.55,45.20834]]]}},{"type":"Feature","properties":{"c":"10391","o":"","e":""},"geometry":{"type":"Polygon","coordinates":[[[-66.18125,45.18334],[-66.18125,45.17918],[-66.16875,45.17918],[-66.16875,45.17501],[-66.175,45.17501],[-66.175,45.17084],[-66.18125,45.17084],[-66.18125,45.16251],[-66.19375,45.16251],[-66.19375,45.16668],[-66.2,45.16668],[-66.2,45.16251],[-66.21539,45.16251],[-66.2146,45.16761],[-66.21538,45.17121],[-66.21732,45.17386],[-66.21705,45.17448],[-66.21875,45.17591],[-66.21875,45.17777],[-66.21812,45.1783],[-66.21814,45.18251],[-66.2165,45.19112],[-66.21875,45.19276],[-66.21875,45.19584],[-66.20625,45.19584],[-66.20625,45.20001],[-66.19375,45.20001],[-66.19375,45.19168],[-66.1875,45.19168],[-66.1875,45.18334],[-66.18125,45.18334]],[[-66.19375,45.18334],[-66.19375,45.17918],[-66.1875,45.17918],[-66.1875,45.18334],[-66.19375,45.18334]],[[-66.2,45.17918],[-66.2,45.17501],[-66.19375,45.17501],[-66.19375,45.17918],[-66.2,45.17918]]]}},{"type":"Feature","properties":{"c":"10868","o":"","e":""},"geometry":{"type":"Polygon","coordinates":[[[-66.325,45.40418],[-66.325,45.40834],[-66.31875,45.40834],[-66.31875,45.40418],[-66.3125,45.40418],[-66.3125,45.40001],[-66.29375,45.40001],[-66.29375,45.38751],[-66.33125,45.38751],[-66.33125,45.39168],[-66.34375,45.39168],[-66.34375,45.40001],[-66.35,45.40001],[-66.35,45.40418],[-66.325,45.40418]]]}},{"type":"Feature","properties":{"c":"10977","o":"","e":""},"geometry":{"type":"Polygon","coordinates":[[[-66.19375,45.16668],[-66.19375,45.16251],[-66.1875,45.16251],[-66.18125,45.16251],[-66.18125,45.16668],[-66.175,45.16668],[-66.175,45.15834],[-66.18125,45.15834],[-66.18125,45.15418],[-66.2,45.15418],[-66.2,45.16668],[-66.19375,45.16668]]]}},{"type":"Feature","properties":{"c":"10985","o":"","e":""},"geometry":{"type":"MultiPolygon","coordinates":[[[[-66.1875,45.19168],[-66.19375,45.19168],[-66.19375,45.19584],[-66.1625,45.19584],[-66.1625,45.18751],[-66.16875,45.18751],[-66.16875,45.17918],[-66.18125,45.17918],[-66.18125,45.18334],[-66.1875,45.18334],[-66.1875,45.19168]]],[[[-66.19375,45.17501],[-66.2,45.17501],[-66.2,45.17918],[-66.19375,45.17918],[-66.19375,45.17501]]],[[[-66.19375,45.18334],[-66.1875,45.18334],[-66.1875,45.17918],[-66.19375,45.17918],[-66.19375,45.18334]]]]}},{"type":"Feature","properties":{"c":"11059","o":"","e":""},"geometry":{"type":"MultiPolygon","coordinates":[[[[-66.36875,45.11251],[-66.3625,45.11251],[-66.3625,45.10418],[-66.375,45.10418],[-66.375,45.10731],[-66.37389,45.10714],[-66.37342,45.10609],[-66.37267,45.10577],[-66.37272,45.10523],[-66.37227,45.10537],[-66.37909,45.11572],[-66.3803,45.11528],[-66.38125,45.11536],[-66.38125,45.11668],[-66.36875,45.11668],[-66.36875,45.11251]],[[-66.37921,45.1159],[-66.37943,45.11625],[-66.38095,45.11551],[-66.38062,45.11547],[-66.37921,45.1159]]],[[[-66.37823,45.11268],[-66.37749,45.11207],[-66.37761,45.11154],[-66.37897,45.11002],[-66.38063,45.10932],[-66.38034,45.10929],[-66.3804,45.10862],[-66.37866,45.10834],[-66.38125,45.10834],[-66.38125,45.11165],[-66.38052,45.11209],[-66.38063,45.11238],[-66.38114,45.11239],[-66.38112,45.11288],[-66.38036,45.11344],[-66.37823,45.11268]]]]}},{"type":"Feature","properties":{"c":"11060","o":"","e":""},"geometry":{"type":"Polygon","coordinates":[[[-66.38125,45.11668],[-66.38125,45.11536],[-66.38632,45.11326],[-66.38263,45.10767],[-66.38198,45.1098],[-66.38217,45.11122],[-66.38125,45.11165],[-66.38125,45.10001],[-66.4,45.10001],[-66.4,45.10078],[-66.39947,45.10108],[-66.39861,45.10069],[-66.39648,45.10097],[-66.39546,45.10209],[-66.39553,45.10286],[-66.39515,45.10335],[-66.39648,45.10549],[-66.4,45.10242],[-66.4,45.11668],[-66.38125,45.11668]]]}},{"type":"Feature","properties":{"c":"11488","o":"","e":""},"geometry":{"type":"MultiPolygon","coordinates":[[[[-66.46875,45.20001],[-66.4625,45.20001],[-66.4625,45.20418],[-66.45625,45.20418],[-66.45625,45.20834],[-66.4375,45.20834],[-66.4375,45.21251],[-66.43125,45.21251],[-66.43125,45.21668],[-66.425,45.21668],[-66.425,45.21251],[-66.41875,45.21251],[-66.41875,45.20834],[-66.4125,45.20834],[-66.4125,45.20001],[-66.40625,45.20001],[-66.40625,45.19584],[-66.4,45.19584],[-66.4,45.19168],[-66.39375,45.19168],[-66.39375,45.18334],[-66.4,45.18334],[-66.4,45.17501],[-66.40625,45.17501],[-66.40625,45.17918],[-66.425,45.17918],[-66.425,45.17501],[-66.4375,45.17501],[-66.4375,45.17918],[-66.44375,45.17918],[-66.44375,45.18334],[-66.45,45.18334],[-66.45,45.18751],[-66.45625,45.18751],[-66.45625,45.19168],[-66.4625,45.19168],[-66.4625,45.19584],[-66.46875,45.19584],[-66.46875,45.20001]]],[[[-66.46875,45.17501],[-66.46875,45.17918],[-66.475,45.17918],[-66.475,45.18751],[-66.48125,45.18751],[-66.48125,45.19168],[-66.475,45.19168],[-66.475,45.19584],[-66.46875,45.19584],[-66.46875,45.19168],[-66.4625,45.19168],[-66.4625,45.18751],[-66.45625,45.18751],[-66.45625,45.18334],[-66.45,45.18334],[-66.45,45.17918],[-66.44375,45.17918],[-66.44375,45.17501],[-66.46875,45.17501]]],[[[-66.43125,45.17084],[-66.43125,45.16251],[-66.44375,45.16251],[-66.44375,45.15834],[-66.45625,45.15834],[-66.45625,45.15418],[-66.4625,45.15418],[-66.4625,45.15001],[-66.46875,45.15001],[-66.46875,45.15834],[-66.4625,45.15834],[-66.4625,45.16251],[-66.45625,45.16251],[-66.45625,45.17084],[-66.45,45.17084],[-66.45,45.16668],[-66.4375,45.16668],[-66.4375,45.17084],[-66.43125,45.17084]]],[[[-66.40625,45.16668],[-66.4125,45.16668],[-66.4125,45.16251],[-66.41875,45.16251],[-66.41875,45.16668],[-66.425,45.16668],[-66.425,45.17084],[-66.4125,45.17084],[-66.4125,45.17501],[-66.40625,45.17501],[-66.40625,45.16668]]],[[[-66.44375,45.17084],[-66.44375,45.17501],[-66.4375,45.17501],[-66.4375,45.17084],[-66.44375,45.17084]]]]}},{"type":"Feature","properties":{"c":"11489","o":"","e":""},"geometry":{"type":"MultiPolygon","coordinates":[[[[-66.25,45.24445],[-66.25,45.25418],[-66.24384,45.25418],[-66.24316,45.25305],[-66.2375,45.25418],[-66.2375,45.26551],[-66.23098,45.26668],[-66.2125,45.26668],[-66.2125,45.26251],[-66.2,45.26251],[-66.2,45.25834],[-66.19375,45.25834],[-66.19375,45.25418],[-66.1875,45.25418],[-66.1875,45.25001],[-66.16875,45.25001],[-66.16875,45.24584],[-66.15625,45.24584],[-66.15625,45.23334],[-66.1625,45.23334],[-66.1625,45.22918],[-66.16875,45.22918],[-66.16875,45.22501],[-66.175,45.22501],[-66.175,45.22084],[-66.18125,45.22084],[-66.18125,45.21668],[-66.1875,45.21668],[-66.1875,45.21251],[-66.19375,45.21251],[-66.19375,45.20834],[-66.2,45.20834],[-66.2,45.20418],[-66.20625,45.20418],[-66.20625,45.20001],[-66.25625,45.20001],[-66.25625,45.21251],[-66.25,45.21251],[-66.25,45.22918],[-66.2625,45.22918],[-66.26242,45.23334],[-66.25625,45.23334],[-66.25625,45.23751],[-66.25,45.23751],[-66.25,45.24143],[-66.24873,45.24173],[-66.25,45.24445]],[[-66.24471,45.23314],[-66.23474,45.23546],[-66.23875,45.24406],[-66.24873,45.24173],[-66.24471,45.23314]]],[[[-66.26304,45.23334],[-66.26841,45.23334],[-66.26875,45.23406],[-66.26875,45.23751],[-66.27036,45.23751],[-66.275,45.24771],[-66.27001,45.24887],[-66.26875,45.24616],[-66.26875,45.24168],[-66.26667,45.24168],[-66.26362,45.23521],[-66.26289,45.23476],[-66.26277,45.23446],[-66.26329,45.23357],[-66.26304,45.23334]]],[[[-66.25947,45.23751],[-66.2581,45.23783],[-66.25882,45.23938],[-66.25625,45.23998],[-66.25625,45.23751],[-66.25947,45.23751]]]]}},{"type":"Feature","properties":{"c":"11627","o":"","e":""},"geometry":{"type":"Polygon","coordinates":[[[-66.2,45.29584],[-66.2,45.27918],[-66.225,45.27918],[-66.225,45.29584],[-66.2,45.29584]]]}},{"type":"Feature","properties":{"c":"9106","o":"","e":""},"geometry":{"type":"MultiPolygon","coordinates":[[[[-66.3375,45.18334],[-66.34375,45.18334],[-66.34375,45.17501],[-66.35,45.17501],[-66.35,45.17084],[-66.35625,45.17084],[-66.35625,45.16668],[-66.375,45.16668],[-66.375,45.16251],[-66.38125,45.16251],[-66.38125,45.15834],[-66.4,45.15834],[-66.4,45.15418],[-66.40625,45.15418],[-66.40625,45.15001],[-66.43125,45.15001],[-66.43125,45.14584],[-66.44375,45.14584],[-66.44375,45.14168],[-66.46875,45.14168],[-66.46875,45.15001],[-66.4625,45.15001],[-66.4625,45.15418],[-66.45625,45.15418],[-66.45625,45.15834],[-66.44375,45.15834],[-66.44375,45.16251],[-66.43125,45.16251],[-66.43125,45.17084],[-66.425,45.17084],[-66.425,45.16668],[-66.41875,45.16668],[-66.41875,45.16251],[-66.4125,45.16251],[-66.4125,45.16668],[-66.40625,45.16668],[-66.40625,45.17501],[-66.4,45.17501],[-66.4,45.18334],[-66.39375,45.18334],[-66.39375,45.18751],[-66.38644,45.18751],[-66.38502,45.18623],[-66.37971,45.18626],[-66.37964,45.18667],[-66.36917,45.18678],[-66.36917,45.18364],[-66.36875,45.18364],[-66.36875,45.18334],[-66.35625,45.18334],[-66.35625,45.18465],[-66.35537,45.18524],[-66.35625,45.18539],[-66.35198,45.18751],[-66.35,45.18751],[-66.34979,45.1886],[-66.35,45.19168],[-66.34375,45.19168],[-66.34375,45.19584],[-66.3375,45.19584],[-66.3375,45.18334]]],[[[-66.33125,45.20243],[-66.32846,45.20272],[-66.32575,45.20392],[-66.32626,45.20418],[-66.32351,45.20418],[-66.32234,45.2036],[-66.32075,45.20418],[-66.31875,45.20418],[-66.31875,45.20504],[-66.30144,45.21251],[-66.3,45.21251],[-66.3,45.21356],[-66.29865,45.21439],[-66.299,45.21506],[-66.29821,45.21579],[-66.29642,45.21668],[-66.29375,45.21668],[-66.29375,45.21905],[-66.29315,45.21896],[-66.29287,45.21839],[-66.29362,45.21767],[-66.29322,45.21721],[-66.29242,45.21682],[-66.29138,45.21681],[-66.282,45.22084],[-66.28125,45.22084],[-66.28125,45.22117],[-66.26694,45.22731],[-66.26827,45.22763],[-66.26765,45.22848],[-66.26765,45.22898],[-66.26821,45.22928],[-66.26741,45.22999],[-66.26787,45.23095],[-66.26738,45.23114],[-66.26841,45.23334],[-66.2625,45.23321],[-66.2625,45.22918],[-66.25,45.22918],[-66.25,45.21251],[-66.25625,45.21251],[-66.25625,45.20001],[-66.25,45.20001],[-66.25,45.1937],[-66.25192,45.19168],[-66.25584,45.19168],[-66.25599,45.19296],[-66.25687,45.19168],[-66.2625,45.19168],[-66.2625,45.19329],[-66.26227,45.1932],[-66.26157,45.1971],[-66.2625,45.19713],[-66.2625,45.19759],[-66.26148,45.19755],[-66.26073,45.20134],[-66.26223,45.20044],[-66.26227,45.20005],[-66.26875,45.20001],[-66.26875,45.19584],[-66.275,45.19584],[-66.275,45.20001],[-66.2875,45.20001],[-66.2875,45.19168],[-66.3,45.19168],[-66.3,45.18751],[-66.30625,45.18751],[-66.30625,45.19168],[-66.3125,45.19168],[-66.3125,45.19584],[-66.31875,45.19584],[-66.31875,45.20001],[-66.33125,45.20001],[-66.33125,45.20243]]],[[[-66.4375,45.17084],[-66.4375,45.17501],[-66.43125,45.17501],[-66.43125,45.17084],[-66.4375,45.17084]]],[[[-66.44375,45.17501],[-66.44375,45.17918],[-66.4375,45.17918],[-66.4375,45.17501],[-66.44375,45.17501]]],[[[-66.45,45.17918],[-66.45,45.18334],[-66.44375,45.18334],[-66.44375,45.17918],[-66.45,45.17918]]],[[[-66.45625,45.18334],[-66.45625,45.18751],[-66.45,45.18751],[-66.45,45.18334],[-66.45625,45.18334]]],[[[-66.4625,45.18751],[-66.4625,45.19168],[-66.45625,45.19168],[-66.45625,45.18751],[-66.4625,45.18751]]],[[[-66.46875,45.19168],[-66.46875,45.19584],[-66.4625,45.19584],[-66.4625,45.19168],[-66.46875,45.19168]]],[[[-66.33125,45.19584],[-66.3375,45.19584],[-66.3375,45.20001],[-66.33125,45.20001],[-66.33125,45.19584]]],[[[-66.475,45.19584],[-66.475,45.20001],[-66.46875,45.20001],[-66.46875,45.19584],[-66.475,45.19584]]],[[[-66.25625,45.23334],[-66.26242,45.23334],[-66.2625,45.23414],[-66.26163,45.23387],[-66.26168,45.23416],[-66.26128,45.23415],[-66.26197,45.2348],[-66.2619,45.23553],[-66.26145,45.23597],[-66.26193,45.23751],[-66.25947,45.23751],[-66.25625,45.23751],[-66.25625,45.23334]]],[[[-66.25625,45.23998],[-66.25,45.24143],[-66.25,45.23751],[-66.25625,45.23751],[-66.25625,45.23998]]]]}},{"type":"Feature","properties":{"c":"10945","o":"","e":""},"geometry":{"type":"Polygon","coordinates":[[[-66.26875,45.16251],[-66.2625,45.16251],[-66.2625,45.15418],[-66.26139,45.15418],[-66.26121,45.15372],[-66.25921,45.15209],[-66.25811,45.14983],[-66.25715,45.14893],[-66.25625,45.14873],[-66.25625,45.14212],[-66.25814,45.14316],[-66.26229,45.14375],[-66.26387,45.14282],[-66.26382,45.14212],[-66.26341,45.14168],[-66.26474,45.14168],[-66.26538,45.1433],[-66.2647,45.14406],[-66.26681,45.14703],[-66.26949,45.14612],[-66.2728,45.1509],[-66.2754,45.15001],[-66.29011,45.15001],[-66.29167,45.15237],[-66.29217,45.15001],[-66.29375,45.15001],[-66.29375,45.15834],[-66.2875,45.15834],[-66.2875,45.16668],[-66.26875,45.16668],[-66.26875,45.16251]],[[-66.26468,45.15695],[-66.26462,45.15812],[-66.26574,45.15944],[-66.26672,45.1599],[-66.26498,45.15738],[-66.26468,45.15695]],[[-66.25922,45.1496],[-66.25997,45.15107],[-66.25992,45.15173],[-66.26212,45.15328],[-66.26058,45.15115],[-66.25922,45.1496]],[[-66.25889,45.14437],[-66.25813,45.14374],[-66.25779,45.14422],[-66.25798,45.1447],[-66.25839,45.14445],[-66.25889,45.14437]]]}},{"type":"Feature","properties":{"c":"11869","o":"","e":""},"geometry":{"type":"Polygon","coordinates":[[[-66.33125,45.13751],[-66.33125,45.13334],[-66.31875,45.13334],[-66.31875,45.12501],[-66.325,45.12501],[-66.325,45.12084],[-66.3375,45.12084],[-66.3375,45.12501],[-66.34375,45.12501],[-66.34375,45.13751],[-66.33125,45.13751]]]}},{"type":"Feature","properties":{"c":"11868","o":"","e":""},"geometry":{"type":"Polygon","coordinates":[[[-66.4,45.10418],[-66.4,45.10242],[-66.40117,45.10189],[-66.40267,45.10186],[-66.4,45.10078],[-66.4,45.10001],[-66.40625,45.10001],[-66.40625,45.09584],[-66.4,45.09584],[-66.4,45.09168],[-66.4125,45.09168],[-66.4125,45.09584],[-66.41875,45.09584],[-66.41875,45.10418],[-66.4,45.10418]]]}},{"type":"Feature","properties":{"c":"11876","o":"","e":""},"geometry":{"type":"Polygon","coordinates":[[[-66.4,45.11668],[-66.4,45.10418],[-66.41875,45.10418],[-66.41875,45.11668],[-66.4,45.11668]]]}},{"type":"Feature","properties":{"c":"11931","o":"","e":""},"geometry":{"type":"Polygon","coordinates":[[[-66.54375,45.21251],[-66.54375,45.24168],[-66.49375,45.24168],[-66.49375,45.23334],[-66.50625,45.23334],[-66.50625,45.22084],[-66.48125,45.22084],[-66.48125,45.22501],[-66.475,45.22501],[-66.475,45.22084],[-66.46875,45.22084],[-66.46875,45.21668],[-66.50625,45.21668],[-66.50625,45.21251],[-66.525,45.21251],[-66.525,45.20834],[-66.55,45.20834],[-66.55,45.21251],[-66.54375,45.21251]]]}},{"type":"Feature","properties":{"c":"10931","o":"","e":""},"geometry":{"type":"Polygon","coordinates":[[[-66.15,45.50418],[-66.11875,45.50418],[-66.11875,45.49584],[-66.125,45.49584],[-66.125,45.49168],[-66.15,45.49168],[-66.15,45.47501],[-66.15625,45.47501],[-66.15625,45.47084],[-66.1625,45.47084],[-66.1625,45.46668],[-66.175,45.46668],[-66.175,45.46251],[-66.18125,45.46251],[-66.18125,45.45834],[-66.19375,45.45834],[-66.19375,45.45418],[-66.2,45.45418],[-66.2,45.45001],[-66.20625,45.45001],[-66.20625,45.44584],[-66.21875,45.44584],[-66.21875,45.44168],[-66.225,45.44168],[-66.225,45.43751],[-66.2375,45.43751],[-66.2375,45.43334],[-66.24375,45.43334],[-66.24375,45.42918],[-66.25625,45.42918],[-66.25625,45.42501],[-66.2625,45.42501],[-66.2625,45.42084],[-66.26875,45.42084],[-66.26875,45.42918],[-66.28125,45.42918],[-66.28125,45.42084],[-66.2875,45.42084],[-66.2875,45.41668],[-66.3,45.41668],[-66.3,45.40001],[-66.3125,45.40001],[-66.3125,45.40418],[-66.31875,45.40418],[-66.31875,45.40834],[-66.325,45.40834],[-66.325,45.40418],[-66.35,45.40418],[-66.35,45.40001],[-66.35625,45.40001],[-66.35625,45.41251],[-66.35,45.41251],[-66.35,45.42084],[-66.325,45.42084],[-66.325,45.42501],[-66.31875,45.42501],[-66.31875,45.42918],[-66.30625,45.42918],[-66.30625,45.43334],[-66.3,45.43334],[-66.3,45.43727],[-66.29168,45.43531],[-66.28976,45.43384],[-66.26715,45.45001],[-66.2625,45.45001],[-66.2625,45.45335],[-66.26134,45.45418],[-66.25625,45.45418],[-66.25625,45.4578],[-66.25551,45.45834],[-66.24375,45.45834],[-66.24375,45.46251],[-66.2375,45.46251],[-66.2375,45.46668],[-66.225,45.46668],[-66.225,45.47084],[-66.21875,45.47084],[-66.21875,45.47501],[-66.2125,45.47501],[-66.2125,45.47918],[-66.2,45.47918],[-66.2,45.48334],[-66.19375,45.48334],[-66.19375,45.49168],[-66.18125,45.49168],[-66.18125,45.50418],[-66.175,45.50418],[-66.175,45.50834],[-66.15,45.50834],[-66.15,45.50418]],[[-66.31715,45.42362],[-66.31603,45.42378],[-66.31562,45.42546],[-66.31675,45.42524],[-66.31715,45.42362]]]}},{"type":"Feature","properties":{"c":"12096","o":"","e":""},"geometry":{"type":"Polygon","coordinates":[[[-66.23173,45.15418],[-66.23125,45.15418],[-66.23076,45.15696],[-66.23125,45.15752],[-66.23125,45.15834],[-66.23069,45.15834],[-66.23067,45.15782],[-66.22935,45.15574],[-66.22839,45.15506],[-66.22116,45.15834],[-66.2125,45.15834],[-66.2125,45.15418],[-66.20625,45.15418],[-66.20625,45.14584],[-66.2125,45.14584],[-66.2125,45.14168],[-66.2375,45.14168],[-66.2375,45.1472],[-66.23554,45.15046],[-66.23363,45.15232],[-66.23173,45.15418]]]}},{"type":"Feature","properties":{"c":"12099","o":"","e":""},"geometry":{"type":"Polygon","coordinates":[[[-66.0875,45.49168],[-66.0875,45.48334],[-66.09375,45.48334],[-66.09375,45.49168],[-66.0875,45.49168]]]}},{"type":"Feature","properties":{"c":"12164","o":"","e":""},"geometry":{"type":"Polygon","coordinates":[[[-66.00625,45.35001],[-66.00625,45.35418],[-66.0,45.35418],[-66.0,45.34584],[-66.0125,45.34584],[-66.0125,45.35001],[-66.00625,45.35001]]]}},{"type":"Feature","properties":{"c":"12182","o":"","e":""},"geometry":{"type":"MultiPolygon","coordinates":[[[[-66.4875,45.18751],[-66.5,45.18751],[-66.5,45.18334],[-66.55625,45.18334],[-66.55625,45.18751],[-66.50625,45.18751],[-66.50625,45.19168],[-66.4875,45.19168],[-66.4875,45.18751]]],[[[-66.4875,45.19584],[-66.475,45.19584],[-66.475,45.19168],[-66.4875,45.19168],[-66.4875,45.19584]]]]}},{"type":"Feature","properties":{"c":"12187","o":"","e":""},"geometry":{"type":"Polygon","coordinates":[[[-66.39375,45.14584],[-66.39375,45.14168],[-66.4,45.14168],[-66.4,45.14584],[-66.39375,45.14584]]]}},{"type":"Feature","properties":{"c":"12188","o":"","e":""},"geometry":{"type":"Polygon","coordinates":[[[-66.39375,45.14168],[-66.39375,45.14584],[-66.375,45.14584],[-66.375,45.13334],[-66.4,45.13334],[-66.4,45.14168],[-66.39375,45.14168]]]}},{"type":"Feature","properties":{"c":"12388","o":"","e":""},"geometry":{"type":"Polygon","coordinates":[[[-66.4,45.46251],[-66.4,45.47501],[-66.37988,45.47501],[-66.375,45.47223],[-66.375,45.47084],[-66.3725,45.47084],[-66.36875,45.46872],[-66.36875,45.46668],[-66.36497,45.46668],[-66.3625,45.46522],[-66.3625,45.46251],[-66.35821,45.46251],[-66.35625,45.46125],[-66.35625,45.45834],[-66.35,45.45834],[-66.35,45.41251],[-66.35625,45.41251],[-66.35625,45.40001],[-66.35,45.40001],[-66.35,45.39584],[-66.375,45.39584],[-66.375,45.40001],[-66.38125,45.40001],[-66.38125,45.40834],[-66.3875,45.40834],[-66.3875,45.41251],[-66.39375,45.41251],[-66.39375,45.41668],[-66.4,45.41668],[-66.4,45.43334],[-66.4125,45.43334],[-66.4125,45.46251],[-66.4,45.46251]]]}},{"type":"Feature","properties":{"c":"12483","o":"","e":""},"geometry":{"type":"Polygon","coordinates":[[[-66.44375,45.14168],[-66.44375,45.14584],[-66.43125,45.14584],[-66.43125,45.15001],[-66.40625,45.15001],[-66.40625,45.15418],[-66.4,45.15418],[-66.4,45.15834],[-66.39375,45.15834],[-66.39375,45.14584],[-66.4,45.14584],[-66.4,45.12918],[-66.45625,45.12918],[-66.45625,45.13334],[-66.46875,45.13334],[-66.46875,45.14168],[-66.44375,45.14168]]]}},{"type":"Feature","properties":{"c":"12492","o":"","e":""},"geometry":{"type":"Polygon","coordinates":[[[-66.25625,45.30834],[-66.25625,45.31018],[-66.2492,45.31167],[-66.24869,45.31363],[-66.25,45.31336],[-66.25,45.31668],[-66.24375,45.31668],[-66.24375,45.32084],[-66.2375,45.32084],[-66.2375,45.32501],[-66.23125,45.32501],[-66.23125,45.32918],[-66.21875,45.32918],[-66.21875,45.32084],[-66.2125,45.32084],[-66.2125,45.31668],[-66.20625,45.31668],[-66.20625,45.30834],[-66.21875,45.30834],[-66.21875,45.30418],[-66.225,45.30418],[-66.225,45.28751],[-66.2375,45.28751],[-66.2375,45.29168],[-66.24375,45.29168],[-66.24375,45.29584],[-66.25,45.29584],[-66.25,45.30001],[-66.25625,45.30001],[-66.25625,45.30418],[-66.2625,45.30418],[-66.2625,45.30834],[-66.25625,45.30834]]]}},{"type":"Feature","properties":{"c":"12533","o":"","e":""},"geometry":{"type":"Polygon","coordinates":[[[-66.1875,45.25834],[-66.1875,45.26251],[-66.1625,45.26251],[-66.1625,45.25834],[-66.15625,45.25834],[-66.15625,45.24584],[-66.16875,45.24584],[-66.16875,45.25001],[-66.1875,45.25001],[-66.1875,45.25418],[-66.19375,45.25418],[-66.19375,45.25834],[-66.1875,45.25834]]]}},{"type":"Feature","properties":{"c":"12534","o":"","e":""},"geometry":{"type":"Polygon","coordinates":[[[-66.29375,45.38751],[-66.29375,45.38334],[-66.28125,45.38334],[-66.28125,45.37501],[-66.275,45.37501],[-66.275,45.37084],[-66.26875,45.37084],[-66.26875,45.36668],[-66.25625,45.36668],[-66.25625,45.36251],[-66.25,45.36251],[-66.25,45.35001],[-66.2375,45.35001],[-66.2375,45.34584],[-66.23125,45.34584],[-66.23125,45.32501],[-66.2375,45.32501],[-66.2375,45.32084],[-66.24375,45.32084],[-66.24375,45.31668],[-66.25,45.31668],[-66.25,45.31336],[-66.25508,45.31251],[-66.2543,45.31517],[-66.25555,45.3149],[-66.25625,45.31637],[-66.25625,45.32084],[-66.25837,45.32084],[-66.25883,45.32181],[-66.2635,45.32084],[-66.268,45.32084],[-66.26875,45.32122],[-66.26875,45.32529],[-66.26587,45.3259],[-66.26875,45.3273],[-66.26875,45.33408],[-66.2599,45.33624],[-66.26086,45.33872],[-66.26875,45.3372],[-66.26875,45.33751],[-66.275,45.33751],[-66.275,45.336],[-66.28125,45.3348],[-66.28125,45.35001],[-66.2875,45.35001],[-66.2875,45.35418],[-66.29375,45.35418],[-66.29375,45.35834],[-66.30625,45.35834],[-66.30625,45.35418],[-66.31675,45.35418],[-66.325,45.35657],[-66.325,45.36157],[-66.32222,45.36668],[-66.31875,45.36668],[-66.31875,45.37304],[-66.31724,45.3758],[-66.31875,45.37621],[-66.31875,45.37918],[-66.32254,45.37918],[-66.325,45.38274],[-66.325,45.38751],[-66.29375,45.38751]]]}},{"type":"Feature","properties":{"c":"12538","o":"","e":""},"geometry":{"type":"Polygon","coordinates":[[[-66.38125,45.15834],[-66.38125,45.16251],[-66.375,45.16251],[-66.375,45.16668],[-66.36875,45.16668],[-66.36875,45.16251],[-66.3625,45.16251],[-66.3625,45.15418],[-66.35,45.15418],[-66.35,45.15834],[-66.35625,45.15834],[-66.35625,45.16668],[-66.34375,45.16668],[-66.34375,45.17501],[-66.33125,45.17501],[-66.33125,45.17918],[-66.31875,45.17918],[-66.31875,45.17501],[-66.3125,45.17501],[-66.3125,45.16668],[-66.30625,45.16668],[-66.30625,45.15001],[-66.31875,45.15001],[-66.31875,45.14584],[-66.325,45.14584],[-66.3375,45.14584],[-66.3375,45.15001],[-66.34375,45.15001],[-66.34375,45.13751],[-66.35625,45.13751],[-66.35625,45.13334],[-66.3625,45.13334],[-66.3625,45.12501],[-66.36875,45.12501],[-66.36875,45.12084],[-66.3875,45.12084],[-66.3875,45.12918],[-66.39375,45.12918],[-66.39375,45.13334],[-66.375,45.13334],[-66.375,45.14584],[-66.39375,45.14584],[-66.39375,45.15834],[-66.38125,45.15834]]]}},{"type":"Feature","properties":{"c":"12535","o":"","e":""},"geometry":{"type":"Polygon","coordinates":[[[-66.59375,45.18751],[-66.58125,45.18751],[-66.58125,45.18334],[-66.50625,45.18334],[-66.50625,45.17918],[-66.5,45.17918],[-66.5,45.17084],[-66.5375,45.17084],[-66.5375,45.16668],[-66.50625,45.16668],[-66.50625,45.16251],[-66.49375,45.16251],[-66.49375,45.15418],[-66.50625,45.15418],[-66.50625,45.15001],[-66.51875,45.15001],[-66.51875,45.14584],[-66.5375,45.14584],[-66.5375,45.15001],[-66.54025,45.15001],[-66.54036,45.15137],[-66.54375,45.15125],[-66.54375,45.16716],[-66.54244,45.16726],[-66.54346,45.17562],[-66.54355,45.17495],[-66.54507,45.17482],[-66.54461,45.17394],[-66.54465,45.17305],[-66.54534,45.1728],[-66.54573,45.17224],[-66.54627,45.17236],[-66.54691,45.17192],[-66.54643,45.17084],[-66.55,45.17084],[-66.55,45.16932],[-66.55161,45.16897],[-66.55133,45.16668],[-66.59375,45.16668],[-66.59375,45.18751]]]}},{"type":"Feature","properties":{"c":"12562","o":"","e":""},"geometry":{"type":"MultiPolygon","coordinates":[[[[-66.4875,45.17501],[-66.48125,45.17501],[-66.48125,45.17918],[-66.475,45.17918],[-66.475,45.17084],[-66.48125,45.17084],[-66.48125,45.16668],[-66.4875,45.16668],[-66.4875,45.17501]]],[[[-66.4875,45.16251],[-66.49375,45.16251],[-66.49375,45.16668],[-66.4875,45.16668],[-66.4875,45.16251]]]]}},{"type":"Feature","properties":{"c":"12563","o":"","e":""},"geometry":{"type":"Polygon","coordinates":[[[-66.21875,45.27918],[-66.21875,45.26668],[-66.225,45.26668],[-66.225,45.26775],[-66.21917,45.26879],[-66.22219,45.27481],[-66.225,45.27424],[-66.225,45.27918],[-66.21875,45.27918]]]}},{"type":"Feature","properties":{"c":"12564","o":"","e":""},"geometry":{"type":"Polygon","coordinates":[[[-66.21539,45.16251],[-66.2125,45.16251],[-66.2125,45.15834],[-66.21875,45.15834],[-66.21875,45.15944],[-66.21565,45.16085],[-66.21539,45.16251]]]}},{"type":"Feature","properties":{"c":"12568","o":"","e":""},"geometry":{"type":"Polygon","coordinates":[[[-66.20625,45.30418],[-66.20625,45.29584],[-66.225,45.29584],[-66.225,45.30418],[-66.20625,45.30418]]]}}]}