{"type":"FeatureCollection","features":[{"type":"Feature","properties":{"c":"12583","o":"","e":""},"geometry":{"type":"Polygon","coordinates":[[[-66.5125,48.03334],[-66.5125,48.02918],[-66.50625,48.02918],[-66.50625,48.01251],[-66.51875,48.01251],[-66.51875,48.02918],[-66.525,48.02918],[-66.525,48.03334],[-66.5125,48.03334]]]}},{"type":"Feature","properties":{"c":"CDC-2865221","o":"Beno\u00eet Moreau 100%","e":""},"geometry":{"type":"Polygon","coordinates":[[[-66.76044,48.15833],[-66.75833,48.15388],[-66.75833,48.15],[-66.76667,48.15],[-66.76667,48.15833],[-66.76044,48.15833]]]}},{"type":"Feature","properties":{"c":"CDC-2849794","o":"Beno\u00eet Moreau 100%","e":""},"geometry":{"type":"Polygon","coordinates":[[[-66.75833,48.15],[-66.75833,48.14167],[-66.76667,48.14167],[-66.76667,48.15],[-66.75833,48.15]]]}},{"type":"Feature","properties":{"c":"CDC-2801421","o":"Gregory Wysote 100%","e":""},"geometry":{"type":"Polygon","coordinates":[[[-66.70833,48.125],[-66.70261,48.125],[-66.70264,48.12374],[-66.70264,48.12361],[-66.70264,48.12341],[-66.70262,48.12321],[-66.70259,48.12302],[-66.70255,48.12282],[-66.7025,48.12263],[-66.70244,48.12243],[-66.70239,48.1223],[-66.70237,48.12224],[-66.70229,48.12205],[-66.7022,48.12187],[-66.70209,48.12168],[-66.70198,48.1215],[-66.70193,48.12143],[-66.70181,48.12139],[-66.70164,48.12134],[-66.70147,48.12128],[-66.70143,48.12127],[-66.7,48.12125],[-66.7,48.11667],[-66.70833,48.11667],[-66.70833,48.125]]]}},{"type":"Feature","properties":{"c":"CDC-2355771","o":"Fancamp Exploration Ltd 100%","e":""},"geometry":{"type":"Polygon","coordinates":[[[-66.80833,48.20833],[-66.80833,48.2],[-66.81667,48.2],[-66.81667,48.20833],[-66.80833,48.20833]]]}},{"type":"Feature","properties":{"c":"CDC-2849783","o":"Beno\u00eet Moreau 100%","e":""},"geometry":{"type":"Polygon","coordinates":[[[-66.80833,48.14167],[-66.80833,48.13333],[-66.81667,48.13333],[-66.81667,48.14167],[-66.80833,48.14167]]]}},{"type":"Feature","properties":{"c":"CDC-2849777","o":"Beno\u00eet Moreau 100%","e":""},"geometry":{"type":"Polygon","coordinates":[[[-66.80833,48.13333],[-66.80833,48.125],[-66.81667,48.125],[-66.81667,48.13333],[-66.80833,48.13333]]]}},{"type":"Feature","properties":{"c":"CDC-2801136","o":"Rocherche S.E.N.C. 100%","e":""},"geometry":{"type":"Polygon","coordinates":[[[-66.8,48.225],[-66.8,48.21667],[-66.80833,48.21667],[-66.80833,48.225],[-66.8,48.225]]]}},{"type":"Feature","properties":{"c":"CDC-2741996","o":"Pierre Jeannotte 100%","e":""},"geometry":{"type":"Polygon","coordinates":[[[-66.8,48.19167],[-66.8,48.18333],[-66.80833,48.18333],[-66.80833,48.19167],[-66.8,48.19167]]]}},{"type":"Feature","properties":{"c":"CDC-2741995","o":"Pierre Jeannotte 100%","e":""},"geometry":{"type":"Polygon","coordinates":[[[-66.8,48.18333],[-66.8,48.175],[-66.80833,48.175],[-66.80833,48.18333],[-66.8,48.18333]]]}},{"type":"Feature","properties":{"c":"CDC-2849789","o":"Beno\u00eet Moreau 100%","e":""},"geometry":{"type":"Polygon","coordinates":[[[-66.8,48.15],[-66.8,48.14167],[-66.80833,48.14167],[-66.80833,48.15],[-66.8,48.15]]]}},{"type":"Feature","properties":{"c":"CDC-2849784","o":"Beno\u00eet Moreau 100%","e":""},"geometry":{"type":"Polygon","coordinates":[[[-66.8,48.14167],[-66.8,48.13333],[-66.80833,48.13333],[-66.80833,48.14167],[-66.8,48.14167]]]}},{"type":"Feature","properties":{"c":"CDC-2849778","o":"Beno\u00eet Moreau 100%","e":""},"geometry":{"type":"Polygon","coordinates":[[[-66.8,48.13333],[-66.8,48.125],[-66.80833,48.125],[-66.80833,48.13333],[-66.8,48.13333]]]}},{"type":"Feature","properties":{"c":"CDC-2801137","o":"Rocherche S.E.N.C. 100%","e":""},"geometry":{"type":"Polygon","coordinates":[[[-66.79167,48.23333],[-66.79167,48.225],[-66.8,48.225],[-66.8,48.23333],[-66.79167,48.23333]]]}},{"type":"Feature","properties":{"c":"CDC-2849790","o":"Beno\u00eet Moreau 100%","e":""},"geometry":{"type":"Polygon","coordinates":[[[-66.79167,48.15],[-66.79167,48.14167],[-66.8,48.14167],[-66.8,48.15],[-66.79167,48.15]]]}},{"type":"Feature","properties":{"c":"CDC-2849785","o":"Beno\u00eet Moreau 100%","e":""},"geometry":{"type":"Polygon","coordinates":[[[-66.79167,48.14167],[-66.79167,48.13333],[-66.8,48.13333],[-66.8,48.14167],[-66.79167,48.14167]]]}},{"type":"Feature","properties":{"c":"CDC-2849779","o":"Beno\u00eet Moreau 100%","e":""},"geometry":{"type":"Polygon","coordinates":[[[-66.79167,48.13333],[-66.79167,48.125],[-66.8,48.125],[-66.8,48.13333],[-66.79167,48.13333]]]}},{"type":"Feature","properties":{"c":"CDC-2849795","o":"Beno\u00eet Moreau 100%","e":""},"geometry":{"type":"Polygon","coordinates":[[[-66.78333,48.15833],[-66.78333,48.15],[-66.79167,48.15],[-66.79167,48.15833],[-66.78333,48.15833]]]}},{"type":"Feature","properties":{"c":"CDC-2849791","o":"Beno\u00eet Moreau 100%","e":""},"geometry":{"type":"Polygon","coordinates":[[[-66.78333,48.15],[-66.78333,48.14167],[-66.79167,48.14167],[-66.79167,48.15],[-66.78333,48.15]]]}},{"type":"Feature","properties":{"c":"CDC-2849786","o":"Beno\u00eet Moreau 100%","e":""},"geometry":{"type":"Polygon","coordinates":[[[-66.78333,48.14167],[-66.78333,48.13333],[-66.79167,48.13333],[-66.79167,48.14167],[-66.78333,48.14167]]]}},{"type":"Feature","properties":{"c":"CDC-2849780","o":"Beno\u00eet Moreau 100%","e":""},"geometry":{"type":"Polygon","coordinates":[[[-66.78333,48.13333],[-66.78333,48.125],[-66.79167,48.125],[-66.79167,48.13333],[-66.78333,48.13333]]]}},{"type":"Feature","properties":{"c":"CDC-2849796","o":"Beno\u00eet Moreau 100%","e":""},"geometry":{"type":"Polygon","coordinates":[[[-66.775,48.15833],[-66.775,48.15],[-66.78333,48.15],[-66.78333,48.15833],[-66.775,48.15833]]]}},{"type":"Feature","properties":{"c":"CDC-2849792","o":"Beno\u00eet Moreau 100%","e":""},"geometry":{"type":"Polygon","coordinates":[[[-66.775,48.15],[-66.775,48.14167],[-66.78333,48.14167],[-66.78333,48.15],[-66.775,48.15]]]}},{"type":"Feature","properties":{"c":"CDC-2849787","o":"Beno\u00eet Moreau 100%","e":""},"geometry":{"type":"Polygon","coordinates":[[[-66.775,48.14167],[-66.775,48.13333],[-66.78333,48.13333],[-66.78333,48.14167],[-66.775,48.14167]]]}},{"type":"Feature","properties":{"c":"CDC-2849781","o":"Beno\u00eet Moreau 100%","e":""},"geometry":{"type":"Polygon","coordinates":[[[-66.775,48.13333],[-66.775,48.125],[-66.78333,48.125],[-66.78333,48.13333],[-66.775,48.13333]]]}},{"type":"Feature","properties":{"c":"CDC-2849798","o":"Beno\u00eet Moreau 100%","e":""},"geometry":{"type":"Polygon","coordinates":[[[-66.76667,48.16667],[-66.76667,48.15833],[-66.775,48.15833],[-66.775,48.16667],[-66.76667,48.16667]]]}},{"type":"Feature","properties":{"c":"CDC-2849797","o":"Beno\u00eet Moreau 100%","e":""},"geometry":{"type":"Polygon","coordinates":[[[-66.76667,48.15833],[-66.76667,48.15],[-66.775,48.15],[-66.775,48.15833],[-66.76667,48.15833]]]}},{"type":"Feature","properties":{"c":"CDC-2849793","o":"Beno\u00eet Moreau 100%","e":""},"geometry":{"type":"Polygon","coordinates":[[[-66.76667,48.15],[-66.76667,48.14167],[-66.775,48.14167],[-66.775,48.15],[-66.76667,48.15]]]}},{"type":"Feature","properties":{"c":"CDC-2849788","o":"Beno\u00eet Moreau 100%","e":""},"geometry":{"type":"Polygon","coordinates":[[[-66.76667,48.14167],[-66.76667,48.13333],[-66.775,48.13333],[-66.775,48.14167],[-66.76667,48.14167]]]}},{"type":"Feature","properties":{"c":"CDC-2849776","o":"Beno\u00eet Moreau 100%","e":""},"geometry":{"type":"Polygon","coordinates":[[[-66.76667,48.125],[-66.76667,48.11667],[-66.775,48.11667],[-66.775,48.125],[-66.76667,48.125]]]}},{"type":"Feature","properties":{"c":"CDC-2865222","o":"Beno\u00eet Moreau 100%","e":""},"geometry":{"type":"Polygon","coordinates":[[[-66.76667,48.15833],[-66.76667,48.16667],[-66.76438,48.16667],[-66.76044,48.15833],[-66.76667,48.15833]]]}},{"type":"Feature","properties":{"c":"CDC-2849762","o":"Beno\u00eet Moreau 100%","e":""},"geometry":{"type":"Polygon","coordinates":[[[-66.79167,48.10833],[-66.79167,48.1],[-66.8,48.1],[-66.8,48.10833],[-66.79167,48.10833]]]}},{"type":"Feature","properties":{"c":"CDC-2849763","o":"Beno\u00eet Moreau 100%","e":""},"geometry":{"type":"Polygon","coordinates":[[[-66.79167,48.10833],[-66.78333,48.10833],[-66.78333,48.10223],[-66.78555,48.10159],[-66.79093,48.1],[-66.79167,48.1],[-66.79167,48.10833]]]}},{"type":"Feature","properties":{"c":"CDC-2849764","o":"Beno\u00eet Moreau 100%","e":""},"geometry":{"type":"Polygon","coordinates":[[[-66.78333,48.10833],[-66.775,48.10833],[-66.775,48.10464],[-66.77916,48.10343],[-66.78333,48.10223],[-66.78333,48.10833]]]}},{"type":"Feature","properties":{"c":"CDC-2870865","o":"Beno\u00eet Moreau 100%","e":""},"geometry":{"type":"Polygon","coordinates":[[[-66.86667,48.10661],[-66.86667,48.10833],[-66.85997,48.10833],[-66.86667,48.10661]]]}},{"type":"Feature","properties":{"c":"CDC-2868066","o":"Beno\u00eet Moreau 100%","e":""},"geometry":{"type":"Polygon","coordinates":[[[-66.85997,48.10833],[-66.86667,48.10833],[-66.86667,48.11667],[-66.85833,48.11667],[-66.85833,48.10875],[-66.85997,48.10833]]]}},{"type":"Feature","properties":{"c":"CDC-2868067","o":"Beno\u00eet Moreau 100%","e":""},"geometry":{"type":"Polygon","coordinates":[[[-66.85833,48.11667],[-66.85,48.11667],[-66.85,48.10833],[-66.8538,48.10833],[-66.85392,48.10838],[-66.85415,48.10851],[-66.85421,48.10858],[-66.85425,48.1086],[-66.85453,48.10875],[-66.85464,48.1088],[-66.85471,48.10887],[-66.85486,48.10907],[-66.85492,48.10913],[-66.85521,48.10935],[-66.85536,48.10952],[-66.85833,48.10875],[-66.85833,48.11667]]]}},{"type":"Feature","properties":{"c":"CDC-2849695","o":"Beno\u00eet Moreau 100%","e":""},"geometry":{"type":"Polygon","coordinates":[[[-66.84167,48.11667],[-66.84167,48.10833],[-66.85,48.10833],[-66.85,48.11667],[-66.84167,48.11667]]]}},{"type":"Feature","properties":{"c":"CDC-2849696","o":"Beno\u00eet Moreau 100%","e":""},"geometry":{"type":"Polygon","coordinates":[[[-66.83333,48.11667],[-66.83333,48.10833],[-66.84167,48.10833],[-66.84167,48.11667],[-66.83333,48.11667]]]}},{"type":"Feature","properties":{"c":"CDC-2849697","o":"Beno\u00eet Moreau 100%","e":""},"geometry":{"type":"Polygon","coordinates":[[[-66.825,48.11667],[-66.825,48.10833],[-66.83333,48.10833],[-66.83333,48.11667],[-66.825,48.11667]]]}},{"type":"Feature","properties":{"c":"CDC-2849698","o":"Beno\u00eet Moreau 100%","e":""},"geometry":{"type":"Polygon","coordinates":[[[-66.81667,48.11667],[-66.81667,48.10833],[-66.825,48.10833],[-66.825,48.11667],[-66.81667,48.11667]]]}},{"type":"Feature","properties":{"c":"CDC-2849765","o":"Beno\u00eet Moreau 100%","e":""},"geometry":{"type":"Polygon","coordinates":[[[-66.80833,48.11667],[-66.80833,48.10833],[-66.81667,48.10833],[-66.81667,48.11667],[-66.80833,48.11667]]]}},{"type":"Feature","properties":{"c":"CDC-2849766","o":"Beno\u00eet Moreau 100%","e":""},"geometry":{"type":"Polygon","coordinates":[[[-66.8,48.11667],[-66.8,48.10833],[-66.80833,48.10833],[-66.80833,48.11667],[-66.8,48.11667]]]}},{"type":"Feature","properties":{"c":"CDC-2849767","o":"Beno\u00eet Moreau 100%","e":""},"geometry":{"type":"Polygon","coordinates":[[[-66.79167,48.11667],[-66.79167,48.10833],[-66.8,48.10833],[-66.8,48.11667],[-66.79167,48.11667]]]}},{"type":"Feature","properties":{"c":"CDC-2849768","o":"Beno\u00eet Moreau 100%","e":""},"geometry":{"type":"Polygon","coordinates":[[[-66.78333,48.11667],[-66.78333,48.10833],[-66.79167,48.10833],[-66.79167,48.11667],[-66.78333,48.11667]]]}},{"type":"Feature","properties":{"c":"CDC-2849769","o":"Beno\u00eet Moreau 100%","e":""},"geometry":{"type":"Polygon","coordinates":[[[-66.775,48.11667],[-66.775,48.10833],[-66.78333,48.10833],[-66.78333,48.11667],[-66.775,48.11667]]]}},{"type":"Feature","properties":{"c":"CDC-2849770","o":"Beno\u00eet Moreau 100%","e":""},"geometry":{"type":"Polygon","coordinates":[[[-66.76667,48.11667],[-66.76667,48.10833],[-66.775,48.10833],[-66.775,48.11667],[-66.76667,48.11667]]]}},{"type":"Feature","properties":{"c":"CDC-2849771","o":"Beno\u00eet Moreau 100%","e":""},"geometry":{"type":"Polygon","coordinates":[[[-66.75833,48.11667],[-66.75833,48.10872],[-66.75977,48.10833],[-66.76667,48.10833],[-66.76667,48.11667],[-66.75833,48.11667]]]}},{"type":"Feature","properties":{"c":"CDC-2849699","o":"Beno\u00eet Moreau 100%","e":""},"geometry":{"type":"Polygon","coordinates":[[[-66.85833,48.125],[-66.85833,48.11667],[-66.86667,48.11667],[-66.86667,48.125],[-66.85833,48.125]]]}},{"type":"Feature","properties":{"c":"CDC-2849700","o":"Beno\u00eet Moreau 100%","e":""},"geometry":{"type":"Polygon","coordinates":[[[-66.85,48.125],[-66.85,48.11667],[-66.85833,48.11667],[-66.85833,48.125],[-66.85,48.125]]]}},{"type":"Feature","properties":{"c":"CDC-2849701","o":"Beno\u00eet Moreau 100%","e":""},"geometry":{"type":"Polygon","coordinates":[[[-66.84167,48.125],[-66.84167,48.11667],[-66.85,48.11667],[-66.85,48.125],[-66.84167,48.125]]]}},{"type":"Feature","properties":{"c":"CDC-2849702","o":"Beno\u00eet Moreau 100%","e":""},"geometry":{"type":"Polygon","coordinates":[[[-66.83333,48.125],[-66.83333,48.11667],[-66.84167,48.11667],[-66.84167,48.125],[-66.83333,48.125]]]}},{"type":"Feature","properties":{"c":"CDC-2849703","o":"Beno\u00eet Moreau 100%","e":""},"geometry":{"type":"Polygon","coordinates":[[[-66.825,48.125],[-66.825,48.11667],[-66.83333,48.11667],[-66.83333,48.125],[-66.825,48.125]]]}},{"type":"Feature","properties":{"c":"CDC-2849704","o":"Beno\u00eet Moreau 100%","e":""},"geometry":{"type":"Polygon","coordinates":[[[-66.81667,48.125],[-66.81667,48.11667],[-66.825,48.11667],[-66.825,48.125],[-66.81667,48.125]]]}},{"type":"Feature","properties":{"c":"CDC-2849772","o":"Beno\u00eet Moreau 100%","e":""},"geometry":{"type":"Polygon","coordinates":[[[-66.80833,48.125],[-66.80833,48.11667],[-66.81667,48.11667],[-66.81667,48.125],[-66.80833,48.125]]]}},{"type":"Feature","properties":{"c":"CDC-2849773","o":"Beno\u00eet Moreau 100%","e":""},"geometry":{"type":"Polygon","coordinates":[[[-66.8,48.125],[-66.8,48.11667],[-66.80833,48.11667],[-66.80833,48.125],[-66.8,48.125]]]}},{"type":"Feature","properties":{"c":"CDC-2849774","o":"Beno\u00eet Moreau 100%","e":""},"geometry":{"type":"Polygon","coordinates":[[[-66.78333,48.125],[-66.78333,48.11667],[-66.79167,48.11667],[-66.79167,48.125],[-66.78333,48.125]]]}},{"type":"Feature","properties":{"c":"CDC-2849775","o":"Beno\u00eet Moreau 100%","e":""},"geometry":{"type":"Polygon","coordinates":[[[-66.775,48.125],[-66.775,48.11667],[-66.78333,48.11667],[-66.78333,48.125],[-66.775,48.125]]]}},{"type":"Feature","properties":{"c":"CDC-2868053","o":"Beno\u00eet Moreau 100%","e":""},"geometry":{"type":"Polygon","coordinates":[[[-66.85833,48.075],[-66.85833,48.06667],[-66.86667,48.06667],[-66.86667,48.075],[-66.85833,48.075]]]}},{"type":"Feature","properties":{"c":"CDC-2868054","o":"Beno\u00eet Moreau 100%","e":""},"geometry":{"type":"Polygon","coordinates":[[[-66.85,48.075],[-66.85,48.06667],[-66.85833,48.06667],[-66.85833,48.075],[-66.85,48.075]]]}},{"type":"Feature","properties":{"c":"CDC-2868370","o":"Alain Moreau 100%","e":""},"geometry":{"type":"Polygon","coordinates":[[[-66.86667,48.075],[-66.8749,48.075],[-66.8749,48.07501],[-66.87496,48.07521],[-66.875,48.07531],[-66.875,48.08333],[-66.86667,48.08333],[-66.86667,48.075]]]}},{"type":"Feature","properties":{"c":"CDC-2868055","o":"Beno\u00eet Moreau 100%","e":""},"geometry":{"type":"Polygon","coordinates":[[[-66.85833,48.08333],[-66.85833,48.075],[-66.86667,48.075],[-66.86667,48.08333],[-66.85833,48.08333]]]}},{"type":"Feature","properties":{"c":"CDC-2868056","o":"Beno\u00eet Moreau 100%","e":""},"geometry":{"type":"Polygon","coordinates":[[[-66.85,48.08333],[-66.85,48.075],[-66.85833,48.075],[-66.85833,48.08333],[-66.85,48.08333]]]}},{"type":"Feature","properties":{"c":"CDC-2849686","o":"Beno\u00eet Moreau 100%","e":""},"geometry":{"type":"Polygon","coordinates":[[[-66.84167,48.08333],[-66.84167,48.075],[-66.85,48.075],[-66.85,48.08333],[-66.84167,48.08333]]]}},{"type":"Feature","properties":{"c":"CDC-2849687","o":"Beno\u00eet Moreau 100%","e":""},"geometry":{"type":"Polygon","coordinates":[[[-66.83333,48.08333],[-66.83333,48.075],[-66.84167,48.075],[-66.84167,48.08333],[-66.83333,48.08333]]]}},{"type":"Feature","properties":{"c":"CDC-2849710","o":"Alain Moreau 100%","e":""},"geometry":{"type":"Polygon","coordinates":[[[-66.86667,48.09167],[-66.86667,48.08333],[-66.875,48.08333],[-66.875,48.09167],[-66.86667,48.09167]]]}},{"type":"Feature","properties":{"c":"CDC-2868057","o":"Beno\u00eet Moreau 100%","e":""},"geometry":{"type":"Polygon","coordinates":[[[-66.85833,48.09167],[-66.85833,48.08333],[-66.86667,48.08333],[-66.86667,48.09167],[-66.85833,48.09167]]]}},{"type":"Feature","properties":{"c":"CDC-2868058","o":"Beno\u00eet Moreau 100%","e":""},"geometry":{"type":"Polygon","coordinates":[[[-66.85,48.09167],[-66.85,48.08333],[-66.85833,48.08333],[-66.85833,48.09167],[-66.85,48.09167]]]}},{"type":"Feature","properties":{"c":"CDC-2868059","o":"Beno\u00eet Moreau 100%","e":""},"geometry":{"type":"Polygon","coordinates":[[[-66.84167,48.09167],[-66.84167,48.08333],[-66.85,48.08333],[-66.85,48.09167],[-66.84167,48.09167]]]}},{"type":"Feature","properties":{"c":"CDC-2849688","o":"Beno\u00eet Moreau 100%","e":""},"geometry":{"type":"Polygon","coordinates":[[[-66.83333,48.09167],[-66.83333,48.08333],[-66.84167,48.08333],[-66.84167,48.09167],[-66.83333,48.09167]]]}},{"type":"Feature","properties":{"c":"CDC-2849689","o":"Beno\u00eet Moreau 100%","e":""},"geometry":{"type":"Polygon","coordinates":[[[-66.825,48.09167],[-66.825,48.08333],[-66.83333,48.08333],[-66.83333,48.09167],[-66.825,48.09167]]]}},{"type":"Feature","properties":{"c":"CDC-2849690","o":"Beno\u00eet Moreau 100%","e":""},"geometry":{"type":"Polygon","coordinates":[[[-66.81667,48.09167],[-66.81667,48.08333],[-66.825,48.08333],[-66.825,48.09167],[-66.81667,48.09167]]]}},{"type":"Feature","properties":{"c":"CDC-2849715","o":"Alain Moreau 100%","e":""},"geometry":{"type":"Polygon","coordinates":[[[-66.86667,48.1],[-66.86667,48.09167],[-66.875,48.09167],[-66.875,48.1],[-66.86667,48.1]]]}},{"type":"Feature","properties":{"c":"CDC-2868060","o":"Beno\u00eet Moreau 100%","e":""},"geometry":{"type":"Polygon","coordinates":[[[-66.85833,48.1],[-66.85833,48.09167],[-66.86667,48.09167],[-66.86667,48.1],[-66.85833,48.1]]]}},{"type":"Feature","properties":{"c":"CDC-2868061","o":"Beno\u00eet Moreau 100%","e":""},"geometry":{"type":"Polygon","coordinates":[[[-66.85,48.1],[-66.85,48.09167],[-66.85833,48.09167],[-66.85833,48.1],[-66.85,48.1]]]}},{"type":"Feature","properties":{"c":"CDC-2868062","o":"Beno\u00eet Moreau 100%","e":""},"geometry":{"type":"Polygon","coordinates":[[[-66.84167,48.1],[-66.84167,48.09167],[-66.85,48.09167],[-66.85,48.1],[-66.84167,48.1]]]}},{"type":"Feature","properties":{"c":"CDC-2868063","o":"Beno\u00eet Moreau 100%","e":""},"geometry":{"type":"Polygon","coordinates":[[[-66.83333,48.1],[-66.83333,48.09167],[-66.84167,48.09167],[-66.84167,48.1],[-66.83333,48.1]]]}},{"type":"Feature","properties":{"c":"CDC-2849691","o":"Beno\u00eet Moreau 100%","e":""},"geometry":{"type":"Polygon","coordinates":[[[-66.825,48.1],[-66.825,48.09167],[-66.83333,48.09167],[-66.83333,48.1],[-66.825,48.1]]]}},{"type":"Feature","properties":{"c":"CDC-2849692","o":"Beno\u00eet Moreau 100%","e":""},"geometry":{"type":"Polygon","coordinates":[[[-66.81667,48.1],[-66.81667,48.09167],[-66.825,48.09167],[-66.825,48.1],[-66.81667,48.1]]]}},{"type":"Feature","properties":{"c":"CDC-2870864","o":"Beno\u00eet Moreau 100%","e":""},"geometry":{"type":"Polygon","coordinates":[[[-66.85833,48.1],[-66.86667,48.1],[-66.86667,48.10527],[-66.86662,48.10525],[-66.86645,48.10499],[-66.8664,48.10494],[-66.86607,48.10468],[-66.866,48.10465],[-66.86578,48.10457],[-66.86534,48.10446],[-66.86526,48.10443],[-66.86504,48.10424],[-66.86448,48.10384],[-66.86441,48.10379],[-66.86409,48.10367],[-66.86402,48.10365],[-66.86378,48.10359],[-66.86345,48.10355],[-66.86322,48.10339],[-66.86309,48.10333],[-66.86302,48.10331],[-66.86295,48.10329],[-66.86273,48.10328],[-66.86263,48.10325],[-66.8624,48.10317],[-66.8621,48.10299],[-66.86204,48.10294],[-66.862,48.10291],[-66.86172,48.10276],[-66.86123,48.10227],[-66.86094,48.10184],[-66.86077,48.1014],[-66.86045,48.10088],[-66.85979,48.10096],[-66.85916,48.10156],[-66.85874,48.10204],[-66.85866,48.10211],[-66.85839,48.10236],[-66.85833,48.1024],[-66.85833,48.1]]]}},{"type":"Feature","properties":{"c":"CDC-2868065","o":"Beno\u00eet Moreau 100%","e":""},"geometry":{"type":"Polygon","coordinates":[[[-66.85761,48.10298],[-66.85687,48.10328],[-66.8568,48.10332],[-66.85641,48.10359],[-66.856,48.1038],[-66.85564,48.10392],[-66.85556,48.10392],[-66.85534,48.10394],[-66.85484,48.10384],[-66.85478,48.10384],[-66.85473,48.10384],[-66.85434,48.10392],[-66.85396,48.10403],[-66.85364,48.10406],[-66.85358,48.10407],[-66.85323,48.10415],[-66.85302,48.10415],[-66.85286,48.1042],[-66.85271,48.10429],[-66.85267,48.10431],[-66.85257,48.10445],[-66.85246,48.10448],[-66.85236,48.10449],[-66.85209,48.10454],[-66.85202,48.10456],[-66.85178,48.10469],[-66.85174,48.10471],[-66.8517,48.10475],[-66.8516,48.10487],[-66.85141,48.10518],[-66.85131,48.10539],[-66.8512,48.10598],[-66.8512,48.10604],[-66.85126,48.10621],[-66.85129,48.10626],[-66.85141,48.10642],[-66.85149,48.1065],[-66.85155,48.10662],[-66.85163,48.10695],[-66.85176,48.10721],[-66.85177,48.10724],[-66.85212,48.10758],[-66.85217,48.10767],[-66.85221,48.10771],[-66.85271,48.10804],[-66.85278,48.10807],[-66.85308,48.10818],[-66.85316,48.1082],[-66.85332,48.10823],[-66.85352,48.10827],[-66.8536,48.10827],[-66.85365,48.10828],[-66.8538,48.10833],[-66.85,48.10833],[-66.85,48.1],[-66.85833,48.1],[-66.85833,48.1024],[-66.85761,48.10298]]]}},{"type":"Feature","properties":{"c":"CDC-2868064","o":"Beno\u00eet Moreau 100%","e":""},"geometry":{"type":"Polygon","coordinates":[[[-66.84167,48.10833],[-66.84167,48.1],[-66.85,48.1],[-66.85,48.10833],[-66.84167,48.10833]]]}},{"type":"Feature","properties":{"c":"CDC-2849693","o":"Beno\u00eet Moreau 100%","e":""},"geometry":{"type":"Polygon","coordinates":[[[-66.825,48.10833],[-66.825,48.1],[-66.83333,48.1],[-66.83333,48.10833],[-66.825,48.10833]]]}},{"type":"Feature","properties":{"c":"CDC-2849694","o":"Beno\u00eet Moreau 100%","e":""},"geometry":{"type":"Polygon","coordinates":[[[-66.81667,48.10833],[-66.81667,48.1],[-66.825,48.1],[-66.825,48.10833],[-66.81667,48.10833]]]}},{"type":"Feature","properties":{"c":"CDC-2849761","o":"Beno\u00eet Moreau 100%","e":""},"geometry":{"type":"Polygon","coordinates":[[[-66.8,48.10833],[-66.8,48.1],[-66.80833,48.1],[-66.80833,48.10833],[-66.8,48.10833]]]}},{"type":"Feature","properties":{"c":"CDC-2868075","o":"Alain Moreau 100%","e":""},"geometry":{"type":"Polygon","coordinates":[[[-66.95,48.10833],[-66.95,48.1],[-66.95833,48.1],[-66.95833,48.10833],[-66.95,48.10833]]]}},{"type":"Feature","properties":{"c":"CDC-2849721","o":"Alain Moreau 100%","e":""},"geometry":{"type":"Polygon","coordinates":[[[-66.94167,48.11667],[-66.94167,48.10833],[-66.95,48.10833],[-66.95,48.11667],[-66.94167,48.11667]]]}},{"type":"Feature","properties":{"c":"CDC-2868076","o":"Alain Moreau 100%","e":""},"geometry":{"type":"Polygon","coordinates":[[[-66.94167,48.10833],[-66.94167,48.1],[-66.95,48.1],[-66.95,48.10833],[-66.94167,48.10833]]]}},{"type":"Feature","properties":{"c":"CDC-2849722","o":"Alain Moreau 100%","e":""},"geometry":{"type":"Polygon","coordinates":[[[-66.93333,48.11667],[-66.93333,48.10833],[-66.94167,48.10833],[-66.94167,48.11667],[-66.93333,48.11667]]]}},{"type":"Feature","properties":{"c":"CDC-2868077","o":"Alain Moreau 100%","e":""},"geometry":{"type":"Polygon","coordinates":[[[-66.93333,48.10833],[-66.93333,48.1],[-66.94167,48.1],[-66.94167,48.10833],[-66.93333,48.10833]]]}},{"type":"Feature","properties":{"c":"CDC-2849723","o":"Alain Moreau 100%","e":""},"geometry":{"type":"Polygon","coordinates":[[[-66.925,48.11667],[-66.925,48.10833],[-66.93333,48.10833],[-66.93333,48.11667],[-66.925,48.11667]]]}},{"type":"Feature","properties":{"c":"CDC-2868078","o":"Alain Moreau 100%","e":""},"geometry":{"type":"Polygon","coordinates":[[[-66.925,48.10833],[-66.925,48.1],[-66.93333,48.1],[-66.93333,48.10833],[-66.925,48.10833]]]}},{"type":"Feature","properties":{"c":"CDC-2849724","o":"Alain Moreau 100%","e":""},"geometry":{"type":"Polygon","coordinates":[[[-66.91667,48.11667],[-66.91667,48.10833],[-66.925,48.10833],[-66.925,48.11667],[-66.91667,48.11667]]]}},{"type":"Feature","properties":{"c":"CDC-2868079","o":"Alain Moreau 100%","e":""},"geometry":{"type":"Polygon","coordinates":[[[-66.91667,48.10833],[-66.91667,48.1],[-66.925,48.1],[-66.925,48.10833],[-66.91667,48.10833]]]}},{"type":"Feature","properties":{"c":"CDC-2548122","o":"Dominique B\u00e9land 100%","e":""},"geometry":{"type":"Polygon","coordinates":[[[-66.925,48.09167],[-66.91667,48.09167],[-66.91667,48.08333],[-66.925,48.08333],[-66.925,48.09167]]]}},{"type":"Feature","properties":{"c":"CDC-2548120","o":"Dominique B\u00e9land 100%","e":""},"geometry":{"type":"Polygon","coordinates":[[[-66.925,48.08333],[-66.91667,48.08333],[-66.91667,48.075],[-66.925,48.075],[-66.925,48.08333]]]}},{"type":"Feature","properties":{"c":"CDC-2849725","o":"Alain Moreau 100%","e":""},"geometry":{"type":"Polygon","coordinates":[[[-66.90833,48.11667],[-66.90833,48.10833],[-66.91667,48.10833],[-66.91667,48.11667],[-66.90833,48.11667]]]}},{"type":"Feature","properties":{"c":"CDC-2548121","o":"Dominique B\u00e9land 100%","e":""},"geometry":{"type":"Polygon","coordinates":[[[-66.91667,48.075],[-66.91667,48.08333],[-66.90833,48.08333],[-66.90833,48.075],[-66.91667,48.075]]]}},{"type":"Feature","properties":{"c":"CDC-2868081","o":"Alain Moreau 100%","e":""},"geometry":{"type":"Polygon","coordinates":[[[-66.9,48.11667],[-66.9,48.10833],[-66.90833,48.10833],[-66.90833,48.11667],[-66.9,48.11667]]]}},{"type":"Feature","properties":{"c":"CDC-2849726","o":"Alain Moreau 100%","e":""},"geometry":{"type":"Polygon","coordinates":[[[-66.89167,48.11667],[-66.89167,48.10833],[-66.9,48.10833],[-66.9,48.11667],[-66.89167,48.11667]]]}},{"type":"Feature","properties":{"c":"CDC-2868080","o":"Alain Moreau 100%","e":""},"geometry":{"type":"Polygon","coordinates":[[[-66.89167,48.10833],[-66.89167,48.1],[-66.9,48.1],[-66.9,48.10833],[-66.89167,48.10833]]]}},{"type":"Feature","properties":{"c":"CDC-2868073","o":"Alain Moreau 100%","e":""},"geometry":{"type":"Polygon","coordinates":[[[-66.9,48.1],[-66.89167,48.1],[-66.89167,48.09167],[-66.9,48.09167],[-66.9,48.1]]]}},{"type":"Feature","properties":{"c":"CDC-2849727","o":"Alain Moreau 100%","e":""},"geometry":{"type":"Polygon","coordinates":[[[-66.88333,48.11667],[-66.88333,48.10833],[-66.89167,48.10833],[-66.89167,48.11667],[-66.88333,48.11667]]]}},{"type":"Feature","properties":{"c":"CDC-2849717","o":"Alain Moreau 100%","e":""},"geometry":{"type":"Polygon","coordinates":[[[-66.88333,48.10833],[-66.88333,48.1],[-66.89167,48.1],[-66.89167,48.10833],[-66.88333,48.10833]]]}},{"type":"Feature","properties":{"c":"CDC-2849713","o":"Alain Moreau 100%","e":""},"geometry":{"type":"Polygon","coordinates":[[[-66.88333,48.1],[-66.88333,48.09167],[-66.89167,48.09167],[-66.89167,48.1],[-66.88333,48.1]]]}},{"type":"Feature","properties":{"c":"CDC-2868368","o":"Alain Moreau 100%","e":""},"geometry":{"type":"Polygon","coordinates":[[[-66.87998,48.11667],[-66.87994,48.11659],[-66.87972,48.11641],[-66.87949,48.11628],[-66.87944,48.11624],[-66.8792,48.11596],[-66.87893,48.11578],[-66.87854,48.11561],[-66.87848,48.11553],[-66.87844,48.11546],[-66.8784,48.11534],[-66.87824,48.11503],[-66.87812,48.11486],[-66.8779,48.11462],[-66.87757,48.11417],[-66.87747,48.11405],[-66.87725,48.11381],[-66.87695,48.11323],[-66.87695,48.11318],[-66.87688,48.11309],[-66.8768,48.11295],[-66.87662,48.11272],[-66.87637,48.11247],[-66.87606,48.11217],[-66.87583,48.11192],[-66.87566,48.11166],[-66.87546,48.11162],[-66.87522,48.11138],[-66.87513,48.11134],[-66.875,48.11132],[-66.875,48.10833],[-66.88333,48.10833],[-66.88333,48.11667],[-66.87998,48.11667]]]}},{"type":"Feature","properties":{"c":"CDC-2849718","o":"Alain Moreau 100%","e":""},"geometry":{"type":"Polygon","coordinates":[[[-66.875,48.10833],[-66.875,48.1],[-66.88333,48.1],[-66.88333,48.10833],[-66.875,48.10833]]]}},{"type":"Feature","properties":{"c":"CDC-2849714","o":"Alain Moreau 100%","e":""},"geometry":{"type":"Polygon","coordinates":[[[-66.875,48.1],[-66.875,48.09167],[-66.88333,48.09167],[-66.88333,48.1],[-66.875,48.1]]]}},{"type":"Feature","properties":{"c":"CDC-2849709","o":"Alain Moreau 100%","e":""},"geometry":{"type":"Polygon","coordinates":[[[-66.875,48.09167],[-66.875,48.08333],[-66.87961,48.08333],[-66.88043,48.08473],[-66.88175,48.08698],[-66.88186,48.08716],[-66.88198,48.08734],[-66.88212,48.08751],[-66.88226,48.08769],[-66.88241,48.08786],[-66.88257,48.08802],[-66.88274,48.08818],[-66.88291,48.08834],[-66.8831,48.08849],[-66.88329,48.08864],[-66.88333,48.08867],[-66.88333,48.09167],[-66.875,48.09167]]]}},{"type":"Feature","properties":{"c":"CDC-2868068","o":"Beno\u00eet Moreau 100%","e":""},"geometry":{"type":"Polygon","coordinates":[[[-66.875,48.125],[-66.86667,48.125],[-66.86667,48.11667],[-66.87146,48.11667],[-66.87153,48.11686],[-66.87158,48.11715],[-66.8718,48.11762],[-66.87215,48.11812],[-66.87242,48.11859],[-66.87262,48.11881],[-66.87277,48.11891],[-66.87298,48.11903],[-66.87301,48.1191],[-66.87304,48.11932],[-66.87308,48.11934],[-66.87318,48.11939],[-66.87323,48.11945],[-66.87332,48.1197],[-66.87342,48.11976],[-66.87351,48.1198],[-66.87383,48.11997],[-66.87407,48.12012],[-66.87428,48.12024],[-66.87434,48.12025],[-66.87475,48.12038],[-66.87494,48.12046],[-66.875,48.1205],[-66.875,48.125]]]}},{"type":"Feature","properties":{"c":"CDC-2868369","o":"Alain Moreau 100%","e":""},"geometry":{"type":"Polygon","coordinates":[[[-66.875,48.11132],[-66.87485,48.11131],[-66.87469,48.11123],[-66.87459,48.11117],[-66.87435,48.11102],[-66.87423,48.11119],[-66.87408,48.11136],[-66.87404,48.11162],[-66.87391,48.11184],[-66.87385,48.11191],[-66.87326,48.11232],[-66.87285,48.11256],[-66.8726,48.11274],[-66.87246,48.11289],[-66.87241,48.11298],[-66.87241,48.1131],[-66.87246,48.11318],[-66.87269,48.11342],[-66.87275,48.11348],[-66.87289,48.11366],[-66.87298,48.11385],[-66.87307,48.11417],[-66.87297,48.11445],[-66.87285,48.11463],[-66.87262,48.11473],[-66.87202,48.11487],[-66.87153,48.11503],[-66.87128,48.11518],[-66.87115,48.11533],[-66.87094,48.11568],[-66.87094,48.11581],[-66.87095,48.11588],[-66.87104,48.11608],[-66.8714,48.11651],[-66.87146,48.11667],[-66.86667,48.11667],[-66.86667,48.10833],[-66.875,48.10833],[-66.875,48.11132]]]}},{"type":"Feature","properties":{"c":"CDC-2849719","o":"Alain Moreau 100%","e":""},"geometry":{"type":"Polygon","coordinates":[[[-66.875,48.1],[-66.875,48.10833],[-66.86667,48.10833],[-66.86667,48.10661],[-66.86801,48.10627],[-66.86771,48.10605],[-66.86754,48.1058],[-66.86749,48.10575],[-66.86721,48.10552],[-66.86717,48.10549],[-66.86713,48.10546],[-66.86684,48.10537],[-66.86667,48.10527],[-66.86667,48.1],[-66.875,48.1]]]}},{"type":"Feature","properties":{"c":"CDC-2836301","o":"Louis Martin 100%","e":""},"geometry":{"type":"Polygon","coordinates":[[[-66.99167,48.325],[-66.99167,48.31667],[-67.0,48.31667],[-67.0,48.325],[-66.99167,48.325]]]}},{"type":"Feature","properties":{"c":"CDC-2836306","o":"Louis Martin 100%","e":""},"geometry":{"type":"Polygon","coordinates":[[[-66.99167,48.33678],[-66.99923,48.34167],[-66.99167,48.34167],[-66.99167,48.33678]]]}},{"type":"Feature","properties":{"c":"CDC-2852567","o":"Louis Martin 100%","e":""},"geometry":{"type":"Polygon","coordinates":[[[-66.99426,48.33333],[-66.99303,48.3342],[-66.99167,48.33517],[-66.99167,48.33333],[-66.99426,48.33333]]]}},{"type":"Feature","properties":{"c":"CDC-2836313","o":"Louis Martin 100%","e":""},"geometry":{"type":"Polygon","coordinates":[[[-66.98333,48.35],[-66.98333,48.34167],[-66.99167,48.34167],[-66.99167,48.35],[-66.98333,48.35]]]}},{"type":"Feature","properties":{"c":"CDC-2836303","o":"Louis Martin 100%","e":""},"geometry":{"type":"Polygon","coordinates":[[[-66.98333,48.33333],[-66.98333,48.325],[-66.99167,48.325],[-66.99167,48.33333],[-66.98333,48.33333]]]}},{"type":"Feature","properties":{"c":"CDC-2836302","o":"Louis Martin 100%","e":""},"geometry":{"type":"Polygon","coordinates":[[[-66.98333,48.325],[-66.98333,48.31667],[-66.99167,48.31667],[-66.99167,48.325],[-66.98333,48.325]]]}},{"type":"Feature","properties":{"c":"CDC-2836314","o":"Louis Martin 100%","e":""},"geometry":{"type":"Polygon","coordinates":[[[-66.975,48.35],[-66.975,48.34167],[-66.98333,48.34167],[-66.98333,48.35],[-66.975,48.35]]]}},{"type":"Feature","properties":{"c":"CDC-2836304","o":"Louis Martin 100%","e":""},"geometry":{"type":"Polygon","coordinates":[[[-66.975,48.33333],[-66.975,48.325],[-66.98333,48.325],[-66.98333,48.33333],[-66.975,48.33333]]]}},{"type":"Feature","properties":{"c":"CDC-2836315","o":"Louis Martin 100%","e":""},"geometry":{"type":"Polygon","coordinates":[[[-66.96667,48.35],[-66.96667,48.34167],[-66.975,48.34167],[-66.975,48.35],[-66.96667,48.35]]]}},{"type":"Feature","properties":{"c":"CDC-2836307","o":"Louis Martin 100%","e":""},"geometry":{"type":"Polygon","coordinates":[[[-66.975,48.34167],[-66.96667,48.34167],[-66.96667,48.33333],[-66.975,48.33333],[-66.975,48.34167]]]}},{"type":"Feature","properties":{"c":"CDC-2836305","o":"Louis Martin 100%","e":""},"geometry":{"type":"Polygon","coordinates":[[[-66.96667,48.33333],[-66.96667,48.325],[-66.975,48.325],[-66.975,48.33333],[-66.96667,48.33333]]]}},{"type":"Feature","properties":{"c":"CDC-2836316","o":"Louis Martin 100%","e":""},"geometry":{"type":"Polygon","coordinates":[[[-66.95833,48.35],[-66.95833,48.34167],[-66.96667,48.34167],[-66.96667,48.35],[-66.95833,48.35]]]}},{"type":"Feature","properties":{"c":"CDC-2836308","o":"Louis Martin 100%","e":""},"geometry":{"type":"Polygon","coordinates":[[[-66.95833,48.34167],[-66.95833,48.33333],[-66.96667,48.33333],[-66.96667,48.34167],[-66.95833,48.34167]]]}},{"type":"Feature","properties":{"c":"CDC-2836317","o":"Louis Martin 100%","e":""},"geometry":{"type":"Polygon","coordinates":[[[-66.95,48.35],[-66.95,48.34167],[-66.95833,48.34167],[-66.95833,48.35],[-66.95,48.35]]]}},{"type":"Feature","properties":{"c":"CDC-2836309","o":"Louis Martin 100%","e":""},"geometry":{"type":"Polygon","coordinates":[[[-66.95,48.34167],[-66.95,48.33333],[-66.95833,48.33333],[-66.95833,48.34167],[-66.95,48.34167]]]}},{"type":"Feature","properties":{"c":"CDC-2836318","o":"Louis Martin 100%","e":""},"geometry":{"type":"Polygon","coordinates":[[[-66.94167,48.35],[-66.94167,48.34167],[-66.95,48.34167],[-66.95,48.35],[-66.94167,48.35]]]}},{"type":"Feature","properties":{"c":"CDC-2836310","o":"Louis Martin 100%","e":""},"geometry":{"type":"Polygon","coordinates":[[[-66.94167,48.34167],[-66.94167,48.33333],[-66.95,48.33333],[-66.95,48.34167],[-66.94167,48.34167]]]}},{"type":"Feature","properties":{"c":"CDC-2836319","o":"Louis Martin 100%","e":""},"geometry":{"type":"Polygon","coordinates":[[[-66.93333,48.35],[-66.93333,48.34167],[-66.94167,48.34167],[-66.94167,48.35],[-66.93333,48.35]]]}},{"type":"Feature","properties":{"c":"CDC-2836311","o":"Louis Martin 100%","e":""},"geometry":{"type":"Polygon","coordinates":[[[-66.93333,48.34167],[-66.93333,48.33333],[-66.94167,48.33333],[-66.94167,48.34167],[-66.93333,48.34167]]]}},{"type":"Feature","properties":{"c":"CDC-2836320","o":"Louis Martin 100%","e":""},"geometry":{"type":"Polygon","coordinates":[[[-66.925,48.35],[-66.925,48.34167],[-66.93333,48.34167],[-66.93333,48.35],[-66.925,48.35]]]}},{"type":"Feature","properties":{"c":"CDC-2836321","o":"Louis Martin 100%","e":""},"geometry":{"type":"Polygon","coordinates":[[[-66.91667,48.35],[-66.91667,48.34167],[-66.925,48.34167],[-66.925,48.35],[-66.91667,48.35]]]}},{"type":"Feature","properties":{"c":"CDC-2836322","o":"Louis Martin 100%","e":""},"geometry":{"type":"Polygon","coordinates":[[[-66.90833,48.35],[-66.90833,48.34167],[-66.91667,48.34167],[-66.91667,48.35],[-66.90833,48.35]]]}},{"type":"Feature","properties":{"c":"CDC-2849705","o":"Beno\u00eet Moreau 100%","e":""},"geometry":{"type":"Polygon","coordinates":[[[-66.84167,48.13333],[-66.84167,48.125],[-66.85,48.125],[-66.85,48.13333],[-66.84167,48.13333]]]}},{"type":"Feature","properties":{"c":"CDC-2849706","o":"Beno\u00eet Moreau 100%","e":""},"geometry":{"type":"Polygon","coordinates":[[[-66.83333,48.13333],[-66.83333,48.125],[-66.84167,48.125],[-66.84167,48.13333],[-66.83333,48.13333]]]}},{"type":"Feature","properties":{"c":"CDC-2849707","o":"Beno\u00eet Moreau 100%","e":""},"geometry":{"type":"Polygon","coordinates":[[[-66.825,48.13333],[-66.825,48.125],[-66.83333,48.125],[-66.83333,48.13333],[-66.825,48.13333]]]}},{"type":"Feature","properties":{"c":"CDC-2849782","o":"Beno\u00eet Moreau 100%","e":""},"geometry":{"type":"Polygon","coordinates":[[[-66.81667,48.14167],[-66.81667,48.13333],[-66.825,48.13333],[-66.825,48.14167],[-66.81667,48.14167]]]}},{"type":"Feature","properties":{"c":"CDC-2849708","o":"Beno\u00eet Moreau 100%","e":""},"geometry":{"type":"Polygon","coordinates":[[[-66.81667,48.13333],[-66.81667,48.125],[-66.825,48.125],[-66.825,48.13333],[-66.81667,48.13333]]]}},{"type":"Feature","properties":{"c":"CDC-2849760","o":"Alain Moreau 100%","e":""},"geometry":{"type":"Polygon","coordinates":[[[-67.0,48.09167],[-67.0,48.08333],[-67.00833,48.08333],[-67.00833,48.09167],[-67.0,48.09167]]]}},{"type":"Feature","properties":{"c":"CDC-2849751","o":"Alain Moreau 100%","e":""},"geometry":{"type":"Polygon","coordinates":[[[-67.0,48.08333],[-67.0,48.075],[-67.00833,48.075],[-67.00833,48.08333],[-67.0,48.08333]]]}},{"type":"Feature","properties":{"c":"CDC-2868084","o":"Alain Moreau 100%","e":""},"geometry":{"type":"Polygon","coordinates":[[[-67.0,48.075],[-67.0,48.06667],[-67.00833,48.06667],[-67.00833,48.075],[-67.0,48.075]]]}},{"type":"Feature","properties":{"c":"CDC-2849729","o":"Alain Moreau 100%","e":""},"geometry":{"type":"Polygon","coordinates":[[[-66.99167,48.09167],[-66.99167,48.08333],[-67.0,48.08333],[-67.0,48.09167],[-66.99167,48.09167]]]}},{"type":"Feature","properties":{"c":"CDC-2849728","o":"Alain Moreau 100%","e":""},"geometry":{"type":"Polygon","coordinates":[[[-66.99167,48.08333],[-66.99167,48.075],[-67.0,48.075],[-67.0,48.08333],[-66.99167,48.08333]]]}},{"type":"Feature","properties":{"c":"CDC-2868367","o":"Alain Moreau 100%","e":""},"geometry":{"type":"Polygon","coordinates":[[[-66.99167,48.07133],[-66.99167,48.06667],[-67.0,48.06667],[-67.0,48.075],[-66.99167,48.075],[-66.99167,48.07206],[-66.99981,48.06995],[-66.99985,48.06993],[-66.99988,48.06993],[-66.99951,48.0693],[-66.99167,48.07133]]]}},{"type":"Feature","properties":{"c":"CDC-2849711","o":"Alain Moreau 100%","e":""},"geometry":{"type":"Polygon","coordinates":[[[-66.98333,48.1],[-66.98333,48.09167],[-66.99167,48.09167],[-66.99167,48.1],[-66.98333,48.1]]]}},{"type":"Feature","properties":{"c":"CDC-2868070","o":"Alain Moreau 100%","e":""},"geometry":{"type":"Polygon","coordinates":[[[-66.98333,48.09167],[-66.98333,48.08333],[-66.99167,48.08333],[-66.99167,48.09167],[-66.98333,48.09167]]]}},{"type":"Feature","properties":{"c":"CDC-2868069","o":"Alain Moreau 100%","e":""},"geometry":{"type":"Polygon","coordinates":[[[-66.98333,48.08333],[-66.98333,48.075],[-66.99167,48.075],[-66.99167,48.08333],[-66.98333,48.08333]]]}},{"type":"Feature","properties":{"c":"CDC-2849712","o":"Alain Moreau 100%","e":""},"geometry":{"type":"Polygon","coordinates":[[[-66.975,48.1],[-66.975,48.09167],[-66.98333,48.09167],[-66.98333,48.1],[-66.975,48.1]]]}},{"type":"Feature","properties":{"c":"CDC-2868071","o":"Alain Moreau 100%","e":""},"geometry":{"type":"Polygon","coordinates":[[[-66.975,48.09167],[-66.975,48.08333],[-66.98333,48.08333],[-66.98333,48.09167],[-66.975,48.09167]]]}},{"type":"Feature","properties":{"c":"CDC-2849716","o":"Alain Moreau 100%","e":""},"geometry":{"type":"Polygon","coordinates":[[[-66.96667,48.10833],[-66.96667,48.1],[-66.975,48.1],[-66.975,48.10833],[-66.96667,48.10833]]]}},{"type":"Feature","properties":{"c":"CDC-2868072","o":"Alain Moreau 100%","e":""},"geometry":{"type":"Polygon","coordinates":[[[-66.96667,48.1],[-66.96667,48.09167],[-66.975,48.09167],[-66.975,48.1],[-66.96667,48.1]]]}},{"type":"Feature","properties":{"c":"CDC-2868074","o":"Alain Moreau 100%","e":""},"geometry":{"type":"Polygon","coordinates":[[[-66.95833,48.10833],[-66.95833,48.1],[-66.96667,48.1],[-66.96667,48.10833],[-66.95833,48.10833]]]}},{"type":"Feature","properties":{"c":"CDC-2849720","o":"Alain Moreau 100%","e":""},"geometry":{"type":"Polygon","coordinates":[[[-66.95,48.11667],[-66.95,48.10833],[-66.95833,48.10833],[-66.95833,48.11667],[-66.95,48.11667]]]}},{"type":"Feature","properties":{"c":"CDC-2443726","o":"Fancamp Exploration Ltd 100%","e":""},"geometry":{"type":"Polygon","coordinates":[[[-67.01149,48.34629],[-66.99303,48.3342],[-66.99525,48.33263],[-66.99531,48.33258],[-67.01394,48.34459],[-67.01149,48.34629]]]}},{"type":"Feature","properties":{"c":"CDC-2443724","o":"Fancamp Exploration Ltd 100%","e":""},"geometry":{"type":"Polygon","coordinates":[[[-67.00903,48.348],[-66.99049,48.33601],[-66.99303,48.3342],[-67.01149,48.34629],[-67.01141,48.34635],[-67.00903,48.348]]]}},{"type":"Feature","properties":{"c":"CDC-2852564","o":"Louis Martin 100%","e":""},"geometry":{"type":"Polygon","coordinates":[[[-67.00833,48.31667],[-67.00833,48.32316],[-67.00812,48.32332],[-67.00738,48.32385],[-67.00666,48.32438],[-67.00579,48.325],[-67.0,48.325],[-67.0,48.31667],[-67.00833,48.31667]]]}},{"type":"Feature","properties":{"c":"CDC-2852565","o":"Louis Martin 100%","e":""},"geometry":{"type":"Polygon","coordinates":[[[-67.00579,48.325],[-67.00534,48.32533],[-67.00486,48.32567],[-67.00369,48.32652],[-67.00269,48.32726],[-67.00261,48.32732],[-67.00249,48.32741],[-67.0001,48.32914],[-67.0,48.32921],[-67.0,48.325],[-67.00579,48.325]]]}},{"type":"Feature","properties":{"c":"CDC-2836312","o":"Louis Martin 100%","e":""},"geometry":{"type":"Polygon","coordinates":[[[-66.99167,48.35],[-66.99167,48.34167],[-66.99923,48.34167],[-67.0,48.34216],[-67.0,48.35],[-66.99167,48.35]]]}},{"type":"Feature","properties":{"c":"CDC-2852566","o":"Louis Martin 100%","e":""},"geometry":{"type":"Polygon","coordinates":[[[-66.99426,48.33333],[-66.99167,48.33333],[-66.99167,48.325],[-67.0,48.325],[-67.0,48.32921],[-66.99426,48.33333]]]}},{"type":"Feature","properties":{"c":"CDC-2836323","o":"Louis Martin 100%","e":""},"geometry":{"type":"Polygon","coordinates":[[[-66.94167,48.35833],[-66.94167,48.35],[-66.95,48.35],[-66.95,48.35833],[-66.94167,48.35833]]]}},{"type":"Feature","properties":{"c":"CDC-2836324","o":"Louis Martin 100%","e":""},"geometry":{"type":"Polygon","coordinates":[[[-66.93333,48.35833],[-66.93333,48.35],[-66.94167,48.35],[-66.94167,48.35833],[-66.93333,48.35833]]]}},{"type":"Feature","properties":{"c":"CDC-2836325","o":"Louis Martin 100%","e":""},"geometry":{"type":"Polygon","coordinates":[[[-66.925,48.35833],[-66.925,48.35],[-66.93333,48.35],[-66.93333,48.35833],[-66.925,48.35833]]]}},{"type":"Feature","properties":{"c":"CDC-2836326","o":"Louis Martin 100%","e":""},"geometry":{"type":"Polygon","coordinates":[[[-66.91667,48.35833],[-66.91667,48.35],[-66.925,48.35],[-66.925,48.35833],[-66.91667,48.35833]]]}},{"type":"Feature","properties":{"c":"CDC-2836327","o":"Louis Martin 100%","e":""},"geometry":{"type":"Polygon","coordinates":[[[-66.90833,48.35833],[-66.90833,48.35],[-66.91667,48.35],[-66.91667,48.35833],[-66.90833,48.35833]]]}},{"type":"Feature","properties":{"c":"CDC-2836328","o":"Louis Martin 100%","e":""},"geometry":{"type":"Polygon","coordinates":[[[-66.9,48.35833],[-66.9,48.35],[-66.90833,48.35],[-66.90833,48.35833],[-66.9,48.35833]]]}},{"type":"Feature","properties":{"c":"CDC-2836329","o":"Louis Martin 100%","e":""},"geometry":{"type":"Polygon","coordinates":[[[-66.89167,48.35833],[-66.89167,48.35],[-66.9,48.35],[-66.9,48.35833],[-66.89167,48.35833]]]}},{"type":"Feature","properties":{"c":"CDC-2836330","o":"Louis Martin 100%","e":""},"geometry":{"type":"Polygon","coordinates":[[[-66.88333,48.35833],[-66.88333,48.35],[-66.89167,48.35],[-66.89167,48.35833],[-66.88333,48.35833]]]}},{"type":"Feature","properties":{"c":"CDC-2836331","o":"Louis Martin 100%","e":""},"geometry":{"type":"Polygon","coordinates":[[[-66.90833,48.36667],[-66.90833,48.35833],[-66.91667,48.35833],[-66.91667,48.36667],[-66.90833,48.36667]]]}},{"type":"Feature","properties":{"c":"CDC-2836332","o":"Louis Martin 100%","e":""},"geometry":{"type":"Polygon","coordinates":[[[-66.9,48.36667],[-66.9,48.35833],[-66.90833,48.35833],[-66.90833,48.36667],[-66.9,48.36667]]]}},{"type":"Feature","properties":{"c":"CDC-2836333","o":"Louis Martin 100%","e":""},"geometry":{"type":"Polygon","coordinates":[[[-66.89167,48.36667],[-66.89167,48.35833],[-66.9,48.35833],[-66.9,48.36667],[-66.89167,48.36667]]]}},{"type":"Feature","properties":{"c":"CDC-2836334","o":"Louis Martin 100%","e":""},"geometry":{"type":"Polygon","coordinates":[[[-66.88333,48.36667],[-66.88333,48.35833],[-66.89167,48.35833],[-66.89167,48.36667],[-66.88333,48.36667]]]}},{"type":"Feature","properties":{"c":"CDC-2887732","o":"Marino Specogna 100%","e":""},"geometry":{"type":"Polygon","coordinates":[[[-66.88333,48.44167],[-66.88333,48.43333],[-66.89167,48.43333],[-66.89167,48.44167],[-66.88333,48.44167]]]}}]}