{"type":"FeatureCollection","features":[{"type":"Feature","properties":{"c":"039428M","o":"Shawn Ryan","e":"2027-07-05"},"geometry":{"type":"Polygon","coordinates":[[[-67.0,54.0],[-67.0,54.0],[-67.0,55.0],[-67.0,54.0]],[[-67.0,55.0],[-67.0,55.0],[-67.0,55.0],[-67.0,55.0]]]}},{"type":"Feature","properties":{"c":"039581M","o":"Roland Quinlan","e":"2030-09-04"},"geometry":{"type":"Polygon","coordinates":[[[-67.0,54.0],[-67.0,54.0],[-67.0,54.0],[-67.0,54.0]]]}},{"type":"Feature","properties":{"c":"040817M","o":"Shawn Ryan","e":"2028-04-27"},"geometry":{"type":"Polygon","coordinates":[[[-67.0,54.0],[-67.0,54.0],[-67.0,54.0],[-67.0,54.0]]]}},{"type":"Feature","properties":{"c":"041411M","o":NaN,"e":""},"geometry":{"type":"Polygon","coordinates":[[[-67.0,54.0],[-67.0,54.0],[-67.0,55.0],[-67.0,54.0]]]}},{"type":"Feature","properties":{"c":"041412M","o":"Jamil Sader","e":""},"geometry":{"type":"Polygon","coordinates":[[[-67.0,54.0],[-67.0,54.0],[-67.0,54.0],[-67.0,54.0]]]}}]}