{"type":"FeatureCollection","features":[{"type":"Feature","properties":{"c":"5309","o":"","e":""},"geometry":{"type":"Polygon","coordinates":[[[-67.01875,46.36251],[-67.0125,46.36251],[-67.0125,46.37918],[-67.01875,46.37918],[-67.01875,46.38751],[-67.0125,46.38751],[-67.0125,46.39168],[-67.0,46.39168],[-67.0,46.39584],[-66.99375,46.39584],[-66.99375,46.40001],[-66.98125,46.40001],[-66.98125,46.40418],[-66.95625,46.40418],[-66.95625,46.39168],[-66.95,46.39168],[-66.95,46.37918],[-66.95625,46.37918],[-66.95625,46.37501],[-66.96875,46.37501],[-66.96875,46.35834],[-66.98125,46.35834],[-66.98125,46.35418],[-67.0,46.35418],[-67.0,46.34584],[-66.99375,46.34584],[-66.99375,46.33334],[-67.0,46.33334],[-67.0,46.33751],[-67.0125,46.33751],[-67.0125,46.34584],[-67.01875,46.34584],[-67.01875,46.36251]]]}},{"type":"Feature","properties":{"c":"3270","o":"","e":""},"geometry":{"type":"Polygon","coordinates":[[[-67.13125,46.42501],[-67.125,46.42501],[-67.125,46.42918],[-67.0875,46.42918],[-67.0875,46.42501],[-67.075,46.42501],[-67.075,46.42084],[-67.0625,46.42084],[-67.0625,46.42501],[-67.05625,46.42501],[-67.05625,46.43334],[-67.05,46.43334],[-67.05,46.43751],[-67.0375,46.43751],[-67.0375,46.44168],[-67.025,46.44168],[-67.025,46.44584],[-67.01875,46.44584],[-67.01875,46.45001],[-66.9875,46.45001],[-66.9875,46.44584],[-66.975,46.44584],[-66.975,46.44168],[-66.96875,46.44168],[-66.96875,46.42501],[-66.975,46.42501],[-66.975,46.42084],[-66.9875,46.42084],[-66.9875,46.41251],[-67.0125,46.41251],[-67.0125,46.40001],[-67.01875,46.40001],[-67.01875,46.37918],[-67.0125,46.37918],[-67.0125,46.36251],[-67.01875,46.36251],[-67.01875,46.34584],[-67.0125,46.34584],[-67.0125,46.33751],[-67.0,46.33751],[-67.0,46.33334],[-66.9875,46.33334],[-66.9875,46.32501],[-66.99375,46.32501],[-66.99375,46.32084],[-67.0125,46.32084],[-67.0125,46.31668],[-67.01875,46.31668],[-67.01875,46.31251],[-67.03125,46.31251],[-67.03125,46.30001],[-67.08125,46.30001],[-67.08125,46.30418],[-67.0875,46.30418],[-67.0875,46.31668],[-67.1,46.31668],[-67.1,46.32918],[-67.10625,46.32918],[-67.10625,46.34168],[-67.1,46.34168],[-67.1,46.34584],[-67.1125,46.34584],[-67.1125,46.35418],[-67.11875,46.35418],[-67.11875,46.36668],[-67.125,46.36668],[-67.125,46.38751],[-67.11875,46.38751],[-67.11875,46.40418],[-67.13125,46.40418],[-67.13125,46.42501]]]}},{"type":"Feature","properties":{"c":"5141","o":"","e":""},"geometry":{"type":"Polygon","coordinates":[[[-67.01875,46.40001],[-67.0125,46.40001],[-67.0125,46.41251],[-66.9875,46.41251],[-66.9875,46.42084],[-66.975,46.42084],[-66.975,46.42501],[-66.96875,46.42501],[-66.96875,46.42918],[-66.9625,46.42918],[-66.9625,46.40418],[-66.98125,46.40418],[-66.98125,46.40001],[-66.99375,46.40001],[-66.99375,46.39584],[-67.0,46.39584],[-67.0,46.39168],[-67.0125,46.39168],[-67.0125,46.38751],[-67.01875,46.38751],[-67.01875,46.39168],[-67.01875,46.40001]]]}},{"type":"Feature","properties":{"c":"8300","o":"","e":""},"geometry":{"type":"MultiPolygon","coordinates":[[[[-66.93125,46.00418],[-66.91875,46.00418],[-66.91875,45.97501],[-66.925,45.97501],[-66.925,45.97084],[-66.93125,45.97084],[-66.93125,45.96668],[-66.925,45.96668],[-66.925,45.96251],[-66.91875,45.96251],[-66.91875,45.95834],[-66.9125,45.95834],[-66.9125,45.95418],[-66.91875,45.95418],[-66.91875,45.95001],[-66.925,45.95001],[-66.925,45.94584],[-66.94375,45.94584],[-66.95,45.94584],[-66.95,45.95001],[-66.9625,45.95001],[-66.9625,45.95418],[-66.96875,45.95418],[-66.96875,45.95001],[-66.975,45.95001],[-66.975,45.93751],[-66.98125,45.93751],[-66.98125,45.93334],[-66.9875,45.93334],[-66.9875,45.92918],[-67.01875,45.92918],[-67.01875,45.93751],[-67.00625,45.93751],[-67.00625,45.94584],[-67.0,45.94584],[-67.0,45.95418],[-66.975,45.95418],[-66.975,45.96251],[-66.99375,45.96251],[-66.99375,45.98334],[-66.9875,45.98334],[-66.9875,45.98751],[-66.98125,45.98751],[-66.98125,46.00001],[-66.975,46.00001],[-66.975,46.02084],[-66.96875,46.02084],[-66.96875,46.02501],[-66.9625,46.02501],[-66.9625,46.02918],[-66.95625,46.02918],[-66.95625,46.03334],[-66.94375,46.03334],[-66.94375,46.02084],[-66.95,46.02084],[-66.95,46.01251],[-66.93125,46.01251],[-66.93125,46.00418]]],[[[-66.9375,46.05001],[-66.95,46.05001],[-66.95,46.05418],[-66.95,46.05834],[-66.94375,46.05834],[-66.94375,46.07084],[-66.9375,46.07084],[-66.9375,46.08751],[-66.94375,46.08751],[-66.94375,46.09168],[-66.925,46.09168],[-66.925,46.07501],[-66.91875,46.07501],[-66.91875,46.06251],[-66.9125,46.06251],[-66.9125,46.05418],[-66.925,46.05418],[-66.925,46.04584],[-66.93125,46.04584],[-66.93125,46.04168],[-66.91875,46.04168],[-66.91875,46.03751],[-66.9125,46.03751],[-66.9125,46.03334],[-66.90625,46.03334],[-66.90625,46.02918],[-66.9,46.02918],[-66.9,46.02501],[-66.91875,46.02501],[-66.91875,46.02918],[-66.925,46.02918],[-66.925,46.03751],[-66.9375,46.03751],[-66.9375,46.05001]],[[-66.94375,46.05418],[-66.93125,46.05418],[-66.93125,46.05834],[-66.94375,46.05834],[-66.94375,46.05418]]],[[[-66.9625,46.05834],[-66.9625,46.06251],[-66.96875,46.06251],[-66.96875,46.06668],[-66.96875,46.07084],[-66.95625,46.07084],[-66.95625,46.06668],[-66.95,46.06668],[-66.95,46.05834],[-66.9625,46.05834]]],[[[-66.925,46.01251],[-66.93125,46.01251],[-66.93125,46.02918],[-66.925,46.02918],[-66.925,46.01251]]],[[[-66.9375,46.03334],[-66.94375,46.03334],[-66.94375,46.03751],[-66.9375,46.03751],[-66.9375,46.03334]]]]}},{"type":"Feature","properties":{"c":"11748","o":"","e":""},"geometry":{"type":"Polygon","coordinates":[[[-67.075,46.45418],[-67.0,46.45418],[-67.0,46.45001],[-67.01875,46.45001],[-67.01875,46.44584],[-67.025,46.44584],[-67.025,46.44168],[-67.0375,46.44168],[-67.0375,46.43751],[-67.05,46.43751],[-67.05,46.43334],[-67.05625,46.43334],[-67.05625,46.42501],[-67.0625,46.42501],[-67.0625,46.42084],[-67.075,46.42084],[-67.075,46.42501],[-67.075,46.45418]]]}},{"type":"Feature","properties":{"c":"11837","o":"","e":""},"geometry":{"type":"Polygon","coordinates":[[[-67.0875,46.46251],[-67.0,46.46251],[-67.0,46.45418],[-67.075,46.45418],[-67.075,46.42501],[-67.0875,46.42501],[-67.0875,46.42918],[-67.0875,46.46251]]]}},{"type":"Feature","properties":{"c":"11882","o":"","e":""},"geometry":{"type":"Polygon","coordinates":[[[-66.88125,46.28334],[-66.86875,46.28334],[-66.86875,46.27084],[-66.88125,46.27084],[-66.88125,46.27501],[-66.88125,46.28334]]]}},{"type":"Feature","properties":{"c":"11883","o":"","e":""},"geometry":{"type":"Polygon","coordinates":[[[-66.81875,46.38751],[-66.8125,46.38751],[-66.8125,46.37918],[-66.81875,46.37918],[-66.81875,46.38334],[-66.81875,46.38751]]]}},{"type":"Feature","properties":{"c":"11884","o":"","e":""},"geometry":{"type":"Polygon","coordinates":[[[-66.68125,46.41668],[-66.68125,46.41251],[-66.69375,46.41251],[-66.69375,46.41668],[-66.68125,46.41668]]]}},{"type":"Feature","properties":{"c":"11962","o":"","e":""},"geometry":{"type":"Polygon","coordinates":[[[-66.925,46.47084],[-66.91875,46.47084],[-66.91875,46.47501],[-66.9125,46.47501],[-66.9125,46.48751],[-66.91875,46.48751],[-66.91875,46.50001],[-66.925,46.50001],[-66.925,46.50834],[-66.825,46.50834],[-66.825,46.50418],[-66.83125,46.50418],[-66.83125,46.50001],[-66.8375,46.50001],[-66.8375,46.48751],[-66.84375,46.48751],[-66.84375,46.48334],[-66.85625,46.48334],[-66.85625,46.47501],[-66.875,46.47501],[-66.875,46.46668],[-66.88125,46.46668],[-66.88125,46.46251],[-66.925,46.46251],[-66.925,46.46668],[-66.925,46.47084]]]}},{"type":"Feature","properties":{"c":"11982","o":"","e":""},"geometry":{"type":"Polygon","coordinates":[[[-66.825,46.39168],[-66.80625,46.39168],[-66.80625,46.37501],[-66.825,46.37501],[-66.825,46.37918],[-66.825,46.39168]],[[-66.81875,46.37918],[-66.8125,46.37918],[-66.8125,46.38751],[-66.81875,46.38751],[-66.81875,46.37918]]]}},{"type":"Feature","properties":{"c":"11983","o":"","e":""},"geometry":{"type":"Polygon","coordinates":[[[-66.7,46.41668],[-66.69375,46.41668],[-66.69375,46.41251],[-66.68125,46.41251],[-66.68125,46.40834],[-66.7,46.40834],[-66.7,46.41251],[-66.7,46.41668]]]}},{"type":"Feature","properties":{"c":"11984","o":"","e":""},"geometry":{"type":"Polygon","coordinates":[[[-66.8875,46.27501],[-66.88125,46.27501],[-66.88125,46.27084],[-66.86875,46.27084],[-66.86875,46.26251],[-66.8875,46.26251],[-66.8875,46.26668],[-66.8875,46.27501]]]}},{"type":"Feature","properties":{"c":"12075","o":"","e":""},"geometry":{"type":"MultiPolygon","coordinates":[[[[-66.8625,46.28334],[-66.8625,46.28751],[-66.85,46.28751],[-66.85,46.28334],[-66.81875,46.28334],[-66.81875,46.27918],[-66.80625,46.27918],[-66.80625,46.27501],[-66.79375,46.27501],[-66.79375,46.27084],[-66.78125,46.27084],[-66.78125,46.26668],[-66.76875,46.26668],[-66.76875,46.25418],[-66.775,46.25418],[-66.775,46.25834],[-66.7875,46.25834],[-66.7875,46.26251],[-66.8,46.26251],[-66.8,46.26668],[-66.8125,46.26668],[-66.8125,46.27084],[-66.8375,46.27084],[-66.8375,46.26251],[-66.85,46.26251],[-66.85,46.26668],[-66.86875,46.26668],[-66.86875,46.27084],[-66.86875,46.28334],[-66.8625,46.28334]]],[[[-66.88125,46.27501],[-66.9,46.27501],[-66.9,46.27918],[-66.90625,46.27918],[-66.90625,46.28334],[-66.9,46.28334],[-66.9,46.28751],[-66.8875,46.28751],[-66.8875,46.28334],[-66.88125,46.28334],[-66.88125,46.27501]]],[[[-66.88125,46.28334],[-66.88125,46.28751],[-66.86875,46.28751],[-66.86875,46.28334],[-66.88125,46.28334]]]]}},{"type":"Feature","properties":{"c":"12083","o":"","e":""},"geometry":{"type":"Polygon","coordinates":[[[-66.99375,46.17501],[-66.96875,46.17501],[-66.96875,46.17084],[-66.95,46.17084],[-66.95,46.16251],[-66.94375,46.16251],[-66.94375,46.15418],[-66.95,46.15418],[-66.95,46.15001],[-66.95625,46.15001],[-66.95625,46.14584],[-66.96875,46.14584],[-66.96875,46.15418],[-66.98125,46.15418],[-66.98125,46.16251],[-66.99375,46.16251],[-66.99375,46.16668],[-66.99375,46.17501]]]}},{"type":"Feature","properties":{"c":"12136","o":"","e":""},"geometry":{"type":"Polygon","coordinates":[[[-66.875,46.05418],[-66.875,46.05001],[-66.88125,46.05001],[-66.88125,46.05418],[-66.875,46.05418]]]}},{"type":"Feature","properties":{"c":"12279","o":"","e":""},"geometry":{"type":"Polygon","coordinates":[[[-66.875,46.46668],[-66.875,46.47501],[-66.85625,46.47501],[-66.85625,46.48334],[-66.84375,46.48334],[-66.84375,46.48751],[-66.8375,46.48751],[-66.8375,46.50001],[-66.83125,46.50001],[-66.83125,46.50418],[-66.825,46.50418],[-66.825,46.52084],[-66.8,46.52084],[-66.8,46.51668],[-66.79375,46.51668],[-66.79375,46.51251],[-66.7875,46.51251],[-66.7875,46.50834],[-66.7625,46.50834],[-66.7625,46.50001],[-66.75625,46.50001],[-66.75625,46.45834],[-66.775,46.45834],[-66.775,46.45001],[-66.8,46.45001],[-66.8,46.45418],[-66.80625,46.45418],[-66.80625,46.45834],[-66.8125,46.45834],[-66.8125,46.46251],[-66.88125,46.46251],[-66.88125,46.46668],[-66.875,46.46668]]]}},{"type":"Feature","properties":{"c":"12298","o":"","e":""},"geometry":{"type":"Polygon","coordinates":[[[-66.8,46.41251],[-66.8,46.40834],[-66.80625,46.40834],[-66.80625,46.41251],[-66.8,46.41251]]]}},{"type":"Feature","properties":{"c":"12299","o":"","e":""},"geometry":{"type":"Polygon","coordinates":[[[-66.825,46.41668],[-66.8,46.41668],[-66.8,46.41251],[-66.80625,46.41251],[-66.80625,46.40834],[-66.8,46.40834],[-66.8,46.40001],[-66.825,46.40001],[-66.825,46.40418],[-66.825,46.41668]]]}},{"type":"Feature","properties":{"c":"12300","o":"","e":""},"geometry":{"type":"Polygon","coordinates":[[[-66.9,46.44168],[-66.88125,46.44168],[-66.88125,46.42918],[-66.9,46.42918],[-66.9,46.43334],[-66.9,46.44168]]]}},{"type":"Feature","properties":{"c":"12301","o":"","e":""},"geometry":{"type":"Polygon","coordinates":[[[-66.875,46.46251],[-66.8625,46.46251],[-66.8625,46.45418],[-66.875,46.45418],[-66.875,46.45834],[-66.875,46.46251]]]}},{"type":"Feature","properties":{"c":"12308","o":"","e":""},"geometry":{"type":"Polygon","coordinates":[[[-66.875,46.44584],[-66.875,46.44168],[-66.88125,46.44168],[-66.88125,46.44584],[-66.875,46.44584]]]}},{"type":"Feature","properties":{"c":"12309","o":"","e":""},"geometry":{"type":"Polygon","coordinates":[[[-66.88125,46.44168],[-66.875,46.44168],[-66.875,46.45418],[-66.8625,46.45418],[-66.8625,46.46251],[-66.85,46.46251],[-66.85,46.44168],[-66.85625,46.44168],[-66.85625,46.43334],[-66.86875,46.43334],[-66.86875,46.42918],[-66.875,46.42918],[-66.88125,46.42918],[-66.88125,46.43334],[-66.88125,46.44168]]]}},{"type":"Feature","properties":{"c":"12310","o":"","e":""},"geometry":{"type":"Polygon","coordinates":[[[-66.9,46.46251],[-66.875,46.46251],[-66.875,46.44584],[-66.88125,46.44584],[-66.88125,46.44168],[-66.9,46.44168],[-66.9,46.44584],[-66.9,46.46251]]]}},{"type":"Feature","properties":{"c":"12311","o":"","e":""},"geometry":{"type":"Polygon","coordinates":[[[-66.76875,46.42084],[-66.7,46.42084],[-66.7,46.40001],[-66.76875,46.40001],[-66.76875,46.40418],[-66.76875,46.42084]]]}},{"type":"Feature","properties":{"c":"12312","o":"","e":""},"geometry":{"type":"Polygon","coordinates":[[[-66.825,46.40001],[-66.75625,46.40001],[-66.75625,46.38334],[-66.775,46.38334],[-66.775,46.37918],[-66.80625,46.37918],[-66.80625,46.39168],[-66.825,46.39168],[-66.825,46.39584],[-66.825,46.40001]]]}},{"type":"Feature","properties":{"c":"12313","o":"","e":""},"geometry":{"type":"Polygon","coordinates":[[[-66.76875,46.26668],[-66.7625,46.26668],[-66.7625,46.26251],[-66.75625,46.26251],[-66.75625,46.25418],[-66.76875,46.25418],[-66.76875,46.25834],[-66.76875,46.26668]]]}},{"type":"Feature","properties":{"c":"12314","o":"","e":""},"geometry":{"type":"Polygon","coordinates":[[[-66.89375,46.27501],[-66.8875,46.27501],[-66.8875,46.26251],[-66.86875,46.26251],[-66.86875,46.26668],[-66.85,46.26668],[-66.85,46.26251],[-66.8625,46.26251],[-66.8625,46.25418],[-66.89375,46.25418],[-66.89375,46.25834],[-66.89375,46.27501]]]}},{"type":"Feature","properties":{"c":"12319","o":"","e":""},"geometry":{"type":"Polygon","coordinates":[[[-66.98125,46.06668],[-66.96875,46.06668],[-66.96875,46.06251],[-66.9625,46.06251],[-66.9625,46.05834],[-66.98125,46.05834],[-66.98125,46.06251],[-66.98125,46.06668]]]}},{"type":"Feature","properties":{"c":"12320","o":"","e":""},"geometry":{"type":"Polygon","coordinates":[[[-66.975,46.05834],[-66.95,46.05834],[-66.95,46.05001],[-66.975,46.05001],[-66.975,46.05418],[-66.975,46.05834]]]}},{"type":"Feature","properties":{"c":"12657","o":"","e":""},"geometry":{"type":"Polygon","coordinates":[[[-66.9625,46.10001],[-66.9625,46.11251],[-66.95,46.11251],[-66.95,46.11668],[-66.94375,46.11668],[-66.94375,46.12084],[-66.93125,46.12084],[-66.93125,46.11251],[-66.9375,46.11251],[-66.9375,46.10418],[-66.94375,46.10418],[-66.94375,46.09584],[-66.96875,46.09584],[-66.96875,46.10001],[-66.9625,46.10001]]]}},{"type":"Feature","properties":{"c":"12658","o":"","e":""},"geometry":{"type":"Polygon","coordinates":[[[-66.54375,46.06668],[-66.525,46.06668],[-66.525,46.05418],[-66.53125,46.05418],[-66.53125,46.04168],[-66.525,46.04168],[-66.525,46.03334],[-66.5375,46.03334],[-66.5375,46.05001],[-66.54375,46.05001],[-66.54375,46.05418],[-66.54375,46.06668]]]}}]}