{"type":"FeatureCollection","features":[{"type":"Feature","properties":{"c":"CDC-2827363","o":"BOIVIN EXPLORATIONS LTD 100%","e":""},"geometry":{"type":"Polygon","coordinates":[[[-67.36667,48.8],[-67.36667,48.79167],[-67.375,48.79167],[-67.375,48.8],[-67.36667,48.8]]]}},{"type":"Feature","properties":{"c":"CDC-2827364","o":"BOIVIN EXPLORATIONS LTD 100%","e":""},"geometry":{"type":"Polygon","coordinates":[[[-67.35833,48.8],[-67.35833,48.79167],[-67.36667,48.79167],[-67.36667,48.8],[-67.35833,48.8]]]}},{"type":"Feature","properties":{"c":"CDC-2842522","o":"Black Tusk Resources inc. 100%","e":""},"geometry":{"type":"Polygon","coordinates":[[[-67.09167,48.65833],[-67.09167,48.65],[-67.1,48.65],[-67.1,48.65833],[-67.09167,48.65833]]]}},{"type":"Feature","properties":{"c":"CDC-2842521","o":"Black Tusk Resources inc. 100%","e":""},"geometry":{"type":"Polygon","coordinates":[[[-67.09167,48.65],[-67.09167,48.64167],[-67.1,48.64167],[-67.1,48.65],[-67.09167,48.65]]]}},{"type":"Feature","properties":{"c":"CDC-2842518","o":"Black Tusk Resources inc. 100%","e":""},"geometry":{"type":"Polygon","coordinates":[[[-67.09167,48.64167],[-67.09167,48.63333],[-67.1,48.63333],[-67.1,48.64167],[-67.09167,48.64167]]]}},{"type":"Feature","properties":{"c":"CDC-2842523","o":"Black Tusk Resources inc. 100%","e":""},"geometry":{"type":"Polygon","coordinates":[[[-67.08333,48.65833],[-67.08333,48.65],[-67.09167,48.65],[-67.09167,48.65833],[-67.08333,48.65833]]]}},{"type":"Feature","properties":{"c":"CDC-2842658","o":"Black Tusk Resources inc. 100%","e":""},"geometry":{"type":"Polygon","coordinates":[[[-67.08333,48.65],[-67.08333,48.64167],[-67.09167,48.64167],[-67.09167,48.65],[-67.08333,48.65]]]}},{"type":"Feature","properties":{"c":"CDC-2842524","o":"Black Tusk Resources inc. 100%","e":""},"geometry":{"type":"Polygon","coordinates":[[[-67.075,48.65833],[-67.075,48.65],[-67.08333,48.65],[-67.08333,48.65833],[-67.075,48.65833]]]}},{"type":"Feature","properties":{"c":"CDC-2842659","o":"Black Tusk Resources inc. 100%","e":""},"geometry":{"type":"Polygon","coordinates":[[[-67.075,48.65],[-67.075,48.64167],[-67.08333,48.64167],[-67.08333,48.65],[-67.075,48.65]]]}},{"type":"Feature","properties":{"c":"CDC-2842663","o":"Black Tusk Resources inc. 100%","e":""},"geometry":{"type":"Polygon","coordinates":[[[-67.06667,48.66667],[-67.06667,48.65833],[-67.075,48.65833],[-67.075,48.66667],[-67.06667,48.66667]]]}},{"type":"Feature","properties":{"c":"CDC-2842661","o":"Black Tusk Resources inc. 100%","e":""},"geometry":{"type":"Polygon","coordinates":[[[-67.06667,48.65833],[-67.06667,48.65],[-67.075,48.65],[-67.075,48.65833],[-67.06667,48.65833]]]}},{"type":"Feature","properties":{"c":"CDC-2842660","o":"Black Tusk Resources inc. 100%","e":""},"geometry":{"type":"Polygon","coordinates":[[[-67.06667,48.65],[-67.06667,48.64167],[-67.075,48.64167],[-67.075,48.65],[-67.06667,48.65]]]}},{"type":"Feature","properties":{"c":"CDC-2842662","o":"Black Tusk Resources inc. 100%","e":""},"geometry":{"type":"Polygon","coordinates":[[[-67.05833,48.65833],[-67.05833,48.65],[-67.06667,48.65],[-67.06667,48.65833],[-67.05833,48.65833]]]}},{"type":"Feature","properties":{"c":"CDC-2842667","o":"Black Tusk Resources inc. 100%","e":""},"geometry":{"type":"Polygon","coordinates":[[[-67.03333,48.675],[-67.03333,48.66667],[-67.04167,48.66667],[-67.04167,48.675],[-67.03333,48.675]]]}},{"type":"Feature","properties":{"c":"CDC-2842664","o":"Black Tusk Resources inc. 100%","e":""},"geometry":{"type":"Polygon","coordinates":[[[-67.03333,48.66667],[-67.03333,48.65833],[-67.04167,48.65833],[-67.04167,48.66667],[-67.03333,48.66667]]]}},{"type":"Feature","properties":{"c":"CDC-2842668","o":"Black Tusk Resources inc. 100%","e":""},"geometry":{"type":"Polygon","coordinates":[[[-67.025,48.675],[-67.025,48.66667],[-67.03333,48.66667],[-67.03333,48.675],[-67.025,48.675]]]}},{"type":"Feature","properties":{"c":"CDC-2842665","o":"Black Tusk Resources inc. 100%","e":""},"geometry":{"type":"Polygon","coordinates":[[[-67.025,48.66667],[-67.025,48.65833],[-67.03333,48.65833],[-67.03333,48.66667],[-67.025,48.66667]]]}},{"type":"Feature","properties":{"c":"CDC-2842669","o":"Black Tusk Resources inc. 100%","e":""},"geometry":{"type":"Polygon","coordinates":[[[-67.01667,48.675],[-67.01667,48.66667],[-67.025,48.66667],[-67.025,48.675],[-67.01667,48.675]]]}},{"type":"Feature","properties":{"c":"CDC-2842666","o":"Black Tusk Resources inc. 100%","e":""},"geometry":{"type":"Polygon","coordinates":[[[-67.01667,48.66667],[-67.01667,48.65833],[-67.025,48.65833],[-67.025,48.66667],[-67.01667,48.66667]]]}},{"type":"Feature","properties":{"c":"CDC-2842672","o":"Black Tusk Resources inc. 100%","e":""},"geometry":{"type":"Polygon","coordinates":[[[-67.00833,48.68333],[-67.00833,48.675],[-67.01667,48.675],[-67.01667,48.68333],[-67.00833,48.68333]]]}},{"type":"Feature","properties":{"c":"CDC-2842670","o":"Black Tusk Resources inc. 100%","e":""},"geometry":{"type":"Polygon","coordinates":[[[-67.00833,48.675],[-67.00833,48.66667],[-67.01667,48.66667],[-67.01667,48.675],[-67.00833,48.675]]]}},{"type":"Feature","properties":{"c":"CDC-2842673","o":"Black Tusk Resources inc. 100%","e":""},"geometry":{"type":"Polygon","coordinates":[[[-67.0,48.68333],[-67.0,48.675],[-67.00833,48.675],[-67.00833,48.68333],[-67.0,48.68333]]]}},{"type":"Feature","properties":{"c":"CDC-2842671","o":"Black Tusk Resources inc. 100%","e":""},"geometry":{"type":"Polygon","coordinates":[[[-67.0,48.675],[-67.0,48.66667],[-67.00833,48.66667],[-67.00833,48.675],[-67.0,48.675]]]}},{"type":"Feature","properties":{"c":"CDC-2842488","o":"Black Tusk Resources inc. 100%","e":""},"geometry":{"type":"Polygon","coordinates":[[[-67.175,48.625],[-67.175,48.61667],[-67.18333,48.61667],[-67.18333,48.625],[-67.175,48.625]]]}},{"type":"Feature","properties":{"c":"CDC-2842509","o":"Black Tusk Resources inc. 100%","e":""},"geometry":{"type":"Polygon","coordinates":[[[-67.16667,48.64167],[-67.16667,48.63333],[-67.175,48.63333],[-67.175,48.64167],[-67.16667,48.64167]]]}},{"type":"Feature","properties":{"c":"CDC-2842499","o":"Black Tusk Resources inc. 100%","e":""},"geometry":{"type":"Polygon","coordinates":[[[-67.16667,48.625],[-67.175,48.625],[-67.175,48.63333],[-67.16667,48.63333],[-67.16667,48.625]]]}},{"type":"Feature","properties":{"c":"CDC-2842489","o":"Black Tusk Resources inc. 100%","e":""},"geometry":{"type":"Polygon","coordinates":[[[-67.16667,48.625],[-67.16667,48.61667],[-67.175,48.61667],[-67.175,48.625],[-67.16667,48.625]]]}},{"type":"Feature","properties":{"c":"CDC-2842510","o":"Black Tusk Resources inc. 100%","e":""},"geometry":{"type":"Polygon","coordinates":[[[-67.15833,48.64167],[-67.15833,48.63333],[-67.16667,48.63333],[-67.16667,48.64167],[-67.15833,48.64167]]]}},{"type":"Feature","properties":{"c":"CDC-2842500","o":"Black Tusk Resources inc. 100%","e":""},"geometry":{"type":"Polygon","coordinates":[[[-67.15833,48.63333],[-67.15833,48.625],[-67.16667,48.625],[-67.16667,48.63333],[-67.15833,48.63333]]]}},{"type":"Feature","properties":{"c":"CDC-2842490","o":"Black Tusk Resources inc. 100%","e":""},"geometry":{"type":"Polygon","coordinates":[[[-67.15833,48.625],[-67.15833,48.61667],[-67.16667,48.61667],[-67.16667,48.625],[-67.15833,48.625]]]}},{"type":"Feature","properties":{"c":"CDC-2842511","o":"Black Tusk Resources inc. 100%","e":""},"geometry":{"type":"Polygon","coordinates":[[[-67.15,48.64167],[-67.15,48.63333],[-67.15833,48.63333],[-67.15833,48.64167],[-67.15,48.64167]]]}},{"type":"Feature","properties":{"c":"CDC-2842501","o":"Black Tusk Resources inc. 100%","e":""},"geometry":{"type":"Polygon","coordinates":[[[-67.15,48.625],[-67.15833,48.625],[-67.15833,48.63333],[-67.15,48.63333],[-67.15,48.625]]]}},{"type":"Feature","properties":{"c":"CDC-2842491","o":"Black Tusk Resources inc. 100%","e":""},"geometry":{"type":"Polygon","coordinates":[[[-67.15,48.625],[-67.15,48.61667],[-67.15833,48.61667],[-67.15833,48.625],[-67.15,48.625]]]}},{"type":"Feature","properties":{"c":"CDC-2842512","o":"Black Tusk Resources inc. 100%","e":""},"geometry":{"type":"Polygon","coordinates":[[[-67.14167,48.64167],[-67.14167,48.63333],[-67.15,48.63333],[-67.15,48.64167],[-67.14167,48.64167]]]}},{"type":"Feature","properties":{"c":"CDC-2842502","o":"Black Tusk Resources inc. 100%","e":""},"geometry":{"type":"Polygon","coordinates":[[[-67.14167,48.63333],[-67.14167,48.625],[-67.15,48.625],[-67.15,48.63333],[-67.14167,48.63333]]]}},{"type":"Feature","properties":{"c":"CDC-2842492","o":"Black Tusk Resources inc. 100%","e":""},"geometry":{"type":"Polygon","coordinates":[[[-67.14167,48.625],[-67.14167,48.61667],[-67.15,48.61667],[-67.15,48.625],[-67.14167,48.625]]]}},{"type":"Feature","properties":{"c":"CDC-2842513","o":"Black Tusk Resources inc. 100%","e":""},"geometry":{"type":"Polygon","coordinates":[[[-67.13333,48.64167],[-67.13333,48.63333],[-67.14167,48.63333],[-67.14167,48.64167],[-67.13333,48.64167]]]}},{"type":"Feature","properties":{"c":"CDC-2842503","o":"Black Tusk Resources inc. 100%","e":""},"geometry":{"type":"Polygon","coordinates":[[[-67.13333,48.63333],[-67.13333,48.625],[-67.14167,48.625],[-67.14167,48.63333],[-67.13333,48.63333]]]}},{"type":"Feature","properties":{"c":"CDC-2842493","o":"Black Tusk Resources inc. 100%","e":""},"geometry":{"type":"Polygon","coordinates":[[[-67.13333,48.625],[-67.13333,48.61667],[-67.14167,48.61667],[-67.14167,48.625],[-67.13333,48.625]]]}},{"type":"Feature","properties":{"c":"CDC-2842514","o":"Black Tusk Resources inc. 100%","e":""},"geometry":{"type":"Polygon","coordinates":[[[-67.125,48.64167],[-67.125,48.63333],[-67.13333,48.63333],[-67.13333,48.64167],[-67.125,48.64167]]]}},{"type":"Feature","properties":{"c":"CDC-2842504","o":"Black Tusk Resources inc. 100%","e":""},"geometry":{"type":"Polygon","coordinates":[[[-67.125,48.63333],[-67.125,48.625],[-67.13333,48.625],[-67.13333,48.63333],[-67.125,48.63333]]]}},{"type":"Feature","properties":{"c":"CDC-2842494","o":"Black Tusk Resources inc. 100%","e":""},"geometry":{"type":"Polygon","coordinates":[[[-67.125,48.625],[-67.125,48.61667],[-67.13333,48.61667],[-67.13333,48.625],[-67.125,48.625]]]}},{"type":"Feature","properties":{"c":"CDC-2842515","o":"Black Tusk Resources inc. 100%","e":""},"geometry":{"type":"Polygon","coordinates":[[[-67.11667,48.64167],[-67.11667,48.63333],[-67.125,48.63333],[-67.125,48.64167],[-67.11667,48.64167]]]}},{"type":"Feature","properties":{"c":"CDC-2842505","o":"Black Tusk Resources inc. 100%","e":""},"geometry":{"type":"Polygon","coordinates":[[[-67.11667,48.63333],[-67.11667,48.625],[-67.125,48.625],[-67.125,48.63333],[-67.11667,48.63333]]]}},{"type":"Feature","properties":{"c":"CDC-2842495","o":"Black Tusk Resources inc. 100%","e":""},"geometry":{"type":"Polygon","coordinates":[[[-67.11667,48.625],[-67.11667,48.61667],[-67.125,48.61667],[-67.125,48.625],[-67.11667,48.625]]]}},{"type":"Feature","properties":{"c":"CDC-2842519","o":"Black Tusk Resources inc. 100%","e":""},"geometry":{"type":"Polygon","coordinates":[[[-67.10833,48.65],[-67.10833,48.64167],[-67.11667,48.64167],[-67.11667,48.65],[-67.10833,48.65]]]}},{"type":"Feature","properties":{"c":"CDC-2842516","o":"Black Tusk Resources inc. 100%","e":""},"geometry":{"type":"Polygon","coordinates":[[[-67.10833,48.64167],[-67.10833,48.63333],[-67.11667,48.63333],[-67.11667,48.64167],[-67.10833,48.64167]]]}},{"type":"Feature","properties":{"c":"CDC-2842506","o":"Black Tusk Resources inc. 100%","e":""},"geometry":{"type":"Polygon","coordinates":[[[-67.10833,48.63333],[-67.10833,48.625],[-67.11667,48.625],[-67.11667,48.63333],[-67.10833,48.63333]]]}},{"type":"Feature","properties":{"c":"CDC-2842520","o":"Black Tusk Resources inc. 100%","e":""},"geometry":{"type":"Polygon","coordinates":[[[-67.1,48.65],[-67.1,48.64167],[-67.10833,48.64167],[-67.10833,48.65],[-67.1,48.65]]]}},{"type":"Feature","properties":{"c":"CDC-2842517","o":"Black Tusk Resources inc. 100%","e":""},"geometry":{"type":"Polygon","coordinates":[[[-67.1,48.64167],[-67.1,48.63333],[-67.10833,48.63333],[-67.10833,48.64167],[-67.1,48.64167]]]}},{"type":"Feature","properties":{"c":"CDC-2884971","o":"Critical Mineral Properties 100%","e":""},"geometry":{"type":"Polygon","coordinates":[[[-67.25833,48.63333],[-67.25833,48.625],[-67.26667,48.625],[-67.26667,48.63333],[-67.25833,48.63333]]]}},{"type":"Feature","properties":{"c":"CDC-2884966","o":"Critical Mineral Properties 100%","e":""},"geometry":{"type":"Polygon","coordinates":[[[-67.25833,48.625],[-67.25833,48.61667],[-67.26667,48.61667],[-67.26667,48.625],[-67.25833,48.625]]]}},{"type":"Feature","properties":{"c":"CDC-2884972","o":"Critical Mineral Properties 100%","e":""},"geometry":{"type":"Polygon","coordinates":[[[-67.25,48.63333],[-67.25,48.625],[-67.25833,48.625],[-67.25833,48.63333],[-67.25,48.63333]]]}},{"type":"Feature","properties":{"c":"CDC-2884967","o":"Critical Mineral Properties 100%","e":""},"geometry":{"type":"Polygon","coordinates":[[[-67.25,48.625],[-67.25,48.61667],[-67.25833,48.61667],[-67.25833,48.625],[-67.25,48.625]]]}},{"type":"Feature","properties":{"c":"CDC-2884973","o":"Critical Mineral Properties 100%","e":""},"geometry":{"type":"Polygon","coordinates":[[[-67.24167,48.63333],[-67.24167,48.625],[-67.25,48.625],[-67.25,48.63333],[-67.24167,48.63333]]]}},{"type":"Feature","properties":{"c":"CDC-2884968","o":"Critical Mineral Properties 100%","e":""},"geometry":{"type":"Polygon","coordinates":[[[-67.24167,48.625],[-67.24167,48.61667],[-67.25,48.61667],[-67.25,48.625],[-67.24167,48.625]]]}},{"type":"Feature","properties":{"c":"CDC-2884974","o":"Critical Mineral Properties 100%","e":""},"geometry":{"type":"Polygon","coordinates":[[[-67.23333,48.63333],[-67.23333,48.625],[-67.24167,48.625],[-67.24167,48.63333],[-67.23333,48.63333]]]}},{"type":"Feature","properties":{"c":"CDC-2808916","o":"Pierre Ross 100%","e":""},"geometry":{"type":"Polygon","coordinates":[[[-67.20833,48.66667],[-67.20833,48.65833],[-67.21667,48.65833],[-67.21667,48.66667],[-67.20833,48.66667]]]}},{"type":"Feature","properties":{"c":"CDC-2808913","o":"Pierre Ross 100%","e":""},"geometry":{"type":"Polygon","coordinates":[[[-67.20833,48.65833],[-67.20833,48.65],[-67.21667,48.65],[-67.21667,48.65833],[-67.20833,48.65833]]]}},{"type":"Feature","properties":{"c":"CDC-2844536","o":"Silice Charlevoix inc. 100%","e":""},"geometry":{"type":"Polygon","coordinates":[[[-67.20833,48.625],[-67.20833,48.61667],[-67.21667,48.61667],[-67.21667,48.625],[-67.20833,48.625]]]}},{"type":"Feature","properties":{"c":"CDC-2808917","o":"Pierre Ross 100%","e":""},"geometry":{"type":"Polygon","coordinates":[[[-67.2,48.66667],[-67.2,48.65833],[-67.20833,48.65833],[-67.20833,48.66667],[-67.2,48.66667]]]}},{"type":"Feature","properties":{"c":"CDC-2808914","o":"Pierre Ross 100%","e":""},"geometry":{"type":"Polygon","coordinates":[[[-67.2,48.65833],[-67.2,48.65],[-67.20833,48.65],[-67.20833,48.65833],[-67.2,48.65833]]]}},{"type":"Feature","properties":{"c":"CDC-2808911","o":"Pierre Ross 100%","e":""},"geometry":{"type":"Polygon","coordinates":[[[-67.2,48.65],[-67.2,48.64167],[-67.20833,48.64167],[-67.20833,48.65],[-67.2,48.65]]]}},{"type":"Feature","properties":{"c":"CDC-2842657","o":"Black Tusk Resources inc. 100%","e":""},"geometry":{"type":"Polygon","coordinates":[[[-67.2,48.63333],[-67.2,48.625],[-67.20833,48.625],[-67.20833,48.63333],[-67.2,48.63333]]]}},{"type":"Feature","properties":{"c":"CDC-2844537","o":"Silice Charlevoix inc. 100%","e":""},"geometry":{"type":"Polygon","coordinates":[[[-67.2,48.625],[-67.2,48.61667],[-67.20833,48.61667],[-67.20833,48.625],[-67.2,48.625]]]}},{"type":"Feature","properties":{"c":"CDC-2808918","o":"Pierre Ross 100%","e":""},"geometry":{"type":"Polygon","coordinates":[[[-67.19167,48.66667],[-67.19167,48.65833],[-67.2,48.65833],[-67.2,48.66667],[-67.19167,48.66667]]]}},{"type":"Feature","properties":{"c":"CDC-2808915","o":"Pierre Ross 100%","e":""},"geometry":{"type":"Polygon","coordinates":[[[-67.19167,48.65833],[-67.19167,48.65],[-67.2,48.65],[-67.2,48.65833],[-67.19167,48.65833]]]}},{"type":"Feature","properties":{"c":"CDC-2808912","o":"Pierre Ross 100%","e":""},"geometry":{"type":"Polygon","coordinates":[[[-67.19167,48.65],[-67.19167,48.64167],[-67.2,48.64167],[-67.2,48.65],[-67.19167,48.65]]]}},{"type":"Feature","properties":{"c":"CDC-2842496","o":"Black Tusk Resources inc. 100%","e":""},"geometry":{"type":"Polygon","coordinates":[[[-67.19167,48.63333],[-67.19167,48.625],[-67.2,48.625],[-67.2,48.63333],[-67.19167,48.63333]]]}},{"type":"Feature","properties":{"c":"CDC-2842486","o":"Black Tusk Resources inc. 100%","e":""},"geometry":{"type":"Polygon","coordinates":[[[-67.19167,48.625],[-67.19167,48.61667],[-67.2,48.61667],[-67.2,48.625],[-67.19167,48.625]]]}},{"type":"Feature","properties":{"c":"CDC-2844535","o":"Silice Charlevoix inc. 100%","e":""},"geometry":{"type":"Polygon","coordinates":[[[-67.19167,48.61667],[-67.19167,48.60833],[-67.2,48.60833],[-67.2,48.61667],[-67.19167,48.61667]]]}},{"type":"Feature","properties":{"c":"CDC-2808919","o":"Pierre Ross 100%","e":""},"geometry":{"type":"Polygon","coordinates":[[[-67.18333,48.675],[-67.18333,48.66667],[-67.19167,48.66667],[-67.19167,48.675],[-67.18333,48.675]]]}},{"type":"Feature","properties":{"c":"CDC-2842507","o":"Black Tusk Resources inc. 100%","e":""},"geometry":{"type":"Polygon","coordinates":[[[-67.18333,48.64167],[-67.18333,48.63333],[-67.19167,48.63333],[-67.19167,48.64167],[-67.18333,48.64167]]]}},{"type":"Feature","properties":{"c":"CDC-2842497","o":"Black Tusk Resources inc. 100%","e":""},"geometry":{"type":"Polygon","coordinates":[[[-67.18333,48.63333],[-67.18333,48.625],[-67.19167,48.625],[-67.19167,48.63333],[-67.18333,48.63333]]]}},{"type":"Feature","properties":{"c":"CDC-2842487","o":"Black Tusk Resources inc. 100%","e":""},"geometry":{"type":"Polygon","coordinates":[[[-67.18333,48.625],[-67.18333,48.61667],[-67.19167,48.61667],[-67.19167,48.625],[-67.18333,48.625]]]}},{"type":"Feature","properties":{"c":"CDC-2842508","o":"Black Tusk Resources inc. 100%","e":""},"geometry":{"type":"Polygon","coordinates":[[[-67.175,48.64167],[-67.175,48.63333],[-67.18333,48.63333],[-67.18333,48.64167],[-67.175,48.64167]]]}},{"type":"Feature","properties":{"c":"CDC-2842498","o":"Black Tusk Resources inc. 100%","e":""},"geometry":{"type":"Polygon","coordinates":[[[-67.175,48.63333],[-67.175,48.625],[-67.18333,48.625],[-67.18333,48.63333],[-67.175,48.63333]]]}},{"type":"Feature","properties":{"c":"CDC-2572663","o":"Placements Stephane Therrien inc. 100%","e":""},"geometry":{"type":"Polygon","coordinates":[[[-67.5,48.65833],[-67.5,48.65],[-67.50833,48.65],[-67.50833,48.65833],[-67.5,48.65833]]]}},{"type":"Feature","properties":{"c":"CDC-2577054","o":"Placements Stephane Therrien inc. 100%","e":""},"geometry":{"type":"Polygon","coordinates":[[[-67.5,48.65],[-67.5,48.64167],[-67.50833,48.64167],[-67.50833,48.65],[-67.5,48.65]]]}},{"type":"Feature","properties":{"c":"CDC-2577051","o":"Placements Stephane Therrien inc. 100%","e":""},"geometry":{"type":"Polygon","coordinates":[[[-67.49167,48.65833],[-67.49167,48.65],[-67.5,48.65],[-67.5,48.65833],[-67.49167,48.65833]]]}},{"type":"Feature","properties":{"c":"CDC-2577049","o":"Placements Stephane Therrien inc. 100%","e":""},"geometry":{"type":"Polygon","coordinates":[[[-67.49167,48.65],[-67.49167,48.64167],[-67.5,48.64167],[-67.5,48.65],[-67.49167,48.65]]]}},{"type":"Feature","properties":{"c":"CDC-2577052","o":"Placements Stephane Therrien inc. 100%","e":""},"geometry":{"type":"Polygon","coordinates":[[[-67.48333,48.65833],[-67.48333,48.65],[-67.49167,48.65],[-67.49167,48.65833],[-67.48333,48.65833]]]}},{"type":"Feature","properties":{"c":"CDC-2577050","o":"Placements Stephane Therrien inc. 100%","e":""},"geometry":{"type":"Polygon","coordinates":[[[-67.48333,48.65],[-67.48333,48.64167],[-67.49167,48.64167],[-67.49167,48.65],[-67.48333,48.65]]]}},{"type":"Feature","properties":{"c":"CDC-2577053","o":"Placements Stephane Therrien inc. 100%","e":""},"geometry":{"type":"Polygon","coordinates":[[[-67.475,48.65833],[-67.475,48.65],[-67.48333,48.65],[-67.48333,48.65833],[-67.475,48.65833]]]}},{"type":"Feature","properties":{"c":"CDC-2605299","o":"Placements Stephane Therrien inc. 100%","e":""},"geometry":{"type":"Polygon","coordinates":[[[-67.475,48.65],[-67.475,48.64167],[-67.48333,48.64167],[-67.48333,48.65],[-67.475,48.65]]]}},{"type":"Feature","properties":{"c":"CDC-2605301","o":"Placements Stephane Therrien inc. 100%","e":""},"geometry":{"type":"Polygon","coordinates":[[[-67.46667,48.65833],[-67.46667,48.65],[-67.475,48.65],[-67.475,48.65833],[-67.46667,48.65833]]]}},{"type":"Feature","properties":{"c":"CDC-2605300","o":"Placements Stephane Therrien inc. 100%","e":""},"geometry":{"type":"Polygon","coordinates":[[[-67.46667,48.65],[-67.46667,48.64167],[-67.475,48.64167],[-67.475,48.65],[-67.46667,48.65]]]}},{"type":"Feature","properties":{"c":"BEX-1268","o":"Beton Provincial Ltee 100%","e":""},"geometry":{"type":"Polygon","coordinates":[[[-67.41224,48.5225],[-67.41214,48.52314],[-67.41103,48.52467],[-67.41046,48.525],[-67.40868,48.525],[-67.40832,48.52448],[-67.40866,48.51755],[-67.41018,48.51746],[-67.40942,48.51564],[-67.41028,48.51508],[-67.41691,48.51899],[-67.41224,48.5225]]]}},{"type":"Feature","properties":{"c":"CDC-2387523","o":"Les min\u00e9raux industriels du Qu\u00e9bec inc. 100%","e":""},"geometry":{"type":"Polygon","coordinates":[[[-67.34167,48.63333],[-67.33333,48.63333],[-67.33333,48.625],[-67.34167,48.625],[-67.34167,48.63333]]]}},{"type":"Feature","properties":{"c":"CDC-2387521","o":"Les min\u00e9raux industriels du Qu\u00e9bec inc. 100%","e":""},"geometry":{"type":"Polygon","coordinates":[[[-67.33333,48.625],[-67.33333,48.61667],[-67.34167,48.61667],[-67.34167,48.625],[-67.33333,48.625]]]}},{"type":"Feature","properties":{"c":"BEX-1710","o":"Les min\u00e9raux industriels du Qu\u00e9bec inc. 100%","e":""},"geometry":{"type":"Polygon","coordinates":[[[-67.33127,48.62631],[-67.33391,48.62788],[-67.33049,48.6298],[-67.32951,48.62982],[-67.32743,48.62912],[-67.326,48.62819],[-67.32544,48.62768],[-67.32929,48.62572],[-67.32917,48.62504],[-67.33401,48.6226],[-67.3335,48.62148],[-67.33324,48.6212],[-67.33312,48.62116],[-67.33393,48.62085],[-67.33589,48.62293],[-67.33127,48.62631]]]}},{"type":"Feature","properties":{"c":"CDC-2387524","o":"Les min\u00e9raux industriels du Qu\u00e9bec inc. 100%","e":""},"geometry":{"type":"Polygon","coordinates":[[[-67.325,48.63333],[-67.325,48.625],[-67.33333,48.625],[-67.33333,48.63333],[-67.325,48.63333]]]}},{"type":"Feature","properties":{"c":"CDC-2387522","o":"Les min\u00e9raux industriels du Qu\u00e9bec inc. 100%","e":""},"geometry":{"type":"Polygon","coordinates":[[[-67.33333,48.625],[-67.325,48.625],[-67.325,48.61667],[-67.33333,48.61667],[-67.33333,48.625]]]}},{"type":"Feature","properties":{"c":"CDC-2836081","o":"St\u00e9phanie Marceau Deschesnes 100%","e":""},"geometry":{"type":"Polygon","coordinates":[[[-67.325,48.63333],[-67.31667,48.63333],[-67.31667,48.629],[-67.31714,48.62891],[-67.31667,48.62527],[-67.31667,48.62503],[-67.31667,48.625],[-67.325,48.625],[-67.325,48.63333]]]}},{"type":"Feature","properties":{"c":"CDC-2836082","o":"St\u00e9phanie Marceau Deschesnes 100%","e":""},"geometry":{"type":"Polygon","coordinates":[[[-67.30833,48.64167],[-67.30833,48.63333],[-67.31667,48.63333],[-67.31667,48.64167],[-67.30833,48.64167]]]}},{"type":"Feature","properties":{"c":"CDC-2795133","o":"Patricia Lafontaine 100%","e":""},"geometry":{"type":"Polygon","coordinates":[[[-67.30833,48.625],[-67.31119,48.625],[-67.31138,48.62659],[-67.31137,48.62659],[-67.31427,48.62945],[-67.31667,48.629],[-67.31667,48.63333],[-67.30833,48.63333],[-67.30833,48.625]]]}},{"type":"Feature","properties":{"c":"CDC-2836083","o":"St\u00e9phanie Marceau Deschesnes 100%","e":""},"geometry":{"type":"Polygon","coordinates":[[[-67.3,48.64167],[-67.3,48.63333],[-67.30833,48.63333],[-67.30833,48.64167],[-67.3,48.64167]]]}},{"type":"Feature","properties":{"c":"CDC-2884969","o":"Critical Mineral Properties 100%","e":""},"geometry":{"type":"Polygon","coordinates":[[[-67.275,48.63333],[-67.275,48.625],[-67.28333,48.625],[-67.28333,48.63333],[-67.275,48.63333]]]}},{"type":"Feature","properties":{"c":"CDC-2884964","o":"Critical Mineral Properties 100%","e":""},"geometry":{"type":"Polygon","coordinates":[[[-67.275,48.625],[-67.275,48.61667],[-67.28333,48.61667],[-67.28333,48.625],[-67.275,48.625]]]}},{"type":"Feature","properties":{"c":"CDC-2884970","o":"Critical Mineral Properties 100%","e":""},"geometry":{"type":"Polygon","coordinates":[[[-67.26667,48.63333],[-67.26667,48.625],[-67.275,48.625],[-67.275,48.63333],[-67.26667,48.63333]]]}},{"type":"Feature","properties":{"c":"CDC-2884965","o":"Critical Mineral Properties 100%","e":""},"geometry":{"type":"Polygon","coordinates":[[[-67.26667,48.625],[-67.26667,48.61667],[-67.275,48.61667],[-67.275,48.625],[-67.26667,48.625]]]}}]}