{"type":"FeatureCollection","features":[{"type":"Feature","properties":{"c":"CDC-2818596","o":"Auriginal Mining Corp. 100%","e":""},"geometry":{"type":"Polygon","coordinates":[[[-67.325,51.13333],[-67.325,51.125],[-67.33333,51.125],[-67.33333,51.13333],[-67.325,51.13333]]]}},{"type":"Feature","properties":{"c":"CDC-2818597","o":"Auriginal Mining Corp. 100%","e":""},"geometry":{"type":"Polygon","coordinates":[[[-67.36667,51.14167],[-67.36667,51.13333],[-67.375,51.13333],[-67.375,51.14167],[-67.36667,51.14167]]]}},{"type":"Feature","properties":{"c":"CDC-2818598","o":"Auriginal Mining Corp. 100%","e":""},"geometry":{"type":"Polygon","coordinates":[[[-67.35833,51.14167],[-67.35833,51.13333],[-67.36667,51.13333],[-67.36667,51.14167],[-67.35833,51.14167]]]}},{"type":"Feature","properties":{"c":"CDC-2818599","o":"Auriginal Mining Corp. 100%","e":""},"geometry":{"type":"Polygon","coordinates":[[[-67.35,51.14167],[-67.35,51.13333],[-67.35833,51.13333],[-67.35833,51.14167],[-67.35,51.14167]]]}},{"type":"Feature","properties":{"c":"CDC-2818600","o":"Auriginal Mining Corp. 100%","e":""},"geometry":{"type":"Polygon","coordinates":[[[-67.34167,51.14167],[-67.34167,51.13333],[-67.35,51.13333],[-67.35,51.14167],[-67.34167,51.14167]]]}},{"type":"Feature","properties":{"c":"CDC-2818601","o":"Auriginal Mining Corp. 100%","e":""},"geometry":{"type":"Polygon","coordinates":[[[-67.36667,51.15],[-67.36667,51.14167],[-67.375,51.14167],[-67.375,51.15],[-67.36667,51.15]]]}},{"type":"Feature","properties":{"c":"CDC-2818602","o":"Auriginal Mining Corp. 100%","e":""},"geometry":{"type":"Polygon","coordinates":[[[-67.35833,51.15],[-67.35833,51.14167],[-67.36667,51.14167],[-67.36667,51.15],[-67.35833,51.15]]]}},{"type":"Feature","properties":{"c":"CDC-2818603","o":"Auriginal Mining Corp. 100%","e":""},"geometry":{"type":"Polygon","coordinates":[[[-67.35,51.15],[-67.35,51.14167],[-67.35833,51.14167],[-67.35833,51.15],[-67.35,51.15]]]}},{"type":"Feature","properties":{"c":"CDC-2818588","o":"Auriginal Mining Corp. 100%","e":""},"geometry":{"type":"Polygon","coordinates":[[[-67.35,51.125],[-67.35,51.11667],[-67.35833,51.11667],[-67.35833,51.125],[-67.35,51.125]]]}},{"type":"Feature","properties":{"c":"CDC-2818589","o":"Auriginal Mining Corp. 100%","e":""},"geometry":{"type":"Polygon","coordinates":[[[-67.34167,51.125],[-67.34167,51.11667],[-67.35,51.11667],[-67.35,51.125],[-67.34167,51.125]]]}},{"type":"Feature","properties":{"c":"CDC-2818590","o":"Auriginal Mining Corp. 100%","e":""},"geometry":{"type":"Polygon","coordinates":[[[-67.33333,51.125],[-67.33333,51.11667],[-67.34167,51.11667],[-67.34167,51.125],[-67.33333,51.125]]]}},{"type":"Feature","properties":{"c":"CDC-2818591","o":"Auriginal Mining Corp. 100%","e":""},"geometry":{"type":"Polygon","coordinates":[[[-67.325,51.125],[-67.325,51.11667],[-67.33333,51.11667],[-67.33333,51.125],[-67.325,51.125]]]}},{"type":"Feature","properties":{"c":"CDC-2818592","o":"Auriginal Mining Corp. 100%","e":""},"geometry":{"type":"Polygon","coordinates":[[[-67.35833,51.13333],[-67.35833,51.125],[-67.36667,51.125],[-67.36667,51.13333],[-67.35833,51.13333]]]}},{"type":"Feature","properties":{"c":"CDC-2818593","o":"Auriginal Mining Corp. 100%","e":""},"geometry":{"type":"Polygon","coordinates":[[[-67.35,51.13333],[-67.35,51.125],[-67.35833,51.125],[-67.35833,51.13333],[-67.35,51.13333]]]}},{"type":"Feature","properties":{"c":"CDC-2818594","o":"Auriginal Mining Corp. 100%","e":""},"geometry":{"type":"Polygon","coordinates":[[[-67.34167,51.13333],[-67.34167,51.125],[-67.35,51.125],[-67.35,51.13333],[-67.34167,51.13333]]]}},{"type":"Feature","properties":{"c":"CDC-2818595","o":"Auriginal Mining Corp. 100%","e":""},"geometry":{"type":"Polygon","coordinates":[[[-67.33333,51.13333],[-67.33333,51.125],[-67.34167,51.125],[-67.34167,51.13333],[-67.33333,51.13333]]]}}]}