{"type":"FeatureCollection","features":[{"type":"Feature","properties":{"c":"CDC-2843212","o":"Exploration Midland inc. 50%","e":""},"geometry":{"type":"Polygon","coordinates":[[[-67.625,55.96667],[-67.61667,55.96667],[-67.61667,55.95833],[-67.625,55.95833],[-67.625,55.96667]]]}},{"type":"Feature","properties":{"c":"CDC-2843213","o":"Exploration Midland inc. 50%","e":""},"geometry":{"type":"Polygon","coordinates":[[[-67.61667,55.96667],[-67.60833,55.96667],[-67.60833,55.95833],[-67.61667,55.95833],[-67.61667,55.96667]]]}},{"type":"Feature","properties":{"c":"CDC-2843214","o":"Exploration Midland inc. 50%","e":""},"geometry":{"type":"Polygon","coordinates":[[[-67.60833,55.96667],[-67.6,55.96667],[-67.6,55.95833],[-67.60833,55.95833],[-67.60833,55.96667]]]}},{"type":"Feature","properties":{"c":"CDC-2843215","o":"Exploration Midland inc. 50%","e":""},"geometry":{"type":"Polygon","coordinates":[[[-67.6,55.96667],[-67.59167,55.96667],[-67.59167,55.95833],[-67.6,55.95833],[-67.6,55.96667]]]}},{"type":"Feature","properties":{"c":"CDC-2843216","o":"Exploration Midland inc. 50%","e":""},"geometry":{"type":"Polygon","coordinates":[[[-67.59167,55.96667],[-67.58333,55.96667],[-67.58333,55.95833],[-67.59167,55.95833],[-67.59167,55.96667]]]}},{"type":"Feature","properties":{"c":"CDC-2843217","o":"Exploration Midland inc. 50%","e":""},"geometry":{"type":"Polygon","coordinates":[[[-67.63333,55.975],[-67.625,55.975],[-67.625,55.96667],[-67.63333,55.96667],[-67.63333,55.975]]]}},{"type":"Feature","properties":{"c":"CDC-2843218","o":"Exploration Midland inc. 50%","e":""},"geometry":{"type":"Polygon","coordinates":[[[-67.625,55.975],[-67.61667,55.975],[-67.61667,55.96667],[-67.625,55.96667],[-67.625,55.975]]]}},{"type":"Feature","properties":{"c":"CDC-2843219","o":"Exploration Midland inc. 50%","e":""},"geometry":{"type":"Polygon","coordinates":[[[-67.61667,55.975],[-67.60833,55.975],[-67.60833,55.96667],[-67.61667,55.96667],[-67.61667,55.975]]]}},{"type":"Feature","properties":{"c":"CDC-2843220","o":"Exploration Midland inc. 50%","e":""},"geometry":{"type":"Polygon","coordinates":[[[-67.60833,55.975],[-67.6,55.975],[-67.6,55.96667],[-67.60833,55.96667],[-67.60833,55.975]]]}},{"type":"Feature","properties":{"c":"CDC-2843221","o":"Exploration Midland inc. 50%","e":""},"geometry":{"type":"Polygon","coordinates":[[[-67.6,55.975],[-67.59167,55.975],[-67.59167,55.96667],[-67.6,55.96667],[-67.6,55.975]]]}},{"type":"Feature","properties":{"c":"CDC-2843222","o":"Exploration Midland inc. 50%","e":""},"geometry":{"type":"Polygon","coordinates":[[[-67.64167,55.98333],[-67.63333,55.98333],[-67.63333,55.975],[-67.64167,55.975],[-67.64167,55.98333]]]}},{"type":"Feature","properties":{"c":"CDC-2843223","o":"Exploration Midland inc. 50%","e":""},"geometry":{"type":"Polygon","coordinates":[[[-67.63333,55.98333],[-67.625,55.98333],[-67.625,55.975],[-67.63333,55.975],[-67.63333,55.98333]]]}},{"type":"Feature","properties":{"c":"CDC-2843224","o":"Exploration Midland inc. 50%","e":""},"geometry":{"type":"Polygon","coordinates":[[[-67.625,55.98333],[-67.61667,55.98333],[-67.61667,55.975],[-67.625,55.975],[-67.625,55.98333]]]}},{"type":"Feature","properties":{"c":"CDC-2843225","o":"Exploration Midland inc. 50%","e":""},"geometry":{"type":"Polygon","coordinates":[[[-67.61667,55.98333],[-67.60833,55.98333],[-67.60833,55.975],[-67.61667,55.975],[-67.61667,55.98333]]]}},{"type":"Feature","properties":{"c":"CDC-2843196","o":"Exploration Midland inc. 50%","e":""},"geometry":{"type":"Polygon","coordinates":[[[-67.65,55.95833],[-67.64167,55.95833],[-67.64167,55.95],[-67.65,55.95],[-67.65,55.95833]]]}},{"type":"Feature","properties":{"c":"CDC-2843182","o":"Exploration Midland inc. 50%","e":""},"geometry":{"type":"Polygon","coordinates":[[[-67.65,55.95],[-67.64167,55.95],[-67.64167,55.94167],[-67.65,55.94167],[-67.65,55.95]]]}},{"type":"Feature","properties":{"c":"CDC-2843210","o":"Exploration Midland inc. 50%","e":""},"geometry":{"type":"Polygon","coordinates":[[[-67.64167,55.96667],[-67.63333,55.96667],[-67.63333,55.95833],[-67.64167,55.95833],[-67.64167,55.96667]]]}},{"type":"Feature","properties":{"c":"CDC-2843197","o":"Exploration Midland inc. 50%","e":""},"geometry":{"type":"Polygon","coordinates":[[[-67.64167,55.95833],[-67.63333,55.95833],[-67.63333,55.95],[-67.64167,55.95],[-67.64167,55.95833]]]}},{"type":"Feature","properties":{"c":"CDC-2843183","o":"Exploration Midland inc. 50%","e":""},"geometry":{"type":"Polygon","coordinates":[[[-67.64167,55.95],[-67.63333,55.95],[-67.63333,55.94167],[-67.64167,55.94167],[-67.64167,55.95]]]}},{"type":"Feature","properties":{"c":"CDC-2843170","o":"Exploration Midland inc. 50%","e":""},"geometry":{"type":"Polygon","coordinates":[[[-67.64167,55.94167],[-67.63333,55.94167],[-67.63333,55.93333],[-67.64167,55.93333],[-67.64167,55.94167]]]}},{"type":"Feature","properties":{"c":"CDC-2843211","o":"Exploration Midland inc. 50%","e":""},"geometry":{"type":"Polygon","coordinates":[[[-67.63333,55.96667],[-67.625,55.96667],[-67.625,55.95833],[-67.63333,55.95833],[-67.63333,55.96667]]]}},{"type":"Feature","properties":{"c":"CDC-2843198","o":"Exploration Midland inc. 50%","e":""},"geometry":{"type":"Polygon","coordinates":[[[-67.63333,55.95833],[-67.625,55.95833],[-67.625,55.95],[-67.63333,55.95],[-67.63333,55.95833]]]}},{"type":"Feature","properties":{"c":"CDC-2843184","o":"Exploration Midland inc. 50%","e":""},"geometry":{"type":"Polygon","coordinates":[[[-67.63333,55.95],[-67.625,55.95],[-67.625,55.94167],[-67.63333,55.94167],[-67.63333,55.95]]]}},{"type":"Feature","properties":{"c":"CDC-2843171","o":"Exploration Midland inc. 50%","e":""},"geometry":{"type":"Polygon","coordinates":[[[-67.63333,55.94167],[-67.625,55.94167],[-67.625,55.93333],[-67.63333,55.93333],[-67.63333,55.94167]]]}},{"type":"Feature","properties":{"c":"CDC-2843199","o":"Exploration Midland inc. 50%","e":""},"geometry":{"type":"Polygon","coordinates":[[[-67.625,55.95833],[-67.61667,55.95833],[-67.61667,55.95],[-67.625,55.95],[-67.625,55.95833]]]}},{"type":"Feature","properties":{"c":"CDC-2843185","o":"Exploration Midland inc. 50%","e":""},"geometry":{"type":"Polygon","coordinates":[[[-67.625,55.95],[-67.61667,55.95],[-67.61667,55.94167],[-67.625,55.94167],[-67.625,55.95]]]}},{"type":"Feature","properties":{"c":"CDC-2843172","o":"Exploration Midland inc. 50%","e":""},"geometry":{"type":"Polygon","coordinates":[[[-67.625,55.94167],[-67.61667,55.94167],[-67.61667,55.93333],[-67.625,55.93333],[-67.625,55.94167]]]}},{"type":"Feature","properties":{"c":"CDC-2843200","o":"Exploration Midland inc. 50%","e":""},"geometry":{"type":"Polygon","coordinates":[[[-67.61667,55.95833],[-67.60833,55.95833],[-67.60833,55.95],[-67.61667,55.95],[-67.61667,55.95833]]]}},{"type":"Feature","properties":{"c":"CDC-2843186","o":"Exploration Midland inc. 50%","e":""},"geometry":{"type":"Polygon","coordinates":[[[-67.61667,55.95],[-67.60833,55.95],[-67.60833,55.94167],[-67.61667,55.94167],[-67.61667,55.95]]]}},{"type":"Feature","properties":{"c":"CDC-2843173","o":"Exploration Midland inc. 50%","e":""},"geometry":{"type":"Polygon","coordinates":[[[-67.61667,55.94167],[-67.60833,55.94167],[-67.60833,55.93333],[-67.61667,55.93333],[-67.61667,55.94167]]]}},{"type":"Feature","properties":{"c":"CDC-2843160","o":"Exploration Midland inc. 50%","e":""},"geometry":{"type":"Polygon","coordinates":[[[-67.61667,55.93333],[-67.60833,55.93333],[-67.60833,55.925],[-67.61667,55.925],[-67.61667,55.93333]]]}},{"type":"Feature","properties":{"c":"CDC-2843201","o":"Exploration Midland inc. 50%","e":""},"geometry":{"type":"Polygon","coordinates":[[[-67.60833,55.95833],[-67.6,55.95833],[-67.6,55.95],[-67.60833,55.95],[-67.60833,55.95833]]]}},{"type":"Feature","properties":{"c":"CDC-2843187","o":"Exploration Midland inc. 50%","e":""},"geometry":{"type":"Polygon","coordinates":[[[-67.60833,55.95],[-67.6,55.95],[-67.6,55.94167],[-67.60833,55.94167],[-67.60833,55.95]]]}},{"type":"Feature","properties":{"c":"CDC-2843174","o":"Exploration Midland inc. 50%","e":""},"geometry":{"type":"Polygon","coordinates":[[[-67.60833,55.94167],[-67.6,55.94167],[-67.6,55.93333],[-67.60833,55.93333],[-67.60833,55.94167]]]}},{"type":"Feature","properties":{"c":"CDC-2843161","o":"Exploration Midland inc. 50%","e":""},"geometry":{"type":"Polygon","coordinates":[[[-67.60833,55.93333],[-67.6,55.93333],[-67.6,55.925],[-67.60833,55.925],[-67.60833,55.93333]]]}},{"type":"Feature","properties":{"c":"CDC-2843202","o":"Exploration Midland inc. 50%","e":""},"geometry":{"type":"Polygon","coordinates":[[[-67.6,55.95833],[-67.59167,55.95833],[-67.59167,55.95],[-67.6,55.95],[-67.6,55.95833]]]}},{"type":"Feature","properties":{"c":"CDC-2843188","o":"Exploration Midland inc. 50%","e":""},"geometry":{"type":"Polygon","coordinates":[[[-67.6,55.95],[-67.59167,55.95],[-67.59167,55.94167],[-67.6,55.94167],[-67.6,55.95]]]}},{"type":"Feature","properties":{"c":"CDC-2843175","o":"Exploration Midland inc. 50%","e":""},"geometry":{"type":"Polygon","coordinates":[[[-67.6,55.94167],[-67.59167,55.94167],[-67.59167,55.93333],[-67.6,55.93333],[-67.6,55.94167]]]}},{"type":"Feature","properties":{"c":"CDC-2843162","o":"Exploration Midland inc. 50%","e":""},"geometry":{"type":"Polygon","coordinates":[[[-67.6,55.93333],[-67.59167,55.93333],[-67.59167,55.925],[-67.6,55.925],[-67.6,55.93333]]]}},{"type":"Feature","properties":{"c":"CDC-2843203","o":"Exploration Midland inc. 50%","e":""},"geometry":{"type":"Polygon","coordinates":[[[-67.59167,55.95833],[-67.58333,55.95833],[-67.58333,55.95],[-67.59167,55.95],[-67.59167,55.95833]]]}},{"type":"Feature","properties":{"c":"CDC-2843189","o":"Exploration Midland inc. 50%","e":""},"geometry":{"type":"Polygon","coordinates":[[[-67.59167,55.95],[-67.58333,55.95],[-67.58333,55.94167],[-67.59167,55.94167],[-67.59167,55.95]]]}},{"type":"Feature","properties":{"c":"CDC-2843176","o":"Exploration Midland inc. 50%","e":""},"geometry":{"type":"Polygon","coordinates":[[[-67.59167,55.94167],[-67.58333,55.94167],[-67.58333,55.93333],[-67.59167,55.93333],[-67.59167,55.94167]]]}},{"type":"Feature","properties":{"c":"CDC-2843163","o":"Exploration Midland inc. 50%","e":""},"geometry":{"type":"Polygon","coordinates":[[[-67.59167,55.93333],[-67.58333,55.93333],[-67.58333,55.925],[-67.59167,55.925],[-67.59167,55.93333]]]}},{"type":"Feature","properties":{"c":"CDC-2843204","o":"Exploration Midland inc. 50%","e":""},"geometry":{"type":"Polygon","coordinates":[[[-67.58333,55.95833],[-67.575,55.95833],[-67.575,55.95],[-67.58333,55.95],[-67.58333,55.95833]]]}},{"type":"Feature","properties":{"c":"CDC-2843190","o":"Exploration Midland inc. 50%","e":""},"geometry":{"type":"Polygon","coordinates":[[[-67.58333,55.95],[-67.575,55.95],[-67.575,55.94167],[-67.58333,55.94167],[-67.58333,55.95]]]}},{"type":"Feature","properties":{"c":"CDC-2843177","o":"Exploration Midland inc. 50%","e":""},"geometry":{"type":"Polygon","coordinates":[[[-67.58333,55.94167],[-67.575,55.94167],[-67.575,55.93333],[-67.58333,55.93333],[-67.58333,55.94167]]]}},{"type":"Feature","properties":{"c":"CDC-2843164","o":"Exploration Midland inc. 50%","e":""},"geometry":{"type":"Polygon","coordinates":[[[-67.58333,55.93333],[-67.575,55.93333],[-67.575,55.925],[-67.58333,55.925],[-67.58333,55.93333]]]}},{"type":"Feature","properties":{"c":"CDC-2843150","o":"Exploration Midland inc. 50%","e":""},"geometry":{"type":"Polygon","coordinates":[[[-67.58333,55.925],[-67.575,55.925],[-67.575,55.91667],[-67.58333,55.91667],[-67.58333,55.925]]]}},{"type":"Feature","properties":{"c":"CDC-2843191","o":"Exploration Midland inc. 50%","e":""},"geometry":{"type":"Polygon","coordinates":[[[-67.575,55.95],[-67.56667,55.95],[-67.56667,55.94167],[-67.575,55.94167],[-67.575,55.95]]]}},{"type":"Feature","properties":{"c":"CDC-2843178","o":"Exploration Midland inc. 50%","e":""},"geometry":{"type":"Polygon","coordinates":[[[-67.575,55.94167],[-67.56667,55.94167],[-67.56667,55.93333],[-67.575,55.93333],[-67.575,55.94167]]]}},{"type":"Feature","properties":{"c":"CDC-2843165","o":"Exploration Midland inc. 50%","e":""},"geometry":{"type":"Polygon","coordinates":[[[-67.575,55.93333],[-67.56667,55.93333],[-67.56667,55.925],[-67.575,55.925],[-67.575,55.93333]]]}},{"type":"Feature","properties":{"c":"CDC-2843151","o":"Exploration Midland inc. 50%","e":""},"geometry":{"type":"Polygon","coordinates":[[[-67.575,55.925],[-67.56667,55.925],[-67.56667,55.91667],[-67.575,55.91667],[-67.575,55.925]]]}},{"type":"Feature","properties":{"c":"CDC-2843192","o":"Exploration Midland inc. 50%","e":""},"geometry":{"type":"Polygon","coordinates":[[[-67.56667,55.95],[-67.55833,55.95],[-67.55833,55.94167],[-67.56667,55.94167],[-67.56667,55.95]]]}},{"type":"Feature","properties":{"c":"CDC-2843179","o":"Exploration Midland inc. 50%","e":""},"geometry":{"type":"Polygon","coordinates":[[[-67.56667,55.94167],[-67.55833,55.94167],[-67.55833,55.93333],[-67.56667,55.93333],[-67.56667,55.94167]]]}},{"type":"Feature","properties":{"c":"CDC-2843166","o":"Exploration Midland inc. 50%","e":""},"geometry":{"type":"Polygon","coordinates":[[[-67.56667,55.93333],[-67.55833,55.93333],[-67.55833,55.925],[-67.56667,55.925],[-67.56667,55.93333]]]}},{"type":"Feature","properties":{"c":"CDC-2843152","o":"Exploration Midland inc. 50%","e":""},"geometry":{"type":"Polygon","coordinates":[[[-67.56667,55.925],[-67.55833,55.925],[-67.55833,55.91667],[-67.56667,55.91667],[-67.56667,55.925]]]}},{"type":"Feature","properties":{"c":"CDC-2843180","o":"Exploration Midland inc. 50%","e":""},"geometry":{"type":"Polygon","coordinates":[[[-67.55833,55.94167],[-67.55,55.94167],[-67.55,55.93333],[-67.55833,55.93333],[-67.55833,55.94167]]]}},{"type":"Feature","properties":{"c":"CDC-2843167","o":"Exploration Midland inc. 50%","e":""},"geometry":{"type":"Polygon","coordinates":[[[-67.55833,55.93333],[-67.55,55.93333],[-67.55,55.925],[-67.55833,55.925],[-67.55833,55.93333]]]}},{"type":"Feature","properties":{"c":"CDC-2843153","o":"Exploration Midland inc. 50%","e":""},"geometry":{"type":"Polygon","coordinates":[[[-67.55833,55.925],[-67.55,55.925],[-67.55,55.91667],[-67.55833,55.91667],[-67.55833,55.925]]]}},{"type":"Feature","properties":{"c":"CDC-2843168","o":"Exploration Midland inc. 50%","e":""},"geometry":{"type":"Polygon","coordinates":[[[-67.55,55.93333],[-67.54167,55.93333],[-67.54167,55.925],[-67.55,55.925],[-67.55,55.93333]]]}},{"type":"Feature","properties":{"c":"CDC-2843154","o":"Exploration Midland inc. 50%","e":""},"geometry":{"type":"Polygon","coordinates":[[[-67.55,55.925],[-67.54167,55.925],[-67.54167,55.91667],[-67.55,55.91667],[-67.55,55.925]]]}},{"type":"Feature","properties":{"c":"CDC-2843144","o":"Exploration Midland inc. 50%","e":""},"geometry":{"type":"Polygon","coordinates":[[[-67.55,55.91667],[-67.54167,55.91667],[-67.54167,55.90833],[-67.55,55.90833],[-67.55,55.91667]]]}},{"type":"Feature","properties":{"c":"CDC-2843169","o":"Exploration Midland inc. 50%","e":""},"geometry":{"type":"Polygon","coordinates":[[[-67.54167,55.93333],[-67.53333,55.93333],[-67.53333,55.925],[-67.54167,55.925],[-67.54167,55.93333]]]}},{"type":"Feature","properties":{"c":"CDC-2843155","o":"Exploration Midland inc. 50%","e":""},"geometry":{"type":"Polygon","coordinates":[[[-67.54167,55.925],[-67.53333,55.925],[-67.53333,55.91667],[-67.54167,55.91667],[-67.54167,55.925]]]}},{"type":"Feature","properties":{"c":"CDC-2843145","o":"Exploration Midland inc. 50%","e":""},"geometry":{"type":"Polygon","coordinates":[[[-67.54167,55.91667],[-67.53333,55.91667],[-67.53333,55.90833],[-67.54167,55.90833],[-67.54167,55.91667]]]}},{"type":"Feature","properties":{"c":"CDC-2843156","o":"Exploration Midland inc. 50%","e":""},"geometry":{"type":"Polygon","coordinates":[[[-67.53333,55.925],[-67.525,55.925],[-67.525,55.91667],[-67.53333,55.91667],[-67.53333,55.925]]]}},{"type":"Feature","properties":{"c":"CDC-2843146","o":"Exploration Midland inc. 50%","e":""},"geometry":{"type":"Polygon","coordinates":[[[-67.53333,55.91667],[-67.525,55.91667],[-67.525,55.90833],[-67.53333,55.90833],[-67.53333,55.91667]]]}},{"type":"Feature","properties":{"c":"CDC-2843157","o":"Exploration Midland inc. 50%","e":""},"geometry":{"type":"Polygon","coordinates":[[[-67.525,55.925],[-67.51667,55.925],[-67.51667,55.91667],[-67.525,55.91667],[-67.525,55.925]]]}},{"type":"Feature","properties":{"c":"CDC-2843147","o":"Exploration Midland inc. 50%","e":""},"geometry":{"type":"Polygon","coordinates":[[[-67.525,55.91667],[-67.51667,55.91667],[-67.51667,55.90833],[-67.525,55.90833],[-67.525,55.91667]]]}},{"type":"Feature","properties":{"c":"CDC-2843141","o":"Exploration Midland inc. 50%","e":""},"geometry":{"type":"Polygon","coordinates":[[[-67.525,55.90833],[-67.51667,55.90833],[-67.51667,55.9],[-67.525,55.9],[-67.525,55.90833]]]}},{"type":"Feature","properties":{"c":"CDC-2843158","o":"Exploration Midland inc. 50%","e":""},"geometry":{"type":"Polygon","coordinates":[[[-67.51667,55.925],[-67.50833,55.925],[-67.50833,55.91667],[-67.51667,55.91667],[-67.51667,55.925]]]}},{"type":"Feature","properties":{"c":"CDC-2843148","o":"Exploration Midland inc. 50%","e":""},"geometry":{"type":"Polygon","coordinates":[[[-67.51667,55.91667],[-67.50833,55.91667],[-67.50833,55.90833],[-67.51667,55.90833],[-67.51667,55.91667]]]}},{"type":"Feature","properties":{"c":"CDC-2843142","o":"Exploration Midland inc. 50%","e":""},"geometry":{"type":"Polygon","coordinates":[[[-67.51667,55.90833],[-67.50833,55.90833],[-67.50833,55.9],[-67.51667,55.9],[-67.51667,55.90833]]]}},{"type":"Feature","properties":{"c":"CDC-2843159","o":"Exploration Midland inc. 50%","e":""},"geometry":{"type":"Polygon","coordinates":[[[-67.50833,55.925],[-67.5,55.925],[-67.5,55.91667],[-67.50833,55.91667],[-67.50833,55.925]]]}},{"type":"Feature","properties":{"c":"CDC-2843149","o":"Exploration Midland inc. 50%","e":""},"geometry":{"type":"Polygon","coordinates":[[[-67.50833,55.91667],[-67.5,55.91667],[-67.5,55.90833],[-67.50833,55.90833],[-67.50833,55.91667]]]}},{"type":"Feature","properties":{"c":"CDC-2843143","o":"Exploration Midland inc. 50%","e":""},"geometry":{"type":"Polygon","coordinates":[[[-67.50833,55.90833],[-67.5,55.90833],[-67.5,55.9],[-67.50833,55.9],[-67.50833,55.90833]]]}},{"type":"Feature","properties":{"c":"CDC-2843140","o":"Exploration Midland inc. 50%","e":""},"geometry":{"type":"Polygon","coordinates":[[[-67.50833,55.9],[-67.5,55.9],[-67.5,55.89167],[-67.50833,55.89167],[-67.50833,55.9]]]}},{"type":"Feature","properties":{"c":"CDC-2843139","o":"Exploration Midland inc. 50%","e":""},"geometry":{"type":"Polygon","coordinates":[[[-67.50833,55.89167],[-67.5,55.89167],[-67.5,55.88333],[-67.50833,55.88333],[-67.50833,55.89167]]]}},{"type":"Feature","properties":{"c":"CDC-2843138","o":"Exploration Midland inc. 50%","e":""},"geometry":{"type":"Polygon","coordinates":[[[-67.50833,55.88333],[-67.5,55.88333],[-67.5,55.875],[-67.50833,55.875],[-67.50833,55.88333]]]}},{"type":"Feature","properties":{"c":"CDC-2858212","o":"Cibles\u00a0Mini\u00e8res Critiques inc. 50%","e":""},"geometry":{"type":"Polygon","coordinates":[[[-67.93333,55.98333],[-67.925,55.98333],[-67.925,55.975],[-67.93333,55.975],[-67.93333,55.98333]]]}},{"type":"Feature","properties":{"c":"CDC-2853788","o":"Exploration Midland inc. 50%","e":""},"geometry":{"type":"Polygon","coordinates":[[[-67.93333,55.975],[-67.925,55.975],[-67.925,55.96667],[-67.93333,55.96667],[-67.93333,55.975]]]}},{"type":"Feature","properties":{"c":"CDC-2853779","o":"Exploration Midland inc. 50%","e":""},"geometry":{"type":"Polygon","coordinates":[[[-67.93333,55.96667],[-67.925,55.96667],[-67.925,55.95833],[-67.93333,55.95833],[-67.93333,55.96667]]]}},{"type":"Feature","properties":{"c":"CDC-2853770","o":"Exploration Midland inc. 50%","e":""},"geometry":{"type":"Polygon","coordinates":[[[-67.93333,55.95833],[-67.925,55.95833],[-67.925,55.95],[-67.93333,55.95],[-67.93333,55.95833]]]}},{"type":"Feature","properties":{"c":"CDC-2853761","o":"Exploration Midland inc. 50%","e":""},"geometry":{"type":"Polygon","coordinates":[[[-67.93333,55.95],[-67.925,55.95],[-67.925,55.94167],[-67.93333,55.94167],[-67.93333,55.95]]]}},{"type":"Feature","properties":{"c":"CDC-2858186","o":"Wayne E Holmstead 20%","e":""},"geometry":{"type":"Polygon","coordinates":[[[-67.93333,55.94167],[-67.925,55.94167],[-67.925,55.93333],[-67.93333,55.93333],[-67.93333,55.94167]]]}},{"type":"Feature","properties":{"c":"CDC-2853789","o":"Exploration Midland inc. 50%","e":""},"geometry":{"type":"Polygon","coordinates":[[[-67.925,55.975],[-67.91667,55.975],[-67.91667,55.96667],[-67.925,55.96667],[-67.925,55.975]]]}},{"type":"Feature","properties":{"c":"CDC-2853780","o":"Exploration Midland inc. 50%","e":""},"geometry":{"type":"Polygon","coordinates":[[[-67.925,55.96667],[-67.91667,55.96667],[-67.91667,55.95833],[-67.925,55.95833],[-67.925,55.96667]]]}},{"type":"Feature","properties":{"c":"CDC-2853771","o":"Exploration Midland inc. 50%","e":""},"geometry":{"type":"Polygon","coordinates":[[[-67.925,55.95833],[-67.91667,55.95833],[-67.91667,55.95],[-67.925,55.95],[-67.925,55.95833]]]}},{"type":"Feature","properties":{"c":"CDC-2853762","o":"Exploration Midland inc. 50%","e":""},"geometry":{"type":"Polygon","coordinates":[[[-67.925,55.95],[-67.91667,55.95],[-67.91667,55.94167],[-67.925,55.94167],[-67.925,55.95]]]}},{"type":"Feature","properties":{"c":"CDC-2858187","o":"Wayne E Holmstead 20%","e":""},"geometry":{"type":"Polygon","coordinates":[[[-67.925,55.94167],[-67.91667,55.94167],[-67.91667,55.93333],[-67.925,55.93333],[-67.925,55.94167]]]}},{"type":"Feature","properties":{"c":"CDC-2853790","o":"Exploration Midland inc. 50%","e":""},"geometry":{"type":"Polygon","coordinates":[[[-67.91667,55.975],[-67.90833,55.975],[-67.90833,55.96667],[-67.91667,55.96667],[-67.91667,55.975]]]}},{"type":"Feature","properties":{"c":"CDC-2853781","o":"Exploration Midland inc. 50%","e":""},"geometry":{"type":"Polygon","coordinates":[[[-67.91667,55.96667],[-67.90833,55.96667],[-67.90833,55.95833],[-67.91667,55.95833],[-67.91667,55.96667]]]}},{"type":"Feature","properties":{"c":"CDC-2853772","o":"Exploration Midland inc. 50%","e":""},"geometry":{"type":"Polygon","coordinates":[[[-67.91667,55.95833],[-67.90833,55.95833],[-67.90833,55.95],[-67.91667,55.95],[-67.91667,55.95833]]]}},{"type":"Feature","properties":{"c":"CDC-2853763","o":"Exploration Midland inc. 50%","e":""},"geometry":{"type":"Polygon","coordinates":[[[-67.91667,55.95],[-67.90833,55.95],[-67.90833,55.94167],[-67.91667,55.94167],[-67.91667,55.95]]]}},{"type":"Feature","properties":{"c":"CDC-2858188","o":"Wayne E Holmstead 20%","e":""},"geometry":{"type":"Polygon","coordinates":[[[-67.91667,55.94167],[-67.90833,55.94167],[-67.90833,55.93333],[-67.91667,55.93333],[-67.91667,55.94167]]]}},{"type":"Feature","properties":{"c":"CDC-2843205","o":"Exploration Midland inc. 50%","e":""},"geometry":{"type":"Polygon","coordinates":[[[-67.68333,55.96667],[-67.675,55.96667],[-67.675,55.95833],[-67.68333,55.95833],[-67.68333,55.96667]]]}},{"type":"Feature","properties":{"c":"CDC-2843206","o":"Exploration Midland inc. 50%","e":""},"geometry":{"type":"Polygon","coordinates":[[[-67.675,55.96667],[-67.66667,55.96667],[-67.66667,55.95833],[-67.675,55.95833],[-67.675,55.96667]]]}},{"type":"Feature","properties":{"c":"CDC-2843193","o":"Exploration Midland inc. 50%","e":""},"geometry":{"type":"Polygon","coordinates":[[[-67.675,55.95833],[-67.66667,55.95833],[-67.66667,55.95],[-67.675,55.95],[-67.675,55.95833]]]}},{"type":"Feature","properties":{"c":"CDC-2843207","o":"Exploration Midland inc. 50%","e":""},"geometry":{"type":"Polygon","coordinates":[[[-67.66667,55.96667],[-67.65833,55.96667],[-67.65833,55.95833],[-67.66667,55.95833],[-67.66667,55.96667]]]}},{"type":"Feature","properties":{"c":"CDC-2843194","o":"Exploration Midland inc. 50%","e":""},"geometry":{"type":"Polygon","coordinates":[[[-67.66667,55.95833],[-67.65833,55.95833],[-67.65833,55.95],[-67.66667,55.95],[-67.66667,55.95833]]]}},{"type":"Feature","properties":{"c":"CDC-2843208","o":"Exploration Midland inc. 50%","e":""},"geometry":{"type":"Polygon","coordinates":[[[-67.65833,55.96667],[-67.65,55.96667],[-67.65,55.95833],[-67.65833,55.95833],[-67.65833,55.96667]]]}},{"type":"Feature","properties":{"c":"CDC-2843195","o":"Exploration Midland inc. 50%","e":""},"geometry":{"type":"Polygon","coordinates":[[[-67.65833,55.95833],[-67.65,55.95833],[-67.65,55.95],[-67.65833,55.95],[-67.65833,55.95833]]]}},{"type":"Feature","properties":{"c":"CDC-2843181","o":"Exploration Midland inc. 50%","e":""},"geometry":{"type":"Polygon","coordinates":[[[-67.65833,55.95],[-67.65,55.95],[-67.65,55.94167],[-67.65833,55.94167],[-67.65833,55.95]]]}},{"type":"Feature","properties":{"c":"CDC-2843209","o":"Exploration Midland inc. 50%","e":""},"geometry":{"type":"Polygon","coordinates":[[[-67.65,55.96667],[-67.64167,55.96667],[-67.64167,55.95833],[-67.65,55.95833],[-67.65,55.96667]]]}},{"type":"Feature","properties":{"c":"CDC-2858271","o":"Wayne E Holmstead 20%","e":""},"geometry":{"type":"Polygon","coordinates":[[[-67.95833,55.90833],[-67.95,55.90833],[-67.95,55.9],[-67.95833,55.9],[-67.95833,55.90833]]]}},{"type":"Feature","properties":{"c":"CDC-2858272","o":"Wayne E Holmstead 20%","e":""},"geometry":{"type":"Polygon","coordinates":[[[-67.95,55.90833],[-67.94167,55.90833],[-67.94167,55.9],[-67.95,55.9],[-67.95,55.90833]]]}},{"type":"Feature","properties":{"c":"CDC-2858273","o":"Wayne E Holmstead 20%","e":""},"geometry":{"type":"Polygon","coordinates":[[[-67.94167,55.90833],[-67.93333,55.90833],[-67.93333,55.9],[-67.94167,55.9],[-67.94167,55.90833]]]}},{"type":"Feature","properties":{"c":"CDC-2858274","o":"Wayne E Holmstead 20%","e":""},"geometry":{"type":"Polygon","coordinates":[[[-67.93333,55.90833],[-67.925,55.90833],[-67.925,55.9],[-67.93333,55.9],[-67.93333,55.90833]]]}},{"type":"Feature","properties":{"c":"CDC-2858275","o":"Wayne E Holmstead 20%","e":""},"geometry":{"type":"Polygon","coordinates":[[[-67.925,55.90833],[-67.91667,55.90833],[-67.91667,55.9],[-67.925,55.9],[-67.925,55.90833]]]}},{"type":"Feature","properties":{"c":"CDC-2858276","o":"Wayne E Holmstead 20%","e":""},"geometry":{"type":"Polygon","coordinates":[[[-67.91667,55.90833],[-67.90833,55.90833],[-67.90833,55.9],[-67.91667,55.9],[-67.91667,55.90833]]]}},{"type":"Feature","properties":{"c":"CDC-2858154","o":"Wayne E Holmstead 20%","e":""},"geometry":{"type":"Polygon","coordinates":[[[-67.95833,55.91667],[-67.95,55.91667],[-67.95,55.90833],[-67.95833,55.90833],[-67.95833,55.91667]]]}},{"type":"Feature","properties":{"c":"CDC-2858155","o":"Wayne E Holmstead 20%","e":""},"geometry":{"type":"Polygon","coordinates":[[[-67.95,55.91667],[-67.94167,55.91667],[-67.94167,55.90833],[-67.95,55.90833],[-67.95,55.91667]]]}},{"type":"Feature","properties":{"c":"CDC-2858277","o":"Wayne E Holmstead 20%","e":""},"geometry":{"type":"Polygon","coordinates":[[[-67.94167,55.91667],[-67.93333,55.91667],[-67.93333,55.90833],[-67.94167,55.90833],[-67.94167,55.91667]]]}},{"type":"Feature","properties":{"c":"CDC-2858278","o":"Wayne E Holmstead 20%","e":""},"geometry":{"type":"Polygon","coordinates":[[[-67.93333,55.91667],[-67.925,55.91667],[-67.925,55.90833],[-67.93333,55.90833],[-67.93333,55.91667]]]}},{"type":"Feature","properties":{"c":"CDC-2858279","o":"Wayne E Holmstead 20%","e":""},"geometry":{"type":"Polygon","coordinates":[[[-67.925,55.91667],[-67.91667,55.91667],[-67.91667,55.90833],[-67.925,55.90833],[-67.925,55.91667]]]}},{"type":"Feature","properties":{"c":"CDC-2858280","o":"Wayne E Holmstead 20%","e":""},"geometry":{"type":"Polygon","coordinates":[[[-67.91667,55.91667],[-67.90833,55.91667],[-67.90833,55.90833],[-67.91667,55.90833],[-67.91667,55.91667]]]}},{"type":"Feature","properties":{"c":"CDC-2858161","o":"Wayne E Holmstead 20%","e":""},"geometry":{"type":"Polygon","coordinates":[[[-67.95833,55.925],[-67.95,55.925],[-67.95,55.91667],[-67.95833,55.91667],[-67.95833,55.925]]]}},{"type":"Feature","properties":{"c":"CDC-2858162","o":"Wayne E Holmstead 20%","e":""},"geometry":{"type":"Polygon","coordinates":[[[-67.95,55.925],[-67.94167,55.925],[-67.94167,55.91667],[-67.95,55.91667],[-67.95,55.925]]]}},{"type":"Feature","properties":{"c":"CDC-2858163","o":"Wayne E Holmstead 20%","e":""},"geometry":{"type":"Polygon","coordinates":[[[-67.94167,55.925],[-67.93333,55.925],[-67.93333,55.91667],[-67.94167,55.91667],[-67.94167,55.925]]]}},{"type":"Feature","properties":{"c":"CDC-2858164","o":"Wayne E Holmstead 20%","e":""},"geometry":{"type":"Polygon","coordinates":[[[-67.93333,55.925],[-67.925,55.925],[-67.925,55.91667],[-67.93333,55.91667],[-67.93333,55.925]]]}},{"type":"Feature","properties":{"c":"CDC-2858165","o":"Wayne E Holmstead 20%","e":""},"geometry":{"type":"Polygon","coordinates":[[[-67.925,55.925],[-67.91667,55.925],[-67.91667,55.91667],[-67.925,55.91667],[-67.925,55.925]]]}},{"type":"Feature","properties":{"c":"CDC-2858166","o":"Wayne E Holmstead 20%","e":""},"geometry":{"type":"Polygon","coordinates":[[[-67.91667,55.925],[-67.90833,55.925],[-67.90833,55.91667],[-67.91667,55.91667],[-67.91667,55.925]]]}},{"type":"Feature","properties":{"c":"CDC-2858172","o":"Wayne E Holmstead 20%","e":""},"geometry":{"type":"Polygon","coordinates":[[[-67.95833,55.93333],[-67.95,55.93333],[-67.95,55.925],[-67.95833,55.925],[-67.95833,55.93333]]]}},{"type":"Feature","properties":{"c":"CDC-2858173","o":"Wayne E Holmstead 20%","e":""},"geometry":{"type":"Polygon","coordinates":[[[-67.95,55.93333],[-67.94167,55.93333],[-67.94167,55.925],[-67.95,55.925],[-67.95,55.93333]]]}},{"type":"Feature","properties":{"c":"CDC-2858174","o":"Wayne E Holmstead 20%","e":""},"geometry":{"type":"Polygon","coordinates":[[[-67.94167,55.93333],[-67.93333,55.93333],[-67.93333,55.925],[-67.94167,55.925],[-67.94167,55.93333]]]}},{"type":"Feature","properties":{"c":"CDC-2858175","o":"Wayne E Holmstead 20%","e":""},"geometry":{"type":"Polygon","coordinates":[[[-67.93333,55.93333],[-67.925,55.93333],[-67.925,55.925],[-67.93333,55.925],[-67.93333,55.93333]]]}},{"type":"Feature","properties":{"c":"CDC-2858176","o":"Wayne E Holmstead 20%","e":""},"geometry":{"type":"Polygon","coordinates":[[[-67.925,55.93333],[-67.91667,55.93333],[-67.91667,55.925],[-67.925,55.925],[-67.925,55.93333]]]}},{"type":"Feature","properties":{"c":"CDC-2858177","o":"Wayne E Holmstead 20%","e":""},"geometry":{"type":"Polygon","coordinates":[[[-67.91667,55.93333],[-67.90833,55.93333],[-67.90833,55.925],[-67.91667,55.925],[-67.91667,55.93333]]]}},{"type":"Feature","properties":{"c":"CDC-2858183","o":"Wayne E Holmstead 20%","e":""},"geometry":{"type":"Polygon","coordinates":[[[-67.95833,55.94167],[-67.95,55.94167],[-67.95,55.93333],[-67.95833,55.93333],[-67.95833,55.94167]]]}},{"type":"Feature","properties":{"c":"CDC-2858184","o":"Wayne E Holmstead 20%","e":""},"geometry":{"type":"Polygon","coordinates":[[[-67.95,55.94167],[-67.94167,55.94167],[-67.94167,55.93333],[-67.95,55.93333],[-67.95,55.94167]]]}},{"type":"Feature","properties":{"c":"CDC-2858185","o":"Wayne E Holmstead 20%","e":""},"geometry":{"type":"Polygon","coordinates":[[[-67.94167,55.94167],[-67.93333,55.94167],[-67.93333,55.93333],[-67.94167,55.93333],[-67.94167,55.94167]]]}},{"type":"Feature","properties":{"c":"CDC-2858223","o":"Cibles\u00a0Mini\u00e8res Critiques inc. 50%","e":""},"geometry":{"type":"Polygon","coordinates":[[[-67.95833,56.0],[-67.95,56.0],[-67.95,55.99167],[-67.95833,55.99167],[-67.95833,56.0]]]}},{"type":"Feature","properties":{"c":"CDC-2858218","o":"Cibles\u00a0Mini\u00e8res Critiques inc. 50%","e":""},"geometry":{"type":"Polygon","coordinates":[[[-67.95833,55.99167],[-67.95,55.99167],[-67.95,55.98333],[-67.95833,55.98333],[-67.95833,55.99167]]]}},{"type":"Feature","properties":{"c":"CDC-2858209","o":"Cibles\u00a0Mini\u00e8res Critiques inc. 50%","e":""},"geometry":{"type":"Polygon","coordinates":[[[-67.95833,55.98333],[-67.95,55.98333],[-67.95,55.975],[-67.95833,55.975],[-67.95833,55.98333]]]}},{"type":"Feature","properties":{"c":"CDC-2853785","o":"Exploration Midland inc. 50%","e":""},"geometry":{"type":"Polygon","coordinates":[[[-67.95833,55.975],[-67.95,55.975],[-67.95,55.96667],[-67.95833,55.96667],[-67.95833,55.975]]]}},{"type":"Feature","properties":{"c":"CDC-2853776","o":"Exploration Midland inc. 50%","e":""},"geometry":{"type":"Polygon","coordinates":[[[-67.95833,55.96667],[-67.95,55.96667],[-67.95,55.95833],[-67.95833,55.95833],[-67.95833,55.96667]]]}},{"type":"Feature","properties":{"c":"CDC-2853767","o":"Exploration Midland inc. 50%","e":""},"geometry":{"type":"Polygon","coordinates":[[[-67.95833,55.95833],[-67.95,55.95833],[-67.95,55.95],[-67.95833,55.95],[-67.95833,55.95833]]]}},{"type":"Feature","properties":{"c":"CDC-2853758","o":"Exploration Midland inc. 50%","e":""},"geometry":{"type":"Polygon","coordinates":[[[-67.95833,55.95],[-67.95,55.95],[-67.95,55.94167],[-67.95833,55.94167],[-67.95833,55.95]]]}},{"type":"Feature","properties":{"c":"CDC-2858224","o":"Cibles\u00a0Mini\u00e8res Critiques inc. 50%","e":""},"geometry":{"type":"Polygon","coordinates":[[[-67.95,56.0],[-67.94167,56.0],[-67.94167,55.99167],[-67.95,55.99167],[-67.95,56.0]]]}},{"type":"Feature","properties":{"c":"CDC-2858219","o":"Cibles\u00a0Mini\u00e8res Critiques inc. 50%","e":""},"geometry":{"type":"Polygon","coordinates":[[[-67.95,55.99167],[-67.94167,55.99167],[-67.94167,55.98333],[-67.95,55.98333],[-67.95,55.99167]]]}},{"type":"Feature","properties":{"c":"CDC-2858210","o":"Cibles\u00a0Mini\u00e8res Critiques inc. 50%","e":""},"geometry":{"type":"Polygon","coordinates":[[[-67.95,55.98333],[-67.94167,55.98333],[-67.94167,55.975],[-67.95,55.975],[-67.95,55.98333]]]}},{"type":"Feature","properties":{"c":"CDC-2853786","o":"Exploration Midland inc. 50%","e":""},"geometry":{"type":"Polygon","coordinates":[[[-67.95,55.975],[-67.94167,55.975],[-67.94167,55.96667],[-67.95,55.96667],[-67.95,55.975]]]}},{"type":"Feature","properties":{"c":"CDC-2853777","o":"Exploration Midland inc. 50%","e":""},"geometry":{"type":"Polygon","coordinates":[[[-67.95,55.96667],[-67.94167,55.96667],[-67.94167,55.95833],[-67.95,55.95833],[-67.95,55.96667]]]}},{"type":"Feature","properties":{"c":"CDC-2853768","o":"Exploration Midland inc. 50%","e":""},"geometry":{"type":"Polygon","coordinates":[[[-67.95,55.95833],[-67.94167,55.95833],[-67.94167,55.95],[-67.95,55.95],[-67.95,55.95833]]]}},{"type":"Feature","properties":{"c":"CDC-2853759","o":"Exploration Midland inc. 50%","e":""},"geometry":{"type":"Polygon","coordinates":[[[-67.95,55.95],[-67.94167,55.95],[-67.94167,55.94167],[-67.95,55.94167],[-67.95,55.95]]]}},{"type":"Feature","properties":{"c":"CDC-2858246","o":"Cibles\u00a0Mini\u00e8res Critiques inc. 50%","e":""},"geometry":{"type":"Polygon","coordinates":[[[-67.94167,56.0],[-67.93333,56.0],[-67.93333,55.99167],[-67.94167,55.99167],[-67.94167,56.0]]]}},{"type":"Feature","properties":{"c":"CDC-2858220","o":"Cibles\u00a0Mini\u00e8res Critiques inc. 50%","e":""},"geometry":{"type":"Polygon","coordinates":[[[-67.94167,55.99167],[-67.93333,55.99167],[-67.93333,55.98333],[-67.94167,55.98333],[-67.94167,55.99167]]]}},{"type":"Feature","properties":{"c":"CDC-2858211","o":"Cibles\u00a0Mini\u00e8res Critiques inc. 50%","e":""},"geometry":{"type":"Polygon","coordinates":[[[-67.94167,55.98333],[-67.93333,55.98333],[-67.93333,55.975],[-67.94167,55.975],[-67.94167,55.98333]]]}},{"type":"Feature","properties":{"c":"CDC-2853787","o":"Exploration Midland inc. 50%","e":""},"geometry":{"type":"Polygon","coordinates":[[[-67.94167,55.975],[-67.93333,55.975],[-67.93333,55.96667],[-67.94167,55.96667],[-67.94167,55.975]]]}},{"type":"Feature","properties":{"c":"CDC-2853778","o":"Exploration Midland inc. 50%","e":""},"geometry":{"type":"Polygon","coordinates":[[[-67.94167,55.96667],[-67.93333,55.96667],[-67.93333,55.95833],[-67.94167,55.95833],[-67.94167,55.96667]]]}},{"type":"Feature","properties":{"c":"CDC-2853769","o":"Exploration Midland inc. 50%","e":""},"geometry":{"type":"Polygon","coordinates":[[[-67.94167,55.95833],[-67.93333,55.95833],[-67.93333,55.95],[-67.94167,55.95],[-67.94167,55.95833]]]}},{"type":"Feature","properties":{"c":"CDC-2853760","o":"Exploration Midland inc. 50%","e":""},"geometry":{"type":"Polygon","coordinates":[[[-67.94167,55.95],[-67.93333,55.95],[-67.93333,55.94167],[-67.94167,55.94167],[-67.94167,55.95]]]}},{"type":"Feature","properties":{"c":"CDC-2858247","o":"Cibles\u00a0Mini\u00e8res Critiques inc. 50%","e":""},"geometry":{"type":"Polygon","coordinates":[[[-67.93333,56.0],[-67.925,56.0],[-67.925,55.99167],[-67.93333,55.99167],[-67.93333,56.0]]]}},{"type":"Feature","properties":{"c":"CDC-2858242","o":"Cibles\u00a0Mini\u00e8res Critiques inc. 50%","e":""},"geometry":{"type":"Polygon","coordinates":[[[-67.93333,55.99167],[-67.925,55.99167],[-67.925,55.98333],[-67.93333,55.98333],[-67.93333,55.99167]]]}},{"type":"Feature","properties":{"c":"CDC-2858266","o":"Wayne E Holmstead 20%","e":""},"geometry":{"type":"Polygon","coordinates":[[[-68.0,55.90833],[-67.99167,55.90833],[-67.99167,55.9],[-68.0,55.9],[-68.0,55.90833]]]}},{"type":"Feature","properties":{"c":"CDC-2858179","o":"Wayne E Holmstead 20%","e":""},"geometry":{"type":"Polygon","coordinates":[[[-67.99167,55.94167],[-67.98333,55.94167],[-67.98333,55.93333],[-67.99167,55.93333],[-67.99167,55.94167]]]}},{"type":"Feature","properties":{"c":"CDC-2858168","o":"Wayne E Holmstead 20%","e":""},"geometry":{"type":"Polygon","coordinates":[[[-67.99167,55.93333],[-67.98333,55.93333],[-67.98333,55.925],[-67.99167,55.925],[-67.99167,55.93333]]]}},{"type":"Feature","properties":{"c":"CDC-2858157","o":"Wayne E Holmstead 20%","e":""},"geometry":{"type":"Polygon","coordinates":[[[-67.99167,55.925],[-67.98333,55.925],[-67.98333,55.91667],[-67.99167,55.91667],[-67.99167,55.925]]]}},{"type":"Feature","properties":{"c":"CDC-2858150","o":"Wayne E Holmstead 20%","e":""},"geometry":{"type":"Polygon","coordinates":[[[-67.99167,55.91667],[-67.98333,55.91667],[-67.98333,55.90833],[-67.99167,55.90833],[-67.99167,55.91667]]]}},{"type":"Feature","properties":{"c":"CDC-2858267","o":"Wayne E Holmstead 20%","e":""},"geometry":{"type":"Polygon","coordinates":[[[-67.99167,55.90833],[-67.98333,55.90833],[-67.98333,55.9],[-67.99167,55.9],[-67.99167,55.90833]]]}},{"type":"Feature","properties":{"c":"CDC-2853764","o":"Exploration Midland inc. 50%","e":""},"geometry":{"type":"Polygon","coordinates":[[[-67.98333,55.95833],[-67.975,55.95833],[-67.975,55.95],[-67.98333,55.95],[-67.98333,55.95833]]]}},{"type":"Feature","properties":{"c":"CDC-2853755","o":"Exploration Midland inc. 50%","e":""},"geometry":{"type":"Polygon","coordinates":[[[-67.98333,55.95],[-67.975,55.95],[-67.975,55.94167],[-67.98333,55.94167],[-67.98333,55.95]]]}},{"type":"Feature","properties":{"c":"CDC-2858180","o":"Wayne E Holmstead 20%","e":""},"geometry":{"type":"Polygon","coordinates":[[[-67.98333,55.94167],[-67.975,55.94167],[-67.975,55.93333],[-67.98333,55.93333],[-67.98333,55.94167]]]}},{"type":"Feature","properties":{"c":"CDC-2858169","o":"Wayne E Holmstead 20%","e":""},"geometry":{"type":"Polygon","coordinates":[[[-67.98333,55.93333],[-67.975,55.93333],[-67.975,55.925],[-67.98333,55.925],[-67.98333,55.93333]]]}},{"type":"Feature","properties":{"c":"CDC-2858158","o":"Wayne E Holmstead 20%","e":""},"geometry":{"type":"Polygon","coordinates":[[[-67.98333,55.925],[-67.975,55.925],[-67.975,55.91667],[-67.98333,55.91667],[-67.98333,55.925]]]}},{"type":"Feature","properties":{"c":"CDC-2858151","o":"Wayne E Holmstead 20%","e":""},"geometry":{"type":"Polygon","coordinates":[[[-67.98333,55.91667],[-67.975,55.91667],[-67.975,55.90833],[-67.98333,55.90833],[-67.98333,55.91667]]]}},{"type":"Feature","properties":{"c":"CDC-2858268","o":"Wayne E Holmstead 20%","e":""},"geometry":{"type":"Polygon","coordinates":[[[-67.98333,55.90833],[-67.975,55.90833],[-67.975,55.9],[-67.98333,55.9],[-67.98333,55.90833]]]}},{"type":"Feature","properties":{"c":"CDC-2853765","o":"Exploration Midland inc. 50%","e":""},"geometry":{"type":"Polygon","coordinates":[[[-67.975,55.95833],[-67.96667,55.95833],[-67.96667,55.95],[-67.975,55.95],[-67.975,55.95833]]]}},{"type":"Feature","properties":{"c":"CDC-2853756","o":"Exploration Midland inc. 50%","e":""},"geometry":{"type":"Polygon","coordinates":[[[-67.975,55.95],[-67.96667,55.95],[-67.96667,55.94167],[-67.975,55.94167],[-67.975,55.95]]]}},{"type":"Feature","properties":{"c":"CDC-2858181","o":"Wayne E Holmstead 20%","e":""},"geometry":{"type":"Polygon","coordinates":[[[-67.975,55.94167],[-67.96667,55.94167],[-67.96667,55.93333],[-67.975,55.93333],[-67.975,55.94167]]]}},{"type":"Feature","properties":{"c":"CDC-2858170","o":"Wayne E Holmstead 20%","e":""},"geometry":{"type":"Polygon","coordinates":[[[-67.975,55.93333],[-67.96667,55.93333],[-67.96667,55.925],[-67.975,55.925],[-67.975,55.93333]]]}},{"type":"Feature","properties":{"c":"CDC-2858159","o":"Wayne E Holmstead 20%","e":""},"geometry":{"type":"Polygon","coordinates":[[[-67.975,55.925],[-67.96667,55.925],[-67.96667,55.91667],[-67.975,55.91667],[-67.975,55.925]]]}},{"type":"Feature","properties":{"c":"CDC-2858152","o":"Wayne E Holmstead 20%","e":""},"geometry":{"type":"Polygon","coordinates":[[[-67.975,55.91667],[-67.96667,55.91667],[-67.96667,55.90833],[-67.975,55.90833],[-67.975,55.91667]]]}},{"type":"Feature","properties":{"c":"CDC-2858269","o":"Wayne E Holmstead 20%","e":""},"geometry":{"type":"Polygon","coordinates":[[[-67.975,55.90833],[-67.96667,55.90833],[-67.96667,55.9],[-67.975,55.9],[-67.975,55.90833]]]}},{"type":"Feature","properties":{"c":"CDC-2853766","o":"Exploration Midland inc. 50%","e":""},"geometry":{"type":"Polygon","coordinates":[[[-67.96667,55.95833],[-67.95833,55.95833],[-67.95833,55.95],[-67.96667,55.95],[-67.96667,55.95833]]]}},{"type":"Feature","properties":{"c":"CDC-2853757","o":"Exploration Midland inc. 50%","e":""},"geometry":{"type":"Polygon","coordinates":[[[-67.96667,55.95],[-67.95833,55.95],[-67.95833,55.94167],[-67.96667,55.94167],[-67.96667,55.95]]]}},{"type":"Feature","properties":{"c":"CDC-2858182","o":"Wayne E Holmstead 20%","e":""},"geometry":{"type":"Polygon","coordinates":[[[-67.96667,55.94167],[-67.95833,55.94167],[-67.95833,55.93333],[-67.96667,55.93333],[-67.96667,55.94167]]]}},{"type":"Feature","properties":{"c":"CDC-2858171","o":"Wayne E Holmstead 20%","e":""},"geometry":{"type":"Polygon","coordinates":[[[-67.96667,55.93333],[-67.95833,55.93333],[-67.95833,55.925],[-67.96667,55.925],[-67.96667,55.93333]]]}},{"type":"Feature","properties":{"c":"CDC-2858160","o":"Wayne E Holmstead 20%","e":""},"geometry":{"type":"Polygon","coordinates":[[[-67.96667,55.925],[-67.95833,55.925],[-67.95833,55.91667],[-67.96667,55.91667],[-67.96667,55.925]]]}},{"type":"Feature","properties":{"c":"CDC-2858153","o":"Wayne E Holmstead 20%","e":""},"geometry":{"type":"Polygon","coordinates":[[[-67.96667,55.91667],[-67.95833,55.91667],[-67.95833,55.90833],[-67.96667,55.90833],[-67.96667,55.91667]]]}},{"type":"Feature","properties":{"c":"CDC-2858270","o":"Wayne E Holmstead 20%","e":""},"geometry":{"type":"Polygon","coordinates":[[[-67.96667,55.90833],[-67.95833,55.90833],[-67.95833,55.9],[-67.96667,55.9],[-67.96667,55.90833]]]}},{"type":"Feature","properties":{"c":"CDC-2097208","o":"Abaxx Technologies Inc. 100%","e":""},"geometry":{"type":"Polygon","coordinates":[[[-68.00833,55.775],[-68.0,55.775],[-68.0,55.76667],[-68.00833,55.76667],[-68.00833,55.775]]]}},{"type":"Feature","properties":{"c":"CDC-2097201","o":"Abaxx Technologies Inc. 100%","e":""},"geometry":{"type":"Polygon","coordinates":[[[-68.00833,55.76667],[-68.0,55.76667],[-68.0,55.75833],[-68.00833,55.75833],[-68.00833,55.76667]]]}},{"type":"Feature","properties":{"c":"CDC-2097195","o":"Abaxx Technologies Inc. 100%","e":""},"geometry":{"type":"Polygon","coordinates":[[[-68.00833,55.75833],[-68.0,55.75833],[-68.0,55.75],[-68.00833,55.75],[-68.00833,55.75833]]]}},{"type":"Feature","properties":{"c":"CDC-2097334","o":"Abaxx Technologies Inc. 100%","e":""},"geometry":{"type":"Polygon","coordinates":[[[-68.0,55.79167],[-67.99167,55.79167],[-67.99167,55.78333],[-68.0,55.78333],[-68.0,55.79167]]]}},{"type":"Feature","properties":{"c":"CDC-2097327","o":"Abaxx Technologies Inc. 100%","e":""},"geometry":{"type":"Polygon","coordinates":[[[-68.0,55.78333],[-67.99167,55.78333],[-67.99167,55.775],[-68.0,55.775],[-68.0,55.78333]]]}},{"type":"Feature","properties":{"c":"CDC-2097319","o":"Abaxx Technologies Inc. 100%","e":""},"geometry":{"type":"Polygon","coordinates":[[[-68.0,55.775],[-67.99167,55.775],[-67.99167,55.76667],[-68.0,55.76667],[-68.0,55.775]]]}},{"type":"Feature","properties":{"c":"CDC-2097311","o":"Abaxx Technologies Inc. 100%","e":""},"geometry":{"type":"Polygon","coordinates":[[[-68.0,55.76667],[-67.99167,55.76667],[-67.99167,55.75833],[-68.0,55.75833],[-68.0,55.76667]]]}},{"type":"Feature","properties":{"c":"CDC-2097302","o":"Abaxx Technologies Inc. 100%","e":""},"geometry":{"type":"Polygon","coordinates":[[[-68.0,55.75833],[-67.99167,55.75833],[-67.99167,55.75],[-68.0,55.75],[-68.0,55.75833]]]}},{"type":"Feature","properties":{"c":"CDC-2245415","o":"Abaxx Technologies Inc. 100%","e":""},"geometry":{"type":"Polygon","coordinates":[[[-67.99167,55.79167],[-67.98333,55.79167],[-67.98333,55.78333],[-67.99167,55.78333],[-67.99167,55.79167]]]}},{"type":"Feature","properties":{"c":"CDC-2097330","o":"Abaxx Technologies Inc. 100%","e":""},"geometry":{"type":"Polygon","coordinates":[[[-67.99167,55.78333],[-67.98333,55.78333],[-67.98333,55.775],[-67.99167,55.775],[-67.99167,55.78333]]]}},{"type":"Feature","properties":{"c":"CDC-2097321","o":"Abaxx Technologies Inc. 100%","e":""},"geometry":{"type":"Polygon","coordinates":[[[-67.99167,55.775],[-67.98333,55.775],[-67.98333,55.76667],[-67.99167,55.76667],[-67.99167,55.775]]]}},{"type":"Feature","properties":{"c":"CDC-2097313","o":"Abaxx Technologies Inc. 100%","e":""},"geometry":{"type":"Polygon","coordinates":[[[-67.99167,55.76667],[-67.98333,55.76667],[-67.98333,55.75833],[-67.99167,55.75833],[-67.99167,55.76667]]]}},{"type":"Feature","properties":{"c":"CDC-2097303","o":"Abaxx Technologies Inc. 100%","e":""},"geometry":{"type":"Polygon","coordinates":[[[-67.99167,55.75833],[-67.98333,55.75833],[-67.98333,55.75],[-67.99167,55.75],[-67.99167,55.75833]]]}},{"type":"Feature","properties":{"c":"CDC-2245416","o":"Abaxx Technologies Inc. 100%","e":""},"geometry":{"type":"Polygon","coordinates":[[[-67.98333,55.79167],[-67.975,55.79167],[-67.975,55.78333],[-67.98333,55.78333],[-67.98333,55.79167]]]}},{"type":"Feature","properties":{"c":"CDC-2097331","o":"Abaxx Technologies Inc. 100%","e":""},"geometry":{"type":"Polygon","coordinates":[[[-67.98333,55.78333],[-67.975,55.78333],[-67.975,55.775],[-67.98333,55.775],[-67.98333,55.78333]]]}},{"type":"Feature","properties":{"c":"CDC-2097323","o":"Abaxx Technologies Inc. 100%","e":""},"geometry":{"type":"Polygon","coordinates":[[[-67.98333,55.775],[-67.975,55.775],[-67.975,55.76667],[-67.98333,55.76667],[-67.98333,55.775]]]}},{"type":"Feature","properties":{"c":"CDC-2097315","o":"Abaxx Technologies Inc. 100%","e":""},"geometry":{"type":"Polygon","coordinates":[[[-67.98333,55.76667],[-67.975,55.76667],[-67.975,55.75833],[-67.98333,55.75833],[-67.98333,55.76667]]]}},{"type":"Feature","properties":{"c":"CDC-2097305","o":"Abaxx Technologies Inc. 100%","e":""},"geometry":{"type":"Polygon","coordinates":[[[-67.98333,55.75833],[-67.975,55.75833],[-67.975,55.75],[-67.98333,55.75],[-67.98333,55.75833]]]}},{"type":"Feature","properties":{"c":"CDC-2245417","o":"Abaxx Technologies Inc. 100%","e":""},"geometry":{"type":"Polygon","coordinates":[[[-67.975,55.79167],[-67.96667,55.79167],[-67.96667,55.78333],[-67.975,55.78333],[-67.975,55.79167]]]}},{"type":"Feature","properties":{"c":"CDC-2245412","o":"Abaxx Technologies Inc. 100%","e":""},"geometry":{"type":"Polygon","coordinates":[[[-67.975,55.78333],[-67.96667,55.78333],[-67.96667,55.775],[-67.975,55.775],[-67.975,55.78333]]]}},{"type":"Feature","properties":{"c":"CDC-2097325","o":"Abaxx Technologies Inc. 100%","e":""},"geometry":{"type":"Polygon","coordinates":[[[-67.975,55.775],[-67.96667,55.775],[-67.96667,55.76667],[-67.975,55.76667],[-67.975,55.775]]]}},{"type":"Feature","properties":{"c":"CDC-2097317","o":"Abaxx Technologies Inc. 100%","e":""},"geometry":{"type":"Polygon","coordinates":[[[-67.975,55.76667],[-67.96667,55.76667],[-67.96667,55.75833],[-67.975,55.75833],[-67.975,55.76667]]]}},{"type":"Feature","properties":{"c":"CDC-2097307","o":"Abaxx Technologies Inc. 100%","e":""},"geometry":{"type":"Polygon","coordinates":[[[-67.975,55.75833],[-67.96667,55.75833],[-67.96667,55.75],[-67.975,55.75],[-67.975,55.75833]]]}},{"type":"Feature","properties":{"c":"CDC-2245413","o":"Abaxx Technologies Inc. 100%","e":""},"geometry":{"type":"Polygon","coordinates":[[[-67.96667,55.78333],[-67.95833,55.78333],[-67.95833,55.775],[-67.96667,55.775],[-67.96667,55.78333]]]}},{"type":"Feature","properties":{"c":"CDC-2245410","o":"Abaxx Technologies Inc. 100%","e":""},"geometry":{"type":"Polygon","coordinates":[[[-67.96667,55.775],[-67.95833,55.775],[-67.95833,55.76667],[-67.96667,55.76667],[-67.96667,55.775]]]}},{"type":"Feature","properties":{"c":"CDC-2245407","o":"Abaxx Technologies Inc. 100%","e":""},"geometry":{"type":"Polygon","coordinates":[[[-67.96667,55.76667],[-67.95833,55.76667],[-67.95833,55.75833],[-67.96667,55.75833],[-67.96667,55.76667]]]}},{"type":"Feature","properties":{"c":"CDC-2097309","o":"Abaxx Technologies Inc. 100%","e":""},"geometry":{"type":"Polygon","coordinates":[[[-67.96667,55.75833],[-67.95833,55.75833],[-67.95833,55.75],[-67.96667,55.75],[-67.96667,55.75833]]]}},{"type":"Feature","properties":{"c":"CDC-2858200","o":"Cibles\u00a0Mini\u00e8res Critiques inc. 50%","e":""},"geometry":{"type":"Polygon","coordinates":[[[-68.0,55.96667],[-67.99167,55.96667],[-67.99167,55.95833],[-68.0,55.95833],[-68.0,55.96667]]]}},{"type":"Feature","properties":{"c":"CDC-2858201","o":"Cibles\u00a0Mini\u00e8res Critiques inc. 50%","e":""},"geometry":{"type":"Polygon","coordinates":[[[-67.99167,55.96667],[-67.98333,55.96667],[-67.98333,55.95833],[-67.99167,55.95833],[-67.99167,55.96667]]]}},{"type":"Feature","properties":{"c":"CDC-2853773","o":"Exploration Midland inc. 50%","e":""},"geometry":{"type":"Polygon","coordinates":[[[-67.98333,55.96667],[-67.975,55.96667],[-67.975,55.95833],[-67.98333,55.95833],[-67.98333,55.96667]]]}},{"type":"Feature","properties":{"c":"CDC-2853774","o":"Exploration Midland inc. 50%","e":""},"geometry":{"type":"Polygon","coordinates":[[[-67.975,55.96667],[-67.96667,55.96667],[-67.96667,55.95833],[-67.975,55.95833],[-67.975,55.96667]]]}},{"type":"Feature","properties":{"c":"CDC-2853775","o":"Exploration Midland inc. 50%","e":""},"geometry":{"type":"Polygon","coordinates":[[[-67.96667,55.96667],[-67.95833,55.96667],[-67.95833,55.95833],[-67.96667,55.95833],[-67.96667,55.96667]]]}},{"type":"Feature","properties":{"c":"CDC-2858190","o":"Cibles\u00a0Mini\u00e8res Critiques inc. 50%","e":""},"geometry":{"type":"Polygon","coordinates":[[[-68.00833,55.975],[-68.0,55.975],[-68.0,55.96667],[-68.00833,55.96667],[-68.00833,55.975]]]}},{"type":"Feature","properties":{"c":"CDC-2858202","o":"Cibles\u00a0Mini\u00e8res Critiques inc. 50%","e":""},"geometry":{"type":"Polygon","coordinates":[[[-68.0,55.975],[-67.99167,55.975],[-67.99167,55.96667],[-68.0,55.96667],[-68.0,55.975]]]}},{"type":"Feature","properties":{"c":"CDC-2858203","o":"Cibles\u00a0Mini\u00e8res Critiques inc. 50%","e":""},"geometry":{"type":"Polygon","coordinates":[[[-67.99167,55.975],[-67.98333,55.975],[-67.98333,55.96667],[-67.99167,55.96667],[-67.99167,55.975]]]}},{"type":"Feature","properties":{"c":"CDC-2853782","o":"Exploration Midland inc. 50%","e":""},"geometry":{"type":"Polygon","coordinates":[[[-67.98333,55.975],[-67.975,55.975],[-67.975,55.96667],[-67.98333,55.96667],[-67.98333,55.975]]]}},{"type":"Feature","properties":{"c":"CDC-2853783","o":"Exploration Midland inc. 50%","e":""},"geometry":{"type":"Polygon","coordinates":[[[-67.975,55.975],[-67.96667,55.975],[-67.96667,55.96667],[-67.975,55.96667],[-67.975,55.975]]]}},{"type":"Feature","properties":{"c":"CDC-2853784","o":"Exploration Midland inc. 50%","e":""},"geometry":{"type":"Polygon","coordinates":[[[-67.96667,55.975],[-67.95833,55.975],[-67.95833,55.96667],[-67.96667,55.96667],[-67.96667,55.975]]]}},{"type":"Feature","properties":{"c":"CDC-2858193","o":"Cibles\u00a0Mini\u00e8res Critiques inc. 50%","e":""},"geometry":{"type":"Polygon","coordinates":[[[-68.00833,55.98333],[-68.0,55.98333],[-68.0,55.975],[-68.00833,55.975],[-68.00833,55.98333]]]}},{"type":"Feature","properties":{"c":"CDC-2858204","o":"Cibles\u00a0Mini\u00e8res Critiques inc. 50%","e":""},"geometry":{"type":"Polygon","coordinates":[[[-68.0,55.98333],[-67.99167,55.98333],[-67.99167,55.975],[-68.0,55.975],[-68.0,55.98333]]]}},{"type":"Feature","properties":{"c":"CDC-2858205","o":"Cibles\u00a0Mini\u00e8res Critiques inc. 50%","e":""},"geometry":{"type":"Polygon","coordinates":[[[-67.99167,55.98333],[-67.98333,55.98333],[-67.98333,55.975],[-67.99167,55.975],[-67.99167,55.98333]]]}},{"type":"Feature","properties":{"c":"CDC-2858206","o":"Cibles\u00a0Mini\u00e8res Critiques inc. 50%","e":""},"geometry":{"type":"Polygon","coordinates":[[[-67.98333,55.98333],[-67.975,55.98333],[-67.975,55.975],[-67.98333,55.975],[-67.98333,55.98333]]]}},{"type":"Feature","properties":{"c":"CDC-2858207","o":"Cibles\u00a0Mini\u00e8res Critiques inc. 50%","e":""},"geometry":{"type":"Polygon","coordinates":[[[-67.975,55.98333],[-67.96667,55.98333],[-67.96667,55.975],[-67.975,55.975],[-67.975,55.98333]]]}},{"type":"Feature","properties":{"c":"CDC-2858208","o":"Cibles\u00a0Mini\u00e8res Critiques inc. 50%","e":""},"geometry":{"type":"Polygon","coordinates":[[[-67.96667,55.98333],[-67.95833,55.98333],[-67.95833,55.975],[-67.96667,55.975],[-67.96667,55.98333]]]}},{"type":"Feature","properties":{"c":"CDC-2858196","o":"Cibles\u00a0Mini\u00e8res Critiques inc. 50%","e":""},"geometry":{"type":"Polygon","coordinates":[[[-68.00833,55.99167],[-68.0,55.99167],[-68.0,55.98333],[-68.00833,55.98333],[-68.00833,55.99167]]]}},{"type":"Feature","properties":{"c":"CDC-2858213","o":"Cibles\u00a0Mini\u00e8res Critiques inc. 50%","e":""},"geometry":{"type":"Polygon","coordinates":[[[-68.0,55.99167],[-67.99167,55.99167],[-67.99167,55.98333],[-68.0,55.98333],[-68.0,55.99167]]]}},{"type":"Feature","properties":{"c":"CDC-2858214","o":"Cibles\u00a0Mini\u00e8res Critiques inc. 50%","e":""},"geometry":{"type":"Polygon","coordinates":[[[-67.99167,55.99167],[-67.98333,55.99167],[-67.98333,55.98333],[-67.99167,55.98333],[-67.99167,55.99167]]]}},{"type":"Feature","properties":{"c":"CDC-2858215","o":"Cibles\u00a0Mini\u00e8res Critiques inc. 50%","e":""},"geometry":{"type":"Polygon","coordinates":[[[-67.98333,55.99167],[-67.975,55.99167],[-67.975,55.98333],[-67.98333,55.98333],[-67.98333,55.99167]]]}},{"type":"Feature","properties":{"c":"CDC-2858216","o":"Cibles\u00a0Mini\u00e8res Critiques inc. 50%","e":""},"geometry":{"type":"Polygon","coordinates":[[[-67.975,55.99167],[-67.96667,55.99167],[-67.96667,55.98333],[-67.975,55.98333],[-67.975,55.99167]]]}},{"type":"Feature","properties":{"c":"CDC-2858217","o":"Cibles\u00a0Mini\u00e8res Critiques inc. 50%","e":""},"geometry":{"type":"Polygon","coordinates":[[[-67.96667,55.99167],[-67.95833,55.99167],[-67.95833,55.98333],[-67.96667,55.98333],[-67.96667,55.99167]]]}},{"type":"Feature","properties":{"c":"CDC-2858199","o":"Cibles\u00a0Mini\u00e8res Critiques inc. 50%","e":""},"geometry":{"type":"Polygon","coordinates":[[[-68.00833,56.0],[-68.0,56.0],[-68.0,55.99167],[-68.00833,55.99167],[-68.00833,56.0]]]}},{"type":"Feature","properties":{"c":"CDC-2858243","o":"Cibles\u00a0Mini\u00e8res Critiques inc. 50%","e":""},"geometry":{"type":"Polygon","coordinates":[[[-68.0,56.0],[-67.99167,56.0],[-67.99167,55.99167],[-68.0,55.99167],[-68.0,56.0]]]}},{"type":"Feature","properties":{"c":"CDC-2858244","o":"Cibles\u00a0Mini\u00e8res Critiques inc. 50%","e":""},"geometry":{"type":"Polygon","coordinates":[[[-67.99167,56.0],[-67.98333,56.0],[-67.98333,55.99167],[-67.99167,55.99167],[-67.99167,56.0]]]}},{"type":"Feature","properties":{"c":"CDC-2858245","o":"Cibles\u00a0Mini\u00e8res Critiques inc. 50%","e":""},"geometry":{"type":"Polygon","coordinates":[[[-67.98333,56.0],[-67.975,56.0],[-67.975,55.99167],[-67.98333,55.99167],[-67.98333,56.0]]]}},{"type":"Feature","properties":{"c":"CDC-2858221","o":"Cibles\u00a0Mini\u00e8res Critiques inc. 50%","e":""},"geometry":{"type":"Polygon","coordinates":[[[-67.975,56.0],[-67.96667,56.0],[-67.96667,55.99167],[-67.975,55.99167],[-67.975,56.0]]]}},{"type":"Feature","properties":{"c":"CDC-2858222","o":"Cibles\u00a0Mini\u00e8res Critiques inc. 50%","e":""},"geometry":{"type":"Polygon","coordinates":[[[-67.96667,56.0],[-67.95833,56.0],[-67.95833,55.99167],[-67.96667,55.99167],[-67.96667,56.0]]]}},{"type":"Feature","properties":{"c":"CDC-2858148","o":"Wayne E Holmstead 20%","e":""},"geometry":{"type":"Polygon","coordinates":[[[-68.00833,55.94167],[-68.0,55.94167],[-68.0,55.93333],[-68.00833,55.93333],[-68.00833,55.94167]]]}},{"type":"Feature","properties":{"c":"CDC-2858141","o":"Wayne E Holmstead 20%","e":""},"geometry":{"type":"Polygon","coordinates":[[[-68.00833,55.93333],[-68.0,55.93333],[-68.0,55.925],[-68.00833,55.925],[-68.00833,55.93333]]]}},{"type":"Feature","properties":{"c":"CDC-2858136","o":"Wayne E Holmstead 20%","e":""},"geometry":{"type":"Polygon","coordinates":[[[-68.00833,55.925],[-68.0,55.925],[-68.0,55.91667],[-68.00833,55.91667],[-68.00833,55.925]]]}},{"type":"Feature","properties":{"c":"CDC-2858131","o":"Wayne E Holmstead 20%","e":""},"geometry":{"type":"Polygon","coordinates":[[[-68.00833,55.91667],[-68.0,55.91667],[-68.0,55.90833],[-68.00833,55.90833],[-68.00833,55.91667]]]}},{"type":"Feature","properties":{"c":"CDC-2858126","o":"Wayne E Holmstead 20%","e":""},"geometry":{"type":"Polygon","coordinates":[[[-68.00833,55.90833],[-68.0,55.90833],[-68.0,55.9],[-68.00833,55.9],[-68.00833,55.90833]]]}},{"type":"Feature","properties":{"c":"CDC-2858178","o":"Wayne E Holmstead 20%","e":""},"geometry":{"type":"Polygon","coordinates":[[[-68.0,55.94167],[-67.99167,55.94167],[-67.99167,55.93333],[-68.0,55.93333],[-68.0,55.94167]]]}},{"type":"Feature","properties":{"c":"CDC-2858167","o":"Wayne E Holmstead 20%","e":""},"geometry":{"type":"Polygon","coordinates":[[[-68.0,55.93333],[-67.99167,55.93333],[-67.99167,55.925],[-68.0,55.925],[-68.0,55.93333]]]}},{"type":"Feature","properties":{"c":"CDC-2858156","o":"Wayne E Holmstead 20%","e":""},"geometry":{"type":"Polygon","coordinates":[[[-68.0,55.925],[-67.99167,55.925],[-67.99167,55.91667],[-68.0,55.91667],[-68.0,55.925]]]}},{"type":"Feature","properties":{"c":"CDC-2858149","o":"Wayne E Holmstead 20%","e":""},"geometry":{"type":"Polygon","coordinates":[[[-68.0,55.91667],[-67.99167,55.91667],[-67.99167,55.90833],[-68.0,55.90833],[-68.0,55.91667]]]}},{"type":"Feature","properties":{"c":"CDC-2097224","o":"Abaxx Technologies Inc. 100%","e":""},"geometry":{"type":"Polygon","coordinates":[[[-68.00833,55.79167],[-68.0,55.79167],[-68.0,55.78333],[-68.00833,55.78333],[-68.00833,55.79167]]]}},{"type":"Feature","properties":{"c":"CDC-2097216","o":"Abaxx Technologies Inc. 100%","e":""},"geometry":{"type":"Polygon","coordinates":[[[-68.00833,55.78333],[-68.0,55.78333],[-68.0,55.775],[-68.00833,55.775],[-68.00833,55.78333]]]}},{"type":"Feature","properties":{"c":"CDC-2098236","o":"Abaxx Technologies Inc. 100%","e":""},"geometry":{"type":"Polygon","coordinates":[[[-67.99167,55.725],[-67.98333,55.725],[-67.98333,55.71667],[-67.99167,55.71667],[-67.99167,55.725]]]}},{"type":"Feature","properties":{"c":"CDC-2098237","o":"Abaxx Technologies Inc. 100%","e":""},"geometry":{"type":"Polygon","coordinates":[[[-67.98333,55.725],[-67.975,55.725],[-67.975,55.71667],[-67.98333,55.71667],[-67.98333,55.725]]]}},{"type":"Feature","properties":{"c":"CDC-2098238","o":"Abaxx Technologies Inc. 100%","e":""},"geometry":{"type":"Polygon","coordinates":[[[-67.975,55.725],[-67.96667,55.725],[-67.96667,55.71667],[-67.975,55.71667],[-67.975,55.725]]]}},{"type":"Feature","properties":{"c":"CDC-2098239","o":"Abaxx Technologies Inc. 100%","e":""},"geometry":{"type":"Polygon","coordinates":[[[-67.96667,55.725],[-67.95833,55.725],[-67.95833,55.71667],[-67.96667,55.71667],[-67.96667,55.725]]]}},{"type":"Feature","properties":{"c":"CDC-2098240","o":"Abaxx Technologies Inc. 100%","e":""},"geometry":{"type":"Polygon","coordinates":[[[-67.95833,55.725],[-67.95,55.725],[-67.95,55.71667],[-67.95833,55.71667],[-67.95833,55.725]]]}},{"type":"Feature","properties":{"c":"CDC-2098242","o":"Abaxx Technologies Inc. 100%","e":""},"geometry":{"type":"Polygon","coordinates":[[[-68.0,55.73333],[-67.99167,55.73333],[-67.99167,55.725],[-68.0,55.725],[-68.0,55.73333]]]}},{"type":"Feature","properties":{"c":"CDC-2098243","o":"Abaxx Technologies Inc. 100%","e":""},"geometry":{"type":"Polygon","coordinates":[[[-67.99167,55.73333],[-67.98333,55.73333],[-67.98333,55.725],[-67.99167,55.725],[-67.99167,55.73333]]]}},{"type":"Feature","properties":{"c":"CDC-2098244","o":"Abaxx Technologies Inc. 100%","e":""},"geometry":{"type":"Polygon","coordinates":[[[-67.98333,55.73333],[-67.975,55.73333],[-67.975,55.725],[-67.98333,55.725],[-67.98333,55.73333]]]}},{"type":"Feature","properties":{"c":"CDC-2098245","o":"Abaxx Technologies Inc. 100%","e":""},"geometry":{"type":"Polygon","coordinates":[[[-67.975,55.73333],[-67.96667,55.73333],[-67.96667,55.725],[-67.975,55.725],[-67.975,55.73333]]]}},{"type":"Feature","properties":{"c":"CDC-2098246","o":"Abaxx Technologies Inc. 100%","e":""},"geometry":{"type":"Polygon","coordinates":[[[-67.96667,55.73333],[-67.95833,55.73333],[-67.95833,55.725],[-67.96667,55.725],[-67.96667,55.73333]]]}},{"type":"Feature","properties":{"c":"CDC-2098247","o":"Abaxx Technologies Inc. 100%","e":""},"geometry":{"type":"Polygon","coordinates":[[[-67.95833,55.73333],[-67.95,55.73333],[-67.95,55.725],[-67.95833,55.725],[-67.95833,55.73333]]]}},{"type":"Feature","properties":{"c":"CDC-2098150","o":"Abaxx Technologies Inc. 100%","e":""},"geometry":{"type":"Polygon","coordinates":[[[-68.00833,55.74167],[-68.0,55.74167],[-68.0,55.73333],[-68.00833,55.73333],[-68.00833,55.74167]]]}},{"type":"Feature","properties":{"c":"CDC-2098248","o":"Abaxx Technologies Inc. 100%","e":""},"geometry":{"type":"Polygon","coordinates":[[[-68.0,55.74167],[-67.99167,55.74167],[-67.99167,55.73333],[-68.0,55.73333],[-68.0,55.74167]]]}},{"type":"Feature","properties":{"c":"CDC-2098249","o":"Abaxx Technologies Inc. 100%","e":""},"geometry":{"type":"Polygon","coordinates":[[[-67.99167,55.74167],[-67.98333,55.74167],[-67.98333,55.73333],[-67.99167,55.73333],[-67.99167,55.74167]]]}},{"type":"Feature","properties":{"c":"CDC-2098250","o":"Abaxx Technologies Inc. 100%","e":""},"geometry":{"type":"Polygon","coordinates":[[[-67.98333,55.74167],[-67.975,55.74167],[-67.975,55.73333],[-67.98333,55.73333],[-67.98333,55.74167]]]}},{"type":"Feature","properties":{"c":"CDC-2098251","o":"Abaxx Technologies Inc. 100%","e":""},"geometry":{"type":"Polygon","coordinates":[[[-67.975,55.74167],[-67.96667,55.74167],[-67.96667,55.73333],[-67.975,55.73333],[-67.975,55.74167]]]}},{"type":"Feature","properties":{"c":"CDC-2098252","o":"Abaxx Technologies Inc. 100%","e":""},"geometry":{"type":"Polygon","coordinates":[[[-67.96667,55.74167],[-67.95833,55.74167],[-67.95833,55.73333],[-67.96667,55.73333],[-67.96667,55.74167]]]}},{"type":"Feature","properties":{"c":"CDC-2098154","o":"Abaxx Technologies Inc. 100%","e":""},"geometry":{"type":"Polygon","coordinates":[[[-68.00833,55.75],[-68.0,55.75],[-68.0,55.74167],[-68.00833,55.74167],[-68.00833,55.75]]]}},{"type":"Feature","properties":{"c":"CDC-2098254","o":"Abaxx Technologies Inc. 100%","e":""},"geometry":{"type":"Polygon","coordinates":[[[-68.0,55.75],[-67.99167,55.75],[-67.99167,55.74167],[-68.0,55.74167],[-68.0,55.75]]]}},{"type":"Feature","properties":{"c":"CDC-2098255","o":"Abaxx Technologies Inc. 100%","e":""},"geometry":{"type":"Polygon","coordinates":[[[-67.99167,55.75],[-67.98333,55.75],[-67.98333,55.74167],[-67.99167,55.74167],[-67.99167,55.75]]]}},{"type":"Feature","properties":{"c":"CDC-2098258","o":"Abaxx Technologies Inc. 100%","e":""},"geometry":{"type":"Polygon","coordinates":[[[-67.98333,55.75],[-67.975,55.75],[-67.975,55.74167],[-67.98333,55.74167],[-67.98333,55.75]]]}},{"type":"Feature","properties":{"c":"CDC-2098259","o":"Abaxx Technologies Inc. 100%","e":""},"geometry":{"type":"Polygon","coordinates":[[[-67.975,55.75],[-67.96667,55.75],[-67.96667,55.74167],[-67.975,55.74167],[-67.975,55.75]]]}},{"type":"Feature","properties":{"c":"CDC-2098261","o":"Abaxx Technologies Inc. 100%","e":""},"geometry":{"type":"Polygon","coordinates":[[[-67.96667,55.75],[-67.95833,55.75],[-67.95833,55.74167],[-67.96667,55.74167],[-67.96667,55.75]]]}},{"type":"Feature","properties":{"c":"CDC-2799852","o":"Simon Dahrouge 100%","e":""},"geometry":{"type":"Polygon","coordinates":[[[-67.81667,55.5],[-67.80833,55.5],[-67.80833,55.49167],[-67.81667,55.49167],[-67.81667,55.5]]]}},{"type":"Feature","properties":{"c":"CDC-2729389","o":"St\u00e9phanie Marceau Deschesnes 100%","e":""},"geometry":{"type":"Polygon","coordinates":[[[-67.80833,55.5],[-67.8,55.5],[-67.8,55.49167],[-67.80833,55.49167],[-67.80833,55.5]]]}},{"type":"Feature","properties":{"c":"CDC-2799853","o":"Simon Dahrouge 100%","e":""},"geometry":{"type":"Polygon","coordinates":[[[-67.8,55.5],[-67.79167,55.5],[-67.79167,55.49167],[-67.8,55.49167],[-67.8,55.5]]]}},{"type":"Feature","properties":{"c":"CDC-2799854","o":"Simon Dahrouge 100%","e":""},"geometry":{"type":"Polygon","coordinates":[[[-67.79167,55.5],[-67.78333,55.5],[-67.78333,55.49167],[-67.79167,55.49167],[-67.79167,55.5]]]}},{"type":"Feature","properties":{"c":"CDC-2799855","o":"Simon Dahrouge 100%","e":""},"geometry":{"type":"Polygon","coordinates":[[[-67.78333,55.5],[-67.775,55.5],[-67.775,55.49167],[-67.78333,55.49167],[-67.78333,55.5]]]}},{"type":"Feature","properties":{"c":"CDC-2799856","o":"Simon Dahrouge 100%","e":""},"geometry":{"type":"Polygon","coordinates":[[[-67.775,55.5],[-67.76667,55.5],[-67.76667,55.49167],[-67.775,55.49167],[-67.775,55.5]]]}},{"type":"Feature","properties":{"c":"CDC-2799857","o":"Simon Dahrouge 100%","e":""},"geometry":{"type":"Polygon","coordinates":[[[-67.76667,55.5],[-67.75833,55.5],[-67.75833,55.49167],[-67.76667,55.49167],[-67.76667,55.5]]]}},{"type":"Feature","properties":{"c":"CDC-2799858","o":"Simon Dahrouge 100%","e":""},"geometry":{"type":"Polygon","coordinates":[[[-67.75833,55.5],[-67.75,55.5],[-67.75,55.49167],[-67.75833,55.49167],[-67.75833,55.5]]]}},{"type":"Feature","properties":{"c":"CDC-2729392","o":"St\u00e9phanie Marceau Deschesnes 100%","e":""},"geometry":{"type":"Polygon","coordinates":[[[-67.81667,55.50833],[-67.80833,55.50833],[-67.80833,55.5],[-67.81667,55.5],[-67.81667,55.50833]]]}},{"type":"Feature","properties":{"c":"CDC-2729393","o":"St\u00e9phanie Marceau Deschesnes 100%","e":""},"geometry":{"type":"Polygon","coordinates":[[[-67.80833,55.50833],[-67.8,55.50833],[-67.8,55.5],[-67.80833,55.5],[-67.80833,55.50833]]]}},{"type":"Feature","properties":{"c":"CDC-2799859","o":"Simon Dahrouge 100%","e":""},"geometry":{"type":"Polygon","coordinates":[[[-67.8,55.50833],[-67.79167,55.50833],[-67.79167,55.5],[-67.8,55.5],[-67.8,55.50833]]]}},{"type":"Feature","properties":{"c":"CDC-2799860","o":"Simon Dahrouge 100%","e":""},"geometry":{"type":"Polygon","coordinates":[[[-67.79167,55.50833],[-67.78333,55.50833],[-67.78333,55.5],[-67.79167,55.5],[-67.79167,55.50833]]]}},{"type":"Feature","properties":{"c":"CDC-2799861","o":"Simon Dahrouge 100%","e":""},"geometry":{"type":"Polygon","coordinates":[[[-67.78333,55.50833],[-67.775,55.50833],[-67.775,55.5],[-67.78333,55.5],[-67.78333,55.50833]]]}},{"type":"Feature","properties":{"c":"CDC-2729394","o":"St\u00e9phanie Marceau Deschesnes 100%","e":""},"geometry":{"type":"Polygon","coordinates":[[[-67.775,55.50833],[-67.76667,55.50833],[-67.76667,55.5],[-67.775,55.5],[-67.775,55.50833]]]}},{"type":"Feature","properties":{"c":"CDC-2799862","o":"Simon Dahrouge 100%","e":""},"geometry":{"type":"Polygon","coordinates":[[[-67.76667,55.50833],[-67.75833,55.50833],[-67.75833,55.5],[-67.76667,55.5],[-67.76667,55.50833]]]}},{"type":"Feature","properties":{"c":"CDC-2729395","o":"St\u00e9phanie Marceau Deschesnes 100%","e":""},"geometry":{"type":"Polygon","coordinates":[[[-67.81667,55.51667],[-67.80833,55.51667],[-67.80833,55.50833],[-67.81667,55.50833],[-67.81667,55.51667]]]}},{"type":"Feature","properties":{"c":"CDC-2799863","o":"Simon Dahrouge 100%","e":""},"geometry":{"type":"Polygon","coordinates":[[[-67.80833,55.51667],[-67.8,55.51667],[-67.8,55.50833],[-67.80833,55.50833],[-67.80833,55.51667]]]}},{"type":"Feature","properties":{"c":"CDC-2799864","o":"Simon Dahrouge 100%","e":""},"geometry":{"type":"Polygon","coordinates":[[[-67.8,55.51667],[-67.79167,55.51667],[-67.79167,55.50833],[-67.8,55.50833],[-67.8,55.51667]]]}},{"type":"Feature","properties":{"c":"CDC-2799865","o":"Simon Dahrouge 100%","e":""},"geometry":{"type":"Polygon","coordinates":[[[-67.79167,55.51667],[-67.78333,55.51667],[-67.78333,55.50833],[-67.79167,55.50833],[-67.79167,55.51667]]]}},{"type":"Feature","properties":{"c":"CDC-2799866","o":"Simon Dahrouge 100%","e":""},"geometry":{"type":"Polygon","coordinates":[[[-67.78333,55.51667],[-67.775,55.51667],[-67.775,55.50833],[-67.78333,55.50833],[-67.78333,55.51667]]]}},{"type":"Feature","properties":{"c":"CDC-2799867","o":"Simon Dahrouge 100%","e":""},"geometry":{"type":"Polygon","coordinates":[[[-67.825,55.525],[-67.81667,55.525],[-67.81667,55.51667],[-67.825,55.51667],[-67.825,55.525]]]}},{"type":"Feature","properties":{"c":"CDC-2799868","o":"Simon Dahrouge 100%","e":""},"geometry":{"type":"Polygon","coordinates":[[[-67.81667,55.525],[-67.80833,55.525],[-67.80833,55.51667],[-67.81667,55.51667],[-67.81667,55.525]]]}},{"type":"Feature","properties":{"c":"CDC-2799869","o":"Simon Dahrouge 100%","e":""},"geometry":{"type":"Polygon","coordinates":[[[-67.80833,55.525],[-67.8,55.525],[-67.8,55.51667],[-67.80833,55.51667],[-67.80833,55.525]]]}},{"type":"Feature","properties":{"c":"CDC-2799870","o":"Simon Dahrouge 100%","e":""},"geometry":{"type":"Polygon","coordinates":[[[-67.8,55.525],[-67.79167,55.525],[-67.79167,55.51667],[-67.8,55.51667],[-67.8,55.525]]]}},{"type":"Feature","properties":{"c":"CDC-2098229","o":"Abaxx Technologies Inc. 100%","e":""},"geometry":{"type":"Polygon","coordinates":[[[-67.98333,55.71667],[-67.975,55.71667],[-67.975,55.70833],[-67.98333,55.70833],[-67.98333,55.71667]]]}},{"type":"Feature","properties":{"c":"CDC-2098230","o":"Abaxx Technologies Inc. 100%","e":""},"geometry":{"type":"Polygon","coordinates":[[[-67.975,55.71667],[-67.96667,55.71667],[-67.96667,55.70833],[-67.975,55.70833],[-67.975,55.71667]]]}}]}