{"type":"FeatureCollection","features":[{"type":"Feature","properties":{"c":"CDC-2516464","o":"Fonds d'Exploration Mini\u00e8re du Nunavik 50%","e":""},"geometry":{"type":"Polygon","coordinates":[[[-67.65833,57.86667],[-67.65,57.86667],[-67.65,57.85833],[-67.65833,57.85833],[-67.65833,57.86667]]]}},{"type":"Feature","properties":{"c":"CDC-2516459","o":"Fonds d'Exploration Mini\u00e8re du Nunavik 50%","e":""},"geometry":{"type":"Polygon","coordinates":[[[-67.65833,57.85833],[-67.65,57.85833],[-67.65,57.85],[-67.65833,57.85],[-67.65833,57.85833]]]}},{"type":"Feature","properties":{"c":"CDC-2516458","o":"Fonds d'Exploration Mini\u00e8re du Nunavik 50%","e":""},"geometry":{"type":"Polygon","coordinates":[[[-67.65833,57.85],[-67.65,57.85],[-67.65,57.84167],[-67.65833,57.84167],[-67.65833,57.85]]]}},{"type":"Feature","properties":{"c":"CDC-2516465","o":"Fonds d'Exploration Mini\u00e8re du Nunavik 50%","e":""},"geometry":{"type":"Polygon","coordinates":[[[-67.65,57.86667],[-67.64167,57.86667],[-67.64167,57.85833],[-67.65,57.85833],[-67.65,57.86667]]]}},{"type":"Feature","properties":{"c":"CDC-2516460","o":"Fonds d'Exploration Mini\u00e8re du Nunavik 50%","e":""},"geometry":{"type":"Polygon","coordinates":[[[-67.65,57.85833],[-67.64167,57.85833],[-67.64167,57.85],[-67.65,57.85],[-67.65,57.85833]]]}},{"type":"Feature","properties":{"c":"CDC-2516466","o":"Fonds d'Exploration Mini\u00e8re du Nunavik 50%","e":""},"geometry":{"type":"Polygon","coordinates":[[[-67.64167,57.86667],[-67.63333,57.86667],[-67.63333,57.85833],[-67.64167,57.85833],[-67.64167,57.86667]]]}},{"type":"Feature","properties":{"c":"CDC-2516461","o":"Fonds d'Exploration Mini\u00e8re du Nunavik 50%","e":""},"geometry":{"type":"Polygon","coordinates":[[[-67.64167,57.85833],[-67.63333,57.85833],[-67.63333,57.85],[-67.64167,57.85],[-67.64167,57.85833]]]}},{"type":"Feature","properties":{"c":"CDC-2516467","o":"Fonds d'Exploration Mini\u00e8re du Nunavik 50%","e":""},"geometry":{"type":"Polygon","coordinates":[[[-67.63333,57.86667],[-67.625,57.86667],[-67.625,57.85833],[-67.63333,57.85833],[-67.63333,57.86667]]]}},{"type":"Feature","properties":{"c":"CDC-2516462","o":"Fonds d'Exploration Mini\u00e8re du Nunavik 50%","e":""},"geometry":{"type":"Polygon","coordinates":[[[-67.63333,57.85833],[-67.625,57.85833],[-67.625,57.85],[-67.63333,57.85],[-67.63333,57.85833]]]}},{"type":"Feature","properties":{"c":"CDC-2516463","o":"Fonds d'Exploration Mini\u00e8re du Nunavik 50%","e":""},"geometry":{"type":"Polygon","coordinates":[[[-67.625,57.85833],[-67.61667,57.85833],[-67.61667,57.85],[-67.625,57.85],[-67.625,57.85833]]]}}]}