{"type":"FeatureCollection","features":[{"type":"Feature","properties":{"c":"CDC-2870030","o":"Bertrand Brassard 100%","e":""},"geometry":{"type":"Polygon","coordinates":[[[-67.61667,54.93333],[-67.60833,54.93333],[-67.60833,54.925],[-67.61667,54.925],[-67.61667,54.93333]]]}},{"type":"Feature","properties":{"c":"CDC-2870031","o":"Bertrand Brassard 100%","e":""},"geometry":{"type":"Polygon","coordinates":[[[-67.60833,54.93333],[-67.6,54.93333],[-67.6,54.925],[-67.60833,54.925],[-67.60833,54.93333]]]}},{"type":"Feature","properties":{"c":"CDC-2870032","o":"Bertrand Brassard 100%","e":""},"geometry":{"type":"Polygon","coordinates":[[[-67.6,54.93333],[-67.59167,54.93333],[-67.59167,54.925],[-67.6,54.925],[-67.6,54.93333]]]}}]}