{"type":"FeatureCollection","features":[{"type":"Feature","properties":{"c":"CDC-2871265","o":"St\u00e9phanie Marceau Deschesnes 100%","e":""},"geometry":{"type":"Polygon","coordinates":[[[-68.325,57.91667],[-68.31667,57.91667],[-68.31667,57.90833],[-68.325,57.90833],[-68.325,57.91667]]]}},{"type":"Feature","properties":{"c":"CDC-2871267","o":"St\u00e9phanie Marceau Deschesnes 100%","e":""},"geometry":{"type":"Polygon","coordinates":[[[-68.34167,57.94167],[-68.33333,57.94167],[-68.33333,57.93333],[-68.34167,57.93333],[-68.34167,57.94167]]]}},{"type":"Feature","properties":{"c":"CDC-2871268","o":"St\u00e9phanie Marceau Deschesnes 100%","e":""},"geometry":{"type":"Polygon","coordinates":[[[-68.33333,57.94167],[-68.325,57.94167],[-68.325,57.93333],[-68.33333,57.93333],[-68.33333,57.94167]]]}},{"type":"Feature","properties":{"c":"CDC-2871269","o":"St\u00e9phanie Marceau Deschesnes 100%","e":""},"geometry":{"type":"Polygon","coordinates":[[[-68.29167,57.95],[-68.28333,57.95],[-68.28333,57.94167],[-68.29167,57.94167],[-68.29167,57.95]]]}},{"type":"Feature","properties":{"c":"CDC-2871261","o":"St\u00e9phanie Marceau Deschesnes 100%","e":""},"geometry":{"type":"Polygon","coordinates":[[[-68.39167,57.90833],[-68.38333,57.90833],[-68.38333,57.9],[-68.39167,57.9],[-68.39167,57.90833]]]}},{"type":"Feature","properties":{"c":"CDC-2871262","o":"St\u00e9phanie Marceau Deschesnes 100%","e":""},"geometry":{"type":"Polygon","coordinates":[[[-68.38333,57.90833],[-68.375,57.90833],[-68.375,57.9],[-68.38333,57.9],[-68.38333,57.90833]]]}},{"type":"Feature","properties":{"c":"CDC-2871263","o":"St\u00e9phanie Marceau Deschesnes 100%","e":""},"geometry":{"type":"Polygon","coordinates":[[[-68.39167,57.91667],[-68.38333,57.91667],[-68.38333,57.90833],[-68.39167,57.90833],[-68.39167,57.91667]]]}},{"type":"Feature","properties":{"c":"CDC-2871264","o":"St\u00e9phanie Marceau Deschesnes 100%","e":""},"geometry":{"type":"Polygon","coordinates":[[[-68.33333,57.91667],[-68.325,57.91667],[-68.325,57.90833],[-68.33333,57.90833],[-68.33333,57.91667]]]}},{"type":"Feature","properties":{"c":"CDC-2802328","o":"NQC Lithium Corp. 100%","e":""},"geometry":{"type":"Polygon","coordinates":[[[-68.46667,57.5],[-68.45833,57.5],[-68.45833,57.49167],[-68.46667,57.49167],[-68.46667,57.5]]]}},{"type":"Feature","properties":{"c":"CDC-2802329","o":"NQC Lithium Corp. 100%","e":""},"geometry":{"type":"Polygon","coordinates":[[[-68.45833,57.50833],[-68.45,57.50833],[-68.45,57.5],[-68.45833,57.5],[-68.45833,57.50833]]]}},{"type":"Feature","properties":{"c":"CDC-2802380","o":"NQC Lithium Corp. 100%","e":""},"geometry":{"type":"Polygon","coordinates":[[[-68.45,57.50833],[-68.44167,57.50833],[-68.44167,57.5],[-68.45,57.5],[-68.45,57.50833]]]}},{"type":"Feature","properties":{"c":"CDC-2871266","o":"St\u00e9phanie Marceau Deschesnes 100%","e":""},"geometry":{"type":"Polygon","coordinates":[[[-68.125,57.925],[-68.11667,57.925],[-68.11667,57.91667],[-68.125,57.91667],[-68.125,57.925]]]}}]}