{"type":"FeatureCollection","features":[{"type":"Feature","properties":{"c":"CDC-2129721","o":"Electric Elements Mining Corp. 100%","e":""},"geometry":{"type":"Polygon","coordinates":[[[-69.50833,54.00833],[-69.5,54.00833],[-69.5,54.0],[-69.50833,54.0],[-69.50833,54.00833]]]}},{"type":"Feature","properties":{"c":"CDC-2129687","o":"Electric Elements Mining Corp. 100%","e":""},"geometry":{"type":"Polygon","coordinates":[[[-69.46667,54.01667],[-69.45833,54.01667],[-69.45833,54.00833],[-69.46667,54.00833],[-69.46667,54.01667]]]}},{"type":"Feature","properties":{"c":"CDC-2129685","o":"Electric Elements Mining Corp. 100%","e":""},"geometry":{"type":"Polygon","coordinates":[[[-69.475,54.01667],[-69.46667,54.01667],[-69.46667,54.00833],[-69.475,54.00833],[-69.475,54.01667]]]}},{"type":"Feature","properties":{"c":"CDC-2129683","o":"Electric Elements Mining Corp. 100%","e":""},"geometry":{"type":"Polygon","coordinates":[[[-69.48333,54.01667],[-69.475,54.01667],[-69.475,54.00833],[-69.48333,54.00833],[-69.48333,54.01667]]]}},{"type":"Feature","properties":{"c":"CDC-2129681","o":"Electric Elements Mining Corp. 100%","e":""},"geometry":{"type":"Polygon","coordinates":[[[-69.49167,54.01667],[-69.48333,54.01667],[-69.48333,54.00833],[-69.49167,54.00833],[-69.49167,54.01667]]]}},{"type":"Feature","properties":{"c":"CDC-2129679","o":"Electric Elements Mining Corp. 100%","e":""},"geometry":{"type":"Polygon","coordinates":[[[-69.5,54.01667],[-69.49167,54.01667],[-69.49167,54.00833],[-69.5,54.00833],[-69.5,54.01667]]]}},{"type":"Feature","properties":{"c":"CDC-2129727","o":"Electric Elements Mining Corp. 100%","e":""},"geometry":{"type":"Polygon","coordinates":[[[-69.50833,54.01667],[-69.5,54.01667],[-69.5,54.00833],[-69.50833,54.00833],[-69.50833,54.01667]]]}},{"type":"Feature","properties":{"c":"CDC-2129705","o":"Electric Elements Mining Corp. 100%","e":""},"geometry":{"type":"Polygon","coordinates":[[[-69.46667,54.025],[-69.45833,54.025],[-69.45833,54.01667],[-69.46667,54.01667],[-69.46667,54.025]]]}},{"type":"Feature","properties":{"c":"CDC-2129704","o":"Electric Elements Mining Corp. 100%","e":""},"geometry":{"type":"Polygon","coordinates":[[[-69.475,54.025],[-69.46667,54.025],[-69.46667,54.01667],[-69.475,54.01667],[-69.475,54.025]]]}},{"type":"Feature","properties":{"c":"CDC-2129703","o":"Electric Elements Mining Corp. 100%","e":""},"geometry":{"type":"Polygon","coordinates":[[[-69.48333,54.025],[-69.475,54.025],[-69.475,54.01667],[-69.48333,54.01667],[-69.48333,54.025]]]}},{"type":"Feature","properties":{"c":"CDC-2129702","o":"Electric Elements Mining Corp. 100%","e":""},"geometry":{"type":"Polygon","coordinates":[[[-69.49167,54.025],[-69.48333,54.025],[-69.48333,54.01667],[-69.49167,54.01667],[-69.49167,54.025]]]}},{"type":"Feature","properties":{"c":"CDC-2129701","o":"Electric Elements Mining Corp. 100%","e":""},"geometry":{"type":"Polygon","coordinates":[[[-69.5,54.025],[-69.49167,54.025],[-69.49167,54.01667],[-69.5,54.01667],[-69.5,54.025]]]}},{"type":"Feature","properties":{"c":"CDC-2129729","o":"Electric Elements Mining Corp. 100%","e":""},"geometry":{"type":"Polygon","coordinates":[[[-69.50833,54.025],[-69.5,54.025],[-69.5,54.01667],[-69.50833,54.01667],[-69.50833,54.025]]]}},{"type":"Feature","properties":{"c":"CDC-2129710","o":"Electric Elements Mining Corp. 100%","e":""},"geometry":{"type":"Polygon","coordinates":[[[-69.46667,54.03333],[-69.45833,54.03333],[-69.45833,54.025],[-69.46667,54.025],[-69.46667,54.03333]]]}},{"type":"Feature","properties":{"c":"CDC-2129709","o":"Electric Elements Mining Corp. 100%","e":""},"geometry":{"type":"Polygon","coordinates":[[[-69.475,54.03333],[-69.46667,54.03333],[-69.46667,54.025],[-69.475,54.025],[-69.475,54.03333]]]}},{"type":"Feature","properties":{"c":"CDC-2129708","o":"Electric Elements Mining Corp. 100%","e":""},"geometry":{"type":"Polygon","coordinates":[[[-69.48333,54.03333],[-69.475,54.03333],[-69.475,54.025],[-69.48333,54.025],[-69.48333,54.03333]]]}},{"type":"Feature","properties":{"c":"CDC-2129707","o":"Electric Elements Mining Corp. 100%","e":""},"geometry":{"type":"Polygon","coordinates":[[[-69.49167,54.03333],[-69.48333,54.03333],[-69.48333,54.025],[-69.49167,54.025],[-69.49167,54.03333]]]}},{"type":"Feature","properties":{"c":"CDC-2129706","o":"Electric Elements Mining Corp. 100%","e":""},"geometry":{"type":"Polygon","coordinates":[[[-69.5,54.03333],[-69.49167,54.03333],[-69.49167,54.025],[-69.5,54.025],[-69.5,54.03333]]]}},{"type":"Feature","properties":{"c":"CDC-2145410","o":"Electric Elements Mining Corp. 100%","e":""},"geometry":{"type":"Polygon","coordinates":[[[-69.50833,54.03333],[-69.5,54.03333],[-69.5,54.025],[-69.50833,54.025],[-69.50833,54.03333]]]}},{"type":"Feature","properties":{"c":"CDC-2129713","o":"Electric Elements Mining Corp. 100%","e":""},"geometry":{"type":"Polygon","coordinates":[[[-69.48333,54.04167],[-69.475,54.04167],[-69.475,54.03333],[-69.48333,54.03333],[-69.48333,54.04167]]]}},{"type":"Feature","properties":{"c":"CDC-2129712","o":"Electric Elements Mining Corp. 100%","e":""},"geometry":{"type":"Polygon","coordinates":[[[-69.49167,54.04167],[-69.48333,54.04167],[-69.48333,54.03333],[-69.49167,54.03333],[-69.49167,54.04167]]]}},{"type":"Feature","properties":{"c":"CDC-2129711","o":"Electric Elements Mining Corp. 100%","e":""},"geometry":{"type":"Polygon","coordinates":[[[-69.5,54.04167],[-69.49167,54.04167],[-69.49167,54.03333],[-69.5,54.03333],[-69.5,54.04167]]]}},{"type":"Feature","properties":{"c":"CDC-2145422","o":"Electric Elements Mining Corp. 100%","e":""},"geometry":{"type":"Polygon","coordinates":[[[-69.50833,54.04167],[-69.5,54.04167],[-69.5,54.03333],[-69.50833,54.03333],[-69.50833,54.04167]]]}},{"type":"Feature","properties":{"c":"CDC-2129481","o":"Electric Elements Mining Corp. 100%","e":""},"geometry":{"type":"Polygon","coordinates":[[[-69.50833,54.0],[-69.5,54.0],[-69.5,53.99167],[-69.50833,53.99167],[-69.50833,54.0]]]}},{"type":"Feature","properties":{"c":"CDC-2129574","o":"Electric Elements Mining Corp. 100%","e":""},"geometry":{"type":"Polygon","coordinates":[[[-69.5,54.0],[-69.49167,54.0],[-69.49167,53.99167],[-69.5,53.99167],[-69.5,54.0]]]}},{"type":"Feature","properties":{"c":"CDC-2129635","o":"Electric Elements Mining Corp. 100%","e":""},"geometry":{"type":"Polygon","coordinates":[[[-69.5,54.00833],[-69.49167,54.00833],[-69.49167,54.0],[-69.5,54.0],[-69.5,54.00833]]]}},{"type":"Feature","properties":{"c":"CDC-2129575","o":"Electric Elements Mining Corp. 100%","e":""},"geometry":{"type":"Polygon","coordinates":[[[-69.49167,54.0],[-69.48333,54.0],[-69.48333,53.99167],[-69.49167,53.99167],[-69.49167,54.0]]]}},{"type":"Feature","properties":{"c":"CDC-2129637","o":"Electric Elements Mining Corp. 100%","e":""},"geometry":{"type":"Polygon","coordinates":[[[-69.49167,54.00833],[-69.48333,54.00833],[-69.48333,54.0],[-69.49167,54.0],[-69.49167,54.00833]]]}},{"type":"Feature","properties":{"c":"CDC-2129576","o":"Electric Elements Mining Corp. 100%","e":""},"geometry":{"type":"Polygon","coordinates":[[[-69.48333,54.0],[-69.475,54.0],[-69.475,53.99167],[-69.48333,53.99167],[-69.48333,54.0]]]}},{"type":"Feature","properties":{"c":"CDC-2129639","o":"Electric Elements Mining Corp. 100%","e":""},"geometry":{"type":"Polygon","coordinates":[[[-69.48333,54.00833],[-69.475,54.00833],[-69.475,54.0],[-69.48333,54.0],[-69.48333,54.00833]]]}},{"type":"Feature","properties":{"c":"CDC-2129577","o":"Electric Elements Mining Corp. 100%","e":""},"geometry":{"type":"Polygon","coordinates":[[[-69.475,54.0],[-69.46667,54.0],[-69.46667,53.99167],[-69.475,53.99167],[-69.475,54.0]]]}},{"type":"Feature","properties":{"c":"CDC-2129641","o":"Electric Elements Mining Corp. 100%","e":""},"geometry":{"type":"Polygon","coordinates":[[[-69.475,54.00833],[-69.46667,54.00833],[-69.46667,54.0],[-69.475,54.0],[-69.475,54.00833]]]}},{"type":"Feature","properties":{"c":"CDC-2129578","o":"Electric Elements Mining Corp. 100%","e":""},"geometry":{"type":"Polygon","coordinates":[[[-69.46667,54.0],[-69.45833,54.0],[-69.45833,53.99167],[-69.46667,53.99167],[-69.46667,54.0]]]}},{"type":"Feature","properties":{"c":"CDC-2129643","o":"Electric Elements Mining Corp. 100%","e":""},"geometry":{"type":"Polygon","coordinates":[[[-69.46667,54.00833],[-69.45833,54.00833],[-69.45833,54.0],[-69.46667,54.0],[-69.46667,54.00833]]]}},{"type":"Feature","properties":{"c":"CDC-2129579","o":"Electric Elements Mining Corp. 100%","e":""},"geometry":{"type":"Polygon","coordinates":[[[-69.45833,54.0],[-69.45,54.0],[-69.45,53.99167],[-69.45833,53.99167],[-69.45833,54.0]]]}},{"type":"Feature","properties":{"c":"CDC-2129645","o":"Electric Elements Mining Corp. 100%","e":""},"geometry":{"type":"Polygon","coordinates":[[[-69.45833,54.00833],[-69.45,54.00833],[-69.45,54.0],[-69.45833,54.0],[-69.45833,54.00833]]]}},{"type":"Feature","properties":{"c":"CDC-2129688","o":"Electric Elements Mining Corp. 100%","e":""},"geometry":{"type":"Polygon","coordinates":[[[-69.45833,54.01667],[-69.45,54.01667],[-69.45,54.00833],[-69.45833,54.00833],[-69.45833,54.01667]]]}},{"type":"Feature","properties":{"c":"CDC-2129580","o":"Electric Elements Mining Corp. 100%","e":""},"geometry":{"type":"Polygon","coordinates":[[[-69.45,54.0],[-69.44167,54.0],[-69.44167,53.99167],[-69.45,53.99167],[-69.45,54.0]]]}},{"type":"Feature","properties":{"c":"CDC-2129647","o":"Electric Elements Mining Corp. 100%","e":""},"geometry":{"type":"Polygon","coordinates":[[[-69.45,54.00833],[-69.44167,54.00833],[-69.44167,54.0],[-69.45,54.0],[-69.45,54.00833]]]}},{"type":"Feature","properties":{"c":"CDC-2129689","o":"Electric Elements Mining Corp. 100%","e":""},"geometry":{"type":"Polygon","coordinates":[[[-69.45,54.01667],[-69.44167,54.01667],[-69.44167,54.00833],[-69.45,54.00833],[-69.45,54.01667]]]}},{"type":"Feature","properties":{"c":"CDC-2547177","o":"Electric Elements Mining Corp. 100%","e":""},"geometry":{"type":"Polygon","coordinates":[[[-69.44167,54.0],[-69.43333,54.0],[-69.43333,53.99167],[-69.44167,53.99167],[-69.44167,54.0]]]}},{"type":"Feature","properties":{"c":"CDC-2129650","o":"Electric Elements Mining Corp. 100%","e":""},"geometry":{"type":"Polygon","coordinates":[[[-69.44167,54.00833],[-69.43333,54.00833],[-69.43333,54.0],[-69.44167,54.0],[-69.44167,54.00833]]]}},{"type":"Feature","properties":{"c":"CDC-2129690","o":"Electric Elements Mining Corp. 100%","e":""},"geometry":{"type":"Polygon","coordinates":[[[-69.44167,54.01667],[-69.43333,54.01667],[-69.43333,54.00833],[-69.44167,54.00833],[-69.44167,54.01667]]]}},{"type":"Feature","properties":{"c":"CDC-2129582","o":"Electric Elements Mining Corp. 100%","e":""},"geometry":{"type":"Polygon","coordinates":[[[-69.43333,54.0],[-69.425,54.0],[-69.425,53.99167],[-69.43333,53.99167],[-69.43333,54.0]]]}},{"type":"Feature","properties":{"c":"CDC-2129653","o":"Electric Elements Mining Corp. 100%","e":""},"geometry":{"type":"Polygon","coordinates":[[[-69.43333,54.00833],[-69.425,54.00833],[-69.425,54.0],[-69.43333,54.0],[-69.43333,54.00833]]]}},{"type":"Feature","properties":{"c":"CDC-2129691","o":"Electric Elements Mining Corp. 100%","e":""},"geometry":{"type":"Polygon","coordinates":[[[-69.43333,54.01667],[-69.425,54.01667],[-69.425,54.00833],[-69.43333,54.00833],[-69.43333,54.01667]]]}},{"type":"Feature","properties":{"c":"CDC-2129692","o":"Electric Elements Mining Corp. 100%","e":""},"geometry":{"type":"Polygon","coordinates":[[[-69.425,54.01667],[-69.41667,54.01667],[-69.41667,54.00833],[-69.425,54.00833],[-69.425,54.01667]]]}}]}