{"type":"FeatureCollection","features":[{"type":"Feature","properties":{"c":"CDC-2606331","o":"St-Georges Eco-Mining corp. 100%","e":""},"geometry":{"type":"Polygon","coordinates":[[[-69.50833,52.24167],[-69.5,52.24167],[-69.5,52.23333],[-69.50833,52.23333],[-69.50833,52.24167]]]}},{"type":"Feature","properties":{"c":"CDC-2606332","o":"St-Georges Eco-Mining corp. 100%","e":""},"geometry":{"type":"Polygon","coordinates":[[[-69.50833,52.25],[-69.5,52.25],[-69.5,52.24167],[-69.50833,52.24167],[-69.50833,52.25]]]}},{"type":"Feature","properties":{"c":"CDC-2606296","o":"St-Georges Eco-Mining corp. 100%","e":""},"geometry":{"type":"Polygon","coordinates":[[[-69.5,52.24167],[-69.49167,52.24167],[-69.49167,52.23333],[-69.5,52.23333],[-69.5,52.24167]]]}},{"type":"Feature","properties":{"c":"CDC-2606297","o":"St-Georges Eco-Mining corp. 100%","e":""},"geometry":{"type":"Polygon","coordinates":[[[-69.5,52.25],[-69.49167,52.25],[-69.49167,52.24167],[-69.5,52.24167],[-69.5,52.25]]]}},{"type":"Feature","properties":{"c":"CDC-2695799","o":"St-Georges Eco-Mining corp. 100%","e":""},"geometry":{"type":"Polygon","coordinates":[[[-69.50833,52.20833],[-69.5,52.20833],[-69.5,52.2],[-69.50833,52.2],[-69.50833,52.20833]]]}},{"type":"Feature","properties":{"c":"CDC-2695805","o":"St-Georges Eco-Mining corp. 100%","e":""},"geometry":{"type":"Polygon","coordinates":[[[-69.50833,52.21667],[-69.5,52.21667],[-69.5,52.20833],[-69.50833,52.20833],[-69.50833,52.21667]]]}},{"type":"Feature","properties":{"c":"CDC-2695811","o":"St-Georges Eco-Mining corp. 100%","e":""},"geometry":{"type":"Polygon","coordinates":[[[-69.50833,52.225],[-69.5,52.225],[-69.5,52.21667],[-69.50833,52.21667],[-69.50833,52.225]]]}},{"type":"Feature","properties":{"c":"CDC-2695817","o":"St-Georges Eco-Mining corp. 100%","e":""},"geometry":{"type":"Polygon","coordinates":[[[-69.50833,52.23333],[-69.5,52.23333],[-69.5,52.225],[-69.50833,52.225],[-69.50833,52.23333]]]}},{"type":"Feature","properties":{"c":"CDC-2795363","o":"St\u00e9phanie Marceau Deschesnes 100%","e":""},"geometry":{"type":"Polygon","coordinates":[[[-69.1,52.125],[-69.09167,52.125],[-69.09167,52.11667],[-69.1,52.11667],[-69.1,52.125]]]}},{"type":"Feature","properties":{"c":"CDC-2795362","o":"St\u00e9phanie Marceau Deschesnes 100%","e":""},"geometry":{"type":"Polygon","coordinates":[[[-69.10833,52.125],[-69.1,52.125],[-69.1,52.11667],[-69.10833,52.11667],[-69.10833,52.125]]]}},{"type":"Feature","properties":{"c":"CDC-2795364","o":"St\u00e9phanie Marceau Deschesnes 100%","e":""},"geometry":{"type":"Polygon","coordinates":[[[-69.1,52.13333],[-69.09167,52.13333],[-69.09167,52.125],[-69.1,52.125],[-69.1,52.13333]]]}},{"type":"Feature","properties":{"c":"CDC-2797778","o":"St\u00e9phanie Marceau Deschesnes 100%","e":""},"geometry":{"type":"Polygon","coordinates":[[[-69.09167,52.15833],[-69.08333,52.15833],[-69.08333,52.15],[-69.09167,52.15],[-69.09167,52.15833]]]}},{"type":"Feature","properties":{"c":"CDC-2797777","o":"St\u00e9phanie Marceau Deschesnes 100%","e":""},"geometry":{"type":"Polygon","coordinates":[[[-69.09167,52.15833],[-69.09167,52.15],[-69.1,52.15],[-69.1,52.15833],[-69.09167,52.15833]]]}},{"type":"Feature","properties":{"c":"CDC-2797776","o":"St\u00e9phanie Marceau Deschesnes 100%","e":""},"geometry":{"type":"Polygon","coordinates":[[[-69.1,52.15833],[-69.1,52.15],[-69.10833,52.15],[-69.10833,52.15833],[-69.1,52.15833]]]}},{"type":"Feature","properties":{"c":"CDC-2797781","o":"St\u00e9phanie Marceau Deschesnes 100%","e":""},"geometry":{"type":"Polygon","coordinates":[[[-69.08333,52.16667],[-69.08333,52.15833],[-69.09167,52.15833],[-69.09167,52.16667],[-69.08333,52.16667]]]}},{"type":"Feature","properties":{"c":"CDC-2797780","o":"St\u00e9phanie Marceau Deschesnes 100%","e":""},"geometry":{"type":"Polygon","coordinates":[[[-69.09167,52.16667],[-69.09167,52.15833],[-69.1,52.15833],[-69.1,52.16667],[-69.09167,52.16667]]]}},{"type":"Feature","properties":{"c":"CDC-2797779","o":"St\u00e9phanie Marceau Deschesnes 100%","e":""},"geometry":{"type":"Polygon","coordinates":[[[-69.1,52.15833],[-69.10833,52.15833],[-69.10833,52.16667],[-69.1,52.16667],[-69.1,52.15833]]]}}]}