{"type":"FeatureCollection","features":[{"type":"Feature","properties":{"c":"CDC-2828715","o":"Louis-Andr\u00e9 Lessard 100%","e":""},"geometry":{"type":"Polygon","coordinates":[[[-70.44167,45.95833],[-70.43333,45.95833],[-70.43333,45.95],[-70.44167,45.95],[-70.44167,45.95833]]]}},{"type":"Feature","properties":{"c":"CDC-2828714","o":"Louis-Andr\u00e9 Lessard 100%","e":""},"geometry":{"type":"Polygon","coordinates":[[[-70.45,45.95],[-70.45,45.95833],[-70.44167,45.95833],[-70.44167,45.95],[-70.45,45.95]]]}},{"type":"Feature","properties":{"c":"CDC-2828713","o":"Louis-Andr\u00e9 Lessard 100%","e":""},"geometry":{"type":"Polygon","coordinates":[[[-70.45833,45.95833],[-70.45,45.95833],[-70.45,45.95],[-70.45833,45.95],[-70.45833,45.95833]]]}},{"type":"Feature","properties":{"c":"CDC-2818947","o":"Richard Michel d'Annoville 100%","e":""},"geometry":{"type":"Polygon","coordinates":[[[-70.49167,46.0],[-70.48333,46.0],[-70.48333,45.99167],[-70.49167,45.99167],[-70.49167,46.0]]]}},{"type":"Feature","properties":{"c":"CDC-2848661","o":"Leopard Lake Gold Corp. 100%","e":""},"geometry":{"type":"Polygon","coordinates":[[[-70.45833,45.9],[-70.45,45.9],[-70.45,45.89167],[-70.45833,45.89167],[-70.45833,45.9]]]}},{"type":"Feature","properties":{"c":"CDC-2850353","o":"Louis-Andr\u00e9 Lessard 100%","e":""},"geometry":{"type":"Polygon","coordinates":[[[-70.45833,45.95],[-70.45,45.95],[-70.45,45.94167],[-70.45833,45.94167],[-70.45833,45.95]]]}},{"type":"Feature","properties":{"c":"CDC-2832427","o":"Louis-Andr\u00e9 Lessard 100%","e":""},"geometry":{"type":"Polygon","coordinates":[[[-70.45,45.95],[-70.44167,45.95],[-70.44167,45.94167],[-70.45,45.94167],[-70.45,45.95]]]}},{"type":"Feature","properties":{"c":"CDC-2875011","o":"Leopard Lake Gold Corp. 100%","e":""},"geometry":{"type":"Polygon","coordinates":[[[-70.44167,45.88333],[-70.43333,45.88333],[-70.43333,45.875],[-70.44167,45.875],[-70.44167,45.88333]]]}},{"type":"Feature","properties":{"c":"CDC-2828712","o":"Louis-Andr\u00e9 Lessard 100%","e":""},"geometry":{"type":"Polygon","coordinates":[[[-70.44167,45.95],[-70.43333,45.95],[-70.43333,45.94167],[-70.44167,45.94167],[-70.44167,45.95]]]}},{"type":"Feature","properties":{"c":"CDC-2825796","o":"Leopard Lake Gold Corp. 100%","e":""},"geometry":{"type":"Polygon","coordinates":[[[-70.425,45.88333],[-70.41667,45.88333],[-70.41667,45.875],[-70.425,45.875],[-70.425,45.88333]]]}},{"type":"Feature","properties":{"c":"CDC-2825797","o":"Leopard Lake Gold Corp. 100%","e":""},"geometry":{"type":"Polygon","coordinates":[[[-70.41667,45.88333],[-70.40833,45.88333],[-70.40833,45.875],[-70.41667,45.875],[-70.41667,45.88333]]]}},{"type":"Feature","properties":{"c":"CDC-2825799","o":"Leopard Lake Gold Corp. 100%","e":""},"geometry":{"type":"Polygon","coordinates":[[[-70.41667,45.89167],[-70.40833,45.89167],[-70.40833,45.88333],[-70.41667,45.88333],[-70.41667,45.89167]]]}},{"type":"Feature","properties":{"c":"CDC-2861710","o":"Louis-Andr\u00e9 Lessard 100%","e":""},"geometry":{"type":"Polygon","coordinates":[[[-70.41667,45.93333],[-70.40833,45.93333],[-70.40833,45.925],[-70.41667,45.925],[-70.41667,45.93333]]]}},{"type":"Feature","properties":{"c":"CDC-2850073","o":"Louis-Andr\u00e9 Lessard 100%","e":""},"geometry":{"type":"Polygon","coordinates":[[[-70.41667,45.94167],[-70.40833,45.94167],[-70.40833,45.93333],[-70.41667,45.93333],[-70.41667,45.94167]]]}},{"type":"Feature","properties":{"c":"CDC-2850075","o":"Louis-Andr\u00e9 Lessard 100%","e":""},"geometry":{"type":"Polygon","coordinates":[[[-70.41667,45.95],[-70.40833,45.95],[-70.40833,45.94167],[-70.41667,45.94167],[-70.41667,45.95]]]}},{"type":"Feature","properties":{"c":"CDC-2825798","o":"Leopard Lake Gold Corp. 100%","e":""},"geometry":{"type":"Polygon","coordinates":[[[-70.40833,45.88333],[-70.4,45.88333],[-70.4,45.875],[-70.40833,45.875],[-70.40833,45.88333]]]}},{"type":"Feature","properties":{"c":"CDC-2825800","o":"Leopard Lake Gold Corp. 100%","e":""},"geometry":{"type":"Polygon","coordinates":[[[-70.40833,45.89167],[-70.4,45.89167],[-70.4,45.88333],[-70.40833,45.88333],[-70.40833,45.89167]]]}},{"type":"Feature","properties":{"c":"CDC-2848662","o":"Leopard Lake Gold Corp. 100%","e":""},"geometry":{"type":"Polygon","coordinates":[[[-70.40833,45.90833],[-70.4,45.90833],[-70.4,45.9],[-70.40833,45.9],[-70.40833,45.90833]]]}},{"type":"Feature","properties":{"c":"CDC-2861711","o":"Louis-Andr\u00e9 Lessard 100%","e":""},"geometry":{"type":"Polygon","coordinates":[[[-70.40833,45.93333],[-70.4,45.93333],[-70.4,45.925],[-70.40833,45.925],[-70.40833,45.93333]]]}},{"type":"Feature","properties":{"c":"CDC-2838903","o":"Louis-Andr\u00e9 Lessard 100%","e":""},"geometry":{"type":"Polygon","coordinates":[[[-70.40833,45.94167],[-70.4,45.94167],[-70.4,45.93333],[-70.40833,45.93333],[-70.40833,45.94167]]]}},{"type":"Feature","properties":{"c":"CDC-2838904","o":"Louis-Andr\u00e9 Lessard 100%","e":""},"geometry":{"type":"Polygon","coordinates":[[[-70.40833,45.95],[-70.4,45.95],[-70.4,45.94167],[-70.40833,45.94167],[-70.40833,45.95]]]}},{"type":"Feature","properties":{"c":"CDC-2875012","o":"Leopard Lake Gold Corp. 100%","e":""},"geometry":{"type":"Polygon","coordinates":[[[-70.4,45.88333],[-70.39167,45.88333],[-70.39167,45.875],[-70.4,45.875],[-70.4,45.88333]]]}},{"type":"Feature","properties":{"c":"CDC-2875014","o":"Leopard Lake Gold Corp. 100%","e":""},"geometry":{"type":"Polygon","coordinates":[[[-70.4,45.89167],[-70.39167,45.89167],[-70.39167,45.88333],[-70.4,45.88333],[-70.4,45.89167]]]}},{"type":"Feature","properties":{"c":"CDC-2875015","o":"Leopard Lake Gold Corp. 100%","e":""},"geometry":{"type":"Polygon","coordinates":[[[-70.4,45.9],[-70.39167,45.9],[-70.39167,45.89167],[-70.4,45.89167],[-70.4,45.9]]]}},{"type":"Feature","properties":{"c":"CDC-2848663","o":"Leopard Lake Gold Corp. 100%","e":""},"geometry":{"type":"Polygon","coordinates":[[[-70.4,45.90833],[-70.39167,45.90833],[-70.39167,45.9],[-70.4,45.9],[-70.4,45.90833]]]}},{"type":"Feature","properties":{"c":"CDC-2861712","o":"Louis-Andr\u00e9 Lessard 100%","e":""},"geometry":{"type":"Polygon","coordinates":[[[-70.4,45.93333],[-70.39167,45.93333],[-70.39167,45.925],[-70.4,45.925],[-70.4,45.93333]]]}},{"type":"Feature","properties":{"c":"CDC-2850074","o":"Louis-Andr\u00e9 Lessard 100%","e":""},"geometry":{"type":"Polygon","coordinates":[[[-70.4,45.94167],[-70.39167,45.94167],[-70.39167,45.93333],[-70.4,45.93333],[-70.4,45.94167]]]}},{"type":"Feature","properties":{"c":"CDC-2850076","o":"Louis-Andr\u00e9 Lessard 100%","e":""},"geometry":{"type":"Polygon","coordinates":[[[-70.4,45.95],[-70.39167,45.95],[-70.39167,45.94167],[-70.4,45.94167],[-70.4,45.95]]]}},{"type":"Feature","properties":{"c":"CDC-2875013","o":"Leopard Lake Gold Corp. 100%","e":""},"geometry":{"type":"Polygon","coordinates":[[[-70.39167,45.88333],[-70.38333,45.88333],[-70.38333,45.875],[-70.39167,45.875],[-70.39167,45.88333]]]}},{"type":"Feature","properties":{"c":"CDC-2870226","o":"Leopard Lake Gold Corp. 100%","e":""},"geometry":{"type":"Polygon","coordinates":[[[-70.39167,45.89167],[-70.38333,45.89167],[-70.38333,45.88333],[-70.39167,45.88333],[-70.39167,45.89167]]]}},{"type":"Feature","properties":{"c":"CDC-2870229","o":"Leopard Lake Gold Corp. 100%","e":""},"geometry":{"type":"Polygon","coordinates":[[[-70.39167,45.9],[-70.38333,45.9],[-70.38333,45.89167],[-70.39167,45.89167],[-70.39167,45.9]]]}},{"type":"Feature","properties":{"c":"CDC-2870232","o":"Leopard Lake Gold Corp. 100%","e":""},"geometry":{"type":"Polygon","coordinates":[[[-70.39167,45.9],[-70.39167,45.90833],[-70.38333,45.90833],[-70.38333,45.9],[-70.39167,45.9]]]}},{"type":"Feature","properties":{"c":"CDC-2861714","o":"Louis-Andr\u00e9 Lessard 100%","e":""},"geometry":{"type":"Polygon","coordinates":[[[-70.38333,45.92521],[-70.38731,45.925],[-70.39167,45.925],[-70.39167,45.93333],[-70.38333,45.93333],[-70.38333,45.92521]]]}},{"type":"Feature","properties":{"c":"CDC-2861713","o":"Louis-Andr\u00e9 Lessard 100%","e":""},"geometry":{"type":"Polygon","coordinates":[[[-70.39167,45.94167],[-70.38333,45.94167],[-70.38333,45.93333],[-70.39167,45.93333],[-70.39167,45.94167]]]}},{"type":"Feature","properties":{"c":"CDC-2838905","o":"Louis-Andr\u00e9 Lessard 100%","e":""},"geometry":{"type":"Polygon","coordinates":[[[-70.39167,45.95],[-70.38333,45.95],[-70.38333,45.94167],[-70.39167,45.94167],[-70.39167,45.95]]]}},{"type":"Feature","properties":{"c":"CDC-2873029","o":"9423-2782 Qu\u00e9bec inc. (L.A.L. Exploration) 100%","e":""},"geometry":{"type":"Polygon","coordinates":[[[-70.38333,45.875],[-70.38333,45.88333],[-70.375,45.88333],[-70.375,45.875],[-70.38333,45.875]]]}},{"type":"Feature","properties":{"c":"CDC-2870227","o":"Leopard Lake Gold Corp. 100%","e":""},"geometry":{"type":"Polygon","coordinates":[[[-70.38333,45.88333],[-70.38333,45.89167],[-70.375,45.89167],[-70.375,45.88333],[-70.38333,45.88333]]]}},{"type":"Feature","properties":{"c":"CDC-2870230","o":"Leopard Lake Gold Corp. 100%","e":""},"geometry":{"type":"Polygon","coordinates":[[[-70.38333,45.89167],[-70.38333,45.9],[-70.375,45.9],[-70.375,45.89167],[-70.38333,45.89167]]]}},{"type":"Feature","properties":{"c":"CDC-2870233","o":"Leopard Lake Gold Corp. 100%","e":""},"geometry":{"type":"Polygon","coordinates":[[[-70.375,45.90833],[-70.375,45.9],[-70.38333,45.9],[-70.38333,45.90833],[-70.375,45.90833]]]}},{"type":"Feature","properties":{"c":"CDC-2851176","o":"Louis-Andr\u00e9 Lessard 100%","e":""},"geometry":{"type":"Polygon","coordinates":[[[-70.38333,45.93333],[-70.375,45.93333],[-70.375,45.925],[-70.37874,45.925],[-70.37879,45.92539],[-70.38054,45.92604],[-70.3817,45.92561],[-70.38237,45.92526],[-70.38333,45.92521],[-70.38333,45.93333]]]}},{"type":"Feature","properties":{"c":"CDC-2846321","o":"Louis-Andr\u00e9 Lessard 100%","e":""},"geometry":{"type":"Polygon","coordinates":[[[-70.38333,45.94167],[-70.375,45.94167],[-70.375,45.93333],[-70.38333,45.93333],[-70.38333,45.94167]]]}},{"type":"Feature","properties":{"c":"CDC-2870228","o":"Leopard Lake Gold Corp. 100%","e":""},"geometry":{"type":"Polygon","coordinates":[[[-70.36667,45.89167],[-70.36667,45.88333],[-70.375,45.88333],[-70.375,45.89167],[-70.36667,45.89167]]]}},{"type":"Feature","properties":{"c":"CDC-2870231","o":"Leopard Lake Gold Corp. 100%","e":""},"geometry":{"type":"Polygon","coordinates":[[[-70.36667,45.9],[-70.36667,45.89167],[-70.375,45.89167],[-70.375,45.9],[-70.36667,45.9]]]}},{"type":"Feature","properties":{"c":"CDC-2870234","o":"Leopard Lake Gold Corp. 100%","e":""},"geometry":{"type":"Polygon","coordinates":[[[-70.375,45.90833],[-70.36667,45.90833],[-70.36667,45.9],[-70.375,45.9],[-70.375,45.90833]]]}},{"type":"Feature","properties":{"c":"CDC-2846545","o":"Louis-Andr\u00e9 Lessard 100%","e":""},"geometry":{"type":"Polygon","coordinates":[[[-70.375,45.925],[-70.36667,45.925],[-70.36667,45.91667],[-70.375,45.91667],[-70.375,45.925]]]}},{"type":"Feature","properties":{"c":"CDC-2846320","o":"Louis-Andr\u00e9 Lessard 100%","e":""},"geometry":{"type":"Polygon","coordinates":[[[-70.375,45.93333],[-70.36667,45.93333],[-70.36667,45.925],[-70.375,45.925],[-70.375,45.93333]]]}},{"type":"Feature","properties":{"c":"CDC-2846322","o":"Louis-Andr\u00e9 Lessard 100%","e":""},"geometry":{"type":"Polygon","coordinates":[[[-70.375,45.94167],[-70.36667,45.94167],[-70.36667,45.93333],[-70.375,45.93333],[-70.375,45.94167]]]}},{"type":"Feature","properties":{"c":"CDC-2870235","o":"Leopard Lake Gold Corp. 100%","e":""},"geometry":{"type":"Polygon","coordinates":[[[-70.36667,45.90833],[-70.35833,45.90833],[-70.35833,45.9],[-70.36667,45.9],[-70.36667,45.90833]]]}},{"type":"Feature","properties":{"c":"CDC-2850691","o":"Louis-Andr\u00e9 Lessard 100%","e":""},"geometry":{"type":"Polygon","coordinates":[[[-70.36667,45.925],[-70.35833,45.925],[-70.35833,45.91667],[-70.36667,45.91667],[-70.36667,45.925]]]}},{"type":"Feature","properties":{"c":"CDC-2850693","o":"Louis-Andr\u00e9 Lessard 100%","e":""},"geometry":{"type":"Polygon","coordinates":[[[-70.36667,45.93333],[-70.35833,45.93333],[-70.35833,45.925],[-70.36667,45.925],[-70.36667,45.93333]]]}},{"type":"Feature","properties":{"c":"CDC-2820811","o":"Richard Michel d'Annoville 100%","e":""},"geometry":{"type":"Polygon","coordinates":[[[-70.35833,45.90833],[-70.35,45.90833],[-70.35,45.9],[-70.35833,45.9],[-70.35833,45.90833]]]}},{"type":"Feature","properties":{"c":"CDC-2850692","o":"Louis-Andr\u00e9 Lessard 100%","e":""},"geometry":{"type":"Polygon","coordinates":[[[-70.35833,45.925],[-70.35,45.925],[-70.35,45.91667],[-70.35833,45.91667],[-70.35833,45.925]]]}},{"type":"Feature","properties":{"c":"CDC-2850694","o":"Louis-Andr\u00e9 Lessard 100%","e":""},"geometry":{"type":"Polygon","coordinates":[[[-70.35833,45.93333],[-70.35,45.93333],[-70.35,45.925],[-70.35833,45.925],[-70.35833,45.93333]]]}},{"type":"Feature","properties":{"c":"CDC-2851775","o":"Louis-Andr\u00e9 Lessard 100%","e":""},"geometry":{"type":"Polygon","coordinates":[[[-70.35,45.925],[-70.34167,45.925],[-70.34167,45.91667],[-70.35,45.91667],[-70.35,45.925]]]}},{"type":"Feature","properties":{"c":"CDC-2851776","o":"Louis-Andr\u00e9 Lessard 100%","e":""},"geometry":{"type":"Polygon","coordinates":[[[-70.35,45.93333],[-70.34167,45.93333],[-70.34167,45.925],[-70.35,45.925],[-70.35,45.93333]]]}},{"type":"Feature","properties":{"c":"CDC-2822419","o":"Richard Michel d'Annoville 100%","e":""},"geometry":{"type":"Polygon","coordinates":[[[-70.33333,45.94167],[-70.325,45.94167],[-70.325,45.93333],[-70.33333,45.93333],[-70.33333,45.94167]]]}},{"type":"Feature","properties":{"c":"CDC-2882272","o":"Bertrand Brassard 100%","e":""},"geometry":{"type":"Polygon","coordinates":[[[-70.3,45.95833],[-70.3,45.95],[-70.30833,45.95],[-70.30833,45.95833],[-70.3,45.95833]]]}},{"type":"Feature","properties":{"c":"CDC-2882273","o":"Bertrand Brassard 100%","e":""},"geometry":{"type":"Polygon","coordinates":[[[-70.29167,45.95833],[-70.29167,45.95],[-70.3,45.95],[-70.3,45.95833],[-70.29167,45.95833]]]}},{"type":"Feature","properties":{"c":"CDC-2825795","o":"Leopard Lake Gold Corp. 100%","e":""},"geometry":{"type":"Polygon","coordinates":[[[-70.41667,45.875],[-70.40833,45.875],[-70.40833,45.86667],[-70.41667,45.86667],[-70.41667,45.875]]]}},{"type":"Feature","properties":{"c":"CDC-2656051","o":"Leopard Lake Gold Corp. 100%","e":""},"geometry":{"type":"Polygon","coordinates":[[[-70.40833,45.83333],[-70.4,45.83333],[-70.4,45.825],[-70.40833,45.825],[-70.40833,45.83333]]]}},{"type":"Feature","properties":{"c":"CDC-2656054","o":"Leopard Lake Gold Corp. 100%","e":""},"geometry":{"type":"Polygon","coordinates":[[[-70.40833,45.83333],[-70.40833,45.84167],[-70.4,45.84167],[-70.4,45.83333],[-70.40833,45.83333]]]}},{"type":"Feature","properties":{"c":"CDC-2656057","o":"Leopard Lake Gold Corp. 100%","e":""},"geometry":{"type":"Polygon","coordinates":[[[-70.40833,45.85],[-70.4,45.85],[-70.4,45.84167],[-70.40833,45.84167],[-70.40833,45.85]]]}},{"type":"Feature","properties":{"c":"CDC-2656060","o":"Leopard Lake Gold Corp. 100%","e":""},"geometry":{"type":"Polygon","coordinates":[[[-70.40833,45.85833],[-70.4,45.85833],[-70.4,45.85],[-70.40833,45.85],[-70.40833,45.85833]]]}},{"type":"Feature","properties":{"c":"CDC-2656052","o":"Leopard Lake Gold Corp. 100%","e":""},"geometry":{"type":"Polygon","coordinates":[[[-70.4,45.83333],[-70.39167,45.83333],[-70.39167,45.825],[-70.4,45.825],[-70.4,45.83333]]]}},{"type":"Feature","properties":{"c":"CDC-2656055","o":"Leopard Lake Gold Corp. 100%","e":""},"geometry":{"type":"Polygon","coordinates":[[[-70.4,45.84167],[-70.39167,45.84167],[-70.39167,45.83333],[-70.4,45.83333],[-70.4,45.84167]]]}},{"type":"Feature","properties":{"c":"CDC-2656058","o":"Leopard Lake Gold Corp. 100%","e":""},"geometry":{"type":"Polygon","coordinates":[[[-70.4,45.85],[-70.39167,45.85],[-70.39167,45.84167],[-70.4,45.84167],[-70.4,45.85]]]}},{"type":"Feature","properties":{"c":"CDC-2656061","o":"Leopard Lake Gold Corp. 100%","e":""},"geometry":{"type":"Polygon","coordinates":[[[-70.4,45.85833],[-70.39167,45.85833],[-70.39167,45.85],[-70.4,45.85],[-70.4,45.85833]]]}},{"type":"Feature","properties":{"c":"CDC-2656053","o":"Leopard Lake Gold Corp. 100%","e":""},"geometry":{"type":"Polygon","coordinates":[[[-70.39167,45.83333],[-70.38333,45.83333],[-70.38333,45.825],[-70.39167,45.825],[-70.39167,45.83333]]]}},{"type":"Feature","properties":{"c":"CDC-2656056","o":"Leopard Lake Gold Corp. 100%","e":""},"geometry":{"type":"Polygon","coordinates":[[[-70.39167,45.84167],[-70.38333,45.84167],[-70.38333,45.83333],[-70.39167,45.83333],[-70.39167,45.84167]]]}},{"type":"Feature","properties":{"c":"CDC-2656059","o":"Leopard Lake Gold Corp. 100%","e":""},"geometry":{"type":"Polygon","coordinates":[[[-70.39167,45.85],[-70.38333,45.85],[-70.38333,45.84167],[-70.39167,45.84167],[-70.39167,45.85]]]}},{"type":"Feature","properties":{"c":"CDC-2656062","o":"Leopard Lake Gold Corp. 100%","e":""},"geometry":{"type":"Polygon","coordinates":[[[-70.39167,45.85833],[-70.38333,45.85833],[-70.38333,45.85],[-70.39167,45.85],[-70.39167,45.85833]]]}},{"type":"Feature","properties":{"c":"CDC-2848659","o":"Leopard Lake Gold Corp. 100%","e":""},"geometry":{"type":"Polygon","coordinates":[[[-70.39167,45.86667],[-70.38333,45.86667],[-70.38333,45.85833],[-70.39167,45.85833],[-70.39167,45.86667]]]}},{"type":"Feature","properties":{"c":"CDC-2848660","o":"Leopard Lake Gold Corp. 100%","e":""},"geometry":{"type":"Polygon","coordinates":[[[-70.39167,45.875],[-70.38333,45.875],[-70.38333,45.86667],[-70.39167,45.86667],[-70.39167,45.875]]]}},{"type":"Feature","properties":{"c":"CDC-2879196","o":"Leopard Lake Gold Corp. 100%","e":""},"geometry":{"type":"Polygon","coordinates":[[[-70.38333,45.85],[-70.375,45.85],[-70.375,45.84167],[-70.38333,45.84167],[-70.38333,45.85]]]}},{"type":"Feature","properties":{"c":"CDC-2848658","o":"Leopard Lake Gold Corp. 100%","e":""},"geometry":{"type":"Polygon","coordinates":[[[-70.38333,45.85833],[-70.375,45.85833],[-70.375,45.85],[-70.38333,45.85],[-70.38333,45.85833]]]}},{"type":"Feature","properties":{"c":"CDC-2842252","o":"Leopard Lake Gold Corp. 100%","e":""},"geometry":{"type":"Polygon","coordinates":[[[-70.38333,45.86667],[-70.375,45.86667],[-70.375,45.85833],[-70.38333,45.85833],[-70.38333,45.86667]]]}},{"type":"Feature","properties":{"c":"CDC-2842254","o":"Leopard Lake Gold Corp. 100%","e":""},"geometry":{"type":"Polygon","coordinates":[[[-70.38333,45.875],[-70.375,45.875],[-70.375,45.86667],[-70.38333,45.86667],[-70.38333,45.875]]]}},{"type":"Feature","properties":{"c":"CDC-2870866","o":"Louis-Andr\u00e9 Lessard 100%","e":""},"geometry":{"type":"Polygon","coordinates":[[[-70.375,45.85],[-70.36667,45.85],[-70.36667,45.84167],[-70.375,45.84167],[-70.375,45.85]]]}},{"type":"Feature","properties":{"c":"CDC-2863962","o":"Louis-Andr\u00e9 Lessard 100%","e":""},"geometry":{"type":"Polygon","coordinates":[[[-70.375,45.85],[-70.375,45.85833],[-70.36667,45.85833],[-70.36667,45.85],[-70.375,45.85]]]}},{"type":"Feature","properties":{"c":"CDC-2842253","o":"Leopard Lake Gold Corp. 100%","e":""},"geometry":{"type":"Polygon","coordinates":[[[-70.375,45.85833],[-70.375,45.86667],[-70.36667,45.86667],[-70.36667,45.85833],[-70.375,45.85833]]]}},{"type":"Feature","properties":{"c":"CDC-2842255","o":"Leopard Lake Gold Corp. 100%","e":""},"geometry":{"type":"Polygon","coordinates":[[[-70.375,45.86667],[-70.375,45.875],[-70.36667,45.875],[-70.36667,45.86667],[-70.375,45.86667]]]}},{"type":"Feature","properties":{"c":"CDC-2873030","o":"9423-2782 Qu\u00e9bec inc. (L.A.L. Exploration) 100%","e":""},"geometry":{"type":"Polygon","coordinates":[[[-70.36667,45.88333],[-70.36667,45.875],[-70.375,45.875],[-70.375,45.88333],[-70.36667,45.88333]]]}},{"type":"Feature","properties":{"c":"CDC-2870867","o":"Louis-Andr\u00e9 Lessard 100%","e":""},"geometry":{"type":"Polygon","coordinates":[[[-70.36667,45.84167],[-70.36667,45.85],[-70.35833,45.85],[-70.35833,45.84167],[-70.36667,45.84167]]]}},{"type":"Feature","properties":{"c":"CDC-2863963","o":"Louis-Andr\u00e9 Lessard 100%","e":""},"geometry":{"type":"Polygon","coordinates":[[[-70.36667,45.85833],[-70.35833,45.85833],[-70.35833,45.85],[-70.36667,45.85],[-70.36667,45.85833]]]}},{"type":"Feature","properties":{"c":"CDC-2863964","o":"Louis-Andr\u00e9 Lessard 100%","e":""},"geometry":{"type":"Polygon","coordinates":[[[-70.35833,45.86667],[-70.35833,45.85833],[-70.36667,45.85833],[-70.36667,45.86667],[-70.35833,45.86667]]]}},{"type":"Feature","properties":{"c":"CDC-2703803","o":"Leopard Lake Gold Corp. 100%","e":""},"geometry":{"type":"Polygon","coordinates":[[[-70.50833,45.825],[-70.5,45.825],[-70.5,45.81667],[-70.50833,45.81667],[-70.50833,45.825]]]}},{"type":"Feature","properties":{"c":"CDC-2597825","o":"Leopard Lake Gold Corp. 100%","e":""},"geometry":{"type":"Polygon","coordinates":[[[-70.5,45.825],[-70.49167,45.825],[-70.49167,45.81667],[-70.5,45.81667],[-70.5,45.825]]]}},{"type":"Feature","properties":{"c":"CDC-2703804","o":"Leopard Lake Gold Corp. 100%","e":""},"geometry":{"type":"Polygon","coordinates":[[[-70.5,45.83333],[-70.49167,45.83333],[-70.49167,45.825],[-70.5,45.825],[-70.5,45.83333]]]}},{"type":"Feature","properties":{"c":"CDC-2597826","o":"Leopard Lake Gold Corp. 100%","e":""},"geometry":{"type":"Polygon","coordinates":[[[-70.49167,45.825],[-70.48333,45.825],[-70.48333,45.81667],[-70.49167,45.81667],[-70.49167,45.825]]]}},{"type":"Feature","properties":{"c":"CDC-2597827","o":"Leopard Lake Gold Corp. 100%","e":""},"geometry":{"type":"Polygon","coordinates":[[[-70.49167,45.83333],[-70.48333,45.83333],[-70.48333,45.825],[-70.49167,45.825],[-70.49167,45.83333]]]}},{"type":"Feature","properties":{"c":"CDC-2703805","o":"Leopard Lake Gold Corp. 100%","e":""},"geometry":{"type":"Polygon","coordinates":[[[-70.49167,45.84167],[-70.48333,45.84167],[-70.48333,45.83333],[-70.49167,45.83333],[-70.49167,45.84167]]]}},{"type":"Feature","properties":{"c":"CDC-2656278","o":"Leopard Lake Gold Corp. 100%","e":""},"geometry":{"type":"Polygon","coordinates":[[[-70.48333,45.825],[-70.475,45.825],[-70.475,45.81667],[-70.48333,45.81667],[-70.48333,45.825]]]}},{"type":"Feature","properties":{"c":"CDC-2597828","o":"Leopard Lake Gold Corp. 100%","e":""},"geometry":{"type":"Polygon","coordinates":[[[-70.48333,45.83333],[-70.475,45.83333],[-70.475,45.825],[-70.48333,45.825],[-70.48333,45.83333]]]}},{"type":"Feature","properties":{"c":"CDC-2597829","o":"Leopard Lake Gold Corp. 100%","e":""},"geometry":{"type":"Polygon","coordinates":[[[-70.48333,45.84167],[-70.475,45.84167],[-70.475,45.83333],[-70.48333,45.83333],[-70.48333,45.84167]]]}},{"type":"Feature","properties":{"c":"CDC-2703806","o":"Leopard Lake Gold Corp. 100%","e":""},"geometry":{"type":"Polygon","coordinates":[[[-70.48333,45.85],[-70.475,45.85],[-70.475,45.84167],[-70.48333,45.84167],[-70.48333,45.85]]]}},{"type":"Feature","properties":{"c":"CDC-2656279","o":"Leopard Lake Gold Corp. 100%","e":""},"geometry":{"type":"Polygon","coordinates":[[[-70.475,45.825],[-70.46667,45.825],[-70.46667,45.81667],[-70.475,45.81667],[-70.475,45.825]]]}},{"type":"Feature","properties":{"c":"CDC-2656285","o":"Leopard Lake Gold Corp. 100%","e":""},"geometry":{"type":"Polygon","coordinates":[[[-70.475,45.83333],[-70.46667,45.83333],[-70.46667,45.825],[-70.475,45.825],[-70.475,45.83333]]]}},{"type":"Feature","properties":{"c":"CDC-2597830","o":"Leopard Lake Gold Corp. 100%","e":""},"geometry":{"type":"Polygon","coordinates":[[[-70.475,45.84167],[-70.46667,45.84167],[-70.46667,45.83333],[-70.475,45.83333],[-70.475,45.84167]]]}},{"type":"Feature","properties":{"c":"CDC-2703807","o":"Leopard Lake Gold Corp. 100%","e":""},"geometry":{"type":"Polygon","coordinates":[[[-70.475,45.85],[-70.46667,45.85],[-70.46667,45.84167],[-70.475,45.84167],[-70.475,45.85]]]}},{"type":"Feature","properties":{"c":"CDC-2656280","o":"Leopard Lake Gold Corp. 100%","e":""},"geometry":{"type":"Polygon","coordinates":[[[-70.46667,45.825],[-70.45833,45.825],[-70.45833,45.81667],[-70.46667,45.81667],[-70.46667,45.825]]]}},{"type":"Feature","properties":{"c":"CDC-2656286","o":"Leopard Lake Gold Corp. 100%","e":""},"geometry":{"type":"Polygon","coordinates":[[[-70.46667,45.83333],[-70.45833,45.83333],[-70.45833,45.825],[-70.46667,45.825],[-70.46667,45.83333]]]}},{"type":"Feature","properties":{"c":"CDC-2597831","o":"Leopard Lake Gold Corp. 100%","e":""},"geometry":{"type":"Polygon","coordinates":[[[-70.46667,45.84167],[-70.45833,45.84167],[-70.45833,45.83333],[-70.46667,45.83333],[-70.46667,45.84167]]]}},{"type":"Feature","properties":{"c":"CDC-2597832","o":"Leopard Lake Gold Corp. 100%","e":""},"geometry":{"type":"Polygon","coordinates":[[[-70.46667,45.85],[-70.45833,45.85],[-70.45833,45.84167],[-70.46667,45.84167],[-70.46667,45.85]]]}},{"type":"Feature","properties":{"c":"CDC-2703808","o":"Leopard Lake Gold Corp. 100%","e":""},"geometry":{"type":"Polygon","coordinates":[[[-70.46667,45.85833],[-70.45833,45.85833],[-70.45833,45.85],[-70.46667,45.85],[-70.46667,45.85833]]]}},{"type":"Feature","properties":{"c":"CDC-2703809","o":"Leopard Lake Gold Corp. 100%","e":""},"geometry":{"type":"Polygon","coordinates":[[[-70.46667,45.86667],[-70.45833,45.86667],[-70.45833,45.85833],[-70.46667,45.85833],[-70.46667,45.86667]]]}},{"type":"Feature","properties":{"c":"CDC-2875010","o":"Leopard Lake Gold Corp. 100%","e":""},"geometry":{"type":"Polygon","coordinates":[[[-70.46667,45.875],[-70.45833,45.875],[-70.45833,45.86667],[-70.46667,45.86667],[-70.46667,45.875]]]}},{"type":"Feature","properties":{"c":"CDC-2656281","o":"Leopard Lake Gold Corp. 100%","e":""},"geometry":{"type":"Polygon","coordinates":[[[-70.45833,45.825],[-70.45,45.825],[-70.45,45.81667],[-70.45833,45.81667],[-70.45833,45.825]]]}},{"type":"Feature","properties":{"c":"CDC-2656287","o":"Leopard Lake Gold Corp. 100%","e":""},"geometry":{"type":"Polygon","coordinates":[[[-70.45833,45.83333],[-70.45,45.83333],[-70.45,45.825],[-70.45833,45.825],[-70.45833,45.83333]]]}},{"type":"Feature","properties":{"c":"CDC-2656292","o":"Leopard Lake Gold Corp. 100%","e":""},"geometry":{"type":"Polygon","coordinates":[[[-70.45833,45.84167],[-70.45,45.84167],[-70.45,45.83333],[-70.45833,45.83333],[-70.45833,45.84167]]]}},{"type":"Feature","properties":{"c":"CDC-2597833","o":"Leopard Lake Gold Corp. 100%","e":""},"geometry":{"type":"Polygon","coordinates":[[[-70.45833,45.85],[-70.45,45.85],[-70.45,45.84167],[-70.45833,45.84167],[-70.45833,45.85]]]}},{"type":"Feature","properties":{"c":"CDC-2656302","o":"Leopard Lake Gold Corp. 100%","e":""},"geometry":{"type":"Polygon","coordinates":[[[-70.45833,45.85833],[-70.45,45.85833],[-70.45,45.85],[-70.45833,45.85],[-70.45833,45.85833]]]}},{"type":"Feature","properties":{"c":"CDC-2703810","o":"Leopard Lake Gold Corp. 100%","e":""},"geometry":{"type":"Polygon","coordinates":[[[-70.45833,45.86667],[-70.45,45.86667],[-70.45,45.85833],[-70.45833,45.85833],[-70.45833,45.86667]]]}},{"type":"Feature","properties":{"c":"CDC-2656282","o":"Leopard Lake Gold Corp. 100%","e":""},"geometry":{"type":"Polygon","coordinates":[[[-70.45,45.825],[-70.44167,45.825],[-70.44167,45.81667],[-70.45,45.81667],[-70.45,45.825]]]}},{"type":"Feature","properties":{"c":"CDC-2656288","o":"Leopard Lake Gold Corp. 100%","e":""},"geometry":{"type":"Polygon","coordinates":[[[-70.45,45.83333],[-70.44167,45.83333],[-70.44167,45.825],[-70.45,45.825],[-70.45,45.83333]]]}},{"type":"Feature","properties":{"c":"CDC-2656293","o":"Leopard Lake Gold Corp. 100%","e":""},"geometry":{"type":"Polygon","coordinates":[[[-70.45,45.84167],[-70.44167,45.84167],[-70.44167,45.83333],[-70.45,45.83333],[-70.45,45.84167]]]}},{"type":"Feature","properties":{"c":"CDC-2656298","o":"Leopard Lake Gold Corp. 100%","e":""},"geometry":{"type":"Polygon","coordinates":[[[-70.45,45.85],[-70.44167,45.85],[-70.44167,45.84167],[-70.45,45.84167],[-70.45,45.85]]]}},{"type":"Feature","properties":{"c":"CDC-2816778","o":"Leopard Lake Gold Corp. 100%","e":""},"geometry":{"type":"Polygon","coordinates":[[[-70.45,45.85833],[-70.44167,45.85833],[-70.44167,45.85],[-70.45,45.85],[-70.45,45.85833]]]}},{"type":"Feature","properties":{"c":"CDC-2656307","o":"Leopard Lake Gold Corp. 100%","e":""},"geometry":{"type":"Polygon","coordinates":[[[-70.45,45.86667],[-70.44167,45.86667],[-70.44167,45.85833],[-70.45,45.85833],[-70.45,45.86667]]]}},{"type":"Feature","properties":{"c":"CDC-2656289","o":"Leopard Lake Gold Corp. 100%","e":""},"geometry":{"type":"Polygon","coordinates":[[[-70.44167,45.83333],[-70.43333,45.83333],[-70.43333,45.825],[-70.44167,45.825],[-70.44167,45.83333]]]}},{"type":"Feature","properties":{"c":"CDC-2656294","o":"Leopard Lake Gold Corp. 100%","e":""},"geometry":{"type":"Polygon","coordinates":[[[-70.44167,45.84167],[-70.43333,45.84167],[-70.43333,45.83333],[-70.44167,45.83333],[-70.44167,45.84167]]]}},{"type":"Feature","properties":{"c":"CDC-2816777","o":"Leopard Lake Gold Corp. 100%","e":""},"geometry":{"type":"Polygon","coordinates":[[[-70.44167,45.85],[-70.43333,45.85],[-70.43333,45.84167],[-70.44167,45.84167],[-70.44167,45.85]]]}},{"type":"Feature","properties":{"c":"CDC-2656303","o":"Leopard Lake Gold Corp. 100%","e":""},"geometry":{"type":"Polygon","coordinates":[[[-70.44167,45.85833],[-70.43333,45.85833],[-70.43333,45.85],[-70.44167,45.85],[-70.44167,45.85833]]]}},{"type":"Feature","properties":{"c":"CDC-2656308","o":"Leopard Lake Gold Corp. 100%","e":""},"geometry":{"type":"Polygon","coordinates":[[[-70.44167,45.86667],[-70.43333,45.86667],[-70.43333,45.85833],[-70.44167,45.85833],[-70.44167,45.86667]]]}},{"type":"Feature","properties":{"c":"CDC-2825792","o":"Leopard Lake Gold Corp. 100%","e":""},"geometry":{"type":"Polygon","coordinates":[[[-70.44167,45.875],[-70.43333,45.875],[-70.43333,45.86667],[-70.44167,45.86667],[-70.44167,45.875]]]}},{"type":"Feature","properties":{"c":"CDC-2656290","o":"Leopard Lake Gold Corp. 100%","e":""},"geometry":{"type":"Polygon","coordinates":[[[-70.43333,45.83333],[-70.425,45.83333],[-70.425,45.825],[-70.43333,45.825],[-70.43333,45.83333]]]}},{"type":"Feature","properties":{"c":"CDC-2656295","o":"Leopard Lake Gold Corp. 100%","e":""},"geometry":{"type":"Polygon","coordinates":[[[-70.43333,45.84167],[-70.425,45.84167],[-70.425,45.83333],[-70.43333,45.83333],[-70.43333,45.84167]]]}},{"type":"Feature","properties":{"c":"CDC-2656299","o":"Leopard Lake Gold Corp. 100%","e":""},"geometry":{"type":"Polygon","coordinates":[[[-70.43333,45.85],[-70.425,45.85],[-70.425,45.84167],[-70.43333,45.84167],[-70.43333,45.85]]]}},{"type":"Feature","properties":{"c":"CDC-2656304","o":"Leopard Lake Gold Corp. 100%","e":""},"geometry":{"type":"Polygon","coordinates":[[[-70.43333,45.85833],[-70.425,45.85833],[-70.425,45.85],[-70.43333,45.85],[-70.43333,45.85833]]]}},{"type":"Feature","properties":{"c":"CDC-2822508","o":"Leopard Lake Gold Corp. 100%","e":""},"geometry":{"type":"Polygon","coordinates":[[[-70.43333,45.86667],[-70.425,45.86667],[-70.425,45.85833],[-70.43333,45.85833],[-70.43333,45.86667]]]}},{"type":"Feature","properties":{"c":"CDC-2825793","o":"Leopard Lake Gold Corp. 100%","e":""},"geometry":{"type":"Polygon","coordinates":[[[-70.43333,45.86667],[-70.43333,45.875],[-70.425,45.875],[-70.425,45.86667],[-70.43333,45.86667]]]}},{"type":"Feature","properties":{"c":"CDC-2656291","o":"Leopard Lake Gold Corp. 100%","e":""},"geometry":{"type":"Polygon","coordinates":[[[-70.425,45.83333],[-70.41667,45.83333],[-70.41667,45.825],[-70.425,45.825],[-70.425,45.83333]]]}},{"type":"Feature","properties":{"c":"CDC-2656296","o":"Leopard Lake Gold Corp. 100%","e":""},"geometry":{"type":"Polygon","coordinates":[[[-70.425,45.84167],[-70.41667,45.84167],[-70.41667,45.83333],[-70.425,45.83333],[-70.425,45.84167]]]}},{"type":"Feature","properties":{"c":"CDC-2656300","o":"Leopard Lake Gold Corp. 100%","e":""},"geometry":{"type":"Polygon","coordinates":[[[-70.425,45.85],[-70.41667,45.85],[-70.41667,45.84167],[-70.425,45.84167],[-70.425,45.85]]]}},{"type":"Feature","properties":{"c":"CDC-2656305","o":"Leopard Lake Gold Corp. 100%","e":""},"geometry":{"type":"Polygon","coordinates":[[[-70.425,45.85833],[-70.41667,45.85833],[-70.41667,45.85],[-70.425,45.85],[-70.425,45.85833]]]}},{"type":"Feature","properties":{"c":"CDC-2825794","o":"Leopard Lake Gold Corp. 100%","e":""},"geometry":{"type":"Polygon","coordinates":[[[-70.425,45.875],[-70.41667,45.875],[-70.41667,45.86667],[-70.425,45.86667],[-70.425,45.875]]]}},{"type":"Feature","properties":{"c":"CDC-2656050","o":"Leopard Lake Gold Corp. 100%","e":""},"geometry":{"type":"Polygon","coordinates":[[[-70.41667,45.83333],[-70.40833,45.83333],[-70.40833,45.825],[-70.41667,45.825],[-70.41667,45.83333]]]}},{"type":"Feature","properties":{"c":"CDC-2656297","o":"Leopard Lake Gold Corp. 100%","e":""},"geometry":{"type":"Polygon","coordinates":[[[-70.41667,45.84167],[-70.40833,45.84167],[-70.40833,45.83333],[-70.41667,45.83333],[-70.41667,45.84167]]]}},{"type":"Feature","properties":{"c":"CDC-2656301","o":"Leopard Lake Gold Corp. 100%","e":""},"geometry":{"type":"Polygon","coordinates":[[[-70.41667,45.84167],[-70.41667,45.85],[-70.40833,45.85],[-70.40833,45.84167],[-70.41667,45.84167]]]}},{"type":"Feature","properties":{"c":"CDC-2656306","o":"Leopard Lake Gold Corp. 100%","e":""},"geometry":{"type":"Polygon","coordinates":[[[-70.41667,45.85833],[-70.40833,45.85833],[-70.40833,45.85],[-70.41667,45.85],[-70.41667,45.85833]]]}},{"type":"Feature","properties":{"c":"CDC-2607411","o":"Leopard Lake Gold Corp. 100%","e":""},"geometry":{"type":"Polygon","coordinates":[[[-70.50833,45.79167],[-70.5,45.79167],[-70.5,45.78878],[-70.50833,45.78581],[-70.50833,45.79167]]]}},{"type":"Feature","properties":{"c":"CDC-2607414","o":"Leopard Lake Gold Corp. 100%","e":""},"geometry":{"type":"Polygon","coordinates":[[[-70.5,45.79167],[-70.50833,45.79167],[-70.50833,45.8],[-70.50421,45.8],[-70.503,45.79838],[-70.5,45.79438],[-70.5,45.79167]]]}},{"type":"Feature","properties":{"c":"CDC-2618220","o":"Leopard Lake Gold Corp. 100%","e":""},"geometry":{"type":"Polygon","coordinates":[[[-70.5,45.79438],[-70.503,45.79838],[-70.5,45.7995],[-70.5,45.79438]]]}},{"type":"Feature","properties":{"c":"CDC-2611794","o":"Leopard Lake Gold Corp. 100%","e":""},"geometry":{"type":"Polygon","coordinates":[[[-70.5,45.7995],[-70.503,45.79838],[-70.50421,45.8],[-70.5,45.8],[-70.5,45.7995]]]}},{"type":"Feature","properties":{"c":"CDC-2597666","o":"Leopard Lake Gold Corp. 100%","e":""},"geometry":{"type":"Polygon","coordinates":[[[-70.50833,45.80833],[-70.5,45.80833],[-70.5,45.8],[-70.50833,45.8],[-70.50833,45.80833]]]}},{"type":"Feature","properties":{"c":"CDC-2597823","o":"Leopard Lake Gold Corp. 100%","e":""},"geometry":{"type":"Polygon","coordinates":[[[-70.50833,45.81667],[-70.5,45.81667],[-70.5,45.80833],[-70.50833,45.80833],[-70.50833,45.81667]]]}},{"type":"Feature","properties":{"c":"CDC-2766255","o":"Les Mines J.A.G. Lt\u00e9e 100%","e":""},"geometry":{"type":"Polygon","coordinates":[[[-70.5,45.78346],[-70.49354,45.78575],[-70.49167,45.78647],[-70.49167,45.78333],[-70.5,45.78333],[-70.5,45.78346]]]}},{"type":"Feature","properties":{"c":"CDC-2607417","o":"Leopard Lake Gold Corp. 100%","e":""},"geometry":{"type":"MultiPolygon","coordinates":[[[[-70.49167,45.78647],[-70.49354,45.78575],[-70.49669,45.78996],[-70.4922,45.79167],[-70.49167,45.79167],[-70.49167,45.78647]]],[[[-70.5,45.78878],[-70.5,45.79167],[-70.49797,45.79167],[-70.49669,45.78996],[-70.5,45.78878]]]]}},{"type":"Feature","properties":{"c":"CDC-2597670","o":"Leopard Lake Gold Corp. 100%","e":""},"geometry":{"type":"Polygon","coordinates":[[[-70.49167,45.8],[-70.49167,45.79167],[-70.5,45.79167],[-70.5,45.8],[-70.49167,45.8]]]}},{"type":"Feature","properties":{"c":"CDC-2611795","o":"Leopard Lake Gold Corp. 100%","e":""},"geometry":{"type":"Polygon","coordinates":[[[-70.5,45.8],[-70.5,45.80833],[-70.49167,45.80833],[-70.49167,45.80262],[-70.49867,45.8],[-70.5,45.8]]]}},{"type":"Feature","properties":{"c":"CDC-2597824","o":"Leopard Lake Gold Corp. 100%","e":""},"geometry":{"type":"Polygon","coordinates":[[[-70.5,45.81667],[-70.49167,45.81667],[-70.49167,45.80833],[-70.5,45.80833],[-70.5,45.81667]]]}},{"type":"Feature","properties":{"c":"CDC-2618223","o":"Leopard Lake Gold Corp. 100%","e":""},"geometry":{"type":"Polygon","coordinates":[[[-70.49167,45.80262],[-70.49167,45.8],[-70.49867,45.8],[-70.49167,45.80262]]]}},{"type":"Feature","properties":{"c":"CDC-2618222","o":"Leopard Lake Gold Corp. 100%","e":""},"geometry":{"type":"Polygon","coordinates":[[[-70.49797,45.79167],[-70.4922,45.79167],[-70.49669,45.78996],[-70.49797,45.79167]]]}},{"type":"Feature","properties":{"c":"CDC-2607418","o":"Leopard Lake Gold Corp. 100%","e":""},"geometry":{"type":"Polygon","coordinates":[[[-70.49167,45.79167],[-70.48333,45.79167],[-70.48333,45.78333],[-70.49167,45.78333],[-70.49167,45.79167]]]}},{"type":"Feature","properties":{"c":"CDC-2597671","o":"Leopard Lake Gold Corp. 100%","e":""},"geometry":{"type":"Polygon","coordinates":[[[-70.49167,45.8],[-70.48333,45.8],[-70.48333,45.79167],[-70.49167,45.79167],[-70.49167,45.8]]]}},{"type":"Feature","properties":{"c":"CDC-2597675","o":"Leopard Lake Gold Corp. 100%","e":""},"geometry":{"type":"Polygon","coordinates":[[[-70.48333,45.80833],[-70.48333,45.8],[-70.49167,45.8],[-70.49167,45.80262],[-70.49167,45.80833],[-70.48333,45.80833]]]}},{"type":"Feature","properties":{"c":"CDC-2611796","o":"Leopard Lake Gold Corp. 100%","e":""},"geometry":{"type":"Polygon","coordinates":[[[-70.49167,45.81667],[-70.48333,45.81667],[-70.48333,45.80833],[-70.49167,45.80833],[-70.49167,45.81667]]]}},{"type":"Feature","properties":{"c":"CDC-2541183","o":"Leopard Lake Gold Corp. 100%","e":""},"geometry":{"type":"Polygon","coordinates":[[[-70.48333,45.79167],[-70.475,45.79167],[-70.475,45.78333],[-70.48333,45.78333],[-70.48333,45.79167]]]}},{"type":"Feature","properties":{"c":"CDC-2597672","o":"Leopard Lake Gold Corp. 100%","e":""},"geometry":{"type":"Polygon","coordinates":[[[-70.48333,45.8],[-70.475,45.8],[-70.475,45.79167],[-70.48333,45.79167],[-70.48333,45.8]]]}},{"type":"Feature","properties":{"c":"CDC-2618224","o":"Leopard Lake Gold Corp. 100%","e":""},"geometry":{"type":"Polygon","coordinates":[[[-70.48333,45.80833],[-70.475,45.80833],[-70.475,45.8],[-70.48333,45.8],[-70.48333,45.80833]]]}},{"type":"Feature","properties":{"c":"CDC-2656274","o":"Leopard Lake Gold Corp. 100%","e":""},"geometry":{"type":"Polygon","coordinates":[[[-70.48333,45.81667],[-70.475,45.81667],[-70.475,45.80833],[-70.48333,45.80833],[-70.48333,45.81667]]]}},{"type":"Feature","properties":{"c":"CDC-2597669","o":"Leopard Lake Gold Corp. 100%","e":""},"geometry":{"type":"Polygon","coordinates":[[[-70.475,45.79167],[-70.46667,45.79167],[-70.46667,45.78333],[-70.475,45.78333],[-70.475,45.79167]]]}},{"type":"Feature","properties":{"c":"CDC-2887930","o":"Anne-Sophie Renou 100%","e":""},"geometry":{"type":"Polygon","coordinates":[[[-70.475,45.8],[-70.46667,45.8],[-70.46667,45.79167],[-70.475,45.79167],[-70.475,45.8]]]}},{"type":"Feature","properties":{"c":"CDC-2656273","o":"Leopard Lake Gold Corp. 100%","e":""},"geometry":{"type":"Polygon","coordinates":[[[-70.475,45.80833],[-70.46667,45.80833],[-70.46667,45.8],[-70.475,45.8],[-70.475,45.80833]]]}},{"type":"Feature","properties":{"c":"CDC-2656275","o":"Leopard Lake Gold Corp. 100%","e":""},"geometry":{"type":"Polygon","coordinates":[[[-70.475,45.81667],[-70.46667,45.81667],[-70.46667,45.80833],[-70.475,45.80833],[-70.475,45.81667]]]}},{"type":"Feature","properties":{"c":"CDC-2846696","o":"Leopard Lake Gold Corp. 100%","e":""},"geometry":{"type":"Polygon","coordinates":[[[-70.46667,45.79167],[-70.45833,45.79167],[-70.45833,45.78333],[-70.46667,45.78333],[-70.46667,45.79167]]]}},{"type":"Feature","properties":{"c":"CDC-2887931","o":"Anne-Sophie Renou 100%","e":""},"geometry":{"type":"Polygon","coordinates":[[[-70.46667,45.8],[-70.45833,45.8],[-70.45833,45.79167],[-70.46667,45.79167],[-70.46667,45.8]]]}},{"type":"Feature","properties":{"c":"CDC-2877541","o":"Norman Ross 100%","e":""},"geometry":{"type":"Polygon","coordinates":[[[-70.46667,45.80833],[-70.45833,45.80833],[-70.45833,45.8],[-70.46667,45.8],[-70.46667,45.80833]]]}},{"type":"Feature","properties":{"c":"CDC-2656276","o":"Leopard Lake Gold Corp. 100%","e":""},"geometry":{"type":"Polygon","coordinates":[[[-70.46667,45.81667],[-70.45833,45.81667],[-70.45833,45.80833],[-70.46667,45.80833],[-70.46667,45.81667]]]}},{"type":"Feature","properties":{"c":"CDC-2846697","o":"Leopard Lake Gold Corp. 100%","e":""},"geometry":{"type":"Polygon","coordinates":[[[-70.45833,45.79167],[-70.45,45.79167],[-70.45,45.78333],[-70.45833,45.78333],[-70.45833,45.79167]]]}},{"type":"Feature","properties":{"c":"CDC-2846698","o":"Leopard Lake Gold Corp. 100%","e":""},"geometry":{"type":"Polygon","coordinates":[[[-70.45833,45.8],[-70.45,45.8],[-70.45,45.79167],[-70.45833,45.79167],[-70.45833,45.8]]]}},{"type":"Feature","properties":{"c":"CDC-2877542","o":"Norman Ross 100%","e":""},"geometry":{"type":"Polygon","coordinates":[[[-70.45833,45.80833],[-70.45,45.80833],[-70.45,45.8],[-70.45833,45.8],[-70.45833,45.80833]]]}},{"type":"Feature","properties":{"c":"CDC-2656277","o":"Leopard Lake Gold Corp. 100%","e":""},"geometry":{"type":"Polygon","coordinates":[[[-70.45833,45.81667],[-70.45,45.81667],[-70.45,45.80833],[-70.45833,45.80833],[-70.45833,45.81667]]]}},{"type":"Feature","properties":{"c":"CDC-2656329","o":"Leopard Lake Gold Corp. 100%","e":""},"geometry":{"type":"Polygon","coordinates":[[[-70.45,45.79167],[-70.44167,45.79167],[-70.44167,45.78333],[-70.45,45.78333],[-70.45,45.79167]]]}},{"type":"Feature","properties":{"c":"CDC-2656333","o":"Leopard Lake Gold Corp. 100%","e":""},"geometry":{"type":"Polygon","coordinates":[[[-70.45,45.8],[-70.44167,45.8],[-70.44167,45.79167],[-70.45,45.79167],[-70.45,45.8]]]}},{"type":"Feature","properties":{"c":"CDC-2877543","o":"Norman Ross 100%","e":""},"geometry":{"type":"Polygon","coordinates":[[[-70.45,45.80833],[-70.44167,45.80833],[-70.44167,45.8],[-70.45,45.8],[-70.45,45.80833]]]}},{"type":"Feature","properties":{"c":"CDC-2877544","o":"Norman Ross 100%","e":""},"geometry":{"type":"Polygon","coordinates":[[[-70.45,45.81667],[-70.44167,45.81667],[-70.44167,45.80833],[-70.45,45.80833],[-70.45,45.81667]]]}},{"type":"Feature","properties":{"c":"CDC-2656330","o":"Leopard Lake Gold Corp. 100%","e":""},"geometry":{"type":"Polygon","coordinates":[[[-70.44167,45.79167],[-70.43333,45.79167],[-70.43333,45.78333],[-70.44167,45.78333],[-70.44167,45.79167]]]}},{"type":"Feature","properties":{"c":"CDC-2656334","o":"Leopard Lake Gold Corp. 100%","e":""},"geometry":{"type":"Polygon","coordinates":[[[-70.44167,45.8],[-70.43333,45.8],[-70.43333,45.79167],[-70.44167,45.79167],[-70.44167,45.8]]]}},{"type":"Feature","properties":{"c":"CDC-2656337","o":"Leopard Lake Gold Corp. 100%","e":""},"geometry":{"type":"Polygon","coordinates":[[[-70.44167,45.80833],[-70.43333,45.80833],[-70.43333,45.8],[-70.44167,45.8],[-70.44167,45.80833]]]}},{"type":"Feature","properties":{"c":"CDC-2877545","o":"Norman Ross 100%","e":""},"geometry":{"type":"Polygon","coordinates":[[[-70.44167,45.81667],[-70.43333,45.81667],[-70.43333,45.80833],[-70.44167,45.80833],[-70.44167,45.81667]]]}},{"type":"Feature","properties":{"c":"CDC-2656283","o":"Leopard Lake Gold Corp. 100%","e":""},"geometry":{"type":"Polygon","coordinates":[[[-70.44167,45.825],[-70.43333,45.825],[-70.43333,45.81667],[-70.44167,45.81667],[-70.44167,45.825]]]}},{"type":"Feature","properties":{"c":"CDC-2656331","o":"Leopard Lake Gold Corp. 100%","e":""},"geometry":{"type":"Polygon","coordinates":[[[-70.43333,45.79167],[-70.425,45.79167],[-70.425,45.78333],[-70.43333,45.78333],[-70.43333,45.79167]]]}},{"type":"Feature","properties":{"c":"CDC-2656335","o":"Leopard Lake Gold Corp. 100%","e":""},"geometry":{"type":"Polygon","coordinates":[[[-70.43333,45.8],[-70.425,45.8],[-70.425,45.79167],[-70.43333,45.79167],[-70.43333,45.8]]]}},{"type":"Feature","properties":{"c":"CDC-2656338","o":"Leopard Lake Gold Corp. 100%","e":""},"geometry":{"type":"Polygon","coordinates":[[[-70.43333,45.80833],[-70.425,45.80833],[-70.425,45.8],[-70.43333,45.8],[-70.43333,45.80833]]]}},{"type":"Feature","properties":{"c":"CDC-2656342","o":"Leopard Lake Gold Corp. 100%","e":""},"geometry":{"type":"Polygon","coordinates":[[[-70.43333,45.81667],[-70.425,45.81667],[-70.425,45.80833],[-70.43333,45.80833],[-70.43333,45.81667]]]}},{"type":"Feature","properties":{"c":"CDC-2656284","o":"Leopard Lake Gold Corp. 100%","e":""},"geometry":{"type":"Polygon","coordinates":[[[-70.43333,45.825],[-70.425,45.825],[-70.425,45.81667],[-70.43333,45.81667],[-70.43333,45.825]]]}},{"type":"Feature","properties":{"c":"CDC-2656332","o":"Leopard Lake Gold Corp. 100%","e":""},"geometry":{"type":"Polygon","coordinates":[[[-70.425,45.79167],[-70.41667,45.79167],[-70.41667,45.78333],[-70.425,45.78333],[-70.425,45.79167]]]}},{"type":"Feature","properties":{"c":"CDC-2656336","o":"Leopard Lake Gold Corp. 100%","e":""},"geometry":{"type":"Polygon","coordinates":[[[-70.41667,45.8],[-70.41667,45.7956],[-70.41687,45.79554],[-70.41698,45.79538],[-70.41745,45.79454],[-70.41781,45.79398],[-70.41702,45.79344],[-70.41667,45.79352],[-70.41667,45.79167],[-70.425,45.79167],[-70.425,45.8],[-70.41667,45.8]]]}},{"type":"Feature","properties":{"c":"CDC-2656339","o":"Leopard Lake Gold Corp. 100%","e":""},"geometry":{"type":"Polygon","coordinates":[[[-70.425,45.80833],[-70.41667,45.80833],[-70.41667,45.8],[-70.425,45.8],[-70.425,45.80833]]]}},{"type":"Feature","properties":{"c":"CDC-2656343","o":"Leopard Lake Gold Corp. 100%","e":""},"geometry":{"type":"Polygon","coordinates":[[[-70.425,45.81667],[-70.41667,45.81667],[-70.41667,45.80833],[-70.425,45.80833],[-70.425,45.81667]]]}},{"type":"Feature","properties":{"c":"CDC-2656046","o":"Leopard Lake Gold Corp. 100%","e":""},"geometry":{"type":"Polygon","coordinates":[[[-70.425,45.825],[-70.41667,45.825],[-70.41667,45.81667],[-70.425,45.81667],[-70.425,45.825]]]}},{"type":"Feature","properties":{"c":"CDC-2656340","o":"Leopard Lake Gold Corp. 100%","e":""},"geometry":{"type":"Polygon","coordinates":[[[-70.41667,45.80833],[-70.40833,45.80833],[-70.40833,45.8],[-70.41667,45.8],[-70.41667,45.80833]]]}},{"type":"Feature","properties":{"c":"CDC-2656344","o":"Leopard Lake Gold Corp. 100%","e":""},"geometry":{"type":"Polygon","coordinates":[[[-70.41667,45.81667],[-70.40833,45.81667],[-70.40833,45.80833],[-70.41667,45.80833],[-70.41667,45.81667]]]}},{"type":"Feature","properties":{"c":"CDC-2656047","o":"Leopard Lake Gold Corp. 100%","e":""},"geometry":{"type":"Polygon","coordinates":[[[-70.41667,45.825],[-70.40833,45.825],[-70.40833,45.81667],[-70.41667,45.81667],[-70.41667,45.825]]]}},{"type":"Feature","properties":{"c":"CDC-2656341","o":"Leopard Lake Gold Corp. 100%","e":""},"geometry":{"type":"Polygon","coordinates":[[[-70.40833,45.80833],[-70.4,45.80833],[-70.4,45.8],[-70.40833,45.8],[-70.40833,45.80833]]]}},{"type":"Feature","properties":{"c":"CDC-2656345","o":"Leopard Lake Gold Corp. 100%","e":""},"geometry":{"type":"Polygon","coordinates":[[[-70.40833,45.81667],[-70.4,45.81667],[-70.4,45.80833],[-70.40833,45.80833],[-70.40833,45.81667]]]}},{"type":"Feature","properties":{"c":"CDC-2656048","o":"Leopard Lake Gold Corp. 100%","e":""},"geometry":{"type":"Polygon","coordinates":[[[-70.40833,45.825],[-70.4,45.825],[-70.4,45.81667],[-70.40833,45.81667],[-70.40833,45.825]]]}},{"type":"Feature","properties":{"c":"CDC-2656346","o":"Leopard Lake Gold Corp. 100%","e":""},"geometry":{"type":"Polygon","coordinates":[[[-70.39167,45.81143],[-70.39547,45.80911],[-70.39585,45.80879],[-70.39601,45.80866],[-70.3964,45.80833],[-70.4,45.80833],[-70.4,45.81667],[-70.39167,45.81667],[-70.39167,45.81143]]]}},{"type":"Feature","properties":{"c":"CDC-2656049","o":"Leopard Lake Gold Corp. 100%","e":""},"geometry":{"type":"Polygon","coordinates":[[[-70.4,45.81667],[-70.4,45.825],[-70.39167,45.825],[-70.39167,45.81667],[-70.4,45.81667]]]}},{"type":"Feature","properties":{"c":"CDC-2766244","o":"Les Mines J.A.G. Lt\u00e9e 100%","e":""},"geometry":{"type":"Polygon","coordinates":[[[-70.5,45.76667],[-70.50833,45.76667],[-70.50833,45.775],[-70.5,45.775],[-70.5,45.76667]]]}},{"type":"Feature","properties":{"c":"CDC-2766264","o":"Les Mines J.A.G. Lt\u00e9e 100%","e":""},"geometry":{"type":"Polygon","coordinates":[[[-70.50037,45.78333],[-70.5,45.78333],[-70.5,45.775],[-70.50833,45.775],[-70.50833,45.78052],[-70.50037,45.78333]]]}},{"type":"Feature","properties":{"c":"CDC-2518565","o":"Leopard Lake Gold Corp. 100%","e":""},"geometry":{"type":"Polygon","coordinates":[[[-70.51282,45.77894],[-70.51589,45.78312],[-70.49669,45.78996],[-70.49354,45.78575],[-70.51282,45.77894]]]}},{"type":"Feature","properties":{"c":"CDC-2766248","o":"Les Mines J.A.G. Lt\u00e9e 100%","e":""},"geometry":{"type":"Polygon","coordinates":[[[-70.50037,45.78333],[-70.5,45.78346],[-70.5,45.78333],[-70.50037,45.78333]]]}},{"type":"Feature","properties":{"c":"CDC-2656313","o":"Leopard Lake Gold Corp. 100%","e":""},"geometry":{"type":"Polygon","coordinates":[[[-70.5,45.75833],[-70.49167,45.75833],[-70.49167,45.75],[-70.5,45.75],[-70.5,45.75833]]]}},{"type":"Feature","properties":{"c":"CDC-2606779","o":"Leopard Lake Gold Corp. 100%","e":""},"geometry":{"type":"Polygon","coordinates":[[[-70.49167,45.76],[-70.49636,45.75833],[-70.5,45.75833],[-70.5,45.76239],[-70.49167,45.76534],[-70.49167,45.76]]]}},{"type":"Feature","properties":{"c":"CDC-2766239","o":"Les Mines J.A.G. Lt\u00e9e 100%","e":""},"geometry":{"type":"Polygon","coordinates":[[[-70.49167,45.76534],[-70.5,45.76239],[-70.5,45.76667],[-70.49167,45.76667],[-70.49167,45.76534]]]}},{"type":"Feature","properties":{"c":"CDC-2766252","o":"Les Mines J.A.G. Lt\u00e9e 100%","e":""},"geometry":{"type":"Polygon","coordinates":[[[-70.49167,45.76667],[-70.5,45.76667],[-70.5,45.775],[-70.49167,45.775],[-70.49167,45.76667]]]}},{"type":"Feature","properties":{"c":"CDC-2766245","o":"Les Mines J.A.G. Lt\u00e9e 100%","e":""},"geometry":{"type":"Polygon","coordinates":[[[-70.5,45.775],[-70.5,45.78333],[-70.49173,45.78333],[-70.49167,45.78324],[-70.49167,45.775],[-70.5,45.775]]]}},{"type":"Feature","properties":{"c":"CDC-2689975","o":"Leopard Lake Gold Corp. 100%","e":""},"geometry":{"type":"Polygon","coordinates":[[[-70.48333,45.75833],[-70.49167,45.75833],[-70.49636,45.75833],[-70.48333,45.76297],[-70.48333,45.75833]]]}},{"type":"Feature","properties":{"c":"CDC-2656310","o":"Leopard Lake Gold Corp. 100%","e":""},"geometry":{"type":"Polygon","coordinates":[[[-70.49167,45.75],[-70.48333,45.75],[-70.48333,45.74167],[-70.49167,45.74167],[-70.49167,45.75]]]}},{"type":"Feature","properties":{"c":"CDC-2656314","o":"Leopard Lake Gold Corp. 100%","e":""},"geometry":{"type":"Polygon","coordinates":[[[-70.49167,45.75833],[-70.48333,45.75833],[-70.48333,45.75],[-70.49167,45.75],[-70.49167,45.75833]]]}},{"type":"Feature","properties":{"c":"CDC-2606780","o":"Leopard Lake Gold Corp. 100%","e":""},"geometry":{"type":"Polygon","coordinates":[[[-70.48792,45.76667],[-70.48333,45.76667],[-70.48333,45.76297],[-70.49167,45.76],[-70.49167,45.76534],[-70.48792,45.76667]]]}},{"type":"Feature","properties":{"c":"CDC-2766257","o":"Les Mines J.A.G. Lt\u00e9e 100%","e":""},"geometry":{"type":"Polygon","coordinates":[[[-70.48792,45.76667],[-70.49167,45.76534],[-70.49167,45.76667],[-70.48792,45.76667]]]}},{"type":"Feature","properties":{"c":"CDC-2766247","o":"Les Mines J.A.G. Lt\u00e9e 100%","e":""},"geometry":{"type":"Polygon","coordinates":[[[-70.49167,45.76667],[-70.49167,45.775],[-70.48535,45.775],[-70.48406,45.77333],[-70.48333,45.77238],[-70.48333,45.76829],[-70.48792,45.76667],[-70.49167,45.76667]]]}},{"type":"Feature","properties":{"c":"CDC-2766261","o":"Les Mines J.A.G. Lt\u00e9e 100%","e":""},"geometry":{"type":"Polygon","coordinates":[[[-70.49167,45.775],[-70.49167,45.78333],[-70.48333,45.78333],[-70.48333,45.77895],[-70.48728,45.77751],[-70.48568,45.77543],[-70.48535,45.775],[-70.49167,45.775]]]}},{"type":"Feature","properties":{"c":"CDC-2606781","o":"Leopard Lake Gold Corp. 100%","e":""},"geometry":{"type":"Polygon","coordinates":[[[-70.48333,45.76667],[-70.48792,45.76667],[-70.48333,45.76829],[-70.48333,45.76667]]]}},{"type":"Feature","properties":{"c":"CDC-2607416","o":"Leopard Lake Gold Corp. 100%","e":""},"geometry":{"type":"Polygon","coordinates":[[[-70.48728,45.77751],[-70.48333,45.77895],[-70.48333,45.775],[-70.48535,45.775],[-70.48568,45.77543],[-70.48728,45.77751]]]}},{"type":"Feature","properties":{"c":"CDC-2607415","o":"Leopard Lake Gold Corp. 100%","e":""},"geometry":{"type":"Polygon","coordinates":[[[-70.48333,45.775],[-70.48333,45.77238],[-70.48406,45.77333],[-70.48535,45.775],[-70.48333,45.775]]]}},{"type":"Feature","properties":{"c":"CDC-2656311","o":"Leopard Lake Gold Corp. 100%","e":""},"geometry":{"type":"Polygon","coordinates":[[[-70.48333,45.75],[-70.475,45.75],[-70.475,45.74167],[-70.48333,45.74167],[-70.48333,45.75]]]}},{"type":"Feature","properties":{"c":"CDC-2656315","o":"Leopard Lake Gold Corp. 100%","e":""},"geometry":{"type":"Polygon","coordinates":[[[-70.48333,45.75833],[-70.475,45.75833],[-70.475,45.75],[-70.48333,45.75],[-70.48333,45.75833]]]}},{"type":"Feature","properties":{"c":"CDC-2656317","o":"Leopard Lake Gold Corp. 100%","e":""},"geometry":{"type":"Polygon","coordinates":[[[-70.48333,45.76667],[-70.475,45.76667],[-70.475,45.75833],[-70.48333,45.75833],[-70.48333,45.76667]]]}},{"type":"Feature","properties":{"c":"CDC-2606782","o":"Leopard Lake Gold Corp. 100%","e":""},"geometry":{"type":"MultiPolygon","coordinates":[[[[-70.47894,45.76667],[-70.48333,45.76667],[-70.48333,45.76829],[-70.48085,45.76917],[-70.47931,45.76716],[-70.47924,45.76707],[-70.47894,45.76667]]],[[[-70.48246,45.77125],[-70.48333,45.77238],[-70.48333,45.775],[-70.475,45.775],[-70.475,45.77129],[-70.48085,45.76917],[-70.48246,45.77125]]]]}},{"type":"Feature","properties":{"c":"CDC-2766272","o":"Les Mines J.A.G. Lt\u00e9e 100%","e":""},"geometry":{"type":"Polygon","coordinates":[[[-70.48246,45.77125],[-70.48085,45.76917],[-70.48333,45.76829],[-70.48333,45.77238],[-70.48246,45.77125]]]}},{"type":"Feature","properties":{"c":"CDC-2597667","o":"Leopard Lake Gold Corp. 100%","e":""},"geometry":{"type":"Polygon","coordinates":[[[-70.48333,45.78333],[-70.475,45.78333],[-70.475,45.775],[-70.48333,45.775],[-70.48333,45.78333]]]}},{"type":"Feature","properties":{"c":"CDC-2618221","o":"Leopard Lake Gold Corp. 100%","e":""},"geometry":{"type":"Polygon","coordinates":[[[-70.48085,45.76917],[-70.475,45.77129],[-70.475,45.76667],[-70.47894,45.76667],[-70.47924,45.76707],[-70.47931,45.76716],[-70.48085,45.76917]]]}},{"type":"Feature","properties":{"c":"CDC-2842237","o":"Leopard Lake Gold Corp. 100%","e":""},"geometry":{"type":"Polygon","coordinates":[[[-70.475,45.75],[-70.46667,45.75],[-70.46667,45.74167],[-70.475,45.74167],[-70.475,45.75]]]}},{"type":"Feature","properties":{"c":"CDC-2656316","o":"Leopard Lake Gold Corp. 100%","e":""},"geometry":{"type":"Polygon","coordinates":[[[-70.475,45.75833],[-70.46667,45.75833],[-70.46667,45.75],[-70.475,45.75],[-70.475,45.75833]]]}},{"type":"Feature","properties":{"c":"CDC-2656318","o":"Leopard Lake Gold Corp. 100%","e":""},"geometry":{"type":"Polygon","coordinates":[[[-70.475,45.76667],[-70.46667,45.76667],[-70.46667,45.75833],[-70.475,45.75833],[-70.475,45.76667]]]}},{"type":"Feature","properties":{"c":"CDC-2656321","o":"Leopard Lake Gold Corp. 100%","e":""},"geometry":{"type":"Polygon","coordinates":[[[-70.475,45.775],[-70.46667,45.775],[-70.46667,45.76667],[-70.475,45.76667],[-70.475,45.775]]]}},{"type":"Feature","properties":{"c":"CDC-2597668","o":"Leopard Lake Gold Corp. 100%","e":""},"geometry":{"type":"Polygon","coordinates":[[[-70.475,45.78333],[-70.46667,45.78333],[-70.46667,45.775],[-70.475,45.775],[-70.475,45.78333]]]}},{"type":"Feature","properties":{"c":"CDC-2842238","o":"Leopard Lake Gold Corp. 100%","e":""},"geometry":{"type":"Polygon","coordinates":[[[-70.46667,45.75],[-70.45833,45.75],[-70.45833,45.74167],[-70.46667,45.74167],[-70.46667,45.75]]]}},{"type":"Feature","properties":{"c":"CDC-2842242","o":"Leopard Lake Gold Corp. 100%","e":""},"geometry":{"type":"Polygon","coordinates":[[[-70.46667,45.75833],[-70.45833,45.75833],[-70.45833,45.75],[-70.46667,45.75],[-70.46667,45.75833]]]}},{"type":"Feature","properties":{"c":"CDC-2656319","o":"Leopard Lake Gold Corp. 100%","e":""},"geometry":{"type":"Polygon","coordinates":[[[-70.46667,45.76667],[-70.45833,45.76667],[-70.45833,45.75833],[-70.46667,45.75833],[-70.46667,45.76667]]]}},{"type":"Feature","properties":{"c":"CDC-2656322","o":"Leopard Lake Gold Corp. 100%","e":""},"geometry":{"type":"Polygon","coordinates":[[[-70.46667,45.775],[-70.45833,45.775],[-70.45833,45.76667],[-70.46667,45.76667],[-70.46667,45.775]]]}},{"type":"Feature","properties":{"c":"CDC-2656325","o":"Leopard Lake Gold Corp. 100%","e":""},"geometry":{"type":"Polygon","coordinates":[[[-70.46667,45.78333],[-70.45833,45.78333],[-70.45833,45.775],[-70.46667,45.775],[-70.46667,45.78333]]]}},{"type":"Feature","properties":{"c":"CDC-2842239","o":"Leopard Lake Gold Corp. 100%","e":""},"geometry":{"type":"Polygon","coordinates":[[[-70.45833,45.75],[-70.45,45.75],[-70.45,45.74167],[-70.45833,45.74167],[-70.45833,45.75]]]}},{"type":"Feature","properties":{"c":"CDC-2842243","o":"Leopard Lake Gold Corp. 100%","e":""},"geometry":{"type":"Polygon","coordinates":[[[-70.45833,45.75833],[-70.45,45.75833],[-70.45,45.75],[-70.45833,45.75],[-70.45833,45.75833]]]}},{"type":"Feature","properties":{"c":"CDC-2656320","o":"Leopard Lake Gold Corp. 100%","e":""},"geometry":{"type":"Polygon","coordinates":[[[-70.45833,45.76667],[-70.45,45.76667],[-70.45,45.75833],[-70.45833,45.75833],[-70.45833,45.76667]]]}},{"type":"Feature","properties":{"c":"CDC-2656323","o":"Leopard Lake Gold Corp. 100%","e":""},"geometry":{"type":"Polygon","coordinates":[[[-70.45833,45.775],[-70.45,45.775],[-70.45,45.76667],[-70.45833,45.76667],[-70.45833,45.775]]]}},{"type":"Feature","properties":{"c":"CDC-2656326","o":"Leopard Lake Gold Corp. 100%","e":""},"geometry":{"type":"Polygon","coordinates":[[[-70.45833,45.78333],[-70.45,45.78333],[-70.45,45.775],[-70.45833,45.775],[-70.45833,45.78333]]]}},{"type":"Feature","properties":{"c":"CDC-2842244","o":"Leopard Lake Gold Corp. 100%","e":""},"geometry":{"type":"Polygon","coordinates":[[[-70.45,45.75833],[-70.44167,45.75833],[-70.44167,45.75],[-70.45,45.75],[-70.45,45.75833]]]}},{"type":"Feature","properties":{"c":"CDC-2842248","o":"Leopard Lake Gold Corp. 100%","e":""},"geometry":{"type":"Polygon","coordinates":[[[-70.45,45.76667],[-70.44167,45.76667],[-70.44167,45.75833],[-70.45,45.75833],[-70.45,45.76667]]]}},{"type":"Feature","properties":{"c":"CDC-2656324","o":"Leopard Lake Gold Corp. 100%","e":""},"geometry":{"type":"Polygon","coordinates":[[[-70.45,45.775],[-70.44167,45.775],[-70.44167,45.76667],[-70.45,45.76667],[-70.45,45.775]]]}},{"type":"Feature","properties":{"c":"CDC-2656327","o":"Leopard Lake Gold Corp. 100%","e":""},"geometry":{"type":"Polygon","coordinates":[[[-70.45,45.78333],[-70.44167,45.78333],[-70.44167,45.775],[-70.45,45.775],[-70.45,45.78333]]]}},{"type":"Feature","properties":{"c":"CDC-2842245","o":"Leopard Lake Gold Corp. 100%","e":""},"geometry":{"type":"Polygon","coordinates":[[[-70.44167,45.75833],[-70.43333,45.75833],[-70.43333,45.75],[-70.44167,45.75],[-70.44167,45.75833]]]}},{"type":"Feature","properties":{"c":"CDC-2842249","o":"Leopard Lake Gold Corp. 100%","e":""},"geometry":{"type":"Polygon","coordinates":[[[-70.44167,45.76667],[-70.43333,45.76667],[-70.43333,45.75833],[-70.44167,45.75833],[-70.44167,45.76667]]]}},{"type":"Feature","properties":{"c":"CDC-2842251","o":"Leopard Lake Gold Corp. 100%","e":""},"geometry":{"type":"Polygon","coordinates":[[[-70.44167,45.775],[-70.43333,45.775],[-70.43333,45.76667],[-70.44167,45.76667],[-70.44167,45.775]]]}},{"type":"Feature","properties":{"c":"CDC-2656328","o":"Leopard Lake Gold Corp. 100%","e":""},"geometry":{"type":"Polygon","coordinates":[[[-70.44167,45.78333],[-70.43333,45.78333],[-70.43333,45.775],[-70.44167,45.775],[-70.44167,45.78333]]]}},{"type":"Feature","properties":{"c":"CDC-2842246","o":"Leopard Lake Gold Corp. 100%","e":""},"geometry":{"type":"Polygon","coordinates":[[[-70.43333,45.75833],[-70.425,45.75833],[-70.425,45.75],[-70.43333,45.75],[-70.43333,45.75833]]]}},{"type":"Feature","properties":{"c":"CDC-2842250","o":"Leopard Lake Gold Corp. 100%","e":""},"geometry":{"type":"Polygon","coordinates":[[[-70.43333,45.76667],[-70.425,45.76667],[-70.425,45.75833],[-70.43333,45.75833],[-70.43333,45.76667]]]}},{"type":"Feature","properties":{"c":"CDC-2842247","o":"Leopard Lake Gold Corp. 100%","e":""},"geometry":{"type":"Polygon","coordinates":[[[-70.425,45.75833],[-70.41667,45.75833],[-70.41667,45.75],[-70.425,45.75],[-70.425,45.75833]]]}},{"type":"Feature","properties":{"c":"CDC-2871789","o":"Leopard Lake Gold Corp. 100%","e":""},"geometry":{"type":"Polygon","coordinates":[[[-70.425,45.76667],[-70.42497,45.76667],[-70.42483,45.76663],[-70.42409,45.76653],[-70.42298,45.76596],[-70.42303,45.76542],[-70.4228,45.76515],[-70.42226,45.76429],[-70.42266,45.76388],[-70.42304,45.76364],[-70.42378,45.76357],[-70.42446,45.76367],[-70.42319,45.76201],[-70.42315,45.76202],[-70.4229,45.76193],[-70.42278,45.7618],[-70.42275,45.76163],[-70.42285,45.76134],[-70.42307,45.76103],[-70.42336,45.76072],[-70.42338,45.76029],[-70.4232,45.7598],[-70.42229,45.7595],[-70.42216,45.75958],[-70.42135,45.75988],[-70.42095,45.76017],[-70.42068,45.76048],[-70.4203,45.76073],[-70.41974,45.76094],[-70.41968,45.7612],[-70.41982,45.76155],[-70.41963,45.76183],[-70.41931,45.76182],[-70.4188,45.76184],[-70.41839,45.76203],[-70.41808,45.76223],[-70.41744,45.76249],[-70.41717,45.76254],[-70.41705,45.76267],[-70.41699,45.76323],[-70.41677,45.76331],[-70.41667,45.76338],[-70.41667,45.75833],[-70.425,45.75833],[-70.425,45.76667]]]}},{"type":"Feature","properties":{"c":"CDC-2864738","o":"Leopard Lake Gold Corp. 100%","e":""},"geometry":{"type":"Polygon","coordinates":[[[-70.41667,45.75833],[-70.40833,45.75833],[-70.40833,45.75],[-70.41667,45.75],[-70.41667,45.75833]]]}},{"type":"Feature","properties":{"c":"CDC-2871790","o":"Leopard Lake Gold Corp. 100%","e":""},"geometry":{"type":"Polygon","coordinates":[[[-70.41667,45.76338],[-70.41662,45.7634],[-70.41629,45.76365],[-70.41582,45.76388],[-70.41541,45.76377],[-70.4152,45.76363],[-70.41489,45.76366],[-70.4148,45.76375],[-70.41493,45.76424],[-70.4148,45.76443],[-70.41433,45.76443],[-70.4143,45.76445],[-70.41434,45.7645],[-70.4143,45.76461],[-70.41417,45.76469],[-70.41413,45.7648],[-70.41421,45.76512],[-70.41407,45.76533],[-70.41393,45.76536],[-70.41361,45.7653],[-70.41348,45.76542],[-70.41345,45.76546],[-70.4135,45.76562],[-70.41345,45.76567],[-70.41314,45.7658],[-70.41312,45.76585],[-70.41288,45.76584],[-70.41283,45.76599],[-70.41281,45.76613],[-70.41247,45.76626],[-70.41247,45.76634],[-70.4123,45.76661],[-70.41225,45.76667],[-70.40833,45.76667],[-70.40833,45.75833],[-70.41667,45.75833],[-70.41667,45.76338]]]}},{"type":"Feature","properties":{"c":"CDC-2864739","o":"Leopard Lake Gold Corp. 100%","e":""},"geometry":{"type":"Polygon","coordinates":[[[-70.40833,45.75833],[-70.40198,45.75833],[-70.40124,45.75773],[-70.40078,45.75736],[-70.40016,45.75733],[-70.4,45.75731],[-70.4,45.75],[-70.40833,45.75],[-70.40833,45.75833]]]}},{"type":"Feature","properties":{"c":"CDC-2864741","o":"Leopard Lake Gold Corp. 100%","e":""},"geometry":{"type":"Polygon","coordinates":[[[-70.40833,45.75833],[-70.40833,45.76667],[-70.40647,45.76667],[-70.40648,45.76597],[-70.40632,45.76469],[-70.40698,45.76385],[-70.407,45.7636],[-70.40709,45.76323],[-70.40703,45.76253],[-70.40648,45.76199],[-70.40545,45.76139],[-70.40506,45.76097],[-70.40346,45.75952],[-70.40292,45.75899],[-70.40251,45.75874],[-70.40218,45.7585],[-70.40198,45.75833],[-70.40833,45.75833]]]}},{"type":"Feature","properties":{"c":"CDC-2864740","o":"Leopard Lake Gold Corp. 100%","e":""},"geometry":{"type":"Polygon","coordinates":[[[-70.4,45.75731],[-70.39836,45.75713],[-70.39749,45.75713],[-70.39587,45.75663],[-70.39561,45.75634],[-70.39542,45.75594],[-70.39488,45.75549],[-70.39466,45.75488],[-70.39441,45.75461],[-70.39392,45.75431],[-70.3938,45.75422],[-70.39368,45.7541],[-70.39201,45.75297],[-70.39167,45.75268],[-70.39167,45.75],[-70.4,45.75],[-70.4,45.75731]]]}},{"type":"Feature","properties":{"c":"CDC-2870264","o":"Leopard Lake Gold Corp. 100%","e":""},"geometry":{"type":"Polygon","coordinates":[[[-70.50833,45.73333],[-70.5,45.73333],[-70.5,45.725],[-70.50833,45.725],[-70.50833,45.73333]]]}},{"type":"Feature","properties":{"c":"CDC-2848657","o":"Leopard Lake Gold Corp. 100%","e":""},"geometry":{"type":"Polygon","coordinates":[[[-70.50833,45.74167],[-70.5,45.74167],[-70.5,45.73333],[-70.50833,45.73333],[-70.50833,45.74167]]]}},{"type":"Feature","properties":{"c":"CDC-2656312","o":"Leopard Lake Gold Corp. 100%","e":""},"geometry":{"type":"Polygon","coordinates":[[[-70.50833,45.75],[-70.5,45.75],[-70.5,45.74167],[-70.50833,45.74167],[-70.50833,45.75]]]}},{"type":"Feature","properties":{"c":"CDC-2606776","o":"Leopard Lake Gold Corp. 100%","e":""},"geometry":{"type":"Polygon","coordinates":[[[-70.50833,45.75],[-70.50833,45.75833],[-70.5,45.75833],[-70.5,45.75162],[-70.50434,45.75],[-70.50833,45.75]]]}},{"type":"Feature","properties":{"c":"CDC-2606778","o":"Leopard Lake Gold Corp. 100%","e":""},"geometry":{"type":"Polygon","coordinates":[[[-70.5,45.75833],[-70.50833,45.75833],[-70.50833,45.75932],[-70.50029,45.76229],[-70.5,45.76239],[-70.5,45.75833]]]}},{"type":"Feature","properties":{"c":"CDC-2766249","o":"Les Mines J.A.G. Lt\u00e9e 100%","e":""},"geometry":{"type":"Polygon","coordinates":[[[-70.5,45.76239],[-70.50029,45.76229],[-70.50833,45.75932],[-70.50833,45.76667],[-70.5,45.76667],[-70.5,45.76239]]]}},{"type":"Feature","properties":{"c":"CDC-2844312","o":"Leopard Lake Gold Corp. 100%","e":""},"geometry":{"type":"Polygon","coordinates":[[[-70.50434,45.75],[-70.5,45.75162],[-70.5,45.75],[-70.50434,45.75]]]}},{"type":"Feature","properties":{"c":"CDC-2848656","o":"Leopard Lake Gold Corp. 100%","e":""},"geometry":{"type":"Polygon","coordinates":[[[-70.5,45.74167],[-70.49167,45.74167],[-70.49167,45.73333],[-70.5,45.73333],[-70.5,45.74167]]]}},{"type":"Feature","properties":{"c":"CDC-2656309","o":"Leopard Lake Gold Corp. 100%","e":""},"geometry":{"type":"Polygon","coordinates":[[[-70.5,45.75],[-70.49167,45.75],[-70.49167,45.74167],[-70.5,45.74167],[-70.5,45.75]]]}},{"type":"Feature","properties":{"c":"CDC-2864718","o":"Leopard Lake Gold Corp. 100%","e":""},"geometry":{"type":"Polygon","coordinates":[[[-70.45,45.73333],[-70.44167,45.73333],[-70.44167,45.725],[-70.45,45.725],[-70.45,45.73333]]]}},{"type":"Feature","properties":{"c":"CDC-2864721","o":"Leopard Lake Gold Corp. 100%","e":""},"geometry":{"type":"Polygon","coordinates":[[[-70.45,45.74167],[-70.44167,45.74167],[-70.44167,45.73333],[-70.45,45.73333],[-70.45,45.74167]]]}},{"type":"Feature","properties":{"c":"CDC-2864724","o":"Leopard Lake Gold Corp. 100%","e":""},"geometry":{"type":"Polygon","coordinates":[[[-70.45,45.75],[-70.44167,45.75],[-70.44167,45.74167],[-70.45,45.74167],[-70.45,45.75]]]}},{"type":"Feature","properties":{"c":"CDC-2864702","o":"Leopard Lake Gold Corp. 100%","e":""},"geometry":{"type":"Polygon","coordinates":[[[-70.43333,45.70609],[-70.43346,45.70603],[-70.43403,45.70585],[-70.43436,45.70572],[-70.43499,45.70568],[-70.43684,45.70479],[-70.43777,45.70454],[-70.43857,45.70417],[-70.43916,45.70388],[-70.4395,45.70399],[-70.43994,45.70424],[-70.44031,45.70438],[-70.44077,45.70511],[-70.44086,45.70519],[-70.44106,45.70539],[-70.44126,45.70524],[-70.44167,45.70515],[-70.44167,45.70833],[-70.43333,45.70833],[-70.43333,45.70609]]]}},{"type":"Feature","properties":{"c":"CDC-2864706","o":"Leopard Lake Gold Corp. 100%","e":""},"geometry":{"type":"Polygon","coordinates":[[[-70.44167,45.71667],[-70.43333,45.71667],[-70.43333,45.70833],[-70.44167,45.70833],[-70.44167,45.71667]]]}},{"type":"Feature","properties":{"c":"CDC-2864712","o":"Leopard Lake Gold Corp. 100%","e":""},"geometry":{"type":"Polygon","coordinates":[[[-70.44167,45.725],[-70.43333,45.725],[-70.43333,45.71667],[-70.44167,45.71667],[-70.44167,45.725]]]}},{"type":"Feature","properties":{"c":"CDC-2864719","o":"Leopard Lake Gold Corp. 100%","e":""},"geometry":{"type":"Polygon","coordinates":[[[-70.44167,45.73333],[-70.43333,45.73333],[-70.43333,45.725],[-70.44167,45.725],[-70.44167,45.73333]]]}},{"type":"Feature","properties":{"c":"CDC-2864722","o":"Leopard Lake Gold Corp. 100%","e":""},"geometry":{"type":"Polygon","coordinates":[[[-70.44167,45.74167],[-70.43333,45.74167],[-70.43333,45.73333],[-70.44167,45.73333],[-70.44167,45.74167]]]}},{"type":"Feature","properties":{"c":"CDC-2864725","o":"Leopard Lake Gold Corp. 100%","e":""},"geometry":{"type":"Polygon","coordinates":[[[-70.44167,45.75],[-70.43333,45.75],[-70.43333,45.74167],[-70.44167,45.74167],[-70.44167,45.75]]]}},{"type":"Feature","properties":{"c":"CDC-2864707","o":"Leopard Lake Gold Corp. 100%","e":""},"geometry":{"type":"Polygon","coordinates":[[[-70.42573,45.71172],[-70.42594,45.71159],[-70.42719,45.71102],[-70.42754,45.71094],[-70.42766,45.71079],[-70.42811,45.71065],[-70.42839,45.71034],[-70.4292,45.71039],[-70.42946,45.71025],[-70.42961,45.71004],[-70.42913,45.70918],[-70.42883,45.7087],[-70.42885,45.70833],[-70.43333,45.70833],[-70.43333,45.71667],[-70.425,45.71667],[-70.425,45.71181],[-70.42573,45.71172]]]}},{"type":"Feature","properties":{"c":"CDC-2864713","o":"Leopard Lake Gold Corp. 100%","e":""},"geometry":{"type":"Polygon","coordinates":[[[-70.43333,45.725],[-70.425,45.725],[-70.425,45.71667],[-70.43333,45.71667],[-70.43333,45.725]]]}},{"type":"Feature","properties":{"c":"CDC-2864720","o":"Leopard Lake Gold Corp. 100%","e":""},"geometry":{"type":"Polygon","coordinates":[[[-70.43333,45.73333],[-70.425,45.73333],[-70.425,45.725],[-70.43333,45.725],[-70.43333,45.73333]]]}},{"type":"Feature","properties":{"c":"CDC-2864723","o":"Leopard Lake Gold Corp. 100%","e":""},"geometry":{"type":"Polygon","coordinates":[[[-70.43333,45.74167],[-70.425,45.74167],[-70.425,45.73333],[-70.43333,45.73333],[-70.43333,45.74167]]]}},{"type":"Feature","properties":{"c":"CDC-2842240","o":"Leopard Lake Gold Corp. 100%","e":""},"geometry":{"type":"Polygon","coordinates":[[[-70.43333,45.75],[-70.425,45.75],[-70.425,45.74167],[-70.43333,45.74167],[-70.43333,45.75]]]}},{"type":"Feature","properties":{"c":"CDC-2864708","o":"Leopard Lake Gold Corp. 100%","e":""},"geometry":{"type":"Polygon","coordinates":[[[-70.41667,45.71391],[-70.41723,45.71372],[-70.41765,45.71339],[-70.41888,45.71301],[-70.41965,45.71285],[-70.42008,45.71269],[-70.42207,45.7122],[-70.42242,45.71219],[-70.42294,45.71185],[-70.42343,45.71176],[-70.42419,45.7117],[-70.42494,45.71182],[-70.425,45.71181],[-70.425,45.71667],[-70.41667,45.71667],[-70.41667,45.71391]]]}},{"type":"Feature","properties":{"c":"CDC-2867656","o":"Leopard Lake Gold Corp. 100%","e":""},"geometry":{"type":"Polygon","coordinates":[[[-70.425,45.725],[-70.41667,45.725],[-70.41667,45.71667],[-70.425,45.71667],[-70.425,45.725]]]}},{"type":"Feature","properties":{"c":"CDC-2867657","o":"Leopard Lake Gold Corp. 100%","e":""},"geometry":{"type":"Polygon","coordinates":[[[-70.425,45.73333],[-70.41667,45.73333],[-70.41667,45.725],[-70.425,45.725],[-70.425,45.73333]]]}},{"type":"Feature","properties":{"c":"CDC-2871787","o":"Leopard Lake Gold Corp. 100%","e":""},"geometry":{"type":"Polygon","coordinates":[[[-70.41667,45.73887],[-70.41699,45.73879],[-70.41701,45.7387],[-70.41689,45.73868],[-70.41704,45.73858],[-70.41707,45.73855],[-70.41723,45.73842],[-70.4176,45.73822],[-70.41763,45.7382],[-70.41769,45.73816],[-70.41765,45.73811],[-70.41745,45.73805],[-70.4173,45.73813],[-70.41706,45.73816],[-70.41695,45.73806],[-70.41702,45.73804],[-70.4171,45.73803],[-70.41717,45.73798],[-70.41726,45.73792],[-70.4172,45.73782],[-70.41702,45.73781],[-70.41673,45.73783],[-70.41667,45.73786],[-70.41667,45.73761],[-70.41701,45.73753],[-70.41701,45.73743],[-70.4172,45.7373],[-70.41747,45.73722],[-70.41763,45.73717],[-70.4178,45.73712],[-70.41764,45.73701],[-70.41757,45.73696],[-70.4178,45.73687],[-70.41782,45.73689],[-70.41794,45.737],[-70.4181,45.73698],[-70.41815,45.73696],[-70.41821,45.73693],[-70.41827,45.73682],[-70.41847,45.73683],[-70.41855,45.73682],[-70.41873,45.7367],[-70.41881,45.73663],[-70.41883,45.7366],[-70.41887,45.73653],[-70.41912,45.7365],[-70.41921,45.73654],[-70.41923,45.73655],[-70.41923,45.73654],[-70.41929,45.73646],[-70.41961,45.73635],[-70.41964,45.73632],[-70.4197,45.73624],[-70.41948,45.73615],[-70.41929,45.73618],[-70.4192,45.73619],[-70.41917,45.73619],[-70.41909,45.73621],[-70.419,45.73623],[-70.41896,45.73624],[-70.41891,45.73628],[-70.41887,45.73633],[-70.41823,45.73637],[-70.4179,45.73654],[-70.41773,45.73657],[-70.41764,45.73658],[-70.41733,45.73664],[-70.41715,45.73678],[-70.41703,45.73688],[-70.41688,45.7369],[-70.41673,45.73693],[-70.41673,45.73689],[-70.41672,45.73686],[-70.41683,45.73677],[-70.41698,45.73665],[-70.41708,45.73664],[-70.4172,45.7366],[-70.41725,45.73654],[-70.41746,45.73648],[-70.4176,45.73645],[-70.41767,45.7364],[-70.41786,45.73636],[-70.41813,45.73623],[-70.41821,45.73618],[-70.4182,45.73595],[-70.41817,45.73583],[-70.41799,45.73573],[-70.41788,45.73579],[-70.41746,45.73603],[-70.41713,45.73625],[-70.41711,45.73626],[-70.41689,45.7363],[-70.41667,45.73644],[-70.41667,45.73614],[-70.41686,45.7361],[-70.41701,45.736],[-70.41704,45.7359],[-70.41703,45.73576],[-70.41687,45.73572],[-70.41669,45.73577],[-70.41667,45.73576],[-70.41667,45.73333],[-70.425,45.73333],[-70.425,45.74167],[-70.41667,45.74167],[-70.41667,45.73887]]]}},{"type":"Feature","properties":{"c":"CDC-2842241","o":"Leopard Lake Gold Corp. 100%","e":""},"geometry":{"type":"Polygon","coordinates":[[[-70.425,45.75],[-70.41667,45.75],[-70.41667,45.74167],[-70.425,45.74167],[-70.425,45.75]]]}},{"type":"Feature","properties":{"c":"CDC-2864714","o":"Leopard Lake Gold Corp. 100%","e":""},"geometry":{"type":"Polygon","coordinates":[[[-70.40842,45.71667],[-70.41667,45.71667],[-70.41667,45.725],[-70.40833,45.725],[-70.40833,45.71667],[-70.40842,45.71667]]]}},{"type":"Feature","properties":{"c":"CDC-2871784","o":"Leopard Lake Gold Corp. 100%","e":""},"geometry":{"type":"Polygon","coordinates":[[[-70.41624,45.73333],[-70.41626,45.73116],[-70.4135,45.73122],[-70.4135,45.73123],[-70.41343,45.73123],[-70.41335,45.73123],[-70.41336,45.73132],[-70.41326,45.73144],[-70.41319,45.73143],[-70.41318,45.73148],[-70.41319,45.73159],[-70.413,45.73178],[-70.41276,45.73191],[-70.41259,45.73192],[-70.41235,45.73212],[-70.41226,45.73215],[-70.4121,45.73215],[-70.41197,45.73212],[-70.41184,45.73213],[-70.41154,45.73235],[-70.41134,45.73258],[-70.41115,45.7327],[-70.41106,45.7327],[-70.41089,45.73273],[-70.41061,45.73271],[-70.41051,45.73277],[-70.41024,45.73279],[-70.4099,45.73292],[-70.40977,45.73291],[-70.40938,45.73318],[-70.40898,45.73321],[-70.40891,45.73319],[-70.40884,45.73324],[-70.40854,45.73326],[-70.40833,45.73333],[-70.40833,45.725],[-70.41667,45.725],[-70.41667,45.73333],[-70.41624,45.73333]]]}},{"type":"Feature","properties":{"c":"CDC-2864726","o":"Leopard Lake Gold Corp. 100%","e":""},"geometry":{"type":"Polygon","coordinates":[[[-70.41667,45.75],[-70.40833,45.75],[-70.40833,45.74167],[-70.41667,45.74167],[-70.41667,45.75]]]}},{"type":"Feature","properties":{"c":"CDC-2864715","o":"Leopard Lake Gold Corp. 100%","e":""},"geometry":{"type":"Polygon","coordinates":[[[-70.4,45.72187],[-70.40062,45.72166],[-70.4002,45.7213],[-70.4,45.72123],[-70.4,45.72036],[-70.40007,45.72033],[-70.40034,45.71972],[-70.40097,45.71963],[-70.40134,45.71959],[-70.40166,45.71948],[-70.40255,45.71932],[-70.40283,45.71921],[-70.4029,45.71908],[-70.40312,45.71869],[-70.40371,45.71836],[-70.40621,45.71788],[-70.40702,45.71744],[-70.40737,45.71719],[-70.40761,45.71681],[-70.40767,45.71669],[-70.40791,45.71669],[-70.40833,45.71667],[-70.40833,45.725],[-70.4,45.725],[-70.4,45.72187]]]}},{"type":"Feature","properties":{"c":"CDC-2871785","o":"Leopard Lake Gold Corp. 100%","e":""},"geometry":{"type":"Polygon","coordinates":[[[-70.40833,45.73333],[-70.40822,45.73333],[-70.40818,45.73333],[-70.408,45.73325],[-70.40776,45.73328],[-70.40768,45.73333],[-70.4,45.73333],[-70.4,45.725],[-70.40833,45.725],[-70.40833,45.73333]]]}},{"type":"Feature","properties":{"c":"CDC-2864727","o":"Leopard Lake Gold Corp. 100%","e":""},"geometry":{"type":"Polygon","coordinates":[[[-70.40833,45.75],[-70.4,45.75],[-70.4,45.74167],[-70.40833,45.74167],[-70.40833,45.75]]]}},{"type":"Feature","properties":{"c":"CDC-2871786","o":"Leopard Lake Gold Corp. 100%","e":""},"geometry":{"type":"Polygon","coordinates":[[[-70.4,45.73333],[-70.3997,45.73333],[-70.3997,45.73332],[-70.3993,45.73315],[-70.39914,45.73302],[-70.39894,45.73294],[-70.39866,45.73291],[-70.3983,45.73276],[-70.3978,45.7327],[-70.39757,45.73257],[-70.39738,45.73259],[-70.39697,45.73247],[-70.3969,45.73244],[-70.39688,45.73231],[-70.39661,45.7323],[-70.39639,45.7324],[-70.39628,45.7324],[-70.39612,45.73229],[-70.39601,45.73228],[-70.396,45.73223],[-70.39583,45.7322],[-70.39562,45.73206],[-70.39551,45.73203],[-70.39524,45.73176],[-70.39481,45.73188],[-70.39451,45.7318],[-70.39432,45.73184],[-70.39408,45.73179],[-70.39375,45.73179],[-70.39356,45.73185],[-70.39332,45.73182],[-70.39345,45.73155],[-70.39319,45.73133],[-70.39306,45.73136],[-70.393,45.73134],[-70.39292,45.73137],[-70.39284,45.73129],[-70.39266,45.73129],[-70.39219,45.73159],[-70.39167,45.73174],[-70.39167,45.72874],[-70.39196,45.7288],[-70.39247,45.72924],[-70.3929,45.72935],[-70.39514,45.72965],[-70.39641,45.72913],[-70.39651,45.72908],[-70.39704,45.72851],[-70.39692,45.72768],[-70.39672,45.72694],[-70.39695,45.72667],[-70.3975,45.72651],[-70.39761,45.72636],[-70.3975,45.72594],[-70.39738,45.72571],[-70.3972,45.72546],[-70.39691,45.72543],[-70.39673,45.72514],[-70.39692,45.725],[-70.4,45.725],[-70.4,45.73333]]]}},{"type":"Feature","properties":{"c":"CDC-2871788","o":"Leopard Lake Gold Corp. 100%","e":""},"geometry":{"type":"Polygon","coordinates":[[[-70.39167,45.75],[-70.39167,45.74582],[-70.39206,45.74571],[-70.39212,45.74553],[-70.39241,45.74523],[-70.39255,45.74494],[-70.393,45.74465],[-70.39311,45.7445],[-70.39304,45.74429],[-70.39328,45.74416],[-70.39373,45.74417],[-70.39419,45.74406],[-70.39427,45.74375],[-70.39451,45.74359],[-70.39451,45.74358],[-70.39499,45.7436],[-70.39576,45.74333],[-70.39615,45.74356],[-70.39644,45.7436],[-70.39666,45.74354],[-70.39705,45.74356],[-70.39795,45.74324],[-70.39898,45.74275],[-70.39927,45.74275],[-70.39965,45.74167],[-70.4,45.74167],[-70.4,45.75],[-70.39167,45.75]]]}},{"type":"Feature","properties":{"c":"CDC-2866274","o":"Leopard Lake Gold Corp. 100%","e":""},"geometry":{"type":"Polygon","coordinates":[[[-70.49167,45.70833],[-70.48333,45.70833],[-70.48333,45.7],[-70.49167,45.7],[-70.49167,45.70833]]]}},{"type":"Feature","properties":{"c":"CDC-2866276","o":"Leopard Lake Gold Corp. 100%","e":""},"geometry":{"type":"Polygon","coordinates":[[[-70.49167,45.71667],[-70.48333,45.71667],[-70.48333,45.70833],[-70.49167,45.70833],[-70.49167,45.71667]]]}},{"type":"Feature","properties":{"c":"CDC-2870263","o":"Leopard Lake Gold Corp. 100%","e":""},"geometry":{"type":"Polygon","coordinates":[[[-70.49167,45.725],[-70.48333,45.725],[-70.48333,45.71667],[-70.49167,45.71667],[-70.49167,45.725]]]}},{"type":"Feature","properties":{"c":"CDC-2866282","o":"Leopard Lake Gold Corp. 100%","e":""},"geometry":{"type":"Polygon","coordinates":[[[-70.49167,45.73333],[-70.48333,45.73333],[-70.48333,45.725],[-70.49167,45.725],[-70.49167,45.73333]]]}},{"type":"Feature","properties":{"c":"CDC-2842232","o":"Leopard Lake Gold Corp. 100%","e":""},"geometry":{"type":"Polygon","coordinates":[[[-70.49167,45.74167],[-70.48333,45.74167],[-70.48333,45.73333],[-70.49167,45.73333],[-70.49167,45.74167]]]}},{"type":"Feature","properties":{"c":"CDC-2866275","o":"Leopard Lake Gold Corp. 100%","e":""},"geometry":{"type":"Polygon","coordinates":[[[-70.48333,45.70833],[-70.475,45.70833],[-70.475,45.7],[-70.48333,45.7],[-70.48333,45.70833]]]}},{"type":"Feature","properties":{"c":"CDC-2866277","o":"Leopard Lake Gold Corp. 100%","e":""},"geometry":{"type":"Polygon","coordinates":[[[-70.48333,45.71667],[-70.475,45.71667],[-70.475,45.70833],[-70.48333,45.70833],[-70.48333,45.71667]]]}},{"type":"Feature","properties":{"c":"CDC-2866279","o":"Leopard Lake Gold Corp. 100%","e":""},"geometry":{"type":"Polygon","coordinates":[[[-70.48333,45.725],[-70.475,45.725],[-70.475,45.71667],[-70.48333,45.71667],[-70.48333,45.725]]]}},{"type":"Feature","properties":{"c":"CDC-2866283","o":"Leopard Lake Gold Corp. 100%","e":""},"geometry":{"type":"Polygon","coordinates":[[[-70.48333,45.73333],[-70.475,45.73333],[-70.475,45.725],[-70.48333,45.725],[-70.48333,45.73333]]]}},{"type":"Feature","properties":{"c":"CDC-2842233","o":"Leopard Lake Gold Corp. 100%","e":""},"geometry":{"type":"Polygon","coordinates":[[[-70.48333,45.74167],[-70.475,45.74167],[-70.475,45.73333],[-70.48333,45.73333],[-70.48333,45.74167]]]}},{"type":"Feature","properties":{"c":"CDC-2866278","o":"Leopard Lake Gold Corp. 100%","e":""},"geometry":{"type":"Polygon","coordinates":[[[-70.475,45.71667],[-70.46667,45.71667],[-70.46667,45.70833],[-70.475,45.70833],[-70.475,45.71667]]]}},{"type":"Feature","properties":{"c":"CDC-2866280","o":"Leopard Lake Gold Corp. 100%","e":""},"geometry":{"type":"Polygon","coordinates":[[[-70.475,45.725],[-70.46667,45.725],[-70.46667,45.71667],[-70.475,45.71667],[-70.475,45.725]]]}},{"type":"Feature","properties":{"c":"CDC-2866284","o":"Leopard Lake Gold Corp. 100%","e":""},"geometry":{"type":"Polygon","coordinates":[[[-70.475,45.73333],[-70.46667,45.73333],[-70.46667,45.725],[-70.475,45.725],[-70.475,45.73333]]]}},{"type":"Feature","properties":{"c":"CDC-2842234","o":"Leopard Lake Gold Corp. 100%","e":""},"geometry":{"type":"Polygon","coordinates":[[[-70.475,45.74167],[-70.46667,45.74167],[-70.46667,45.73333],[-70.475,45.73333],[-70.475,45.74167]]]}},{"type":"Feature","properties":{"c":"CDC-2864699","o":"Leopard Lake Gold Corp. 100%","e":""},"geometry":{"type":"Polygon","coordinates":[[[-70.45833,45.7066],[-70.45854,45.70648],[-70.45984,45.7065],[-70.46044,45.70594],[-70.46135,45.70556],[-70.46219,45.70555],[-70.46315,45.70584],[-70.46404,45.70617],[-70.46444,45.70618],[-70.46532,45.70645],[-70.46547,45.70653],[-70.46553,45.70649],[-70.4664,45.70604],[-70.46616,45.70647],[-70.46581,45.70655],[-70.46667,45.70719],[-70.46667,45.70833],[-70.45833,45.70833],[-70.45833,45.7066]]]}},{"type":"Feature","properties":{"c":"CDC-2864703","o":"Leopard Lake Gold Corp. 100%","e":""},"geometry":{"type":"Polygon","coordinates":[[[-70.46667,45.71667],[-70.45833,45.71667],[-70.45833,45.70833],[-70.46667,45.70833],[-70.46667,45.71667]]]}},{"type":"Feature","properties":{"c":"CDC-2864709","o":"Leopard Lake Gold Corp. 100%","e":""},"geometry":{"type":"Polygon","coordinates":[[[-70.46667,45.725],[-70.45833,45.725],[-70.45833,45.71667],[-70.46667,45.71667],[-70.46667,45.725]]]}},{"type":"Feature","properties":{"c":"CDC-2864716","o":"Leopard Lake Gold Corp. 100%","e":""},"geometry":{"type":"Polygon","coordinates":[[[-70.46667,45.73333],[-70.45833,45.73333],[-70.45833,45.725],[-70.46667,45.725],[-70.46667,45.73333]]]}},{"type":"Feature","properties":{"c":"CDC-2842235","o":"Leopard Lake Gold Corp. 100%","e":""},"geometry":{"type":"Polygon","coordinates":[[[-70.46667,45.74167],[-70.45833,45.74167],[-70.45833,45.73333],[-70.46667,45.73333],[-70.46667,45.74167]]]}},{"type":"Feature","properties":{"c":"CDC-2864700","o":"Leopard Lake Gold Corp. 100%","e":""},"geometry":{"type":"Polygon","coordinates":[[[-70.45,45.70432],[-70.45022,45.70424],[-70.45083,45.70406],[-70.45091,45.70393],[-70.45144,45.70436],[-70.45233,45.70514],[-70.45385,45.70609],[-70.45415,45.7064],[-70.45449,45.70674],[-70.45534,45.70685],[-70.45592,45.70705],[-70.45623,45.70702],[-70.45677,45.70698],[-70.45738,45.707],[-70.45814,45.70671],[-70.45833,45.7066],[-70.45833,45.70833],[-70.45,45.70833],[-70.45,45.70432]]]}},{"type":"Feature","properties":{"c":"CDC-2864704","o":"Leopard Lake Gold Corp. 100%","e":""},"geometry":{"type":"Polygon","coordinates":[[[-70.45833,45.71667],[-70.45,45.71667],[-70.45,45.70833],[-70.45833,45.70833],[-70.45833,45.71667]]]}},{"type":"Feature","properties":{"c":"CDC-2864710","o":"Leopard Lake Gold Corp. 100%","e":""},"geometry":{"type":"Polygon","coordinates":[[[-70.45833,45.725],[-70.45,45.725],[-70.45,45.71667],[-70.45833,45.71667],[-70.45833,45.725]]]}},{"type":"Feature","properties":{"c":"CDC-2864717","o":"Leopard Lake Gold Corp. 100%","e":""},"geometry":{"type":"Polygon","coordinates":[[[-70.45833,45.73333],[-70.45,45.73333],[-70.45,45.725],[-70.45833,45.725],[-70.45833,45.73333]]]}},{"type":"Feature","properties":{"c":"CDC-2842236","o":"Leopard Lake Gold Corp. 100%","e":""},"geometry":{"type":"Polygon","coordinates":[[[-70.45833,45.74167],[-70.45,45.74167],[-70.45,45.73333],[-70.45833,45.73333],[-70.45833,45.74167]]]}},{"type":"Feature","properties":{"c":"CDC-2864701","o":"Leopard Lake Gold Corp. 100%","e":""},"geometry":{"type":"Polygon","coordinates":[[[-70.44167,45.70515],[-70.44205,45.70506],[-70.44294,45.70469],[-70.44328,45.70436],[-70.44412,45.70386],[-70.44447,45.70376],[-70.4453,45.70368],[-70.44586,45.70374],[-70.44627,45.70365],[-70.44761,45.70424],[-70.44806,45.70429],[-70.44907,45.70445],[-70.44967,45.70444],[-70.45,45.70432],[-70.45,45.70833],[-70.44167,45.70833],[-70.44167,45.70515]]]}},{"type":"Feature","properties":{"c":"CDC-2864705","o":"Leopard Lake Gold Corp. 100%","e":""},"geometry":{"type":"Polygon","coordinates":[[[-70.45,45.71667],[-70.44167,45.71667],[-70.44167,45.70833],[-70.45,45.70833],[-70.45,45.71667]]]}},{"type":"Feature","properties":{"c":"CDC-2864711","o":"Leopard Lake Gold Corp. 100%","e":""},"geometry":{"type":"Polygon","coordinates":[[[-70.45,45.725],[-70.44167,45.725],[-70.44167,45.71667],[-70.45,45.71667],[-70.45,45.725]]]}},{"type":"Feature","properties":{"c":"CDC-2864737","o":"Leopard Lake Gold Corp. 100%","e":""},"geometry":{"type":"Polygon","coordinates":[[[-70.5,45.68426],[-70.50176,45.68361],[-70.5023,45.68333],[-70.50833,45.68333],[-70.50833,45.69167],[-70.5,45.69167],[-70.5,45.68426]]]}},{"type":"Feature","properties":{"c":"CDC-2864698","o":"Leopard Lake Gold Corp. 100%","e":""},"geometry":{"type":"Polygon","coordinates":[[[-70.49167,45.68953],[-70.49252,45.68922],[-70.49331,45.68892],[-70.49369,45.68889],[-70.49402,45.68876],[-70.49431,45.68866],[-70.49454,45.68763],[-70.49488,45.68745],[-70.49583,45.68711],[-70.49633,45.68688],[-70.49649,45.68641],[-70.49706,45.68622],[-70.49687,45.68594],[-70.49656,45.68578],[-70.49646,45.68564],[-70.49707,45.68534],[-70.5,45.68426],[-70.5,45.69167],[-70.49167,45.69167],[-70.49167,45.68953]]]}},{"type":"Feature","properties":{"c":"CDC-2866273","o":"Leopard Lake Gold Corp. 100%","e":""},"geometry":{"type":"Polygon","coordinates":[[[-70.5,45.70833],[-70.49167,45.70833],[-70.49167,45.7],[-70.5,45.7],[-70.5,45.70833]]]}},{"type":"Feature","properties":{"c":"CDC-2870261","o":"Leopard Lake Gold Corp. 100%","e":""},"geometry":{"type":"Polygon","coordinates":[[[-70.5,45.71667],[-70.49167,45.71667],[-70.49167,45.70833],[-70.5,45.70833],[-70.5,45.71667]]]}},{"type":"Feature","properties":{"c":"CDC-2871222","o":"Leopard Lake Gold Corp. 100%","e":""},"geometry":{"type":"Polygon","coordinates":[[[-70.50833,45.71667],[-70.5,45.71667],[-70.5,45.70833],[-70.50833,45.70833],[-70.50833,45.71667]]]}},{"type":"Feature","properties":{"c":"CDC-2870262","o":"Leopard Lake Gold Corp. 100%","e":""},"geometry":{"type":"Polygon","coordinates":[[[-70.5,45.725],[-70.49167,45.725],[-70.49167,45.71667],[-70.5,45.71667],[-70.5,45.725]]]}},{"type":"Feature","properties":{"c":"CDC-2866281","o":"Leopard Lake Gold Corp. 100%","e":""},"geometry":{"type":"Polygon","coordinates":[[[-70.5,45.73333],[-70.49167,45.73333],[-70.49167,45.725],[-70.5,45.725],[-70.5,45.73333]]]}}]}