{"type":"FeatureCollection","features":[{"type":"Feature","properties":{"c":"CDC-2806565","o":"R\u00e9jean Raymond 100%","e":""},"geometry":{"type":"Polygon","coordinates":[[[-70.325,46.5],[-70.31667,46.5],[-70.31667,46.49167],[-70.325,46.49167],[-70.325,46.5]]]}},{"type":"Feature","properties":{"c":"CDC-2816826","o":"R\u00e9jean Raymond 100%","e":""},"geometry":{"type":"Polygon","coordinates":[[[-70.44167,46.475],[-70.43333,46.475],[-70.43333,46.46667],[-70.44167,46.46667],[-70.44167,46.475]]]}},{"type":"Feature","properties":{"c":"CDC-2821841","o":"Glenn Griesbach 100%","e":""},"geometry":{"type":"Polygon","coordinates":[[[-70.425,46.475],[-70.425,46.46667],[-70.43333,46.46667],[-70.43333,46.475],[-70.425,46.475]]]}},{"type":"Feature","properties":{"c":"CDC-2816827","o":"R\u00e9jean Raymond 100%","e":""},"geometry":{"type":"Polygon","coordinates":[[[-70.43333,46.48333],[-70.425,46.48333],[-70.425,46.475],[-70.43333,46.475],[-70.43333,46.48333]]]}},{"type":"Feature","properties":{"c":"CDC-2821842","o":"Glenn Griesbach 100%","e":""},"geometry":{"type":"Polygon","coordinates":[[[-70.425,46.475],[-70.41667,46.475],[-70.41667,46.46667],[-70.41812,46.46667],[-70.41954,46.46764],[-70.42096,46.46667],[-70.425,46.46667],[-70.425,46.475]]]}},{"type":"Feature","properties":{"c":"CDC-2821849","o":"Glenn Griesbach 100%","e":""},"geometry":{"type":"Polygon","coordinates":[[[-70.41999,46.48282],[-70.41667,46.48054],[-70.41667,46.475],[-70.425,46.475],[-70.425,46.48333],[-70.42074,46.48333],[-70.41999,46.48282]]]}},{"type":"Feature","properties":{"c":"CDC-2824985","o":"Glenn Griesbach 100%","e":""},"geometry":{"type":"Polygon","coordinates":[[[-70.40558,46.48785],[-70.41646,46.48039],[-70.41999,46.48282],[-70.40914,46.49025],[-70.40831,46.4897],[-70.40558,46.48785]]]}},{"type":"Feature","properties":{"c":"CDC-2821843","o":"Glenn Griesbach 100%","e":""},"geometry":{"type":"Polygon","coordinates":[[[-70.40833,46.475],[-70.40833,46.46667],[-70.41667,46.46667],[-70.41667,46.475],[-70.40833,46.475]]]}},{"type":"Feature","properties":{"c":"CDC-2821850","o":"Glenn Griesbach 100%","e":""},"geometry":{"type":"Polygon","coordinates":[[[-70.41646,46.48039],[-70.41292,46.47797],[-70.40939,46.47555],[-70.40833,46.47628],[-70.40833,46.475],[-70.41667,46.475],[-70.41667,46.48054],[-70.41646,46.48039]]]}},{"type":"Feature","properties":{"c":"CDC-2824986","o":"Glenn Griesbach 100%","e":""},"geometry":{"type":"Polygon","coordinates":[[[-70.40202,46.48545],[-70.41292,46.47797],[-70.41646,46.48039],[-70.40558,46.48785],[-70.40479,46.48732],[-70.40202,46.48545]]]}},{"type":"Feature","properties":{"c":"CDC-2824987","o":"Glenn Griesbach 100%","e":""},"geometry":{"type":"Polygon","coordinates":[[[-70.39847,46.48304],[-70.40939,46.47555],[-70.41292,46.47797],[-70.40202,46.48545],[-70.40126,46.48493],[-70.39847,46.48304]]]}},{"type":"Feature","properties":{"c":"CDC-2821844","o":"Glenn Griesbach 100%","e":""},"geometry":{"type":"Polygon","coordinates":[[[-70.4,46.475],[-70.4,46.46667],[-70.40833,46.46667],[-70.40833,46.475],[-70.4,46.475]]]}},{"type":"Feature","properties":{"c":"CDC-2821851","o":"Glenn Griesbach 100%","e":""},"geometry":{"type":"Polygon","coordinates":[[[-70.40833,46.47628],[-70.4,46.48199],[-70.4,46.475],[-70.40833,46.475],[-70.40833,46.47628]]]}},{"type":"Feature","properties":{"c":"CDC-2824988","o":"Glenn Griesbach 100%","e":""},"geometry":{"type":"Polygon","coordinates":[[[-70.3927,46.49575],[-70.40479,46.48732],[-70.40558,46.48785],[-70.40831,46.4897],[-70.39623,46.49812],[-70.3927,46.49575]]]}},{"type":"Feature","properties":{"c":"CDC-2824989","o":"Glenn Griesbach 100%","e":""},"geometry":{"type":"Polygon","coordinates":[[[-70.38915,46.49336],[-70.38987,46.49287],[-70.40126,46.48493],[-70.40202,46.48545],[-70.40479,46.48732],[-70.3927,46.49575],[-70.38915,46.49336]]]}},{"type":"Feature","properties":{"c":"CDC-2824990","o":"Glenn Griesbach 100%","e":""},"geometry":{"type":"Polygon","coordinates":[[[-70.38684,46.49075],[-70.38796,46.48998],[-70.39039,46.48831],[-70.39282,46.48665],[-70.39525,46.48498],[-70.39768,46.48332],[-70.39827,46.48291],[-70.39847,46.48304],[-70.40126,46.48493],[-70.38987,46.49287],[-70.38684,46.49075]]]}},{"type":"Feature","properties":{"c":"CDC-2821845","o":"Glenn Griesbach 100%","e":""},"geometry":{"type":"Polygon","coordinates":[[[-70.4,46.475],[-70.39167,46.475],[-70.39167,46.46667],[-70.4,46.46667],[-70.4,46.475]]]}},{"type":"Feature","properties":{"c":"CDC-2821852","o":"Glenn Griesbach 100%","e":""},"geometry":{"type":"Polygon","coordinates":[[[-70.39847,46.48304],[-70.39827,46.48291],[-70.39766,46.48333],[-70.39167,46.48333],[-70.39167,46.475],[-70.4,46.475],[-70.4,46.47715],[-70.4,46.48199],[-70.39847,46.48304]]]}},{"type":"Feature","properties":{"c":"CDC-2821861","o":"Glenn Griesbach 100%","e":""},"geometry":{"type":"Polygon","coordinates":[[[-70.4,46.5],[-70.39167,46.5],[-70.39167,46.49506],[-70.3927,46.49575],[-70.39623,46.49812],[-70.4,46.49549],[-70.4,46.5]]]}},{"type":"Feature","properties":{"c":"CDC-2821858","o":"Glenn Griesbach 100%","e":""},"geometry":{"type":"Polygon","coordinates":[[[-70.39525,46.48498],[-70.39282,46.48665],[-70.39167,46.48744],[-70.39167,46.48333],[-70.39766,46.48333],[-70.39525,46.48498]]]}},{"type":"Feature","properties":{"c":"CDC-2821846","o":"Glenn Griesbach 100%","e":""},"geometry":{"type":"Polygon","coordinates":[[[-70.39167,46.475],[-70.38333,46.475],[-70.38333,46.46667],[-70.39167,46.46667],[-70.39167,46.475]]]}},{"type":"Feature","properties":{"c":"CDC-2821853","o":"Glenn Griesbach 100%","e":""},"geometry":{"type":"Polygon","coordinates":[[[-70.39167,46.48333],[-70.38333,46.48333],[-70.38333,46.475],[-70.39167,46.475],[-70.39167,46.48333]]]}},{"type":"Feature","properties":{"c":"CDC-2821859","o":"Glenn Griesbach 100%","e":""},"geometry":{"type":"Polygon","coordinates":[[[-70.39167,46.48744],[-70.39039,46.48831],[-70.38796,46.48998],[-70.38684,46.49075],[-70.38815,46.49167],[-70.38333,46.49167],[-70.38333,46.48333],[-70.39167,46.48333],[-70.39167,46.48744]]]}},{"type":"Feature","properties":{"c":"CDC-2821862","o":"Glenn Griesbach 100%","e":""},"geometry":{"type":"Polygon","coordinates":[[[-70.38815,46.49167],[-70.38987,46.49287],[-70.38915,46.49336],[-70.39167,46.49506],[-70.39167,46.5],[-70.38333,46.5],[-70.38333,46.49167],[-70.38815,46.49167]]]}},{"type":"Feature","properties":{"c":"CDC-2821847","o":"Glenn Griesbach 100%","e":""},"geometry":{"type":"Polygon","coordinates":[[[-70.38333,46.475],[-70.375,46.475],[-70.375,46.46667],[-70.38333,46.46667],[-70.38333,46.475]]]}},{"type":"Feature","properties":{"c":"CDC-2821854","o":"Glenn Griesbach 100%","e":""},"geometry":{"type":"Polygon","coordinates":[[[-70.38333,46.48333],[-70.375,46.48333],[-70.375,46.475],[-70.38333,46.475],[-70.38333,46.48333]]]}},{"type":"Feature","properties":{"c":"CDC-2821860","o":"Glenn Griesbach 100%","e":""},"geometry":{"type":"Polygon","coordinates":[[[-70.38333,46.49167],[-70.375,46.49167],[-70.375,46.48333],[-70.38333,46.48333],[-70.38333,46.49167]]]}},{"type":"Feature","properties":{"c":"CDC-2821863","o":"Glenn Griesbach 100%","e":""},"geometry":{"type":"Polygon","coordinates":[[[-70.38333,46.49167],[-70.38333,46.5],[-70.375,46.5],[-70.375,46.49167],[-70.38333,46.49167]]]}},{"type":"Feature","properties":{"c":"CDC-2821848","o":"Glenn Griesbach 100%","e":""},"geometry":{"type":"Polygon","coordinates":[[[-70.375,46.475],[-70.36667,46.475],[-70.36667,46.46667],[-70.375,46.46667],[-70.375,46.475]]]}},{"type":"Feature","properties":{"c":"CDC-2821855","o":"Glenn Griesbach 100%","e":""},"geometry":{"type":"Polygon","coordinates":[[[-70.375,46.48333],[-70.36667,46.48333],[-70.36667,46.475],[-70.375,46.475],[-70.375,46.48333]]]}},{"type":"Feature","properties":{"c":"CDC-2821864","o":"Glenn Griesbach 100%","e":""},"geometry":{"type":"Polygon","coordinates":[[[-70.375,46.5],[-70.36667,46.5],[-70.36667,46.49167],[-70.375,46.49167],[-70.375,46.5]]]}},{"type":"Feature","properties":{"c":"CDC-2821856","o":"Glenn Griesbach 100%","e":""},"geometry":{"type":"Polygon","coordinates":[[[-70.36667,46.48333],[-70.35833,46.48333],[-70.35833,46.475],[-70.36667,46.475],[-70.36667,46.48333]]]}},{"type":"Feature","properties":{"c":"CDC-2821865","o":"Glenn Griesbach 100%","e":""},"geometry":{"type":"Polygon","coordinates":[[[-70.36667,46.5],[-70.36388,46.5],[-70.35833,46.49616],[-70.35833,46.49167],[-70.36667,46.49167],[-70.36667,46.5]]]}},{"type":"Feature","properties":{"c":"CDC-2864568","o":"ROBERT ROSENBLAT 100%","e":""},"geometry":{"type":"Polygon","coordinates":[[[-70.35891,46.50916],[-70.34377,46.49862],[-70.34626,46.49697],[-70.36135,46.50749],[-70.35984,46.50853],[-70.35891,46.50916]]]}},{"type":"Feature","properties":{"c":"CDC-2821857","o":"Glenn Griesbach 100%","e":""},"geometry":{"type":"Polygon","coordinates":[[[-70.35833,46.48333],[-70.35,46.48333],[-70.35,46.475],[-70.35833,46.475],[-70.35833,46.48333]]]}},{"type":"Feature","properties":{"c":"CDC-2864567","o":"ROBERT ROSENBLAT 100%","e":""},"geometry":{"type":"Polygon","coordinates":[[[-70.35643,46.51083],[-70.34132,46.5003],[-70.34377,46.49862],[-70.35891,46.50916],[-70.35643,46.51083]]]}},{"type":"Feature","properties":{"c":"CDC-2867627","o":"Gregory Hryniw 100%","e":""},"geometry":{"type":"Polygon","coordinates":[[[-70.35,46.48333],[-70.34167,46.48333],[-70.34167,46.475],[-70.35,46.475],[-70.35,46.48333]]]}},{"type":"Feature","properties":{"c":"CDC-2827054","o":"Gregory Hryniw 100%","e":""},"geometry":{"type":"Polygon","coordinates":[[[-70.35,46.49449],[-70.34874,46.49532],[-70.34626,46.49697],[-70.34377,46.49862],[-70.34177,46.5],[-70.34167,46.5],[-70.34167,46.49167],[-70.35,46.49167],[-70.35,46.49449]]]}},{"type":"Feature","properties":{"c":"CDC-2867628","o":"Gregory Hryniw 100%","e":""},"geometry":{"type":"Polygon","coordinates":[[[-70.34167,46.48333],[-70.33333,46.48333],[-70.33333,46.475],[-70.34167,46.475],[-70.34167,46.48333]]]}},{"type":"Feature","properties":{"c":"CDC-2864487","o":"Gregory Hryniw 100%","e":""},"geometry":{"type":"Polygon","coordinates":[[[-70.34167,46.49167],[-70.33333,46.49167],[-70.33333,46.48333],[-70.34167,46.48333],[-70.34167,46.49167]]]}},{"type":"Feature","properties":{"c":"CDC-2806563","o":"R\u00e9jean Raymond 100%","e":""},"geometry":{"type":"Polygon","coordinates":[[[-70.34167,46.5],[-70.33333,46.5],[-70.33333,46.49167],[-70.34167,46.49167],[-70.34167,46.5]]]}},{"type":"Feature","properties":{"c":"CDC-2867629","o":"Gregory Hryniw 100%","e":""},"geometry":{"type":"Polygon","coordinates":[[[-70.33333,46.49167],[-70.325,46.49167],[-70.325,46.48333],[-70.33333,46.48333],[-70.33333,46.49167]]]}},{"type":"Feature","properties":{"c":"CDC-2806564","o":"R\u00e9jean Raymond 100%","e":""},"geometry":{"type":"Polygon","coordinates":[[[-70.33333,46.5],[-70.325,46.5],[-70.325,46.49167],[-70.33333,46.49167],[-70.33333,46.5]]]}},{"type":"Feature","properties":{"c":"CDC-2867707","o":"Andr\u00e9 Lefebvre 100%","e":""},"geometry":{"type":"Polygon","coordinates":[[[-70.10833,46.4],[-70.10101,46.4],[-70.10078,46.39856],[-70.10104,46.39766],[-70.10267,46.39614],[-70.10367,46.39543],[-70.10427,46.39449],[-70.10509,46.39379],[-70.10629,46.39339],[-70.10735,46.3928],[-70.10685,46.39189],[-70.10678,46.39167],[-70.10833,46.39167],[-70.10833,46.4]]]}},{"type":"Feature","properties":{"c":"CDC-2863221","o":"9543-4825 Qu\u00e9bec  inc 100%","e":""},"geometry":{"type":"Polygon","coordinates":[[[-70.1,46.41667],[-70.09167,46.41667],[-70.09167,46.40988],[-70.09188,46.40976],[-70.09359,46.4096],[-70.09518,46.40994],[-70.09647,46.40978],[-70.09605,46.40885],[-70.0948,46.40843],[-70.09489,46.40833],[-70.1,46.40833],[-70.1,46.41667]]]}},{"type":"Feature","properties":{"c":"CDC-2864486","o":"Andr\u00e9 Lefebvre 100%","e":""},"geometry":{"type":"Polygon","coordinates":[[[-70.075,46.425],[-70.06667,46.425],[-70.06667,46.41667],[-70.075,46.41667],[-70.075,46.425]]]}},{"type":"Feature","properties":{"c":"CDC-2863220","o":"9543-3280 Qu\u00e9bec inc. 100%","e":""},"geometry":{"type":"Polygon","coordinates":[[[-70.075,46.43333],[-70.06667,46.43333],[-70.06667,46.425],[-70.075,46.425],[-70.075,46.43333]]]}},{"type":"Feature","properties":{"c":"CDC-2883626","o":"Ecobase systeme inc. 100%","e":""},"geometry":{"type":"Polygon","coordinates":[[[-70.14167,46.43333],[-70.13333,46.43333],[-70.13333,46.425],[-70.14167,46.425],[-70.14167,46.43333]]]}},{"type":"Feature","properties":{"c":"CDC-2883625","o":"Ecobase systeme inc. 100%","e":""},"geometry":{"type":"Polygon","coordinates":[[[-70.15,46.43333],[-70.14167,46.43333],[-70.14167,46.425],[-70.15,46.425],[-70.15,46.43333]]]}},{"type":"Feature","properties":{"c":"CDC-2883624","o":"Ecobase systeme inc. 100%","e":""},"geometry":{"type":"Polygon","coordinates":[[[-70.15833,46.43333],[-70.15,46.43333],[-70.15,46.425],[-70.15833,46.425],[-70.15833,46.43333]]]}},{"type":"Feature","properties":{"c":"CDC-2881609","o":"Andr\u00e9 Lefebvre 100%","e":""},"geometry":{"type":"Polygon","coordinates":[[[-70.18333,46.43333],[-70.175,46.43333],[-70.175,46.425],[-70.18333,46.425],[-70.18333,46.43333]]]}},{"type":"Feature","properties":{"c":"CDC-2881608","o":"Andr\u00e9 Lefebvre 100%","e":""},"geometry":{"type":"Polygon","coordinates":[[[-70.19167,46.43333],[-70.18333,46.43333],[-70.18333,46.425],[-70.19167,46.425],[-70.19167,46.43333]]]}},{"type":"Feature","properties":{"c":"CDC-2881607","o":"Andr\u00e9 Lefebvre 100%","e":""},"geometry":{"type":"Polygon","coordinates":[[[-70.2,46.43333],[-70.19167,46.43333],[-70.19167,46.425],[-70.2,46.425],[-70.2,46.43333]]]}},{"type":"Feature","properties":{"c":"CDC-2881606","o":"Andr\u00e9 Lefebvre 100%","e":""},"geometry":{"type":"Polygon","coordinates":[[[-70.20833,46.43333],[-70.2,46.43333],[-70.2,46.425],[-70.20833,46.425],[-70.20833,46.43333]]]}},{"type":"Feature","properties":{"c":"CDC-2881605","o":"Andr\u00e9 Lefebvre 100%","e":""},"geometry":{"type":"Polygon","coordinates":[[[-70.21667,46.43333],[-70.20833,46.43333],[-70.20833,46.425],[-70.21667,46.425],[-70.21667,46.43333]]]}},{"type":"Feature","properties":{"c":"CDC-2877589","o":"Andr\u00e9 Lefebvre 100%","e":""},"geometry":{"type":"Polygon","coordinates":[[[-70.14167,46.44167],[-70.13333,46.44167],[-70.13333,46.43333],[-70.14167,46.43333],[-70.14167,46.44167]]]}},{"type":"Feature","properties":{"c":"CDC-2877588","o":"Andr\u00e9 Lefebvre 100%","e":""},"geometry":{"type":"Polygon","coordinates":[[[-70.15,46.44167],[-70.14167,46.44167],[-70.14167,46.43333],[-70.15,46.43333],[-70.15,46.44167]]]}},{"type":"Feature","properties":{"c":"CDC-2883627","o":"Ecobase systeme inc. 100%","e":""},"geometry":{"type":"Polygon","coordinates":[[[-70.15833,46.44167],[-70.15,46.44167],[-70.15,46.43333],[-70.15833,46.43333],[-70.15833,46.44167]]]}},{"type":"Feature","properties":{"c":"CDC-2881614","o":"Andr\u00e9 Lefebvre 100%","e":""},"geometry":{"type":"Polygon","coordinates":[[[-70.175,46.44167],[-70.16667,46.44167],[-70.16667,46.43333],[-70.175,46.43333],[-70.175,46.44167]]]}},{"type":"Feature","properties":{"c":"CDC-2881613","o":"Andr\u00e9 Lefebvre 100%","e":""},"geometry":{"type":"Polygon","coordinates":[[[-70.18333,46.44167],[-70.175,46.44167],[-70.175,46.43333],[-70.18333,46.43333],[-70.18333,46.44167]]]}},{"type":"Feature","properties":{"c":"CDC-2881612","o":"Andr\u00e9 Lefebvre 100%","e":""},"geometry":{"type":"Polygon","coordinates":[[[-70.19167,46.44167],[-70.18333,46.44167],[-70.18333,46.43333],[-70.19167,46.43333],[-70.19167,46.44167]]]}},{"type":"Feature","properties":{"c":"CDC-2881611","o":"Andr\u00e9 Lefebvre 100%","e":""},"geometry":{"type":"Polygon","coordinates":[[[-70.2,46.44167],[-70.19167,46.44167],[-70.19167,46.43333],[-70.2,46.43333],[-70.2,46.44167]]]}},{"type":"Feature","properties":{"c":"CDC-2881610","o":"Andr\u00e9 Lefebvre 100%","e":""},"geometry":{"type":"Polygon","coordinates":[[[-70.20833,46.44167],[-70.2,46.44167],[-70.2,46.43333],[-70.20833,46.43333],[-70.20833,46.44167]]]}},{"type":"Feature","properties":{"c":"CDC-2877591","o":"Andr\u00e9 Lefebvre 100%","e":""},"geometry":{"type":"Polygon","coordinates":[[[-70.14167,46.45],[-70.13333,46.45],[-70.13333,46.44167],[-70.14167,46.44167],[-70.14167,46.45]]]}},{"type":"Feature","properties":{"c":"CDC-2877590","o":"Andr\u00e9 Lefebvre 100%","e":""},"geometry":{"type":"Polygon","coordinates":[[[-70.15,46.45],[-70.14167,46.45],[-70.14167,46.44167],[-70.15,46.44167],[-70.15,46.45]]]}},{"type":"Feature","properties":{"c":"CDC-2881616","o":"Andr\u00e9 Lefebvre 100%","e":""},"geometry":{"type":"Polygon","coordinates":[[[-70.18333,46.45],[-70.175,46.45],[-70.175,46.44167],[-70.18333,46.44167],[-70.18333,46.45]]]}},{"type":"Feature","properties":{"c":"CDC-2881615","o":"Andr\u00e9 Lefebvre 100%","e":""},"geometry":{"type":"Polygon","coordinates":[[[-70.19167,46.45],[-70.18333,46.45],[-70.18333,46.44167],[-70.19167,46.44167],[-70.19167,46.45]]]}},{"type":"Feature","properties":{"c":"CDC-2820813","o":"Richard Michel d'Annoville 100%","e":""},"geometry":{"type":"Polygon","coordinates":[[[-70.45,46.25833],[-70.44167,46.25833],[-70.44167,46.25],[-70.45,46.25],[-70.45,46.25833]]]}},{"type":"Feature","properties":{"c":"CDC-2850094","o":"Glenn Griesbach 100%","e":""},"geometry":{"type":"Polygon","coordinates":[[[-70.5,46.375],[-70.49167,46.375],[-70.49167,46.36667],[-70.5,46.36667],[-70.5,46.375]]]}},{"type":"Feature","properties":{"c":"CDC-2850093","o":"Glenn Griesbach 100%","e":""},"geometry":{"type":"Polygon","coordinates":[[[-70.50833,46.375],[-70.5,46.375],[-70.5,46.36667],[-70.50833,46.36667],[-70.50833,46.375]]]}},{"type":"Feature","properties":{"c":"CDC-2850095","o":"Glenn Griesbach 100%","e":""},"geometry":{"type":"Polygon","coordinates":[[[-70.48333,46.39167],[-70.475,46.39167],[-70.475,46.38333],[-70.48333,46.38333],[-70.48333,46.39167]]]}},{"type":"Feature","properties":{"c":"CDC-2850097","o":"Glenn Griesbach 100%","e":""},"geometry":{"type":"Polygon","coordinates":[[[-70.49135,46.38775],[-70.49078,46.38777],[-70.49022,46.38783],[-70.48967,46.38793],[-70.48913,46.38805],[-70.48861,46.38821],[-70.48812,46.3884],[-70.48765,46.38862],[-70.4872,46.38886],[-70.48679,46.38913],[-70.48642,46.38943],[-70.48608,46.38974],[-70.48579,46.39008],[-70.48554,46.39043],[-70.48533,46.3908],[-70.48517,46.39117],[-70.48506,46.39156],[-70.48504,46.39167],[-70.48333,46.39167],[-70.48333,46.38333],[-70.49167,46.38333],[-70.49167,46.38775],[-70.49135,46.38775]]]}},{"type":"Feature","properties":{"c":"CDC-2850096","o":"Glenn Griesbach 100%","e":""},"geometry":{"type":"Polygon","coordinates":[[[-70.49786,46.39137],[-70.49773,46.39099],[-70.49754,46.39062],[-70.49732,46.39026],[-70.49704,46.38992],[-70.49673,46.38959],[-70.49637,46.38928],[-70.49598,46.389],[-70.49556,46.38874],[-70.4951,46.38851],[-70.49461,46.3883],[-70.49411,46.38813],[-70.49358,46.38799],[-70.49303,46.38788],[-70.49248,46.3878],[-70.49191,46.38776],[-70.49167,46.38775],[-70.49167,46.38333],[-70.5,46.38333],[-70.5,46.39167],[-70.49792,46.39167],[-70.49786,46.39137]]]}},{"type":"Feature","properties":{"c":"CDC-2821835","o":"Glenn Griesbach 100%","e":""},"geometry":{"type":"Polygon","coordinates":[[[-70.38333,46.45833],[-70.375,46.45833],[-70.375,46.45],[-70.38333,46.45],[-70.38333,46.45833]]]}},{"type":"Feature","properties":{"c":"CDC-2821834","o":"Glenn Griesbach 100%","e":""},"geometry":{"type":"Polygon","coordinates":[[[-70.39167,46.45833],[-70.38333,46.45833],[-70.38333,46.45],[-70.39167,46.45],[-70.39167,46.45833]]]}},{"type":"Feature","properties":{"c":"CDC-2821536","o":"R\u00e9jean Raymond 100%","e":""},"geometry":{"type":"Polygon","coordinates":[[[-70.40229,46.45619],[-70.4,46.45468],[-70.4,46.4514],[-70.4,46.45],[-70.40277,46.45],[-70.40768,46.45],[-70.40833,46.45],[-70.40833,46.45344],[-70.40814,46.45358],[-70.40579,46.45529],[-70.40381,46.45673],[-70.40555,46.45795],[-70.40609,46.45833],[-70.40529,46.45833],[-70.40229,46.45619]]]}},{"type":"Feature","properties":{"c":"CDC-2821840","o":"Glenn Griesbach 100%","e":""},"geometry":{"type":"Polygon","coordinates":[[[-70.38333,46.46667],[-70.375,46.46667],[-70.375,46.45833],[-70.38333,46.45833],[-70.38333,46.46667]]]}},{"type":"Feature","properties":{"c":"CDC-2821839","o":"Glenn Griesbach 100%","e":""},"geometry":{"type":"Polygon","coordinates":[[[-70.39167,46.46667],[-70.38333,46.46667],[-70.38333,46.45833],[-70.39167,46.45833],[-70.39167,46.46667]]]}},{"type":"Feature","properties":{"c":"CDC-2821838","o":"Glenn Griesbach 100%","e":""},"geometry":{"type":"Polygon","coordinates":[[[-70.4,46.46667],[-70.39167,46.46667],[-70.39167,46.45833],[-70.4,46.45833],[-70.4,46.46667]]]}},{"type":"Feature","properties":{"c":"CDC-2821837","o":"Glenn Griesbach 100%","e":""},"geometry":{"type":"Polygon","coordinates":[[[-70.4,46.45833],[-70.40529,46.45833],[-70.40833,46.4605],[-70.40833,46.46667],[-70.40274,46.46667],[-70.4,46.46473],[-70.4,46.45833]]]}},{"type":"Feature","properties":{"c":"CDC-2821836","o":"Glenn Griesbach 100%","e":""},"geometry":{"type":"Polygon","coordinates":[[[-70.40833,46.46667],[-70.40833,46.4605],[-70.41121,46.46255],[-70.41166,46.46225],[-70.4125,46.46283],[-70.41323,46.46333],[-70.41601,46.46523],[-70.41667,46.46567],[-70.41667,46.46667],[-70.40833,46.46667]]]}},{"type":"Feature","properties":{"c":"CDC-2824991","o":"Glenn Griesbach 100%","e":""},"geometry":{"type":"Polygon","coordinates":[[[-70.4,46.46473],[-70.40274,46.46667],[-70.4,46.46667],[-70.4,46.46473]]]}},{"type":"Feature","properties":{"c":"CDC-2818947","o":"Richard Michel d'Annoville 100%","e":""},"geometry":{"type":"Polygon","coordinates":[[[-70.49167,46.0],[-70.48333,46.0],[-70.48333,45.99167],[-70.49167,45.99167],[-70.49167,46.0]]]}},{"type":"Feature","properties":{"c":"CDC-2818948","o":"Richard Michel d'Annoville 100%","e":""},"geometry":{"type":"Polygon","coordinates":[[[-70.49167,46.00833],[-70.48333,46.00833],[-70.48333,46.0],[-70.49167,46.0],[-70.49167,46.00833]]]}},{"type":"Feature","properties":{"c":"CDC-2819973","o":"Richard Michel d'Annoville 100%","e":""},"geometry":{"type":"Polygon","coordinates":[[[-70.48333,46.01667],[-70.475,46.01667],[-70.475,46.00833],[-70.48333,46.00833],[-70.48333,46.01667]]]}},{"type":"Feature","properties":{"c":"CDC-2819972","o":"Richard Michel d'Annoville 100%","e":""},"geometry":{"type":"Polygon","coordinates":[[[-70.49167,46.01667],[-70.48333,46.01667],[-70.48333,46.00833],[-70.49167,46.00833],[-70.49167,46.01667]]]}},{"type":"Feature","properties":{"c":"CDC-2826298","o":"Jean Pierre P\u00e9pin 100%","e":""},"geometry":{"type":"Polygon","coordinates":[[[-70.44167,46.025],[-70.43333,46.025],[-70.43333,46.01667],[-70.44167,46.01667],[-70.44167,46.025]]]}},{"type":"Feature","properties":{"c":"CDC-2826297","o":"Jean Pierre P\u00e9pin 100%","e":""},"geometry":{"type":"Polygon","coordinates":[[[-70.45,46.025],[-70.44167,46.025],[-70.44167,46.01667],[-70.45,46.01667],[-70.45,46.025]]]}},{"type":"Feature","properties":{"c":"CDC-2825059","o":"Richard Michel d'Annoville 100%","e":""},"geometry":{"type":"Polygon","coordinates":[[[-70.43333,46.25833],[-70.425,46.25833],[-70.425,46.25],[-70.43333,46.25],[-70.43333,46.25833]]]}},{"type":"Feature","properties":{"c":"CDC-2820814","o":"Richard Michel d'Annoville 100%","e":""},"geometry":{"type":"Polygon","coordinates":[[[-70.44167,46.25833],[-70.43333,46.25833],[-70.43333,46.25],[-70.44167,46.25],[-70.44167,46.25833]]]}}]}