{"type":"FeatureCollection","features":[{"type":"Feature","properties":{"c":"CDC-2827243","o":"Oceanic Iron Ore Corp. 100%","e":""},"geometry":{"type":"Polygon","coordinates":[[[-70.35,60.51667],[-70.34167,60.51667],[-70.34167,60.50833],[-70.35,60.50833],[-70.35,60.51667]]]}},{"type":"Feature","properties":{"c":"CDC-2823895","o":"Oceanic Iron Ore Corp. 100%","e":""},"geometry":{"type":"Polygon","coordinates":[[[-70.35833,60.51667],[-70.35,60.51667],[-70.35,60.50833],[-70.35833,60.50833],[-70.35833,60.51667]]]}},{"type":"Feature","properties":{"c":"CDC-2823894","o":"Oceanic Iron Ore Corp. 100%","e":""},"geometry":{"type":"Polygon","coordinates":[[[-70.36667,60.51667],[-70.35833,60.51667],[-70.35833,60.50833],[-70.36667,60.50833],[-70.36667,60.51667]]]}},{"type":"Feature","properties":{"c":"CDC-2823893","o":"Oceanic Iron Ore Corp. 100%","e":""},"geometry":{"type":"Polygon","coordinates":[[[-70.375,60.51667],[-70.36667,60.51667],[-70.36667,60.50833],[-70.375,60.50833],[-70.375,60.51667]]]}},{"type":"Feature","properties":{"c":"CDC-2823892","o":"Oceanic Iron Ore Corp. 100%","e":""},"geometry":{"type":"Polygon","coordinates":[[[-70.38333,60.51667],[-70.375,60.51667],[-70.375,60.50833],[-70.38333,60.50833],[-70.38333,60.51667]]]}},{"type":"Feature","properties":{"c":"CDC-2823891","o":"Oceanic Iron Ore Corp. 100%","e":""},"geometry":{"type":"Polygon","coordinates":[[[-70.39167,60.51667],[-70.38333,60.51667],[-70.38333,60.50833],[-70.39167,60.50833],[-70.39167,60.51667]]]}},{"type":"Feature","properties":{"c":"CDC-2823890","o":"Oceanic Iron Ore Corp. 100%","e":""},"geometry":{"type":"Polygon","coordinates":[[[-70.48333,60.51667],[-70.475,60.51667],[-70.475,60.50833],[-70.48333,60.50833],[-70.48333,60.51667]]]}},{"type":"Feature","properties":{"c":"CDC-2827242","o":"Oceanic Iron Ore Corp. 100%","e":""},"geometry":{"type":"Polygon","coordinates":[[[-70.49167,60.51667],[-70.48333,60.51667],[-70.48333,60.50833],[-70.49167,60.50833],[-70.49167,60.51667]]]}},{"type":"Feature","properties":{"c":"CDC-2827244","o":"Oceanic Iron Ore Corp. 100%","e":""},"geometry":{"type":"Polygon","coordinates":[[[-70.39167,60.525],[-70.38333,60.525],[-70.38333,60.51667],[-70.39167,60.51667],[-70.39167,60.525]]]}},{"type":"Feature","properties":{"c":"CDC-2823905","o":"Oceanic Iron Ore Corp. 100%","e":""},"geometry":{"type":"Polygon","coordinates":[[[-70.4,60.525],[-70.39167,60.525],[-70.39167,60.51667],[-70.4,60.51667],[-70.4,60.525]]]}},{"type":"Feature","properties":{"c":"CDC-2823904","o":"Oceanic Iron Ore Corp. 100%","e":""},"geometry":{"type":"Polygon","coordinates":[[[-70.40833,60.525],[-70.4,60.525],[-70.4,60.51667],[-70.40833,60.51667],[-70.40833,60.525]]]}},{"type":"Feature","properties":{"c":"CDC-2823903","o":"Oceanic Iron Ore Corp. 100%","e":""},"geometry":{"type":"Polygon","coordinates":[[[-70.41667,60.525],[-70.40833,60.525],[-70.40833,60.51667],[-70.41667,60.51667],[-70.41667,60.525]]]}},{"type":"Feature","properties":{"c":"CDC-2823902","o":"Oceanic Iron Ore Corp. 100%","e":""},"geometry":{"type":"Polygon","coordinates":[[[-70.425,60.525],[-70.41667,60.525],[-70.41667,60.51667],[-70.425,60.51667],[-70.425,60.525]]]}},{"type":"Feature","properties":{"c":"CDC-2823901","o":"Oceanic Iron Ore Corp. 100%","e":""},"geometry":{"type":"Polygon","coordinates":[[[-70.43333,60.525],[-70.425,60.525],[-70.425,60.51667],[-70.43333,60.51667],[-70.43333,60.525]]]}},{"type":"Feature","properties":{"c":"CDC-2823900","o":"Oceanic Iron Ore Corp. 100%","e":""},"geometry":{"type":"Polygon","coordinates":[[[-70.44167,60.525],[-70.43333,60.525],[-70.43333,60.51667],[-70.44167,60.51667],[-70.44167,60.525]]]}},{"type":"Feature","properties":{"c":"CDC-2823899","o":"Oceanic Iron Ore Corp. 100%","e":""},"geometry":{"type":"Polygon","coordinates":[[[-70.45,60.525],[-70.44167,60.525],[-70.44167,60.51667],[-70.45,60.51667],[-70.45,60.525]]]}},{"type":"Feature","properties":{"c":"CDC-2823898","o":"Oceanic Iron Ore Corp. 100%","e":""},"geometry":{"type":"Polygon","coordinates":[[[-70.475,60.525],[-70.46667,60.525],[-70.46667,60.51667],[-70.475,60.51667],[-70.475,60.525]]]}},{"type":"Feature","properties":{"c":"CDC-2823897","o":"Oceanic Iron Ore Corp. 100%","e":""},"geometry":{"type":"Polygon","coordinates":[[[-70.48333,60.525],[-70.475,60.525],[-70.475,60.51667],[-70.48333,60.51667],[-70.48333,60.525]]]}},{"type":"Feature","properties":{"c":"CDC-2823896","o":"Oceanic Iron Ore Corp. 100%","e":""},"geometry":{"type":"Polygon","coordinates":[[[-70.49167,60.525],[-70.48333,60.525],[-70.48333,60.51667],[-70.49167,60.51667],[-70.49167,60.525]]]}},{"type":"Feature","properties":{"c":"CDC-2827248","o":"Oceanic Iron Ore Corp. 100%","e":""},"geometry":{"type":"Polygon","coordinates":[[[-70.44167,60.53333],[-70.43333,60.53333],[-70.43333,60.525],[-70.44167,60.525],[-70.44167,60.53333]]]}},{"type":"Feature","properties":{"c":"CDC-2827247","o":"Oceanic Iron Ore Corp. 100%","e":""},"geometry":{"type":"Polygon","coordinates":[[[-70.45,60.53333],[-70.44167,60.53333],[-70.44167,60.525],[-70.45,60.525],[-70.45,60.53333]]]}},{"type":"Feature","properties":{"c":"CDC-2827246","o":"Oceanic Iron Ore Corp. 100%","e":""},"geometry":{"type":"Polygon","coordinates":[[[-70.45833,60.53333],[-70.45,60.53333],[-70.45,60.525],[-70.45833,60.525],[-70.45833,60.53333]]]}},{"type":"Feature","properties":{"c":"CDC-2827245","o":"Oceanic Iron Ore Corp. 100%","e":""},"geometry":{"type":"Polygon","coordinates":[[[-70.46667,60.53333],[-70.45833,60.53333],[-70.45833,60.525],[-70.46667,60.525],[-70.46667,60.53333]]]}},{"type":"Feature","properties":{"c":"CDC-2823906","o":"Oceanic Iron Ore Corp. 100%","e":""},"geometry":{"type":"Polygon","coordinates":[[[-70.475,60.53333],[-70.46667,60.53333],[-70.46667,60.525],[-70.475,60.525],[-70.475,60.53333]]]}}]}