{"type":"FeatureCollection","features":[{"type":"Feature","properties":{"c":"CDC-2828813","o":"NeoTerrex Minerals inc. 100%","e":""},"geometry":{"type":"Polygon","coordinates":[[[-70.575,48.59167],[-70.56667,48.59167],[-70.56667,48.58333],[-70.575,48.58333],[-70.575,48.59167]]]}},{"type":"Feature","properties":{"c":"CDC-2828802","o":"NeoTerrex Minerals inc. 100%","e":""},"geometry":{"type":"Polygon","coordinates":[[[-70.58333,48.59167],[-70.575,48.59167],[-70.575,48.58333],[-70.58333,48.58333],[-70.58333,48.59167]]]}},{"type":"Feature","properties":{"c":"CDC-2855828","o":"North American Niobium and Critical Minerals Corp. 100%","e":""},"geometry":{"type":"Polygon","coordinates":[[[-70.53333,48.6],[-70.525,48.6],[-70.525,48.59167],[-70.53333,48.59167],[-70.53333,48.6]]]}},{"type":"Feature","properties":{"c":"CDC-2833988","o":"NeoTerrex Minerals inc. 100%","e":""},"geometry":{"type":"Polygon","coordinates":[[[-70.54167,48.6],[-70.53333,48.6],[-70.53333,48.59167],[-70.54167,48.59167],[-70.54167,48.6]]]}},{"type":"Feature","properties":{"c":"CDC-2833987","o":"NeoTerrex Minerals inc. 100%","e":""},"geometry":{"type":"Polygon","coordinates":[[[-70.55,48.6],[-70.54167,48.6],[-70.54167,48.59167],[-70.55,48.59167],[-70.55,48.6]]]}},{"type":"Feature","properties":{"c":"CDC-2833986","o":"NeoTerrex Minerals inc. 100%","e":""},"geometry":{"type":"Polygon","coordinates":[[[-70.55833,48.6],[-70.55,48.6],[-70.55,48.59167],[-70.55833,48.59167],[-70.55833,48.6]]]}},{"type":"Feature","properties":{"c":"CDC-2832437","o":"Marcel St-Laurent 100%","e":""},"geometry":{"type":"Polygon","coordinates":[[[-70.56667,48.6],[-70.55833,48.6],[-70.55833,48.59167],[-70.56667,48.59167],[-70.56667,48.6]]]}},{"type":"Feature","properties":{"c":"CDC-2855832","o":"North American Niobium and Critical Minerals Corp. 100%","e":""},"geometry":{"type":"Polygon","coordinates":[[[-70.53333,48.60833],[-70.525,48.60833],[-70.525,48.6],[-70.53333,48.6],[-70.53333,48.60833]]]}},{"type":"Feature","properties":{"c":"CDC-2833991","o":"NeoTerrex Minerals inc. 100%","e":""},"geometry":{"type":"Polygon","coordinates":[[[-70.54167,48.60833],[-70.53333,48.60833],[-70.53333,48.6],[-70.54167,48.6],[-70.54167,48.60833]]]}},{"type":"Feature","properties":{"c":"CDC-2833990","o":"NeoTerrex Minerals inc. 100%","e":""},"geometry":{"type":"Polygon","coordinates":[[[-70.55,48.60833],[-70.54167,48.60833],[-70.54167,48.6],[-70.55,48.6],[-70.55,48.60833]]]}},{"type":"Feature","properties":{"c":"CDC-2833989","o":"NeoTerrex Minerals inc. 100%","e":""},"geometry":{"type":"Polygon","coordinates":[[[-70.55833,48.60833],[-70.55,48.60833],[-70.55,48.6],[-70.55833,48.6],[-70.55833,48.60833]]]}},{"type":"Feature","properties":{"c":"CDC-2832440","o":"Marcel St-Laurent 100%","e":""},"geometry":{"type":"Polygon","coordinates":[[[-70.56667,48.60833],[-70.55833,48.60833],[-70.55833,48.6],[-70.56667,48.6],[-70.56667,48.60833]]]}},{"type":"Feature","properties":{"c":"CDC-2832439","o":"Marcel St-Laurent 100%","e":""},"geometry":{"type":"Polygon","coordinates":[[[-70.575,48.60833],[-70.56667,48.60833],[-70.56667,48.6],[-70.575,48.6],[-70.575,48.60833]]]}},{"type":"Feature","properties":{"c":"CDC-2832438","o":"Marcel St-Laurent 100%","e":""},"geometry":{"type":"Polygon","coordinates":[[[-70.58333,48.60833],[-70.575,48.60833],[-70.575,48.6],[-70.58333,48.6],[-70.58333,48.60833]]]}},{"type":"Feature","properties":{"c":"CDC-2855838","o":"North American Niobium and Critical Minerals Corp. 100%","e":""},"geometry":{"type":"Polygon","coordinates":[[[-70.53333,48.61667],[-70.525,48.61667],[-70.525,48.60833],[-70.53333,48.60833],[-70.53333,48.61667]]]}},{"type":"Feature","properties":{"c":"CDC-2855837","o":"North American Niobium and Critical Minerals Corp. 100%","e":""},"geometry":{"type":"Polygon","coordinates":[[[-70.54167,48.61667],[-70.53333,48.61667],[-70.53333,48.60833],[-70.54167,48.60833],[-70.54167,48.61667]]]}},{"type":"Feature","properties":{"c":"CDC-2855836","o":"North American Niobium and Critical Minerals Corp. 100%","e":""},"geometry":{"type":"Polygon","coordinates":[[[-70.55,48.61667],[-70.54167,48.61667],[-70.54167,48.60833],[-70.55,48.60833],[-70.55,48.61667]]]}},{"type":"Feature","properties":{"c":"CDC-2832441","o":"Marcel St-Laurent 100%","e":""},"geometry":{"type":"Polygon","coordinates":[[[-70.55833,48.61667],[-70.55,48.61667],[-70.55,48.60833],[-70.55833,48.60833],[-70.55833,48.61667]]]}},{"type":"Feature","properties":{"c":"CDC-2833181","o":"Marcel St-Laurent 100%","e":""},"geometry":{"type":"Polygon","coordinates":[[[-70.56667,48.61667],[-70.55833,48.61667],[-70.55833,48.60833],[-70.56667,48.60833],[-70.56667,48.61667]]]}},{"type":"Feature","properties":{"c":"CDC-2855841","o":"North American Niobium and Critical Minerals Corp. 100%","e":""},"geometry":{"type":"Polygon","coordinates":[[[-70.54167,48.625],[-70.53333,48.625],[-70.53333,48.61667],[-70.54167,48.61667],[-70.54167,48.625]]]}},{"type":"Feature","properties":{"c":"CDC-2855840","o":"North American Niobium and Critical Minerals Corp. 100%","e":""},"geometry":{"type":"Polygon","coordinates":[[[-70.55,48.625],[-70.54167,48.625],[-70.54167,48.61667],[-70.55,48.61667],[-70.55,48.625]]]}},{"type":"Feature","properties":{"c":"CDC-2855839","o":"North American Niobium and Critical Minerals Corp. 100%","e":""},"geometry":{"type":"Polygon","coordinates":[[[-70.55833,48.625],[-70.55,48.625],[-70.55,48.61667],[-70.55833,48.61667],[-70.55833,48.625]]]}},{"type":"Feature","properties":{"c":"CDC-2833184","o":"Marcel St-Laurent 100%","e":""},"geometry":{"type":"Polygon","coordinates":[[[-70.56667,48.625],[-70.55833,48.625],[-70.55833,48.61667],[-70.56667,48.61667],[-70.56667,48.625]]]}},{"type":"Feature","properties":{"c":"CDC-2833183","o":"Marcel St-Laurent 100%","e":""},"geometry":{"type":"Polygon","coordinates":[[[-70.575,48.625],[-70.56667,48.625],[-70.56667,48.61667],[-70.575,48.61667],[-70.575,48.625]]]}},{"type":"Feature","properties":{"c":"CDC-2833182","o":"Marcel St-Laurent 100%","e":""},"geometry":{"type":"Polygon","coordinates":[[[-70.58333,48.625],[-70.575,48.625],[-70.575,48.61667],[-70.58333,48.61667],[-70.58333,48.625]]]}},{"type":"Feature","properties":{"c":"CDC-2833185","o":"Marcel St-Laurent 100%","e":""},"geometry":{"type":"Polygon","coordinates":[[[-70.56667,48.63333],[-70.55833,48.63333],[-70.55833,48.625],[-70.56667,48.625],[-70.56667,48.63333]]]}},{"type":"Feature","properties":{"c":"CDC-2833186","o":"Marcel St-Laurent 100%","e":""},"geometry":{"type":"Polygon","coordinates":[[[-70.56667,48.64167],[-70.55833,48.64167],[-70.55833,48.63333],[-70.56667,48.63333],[-70.56667,48.64167]]]}},{"type":"Feature","properties":{"c":"CDC-2855842","o":"North American Niobium and Critical Minerals Corp. 100%","e":""},"geometry":{"type":"Polygon","coordinates":[[[-70.53333,48.625],[-70.525,48.625],[-70.525,48.61667],[-70.53333,48.61667],[-70.53333,48.625]]]}},{"type":"Feature","properties":{"c":"CDC-2833981","o":"NeoTerrex Minerals inc. 100%","e":""},"geometry":{"type":"Polygon","coordinates":[[[-70.525,48.575],[-70.51667,48.575],[-70.51667,48.56667],[-70.525,48.56667],[-70.525,48.575]]]}},{"type":"Feature","properties":{"c":"CDC-2833984","o":"NeoTerrex Minerals inc. 100%","e":""},"geometry":{"type":"Polygon","coordinates":[[[-70.525,48.58333],[-70.51667,48.58333],[-70.51667,48.575],[-70.525,48.575],[-70.525,48.58333]]]}},{"type":"Feature","properties":{"c":"CDC-2855825","o":"North American Niobium and Critical Minerals Corp. 100%","e":""},"geometry":{"type":"Polygon","coordinates":[[[-70.525,48.59167],[-70.51667,48.59167],[-70.51667,48.58333],[-70.525,48.58333],[-70.525,48.59167]]]}},{"type":"Feature","properties":{"c":"CDC-2855829","o":"North American Niobium and Critical Minerals Corp. 100%","e":""},"geometry":{"type":"Polygon","coordinates":[[[-70.525,48.6],[-70.51667,48.6],[-70.51667,48.59167],[-70.525,48.59167],[-70.525,48.6]]]}},{"type":"Feature","properties":{"c":"CDC-2855833","o":"North American Niobium and Critical Minerals Corp. 100%","e":""},"geometry":{"type":"Polygon","coordinates":[[[-70.525,48.60833],[-70.51667,48.60833],[-70.51667,48.6],[-70.525,48.6],[-70.525,48.60833]]]}},{"type":"Feature","properties":{"c":"CDC-2866214","o":"North American Niobium and Critical Minerals Corp. 100%","e":""},"geometry":{"type":"Polygon","coordinates":[[[-70.51667,48.60833],[-70.525,48.60833],[-70.525,48.61667],[-70.51693,48.61667],[-70.5169,48.61661],[-70.51683,48.6165],[-70.51667,48.61634],[-70.51667,48.60833]]]}},{"type":"Feature","properties":{"c":"CDC-2855819","o":"North American Niobium and Critical Minerals Corp. 100%","e":""},"geometry":{"type":"Polygon","coordinates":[[[-70.51667,48.56667],[-70.50833,48.56667],[-70.50833,48.55833],[-70.51667,48.55833],[-70.51667,48.56667]]]}},{"type":"Feature","properties":{"c":"CDC-2855820","o":"North American Niobium and Critical Minerals Corp. 100%","e":""},"geometry":{"type":"Polygon","coordinates":[[[-70.51667,48.575],[-70.50833,48.575],[-70.50833,48.56667],[-70.51667,48.56667],[-70.51667,48.575]]]}},{"type":"Feature","properties":{"c":"CDC-2855822","o":"North American Niobium and Critical Minerals Corp. 100%","e":""},"geometry":{"type":"Polygon","coordinates":[[[-70.51667,48.58333],[-70.50833,48.58333],[-70.50833,48.575],[-70.51667,48.575],[-70.51667,48.58333]]]}},{"type":"Feature","properties":{"c":"CDC-2855826","o":"North American Niobium and Critical Minerals Corp. 100%","e":""},"geometry":{"type":"Polygon","coordinates":[[[-70.51667,48.59167],[-70.50833,48.59167],[-70.50833,48.58333],[-70.51667,48.58333],[-70.51667,48.59167]]]}},{"type":"Feature","properties":{"c":"CDC-2855830","o":"North American Niobium and Critical Minerals Corp. 100%","e":""},"geometry":{"type":"Polygon","coordinates":[[[-70.51667,48.6],[-70.50833,48.6],[-70.50833,48.59167],[-70.51667,48.59167],[-70.51667,48.6]]]}},{"type":"Feature","properties":{"c":"CDC-2855834","o":"North American Niobium and Critical Minerals Corp. 100%","e":""},"geometry":{"type":"Polygon","coordinates":[[[-70.51667,48.60833],[-70.50833,48.60833],[-70.50833,48.6],[-70.51667,48.6],[-70.51667,48.60833]]]}},{"type":"Feature","properties":{"c":"CDC-2866215","o":"North American Niobium and Critical Minerals Corp. 100%","e":""},"geometry":{"type":"Polygon","coordinates":[[[-70.50833,48.60833],[-70.51667,48.60833],[-70.51667,48.61634],[-70.51624,48.61591],[-70.51613,48.61581],[-70.51602,48.61571],[-70.51557,48.6154],[-70.51541,48.61526],[-70.5153,48.61515],[-70.51497,48.61483],[-70.51461,48.61462],[-70.51424,48.61432],[-70.51402,48.61426],[-70.51388,48.61423],[-70.51367,48.61421],[-70.51351,48.61422],[-70.5134,48.61422],[-70.51299,48.6143],[-70.51248,48.61444],[-70.51225,48.61448],[-70.51191,48.61452],[-70.51137,48.61452],[-70.51099,48.61458],[-70.51095,48.61445],[-70.51086,48.61429],[-70.51081,48.61417],[-70.51073,48.61404],[-70.51063,48.61393],[-70.51043,48.6138],[-70.50994,48.6136],[-70.50963,48.6135],[-70.5094,48.61346],[-70.50924,48.61346],[-70.50916,48.61348],[-70.50906,48.61355],[-70.50895,48.61356],[-70.5089,48.61354],[-70.50888,48.6135],[-70.50888,48.6134],[-70.50882,48.61326],[-70.50871,48.6132],[-70.50864,48.6132],[-70.50857,48.61322],[-70.50861,48.61333],[-70.50867,48.61349],[-70.50875,48.61358],[-70.50879,48.61363],[-70.50879,48.61369],[-70.50876,48.61375],[-70.50867,48.61383],[-70.50857,48.61386],[-70.50849,48.61385],[-70.50841,48.61388],[-70.50833,48.61392],[-70.50833,48.60833]]]}},{"type":"Feature","properties":{"c":"CDC-2855821","o":"North American Niobium and Critical Minerals Corp. 100%","e":""},"geometry":{"type":"Polygon","coordinates":[[[-70.50833,48.575],[-70.5,48.575],[-70.5,48.56667],[-70.50833,48.56667],[-70.50833,48.575]]]}},{"type":"Feature","properties":{"c":"CDC-2855823","o":"North American Niobium and Critical Minerals Corp. 100%","e":""},"geometry":{"type":"Polygon","coordinates":[[[-70.50833,48.58333],[-70.5,48.58333],[-70.5,48.575],[-70.50833,48.575],[-70.50833,48.58333]]]}},{"type":"Feature","properties":{"c":"CDC-2855827","o":"North American Niobium and Critical Minerals Corp. 100%","e":""},"geometry":{"type":"Polygon","coordinates":[[[-70.50833,48.59167],[-70.5,48.59167],[-70.5,48.58333],[-70.50833,48.58333],[-70.50833,48.59167]]]}},{"type":"Feature","properties":{"c":"CDC-2855831","o":"North American Niobium and Critical Minerals Corp. 100%","e":""},"geometry":{"type":"Polygon","coordinates":[[[-70.50833,48.6],[-70.5,48.6],[-70.5,48.59167],[-70.50833,48.59167],[-70.50833,48.6]]]}},{"type":"Feature","properties":{"c":"CDC-2855835","o":"North American Niobium and Critical Minerals Corp. 100%","e":""},"geometry":{"type":"Polygon","coordinates":[[[-70.50833,48.60833],[-70.5,48.60833],[-70.5,48.6],[-70.50833,48.6],[-70.50833,48.60833]]]}},{"type":"Feature","properties":{"c":"CDC-2866216","o":"North American Niobium and Critical Minerals Corp. 100%","e":""},"geometry":{"type":"Polygon","coordinates":[[[-70.5,48.61667],[-70.5,48.60833],[-70.50833,48.60833],[-70.50833,48.61392],[-70.50818,48.614],[-70.508,48.61405],[-70.50792,48.61405],[-70.50779,48.614],[-70.50764,48.61398],[-70.50757,48.614],[-70.50731,48.61415],[-70.50716,48.61418],[-70.50694,48.61418],[-70.50673,48.61426],[-70.50647,48.61437],[-70.50631,48.61447],[-70.50613,48.61463],[-70.506,48.61471],[-70.50578,48.61472],[-70.5054,48.61481],[-70.50507,48.61493],[-70.50486,48.61506],[-70.50427,48.61546],[-70.50419,48.61547],[-70.50415,48.61546],[-70.50412,48.61545],[-70.50408,48.61542],[-70.50392,48.61521],[-70.50389,48.61513],[-70.50382,48.61509],[-70.5037,48.61511],[-70.50342,48.61534],[-70.50328,48.61535],[-70.50324,48.61528],[-70.50321,48.61517],[-70.50288,48.61537],[-70.50279,48.61546],[-70.50278,48.61556],[-70.50275,48.61561],[-70.50274,48.61581],[-70.50271,48.61593],[-70.50258,48.61609],[-70.50248,48.61616],[-70.50217,48.61624],[-70.50194,48.61629],[-70.50187,48.61639],[-70.50198,48.61647],[-70.50228,48.61647],[-70.50254,48.6166],[-70.50253,48.61667],[-70.5,48.61667]]]}},{"type":"Feature","properties":{"c":"CDC-2828784","o":"NeoTerrex Minerals inc. 100%","e":""},"geometry":{"type":"Polygon","coordinates":[[[-70.64167,48.55833],[-70.63333,48.55833],[-70.63333,48.55],[-70.64167,48.55],[-70.64167,48.55833]]]}},{"type":"Feature","properties":{"c":"CDC-2828785","o":"NeoTerrex Minerals inc. 100%","e":""},"geometry":{"type":"Polygon","coordinates":[[[-70.63333,48.55833],[-70.625,48.55833],[-70.625,48.55],[-70.63333,48.55],[-70.63333,48.55833]]]}},{"type":"Feature","properties":{"c":"CDC-2836019","o":"NeoTerrex Minerals inc. 100%","e":""},"geometry":{"type":"Polygon","coordinates":[[[-70.63333,48.56667],[-70.625,48.56667],[-70.625,48.55833],[-70.63333,48.55833],[-70.63333,48.56667]]]}},{"type":"Feature","properties":{"c":"CDC-2835589","o":"NeoTerrex Minerals inc. 100%","e":""},"geometry":{"type":"Polygon","coordinates":[[[-70.625,48.55833],[-70.61667,48.55833],[-70.61667,48.55],[-70.625,48.55],[-70.625,48.55833]]]}},{"type":"Feature","properties":{"c":"CDC-2828788","o":"NeoTerrex Minerals inc. 100%","e":""},"geometry":{"type":"Polygon","coordinates":[[[-70.625,48.56667],[-70.61667,48.56667],[-70.61667,48.55833],[-70.625,48.55833],[-70.625,48.56667]]]}},{"type":"Feature","properties":{"c":"CDC-2828791","o":"NeoTerrex Minerals inc. 100%","e":""},"geometry":{"type":"Polygon","coordinates":[[[-70.625,48.575],[-70.61667,48.575],[-70.61667,48.56667],[-70.625,48.56667],[-70.625,48.575]]]}},{"type":"Feature","properties":{"c":"CDC-2835590","o":"NeoTerrex Minerals inc. 100%","e":""},"geometry":{"type":"Polygon","coordinates":[[[-70.61667,48.55833],[-70.60833,48.55833],[-70.60833,48.55],[-70.61667,48.55],[-70.61667,48.55833]]]}},{"type":"Feature","properties":{"c":"CDC-2835592","o":"NeoTerrex Minerals inc. 100%","e":""},"geometry":{"type":"Polygon","coordinates":[[[-70.61667,48.56667],[-70.60833,48.56667],[-70.60833,48.55833],[-70.61667,48.55833],[-70.61667,48.56667]]]}},{"type":"Feature","properties":{"c":"CDC-2828792","o":"NeoTerrex Minerals inc. 100%","e":""},"geometry":{"type":"Polygon","coordinates":[[[-70.61667,48.575],[-70.60833,48.575],[-70.60833,48.56667],[-70.61667,48.56667],[-70.61667,48.575]]]}},{"type":"Feature","properties":{"c":"CDC-2828795","o":"NeoTerrex Minerals inc. 100%","e":""},"geometry":{"type":"Polygon","coordinates":[[[-70.61667,48.58333],[-70.60833,48.58333],[-70.60833,48.575],[-70.61667,48.575],[-70.61667,48.58333]]]}},{"type":"Feature","properties":{"c":"CDC-2835591","o":"NeoTerrex Minerals inc. 100%","e":""},"geometry":{"type":"Polygon","coordinates":[[[-70.60833,48.55833],[-70.6,48.55833],[-70.6,48.55],[-70.60833,48.55],[-70.60833,48.55833]]]}},{"type":"Feature","properties":{"c":"CDC-2835593","o":"NeoTerrex Minerals inc. 100%","e":""},"geometry":{"type":"Polygon","coordinates":[[[-70.60833,48.56667],[-70.6,48.56667],[-70.6,48.55833],[-70.60833,48.55833],[-70.60833,48.56667]]]}},{"type":"Feature","properties":{"c":"CDC-2835594","o":"NeoTerrex Minerals inc. 100%","e":""},"geometry":{"type":"Polygon","coordinates":[[[-70.60833,48.575],[-70.6,48.575],[-70.6,48.56667],[-70.60833,48.56667],[-70.60833,48.575]]]}},{"type":"Feature","properties":{"c":"CDC-2828796","o":"NeoTerrex Minerals inc. 100%","e":""},"geometry":{"type":"Polygon","coordinates":[[[-70.60833,48.58333],[-70.6,48.58333],[-70.6,48.575],[-70.60833,48.575],[-70.60833,48.58333]]]}},{"type":"Feature","properties":{"c":"CDC-2828786","o":"NeoTerrex Minerals inc. 100%","e":""},"geometry":{"type":"Polygon","coordinates":[[[-70.6,48.55833],[-70.59167,48.55833],[-70.59167,48.55],[-70.6,48.55],[-70.6,48.55833]]]}},{"type":"Feature","properties":{"c":"CDC-2828789","o":"NeoTerrex Minerals inc. 100%","e":""},"geometry":{"type":"Polygon","coordinates":[[[-70.6,48.56667],[-70.59167,48.56667],[-70.59167,48.55833],[-70.6,48.55833],[-70.6,48.56667]]]}},{"type":"Feature","properties":{"c":"CDC-2828793","o":"NeoTerrex Minerals inc. 100%","e":""},"geometry":{"type":"Polygon","coordinates":[[[-70.6,48.575],[-70.59167,48.575],[-70.59167,48.56667],[-70.6,48.56667],[-70.6,48.575]]]}},{"type":"Feature","properties":{"c":"CDC-2828797","o":"NeoTerrex Minerals inc. 100%","e":""},"geometry":{"type":"Polygon","coordinates":[[[-70.6,48.58333],[-70.59167,48.58333],[-70.59167,48.575],[-70.6,48.575],[-70.6,48.58333]]]}},{"type":"Feature","properties":{"c":"CDC-2828800","o":"NeoTerrex Minerals inc. 100%","e":""},"geometry":{"type":"Polygon","coordinates":[[[-70.6,48.59167],[-70.59167,48.59167],[-70.59167,48.58333],[-70.6,48.58333],[-70.6,48.59167]]]}},{"type":"Feature","properties":{"c":"CDC-2828787","o":"NeoTerrex Minerals inc. 100%","e":""},"geometry":{"type":"Polygon","coordinates":[[[-70.59167,48.55833],[-70.58333,48.55833],[-70.58333,48.55],[-70.59167,48.55],[-70.59167,48.55833]]]}},{"type":"Feature","properties":{"c":"CDC-2828790","o":"NeoTerrex Minerals inc. 100%","e":""},"geometry":{"type":"Polygon","coordinates":[[[-70.59167,48.56667],[-70.58333,48.56667],[-70.58333,48.55833],[-70.59167,48.55833],[-70.59167,48.56667]]]}},{"type":"Feature","properties":{"c":"CDC-2828794","o":"NeoTerrex Minerals inc. 100%","e":""},"geometry":{"type":"Polygon","coordinates":[[[-70.59167,48.575],[-70.58333,48.575],[-70.58333,48.56667],[-70.59167,48.56667],[-70.59167,48.575]]]}},{"type":"Feature","properties":{"c":"CDC-2828798","o":"NeoTerrex Minerals inc. 100%","e":""},"geometry":{"type":"Polygon","coordinates":[[[-70.59167,48.58333],[-70.58333,48.58333],[-70.58333,48.575],[-70.59167,48.575],[-70.59167,48.58333]]]}},{"type":"Feature","properties":{"c":"CDC-2828801","o":"NeoTerrex Minerals inc. 100%","e":""},"geometry":{"type":"Polygon","coordinates":[[[-70.59167,48.59167],[-70.58333,48.59167],[-70.58333,48.58333],[-70.59167,48.58333],[-70.59167,48.59167]]]}},{"type":"Feature","properties":{"c":"CDC-2833201","o":"NeoTerrex Minerals inc. 100%","e":""},"geometry":{"type":"Polygon","coordinates":[[[-70.58333,48.55833],[-70.575,48.55833],[-70.575,48.55],[-70.58333,48.55],[-70.58333,48.55833]]]}},{"type":"Feature","properties":{"c":"CDC-2833205","o":"NeoTerrex Minerals inc. 100%","e":""},"geometry":{"type":"Polygon","coordinates":[[[-70.58333,48.56667],[-70.575,48.56667],[-70.575,48.55833],[-70.58333,48.55833],[-70.58333,48.56667]]]}},{"type":"Feature","properties":{"c":"CDC-2828806","o":"NeoTerrex Minerals inc. 100%","e":""},"geometry":{"type":"Polygon","coordinates":[[[-70.58333,48.575],[-70.575,48.575],[-70.575,48.56667],[-70.58333,48.56667],[-70.58333,48.575]]]}},{"type":"Feature","properties":{"c":"CDC-2833976","o":"NeoTerrex Minerals inc. 100%","e":""},"geometry":{"type":"Polygon","coordinates":[[[-70.55,48.55833],[-70.54167,48.55833],[-70.54167,48.55],[-70.55,48.55],[-70.55,48.55833]]]}},{"type":"Feature","properties":{"c":"CDC-2833204","o":"NeoTerrex Minerals inc. 100%","e":""},"geometry":{"type":"Polygon","coordinates":[[[-70.55833,48.55833],[-70.55,48.55833],[-70.55,48.55],[-70.55833,48.55],[-70.55833,48.55833]]]}},{"type":"Feature","properties":{"c":"CDC-2833203","o":"NeoTerrex Minerals inc. 100%","e":""},"geometry":{"type":"Polygon","coordinates":[[[-70.56667,48.55833],[-70.55833,48.55833],[-70.55833,48.55],[-70.56667,48.55],[-70.56667,48.55833]]]}},{"type":"Feature","properties":{"c":"CDC-2833202","o":"NeoTerrex Minerals inc. 100%","e":""},"geometry":{"type":"Polygon","coordinates":[[[-70.575,48.55833],[-70.56667,48.55833],[-70.56667,48.55],[-70.575,48.55],[-70.575,48.55833]]]}},{"type":"Feature","properties":{"c":"CDC-2833978","o":"NeoTerrex Minerals inc. 100%","e":""},"geometry":{"type":"Polygon","coordinates":[[[-70.54167,48.56667],[-70.53333,48.56667],[-70.53333,48.55833],[-70.54167,48.55833],[-70.54167,48.56667]]]}},{"type":"Feature","properties":{"c":"CDC-2833209","o":"NeoTerrex Minerals inc. 100%","e":""},"geometry":{"type":"Polygon","coordinates":[[[-70.55,48.56667],[-70.54167,48.56667],[-70.54167,48.55833],[-70.55,48.55833],[-70.55,48.56667]]]}},{"type":"Feature","properties":{"c":"CDC-2833208","o":"NeoTerrex Minerals inc. 100%","e":""},"geometry":{"type":"Polygon","coordinates":[[[-70.55833,48.56667],[-70.55,48.56667],[-70.55,48.55833],[-70.55833,48.55833],[-70.55833,48.56667]]]}},{"type":"Feature","properties":{"c":"CDC-2833207","o":"NeoTerrex Minerals inc. 100%","e":""},"geometry":{"type":"Polygon","coordinates":[[[-70.56667,48.56667],[-70.55833,48.56667],[-70.55833,48.55833],[-70.56667,48.55833],[-70.56667,48.56667]]]}},{"type":"Feature","properties":{"c":"CDC-2833206","o":"NeoTerrex Minerals inc. 100%","e":""},"geometry":{"type":"Polygon","coordinates":[[[-70.575,48.56667],[-70.56667,48.56667],[-70.56667,48.55833],[-70.575,48.55833],[-70.575,48.56667]]]}},{"type":"Feature","properties":{"c":"CDC-2833980","o":"NeoTerrex Minerals inc. 100%","e":""},"geometry":{"type":"Polygon","coordinates":[[[-70.53333,48.575],[-70.525,48.575],[-70.525,48.56667],[-70.53333,48.56667],[-70.53333,48.575]]]}},{"type":"Feature","properties":{"c":"CDC-2833979","o":"NeoTerrex Minerals inc. 100%","e":""},"geometry":{"type":"Polygon","coordinates":[[[-70.54167,48.575],[-70.53333,48.575],[-70.53333,48.56667],[-70.54167,48.56667],[-70.54167,48.575]]]}},{"type":"Feature","properties":{"c":"CDC-2833210","o":"NeoTerrex Minerals inc. 100%","e":""},"geometry":{"type":"Polygon","coordinates":[[[-70.55,48.575],[-70.54167,48.575],[-70.54167,48.56667],[-70.55,48.56667],[-70.55,48.575]]]}},{"type":"Feature","properties":{"c":"CDC-2828809","o":"NeoTerrex Minerals inc. 100%","e":""},"geometry":{"type":"Polygon","coordinates":[[[-70.55833,48.575],[-70.55,48.575],[-70.55,48.56667],[-70.55833,48.56667],[-70.55833,48.575]]]}},{"type":"Feature","properties":{"c":"CDC-2828808","o":"NeoTerrex Minerals inc. 100%","e":""},"geometry":{"type":"Polygon","coordinates":[[[-70.56667,48.575],[-70.55833,48.575],[-70.55833,48.56667],[-70.56667,48.56667],[-70.56667,48.575]]]}},{"type":"Feature","properties":{"c":"CDC-2828807","o":"NeoTerrex Minerals inc. 100%","e":""},"geometry":{"type":"Polygon","coordinates":[[[-70.575,48.575],[-70.56667,48.575],[-70.56667,48.56667],[-70.575,48.56667],[-70.575,48.575]]]}},{"type":"Feature","properties":{"c":"CDC-2833983","o":"NeoTerrex Minerals inc. 100%","e":""},"geometry":{"type":"Polygon","coordinates":[[[-70.53333,48.58333],[-70.525,48.58333],[-70.525,48.575],[-70.53333,48.575],[-70.53333,48.58333]]]}},{"type":"Feature","properties":{"c":"CDC-2833982","o":"NeoTerrex Minerals inc. 100%","e":""},"geometry":{"type":"Polygon","coordinates":[[[-70.54167,48.58333],[-70.53333,48.58333],[-70.53333,48.575],[-70.54167,48.575],[-70.54167,48.58333]]]}},{"type":"Feature","properties":{"c":"CDC-2833211","o":"NeoTerrex Minerals inc. 100%","e":""},"geometry":{"type":"Polygon","coordinates":[[[-70.55,48.58333],[-70.54167,48.58333],[-70.54167,48.575],[-70.55,48.575],[-70.55,48.58333]]]}},{"type":"Feature","properties":{"c":"CDC-2828812","o":"NeoTerrex Minerals inc. 100%","e":""},"geometry":{"type":"Polygon","coordinates":[[[-70.55833,48.58333],[-70.55,48.58333],[-70.55,48.575],[-70.55833,48.575],[-70.55833,48.58333]]]}},{"type":"Feature","properties":{"c":"CDC-2828811","o":"NeoTerrex Minerals inc. 100%","e":""},"geometry":{"type":"Polygon","coordinates":[[[-70.56667,48.58333],[-70.55833,48.58333],[-70.55833,48.575],[-70.56667,48.575],[-70.56667,48.58333]]]}},{"type":"Feature","properties":{"c":"CDC-2828810","o":"NeoTerrex Minerals inc. 100%","e":""},"geometry":{"type":"Polygon","coordinates":[[[-70.575,48.58333],[-70.56667,48.58333],[-70.56667,48.575],[-70.575,48.575],[-70.575,48.58333]]]}},{"type":"Feature","properties":{"c":"CDC-2828799","o":"NeoTerrex Minerals inc. 100%","e":""},"geometry":{"type":"Polygon","coordinates":[[[-70.58333,48.58333],[-70.575,48.58333],[-70.575,48.575],[-70.58333,48.575],[-70.58333,48.58333]]]}},{"type":"Feature","properties":{"c":"CDC-2855824","o":"North American Niobium and Critical Minerals Corp. 100%","e":""},"geometry":{"type":"Polygon","coordinates":[[[-70.53333,48.59167],[-70.525,48.59167],[-70.525,48.58333],[-70.53333,48.58333],[-70.53333,48.59167]]]}},{"type":"Feature","properties":{"c":"CDC-2833985","o":"NeoTerrex Minerals inc. 100%","e":""},"geometry":{"type":"Polygon","coordinates":[[[-70.54167,48.59167],[-70.53333,48.59167],[-70.53333,48.58333],[-70.54167,48.58333],[-70.54167,48.59167]]]}},{"type":"Feature","properties":{"c":"CDC-2833213","o":"NeoTerrex Minerals inc. 100%","e":""},"geometry":{"type":"Polygon","coordinates":[[[-70.55,48.59167],[-70.54167,48.59167],[-70.54167,48.58333],[-70.55,48.58333],[-70.55,48.59167]]]}},{"type":"Feature","properties":{"c":"CDC-2833212","o":"NeoTerrex Minerals inc. 100%","e":""},"geometry":{"type":"Polygon","coordinates":[[[-70.55833,48.59167],[-70.55,48.59167],[-70.55,48.58333],[-70.55833,48.58333],[-70.55833,48.59167]]]}},{"type":"Feature","properties":{"c":"CDC-2828814","o":"NeoTerrex Minerals inc. 100%","e":""},"geometry":{"type":"Polygon","coordinates":[[[-70.56667,48.59167],[-70.55833,48.59167],[-70.55833,48.58333],[-70.56667,48.58333],[-70.56667,48.59167]]]}},{"type":"Feature","properties":{"c":"CDC-2835580","o":"NeoTerrex Minerals inc. 100%","e":""},"geometry":{"type":"Polygon","coordinates":[[[-70.63333,48.53333],[-70.625,48.53333],[-70.625,48.525],[-70.63333,48.525],[-70.63333,48.53333]]]}},{"type":"Feature","properties":{"c":"CDC-2836022","o":"NeoTerrex Minerals inc. 100%","e":""},"geometry":{"type":"Polygon","coordinates":[[[-70.63333,48.53333],[-70.63333,48.525],[-70.63512,48.525],[-70.63635,48.52564],[-70.63668,48.5258],[-70.63949,48.52777],[-70.63938,48.52796],[-70.63919,48.52826],[-70.63898,48.52868],[-70.63645,48.53312],[-70.63669,48.53333],[-70.63333,48.53333]]]}},{"type":"Feature","properties":{"c":"CDC-2833968","o":"NeoTerrex Minerals inc. 100%","e":""},"geometry":{"type":"Polygon","coordinates":[[[-70.54167,48.54167],[-70.53333,48.54167],[-70.53333,48.53333],[-70.54167,48.53333],[-70.54167,48.54167]]]}},{"type":"Feature","properties":{"c":"CDC-2833967","o":"NeoTerrex Minerals inc. 100%","e":""},"geometry":{"type":"Polygon","coordinates":[[[-70.55,48.54167],[-70.54167,48.54167],[-70.54167,48.53333],[-70.55,48.53333],[-70.55,48.54167]]]}},{"type":"Feature","properties":{"c":"CDC-2833966","o":"NeoTerrex Minerals inc. 100%","e":""},"geometry":{"type":"Polygon","coordinates":[[[-70.55833,48.54167],[-70.55,48.54167],[-70.55,48.53333],[-70.55833,48.53333],[-70.55833,48.54167]]]}},{"type":"Feature","properties":{"c":"CDC-2833965","o":"NeoTerrex Minerals inc. 100%","e":""},"geometry":{"type":"Polygon","coordinates":[[[-70.56667,48.54167],[-70.55833,48.54167],[-70.55833,48.53333],[-70.56667,48.53333],[-70.56667,48.54167]]]}},{"type":"Feature","properties":{"c":"CDC-2833964","o":"NeoTerrex Minerals inc. 100%","e":""},"geometry":{"type":"Polygon","coordinates":[[[-70.59167,48.54167],[-70.58333,48.54167],[-70.58333,48.53333],[-70.59167,48.53333],[-70.59167,48.54167]]]}},{"type":"Feature","properties":{"c":"CDC-2835586","o":"NeoTerrex Minerals inc. 100%","e":""},"geometry":{"type":"Polygon","coordinates":[[[-70.6,48.54167],[-70.59167,48.54167],[-70.59167,48.53333],[-70.6,48.53333],[-70.6,48.54167]]]}},{"type":"Feature","properties":{"c":"CDC-2835585","o":"NeoTerrex Minerals inc. 100%","e":""},"geometry":{"type":"Polygon","coordinates":[[[-70.60833,48.54167],[-70.6,48.54167],[-70.6,48.53333],[-70.60833,48.53333],[-70.60833,48.54167]]]}},{"type":"Feature","properties":{"c":"CDC-2807045","o":"Marcel St-Laurent 100%","e":""},"geometry":{"type":"Polygon","coordinates":[[[-70.61667,48.54167],[-70.60833,48.54167],[-70.60833,48.53333],[-70.61667,48.53333],[-70.61667,48.54167]]]}},{"type":"Feature","properties":{"c":"CDC-2807044","o":"Marcel St-Laurent 100%","e":""},"geometry":{"type":"Polygon","coordinates":[[[-70.625,48.54167],[-70.61667,48.54167],[-70.61667,48.53333],[-70.625,48.53333],[-70.625,48.54167]]]}},{"type":"Feature","properties":{"c":"CDC-2821733","o":"NeoTerrex Minerals inc. 100%","e":""},"geometry":{"type":"Polygon","coordinates":[[[-70.63333,48.54167],[-70.625,48.54167],[-70.625,48.53333],[-70.63333,48.53333],[-70.63333,48.54167]]]}},{"type":"Feature","properties":{"c":"CDC-2836023","o":"NeoTerrex Minerals inc. 100%","e":""},"geometry":{"type":"Polygon","coordinates":[[[-70.63333,48.54167],[-70.63333,48.53333],[-70.63669,48.53333],[-70.6401,48.53639],[-70.64024,48.53638],[-70.6405,48.53636],[-70.64074,48.53632],[-70.64092,48.53628],[-70.64108,48.53623],[-70.64126,48.53617],[-70.64167,48.53606],[-70.64167,48.54167],[-70.63333,48.54167]]]}},{"type":"Feature","properties":{"c":"CDC-2833975","o":"NeoTerrex Minerals inc. 100%","e":""},"geometry":{"type":"Polygon","coordinates":[[[-70.54167,48.55],[-70.53333,48.55],[-70.53333,48.54167],[-70.54167,48.54167],[-70.54167,48.55]]]}},{"type":"Feature","properties":{"c":"CDC-2833974","o":"NeoTerrex Minerals inc. 100%","e":""},"geometry":{"type":"Polygon","coordinates":[[[-70.55,48.55],[-70.54167,48.55],[-70.54167,48.54167],[-70.55,48.54167],[-70.55,48.55]]]}},{"type":"Feature","properties":{"c":"CDC-2833973","o":"NeoTerrex Minerals inc. 100%","e":""},"geometry":{"type":"Polygon","coordinates":[[[-70.55833,48.55],[-70.55,48.55],[-70.55,48.54167],[-70.55833,48.54167],[-70.55833,48.55]]]}},{"type":"Feature","properties":{"c":"CDC-2833972","o":"NeoTerrex Minerals inc. 100%","e":""},"geometry":{"type":"Polygon","coordinates":[[[-70.56667,48.55],[-70.55833,48.55],[-70.55833,48.54167],[-70.56667,48.54167],[-70.56667,48.55]]]}},{"type":"Feature","properties":{"c":"CDC-2833971","o":"NeoTerrex Minerals inc. 100%","e":""},"geometry":{"type":"Polygon","coordinates":[[[-70.575,48.55],[-70.56667,48.55],[-70.56667,48.54167],[-70.575,48.54167],[-70.575,48.55]]]}},{"type":"Feature","properties":{"c":"CDC-2833970","o":"NeoTerrex Minerals inc. 100%","e":""},"geometry":{"type":"Polygon","coordinates":[[[-70.58333,48.55],[-70.575,48.55],[-70.575,48.54167],[-70.58333,48.54167],[-70.58333,48.55]]]}},{"type":"Feature","properties":{"c":"CDC-2833969","o":"NeoTerrex Minerals inc. 100%","e":""},"geometry":{"type":"Polygon","coordinates":[[[-70.59167,48.55],[-70.58333,48.55],[-70.58333,48.54167],[-70.59167,48.54167],[-70.59167,48.55]]]}},{"type":"Feature","properties":{"c":"CDC-2835588","o":"NeoTerrex Minerals inc. 100%","e":""},"geometry":{"type":"Polygon","coordinates":[[[-70.6,48.55],[-70.59167,48.55],[-70.59167,48.54167],[-70.6,48.54167],[-70.6,48.55]]]}},{"type":"Feature","properties":{"c":"CDC-2835587","o":"NeoTerrex Minerals inc. 100%","e":""},"geometry":{"type":"Polygon","coordinates":[[[-70.60833,48.55],[-70.6,48.55],[-70.6,48.54167],[-70.60833,48.54167],[-70.60833,48.55]]]}},{"type":"Feature","properties":{"c":"CDC-2807048","o":"Marcel St-Laurent 100%","e":""},"geometry":{"type":"Polygon","coordinates":[[[-70.61667,48.55],[-70.60833,48.55],[-70.60833,48.54167],[-70.61667,48.54167],[-70.61667,48.55]]]}},{"type":"Feature","properties":{"c":"CDC-2807047","o":"Marcel St-Laurent 100%","e":""},"geometry":{"type":"Polygon","coordinates":[[[-70.625,48.55],[-70.61667,48.55],[-70.61667,48.54167],[-70.625,48.54167],[-70.625,48.55]]]}},{"type":"Feature","properties":{"c":"CDC-2807046","o":"Marcel St-Laurent 100%","e":""},"geometry":{"type":"Polygon","coordinates":[[[-70.63333,48.55],[-70.625,48.55],[-70.625,48.54167],[-70.63333,48.54167],[-70.63333,48.55]]]}},{"type":"Feature","properties":{"c":"CDC-2828783","o":"NeoTerrex Minerals inc. 100%","e":""},"geometry":{"type":"Polygon","coordinates":[[[-70.64167,48.55],[-70.63333,48.55],[-70.63333,48.54167],[-70.64167,48.54167],[-70.64167,48.55]]]}},{"type":"Feature","properties":{"c":"CDC-2833977","o":"NeoTerrex Minerals inc. 100%","e":""},"geometry":{"type":"Polygon","coordinates":[[[-70.54167,48.55833],[-70.53333,48.55833],[-70.53333,48.55],[-70.54167,48.55],[-70.54167,48.55833]]]}},{"type":"Feature","properties":{"c":"CDC-2836020","o":"NeoTerrex Minerals inc. 100%","e":""},"geometry":{"type":"Polygon","coordinates":[[[-70.625,48.525],[-70.625,48.52241],[-70.6251,48.52236],[-70.62527,48.5223],[-70.63013,48.52139],[-70.63264,48.52372],[-70.63333,48.52408],[-70.63333,48.525],[-70.625,48.525]]]}},{"type":"Feature","properties":{"c":"CDC-2835581","o":"NeoTerrex Minerals inc. 100%","e":""},"geometry":{"type":"Polygon","coordinates":[[[-70.625,48.53333],[-70.61667,48.53333],[-70.61667,48.525],[-70.625,48.525],[-70.625,48.53333]]]}},{"type":"Feature","properties":{"c":"CDC-2836021","o":"NeoTerrex Minerals inc. 100%","e":""},"geometry":{"type":"Polygon","coordinates":[[[-70.61667,48.525],[-70.60833,48.525],[-70.60833,48.51667],[-70.6128,48.51667],[-70.6132,48.51729],[-70.61366,48.51769],[-70.6132,48.52109],[-70.61628,48.52459],[-70.61638,48.52454],[-70.61654,48.52449],[-70.61667,48.52447],[-70.61667,48.525]]]}},{"type":"Feature","properties":{"c":"CDC-2835582","o":"NeoTerrex Minerals inc. 100%","e":""},"geometry":{"type":"Polygon","coordinates":[[[-70.61667,48.53333],[-70.60833,48.53333],[-70.60833,48.525],[-70.61667,48.525],[-70.61667,48.53333]]]}},{"type":"Feature","properties":{"c":"CDC-2835579","o":"NeoTerrex Minerals inc. 100%","e":""},"geometry":{"type":"Polygon","coordinates":[[[-70.60833,48.525],[-70.6,48.525],[-70.6,48.51667],[-70.60833,48.51667],[-70.60833,48.525]]]}},{"type":"Feature","properties":{"c":"CDC-2835583","o":"NeoTerrex Minerals inc. 100%","e":""},"geometry":{"type":"Polygon","coordinates":[[[-70.60833,48.53333],[-70.6,48.53333],[-70.6,48.525],[-70.60833,48.525],[-70.60833,48.53333]]]}},{"type":"Feature","properties":{"c":"CDC-2835584","o":"NeoTerrex Minerals inc. 100%","e":""},"geometry":{"type":"Polygon","coordinates":[[[-70.6,48.53333],[-70.59167,48.53333],[-70.59167,48.525],[-70.6,48.525],[-70.6,48.53333]]]}},{"type":"Feature","properties":{"c":"CDC-2834245","o":"NeoTerrex Minerals inc. 100%","e":""},"geometry":{"type":"Polygon","coordinates":[[[-70.575,48.51667],[-70.56667,48.51667],[-70.56667,48.50833],[-70.575,48.50833],[-70.575,48.51667]]]}},{"type":"Feature","properties":{"c":"CDC-2840920","o":"NeoTerrex Minerals inc. 100%","e":""},"geometry":{"type":"Polygon","coordinates":[[[-70.56667,48.525],[-70.56667,48.51667],[-70.575,48.51667],[-70.575,48.52186],[-70.5749,48.52195],[-70.57483,48.52205],[-70.57472,48.52219],[-70.57463,48.52231],[-70.57449,48.52249],[-70.57448,48.52255],[-70.57442,48.52261],[-70.57426,48.52293],[-70.57421,48.52303],[-70.57414,48.5232],[-70.57413,48.52329],[-70.57411,48.52351],[-70.5741,48.52358],[-70.57403,48.52375],[-70.57396,48.52382],[-70.5736,48.52421],[-70.57356,48.52434],[-70.57356,48.52443],[-70.57356,48.52455],[-70.57357,48.52466],[-70.57329,48.525],[-70.56667,48.525]]]}},{"type":"Feature","properties":{"c":"CDC-2834242","o":"NeoTerrex Minerals inc. 100%","e":""},"geometry":{"type":"Polygon","coordinates":[[[-70.56667,48.50833],[-70.55833,48.50833],[-70.55833,48.5],[-70.56667,48.5],[-70.56667,48.50833]]]}},{"type":"Feature","properties":{"c":"CDC-2834246","o":"NeoTerrex Minerals inc. 100%","e":""},"geometry":{"type":"Polygon","coordinates":[[[-70.56667,48.51667],[-70.55833,48.51667],[-70.55833,48.50833],[-70.56667,48.50833],[-70.56667,48.51667]]]}},{"type":"Feature","properties":{"c":"CDC-2834250","o":"NeoTerrex Minerals inc. 100%","e":""},"geometry":{"type":"Polygon","coordinates":[[[-70.56667,48.525],[-70.55833,48.525],[-70.55833,48.51667],[-70.56667,48.51667],[-70.56667,48.525]]]}},{"type":"Feature","properties":{"c":"CDC-2834254","o":"NeoTerrex Minerals inc. 100%","e":""},"geometry":{"type":"Polygon","coordinates":[[[-70.56667,48.53333],[-70.55833,48.53333],[-70.55833,48.525],[-70.56667,48.525],[-70.56667,48.53333]]]}},{"type":"Feature","properties":{"c":"CDC-2834243","o":"NeoTerrex Minerals inc. 100%","e":""},"geometry":{"type":"Polygon","coordinates":[[[-70.55833,48.50833],[-70.55,48.50833],[-70.55,48.5],[-70.55833,48.5],[-70.55833,48.50833]]]}},{"type":"Feature","properties":{"c":"CDC-2834247","o":"NeoTerrex Minerals inc. 100%","e":""},"geometry":{"type":"Polygon","coordinates":[[[-70.55833,48.51667],[-70.55,48.51667],[-70.55,48.50833],[-70.55833,48.50833],[-70.55833,48.51667]]]}},{"type":"Feature","properties":{"c":"CDC-2834251","o":"NeoTerrex Minerals inc. 100%","e":""},"geometry":{"type":"Polygon","coordinates":[[[-70.55833,48.525],[-70.55,48.525],[-70.55,48.51667],[-70.55833,48.51667],[-70.55833,48.525]]]}},{"type":"Feature","properties":{"c":"CDC-2834255","o":"NeoTerrex Minerals inc. 100%","e":""},"geometry":{"type":"Polygon","coordinates":[[[-70.55833,48.53333],[-70.55,48.53333],[-70.55,48.525],[-70.55833,48.525],[-70.55833,48.53333]]]}},{"type":"Feature","properties":{"c":"CDC-2834244","o":"NeoTerrex Minerals inc. 100%","e":""},"geometry":{"type":"Polygon","coordinates":[[[-70.55,48.50833],[-70.54167,48.50833],[-70.54167,48.5],[-70.55,48.5],[-70.55,48.50833]]]}},{"type":"Feature","properties":{"c":"CDC-2834248","o":"NeoTerrex Minerals inc. 100%","e":""},"geometry":{"type":"Polygon","coordinates":[[[-70.55,48.51667],[-70.54167,48.51667],[-70.54167,48.50833],[-70.55,48.50833],[-70.55,48.51667]]]}},{"type":"Feature","properties":{"c":"CDC-2834252","o":"NeoTerrex Minerals inc. 100%","e":""},"geometry":{"type":"Polygon","coordinates":[[[-70.55,48.525],[-70.54167,48.525],[-70.54167,48.51667],[-70.55,48.51667],[-70.55,48.525]]]}},{"type":"Feature","properties":{"c":"CDC-2834256","o":"NeoTerrex Minerals inc. 100%","e":""},"geometry":{"type":"Polygon","coordinates":[[[-70.55,48.53333],[-70.54167,48.53333],[-70.54167,48.525],[-70.55,48.525],[-70.55,48.53333]]]}},{"type":"Feature","properties":{"c":"CDC-2834249","o":"NeoTerrex Minerals inc. 100%","e":""},"geometry":{"type":"Polygon","coordinates":[[[-70.54167,48.51667],[-70.53333,48.51667],[-70.53333,48.50833],[-70.54167,48.50833],[-70.54167,48.51667]]]}},{"type":"Feature","properties":{"c":"CDC-2834253","o":"NeoTerrex Minerals inc. 100%","e":""},"geometry":{"type":"Polygon","coordinates":[[[-70.54167,48.525],[-70.53333,48.525],[-70.53333,48.51667],[-70.54167,48.51667],[-70.54167,48.525]]]}},{"type":"Feature","properties":{"c":"CDC-2834257","o":"NeoTerrex Minerals inc. 100%","e":""},"geometry":{"type":"Polygon","coordinates":[[[-70.54167,48.53333],[-70.53333,48.53333],[-70.53333,48.525],[-70.54167,48.525],[-70.54167,48.53333]]]}},{"type":"Feature","properties":{"c":"CDC-2878589","o":"Northern Rare Earth Corp. 100%","e":""},"geometry":{"type":"Polygon","coordinates":[[[-70.63333,48.81667],[-70.625,48.81667],[-70.625,48.80833],[-70.63333,48.80833],[-70.63333,48.81667]]]}},{"type":"Feature","properties":{"c":"CDC-2878593","o":"Northern Rare Earth Corp. 100%","e":""},"geometry":{"type":"Polygon","coordinates":[[[-70.65833,48.79167],[-70.65,48.79167],[-70.65,48.78333],[-70.65833,48.78333],[-70.65833,48.79167]]]}},{"type":"Feature","properties":{"c":"CDC-2878595","o":"Northern Rare Earth Corp. 100%","e":""},"geometry":{"type":"Polygon","coordinates":[[[-70.65833,48.8],[-70.65,48.8],[-70.65,48.79167],[-70.65833,48.79167],[-70.65833,48.8]]]}},{"type":"Feature","properties":{"c":"CDC-2878572","o":"Northern Rare Earth Corp. 100%","e":""},"geometry":{"type":"Polygon","coordinates":[[[-70.65,48.79167],[-70.64167,48.79167],[-70.64167,48.78333],[-70.65,48.78333],[-70.65,48.79167]]]}},{"type":"Feature","properties":{"c":"CDC-2878581","o":"Northern Rare Earth Corp. 100%","e":""},"geometry":{"type":"Polygon","coordinates":[[[-70.65,48.8],[-70.64167,48.8],[-70.64167,48.79167],[-70.65,48.79167],[-70.65,48.8]]]}},{"type":"Feature","properties":{"c":"CDC-2878573","o":"Northern Rare Earth Corp. 100%","e":""},"geometry":{"type":"Polygon","coordinates":[[[-70.64167,48.79167],[-70.63333,48.79167],[-70.63333,48.78333],[-70.64167,48.78333],[-70.64167,48.79167]]]}},{"type":"Feature","properties":{"c":"CDC-2878582","o":"Northern Rare Earth Corp. 100%","e":""},"geometry":{"type":"Polygon","coordinates":[[[-70.64167,48.8],[-70.63333,48.8],[-70.63333,48.79167],[-70.64167,48.79167],[-70.64167,48.8]]]}},{"type":"Feature","properties":{"c":"CDC-2878567","o":"Northern Rare Earth Corp. 100%","e":""},"geometry":{"type":"Polygon","coordinates":[[[-70.63333,48.78333],[-70.625,48.78333],[-70.625,48.775],[-70.63333,48.775],[-70.63333,48.78333]]]}},{"type":"Feature","properties":{"c":"CDC-2878574","o":"Northern Rare Earth Corp. 100%","e":""},"geometry":{"type":"Polygon","coordinates":[[[-70.63333,48.79167],[-70.625,48.79167],[-70.625,48.78333],[-70.63333,48.78333],[-70.63333,48.79167]]]}},{"type":"Feature","properties":{"c":"CDC-2878583","o":"Northern Rare Earth Corp. 100%","e":""},"geometry":{"type":"Polygon","coordinates":[[[-70.63333,48.8],[-70.625,48.8],[-70.625,48.79167],[-70.63333,48.79167],[-70.63333,48.8]]]}},{"type":"Feature","properties":{"c":"CDC-2878586","o":"Northern Rare Earth Corp. 100%","e":""},"geometry":{"type":"Polygon","coordinates":[[[-70.63333,48.80833],[-70.625,48.80833],[-70.625,48.8],[-70.63333,48.8],[-70.63333,48.80833]]]}},{"type":"Feature","properties":{"c":"CDC-2878568","o":"Northern Rare Earth Corp. 100%","e":""},"geometry":{"type":"Polygon","coordinates":[[[-70.625,48.78333],[-70.61667,48.78333],[-70.61667,48.775],[-70.625,48.775],[-70.625,48.78333]]]}},{"type":"Feature","properties":{"c":"CDC-2878575","o":"Northern Rare Earth Corp. 100%","e":""},"geometry":{"type":"Polygon","coordinates":[[[-70.625,48.79167],[-70.61667,48.79167],[-70.61667,48.78333],[-70.625,48.78333],[-70.625,48.79167]]]}},{"type":"Feature","properties":{"c":"CDC-2878584","o":"Northern Rare Earth Corp. 100%","e":""},"geometry":{"type":"Polygon","coordinates":[[[-70.625,48.8],[-70.61667,48.8],[-70.61667,48.79167],[-70.625,48.79167],[-70.625,48.8]]]}},{"type":"Feature","properties":{"c":"CDC-2878587","o":"Northern Rare Earth Corp. 100%","e":""},"geometry":{"type":"Polygon","coordinates":[[[-70.625,48.80833],[-70.61667,48.80833],[-70.61667,48.8],[-70.625,48.8],[-70.625,48.80833]]]}},{"type":"Feature","properties":{"c":"CDC-2878590","o":"Northern Rare Earth Corp. 100%","e":""},"geometry":{"type":"Polygon","coordinates":[[[-70.625,48.81667],[-70.61667,48.81667],[-70.61667,48.80833],[-70.625,48.80833],[-70.625,48.81667]]]}},{"type":"Feature","properties":{"c":"CDC-2878569","o":"Northern Rare Earth Corp. 100%","e":""},"geometry":{"type":"Polygon","coordinates":[[[-70.61667,48.78333],[-70.60833,48.78333],[-70.60833,48.775],[-70.61667,48.775],[-70.61667,48.78333]]]}},{"type":"Feature","properties":{"c":"CDC-2878576","o":"Northern Rare Earth Corp. 100%","e":""},"geometry":{"type":"Polygon","coordinates":[[[-70.61667,48.79167],[-70.60833,48.79167],[-70.60833,48.78333],[-70.61667,48.78333],[-70.61667,48.79167]]]}},{"type":"Feature","properties":{"c":"CDC-2878585","o":"Northern Rare Earth Corp. 100%","e":""},"geometry":{"type":"Polygon","coordinates":[[[-70.61667,48.8],[-70.60833,48.8],[-70.60833,48.79167],[-70.61667,48.79167],[-70.61667,48.8]]]}},{"type":"Feature","properties":{"c":"CDC-2878588","o":"Northern Rare Earth Corp. 100%","e":""},"geometry":{"type":"Polygon","coordinates":[[[-70.61667,48.80833],[-70.60833,48.80833],[-70.60833,48.8],[-70.61667,48.8],[-70.61667,48.80833]]]}},{"type":"Feature","properties":{"c":"CDC-2878591","o":"Northern Rare Earth Corp. 100%","e":""},"geometry":{"type":"Polygon","coordinates":[[[-70.61667,48.81667],[-70.60833,48.81667],[-70.60833,48.80833],[-70.61667,48.80833],[-70.61667,48.81667]]]}},{"type":"Feature","properties":{"c":"CDC-2857232","o":"Beno\u00eet Moreau 100%","e":""},"geometry":{"type":"Polygon","coordinates":[[[-70.60833,48.775],[-70.6,48.775],[-70.6,48.76667],[-70.60833,48.76667],[-70.60833,48.775]]]}},{"type":"Feature","properties":{"c":"CDC-2857234","o":"Beno\u00eet Moreau 100%","e":""},"geometry":{"type":"Polygon","coordinates":[[[-70.60833,48.78333],[-70.6,48.78333],[-70.6,48.775],[-70.60833,48.775],[-70.60833,48.78333]]]}},{"type":"Feature","properties":{"c":"CDC-2878577","o":"Northern Rare Earth Corp. 100%","e":""},"geometry":{"type":"Polygon","coordinates":[[[-70.60833,48.79167],[-70.6,48.79167],[-70.6,48.78333],[-70.60833,48.78333],[-70.60833,48.79167]]]}},{"type":"Feature","properties":{"c":"CDC-2878596","o":"Northern Rare Earth Corp. 100%","e":""},"geometry":{"type":"Polygon","coordinates":[[[-70.60833,48.80833],[-70.6,48.80833],[-70.6,48.8],[-70.60833,48.8],[-70.60833,48.80833]]]}},{"type":"Feature","properties":{"c":"CDC-2878597","o":"Northern Rare Earth Corp. 100%","e":""},"geometry":{"type":"Polygon","coordinates":[[[-70.60833,48.81667],[-70.6,48.81667],[-70.6,48.80833],[-70.60833,48.80833],[-70.60833,48.81667]]]}},{"type":"Feature","properties":{"c":"CDC-2857233","o":"Beno\u00eet Moreau 100%","e":""},"geometry":{"type":"Polygon","coordinates":[[[-70.6,48.775],[-70.59167,48.775],[-70.59167,48.76667],[-70.6,48.76667],[-70.6,48.775]]]}},{"type":"Feature","properties":{"c":"CDC-2857235","o":"Beno\u00eet Moreau 100%","e":""},"geometry":{"type":"Polygon","coordinates":[[[-70.6,48.78333],[-70.59167,48.78333],[-70.59167,48.775],[-70.6,48.775],[-70.6,48.78333]]]}},{"type":"Feature","properties":{"c":"CDC-2878578","o":"Northern Rare Earth Corp. 100%","e":""},"geometry":{"type":"Polygon","coordinates":[[[-70.6,48.79167],[-70.59167,48.79167],[-70.59167,48.78333],[-70.6,48.78333],[-70.6,48.79167]]]}},{"type":"Feature","properties":{"c":"CDC-2878570","o":"Northern Rare Earth Corp. 100%","e":""},"geometry":{"type":"Polygon","coordinates":[[[-70.59167,48.78333],[-70.58333,48.78333],[-70.58333,48.775],[-70.59167,48.775],[-70.59167,48.78333]]]}},{"type":"Feature","properties":{"c":"CDC-2878579","o":"Northern Rare Earth Corp. 100%","e":""},"geometry":{"type":"Polygon","coordinates":[[[-70.59167,48.79167],[-70.58333,48.79167],[-70.58333,48.78333],[-70.59167,48.78333],[-70.59167,48.79167]]]}},{"type":"Feature","properties":{"c":"CDC-2878571","o":"Northern Rare Earth Corp. 100%","e":""},"geometry":{"type":"Polygon","coordinates":[[[-70.58333,48.78333],[-70.575,48.78333],[-70.575,48.775],[-70.58333,48.775],[-70.58333,48.78333]]]}},{"type":"Feature","properties":{"c":"CDC-2878580","o":"Northern Rare Earth Corp. 100%","e":""},"geometry":{"type":"Polygon","coordinates":[[[-70.58333,48.79167],[-70.575,48.79167],[-70.575,48.78333],[-70.58333,48.78333],[-70.58333,48.79167]]]}},{"type":"Feature","properties":{"c":"CDC-2833140","o":"9228-6202 Qu\u00e9bec inc 100%","e":""},"geometry":{"type":"Polygon","coordinates":[[[-70.575,48.71667],[-70.56667,48.71667],[-70.56667,48.70833],[-70.575,48.70833],[-70.575,48.71667]]]}},{"type":"Feature","properties":{"c":"CDC-2878592","o":"Northern Rare Earth Corp. 100%","e":""},"geometry":{"type":"Polygon","coordinates":[[[-70.575,48.78333],[-70.56667,48.78333],[-70.56667,48.775],[-70.575,48.775],[-70.575,48.78333]]]}},{"type":"Feature","properties":{"c":"CDC-2878594","o":"Northern Rare Earth Corp. 100%","e":""},"geometry":{"type":"Polygon","coordinates":[[[-70.575,48.79167],[-70.56667,48.79167],[-70.56667,48.78333],[-70.575,48.78333],[-70.575,48.79167]]]}},{"type":"Feature","properties":{"c":"CDC-2833141","o":"9228-6202 Qu\u00e9bec inc 100%","e":""},"geometry":{"type":"Polygon","coordinates":[[[-70.56667,48.71667],[-70.55833,48.71667],[-70.55833,48.70833],[-70.56667,48.70833],[-70.56667,48.71667]]]}},{"type":"Feature","properties":{"c":"CDC-2833142","o":"9228-6202 Qu\u00e9bec inc 100%","e":""},"geometry":{"type":"Polygon","coordinates":[[[-70.56667,48.725],[-70.55833,48.725],[-70.55833,48.71667],[-70.56667,48.71667],[-70.56667,48.725]]]}},{"type":"Feature","properties":{"c":"CDC-2867662","o":"Gestion Kinipi 100%","e":""},"geometry":{"type":"Polygon","coordinates":[[[-70.56667,48.73333],[-70.55833,48.73333],[-70.55833,48.725],[-70.56667,48.725],[-70.56667,48.73333]]]}},{"type":"Feature","properties":{"c":"CDC-2833143","o":"9228-6202 Qu\u00e9bec inc 100%","e":""},"geometry":{"type":"Polygon","coordinates":[[[-70.55833,48.725],[-70.55,48.725],[-70.55,48.71667],[-70.55833,48.71667],[-70.55833,48.725]]]}},{"type":"Feature","properties":{"c":"CDC-2867663","o":"Gestion Kinipi 100%","e":""},"geometry":{"type":"Polygon","coordinates":[[[-70.55833,48.73333],[-70.55,48.73333],[-70.55,48.725],[-70.55833,48.725],[-70.55833,48.73333]]]}},{"type":"Feature","properties":{"c":"CDC-2867664","o":"Gestion Kinipi 100%","e":""},"geometry":{"type":"Polygon","coordinates":[[[-70.55833,48.74167],[-70.55,48.74167],[-70.55,48.73333],[-70.55833,48.73333],[-70.55833,48.74167]]]}},{"type":"Feature","properties":{"c":"CDC-2833146","o":"9228-6202 Qu\u00e9bec inc 100%","e":""},"geometry":{"type":"Polygon","coordinates":[[[-70.55833,48.75],[-70.55,48.75],[-70.55,48.74167],[-70.55833,48.74167],[-70.55833,48.75]]]}},{"type":"Feature","properties":{"c":"CDC-2833144","o":"9228-6202 Qu\u00e9bec inc 100%","e":""},"geometry":{"type":"Polygon","coordinates":[[[-70.55,48.725],[-70.54167,48.725],[-70.54167,48.71667],[-70.55,48.71667],[-70.55,48.725]]]}},{"type":"Feature","properties":{"c":"CDC-2833145","o":"9228-6202 Qu\u00e9bec inc 100%","e":""},"geometry":{"type":"Polygon","coordinates":[[[-70.55,48.73333],[-70.54167,48.73333],[-70.54167,48.725],[-70.55,48.725],[-70.55,48.73333]]]}},{"type":"Feature","properties":{"c":"CDC-2867665","o":"Gestion Kinipi 100%","e":""},"geometry":{"type":"Polygon","coordinates":[[[-70.55,48.74167],[-70.54167,48.74167],[-70.54167,48.73333],[-70.55,48.73333],[-70.55,48.74167]]]}},{"type":"Feature","properties":{"c":"CDC-2833147","o":"9228-6202 Qu\u00e9bec inc 100%","e":""},"geometry":{"type":"Polygon","coordinates":[[[-70.55,48.75],[-70.54167,48.75],[-70.54167,48.74167],[-70.55,48.74167],[-70.55,48.75]]]}},{"type":"Feature","properties":{"c":"AMO-243","o":"Direction g\u00e9n\u00e9rale des barrages 100%","e":""},"geometry":{"type":"Polygon","coordinates":[[[-70.76897,48.96154],[-70.7687,48.96172],[-70.76774,48.96129],[-70.7676,48.96057],[-70.76716,48.95984],[-70.76785,48.95966],[-70.76818,48.95995],[-70.76816,48.96084],[-70.76833,48.96114],[-70.76853,48.96129],[-70.76893,48.96145],[-70.76897,48.96154]]]}},{"type":"Feature","properties":{"c":"AMO-244","o":"Direction g\u00e9n\u00e9rale des barrages 100%","e":""},"geometry":{"type":"Polygon","coordinates":[[[-70.76586,48.99965],[-70.76585,48.99965],[-70.7658,48.99959],[-70.76569,48.99954],[-70.76552,48.99944],[-70.76542,48.99931],[-70.76543,48.99927],[-70.76556,48.99905],[-70.76558,48.99913],[-70.76558,48.99919],[-70.76566,48.99922],[-70.76572,48.99926],[-70.76575,48.9993],[-70.76574,48.99934],[-70.7658,48.99938],[-70.76587,48.99939],[-70.76612,48.99945],[-70.76632,48.99945],[-70.76649,48.99942],[-70.76675,48.9994],[-70.76703,48.99942],[-70.76716,48.99944],[-70.76725,48.99949],[-70.76731,48.99954],[-70.76737,48.99957],[-70.76745,48.99956],[-70.7675,48.99956],[-70.76752,48.99959],[-70.76752,48.99965],[-70.76753,48.99969],[-70.76763,48.99974],[-70.76778,48.99997],[-70.76747,48.99998],[-70.76706,48.99991],[-70.76706,48.9999],[-70.76702,48.99984],[-70.76699,48.99981],[-70.76692,48.9998],[-70.76682,48.9998],[-70.76668,48.9998],[-70.76651,48.99978],[-70.76642,48.99979],[-70.76586,48.99965]]]}},{"type":"Feature","properties":{"c":"AMO-250","o":"Direction g\u00e9n\u00e9rale des barrages 100%","e":""},"geometry":{"type":"Polygon","coordinates":[[[-70.76212,48.99952],[-70.76223,48.99951],[-70.76234,48.99951],[-70.76261,48.99952],[-70.76286,48.99954],[-70.76306,48.99961],[-70.76327,48.9997],[-70.76334,48.99977],[-70.7633,48.99978],[-70.76294,48.99991],[-70.76251,49.00004],[-70.76249,49.00005],[-70.76224,49.00014],[-70.76208,49.00017],[-70.762,49.0001],[-70.762,49.00002],[-70.76196,48.99997],[-70.7619,48.99993],[-70.76183,48.99987],[-70.76177,48.99983],[-70.76171,48.99975],[-70.76169,48.99967],[-70.76196,48.99955],[-70.76212,48.99952]]]}},{"type":"Feature","properties":{"c":"CDC-2351171","o":"Periodic resources inc. 100%","e":""},"geometry":{"type":"Polygon","coordinates":[[[-70.85,48.69167],[-70.84167,48.69167],[-70.84167,48.68333],[-70.85,48.68333],[-70.85,48.69167]]]}},{"type":"Feature","properties":{"c":"CDC-2351173","o":"Periodic resources inc. 100%","e":""},"geometry":{"type":"Polygon","coordinates":[[[-70.85,48.7],[-70.84167,48.7],[-70.84167,48.69167],[-70.85,48.69167],[-70.85,48.7]]]}},{"type":"Feature","properties":{"c":"CDC-2369429","o":"Periodic resources inc. 100%","e":""},"geometry":{"type":"Polygon","coordinates":[[[-70.85,48.70833],[-70.84167,48.70833],[-70.84167,48.7],[-70.85,48.7],[-70.85,48.70833]]]}},{"type":"Feature","properties":{"c":"CDC-2349116","o":"Periodic resources inc. 100%","e":""},"geometry":{"type":"Polygon","coordinates":[[[-70.84167,48.69167],[-70.83333,48.69167],[-70.83333,48.68333],[-70.84167,48.68333],[-70.84167,48.69167]]]}},{"type":"Feature","properties":{"c":"CDC-2372963","o":"Periodic resources inc. 100%","e":""},"geometry":{"type":"Polygon","coordinates":[[[-70.84167,48.7],[-70.83333,48.7],[-70.83333,48.69167],[-70.84167,48.69167],[-70.84167,48.7]]]}},{"type":"Feature","properties":{"c":"CDC-2372965","o":"Periodic resources inc. 100%","e":""},"geometry":{"type":"Polygon","coordinates":[[[-70.84167,48.70833],[-70.83333,48.70833],[-70.83333,48.7],[-70.84167,48.7],[-70.84167,48.70833]]]}},{"type":"Feature","properties":{"c":"CDC-2349117","o":"Periodic resources inc. 100%","e":""},"geometry":{"type":"Polygon","coordinates":[[[-70.83333,48.69167],[-70.825,48.69167],[-70.825,48.68333],[-70.83333,48.68333],[-70.83333,48.69167]]]}},{"type":"Feature","properties":{"c":"CDC-2349118","o":"Periodic resources inc. 100%","e":""},"geometry":{"type":"Polygon","coordinates":[[[-70.83333,48.7],[-70.825,48.7],[-70.825,48.69167],[-70.83333,48.69167],[-70.83333,48.7]]]}},{"type":"Feature","properties":{"c":"CDC-2369430","o":"Periodic resources inc. 100%","e":""},"geometry":{"type":"Polygon","coordinates":[[[-70.83333,48.70833],[-70.825,48.70833],[-70.825,48.7],[-70.83333,48.7],[-70.83333,48.70833]]]}},{"type":"Feature","properties":{"c":"CDC-2420611","o":"Periodic resources inc. 100%","e":""},"geometry":{"type":"Polygon","coordinates":[[[-70.83333,48.71667],[-70.825,48.71667],[-70.825,48.70833],[-70.83333,48.70833],[-70.83333,48.71667]]]}},{"type":"Feature","properties":{"c":"BEX-1270","o":"Periodic resources inc. 100%","e":""},"geometry":{"type":"Polygon","coordinates":[[[-70.82567,48.70829],[-70.82697,48.70195],[-70.82995,48.702],[-70.82859,48.7083],[-70.82567,48.70829]]]}},{"type":"Feature","properties":{"c":"CDC-2351172","o":"Periodic resources inc. 100%","e":""},"geometry":{"type":"Polygon","coordinates":[[[-70.825,48.69167],[-70.81667,48.69167],[-70.81667,48.68333],[-70.825,48.68333],[-70.825,48.69167]]]}},{"type":"Feature","properties":{"c":"CDC-2372964","o":"Periodic resources inc. 100%","e":""},"geometry":{"type":"Polygon","coordinates":[[[-70.825,48.7],[-70.81667,48.7],[-70.81667,48.69167],[-70.825,48.69167],[-70.825,48.7]]]}},{"type":"Feature","properties":{"c":"CDC-2372966","o":"Periodic resources inc. 100%","e":""},"geometry":{"type":"Polygon","coordinates":[[[-70.825,48.70833],[-70.81667,48.70833],[-70.81667,48.7],[-70.825,48.7],[-70.825,48.70833]]]}},{"type":"Feature","properties":{"c":"CDC-2494028","o":"Periodic resources inc. 100%","e":""},"geometry":{"type":"Polygon","coordinates":[[[-70.825,48.71667],[-70.81667,48.71667],[-70.81667,48.70833],[-70.825,48.70833],[-70.825,48.71667]]]}},{"type":"Feature","properties":{"c":"CDC-2492278","o":"Periodic resources inc. 50%","e":""},"geometry":{"type":"Polygon","coordinates":[[[-70.825,48.79167],[-70.81667,48.79167],[-70.81667,48.78333],[-70.825,48.78333],[-70.825,48.79167]]]}},{"type":"Feature","properties":{"c":"CDC-2492279","o":"Periodic resources inc. 50%","e":""},"geometry":{"type":"Polygon","coordinates":[[[-70.81667,48.79167],[-70.80833,48.79167],[-70.80833,48.78333],[-70.81667,48.78333],[-70.81667,48.79167]]]}},{"type":"Feature","properties":{"c":"CDC-2488270","o":"Periodic resources inc. 50%","e":""},"geometry":{"type":"Polygon","coordinates":[[[-70.81667,48.8],[-70.80833,48.8],[-70.80833,48.79167],[-70.81667,48.79167],[-70.81667,48.8]]]}},{"type":"Feature","properties":{"c":"CDC-2492280","o":"Periodic resources inc. 50%","e":""},"geometry":{"type":"Polygon","coordinates":[[[-70.80833,48.79167],[-70.8,48.79167],[-70.8,48.78333],[-70.80833,48.78333],[-70.80833,48.79167]]]}},{"type":"Feature","properties":{"c":"CDC-2492281","o":"Periodic resources inc. 50%","e":""},"geometry":{"type":"Polygon","coordinates":[[[-70.80833,48.8],[-70.8,48.8],[-70.8,48.79167],[-70.80833,48.79167],[-70.80833,48.8]]]}},{"type":"Feature","properties":{"c":"CDC-2492296","o":"Periodic resources inc. 50%","e":""},"geometry":{"type":"Polygon","coordinates":[[[-70.8,48.79167],[-70.79167,48.79167],[-70.79167,48.78333],[-70.8,48.78333],[-70.8,48.79167]]]}},{"type":"Feature","properties":{"c":"CDC-2492282","o":"Periodic resources inc. 50%","e":""},"geometry":{"type":"Polygon","coordinates":[[[-70.8,48.8],[-70.79167,48.8],[-70.79167,48.79167],[-70.8,48.79167],[-70.8,48.8]]]}},{"type":"Feature","properties":{"c":"CDC-2874469","o":"Bertrand Brassard 100%","e":""},"geometry":{"type":"Polygon","coordinates":[[[-70.80833,48.5],[-70.8,48.5],[-70.8,48.49167],[-70.80833,48.49167],[-70.80833,48.5]]]}},{"type":"Feature","properties":{"c":"CDC-2874468","o":"Bertrand Brassard 100%","e":""},"geometry":{"type":"Polygon","coordinates":[[[-70.81667,48.5],[-70.80833,48.5],[-70.80833,48.49167],[-70.81667,48.49167],[-70.81667,48.5]]]}},{"type":"Feature","properties":{"c":"CDC-2874467","o":"Bertrand Brassard 100%","e":""},"geometry":{"type":"Polygon","coordinates":[[[-70.825,48.5],[-70.81667,48.5],[-70.81667,48.49167],[-70.825,48.49167],[-70.825,48.5]]]}},{"type":"Feature","properties":{"c":"CDC-2874466","o":"Bertrand Brassard 100%","e":""},"geometry":{"type":"Polygon","coordinates":[[[-70.83333,48.5],[-70.825,48.5],[-70.825,48.49167],[-70.83333,48.49167],[-70.83333,48.5]]]}},{"type":"Feature","properties":{"c":"CDC-2874465","o":"Bertrand Brassard 100%","e":""},"geometry":{"type":"Polygon","coordinates":[[[-70.84167,48.5],[-70.83333,48.5],[-70.83333,48.49167],[-70.84167,48.49167],[-70.84167,48.5]]]}},{"type":"Feature","properties":{"c":"CDC-2874464","o":"Bertrand Brassard 100%","e":""},"geometry":{"type":"Polygon","coordinates":[[[-70.85,48.5],[-70.84167,48.5],[-70.84167,48.49167],[-70.85,48.49167],[-70.85,48.5]]]}},{"type":"Feature","properties":{"c":"CDC-2874472","o":"Bertrand Brassard 100%","e":""},"geometry":{"type":"Polygon","coordinates":[[[-70.825,48.50833],[-70.81667,48.50833],[-70.81667,48.5],[-70.825,48.5],[-70.825,48.50833]]]}},{"type":"Feature","properties":{"c":"CDC-2874471","o":"Bertrand Brassard 100%","e":""},"geometry":{"type":"Polygon","coordinates":[[[-70.83333,48.50833],[-70.825,48.50833],[-70.825,48.5],[-70.83333,48.5],[-70.83333,48.50833]]]}},{"type":"Feature","properties":{"c":"CDC-2874470","o":"Bertrand Brassard 100%","e":""},"geometry":{"type":"Polygon","coordinates":[[[-70.84167,48.50833],[-70.83333,48.50833],[-70.83333,48.5],[-70.84167,48.5],[-70.84167,48.50833]]]}},{"type":"Feature","properties":{"c":"CDC-2842674","o":"Marcel St-Laurent 100%","e":""},"geometry":{"type":"Polygon","coordinates":[[[-70.85,48.50833],[-70.84167,48.50833],[-70.84167,48.5],[-70.85,48.5],[-70.85,48.50833]]]}},{"type":"Feature","properties":{"c":"CDC-2874473","o":"Bertrand Brassard 100%","e":""},"geometry":{"type":"Polygon","coordinates":[[[-70.83333,48.51667],[-70.825,48.51667],[-70.825,48.50833],[-70.83333,48.50833],[-70.83333,48.51667]]]}},{"type":"Feature","properties":{"c":"CDC-2852931","o":"Bertrand Brassard 100%","e":""},"geometry":{"type":"Polygon","coordinates":[[[-70.84167,48.51667],[-70.83333,48.51667],[-70.83333,48.50833],[-70.84167,48.50833],[-70.84167,48.51667]]]}},{"type":"Feature","properties":{"c":"CDC-2848665","o":"Marcel St-Laurent 100%","e":""},"geometry":{"type":"Polygon","coordinates":[[[-70.85,48.51667],[-70.84167,48.51667],[-70.84167,48.50833],[-70.85,48.50833],[-70.85,48.51667]]]}},{"type":"Feature","properties":{"c":"CDC-2852932","o":"Bertrand Brassard 100%","e":""},"geometry":{"type":"Polygon","coordinates":[[[-70.85,48.525],[-70.84167,48.525],[-70.84167,48.51667],[-70.85,48.51667],[-70.85,48.525]]]}},{"type":"Feature","properties":{"c":"CDC-2806703","o":"Fr\u00e9d\u00e9ric Bergeron 100%","e":""},"geometry":{"type":"Polygon","coordinates":[[[-70.925,48.53333],[-70.91667,48.53333],[-70.91667,48.525],[-70.925,48.525],[-70.925,48.53333]]]}},{"type":"Feature","properties":{"c":"CDC-2806702","o":"Fr\u00e9d\u00e9ric Bergeron 100%","e":""},"geometry":{"type":"Polygon","coordinates":[[[-70.93333,48.53333],[-70.925,48.53333],[-70.925,48.525],[-70.93333,48.525],[-70.93333,48.53333]]]}},{"type":"Feature","properties":{"c":"CDC-2806706","o":"Fr\u00e9d\u00e9ric Bergeron 100%","e":""},"geometry":{"type":"Polygon","coordinates":[[[-70.925,48.54167],[-70.91667,48.54167],[-70.91667,48.53333],[-70.925,48.53333],[-70.925,48.54167]]]}},{"type":"Feature","properties":{"c":"CDC-2806705","o":"Fr\u00e9d\u00e9ric Bergeron 100%","e":""},"geometry":{"type":"Polygon","coordinates":[[[-70.93333,48.54167],[-70.925,48.54167],[-70.925,48.53333],[-70.93333,48.53333],[-70.93333,48.54167]]]}},{"type":"Feature","properties":{"c":"CDC-2806709","o":"Fr\u00e9d\u00e9ric Bergeron 100%","e":""},"geometry":{"type":"Polygon","coordinates":[[[-70.925,48.55],[-70.91667,48.55],[-70.91667,48.54167],[-70.925,48.54167],[-70.925,48.55]]]}},{"type":"Feature","properties":{"c":"CDC-2806708","o":"Fr\u00e9d\u00e9ric Bergeron 100%","e":""},"geometry":{"type":"Polygon","coordinates":[[[-70.93333,48.55],[-70.925,48.55],[-70.925,48.54167],[-70.93333,48.54167],[-70.93333,48.55]]]}},{"type":"Feature","properties":{"c":"CDC-2806707","o":"Fr\u00e9d\u00e9ric Bergeron 100%","e":""},"geometry":{"type":"Polygon","coordinates":[[[-70.94167,48.55],[-70.93333,48.55],[-70.93333,48.54167],[-70.94167,48.54167],[-70.94167,48.55]]]}},{"type":"Feature","properties":{"c":"CDC-2806712","o":"Fr\u00e9d\u00e9ric Bergeron 100%","e":""},"geometry":{"type":"Polygon","coordinates":[[[-70.91667,48.55],[-70.925,48.55],[-70.925,48.55833],[-70.91667,48.55833],[-70.91667,48.55]]]}},{"type":"Feature","properties":{"c":"CDC-2806711","o":"Fr\u00e9d\u00e9ric Bergeron 100%","e":""},"geometry":{"type":"Polygon","coordinates":[[[-70.93333,48.55833],[-70.925,48.55833],[-70.925,48.55],[-70.93333,48.55],[-70.93333,48.55833]]]}},{"type":"Feature","properties":{"c":"CDC-2806710","o":"Fr\u00e9d\u00e9ric Bergeron 100%","e":""},"geometry":{"type":"Polygon","coordinates":[[[-70.94167,48.55833],[-70.93333,48.55833],[-70.93333,48.55],[-70.94167,48.55],[-70.94167,48.55833]]]}},{"type":"Feature","properties":{"c":"CDC-2844731","o":"Richard Jean Tremblay 100%","e":""},"geometry":{"type":"Polygon","coordinates":[[[-70.89167,48.55833],[-70.9,48.55833],[-70.9,48.56667],[-70.89983,48.56667],[-70.89167,48.56271],[-70.89167,48.55833]]]}},{"type":"Feature","properties":{"c":"CDC-2839062","o":"Richard Jean Tremblay 100%","e":""},"geometry":{"type":"Polygon","coordinates":[[[-70.90833,48.56667],[-70.9,48.56667],[-70.9,48.55833],[-70.90833,48.55833],[-70.90833,48.56667]]]}},{"type":"Feature","properties":{"c":"CDC-2806715","o":"Fr\u00e9d\u00e9ric Bergeron 100%","e":""},"geometry":{"type":"Polygon","coordinates":[[[-70.925,48.56667],[-70.91667,48.56667],[-70.91667,48.55833],[-70.925,48.55833],[-70.925,48.56667]]]}},{"type":"Feature","properties":{"c":"CDC-2806714","o":"Fr\u00e9d\u00e9ric Bergeron 100%","e":""},"geometry":{"type":"Polygon","coordinates":[[[-70.93333,48.56667],[-70.925,48.56667],[-70.925,48.55833],[-70.93333,48.55833],[-70.93333,48.56667]]]}},{"type":"Feature","properties":{"c":"CDC-2806713","o":"Fr\u00e9d\u00e9ric Bergeron 100%","e":""},"geometry":{"type":"Polygon","coordinates":[[[-70.94167,48.56667],[-70.93333,48.56667],[-70.93333,48.55833],[-70.94167,48.55833],[-70.94167,48.56667]]]}},{"type":"Feature","properties":{"c":"CDC-2806718","o":"Fr\u00e9d\u00e9ric Bergeron 100%","e":""},"geometry":{"type":"Polygon","coordinates":[[[-70.925,48.575],[-70.91704,48.575],[-70.91667,48.57482],[-70.91667,48.56667],[-70.925,48.56667],[-70.925,48.575]]]}},{"type":"Feature","properties":{"c":"CDC-2806717","o":"Fr\u00e9d\u00e9ric Bergeron 100%","e":""},"geometry":{"type":"Polygon","coordinates":[[[-70.93333,48.575],[-70.925,48.575],[-70.925,48.56667],[-70.93333,48.56667],[-70.93333,48.575]]]}},{"type":"Feature","properties":{"c":"CDC-2806716","o":"Fr\u00e9d\u00e9ric Bergeron 100%","e":""},"geometry":{"type":"Polygon","coordinates":[[[-70.94167,48.575],[-70.93333,48.575],[-70.93333,48.56667],[-70.94167,48.56667],[-70.94167,48.575]]]}},{"type":"Feature","properties":{"c":"CDC-2819228","o":"Fr\u00e9d\u00e9ric Bergeron 100%","e":""},"geometry":{"type":"Polygon","coordinates":[[[-70.925,48.58113],[-70.92128,48.57705],[-70.91704,48.575],[-70.925,48.575],[-70.925,48.58113]]]}},{"type":"Feature","properties":{"c":"CDC-2819227","o":"Fr\u00e9d\u00e9ric Bergeron 100%","e":""},"geometry":{"type":"Polygon","coordinates":[[[-70.92688,48.58333],[-70.92694,48.58326],[-70.925,48.58113],[-70.925,48.575],[-70.93333,48.575],[-70.93333,48.58333],[-70.92688,48.58333]]]}},{"type":"Feature","properties":{"c":"CDC-2806719","o":"Fr\u00e9d\u00e9ric Bergeron 100%","e":""},"geometry":{"type":"Polygon","coordinates":[[[-70.94167,48.58333],[-70.93333,48.58333],[-70.93333,48.575],[-70.94167,48.575],[-70.94167,48.58333]]]}},{"type":"Feature","properties":{"c":"CDC-2819229","o":"Fr\u00e9d\u00e9ric Bergeron 100%","e":""},"geometry":{"type":"Polygon","coordinates":[[[-70.92634,48.59167],[-70.925,48.59028],[-70.925,48.58577],[-70.92688,48.58333],[-70.93333,48.58333],[-70.93333,48.59167],[-70.92634,48.59167]]]}},{"type":"Feature","properties":{"c":"CDC-2806720","o":"Fr\u00e9d\u00e9ric Bergeron 100%","e":""},"geometry":{"type":"Polygon","coordinates":[[[-70.94167,48.58333],[-70.94167,48.59167],[-70.93333,48.59167],[-70.93333,48.58333],[-70.94167,48.58333]]]}},{"type":"Feature","properties":{"c":"CDC-2819230","o":"Fr\u00e9d\u00e9ric Bergeron 100%","e":""},"geometry":{"type":"Polygon","coordinates":[[[-70.92307,48.58827],[-70.925,48.58577],[-70.925,48.59028],[-70.92307,48.58827]]]}},{"type":"Feature","properties":{"c":"CDC-2819232","o":"Fr\u00e9d\u00e9ric Bergeron 100%","e":""},"geometry":{"type":"Polygon","coordinates":[[[-70.93333,48.59893],[-70.92634,48.59167],[-70.93333,48.59167],[-70.93333,48.59893]]]}},{"type":"Feature","properties":{"c":"CDC-2819231","o":"Fr\u00e9d\u00e9ric Bergeron 100%","e":""},"geometry":{"type":"Polygon","coordinates":[[[-70.93437,48.6],[-70.93333,48.59893],[-70.93333,48.59167],[-70.94167,48.59167],[-70.94167,48.6],[-70.93437,48.6]]]}},{"type":"Feature","properties":{"c":"CDC-2819226","o":"Fr\u00e9d\u00e9ric Bergeron 100%","e":""},"geometry":{"type":"Polygon","coordinates":[[[-70.95,48.53819],[-70.9497,48.53816],[-70.94966,48.5382],[-70.94956,48.53832],[-70.94948,48.53846],[-70.94947,48.53855],[-70.94943,48.53865],[-70.94941,48.53886],[-70.94942,48.53899],[-70.94941,48.53934],[-70.94929,48.5397],[-70.94913,48.53988],[-70.94908,48.53999],[-70.94904,48.54013],[-70.94907,48.54025],[-70.94916,48.54039],[-70.94929,48.5405],[-70.94948,48.54066],[-70.9496,48.54073],[-70.9499,48.54092],[-70.95,48.54099],[-70.95,48.54167],[-70.94167,48.54167],[-70.94167,48.53333],[-70.95,48.53333],[-70.95,48.53819]]]}},{"type":"Feature","properties":{"c":"CDC-2806701","o":"Fr\u00e9d\u00e9ric Bergeron 100%","e":""},"geometry":{"type":"Polygon","coordinates":[[[-70.94167,48.53333],[-70.93333,48.53333],[-70.93333,48.525],[-70.94167,48.525],[-70.94167,48.53333]]]}},{"type":"Feature","properties":{"c":"CDC-2806704","o":"Fr\u00e9d\u00e9ric Bergeron 100%","e":""},"geometry":{"type":"Polygon","coordinates":[[[-70.94167,48.54167],[-70.93333,48.54167],[-70.93333,48.53333],[-70.94167,48.53333],[-70.94167,48.54167]]]}}]}