{"type":"FeatureCollection","features":[{"type":"Feature","properties":{"c":"CDC-2234417","o":"Fancamp Exploration Ltd 100%","e":""},"geometry":{"type":"Polygon","coordinates":[[[-70.95833,45.425],[-70.95,45.425],[-70.95,45.41667],[-70.95833,45.41667],[-70.95833,45.425]]]}},{"type":"Feature","properties":{"c":"CDC-2787881","o":"Fancamp Exploration Ltd 100%","e":""},"geometry":{"type":"Polygon","coordinates":[[[-70.88333,45.43333],[-70.88333,45.425],[-70.89167,45.425],[-70.89167,45.43333],[-70.88333,45.43333]]]}},{"type":"Feature","properties":{"c":"CDC-2787879","o":"Fancamp Exploration Ltd 100%","e":""},"geometry":{"type":"Polygon","coordinates":[[[-70.9,45.425],[-70.9,45.43333],[-70.89167,45.43333],[-70.89167,45.425],[-70.9,45.425]]]}},{"type":"Feature","properties":{"c":"CDC-2787883","o":"Fancamp Exploration Ltd 100%","e":""},"geometry":{"type":"Polygon","coordinates":[[[-70.9,45.43333],[-70.9,45.425],[-70.90833,45.425],[-70.90833,45.43333],[-70.9,45.43333]]]}},{"type":"Feature","properties":{"c":"CDC-2787851","o":"Fancamp Exploration Ltd 100%","e":""},"geometry":{"type":"Polygon","coordinates":[[[-70.90833,45.43333],[-70.90833,45.425],[-70.91667,45.425],[-70.91667,45.43333],[-70.90833,45.43333]]]}},{"type":"Feature","properties":{"c":"CDC-2787885","o":"Fancamp Exploration Ltd 100%","e":""},"geometry":{"type":"Polygon","coordinates":[[[-70.91667,45.43333],[-70.91667,45.425],[-70.925,45.425],[-70.925,45.43333],[-70.91667,45.43333]]]}},{"type":"Feature","properties":{"c":"CDC-2787840","o":"Fancamp Exploration Ltd 100%","e":""},"geometry":{"type":"Polygon","coordinates":[[[-70.925,45.43333],[-70.925,45.425],[-70.93333,45.425],[-70.93333,45.43333],[-70.925,45.43333]]]}},{"type":"Feature","properties":{"c":"CDC-2787882","o":"Fancamp Exploration Ltd 100%","e":""},"geometry":{"type":"Polygon","coordinates":[[[-70.94167,45.43333],[-70.93333,45.43333],[-70.93333,45.425],[-70.94167,45.425],[-70.94167,45.43333]]]}},{"type":"Feature","properties":{"c":"CDC-2234418","o":"Fancamp Exploration Ltd 100%","e":""},"geometry":{"type":"Polygon","coordinates":[[[-70.95,45.43333],[-70.94167,45.43333],[-70.94167,45.425],[-70.95,45.425],[-70.95,45.43333]]]}},{"type":"Feature","properties":{"c":"CDC-2787832","o":"Fancamp Exploration Ltd 100%","e":""},"geometry":{"type":"Polygon","coordinates":[[[-70.88611,45.44147],[-70.88604,45.44105],[-70.88565,45.44036],[-70.88554,45.44016],[-70.88471,45.43867],[-70.88421,45.43771],[-70.88365,45.43665],[-70.88333,45.43589],[-70.88333,45.43333],[-70.89167,45.43333],[-70.89167,45.44167],[-70.88615,45.44167],[-70.88611,45.44147]]]}},{"type":"Feature","properties":{"c":"CDC-2787838","o":"Fancamp Exploration Ltd 100%","e":""},"geometry":{"type":"Polygon","coordinates":[[[-70.9,45.43333],[-70.9,45.44167],[-70.89167,45.44167],[-70.89167,45.43333],[-70.9,45.43333]]]}},{"type":"Feature","properties":{"c":"CDC-2787858","o":"Fancamp Exploration Ltd 100%","e":""},"geometry":{"type":"Polygon","coordinates":[[[-70.90833,45.43333],[-70.90833,45.44167],[-70.9,45.44167],[-70.9,45.43333],[-70.90833,45.43333]]]}},{"type":"Feature","properties":{"c":"CDC-2787846","o":"Fancamp Exploration Ltd 100%","e":""},"geometry":{"type":"Polygon","coordinates":[[[-70.91667,45.44167],[-70.90833,45.44167],[-70.90833,45.43333],[-70.91667,45.43333],[-70.91667,45.44167]]]}},{"type":"Feature","properties":{"c":"CDC-2787872","o":"Fancamp Exploration Ltd 100%","e":""},"geometry":{"type":"Polygon","coordinates":[[[-70.925,45.43333],[-70.925,45.44167],[-70.91667,45.44167],[-70.91667,45.43333],[-70.925,45.43333]]]}},{"type":"Feature","properties":{"c":"CDC-2787888","o":"Fancamp Exploration Ltd 100%","e":""},"geometry":{"type":"Polygon","coordinates":[[[-70.93333,45.43333],[-70.93333,45.44167],[-70.925,45.44167],[-70.925,45.43333],[-70.93333,45.43333]]]}},{"type":"Feature","properties":{"c":"CDC-2787859","o":"Fancamp Exploration Ltd 100%","e":""},"geometry":{"type":"Polygon","coordinates":[[[-70.94167,45.44167],[-70.93333,45.44167],[-70.93333,45.43333],[-70.94167,45.43333],[-70.94167,45.44167]]]}},{"type":"Feature","properties":{"c":"CDC-2787833","o":"Fancamp Exploration Ltd 100%","e":""},"geometry":{"type":"Polygon","coordinates":[[[-70.88665,45.45],[-70.88695,45.44412],[-70.88669,45.44369],[-70.88638,45.44312],[-70.8863,45.44289],[-70.88626,45.44277],[-70.88621,45.4422],[-70.88621,45.44219],[-70.8862,45.44187],[-70.88615,45.44167],[-70.89167,45.44167],[-70.89167,45.45],[-70.88665,45.45]]]}},{"type":"Feature","properties":{"c":"CDC-2787873","o":"Fancamp Exploration Ltd 100%","e":""},"geometry":{"type":"Polygon","coordinates":[[[-70.89167,45.45],[-70.89167,45.44167],[-70.9,45.44167],[-70.9,45.45],[-70.89167,45.45]]]}},{"type":"Feature","properties":{"c":"CDC-2787874","o":"Fancamp Exploration Ltd 100%","e":""},"geometry":{"type":"Polygon","coordinates":[[[-70.9,45.45],[-70.9,45.44167],[-70.90833,45.44167],[-70.90833,45.45],[-70.9,45.45]]]}},{"type":"Feature","properties":{"c":"CDC-2787837","o":"Fancamp Exploration Ltd 100%","e":""},"geometry":{"type":"Polygon","coordinates":[[[-70.91667,45.45],[-70.90833,45.45],[-70.90833,45.44167],[-70.91667,45.44167],[-70.91667,45.45]]]}},{"type":"Feature","properties":{"c":"CDC-2787836","o":"Fancamp Exploration Ltd 100%","e":""},"geometry":{"type":"Polygon","coordinates":[[[-70.925,45.45],[-70.91667,45.45],[-70.91667,45.44167],[-70.925,45.44167],[-70.925,45.45]]]}},{"type":"Feature","properties":{"c":"CDC-2787892","o":"Fancamp Exploration Ltd 100%","e":""},"geometry":{"type":"Polygon","coordinates":[[[-70.93333,45.45],[-70.93125,45.45],[-70.925,45.45],[-70.925,45.44167],[-70.93333,45.44167],[-70.93333,45.45]]]}},{"type":"Feature","properties":{"c":"CDC-2787831","o":"Fancamp Exploration Ltd 100%","e":""},"geometry":{"type":"Polygon","coordinates":[[[-70.875,45.45833],[-70.875,45.45],[-70.87934,45.45],[-70.87924,45.45353],[-70.87926,45.45355],[-70.88333,45.45359],[-70.88333,45.45833],[-70.875,45.45833]]]}},{"type":"Feature","properties":{"c":"CDC-2787834","o":"Fancamp Exploration Ltd 100%","e":""},"geometry":{"type":"Polygon","coordinates":[[[-70.88333,45.45833],[-70.88333,45.45359],[-70.88647,45.45363],[-70.88665,45.45],[-70.89167,45.45],[-70.89167,45.45833],[-70.88333,45.45833]]]}},{"type":"Feature","properties":{"c":"CDC-2787861","o":"Fancamp Exploration Ltd 100%","e":""},"geometry":{"type":"Polygon","coordinates":[[[-70.9,45.45833],[-70.89167,45.45833],[-70.89167,45.45],[-70.9,45.45],[-70.9,45.45833]]]}},{"type":"Feature","properties":{"c":"CDC-2787875","o":"Fancamp Exploration Ltd 100%","e":""},"geometry":{"type":"Polygon","coordinates":[[[-70.90833,45.45],[-70.90833,45.45833],[-70.9,45.45833],[-70.9,45.45],[-70.90833,45.45]]]}},{"type":"Feature","properties":{"c":"CDC-2787893","o":"Fancamp Exploration Ltd 100%","e":""},"geometry":{"type":"Polygon","coordinates":[[[-70.91667,45.45],[-70.91667,45.45833],[-70.90833,45.45833],[-70.90833,45.45],[-70.91667,45.45]]]}},{"type":"Feature","properties":{"c":"CDC-2234414","o":"Fancamp Exploration Ltd 100%","e":""},"geometry":{"type":"Polygon","coordinates":[[[-70.9,45.40833],[-70.89167,45.40833],[-70.89167,45.4],[-70.9,45.4],[-70.9,45.40833]]]}},{"type":"Feature","properties":{"c":"CDC-2787845","o":"Fancamp Exploration Ltd 100%","e":""},"geometry":{"type":"Polygon","coordinates":[[[-70.90833,45.40833],[-70.9,45.40833],[-70.9,45.4],[-70.90833,45.4],[-70.90833,45.40833]]]}},{"type":"Feature","properties":{"c":"CDC-2787853","o":"Fancamp Exploration Ltd 100%","e":""},"geometry":{"type":"Polygon","coordinates":[[[-70.90833,45.4],[-70.91667,45.4],[-70.91667,45.40833],[-70.90833,45.40833],[-70.90833,45.4]]]}},{"type":"Feature","properties":{"c":"CDC-2787877","o":"Fancamp Exploration Ltd 100%","e":""},"geometry":{"type":"Polygon","coordinates":[[[-70.91667,45.4],[-70.925,45.4],[-70.925,45.40833],[-70.91667,45.40833],[-70.91667,45.4]]]}},{"type":"Feature","properties":{"c":"CDC-2787887","o":"Fancamp Exploration Ltd 100%","e":""},"geometry":{"type":"Polygon","coordinates":[[[-70.93333,45.4],[-70.93333,45.40833],[-70.925,45.40833],[-70.925,45.4],[-70.93333,45.4]]]}},{"type":"Feature","properties":{"c":"CDC-2787863","o":"Fancamp Exploration Ltd 100%","e":""},"geometry":{"type":"Polygon","coordinates":[[[-70.94167,45.4],[-70.94167,45.40833],[-70.93333,45.40833],[-70.93333,45.4],[-70.94167,45.4]]]}},{"type":"Feature","properties":{"c":"CDC-2158205","o":"Fancamp Exploration Ltd 100%","e":""},"geometry":{"type":"Polygon","coordinates":[[[-70.95,45.40833],[-70.94167,45.40833],[-70.94167,45.4],[-70.95,45.4],[-70.95,45.40833]]]}},{"type":"Feature","properties":{"c":"CDC-2158204","o":"Fancamp Exploration Ltd 100%","e":""},"geometry":{"type":"Polygon","coordinates":[[[-70.95833,45.40833],[-70.95,45.40833],[-70.95,45.4],[-70.95833,45.4],[-70.95833,45.40833]]]}},{"type":"Feature","properties":{"c":"CDC-2147279","o":"Fancamp Exploration Ltd 100%","e":""},"geometry":{"type":"Polygon","coordinates":[[[-70.96667,45.40833],[-70.95833,45.40833],[-70.95833,45.4],[-70.96667,45.4],[-70.96667,45.40833]]]}},{"type":"Feature","properties":{"c":"CDC-2787876","o":"Fancamp Exploration Ltd 100%","e":""},"geometry":{"type":"Polygon","coordinates":[[[-70.89167,45.41667],[-70.88333,45.41667],[-70.88333,45.40833],[-70.89167,45.40833],[-70.89167,45.41667]]]}},{"type":"Feature","properties":{"c":"CDC-2787869","o":"Fancamp Exploration Ltd 100%","e":""},"geometry":{"type":"Polygon","coordinates":[[[-70.9,45.41667],[-70.89167,45.41667],[-70.89167,45.40833],[-70.9,45.40833],[-70.9,45.41667]]]}},{"type":"Feature","properties":{"c":"CDC-2787862","o":"Fancamp Exploration Ltd 100%","e":""},"geometry":{"type":"Polygon","coordinates":[[[-70.90833,45.41667],[-70.9,45.41667],[-70.9,45.40833],[-70.90833,45.40833],[-70.90833,45.41667]]]}},{"type":"Feature","properties":{"c":"CDC-2787870","o":"Fancamp Exploration Ltd 100%","e":""},"geometry":{"type":"Polygon","coordinates":[[[-70.90833,45.41667],[-70.90833,45.40833],[-70.91667,45.40833],[-70.91667,45.41667],[-70.90833,45.41667]]]}},{"type":"Feature","properties":{"c":"CDC-2787847","o":"Fancamp Exploration Ltd 100%","e":""},"geometry":{"type":"Polygon","coordinates":[[[-70.91667,45.41667],[-70.91667,45.40833],[-70.925,45.40833],[-70.925,45.41667],[-70.91667,45.41667]]]}},{"type":"Feature","properties":{"c":"CDC-2787843","o":"Fancamp Exploration Ltd 100%","e":""},"geometry":{"type":"Polygon","coordinates":[[[-70.93333,45.41667],[-70.925,45.41667],[-70.925,45.40833],[-70.93333,45.40833],[-70.93333,45.41667]]]}},{"type":"Feature","properties":{"c":"CDC-2787848","o":"Fancamp Exploration Ltd 100%","e":""},"geometry":{"type":"Polygon","coordinates":[[[-70.94167,45.40833],[-70.94167,45.41667],[-70.93333,45.41667],[-70.93333,45.40833],[-70.94167,45.40833]]]}},{"type":"Feature","properties":{"c":"CDC-2158207","o":"Fancamp Exploration Ltd 100%","e":""},"geometry":{"type":"Polygon","coordinates":[[[-70.95,45.41667],[-70.94167,45.41667],[-70.94167,45.40833],[-70.95,45.40833],[-70.95,45.41667]]]}},{"type":"Feature","properties":{"c":"CDC-2147280","o":"Fancamp Exploration Ltd 100%","e":""},"geometry":{"type":"Polygon","coordinates":[[[-70.95833,45.41667],[-70.95,45.41667],[-70.95,45.40833],[-70.95833,45.40833],[-70.95833,45.41667]]]}},{"type":"Feature","properties":{"c":"CDC-2214029","o":"Fancamp Exploration Ltd 100%","e":""},"geometry":{"type":"Polygon","coordinates":[[[-70.96667,45.41667],[-70.95833,45.41667],[-70.95833,45.40833],[-70.96667,45.40833],[-70.96667,45.41667]]]}},{"type":"Feature","properties":{"c":"CDC-2787865","o":"Fancamp Exploration Ltd 100%","e":""},"geometry":{"type":"Polygon","coordinates":[[[-70.89167,45.41667],[-70.89167,45.425],[-70.88333,45.425],[-70.88333,45.41667],[-70.89167,45.41667]]]}},{"type":"Feature","properties":{"c":"CDC-2787852","o":"Fancamp Exploration Ltd 100%","e":""},"geometry":{"type":"Polygon","coordinates":[[[-70.9,45.425],[-70.89167,45.425],[-70.89167,45.41667],[-70.9,45.41667],[-70.9,45.425]]]}},{"type":"Feature","properties":{"c":"CDC-2787849","o":"Fancamp Exploration Ltd 100%","e":""},"geometry":{"type":"Polygon","coordinates":[[[-70.90833,45.425],[-70.9,45.425],[-70.9,45.41667],[-70.90833,45.41667],[-70.90833,45.425]]]}},{"type":"Feature","properties":{"c":"CDC-2787842","o":"Fancamp Exploration Ltd 100%","e":""},"geometry":{"type":"Polygon","coordinates":[[[-70.90833,45.41667],[-70.91667,45.41667],[-70.91667,45.425],[-70.90833,45.425],[-70.90833,45.41667]]]}},{"type":"Feature","properties":{"c":"CDC-2787890","o":"Fancamp Exploration Ltd 100%","e":""},"geometry":{"type":"Polygon","coordinates":[[[-70.91667,45.41667],[-70.925,45.41667],[-70.925,45.425],[-70.91667,45.425],[-70.91667,45.41667]]]}},{"type":"Feature","properties":{"c":"CDC-2787854","o":"Fancamp Exploration Ltd 100%","e":""},"geometry":{"type":"Polygon","coordinates":[[[-70.925,45.41667],[-70.93333,45.41667],[-70.93333,45.425],[-70.925,45.425],[-70.925,45.41667]]]}},{"type":"Feature","properties":{"c":"CDC-2787864","o":"Fancamp Exploration Ltd 100%","e":""},"geometry":{"type":"Polygon","coordinates":[[[-70.94167,45.425],[-70.93333,45.425],[-70.93333,45.41667],[-70.94167,45.41667],[-70.94167,45.425]]]}},{"type":"Feature","properties":{"c":"CDC-2169995","o":"Fancamp Exploration Ltd 100%","e":""},"geometry":{"type":"Polygon","coordinates":[[[-70.95,45.425],[-70.94167,45.425],[-70.94167,45.41667],[-70.95,45.41667],[-70.95,45.425]]]}},{"type":"Feature","properties":{"c":"CDC-2850277","o":"Jeremie Provencher 100%","e":""},"geometry":{"type":"Polygon","coordinates":[[[-70.85833,45.35],[-70.85,45.35],[-70.85,45.34167],[-70.85833,45.34167],[-70.85833,45.35]]]}},{"type":"Feature","properties":{"c":"CDC-2850278","o":"Jeremie Provencher 100%","e":""},"geometry":{"type":"Polygon","coordinates":[[[-70.86667,45.35833],[-70.85833,45.35833],[-70.85833,45.35],[-70.86667,45.35],[-70.86667,45.35833]]]}},{"type":"Feature","properties":{"c":"CDC-2518484","o":"Fancamp Exploration Ltd 100%","e":""},"geometry":{"type":"Polygon","coordinates":[[[-70.95833,45.35833],[-70.95,45.35833],[-70.95,45.35],[-70.95833,45.35],[-70.95833,45.35833]]]}},{"type":"Feature","properties":{"c":"CDC-2804069","o":"Fabien Racine 100%","e":""},"geometry":{"type":"Polygon","coordinates":[[[-70.85833,45.36667],[-70.85,45.36667],[-70.85,45.35833],[-70.85833,45.35833],[-70.85833,45.36667]]]}},{"type":"Feature","properties":{"c":"CDC-2518491","o":"Fancamp Exploration Ltd 100%","e":""},"geometry":{"type":"Polygon","coordinates":[[[-70.95833,45.36667],[-70.95,45.36667],[-70.95,45.35833],[-70.95833,45.35833],[-70.95833,45.36667]]]}},{"type":"Feature","properties":{"c":"CDC-2518498","o":"Fancamp Exploration Ltd 100%","e":""},"geometry":{"type":"Polygon","coordinates":[[[-70.95,45.375],[-70.94167,45.375],[-70.94167,45.36667],[-70.95,45.36667],[-70.95,45.375]]]}},{"type":"Feature","properties":{"c":"CDC-2518497","o":"Fancamp Exploration Ltd 100%","e":""},"geometry":{"type":"Polygon","coordinates":[[[-70.95833,45.375],[-70.95,45.375],[-70.95,45.36667],[-70.95833,45.36667],[-70.95833,45.375]]]}},{"type":"Feature","properties":{"c":"CDC-2518496","o":"Fancamp Exploration Ltd 100%","e":""},"geometry":{"type":"Polygon","coordinates":[[[-70.96667,45.375],[-70.95833,45.375],[-70.95833,45.36667],[-70.96667,45.36667],[-70.96667,45.375]]]}},{"type":"Feature","properties":{"c":"CDC-2518504","o":"Fancamp Exploration Ltd 100%","e":""},"geometry":{"type":"Polygon","coordinates":[[[-70.93333,45.38333],[-70.925,45.38333],[-70.925,45.375],[-70.93333,45.375],[-70.93333,45.38333]]]}},{"type":"Feature","properties":{"c":"CDC-2518503","o":"Fancamp Exploration Ltd 100%","e":""},"geometry":{"type":"Polygon","coordinates":[[[-70.94167,45.38333],[-70.93333,45.38333],[-70.93333,45.375],[-70.94167,45.375],[-70.94167,45.38333]]]}},{"type":"Feature","properties":{"c":"CDC-2422126","o":"Fancamp Exploration Ltd 100%","e":""},"geometry":{"type":"Polygon","coordinates":[[[-70.95,45.38333],[-70.94167,45.38333],[-70.94167,45.375],[-70.95,45.375],[-70.95,45.38333]]]}},{"type":"Feature","properties":{"c":"CDC-2422125","o":"Fancamp Exploration Ltd 100%","e":""},"geometry":{"type":"Polygon","coordinates":[[[-70.95833,45.38333],[-70.95,45.38333],[-70.95,45.375],[-70.95833,45.375],[-70.95833,45.38333]]]}},{"type":"Feature","properties":{"c":"CDC-2518502","o":"Fancamp Exploration Ltd 100%","e":""},"geometry":{"type":"Polygon","coordinates":[[[-70.96667,45.38333],[-70.95833,45.38333],[-70.95833,45.375],[-70.96667,45.375],[-70.96667,45.38333]]]}},{"type":"Feature","properties":{"c":"CDC-2214024","o":"Fancamp Exploration Ltd 100%","e":""},"geometry":{"type":"Polygon","coordinates":[[[-70.925,45.39167],[-70.91667,45.39167],[-70.91667,45.38333],[-70.925,45.38333],[-70.925,45.39167]]]}},{"type":"Feature","properties":{"c":"CDC-2158197","o":"Fancamp Exploration Ltd 100%","e":""},"geometry":{"type":"Polygon","coordinates":[[[-70.93333,45.39167],[-70.925,45.39167],[-70.925,45.38333],[-70.93333,45.38333],[-70.93333,45.39167]]]}},{"type":"Feature","properties":{"c":"CDC-2422130","o":"Fancamp Exploration Ltd 100%","e":""},"geometry":{"type":"Polygon","coordinates":[[[-70.94167,45.39167],[-70.93333,45.39167],[-70.93333,45.38333],[-70.94167,45.38333],[-70.94167,45.39167]]]}},{"type":"Feature","properties":{"c":"CDC-2422129","o":"Fancamp Exploration Ltd 100%","e":""},"geometry":{"type":"Polygon","coordinates":[[[-70.95,45.39167],[-70.94167,45.39167],[-70.94167,45.38333],[-70.95,45.38333],[-70.95,45.39167]]]}},{"type":"Feature","properties":{"c":"CDC-2422128","o":"Fancamp Exploration Ltd 100%","e":""},"geometry":{"type":"Polygon","coordinates":[[[-70.95833,45.39167],[-70.95,45.39167],[-70.95,45.38333],[-70.95833,45.38333],[-70.95833,45.39167]]]}},{"type":"Feature","properties":{"c":"CDC-2422127","o":"Fancamp Exploration Ltd 100%","e":""},"geometry":{"type":"Polygon","coordinates":[[[-70.96667,45.39167],[-70.95833,45.39167],[-70.95833,45.38333],[-70.96667,45.38333],[-70.96667,45.39167]]]}},{"type":"Feature","properties":{"c":"CDC-2787857","o":"Fancamp Exploration Ltd 100%","e":""},"geometry":{"type":"Polygon","coordinates":[[[-70.9,45.4],[-70.9,45.39167],[-70.90833,45.39167],[-70.90833,45.4],[-70.9,45.4]]]}},{"type":"Feature","properties":{"c":"CDC-2787886","o":"Fancamp Exploration Ltd 100%","e":""},"geometry":{"type":"Polygon","coordinates":[[[-70.90833,45.4],[-70.90833,45.39167],[-70.91667,45.39167],[-70.91667,45.4],[-70.90833,45.4]]]}},{"type":"Feature","properties":{"c":"CDC-2787841","o":"Fancamp Exploration Ltd 100%","e":""},"geometry":{"type":"Polygon","coordinates":[[[-70.91667,45.4],[-70.91667,45.39167],[-70.925,45.39167],[-70.925,45.4],[-70.91667,45.4]]]}},{"type":"Feature","properties":{"c":"CDC-2787884","o":"Fancamp Exploration Ltd 100%","e":""},"geometry":{"type":"Polygon","coordinates":[[[-70.93333,45.4],[-70.925,45.4],[-70.925,45.39167],[-70.93333,45.39167],[-70.93333,45.4]]]}},{"type":"Feature","properties":{"c":"CDC-2158202","o":"Fancamp Exploration Ltd 100%","e":""},"geometry":{"type":"Polygon","coordinates":[[[-70.94167,45.4],[-70.93333,45.4],[-70.93333,45.39167],[-70.94167,45.39167],[-70.94167,45.4]]]}},{"type":"Feature","properties":{"c":"CDC-2158201","o":"Fancamp Exploration Ltd 100%","e":""},"geometry":{"type":"Polygon","coordinates":[[[-70.95,45.4],[-70.94167,45.4],[-70.94167,45.39167],[-70.95,45.39167],[-70.95,45.4]]]}},{"type":"Feature","properties":{"c":"CDC-2158200","o":"Fancamp Exploration Ltd 100%","e":""},"geometry":{"type":"Polygon","coordinates":[[[-70.95833,45.4],[-70.95,45.4],[-70.95,45.39167],[-70.95833,45.39167],[-70.95833,45.4]]]}},{"type":"Feature","properties":{"c":"CDC-2422131","o":"Fancamp Exploration Ltd 100%","e":""},"geometry":{"type":"Polygon","coordinates":[[[-70.96667,45.4],[-70.95833,45.4],[-70.95833,45.39167],[-70.96667,45.39167],[-70.96667,45.4]]]}},{"type":"Feature","properties":{"c":"CDC-2518510","o":"Fancamp Exploration Ltd 100%","e":""},"geometry":{"type":"Polygon","coordinates":[[[-71.0,45.375],[-70.99167,45.375],[-70.99167,45.36667],[-71.0,45.36667],[-71.0,45.375]]]}},{"type":"Feature","properties":{"c":"CDC-2518917","o":"Fancamp Exploration Ltd 100%","e":""},"geometry":{"type":"Polygon","coordinates":[[[-70.98912,45.33414],[-70.98948,45.33469],[-70.99011,45.33565],[-70.99028,45.33614],[-70.99021,45.33698],[-70.99085,45.33809],[-70.99113,45.33819],[-70.99167,45.33814],[-70.99167,45.34167],[-70.98333,45.34167],[-70.98333,45.33333],[-70.9873,45.33333],[-70.98912,45.33414]]]}},{"type":"Feature","properties":{"c":"CDC-2518474","o":"Fancamp Exploration Ltd 100%","e":""},"geometry":{"type":"Polygon","coordinates":[[[-70.99167,45.35],[-70.98333,45.35],[-70.98333,45.34167],[-70.99167,45.34167],[-70.99167,45.35]]]}},{"type":"Feature","properties":{"c":"CDC-2518507","o":"Fancamp Exploration Ltd 100%","e":""},"geometry":{"type":"Polygon","coordinates":[[[-70.99167,45.35833],[-70.98333,45.35833],[-70.98333,45.35],[-70.99167,45.35],[-70.99167,45.35833]]]}},{"type":"Feature","properties":{"c":"CDC-2518509","o":"Fancamp Exploration Ltd 100%","e":""},"geometry":{"type":"Polygon","coordinates":[[[-70.99167,45.36667],[-70.98333,45.36667],[-70.98333,45.35833],[-70.99167,45.35833],[-70.99167,45.36667]]]}},{"type":"Feature","properties":{"c":"CDC-2518511","o":"Fancamp Exploration Ltd 100%","e":""},"geometry":{"type":"Polygon","coordinates":[[[-70.99167,45.375],[-70.98333,45.375],[-70.98333,45.36667],[-70.99167,45.36667],[-70.99167,45.375]]]}},{"type":"Feature","properties":{"c":"CDC-2518513","o":"Fancamp Exploration Ltd 100%","e":""},"geometry":{"type":"Polygon","coordinates":[[[-70.99167,45.38333],[-70.98333,45.38333],[-70.98333,45.375],[-70.99167,45.375],[-70.99167,45.38333]]]}},{"type":"Feature","properties":{"c":"CDC-2518918","o":"Fancamp Exploration Ltd 100%","e":""},"geometry":{"type":"Polygon","coordinates":[[[-70.97606,45.33341],[-70.97663,45.33336],[-70.97664,45.33333],[-70.98333,45.33333],[-70.98333,45.34167],[-70.975,45.34167],[-70.975,45.33349],[-70.97606,45.33341]]]}},{"type":"Feature","properties":{"c":"CDC-2518475","o":"Fancamp Exploration Ltd 100%","e":""},"geometry":{"type":"Polygon","coordinates":[[[-70.98333,45.35],[-70.975,45.35],[-70.975,45.34167],[-70.98333,45.34167],[-70.98333,45.35]]]}},{"type":"Feature","properties":{"c":"CDC-2518481","o":"Fancamp Exploration Ltd 100%","e":""},"geometry":{"type":"Polygon","coordinates":[[[-70.98333,45.35833],[-70.975,45.35833],[-70.975,45.35],[-70.98333,45.35],[-70.98333,45.35833]]]}},{"type":"Feature","properties":{"c":"CDC-2518488","o":"Fancamp Exploration Ltd 100%","e":""},"geometry":{"type":"Polygon","coordinates":[[[-70.98333,45.36667],[-70.975,45.36667],[-70.975,45.35833],[-70.98333,45.35833],[-70.98333,45.36667]]]}},{"type":"Feature","properties":{"c":"CDC-2518512","o":"Fancamp Exploration Ltd 100%","e":""},"geometry":{"type":"Polygon","coordinates":[[[-70.98333,45.375],[-70.975,45.375],[-70.975,45.36667],[-70.98333,45.36667],[-70.98333,45.375]]]}},{"type":"Feature","properties":{"c":"CDC-2518514","o":"Fancamp Exploration Ltd 100%","e":""},"geometry":{"type":"Polygon","coordinates":[[[-70.98333,45.38333],[-70.975,45.38333],[-70.975,45.375],[-70.98333,45.375],[-70.98333,45.38333]]]}},{"type":"Feature","properties":{"c":"CDC-2518519","o":"Fancamp Exploration Ltd 100%","e":""},"geometry":{"type":"Polygon","coordinates":[[[-70.98333,45.39167],[-70.975,45.39167],[-70.975,45.38333],[-70.98333,45.38333],[-70.98333,45.39167]]]}},{"type":"Feature","properties":{"c":"CDC-2518919","o":"Fancamp Exploration Ltd 100%","e":""},"geometry":{"type":"Polygon","coordinates":[[[-70.97271,45.33333],[-70.97333,45.33361],[-70.975,45.33349],[-70.975,45.34167],[-70.96667,45.34167],[-70.96667,45.33333],[-70.97271,45.33333]]]}},{"type":"Feature","properties":{"c":"CDC-2518476","o":"Fancamp Exploration Ltd 100%","e":""},"geometry":{"type":"Polygon","coordinates":[[[-70.975,45.35],[-70.96667,45.35],[-70.96667,45.34167],[-70.975,45.34167],[-70.975,45.35]]]}},{"type":"Feature","properties":{"c":"CDC-2518482","o":"Fancamp Exploration Ltd 100%","e":""},"geometry":{"type":"Polygon","coordinates":[[[-70.975,45.35833],[-70.96667,45.35833],[-70.96667,45.35],[-70.975,45.35],[-70.975,45.35833]]]}},{"type":"Feature","properties":{"c":"CDC-2518489","o":"Fancamp Exploration Ltd 100%","e":""},"geometry":{"type":"Polygon","coordinates":[[[-70.975,45.36667],[-70.96667,45.36667],[-70.96667,45.35833],[-70.975,45.35833],[-70.975,45.36667]]]}},{"type":"Feature","properties":{"c":"CDC-2518495","o":"Fancamp Exploration Ltd 100%","e":""},"geometry":{"type":"Polygon","coordinates":[[[-70.975,45.375],[-70.96667,45.375],[-70.96667,45.36667],[-70.975,45.36667],[-70.975,45.375]]]}},{"type":"Feature","properties":{"c":"CDC-2518515","o":"Fancamp Exploration Ltd 100%","e":""},"geometry":{"type":"Polygon","coordinates":[[[-70.975,45.38333],[-70.96667,45.38333],[-70.96667,45.375],[-70.975,45.375],[-70.975,45.38333]]]}},{"type":"Feature","properties":{"c":"CDC-2518520","o":"Fancamp Exploration Ltd 100%","e":""},"geometry":{"type":"Polygon","coordinates":[[[-70.975,45.39167],[-70.96667,45.39167],[-70.96667,45.38333],[-70.975,45.38333],[-70.975,45.39167]]]}},{"type":"Feature","properties":{"c":"CDC-2518524","o":"Fancamp Exploration Ltd 100%","e":""},"geometry":{"type":"Polygon","coordinates":[[[-70.975,45.4],[-70.96667,45.4],[-70.96667,45.39167],[-70.975,45.39167],[-70.975,45.4]]]}},{"type":"Feature","properties":{"c":"CDC-2518525","o":"Fancamp Exploration Ltd 100%","e":""},"geometry":{"type":"Polygon","coordinates":[[[-70.975,45.40833],[-70.96667,45.40833],[-70.96667,45.4],[-70.975,45.4],[-70.975,45.40833]]]}},{"type":"Feature","properties":{"c":"CDC-2518920","o":"Fancamp Exploration Ltd 100%","e":""},"geometry":{"type":"Polygon","coordinates":[[[-70.95846,45.33777],[-70.95922,45.33709],[-70.96118,45.33672],[-70.96242,45.33559],[-70.96292,45.33519],[-70.96399,45.33413],[-70.96564,45.33339],[-70.96599,45.33347],[-70.96623,45.33352],[-70.96639,45.33333],[-70.96667,45.33333],[-70.96667,45.34167],[-70.95833,45.34167],[-70.95833,45.33781],[-70.95846,45.33777]]]}},{"type":"Feature","properties":{"c":"CDC-2518477","o":"Fancamp Exploration Ltd 100%","e":""},"geometry":{"type":"Polygon","coordinates":[[[-70.96667,45.35],[-70.95833,45.35],[-70.95833,45.34167],[-70.96667,45.34167],[-70.96667,45.35]]]}},{"type":"Feature","properties":{"c":"CDC-2518483","o":"Fancamp Exploration Ltd 100%","e":""},"geometry":{"type":"Polygon","coordinates":[[[-70.96667,45.35833],[-70.95833,45.35833],[-70.95833,45.35],[-70.96667,45.35],[-70.96667,45.35833]]]}},{"type":"Feature","properties":{"c":"CDC-2518490","o":"Fancamp Exploration Ltd 100%","e":""},"geometry":{"type":"Polygon","coordinates":[[[-70.96667,45.36667],[-70.95833,45.36667],[-70.95833,45.35833],[-70.96667,45.35833],[-70.96667,45.36667]]]}},{"type":"Feature","properties":{"c":"CDC-2787866","o":"Fancamp Exploration Ltd 100%","e":""},"geometry":{"type":"Polygon","coordinates":[[[-70.925,45.45],[-70.925,45.45833],[-70.91667,45.45833],[-70.91667,45.45],[-70.925,45.45]]]}},{"type":"Feature","properties":{"c":"CDC-2787839","o":"Fancamp Exploration Ltd 100%","e":""},"geometry":{"type":"Polygon","coordinates":[[[-70.93093,45.45469],[-70.92664,45.45462],[-70.92669,45.45833],[-70.925,45.45833],[-70.925,45.45],[-70.93125,45.45],[-70.93093,45.45469]]]}},{"type":"Feature","properties":{"c":"CDC-2787855","o":"Fancamp Exploration Ltd 100%","e":""},"geometry":{"type":"Polygon","coordinates":[[[-70.88333,45.46667],[-70.875,45.46667],[-70.875,45.45833],[-70.88333,45.45833],[-70.88333,45.46667]]]}},{"type":"Feature","properties":{"c":"CDC-2787894","o":"Fancamp Exploration Ltd 100%","e":""},"geometry":{"type":"Polygon","coordinates":[[[-70.89167,45.46667],[-70.88333,45.46667],[-70.88333,45.45833],[-70.89167,45.45833],[-70.89167,45.46667]]]}},{"type":"Feature","properties":{"c":"CDC-2787889","o":"Fancamp Exploration Ltd 100%","e":""},"geometry":{"type":"Polygon","coordinates":[[[-70.9,45.45833],[-70.9,45.46667],[-70.89167,45.46667],[-70.89167,45.45833],[-70.9,45.45833]]]}},{"type":"Feature","properties":{"c":"CDC-2787867","o":"Fancamp Exploration Ltd 100%","e":""},"geometry":{"type":"Polygon","coordinates":[[[-70.90833,45.46667],[-70.9,45.46667],[-70.9,45.45833],[-70.90833,45.45833],[-70.90833,45.46667]]]}},{"type":"Feature","properties":{"c":"CDC-2787868","o":"Fancamp Exploration Ltd 100%","e":""},"geometry":{"type":"Polygon","coordinates":[[[-70.90833,45.46667],[-70.90833,45.45833],[-70.91667,45.45833],[-70.91667,45.46667],[-70.90833,45.46667]]]}},{"type":"Feature","properties":{"c":"CDC-2787850","o":"Fancamp Exploration Ltd 100%","e":""},"geometry":{"type":"Polygon","coordinates":[[[-70.925,45.46667],[-70.91667,45.46667],[-70.91667,45.45833],[-70.925,45.45833],[-70.925,45.46667]]]}},{"type":"Feature","properties":{"c":"CDC-2787844","o":"Fancamp Exploration Ltd 100%","e":""},"geometry":{"type":"Polygon","coordinates":[[[-70.92671,45.45927],[-70.92677,45.464],[-70.9268,45.46667],[-70.925,45.46667],[-70.925,45.45833],[-70.92669,45.45833],[-70.92671,45.45927]]]}},{"type":"Feature","properties":{"c":"CDC-2851220","o":"D\u00e9veloppements carbon2green lt\u00e9e 100%","e":""},"geometry":{"type":"Polygon","coordinates":[[[-70.78333,45.475],[-70.775,45.475],[-70.775,45.46667],[-70.78333,45.46667],[-70.78333,45.475]]]}},{"type":"Feature","properties":{"c":"CDC-2851219","o":"D\u00e9veloppements carbon2green lt\u00e9e 100%","e":""},"geometry":{"type":"Polygon","coordinates":[[[-70.79167,45.475],[-70.78333,45.475],[-70.78333,45.46667],[-70.79167,45.46667],[-70.79167,45.475]]]}},{"type":"Feature","properties":{"c":"CDC-2787878","o":"Fancamp Exploration Ltd 100%","e":""},"geometry":{"type":"Polygon","coordinates":[[[-70.88333,45.475],[-70.875,45.475],[-70.875,45.46667],[-70.88333,45.46667],[-70.88333,45.475]]]}},{"type":"Feature","properties":{"c":"CDC-2787835","o":"Fancamp Exploration Ltd 100%","e":""},"geometry":{"type":"Polygon","coordinates":[[[-70.89167,45.46667],[-70.89167,45.475],[-70.88333,45.475],[-70.88333,45.46667],[-70.89167,45.46667]]]}},{"type":"Feature","properties":{"c":"CDC-2787871","o":"Fancamp Exploration Ltd 100%","e":""},"geometry":{"type":"Polygon","coordinates":[[[-70.9,45.475],[-70.89167,45.475],[-70.89167,45.46667],[-70.9,45.46667],[-70.9,45.475]]]}},{"type":"Feature","properties":{"c":"CDC-2787891","o":"Fancamp Exploration Ltd 100%","e":""},"geometry":{"type":"Polygon","coordinates":[[[-70.90833,45.475],[-70.9,45.475],[-70.9,45.46667],[-70.90833,45.46667],[-70.90833,45.475]]]}},{"type":"Feature","properties":{"c":"CDC-2787856","o":"Fancamp Exploration Ltd 100%","e":""},"geometry":{"type":"Polygon","coordinates":[[[-70.91667,45.475],[-70.90833,45.475],[-70.90833,45.46667],[-70.91667,45.46667],[-70.91667,45.475]]]}},{"type":"Feature","properties":{"c":"CDC-2787860","o":"Fancamp Exploration Ltd 100%","e":""},"geometry":{"type":"Polygon","coordinates":[[[-70.925,45.475],[-70.91667,45.475],[-70.91667,45.46667],[-70.925,45.46667],[-70.925,45.475]]]}},{"type":"Feature","properties":{"c":"CDC-2787880","o":"Fancamp Exploration Ltd 100%","e":""},"geometry":{"type":"Polygon","coordinates":[[[-70.93333,45.475],[-70.925,45.475],[-70.925,45.46667],[-70.93333,45.46667],[-70.93333,45.475]]]}},{"type":"Feature","properties":{"c":"CDC-2518915","o":"Fancamp Exploration Ltd 100%","e":""},"geometry":{"type":"Polygon","coordinates":[[[-70.99167,45.35],[-70.99167,45.34167],[-70.99989,45.34167],[-71.0,45.34174],[-71.0,45.35],[-70.99167,45.35]]]}},{"type":"Feature","properties":{"c":"CDC-2518916","o":"Fancamp Exploration Ltd 100%","e":""},"geometry":{"type":"Polygon","coordinates":[[[-70.99189,45.33812],[-70.99308,45.33823],[-70.99382,45.33836],[-70.9941,45.33867],[-70.99453,45.33895],[-70.99552,45.33942],[-70.9971,45.34002],[-70.99955,45.34146],[-70.99984,45.34164],[-70.99989,45.34167],[-70.99167,45.34167],[-70.99167,45.33814],[-70.99189,45.33812]]]}},{"type":"Feature","properties":{"c":"CDC-2518506","o":"Fancamp Exploration Ltd 100%","e":""},"geometry":{"type":"Polygon","coordinates":[[[-71.0,45.35833],[-70.99167,45.35833],[-70.99167,45.35],[-71.0,45.35],[-71.0,45.35833]]]}},{"type":"Feature","properties":{"c":"CDC-2518508","o":"Fancamp Exploration Ltd 100%","e":""},"geometry":{"type":"Polygon","coordinates":[[[-71.0,45.36667],[-70.99167,45.36667],[-70.99167,45.35833],[-71.0,45.35833],[-71.0,45.36667]]]}}]}