{"type":"FeatureCollection","features":[{"type":"Feature","properties":{"c":"CDC-2822484","o":"Max Power Mining corp. 100%","e":""},"geometry":{"type":"Polygon","coordinates":[[[-71.91667,46.46667],[-71.90833,46.46667],[-71.90833,46.45833],[-71.91667,46.45833],[-71.91667,46.46667]]]}},{"type":"Feature","properties":{"c":"CDC-2822483","o":"Max Power Mining corp. 100%","e":""},"geometry":{"type":"Polygon","coordinates":[[[-71.925,46.46667],[-71.91667,46.46667],[-71.91667,46.45833],[-71.925,46.45833],[-71.925,46.46667]]]}},{"type":"Feature","properties":{"c":"CDC-2826741","o":"Max Power Mining corp. 100%","e":""},"geometry":{"type":"Polygon","coordinates":[[[-71.93333,46.46667],[-71.925,46.46667],[-71.925,46.45833],[-71.93333,46.45833],[-71.93333,46.46667]]]}},{"type":"Feature","properties":{"c":"CDC-2826740","o":"Max Power Mining corp. 100%","e":""},"geometry":{"type":"Polygon","coordinates":[[[-71.94167,46.46667],[-71.93333,46.46667],[-71.93333,46.45833],[-71.94167,46.45833],[-71.94167,46.46667]]]}},{"type":"Feature","properties":{"c":"CDC-2826739","o":"Max Power Mining corp. 100%","e":""},"geometry":{"type":"Polygon","coordinates":[[[-71.95,46.46667],[-71.94167,46.46667],[-71.94167,46.45833],[-71.95,46.45833],[-71.95,46.46667]]]}},{"type":"Feature","properties":{"c":"CDC-2826738","o":"Max Power Mining corp. 100%","e":""},"geometry":{"type":"Polygon","coordinates":[[[-71.95833,46.46667],[-71.95,46.46667],[-71.95,46.45833],[-71.95833,46.45833],[-71.95833,46.46667]]]}},{"type":"Feature","properties":{"c":"CDC-2826748","o":"Max Power Mining corp. 100%","e":""},"geometry":{"type":"Polygon","coordinates":[[[-71.9,46.475],[-71.89167,46.475],[-71.89167,46.46667],[-71.9,46.46667],[-71.9,46.475]]]}},{"type":"Feature","properties":{"c":"CDC-2822488","o":"Max Power Mining corp. 100%","e":""},"geometry":{"type":"Polygon","coordinates":[[[-71.90833,46.475],[-71.9,46.475],[-71.9,46.46667],[-71.90833,46.46667],[-71.90833,46.475]]]}},{"type":"Feature","properties":{"c":"CDC-2822487","o":"Max Power Mining corp. 100%","e":""},"geometry":{"type":"Polygon","coordinates":[[[-71.91667,46.475],[-71.90833,46.475],[-71.90833,46.46667],[-71.91667,46.46667],[-71.91667,46.475]]]}},{"type":"Feature","properties":{"c":"CDC-2822486","o":"Max Power Mining corp. 100%","e":""},"geometry":{"type":"Polygon","coordinates":[[[-71.925,46.475],[-71.91667,46.475],[-71.91667,46.46667],[-71.925,46.46667],[-71.925,46.475]]]}},{"type":"Feature","properties":{"c":"CDC-2826747","o":"Max Power Mining corp. 100%","e":""},"geometry":{"type":"Polygon","coordinates":[[[-71.93333,46.475],[-71.925,46.475],[-71.925,46.46667],[-71.93333,46.46667],[-71.93333,46.475]]]}},{"type":"Feature","properties":{"c":"CDC-2826746","o":"Max Power Mining corp. 100%","e":""},"geometry":{"type":"Polygon","coordinates":[[[-71.94167,46.475],[-71.93333,46.475],[-71.93333,46.46667],[-71.94167,46.46667],[-71.94167,46.475]]]}},{"type":"Feature","properties":{"c":"CDC-2826745","o":"Max Power Mining corp. 100%","e":""},"geometry":{"type":"Polygon","coordinates":[[[-71.95,46.475],[-71.94167,46.475],[-71.94167,46.46667],[-71.95,46.46667],[-71.95,46.475]]]}},{"type":"Feature","properties":{"c":"CDC-2826756","o":"Max Power Mining corp. 100%","e":""},"geometry":{"type":"Polygon","coordinates":[[[-71.9,46.48333],[-71.89167,46.48333],[-71.89167,46.475],[-71.9,46.475],[-71.9,46.48333]]]}},{"type":"Feature","properties":{"c":"CDC-2826755","o":"Max Power Mining corp. 100%","e":""},"geometry":{"type":"Polygon","coordinates":[[[-71.90833,46.48333],[-71.9,46.48333],[-71.9,46.475],[-71.90833,46.475],[-71.90833,46.48333]]]}},{"type":"Feature","properties":{"c":"CDC-2826754","o":"Max Power Mining corp. 100%","e":""},"geometry":{"type":"Polygon","coordinates":[[[-71.91667,46.48333],[-71.90833,46.48333],[-71.90833,46.475],[-71.91667,46.475],[-71.91667,46.48333]]]}},{"type":"Feature","properties":{"c":"CDC-2826753","o":"Max Power Mining corp. 100%","e":""},"geometry":{"type":"Polygon","coordinates":[[[-71.94167,46.48333],[-71.93333,46.48333],[-71.93333,46.475],[-71.94167,46.475],[-71.94167,46.48333]]]}},{"type":"Feature","properties":{"c":"CDC-2826752","o":"Max Power Mining corp. 100%","e":""},"geometry":{"type":"Polygon","coordinates":[[[-71.95,46.48333],[-71.94167,46.48333],[-71.94167,46.475],[-71.95,46.475],[-71.95,46.48333]]]}},{"type":"Feature","properties":{"c":"CDC-2826720","o":"Max Power Mining corp. 100%","e":""},"geometry":{"type":"Polygon","coordinates":[[[-71.93333,46.43333],[-71.925,46.43333],[-71.925,46.425],[-71.93333,46.425],[-71.93333,46.43333]]]}},{"type":"Feature","properties":{"c":"CDC-2826719","o":"Max Power Mining corp. 100%","e":""},"geometry":{"type":"Polygon","coordinates":[[[-71.94167,46.43333],[-71.93333,46.43333],[-71.93333,46.425],[-71.94167,46.425],[-71.94167,46.43333]]]}},{"type":"Feature","properties":{"c":"CDC-2826718","o":"Max Power Mining corp. 100%","e":""},"geometry":{"type":"Polygon","coordinates":[[[-71.95,46.43333],[-71.94167,46.43333],[-71.94167,46.425],[-71.95,46.425],[-71.95,46.43333]]]}},{"type":"Feature","properties":{"c":"CDC-2826717","o":"Max Power Mining corp. 100%","e":""},"geometry":{"type":"Polygon","coordinates":[[[-71.95833,46.43333],[-71.95,46.43333],[-71.95,46.425],[-71.95833,46.425],[-71.95833,46.43333]]]}},{"type":"Feature","properties":{"c":"CDC-2826726","o":"Max Power Mining corp. 100%","e":""},"geometry":{"type":"Polygon","coordinates":[[[-71.91667,46.44167],[-71.90833,46.44167],[-71.90833,46.43333],[-71.91667,46.43333],[-71.91667,46.44167]]]}},{"type":"Feature","properties":{"c":"CDC-2826725","o":"Max Power Mining corp. 100%","e":""},"geometry":{"type":"Polygon","coordinates":[[[-71.925,46.44167],[-71.91667,46.44167],[-71.91667,46.43333],[-71.925,46.43333],[-71.925,46.44167]]]}},{"type":"Feature","properties":{"c":"CDC-2826724","o":"Max Power Mining corp. 100%","e":""},"geometry":{"type":"Polygon","coordinates":[[[-71.93333,46.44167],[-71.925,46.44167],[-71.925,46.43333],[-71.93333,46.43333],[-71.93333,46.44167]]]}},{"type":"Feature","properties":{"c":"CDC-2826723","o":"Max Power Mining corp. 100%","e":""},"geometry":{"type":"Polygon","coordinates":[[[-71.94167,46.44167],[-71.93333,46.44167],[-71.93333,46.43333],[-71.94167,46.43333],[-71.94167,46.44167]]]}},{"type":"Feature","properties":{"c":"CDC-2826722","o":"Max Power Mining corp. 100%","e":""},"geometry":{"type":"Polygon","coordinates":[[[-71.95,46.44167],[-71.94167,46.44167],[-71.94167,46.43333],[-71.95,46.43333],[-71.95,46.44167]]]}},{"type":"Feature","properties":{"c":"CDC-2826721","o":"Max Power Mining corp. 100%","e":""},"geometry":{"type":"Polygon","coordinates":[[[-71.95833,46.44167],[-71.95,46.44167],[-71.95,46.43333],[-71.95833,46.43333],[-71.95833,46.44167]]]}},{"type":"Feature","properties":{"c":"CDC-2822479","o":"Max Power Mining corp. 100%","e":""},"geometry":{"type":"Polygon","coordinates":[[[-71.90833,46.45],[-71.9,46.45],[-71.9,46.44167],[-71.90833,46.44167],[-71.90833,46.45]]]}},{"type":"Feature","properties":{"c":"CDC-2822478","o":"Max Power Mining corp. 100%","e":""},"geometry":{"type":"Polygon","coordinates":[[[-71.91667,46.45],[-71.90833,46.45],[-71.90833,46.44167],[-71.91667,46.44167],[-71.91667,46.45]]]}},{"type":"Feature","properties":{"c":"CDC-2822477","o":"Max Power Mining corp. 100%","e":""},"geometry":{"type":"Polygon","coordinates":[[[-71.925,46.45],[-71.91667,46.45],[-71.91667,46.44167],[-71.925,46.44167],[-71.925,46.45]]]}},{"type":"Feature","properties":{"c":"CDC-2826730","o":"Max Power Mining corp. 100%","e":""},"geometry":{"type":"Polygon","coordinates":[[[-71.93333,46.45],[-71.925,46.45],[-71.925,46.44167],[-71.93333,46.44167],[-71.93333,46.45]]]}},{"type":"Feature","properties":{"c":"CDC-2826729","o":"Max Power Mining corp. 100%","e":""},"geometry":{"type":"Polygon","coordinates":[[[-71.94167,46.45],[-71.93333,46.45],[-71.93333,46.44167],[-71.94167,46.44167],[-71.94167,46.45]]]}},{"type":"Feature","properties":{"c":"CDC-2826728","o":"Max Power Mining corp. 100%","e":""},"geometry":{"type":"Polygon","coordinates":[[[-71.95,46.45],[-71.94167,46.45],[-71.94167,46.44167],[-71.95,46.44167],[-71.95,46.45]]]}},{"type":"Feature","properties":{"c":"CDC-2826727","o":"Max Power Mining corp. 100%","e":""},"geometry":{"type":"Polygon","coordinates":[[[-71.95833,46.45],[-71.95,46.45],[-71.95,46.44167],[-71.95833,46.44167],[-71.95833,46.45]]]}},{"type":"Feature","properties":{"c":"CDC-2826735","o":"Max Power Mining corp. 100%","e":""},"geometry":{"type":"Polygon","coordinates":[[[-71.9,46.45833],[-71.89167,46.45833],[-71.89167,46.45],[-71.9,46.45],[-71.9,46.45833]]]}},{"type":"Feature","properties":{"c":"CDC-2822482","o":"Max Power Mining corp. 100%","e":""},"geometry":{"type":"Polygon","coordinates":[[[-71.90833,46.45833],[-71.9,46.45833],[-71.9,46.45],[-71.90833,46.45],[-71.90833,46.45833]]]}},{"type":"Feature","properties":{"c":"CDC-2822481","o":"Max Power Mining corp. 100%","e":""},"geometry":{"type":"Polygon","coordinates":[[[-71.91667,46.45833],[-71.90833,46.45833],[-71.90833,46.45],[-71.91667,46.45],[-71.91667,46.45833]]]}},{"type":"Feature","properties":{"c":"CDC-2822480","o":"Max Power Mining corp. 100%","e":""},"geometry":{"type":"Polygon","coordinates":[[[-71.925,46.45833],[-71.91667,46.45833],[-71.91667,46.45],[-71.925,46.45],[-71.925,46.45833]]]}},{"type":"Feature","properties":{"c":"CDC-2826734","o":"Max Power Mining corp. 100%","e":""},"geometry":{"type":"Polygon","coordinates":[[[-71.93333,46.45833],[-71.925,46.45833],[-71.925,46.45],[-71.93333,46.45],[-71.93333,46.45833]]]}},{"type":"Feature","properties":{"c":"CDC-2826733","o":"Max Power Mining corp. 100%","e":""},"geometry":{"type":"Polygon","coordinates":[[[-71.94167,46.45833],[-71.93333,46.45833],[-71.93333,46.45],[-71.94167,46.45],[-71.94167,46.45833]]]}},{"type":"Feature","properties":{"c":"CDC-2826732","o":"Max Power Mining corp. 100%","e":""},"geometry":{"type":"Polygon","coordinates":[[[-71.95,46.45833],[-71.94167,46.45833],[-71.94167,46.45],[-71.95,46.45],[-71.95,46.45833]]]}},{"type":"Feature","properties":{"c":"CDC-2826731","o":"Max Power Mining corp. 100%","e":""},"geometry":{"type":"Polygon","coordinates":[[[-71.95833,46.45833],[-71.95,46.45833],[-71.95,46.45],[-71.95833,46.45],[-71.95833,46.45833]]]}},{"type":"Feature","properties":{"c":"CDC-2826742","o":"Max Power Mining corp. 100%","e":""},"geometry":{"type":"Polygon","coordinates":[[[-71.9,46.46667],[-71.89167,46.46667],[-71.89167,46.45833],[-71.9,46.45833],[-71.9,46.46667]]]}},{"type":"Feature","properties":{"c":"CDC-2822485","o":"Max Power Mining corp. 100%","e":""},"geometry":{"type":"Polygon","coordinates":[[[-71.90833,46.46667],[-71.9,46.46667],[-71.9,46.45833],[-71.90833,46.45833],[-71.90833,46.46667]]]}},{"type":"Feature","properties":{"c":"CDC-2826736","o":"Max Power Mining corp. 100%","e":""},"geometry":{"type":"Polygon","coordinates":[[[-71.89167,46.45833],[-71.88333,46.45833],[-71.88333,46.45],[-71.89167,46.45],[-71.89167,46.45833]]]}},{"type":"Feature","properties":{"c":"CDC-2826743","o":"Max Power Mining corp. 100%","e":""},"geometry":{"type":"Polygon","coordinates":[[[-71.89167,46.46667],[-71.88333,46.46667],[-71.88333,46.45833],[-71.89167,46.45833],[-71.89167,46.46667]]]}},{"type":"Feature","properties":{"c":"CDC-2826749","o":"Max Power Mining corp. 100%","e":""},"geometry":{"type":"Polygon","coordinates":[[[-71.89167,46.475],[-71.88333,46.475],[-71.88333,46.46667],[-71.89167,46.46667],[-71.89167,46.475]]]}},{"type":"Feature","properties":{"c":"CDC-2826744","o":"Max Power Mining corp. 100%","e":""},"geometry":{"type":"Polygon","coordinates":[[[-71.88333,46.46667],[-71.875,46.46667],[-71.875,46.45833],[-71.88333,46.45833],[-71.88333,46.46667]]]}},{"type":"Feature","properties":{"c":"CDC-2826750","o":"Max Power Mining corp. 100%","e":""},"geometry":{"type":"Polygon","coordinates":[[[-71.88333,46.475],[-71.875,46.475],[-71.875,46.46667],[-71.88333,46.46667],[-71.88333,46.475]]]}},{"type":"Feature","properties":{"c":"CDC-2826737","o":"Max Power Mining corp. 100%","e":""},"geometry":{"type":"Polygon","coordinates":[[[-71.875,46.45833],[-71.86667,46.45833],[-71.86667,46.45],[-71.875,46.45],[-71.875,46.45833]]]}},{"type":"Feature","properties":{"c":"CDC-2826751","o":"Max Power Mining corp. 100%","e":""},"geometry":{"type":"Polygon","coordinates":[[[-71.875,46.475],[-71.86667,46.475],[-71.86667,46.46667],[-71.875,46.46667],[-71.875,46.475]]]}},{"type":"Feature","properties":{"c":"CDC-2826404","o":"Bulawayo CC Ventures Ltd. 100%","e":""},"geometry":{"type":"Polygon","coordinates":[[[-71.54167,46.175],[-71.53333,46.175],[-71.53333,46.16667],[-71.54167,46.16667],[-71.54167,46.175]]]}},{"type":"Feature","properties":{"c":"CDC-2826702","o":"Bulawayo CC Ventures Ltd. 100%","e":""},"geometry":{"type":"Polygon","coordinates":[[[-71.54167,46.18333],[-71.53333,46.18333],[-71.53333,46.175],[-71.54167,46.175],[-71.54167,46.18333]]]}},{"type":"Feature","properties":{"c":"CDC-2826652","o":"Bulawayo CC Ventures Ltd. 100%","e":""},"geometry":{"type":"Polygon","coordinates":[[[-71.53333,46.16667],[-71.525,46.16667],[-71.525,46.15833],[-71.53333,46.15833],[-71.53333,46.16667]]]}},{"type":"Feature","properties":{"c":"CDC-2826493","o":"Bulawayo CC Ventures Ltd. 100%","e":""},"geometry":{"type":"Polygon","coordinates":[[[-71.53333,46.175],[-71.525,46.175],[-71.525,46.16667],[-71.53333,46.16667],[-71.53333,46.175]]]}},{"type":"Feature","properties":{"c":"CDC-2826703","o":"Bulawayo CC Ventures Ltd. 100%","e":""},"geometry":{"type":"Polygon","coordinates":[[[-71.53333,46.18333],[-71.525,46.18333],[-71.525,46.175],[-71.53333,46.175],[-71.53333,46.18333]]]}},{"type":"Feature","properties":{"c":"CDC-2826494","o":"Bulawayo CC Ventures Ltd. 100%","e":""},"geometry":{"type":"Polygon","coordinates":[[[-71.525,46.175],[-71.51667,46.175],[-71.51667,46.16667],[-71.525,46.16667],[-71.525,46.175]]]}},{"type":"Feature","properties":{"c":"CDC-2826704","o":"Bulawayo CC Ventures Ltd. 100%","e":""},"geometry":{"type":"Polygon","coordinates":[[[-71.525,46.18333],[-71.51667,46.18333],[-71.51667,46.175],[-71.525,46.175],[-71.525,46.18333]]]}},{"type":"Feature","properties":{"c":"CDC-2826495","o":"Bulawayo CC Ventures Ltd. 100%","e":""},"geometry":{"type":"Polygon","coordinates":[[[-71.51667,46.175],[-71.50833,46.175],[-71.50833,46.16667],[-71.51667,46.16667],[-71.51667,46.175]]]}},{"type":"Feature","properties":{"c":"CDC-2826705","o":"Bulawayo CC Ventures Ltd. 100%","e":""},"geometry":{"type":"Polygon","coordinates":[[[-71.51667,46.18333],[-71.50833,46.18333],[-71.50833,46.175],[-71.51667,46.175],[-71.51667,46.18333]]]}},{"type":"Feature","properties":{"c":"CDC-2826706","o":"Bulawayo CC Ventures Ltd. 100%","e":""},"geometry":{"type":"Polygon","coordinates":[[[-71.51667,46.19167],[-71.50833,46.19167],[-71.50833,46.18333],[-71.51667,46.18333],[-71.51667,46.19167]]]}},{"type":"Feature","properties":{"c":"CDC-2826693","o":"Bulawayo CC Ventures Ltd. 100%","e":""},"geometry":{"type":"Polygon","coordinates":[[[-71.50833,46.15],[-71.5,46.15],[-71.5,46.14167],[-71.50833,46.14167],[-71.50833,46.15]]]}},{"type":"Feature","properties":{"c":"CDC-2826694","o":"Bulawayo CC Ventures Ltd. 100%","e":""},"geometry":{"type":"Polygon","coordinates":[[[-71.50833,46.16667],[-71.5,46.16667],[-71.5,46.15833],[-71.50833,46.15833],[-71.50833,46.16667]]]}},{"type":"Feature","properties":{"c":"CDC-2826462","o":"Bulawayo CC Ventures Ltd. 100%","e":""},"geometry":{"type":"Polygon","coordinates":[[[-71.50833,46.175],[-71.5,46.175],[-71.5,46.16667],[-71.50833,46.16667],[-71.50833,46.175]]]}},{"type":"Feature","properties":{"c":"CDC-2826463","o":"Bulawayo CC Ventures Ltd. 100%","e":""},"geometry":{"type":"Polygon","coordinates":[[[-71.50833,46.18333],[-71.5,46.18333],[-71.5,46.175],[-71.50833,46.175],[-71.50833,46.18333]]]}},{"type":"Feature","properties":{"c":"CDC-2826707","o":"Bulawayo CC Ventures Ltd. 100%","e":""},"geometry":{"type":"Polygon","coordinates":[[[-71.50833,46.19167],[-71.5,46.19167],[-71.5,46.18333],[-71.50833,46.18333],[-71.50833,46.19167]]]}},{"type":"Feature","properties":{"c":"CDC-2826457","o":"Bulawayo CC Ventures Ltd. 100%","e":""},"geometry":{"type":"Polygon","coordinates":[[[-71.61667,46.13333],[-71.60833,46.13333],[-71.60833,46.125],[-71.61667,46.125],[-71.61667,46.13333]]]}},{"type":"Feature","properties":{"c":"CDC-2826458","o":"Bulawayo CC Ventures Ltd. 100%","e":""},"geometry":{"type":"Polygon","coordinates":[[[-71.61667,46.14167],[-71.60833,46.14167],[-71.60833,46.13333],[-71.61667,46.13333],[-71.61667,46.14167]]]}},{"type":"Feature","properties":{"c":"CDC-2826459","o":"Bulawayo CC Ventures Ltd. 100%","e":""},"geometry":{"type":"Polygon","coordinates":[[[-71.60833,46.14167],[-71.6,46.14167],[-71.6,46.13333],[-71.60833,46.13333],[-71.60833,46.14167]]]}},{"type":"Feature","properties":{"c":"CDC-2826469","o":"Bulawayo CC Ventures Ltd. 100%","e":""},"geometry":{"type":"Polygon","coordinates":[[[-71.60833,46.15],[-71.6,46.15],[-71.6,46.14167],[-71.60833,46.14167],[-71.60833,46.15]]]}},{"type":"Feature","properties":{"c":"CDC-2826470","o":"Bulawayo CC Ventures Ltd. 100%","e":""},"geometry":{"type":"Polygon","coordinates":[[[-71.6,46.15],[-71.59167,46.15],[-71.59167,46.14167],[-71.6,46.14167],[-71.6,46.15]]]}},{"type":"Feature","properties":{"c":"CDC-2826471","o":"Bulawayo CC Ventures Ltd. 100%","e":""},"geometry":{"type":"Polygon","coordinates":[[[-71.59167,46.15],[-71.58333,46.15],[-71.58333,46.14167],[-71.59167,46.14167],[-71.59167,46.15]]]}},{"type":"Feature","properties":{"c":"CDC-2826590","o":"Bulawayo CC Ventures Ltd. 100%","e":""},"geometry":{"type":"Polygon","coordinates":[[[-71.59167,46.15833],[-71.58333,46.15833],[-71.58333,46.15],[-71.59167,46.15],[-71.59167,46.15833]]]}},{"type":"Feature","properties":{"c":"CDC-2826472","o":"Bulawayo CC Ventures Ltd. 100%","e":""},"geometry":{"type":"Polygon","coordinates":[[[-71.58333,46.15833],[-71.575,46.15833],[-71.575,46.15],[-71.58333,46.15],[-71.58333,46.15833]]]}},{"type":"Feature","properties":{"c":"CDC-2826461","o":"Bulawayo CC Ventures Ltd. 100%","e":""},"geometry":{"type":"Polygon","coordinates":[[[-71.58333,46.16667],[-71.575,46.16667],[-71.575,46.15833],[-71.58333,46.15833],[-71.58333,46.16667]]]}},{"type":"Feature","properties":{"c":"CDC-2826622","o":"Bulawayo CC Ventures Ltd. 100%","e":""},"geometry":{"type":"Polygon","coordinates":[[[-71.58333,46.175],[-71.575,46.175],[-71.575,46.16667],[-71.58333,46.16667],[-71.58333,46.175]]]}},{"type":"Feature","properties":{"c":"CDC-2824923","o":"Bertrand Brassard 100%","e":""},"geometry":{"type":"Polygon","coordinates":[[[-71.575,46.15],[-71.56667,46.15],[-71.56667,46.14167],[-71.575,46.14167],[-71.575,46.15]]]}},{"type":"Feature","properties":{"c":"CDC-2824926","o":"Bertrand Brassard 100%","e":""},"geometry":{"type":"Polygon","coordinates":[[[-71.575,46.15833],[-71.56667,46.15833],[-71.56667,46.15],[-71.575,46.15],[-71.575,46.15833]]]}},{"type":"Feature","properties":{"c":"CDC-2824929","o":"Bertrand Brassard 100%","e":""},"geometry":{"type":"Polygon","coordinates":[[[-71.575,46.16667],[-71.56667,46.16667],[-71.56667,46.15833],[-71.575,46.15833],[-71.575,46.16667]]]}},{"type":"Feature","properties":{"c":"CDC-2826591","o":"Bulawayo CC Ventures Ltd. 100%","e":""},"geometry":{"type":"Polygon","coordinates":[[[-71.575,46.175],[-71.56667,46.175],[-71.56667,46.16667],[-71.575,46.16667],[-71.575,46.175]]]}},{"type":"Feature","properties":{"c":"CDC-2824924","o":"Bertrand Brassard 100%","e":""},"geometry":{"type":"Polygon","coordinates":[[[-71.56667,46.15],[-71.55833,46.15],[-71.55833,46.14167],[-71.56667,46.14167],[-71.56667,46.15]]]}},{"type":"Feature","properties":{"c":"CDC-2824927","o":"Bertrand Brassard 100%","e":""},"geometry":{"type":"Polygon","coordinates":[[[-71.56667,46.15833],[-71.55833,46.15833],[-71.55833,46.15],[-71.56667,46.15],[-71.56667,46.15833]]]}},{"type":"Feature","properties":{"c":"CDC-2824930","o":"Bertrand Brassard 100%","e":""},"geometry":{"type":"Polygon","coordinates":[[[-71.56667,46.16667],[-71.55833,46.16667],[-71.55833,46.15833],[-71.56667,46.15833],[-71.56667,46.16667]]]}},{"type":"Feature","properties":{"c":"CDC-2826618","o":"Bulawayo CC Ventures Ltd. 100%","e":""},"geometry":{"type":"Polygon","coordinates":[[[-71.56667,46.175],[-71.55833,46.175],[-71.55833,46.16667],[-71.56667,46.16667],[-71.56667,46.175]]]}},{"type":"Feature","properties":{"c":"CDC-2824925","o":"Bertrand Brassard 100%","e":""},"geometry":{"type":"Polygon","coordinates":[[[-71.55833,46.15],[-71.55,46.15],[-71.55,46.14167],[-71.55833,46.14167],[-71.55833,46.15]]]}},{"type":"Feature","properties":{"c":"CDC-2824928","o":"Bertrand Brassard 100%","e":""},"geometry":{"type":"Polygon","coordinates":[[[-71.55833,46.15833],[-71.55,46.15833],[-71.55,46.15],[-71.55833,46.15],[-71.55833,46.15833]]]}},{"type":"Feature","properties":{"c":"CDC-2824931","o":"Bertrand Brassard 100%","e":""},"geometry":{"type":"Polygon","coordinates":[[[-71.55833,46.16667],[-71.55,46.16667],[-71.55,46.15833],[-71.55833,46.15833],[-71.55833,46.16667]]]}},{"type":"Feature","properties":{"c":"CDC-2826619","o":"Bulawayo CC Ventures Ltd. 100%","e":""},"geometry":{"type":"Polygon","coordinates":[[[-71.55833,46.175],[-71.55,46.175],[-71.55,46.16667],[-71.55833,46.16667],[-71.55833,46.175]]]}},{"type":"Feature","properties":{"c":"CDC-2826700","o":"Bulawayo CC Ventures Ltd. 100%","e":""},"geometry":{"type":"Polygon","coordinates":[[[-71.55833,46.18333],[-71.55,46.18333],[-71.55,46.175],[-71.55833,46.175],[-71.55833,46.18333]]]}},{"type":"Feature","properties":{"c":"CDC-2826650","o":"Bulawayo CC Ventures Ltd. 100%","e":""},"geometry":{"type":"Polygon","coordinates":[[[-71.55,46.16667],[-71.54167,46.16667],[-71.54167,46.15833],[-71.55,46.15833],[-71.55,46.16667]]]}},{"type":"Feature","properties":{"c":"CDC-2826403","o":"Bulawayo CC Ventures Ltd. 100%","e":""},"geometry":{"type":"Polygon","coordinates":[[[-71.55,46.175],[-71.54167,46.175],[-71.54167,46.16667],[-71.55,46.16667],[-71.55,46.175]]]}},{"type":"Feature","properties":{"c":"CDC-2826701","o":"Bulawayo CC Ventures Ltd. 100%","e":""},"geometry":{"type":"Polygon","coordinates":[[[-71.55,46.18333],[-71.54167,46.18333],[-71.54167,46.175],[-71.55,46.175],[-71.55,46.18333]]]}},{"type":"Feature","properties":{"c":"CDC-2826651","o":"Bulawayo CC Ventures Ltd. 100%","e":""},"geometry":{"type":"Polygon","coordinates":[[[-71.54167,46.16667],[-71.53333,46.16667],[-71.53333,46.15833],[-71.54167,46.15833],[-71.54167,46.16667]]]}},{"type":"Feature","properties":{"c":"CDC-2826594","o":"Bulawayo CC Ventures Ltd. 100%","e":""},"geometry":{"type":"Polygon","coordinates":[[[-71.61667,46.125],[-71.60833,46.125],[-71.60833,46.11667],[-71.61667,46.11667],[-71.61667,46.125]]]}},{"type":"Feature","properties":{"c":"CDC-2826429","o":"Bulawayo CC Ventures Ltd. 100%","e":""},"geometry":{"type":"Polygon","coordinates":[[[-71.60833,46.11667],[-71.6,46.11667],[-71.6,46.10833],[-71.60833,46.10833],[-71.60833,46.11667]]]}},{"type":"Feature","properties":{"c":"CDC-2826657","o":"Bulawayo CC Ventures Ltd. 100%","e":""},"geometry":{"type":"Polygon","coordinates":[[[-71.60833,46.125],[-71.6,46.125],[-71.6,46.11667],[-71.60833,46.11667],[-71.60833,46.125]]]}},{"type":"Feature","properties":{"c":"CDC-2826692","o":"Bulawayo CC Ventures Ltd. 100%","e":""},"geometry":{"type":"Polygon","coordinates":[[[-71.6,46.11667],[-71.59167,46.11667],[-71.59167,46.10833],[-71.6,46.10833],[-71.6,46.11667]]]}},{"type":"Feature","properties":{"c":"CDC-2820783","o":"Martin Lessard 100%","e":""},"geometry":{"type":"Polygon","coordinates":[[[-71.575,46.075],[-71.56667,46.075],[-71.56667,46.06667],[-71.575,46.06667],[-71.575,46.075]]]}},{"type":"Feature","properties":{"c":"CDC-2820786","o":"Martin Lessard 100%","e":""},"geometry":{"type":"Polygon","coordinates":[[[-71.575,46.08333],[-71.56667,46.08333],[-71.56667,46.075],[-71.575,46.075],[-71.575,46.08333]]]}},{"type":"Feature","properties":{"c":"CDC-2820784","o":"Martin Lessard 100%","e":""},"geometry":{"type":"Polygon","coordinates":[[[-71.56667,46.075],[-71.55833,46.075],[-71.55833,46.06667],[-71.56667,46.06667],[-71.56667,46.075]]]}},{"type":"Feature","properties":{"c":"CDC-2820787","o":"Martin Lessard 100%","e":""},"geometry":{"type":"Polygon","coordinates":[[[-71.56667,46.08333],[-71.55833,46.08333],[-71.55833,46.075],[-71.56667,46.075],[-71.56667,46.08333]]]}},{"type":"Feature","properties":{"c":"CDC-2820788","o":"Martin Lessard 100%","e":""},"geometry":{"type":"Polygon","coordinates":[[[-71.55833,46.08333],[-71.55,46.08333],[-71.55,46.075],[-71.55833,46.075],[-71.55833,46.08333]]]}},{"type":"Feature","properties":{"c":"CDC-2820785","o":"Martin Lessard 100%","e":""},"geometry":{"type":"Polygon","coordinates":[[[-71.55,46.075],[-71.54167,46.075],[-71.54167,46.06667],[-71.55,46.06667],[-71.55,46.075]]]}},{"type":"Feature","properties":{"c":"CDC-2826400","o":"Bulawayo CC Ventures Ltd. 100%","e":""},"geometry":{"type":"Polygon","coordinates":[[[-71.65833,46.0],[-71.65,46.0],[-71.65,45.99167],[-71.65833,45.99167],[-71.65833,46.0]]]}},{"type":"Feature","properties":{"c":"CDC-2826488","o":"Bulawayo CC Ventures Ltd. 100%","e":""},"geometry":{"type":"Polygon","coordinates":[[[-71.66667,46.0],[-71.65833,46.0],[-71.65833,45.99167],[-71.66667,45.99167],[-71.66667,46.0]]]}},{"type":"Feature","properties":{"c":"CDC-2826492","o":"Bulawayo CC Ventures Ltd. 100%","e":""},"geometry":{"type":"Polygon","coordinates":[[[-71.675,46.0],[-71.66667,46.0],[-71.66667,45.99167],[-71.675,45.99167],[-71.675,46.0]]]}},{"type":"Feature","properties":{"c":"CDC-2826399","o":"Bulawayo CC Ventures Ltd. 100%","e":""},"geometry":{"type":"Polygon","coordinates":[[[-71.68333,46.0],[-71.675,46.0],[-71.675,45.99167],[-71.68333,45.99167],[-71.68333,46.0]]]}},{"type":"Feature","properties":{"c":"CDC-2826491","o":"Bulawayo CC Ventures Ltd. 100%","e":""},"geometry":{"type":"Polygon","coordinates":[[[-71.69167,45.9978],[-71.69167,46.0],[-71.68944,46.0],[-71.68333,46.0],[-71.68333,45.99167],[-71.69167,45.99167],[-71.69167,45.9978]]]}},{"type":"Feature","properties":{"c":"CDC-2826689","o":"Bulawayo CC Ventures Ltd. 100%","e":""},"geometry":{"type":"Polygon","coordinates":[[[-71.66667,46.00833],[-71.65833,46.00833],[-71.65833,46.0],[-71.66667,46.0],[-71.66667,46.00833]]]}},{"type":"Feature","properties":{"c":"CDC-2826489","o":"Bulawayo CC Ventures Ltd. 100%","e":""},"geometry":{"type":"Polygon","coordinates":[[[-71.675,46.00833],[-71.66667,46.00833],[-71.66667,46.0],[-71.675,46.0],[-71.675,46.00833]]]}},{"type":"Feature","properties":{"c":"CDC-2826593","o":"Bulawayo CC Ventures Ltd. 100%","e":""},"geometry":{"type":"Polygon","coordinates":[[[-71.68333,46.00833],[-71.675,46.00833],[-71.675,46.0],[-71.68333,46.0],[-71.68333,46.00833]]]}},{"type":"Feature","properties":{"c":"CDC-2826592","o":"Bulawayo CC Ventures Ltd. 100%","e":""},"geometry":{"type":"Polygon","coordinates":[[[-71.69167,46.00833],[-71.68333,46.00833],[-71.68333,46.0],[-71.69167,46.0],[-71.69167,46.00833]]]}},{"type":"Feature","properties":{"c":"CDC-2826609","o":"Bulawayo CC Ventures Ltd. 100%","e":""},"geometry":{"type":"Polygon","coordinates":[[[-71.66667,46.01667],[-71.65833,46.01667],[-71.65833,46.00833],[-71.66667,46.00833],[-71.66667,46.01667]]]}},{"type":"Feature","properties":{"c":"CDC-2826407","o":"Bulawayo CC Ventures Ltd. 100%","e":""},"geometry":{"type":"Polygon","coordinates":[[[-71.675,46.01667],[-71.66667,46.01667],[-71.66667,46.00833],[-71.675,46.00833],[-71.675,46.01667]]]}},{"type":"Feature","properties":{"c":"CDC-2826406","o":"Bulawayo CC Ventures Ltd. 100%","e":""},"geometry":{"type":"Polygon","coordinates":[[[-71.68333,46.01667],[-71.675,46.01667],[-71.675,46.00833],[-71.68333,46.00833],[-71.68333,46.01667]]]}},{"type":"Feature","properties":{"c":"CDC-2826405","o":"Bulawayo CC Ventures Ltd. 100%","e":""},"geometry":{"type":"Polygon","coordinates":[[[-71.69167,46.01667],[-71.68333,46.01667],[-71.68333,46.00833],[-71.69167,46.00833],[-71.69167,46.01667]]]}},{"type":"Feature","properties":{"c":"CDC-2826610","o":"Bulawayo CC Ventures Ltd. 100%","e":""},"geometry":{"type":"Polygon","coordinates":[[[-71.66667,46.025],[-71.65833,46.025],[-71.65833,46.01667],[-71.66667,46.01667],[-71.66667,46.025]]]}},{"type":"Feature","properties":{"c":"CDC-2826409","o":"Bulawayo CC Ventures Ltd. 100%","e":""},"geometry":{"type":"Polygon","coordinates":[[[-71.675,46.025],[-71.66667,46.025],[-71.66667,46.01667],[-71.675,46.01667],[-71.675,46.025]]]}},{"type":"Feature","properties":{"c":"CDC-2826401","o":"Bulawayo CC Ventures Ltd. 100%","e":""},"geometry":{"type":"Polygon","coordinates":[[[-71.68333,46.025],[-71.675,46.025],[-71.675,46.01667],[-71.68333,46.01667],[-71.68333,46.025]]]}},{"type":"Feature","properties":{"c":"CDC-2826408","o":"Bulawayo CC Ventures Ltd. 100%","e":""},"geometry":{"type":"Polygon","coordinates":[[[-71.69167,46.025],[-71.68333,46.025],[-71.68333,46.01667],[-71.69167,46.01667],[-71.69167,46.025]]]}},{"type":"Feature","properties":{"c":"CDC-2826611","o":"Bulawayo CC Ventures Ltd. 100%","e":""},"geometry":{"type":"Polygon","coordinates":[[[-71.66667,46.03333],[-71.65833,46.03333],[-71.65833,46.025],[-71.66667,46.025],[-71.66667,46.03333]]]}},{"type":"Feature","properties":{"c":"CDC-2826412","o":"Bulawayo CC Ventures Ltd. 100%","e":""},"geometry":{"type":"Polygon","coordinates":[[[-71.675,46.03333],[-71.66667,46.03333],[-71.66667,46.025],[-71.675,46.025],[-71.675,46.03333]]]}},{"type":"Feature","properties":{"c":"CDC-2826411","o":"Bulawayo CC Ventures Ltd. 100%","e":""},"geometry":{"type":"Polygon","coordinates":[[[-71.68333,46.03333],[-71.675,46.03333],[-71.675,46.025],[-71.68333,46.025],[-71.68333,46.03333]]]}},{"type":"Feature","properties":{"c":"CDC-2826410","o":"Bulawayo CC Ventures Ltd. 100%","e":""},"geometry":{"type":"Polygon","coordinates":[[[-71.69167,46.03333],[-71.68333,46.03333],[-71.68333,46.025],[-71.69167,46.025],[-71.69167,46.03333]]]}},{"type":"Feature","properties":{"c":"CDC-2826447","o":"Bulawayo CC Ventures Ltd. 100%","e":""},"geometry":{"type":"Polygon","coordinates":[[[-71.66667,46.1],[-71.65833,46.1],[-71.65833,46.09167],[-71.66667,46.09167],[-71.66667,46.1]]]}},{"type":"Feature","properties":{"c":"CDC-2826426","o":"Bulawayo CC Ventures Ltd. 100%","e":""},"geometry":{"type":"Polygon","coordinates":[[[-71.69167,46.1],[-71.68333,46.1],[-71.68333,46.09167],[-71.69167,46.09167],[-71.69167,46.1]]]}},{"type":"Feature","properties":{"c":"CDC-2826439","o":"Bulawayo CC Ventures Ltd. 100%","e":""},"geometry":{"type":"Polygon","coordinates":[[[-71.7,46.1],[-71.69167,46.1],[-71.69167,46.09167],[-71.7,46.09167],[-71.7,46.1]]]}},{"type":"Feature","properties":{"c":"CDC-2826450","o":"Bulawayo CC Ventures Ltd. 100%","e":""},"geometry":{"type":"Polygon","coordinates":[[[-71.65,46.10833],[-71.64167,46.10833],[-71.64167,46.1],[-71.65,46.1],[-71.65,46.10833]]]}},{"type":"Feature","properties":{"c":"CDC-2826449","o":"Bulawayo CC Ventures Ltd. 100%","e":""},"geometry":{"type":"Polygon","coordinates":[[[-71.65833,46.10833],[-71.65,46.10833],[-71.65,46.1],[-71.65833,46.1],[-71.65833,46.10833]]]}},{"type":"Feature","properties":{"c":"CDC-2826448","o":"Bulawayo CC Ventures Ltd. 100%","e":""},"geometry":{"type":"Polygon","coordinates":[[[-71.66667,46.10833],[-71.65833,46.10833],[-71.65833,46.1],[-71.66667,46.1],[-71.66667,46.10833]]]}},{"type":"Feature","properties":{"c":"CDC-2826427","o":"Bulawayo CC Ventures Ltd. 100%","e":""},"geometry":{"type":"Polygon","coordinates":[[[-71.69167,46.10833],[-71.68333,46.10833],[-71.68333,46.1],[-71.69167,46.1],[-71.69167,46.10833]]]}},{"type":"Feature","properties":{"c":"CDC-2826441","o":"Bulawayo CC Ventures Ltd. 100%","e":""},"geometry":{"type":"Polygon","coordinates":[[[-71.7,46.10833],[-71.69167,46.10833],[-71.69167,46.1],[-71.7,46.1],[-71.7,46.10833]]]}},{"type":"Feature","properties":{"c":"CDC-2826490","o":"Bulawayo CC Ventures Ltd. 100%","e":""},"geometry":{"type":"Polygon","coordinates":[[[-71.61667,46.11667],[-71.60833,46.11667],[-71.60833,46.10833],[-71.61667,46.10833],[-71.61667,46.11667]]]}},{"type":"Feature","properties":{"c":"CDC-2826454","o":"Bulawayo CC Ventures Ltd. 100%","e":""},"geometry":{"type":"Polygon","coordinates":[[[-71.625,46.11667],[-71.61667,46.11667],[-71.61667,46.10833],[-71.625,46.10833],[-71.625,46.11667]]]}},{"type":"Feature","properties":{"c":"CDC-2826453","o":"Bulawayo CC Ventures Ltd. 100%","e":""},"geometry":{"type":"Polygon","coordinates":[[[-71.63333,46.11667],[-71.625,46.11667],[-71.625,46.10833],[-71.63333,46.10833],[-71.63333,46.11667]]]}},{"type":"Feature","properties":{"c":"CDC-2826452","o":"Bulawayo CC Ventures Ltd. 100%","e":""},"geometry":{"type":"Polygon","coordinates":[[[-71.64167,46.11667],[-71.63333,46.11667],[-71.63333,46.10833],[-71.64167,46.10833],[-71.64167,46.11667]]]}},{"type":"Feature","properties":{"c":"CDC-2826451","o":"Bulawayo CC Ventures Ltd. 100%","e":""},"geometry":{"type":"Polygon","coordinates":[[[-71.65,46.11667],[-71.64167,46.11667],[-71.64167,46.10833],[-71.65,46.10833],[-71.65,46.11667]]]}},{"type":"Feature","properties":{"c":"CDC-2826428","o":"Bulawayo CC Ventures Ltd. 100%","e":""},"geometry":{"type":"Polygon","coordinates":[[[-71.69167,46.11667],[-71.68333,46.11667],[-71.68333,46.10833],[-71.69167,46.10833],[-71.69167,46.11667]]]}},{"type":"Feature","properties":{"c":"CDC-2826442","o":"Bulawayo CC Ventures Ltd. 100%","e":""},"geometry":{"type":"Polygon","coordinates":[[[-71.7,46.11667],[-71.69167,46.11667],[-71.69167,46.10833],[-71.7,46.10833],[-71.7,46.11667]]]}},{"type":"Feature","properties":{"c":"CDC-2826455","o":"Bulawayo CC Ventures Ltd. 100%","e":""},"geometry":{"type":"Polygon","coordinates":[[[-71.625,46.125],[-71.61667,46.125],[-71.61667,46.11667],[-71.625,46.11667],[-71.625,46.125]]]}},{"type":"Feature","properties":{"c":"CDC-2882493","o":"Bertrand Brassard 100%","e":""},"geometry":{"type":"Polygon","coordinates":[[[-71.63333,46.125],[-71.625,46.125],[-71.625,46.11667],[-71.63333,46.11667],[-71.63333,46.125]]]}},{"type":"Feature","properties":{"c":"CDC-2882492","o":"Bertrand Brassard 100%","e":""},"geometry":{"type":"Polygon","coordinates":[[[-71.64167,46.125],[-71.63333,46.125],[-71.63333,46.11667],[-71.64167,46.11667],[-71.64167,46.125]]]}},{"type":"Feature","properties":{"c":"CDC-2826845","o":"Bulawayo CC Ventures Ltd. 100%","e":""},"geometry":{"type":"Polygon","coordinates":[[[-71.65,46.125],[-71.64167,46.125],[-71.64167,46.11667],[-71.65,46.11667],[-71.65,46.125]]]}},{"type":"Feature","properties":{"c":"CDC-2826430","o":"Bulawayo CC Ventures Ltd. 100%","e":""},"geometry":{"type":"Polygon","coordinates":[[[-71.69167,46.125],[-71.68333,46.125],[-71.68333,46.11667],[-71.69167,46.11667],[-71.69167,46.125]]]}},{"type":"Feature","properties":{"c":"CDC-2826443","o":"Bulawayo CC Ventures Ltd. 100%","e":""},"geometry":{"type":"Polygon","coordinates":[[[-71.7,46.125],[-71.69167,46.125],[-71.69167,46.11667],[-71.7,46.11667],[-71.7,46.125]]]}},{"type":"Feature","properties":{"c":"CDC-2826456","o":"Bulawayo CC Ventures Ltd. 100%","e":""},"geometry":{"type":"Polygon","coordinates":[[[-71.625,46.13333],[-71.61667,46.13333],[-71.61667,46.125],[-71.625,46.125],[-71.625,46.13333]]]}},{"type":"Feature","properties":{"c":"CDC-2826848","o":"Bulawayo CC Ventures Ltd. 100%","e":""},"geometry":{"type":"Polygon","coordinates":[[[-71.63333,46.13333],[-71.625,46.13333],[-71.625,46.125],[-71.63333,46.125],[-71.63333,46.13333]]]}},{"type":"Feature","properties":{"c":"CDC-2826847","o":"Bulawayo CC Ventures Ltd. 100%","e":""},"geometry":{"type":"Polygon","coordinates":[[[-71.64167,46.13333],[-71.63333,46.13333],[-71.63333,46.125],[-71.64167,46.125],[-71.64167,46.13333]]]}},{"type":"Feature","properties":{"c":"CDC-2826846","o":"Bulawayo CC Ventures Ltd. 100%","e":""},"geometry":{"type":"Polygon","coordinates":[[[-71.65,46.13333],[-71.64167,46.13333],[-71.64167,46.125],[-71.65,46.125],[-71.65,46.13333]]]}},{"type":"Feature","properties":{"c":"CDC-2826431","o":"Bulawayo CC Ventures Ltd. 100%","e":""},"geometry":{"type":"Polygon","coordinates":[[[-71.68333,46.13333],[-71.675,46.13333],[-71.675,46.125],[-71.68333,46.125],[-71.68333,46.13333]]]}},{"type":"Feature","properties":{"c":"CDC-2826444","o":"Bulawayo CC Ventures Ltd. 100%","e":""},"geometry":{"type":"Polygon","coordinates":[[[-71.69167,46.13333],[-71.68333,46.13333],[-71.68333,46.125],[-71.69167,46.125],[-71.69167,46.13333]]]}},{"type":"Feature","properties":{"c":"CDC-2826612","o":"Bulawayo CC Ventures Ltd. 100%","e":""},"geometry":{"type":"Polygon","coordinates":[[[-71.65833,46.04167],[-71.65,46.04167],[-71.65,46.03333],[-71.65833,46.03333],[-71.65833,46.04167]]]}},{"type":"Feature","properties":{"c":"CDC-2826414","o":"Bulawayo CC Ventures Ltd. 100%","e":""},"geometry":{"type":"Polygon","coordinates":[[[-71.66667,46.04167],[-71.65833,46.04167],[-71.65833,46.03333],[-71.66667,46.03333],[-71.66667,46.04167]]]}},{"type":"Feature","properties":{"c":"CDC-2826413","o":"Bulawayo CC Ventures Ltd. 100%","e":""},"geometry":{"type":"Polygon","coordinates":[[[-71.675,46.04167],[-71.66667,46.04167],[-71.66667,46.03333],[-71.675,46.03333],[-71.675,46.04167]]]}},{"type":"Feature","properties":{"c":"CDC-2826416","o":"Bulawayo CC Ventures Ltd. 100%","e":""},"geometry":{"type":"Polygon","coordinates":[[[-71.65833,46.05],[-71.65,46.05],[-71.65,46.04167],[-71.65833,46.04167],[-71.65833,46.05]]]}},{"type":"Feature","properties":{"c":"CDC-2826415","o":"Bulawayo CC Ventures Ltd. 100%","e":""},"geometry":{"type":"Polygon","coordinates":[[[-71.66667,46.05],[-71.65833,46.05],[-71.65833,46.04167],[-71.66667,46.04167],[-71.66667,46.05]]]}},{"type":"Feature","properties":{"c":"CDC-2826614","o":"Bulawayo CC Ventures Ltd. 100%","e":""},"geometry":{"type":"Polygon","coordinates":[[[-71.65833,46.05833],[-71.65,46.05833],[-71.65,46.05],[-71.65833,46.05],[-71.65833,46.05833]]]}},{"type":"Feature","properties":{"c":"CDC-2826613","o":"Bulawayo CC Ventures Ltd. 100%","e":""},"geometry":{"type":"Polygon","coordinates":[[[-71.66667,46.05833],[-71.65833,46.05833],[-71.65833,46.05],[-71.66667,46.05],[-71.66667,46.05833]]]}},{"type":"Feature","properties":{"c":"CDC-2826419","o":"Bulawayo CC Ventures Ltd. 100%","e":""},"geometry":{"type":"Polygon","coordinates":[[[-71.675,46.05833],[-71.66667,46.05833],[-71.66667,46.05],[-71.675,46.05],[-71.675,46.05833]]]}},{"type":"Feature","properties":{"c":"CDC-2826615","o":"Bulawayo CC Ventures Ltd. 100%","e":""},"geometry":{"type":"Polygon","coordinates":[[[-71.675,46.06667],[-71.66667,46.06667],[-71.66667,46.05833],[-71.675,46.05833],[-71.675,46.06667]]]}},{"type":"Feature","properties":{"c":"CDC-2826420","o":"Bulawayo CC Ventures Ltd. 100%","e":""},"geometry":{"type":"Polygon","coordinates":[[[-71.68333,46.06667],[-71.675,46.06667],[-71.675,46.05833],[-71.68333,46.05833],[-71.68333,46.06667]]]}},{"type":"Feature","properties":{"c":"CDC-2826433","o":"Bulawayo CC Ventures Ltd. 100%","e":""},"geometry":{"type":"Polygon","coordinates":[[[-71.69167,46.06667],[-71.68333,46.06667],[-71.68333,46.05833],[-71.69167,46.05833],[-71.69167,46.06667]]]}},{"type":"Feature","properties":{"c":"CDC-2826616","o":"Bulawayo CC Ventures Ltd. 100%","e":""},"geometry":{"type":"Polygon","coordinates":[[[-71.68333,46.075],[-71.675,46.075],[-71.675,46.06667],[-71.68333,46.06667],[-71.68333,46.075]]]}},{"type":"Feature","properties":{"c":"CDC-2826421","o":"Bulawayo CC Ventures Ltd. 100%","e":""},"geometry":{"type":"Polygon","coordinates":[[[-71.69167,46.075],[-71.68333,46.075],[-71.68333,46.06667],[-71.69167,46.06667],[-71.69167,46.075]]]}},{"type":"Feature","properties":{"c":"CDC-2826436","o":"Bulawayo CC Ventures Ltd. 100%","e":""},"geometry":{"type":"Polygon","coordinates":[[[-71.65833,46.08333],[-71.65,46.08333],[-71.65,46.075],[-71.65833,46.075],[-71.65833,46.08333]]]}},{"type":"Feature","properties":{"c":"CDC-2826435","o":"Bulawayo CC Ventures Ltd. 100%","e":""},"geometry":{"type":"Polygon","coordinates":[[[-71.66667,46.08333],[-71.65833,46.08333],[-71.65833,46.075],[-71.66667,46.075],[-71.66667,46.08333]]]}},{"type":"Feature","properties":{"c":"CDC-2826434","o":"Bulawayo CC Ventures Ltd. 100%","e":""},"geometry":{"type":"Polygon","coordinates":[[[-71.675,46.08333],[-71.66667,46.08333],[-71.66667,46.075],[-71.675,46.075],[-71.675,46.08333]]]}},{"type":"Feature","properties":{"c":"CDC-2826617","o":"Bulawayo CC Ventures Ltd. 100%","e":""},"geometry":{"type":"Polygon","coordinates":[[[-71.68333,46.08333],[-71.675,46.08333],[-71.675,46.075],[-71.68333,46.075],[-71.68333,46.08333]]]}},{"type":"Feature","properties":{"c":"CDC-2826422","o":"Bulawayo CC Ventures Ltd. 100%","e":""},"geometry":{"type":"Polygon","coordinates":[[[-71.69167,46.08333],[-71.68333,46.08333],[-71.68333,46.075],[-71.69167,46.075],[-71.69167,46.08333]]]}},{"type":"Feature","properties":{"c":"CDC-2826438","o":"Bulawayo CC Ventures Ltd. 100%","e":""},"geometry":{"type":"Polygon","coordinates":[[[-71.65,46.09167],[-71.64167,46.09167],[-71.64167,46.08333],[-71.65,46.08333],[-71.65,46.09167]]]}},{"type":"Feature","properties":{"c":"CDC-2826402","o":"Bulawayo CC Ventures Ltd. 100%","e":""},"geometry":{"type":"Polygon","coordinates":[[[-71.65833,46.09167],[-71.65,46.09167],[-71.65,46.08333],[-71.65833,46.08333],[-71.65833,46.09167]]]}},{"type":"Feature","properties":{"c":"CDC-2826425","o":"Bulawayo CC Ventures Ltd. 100%","e":""},"geometry":{"type":"Polygon","coordinates":[[[-71.66667,46.09167],[-71.65833,46.09167],[-71.65833,46.08333],[-71.66667,46.08333],[-71.66667,46.09167]]]}},{"type":"Feature","properties":{"c":"CDC-2826424","o":"Bulawayo CC Ventures Ltd. 100%","e":""},"geometry":{"type":"Polygon","coordinates":[[[-71.675,46.09167],[-71.66667,46.09167],[-71.66667,46.08333],[-71.675,46.08333],[-71.675,46.09167]]]}},{"type":"Feature","properties":{"c":"CDC-2826423","o":"Bulawayo CC Ventures Ltd. 100%","e":""},"geometry":{"type":"Polygon","coordinates":[[[-71.68333,46.09167],[-71.675,46.09167],[-71.675,46.08333],[-71.68333,46.08333],[-71.68333,46.09167]]]}},{"type":"Feature","properties":{"c":"CDC-2826437","o":"Bulawayo CC Ventures Ltd. 100%","e":""},"geometry":{"type":"Polygon","coordinates":[[[-71.69167,46.09167],[-71.68333,46.09167],[-71.68333,46.08333],[-71.69167,46.08333],[-71.69167,46.09167]]]}},{"type":"Feature","properties":{"c":"CDC-2826468","o":"Bulawayo CC Ventures Ltd. 100%","e":""},"geometry":{"type":"Polygon","coordinates":[[[-71.7,46.09167],[-71.69167,46.09167],[-71.69167,46.08333],[-71.7,46.08333],[-71.7,46.09167]]]}},{"type":"Feature","properties":{"c":"CDC-2826691","o":"Bulawayo CC Ventures Ltd. 100%","e":""},"geometry":{"type":"Polygon","coordinates":[[[-71.65,46.1],[-71.64167,46.1],[-71.64167,46.09167],[-71.65,46.09167],[-71.65,46.1]]]}},{"type":"Feature","properties":{"c":"CDC-2826440","o":"Bulawayo CC Ventures Ltd. 100%","e":""},"geometry":{"type":"Polygon","coordinates":[[[-71.65833,46.1],[-71.65,46.1],[-71.65,46.09167],[-71.65833,46.09167],[-71.65833,46.1]]]}},{"type":"Feature","properties":{"c":"CDC-2826634","o":"Bulawayo CC Ventures Ltd. 100%","e":""},"geometry":{"type":"Polygon","coordinates":[[[-71.725,46.0],[-71.71667,46.0],[-71.71667,45.99167],[-71.725,45.99167],[-71.725,46.0]]]}},{"type":"Feature","properties":{"c":"CDC-2826645","o":"Kenneth Kuiper 100%","e":""},"geometry":{"type":"Polygon","coordinates":[[[-71.76667,46.0],[-71.75833,46.0],[-71.75833,45.99167],[-71.76667,45.99167],[-71.76667,46.0]]]}},{"type":"Feature","properties":{"c":"CDC-2826477","o":"Kenneth Kuiper 100%","e":""},"geometry":{"type":"Polygon","coordinates":[[[-71.775,46.0],[-71.76667,46.0],[-71.76667,45.99167],[-71.775,45.99167],[-71.775,46.0]]]}},{"type":"Feature","properties":{"c":"CDC-2826620","o":"Kenneth Kuiper 100%","e":""},"geometry":{"type":"Polygon","coordinates":[[[-71.78333,46.0],[-71.775,46.0],[-71.775,45.99167],[-71.78333,45.99167],[-71.78333,46.0]]]}},{"type":"Feature","properties":{"c":"CDC-2826635","o":"Bulawayo CC Ventures Ltd. 100%","e":""},"geometry":{"type":"Polygon","coordinates":[[[-71.725,46.00833],[-71.71667,46.00833],[-71.71667,46.0],[-71.725,46.0],[-71.725,46.00833]]]}},{"type":"Feature","properties":{"c":"CDC-2826648","o":"Kenneth Kuiper 100%","e":""},"geometry":{"type":"Polygon","coordinates":[[[-71.76667,46.00833],[-71.75833,46.00833],[-71.75833,46.0],[-71.76667,46.0],[-71.76667,46.00833]]]}},{"type":"Feature","properties":{"c":"CDC-2826474","o":"Kenneth Kuiper 100%","e":""},"geometry":{"type":"Polygon","coordinates":[[[-71.775,46.00833],[-71.76667,46.00833],[-71.76667,46.0],[-71.775,46.0],[-71.775,46.00833]]]}},{"type":"Feature","properties":{"c":"CDC-2826621","o":"Kenneth Kuiper 100%","e":""},"geometry":{"type":"Polygon","coordinates":[[[-71.78333,46.00833],[-71.775,46.00833],[-71.775,46.0],[-71.78333,46.0],[-71.78333,46.00833]]]}},{"type":"Feature","properties":{"c":"CDC-2826690","o":"Bulawayo CC Ventures Ltd. 100%","e":""},"geometry":{"type":"Polygon","coordinates":[[[-71.7,46.01667],[-71.69167,46.01667],[-71.69167,46.00833],[-71.7,46.00833],[-71.7,46.01667]]]}},{"type":"Feature","properties":{"c":"CDC-2826649","o":"Kenneth Kuiper 100%","e":""},"geometry":{"type":"Polygon","coordinates":[[[-71.76667,46.01667],[-71.75833,46.01667],[-71.75833,46.00833],[-71.76667,46.00833],[-71.76667,46.01667]]]}},{"type":"Feature","properties":{"c":"CDC-2826476","o":"Kenneth Kuiper 100%","e":""},"geometry":{"type":"Polygon","coordinates":[[[-71.775,46.01667],[-71.76667,46.01667],[-71.76667,46.00833],[-71.775,46.00833],[-71.775,46.01667]]]}},{"type":"Feature","properties":{"c":"CDC-2826475","o":"Kenneth Kuiper 100%","e":""},"geometry":{"type":"Polygon","coordinates":[[[-71.78333,46.01667],[-71.775,46.01667],[-71.775,46.00833],[-71.78333,46.00833],[-71.78333,46.01667]]]}},{"type":"Feature","properties":{"c":"CDC-2826432","o":"Bulawayo CC Ventures Ltd. 100%","e":""},"geometry":{"type":"Polygon","coordinates":[[[-71.7,46.06667],[-71.69167,46.06667],[-71.69167,46.05833],[-71.7,46.05833],[-71.7,46.06667]]]}},{"type":"Feature","properties":{"c":"CDC-2826467","o":"Bulawayo CC Ventures Ltd. 100%","e":""},"geometry":{"type":"Polygon","coordinates":[[[-71.70833,46.09167],[-71.7,46.09167],[-71.7,46.08333],[-71.70833,46.08333],[-71.70833,46.09167]]]}},{"type":"Feature","properties":{"c":"CDC-2826466","o":"Bulawayo CC Ventures Ltd. 100%","e":""},"geometry":{"type":"Polygon","coordinates":[[[-71.71667,46.09167],[-71.70833,46.09167],[-71.70833,46.08333],[-71.71667,46.08333],[-71.71667,46.09167]]]}},{"type":"Feature","properties":{"c":"CDC-2881770","o":"Nathaniel Chouinard 100%","e":""},"geometry":{"type":"Polygon","coordinates":[[[-71.80833,46.10833],[-71.8,46.10833],[-71.8,46.1],[-71.80833,46.1],[-71.80833,46.10833]]]}},{"type":"Feature","properties":{"c":"CDC-2881769","o":"Nathaniel Chouinard 100%","e":""},"geometry":{"type":"Polygon","coordinates":[[[-71.81667,46.10514],[-71.81662,46.10519],[-71.81608,46.10572],[-71.81613,46.10575],[-71.81667,46.10602],[-71.81667,46.10833],[-71.80833,46.10833],[-71.80833,46.1],[-71.81667,46.1],[-71.81667,46.10514]]]}},{"type":"Feature","properties":{"c":"CDC-2826656","o":"Bulawayo CC Ventures Ltd. 100%","e":""},"geometry":{"type":"Polygon","coordinates":[[[-71.75833,46.125],[-71.75,46.125],[-71.75,46.11667],[-71.75833,46.11667],[-71.75833,46.125]]]}}]}