{"type":"FeatureCollection","features":[{"type":"Feature","properties":{"c":"CDC-2874881","o":"St\u00e9phanie Marceau Deschesnes 100%","e":""},"geometry":{"type":"Polygon","coordinates":[[[-72.675,51.5],[-72.66667,51.5],[-72.66667,51.49167],[-72.675,51.49167],[-72.675,51.5]]]}},{"type":"Feature","properties":{"c":"CDC-2874880","o":"St\u00e9phanie Marceau Deschesnes 100%","e":""},"geometry":{"type":"Polygon","coordinates":[[[-72.68333,51.5],[-72.675,51.5],[-72.675,51.49167],[-72.68333,51.49167],[-72.68333,51.5]]]}},{"type":"Feature","properties":{"c":"AMO-69","o":"Minist\u00e8re des Transports et de la Mobilit\u00e9 Durable 100%","e":""},"geometry":{"type":"Polygon","coordinates":[[[-72.75691,51.15644],[-72.75714,51.15594],[-72.75775,51.15573],[-72.75809,51.15586],[-72.75797,51.15525],[-72.7605,51.15431],[-72.76054,51.15431],[-72.76073,51.15468],[-72.76083,51.15605],[-72.76076,51.15634],[-72.76005,51.15644],[-72.75913,51.15597],[-72.7586,51.15571],[-72.75823,51.15588],[-72.75826,51.15625],[-72.75885,51.15681],[-72.75956,51.15685],[-72.75989,51.15741],[-72.75986,51.15808],[-72.75957,51.15824],[-72.75793,51.15862],[-72.75698,51.15901],[-72.75627,51.15826],[-72.75624,51.15759],[-72.75701,51.15687],[-72.75778,51.15654],[-72.75754,51.15631],[-72.75691,51.15644]]]}}]}