{"type":"FeatureCollection","features":[{"type":"Feature","properties":{"c":"CDC-2829057","o":"Brunswick Exploration inc. 100%","e":""},"geometry":{"type":"Polygon","coordinates":[[[-73.40833,50.5],[-73.4,50.5],[-73.4,50.49167],[-73.40833,50.49167],[-73.40833,50.5]]]}},{"type":"Feature","properties":{"c":"CDC-2832344","o":"Soci\u00e9t\u00e9 de D\u00e9veloppement de la Baie-James 100%","e":""},"geometry":{"type":"Polygon","coordinates":[[[-73.23333,50.78333],[-73.225,50.78333],[-73.225,50.775],[-73.23333,50.775],[-73.23333,50.78333]]]}},{"type":"Feature","properties":{"c":"CDC-2832343","o":"Soci\u00e9t\u00e9 de D\u00e9veloppement de la Baie-James 100%","e":""},"geometry":{"type":"Polygon","coordinates":[[[-73.24167,50.78333],[-73.23333,50.78333],[-73.23333,50.775],[-73.24167,50.775],[-73.24167,50.78333]]]}},{"type":"Feature","properties":{"c":"CDC-2832342","o":"Soci\u00e9t\u00e9 de D\u00e9veloppement de la Baie-James 100%","e":""},"geometry":{"type":"Polygon","coordinates":[[[-73.25,50.78333],[-73.24167,50.78333],[-73.24167,50.775],[-73.25,50.775],[-73.25,50.78333]]]}},{"type":"Feature","properties":{"c":"CDC-2878272","o":"Critical Mineral Properties 100%","e":""},"geometry":{"type":"Polygon","coordinates":[[[-73.01667,50.85833],[-73.00833,50.85833],[-73.00833,50.85],[-73.01667,50.85],[-73.01667,50.85833]]]}},{"type":"Feature","properties":{"c":"CDC-2840172","o":"St\u00e9phanie Marceau Deschesnes 100%","e":""},"geometry":{"type":"Polygon","coordinates":[[[-73.025,50.85833],[-73.01667,50.85833],[-73.01667,50.85],[-73.025,50.85],[-73.025,50.85833]]]}},{"type":"Feature","properties":{"c":"CDC-2840171","o":"St\u00e9phanie Marceau Deschesnes 100%","e":""},"geometry":{"type":"Polygon","coordinates":[[[-73.03333,50.85833],[-73.025,50.85833],[-73.025,50.85],[-73.03333,50.85],[-73.03333,50.85833]]]}},{"type":"Feature","properties":{"c":"CDC-2878273","o":"Critical Mineral Properties 100%","e":""},"geometry":{"type":"Polygon","coordinates":[[[-73.01667,50.86667],[-73.00833,50.86667],[-73.00833,50.85833],[-73.01667,50.85833],[-73.01667,50.86667]]]}},{"type":"Feature","properties":{"c":"CDC-2840174","o":"St\u00e9phanie Marceau Deschesnes 100%","e":""},"geometry":{"type":"Polygon","coordinates":[[[-73.025,50.86667],[-73.01667,50.86667],[-73.01667,50.85833],[-73.025,50.85833],[-73.025,50.86667]]]}},{"type":"Feature","properties":{"c":"CDC-2840173","o":"St\u00e9phanie Marceau Deschesnes 100%","e":""},"geometry":{"type":"Polygon","coordinates":[[[-73.03333,50.86667],[-73.025,50.86667],[-73.025,50.85833],[-73.03333,50.85833],[-73.03333,50.86667]]]}},{"type":"Feature","properties":{"c":"AMO-201","o":"Minist\u00e8re des Transports et de la Mobilit\u00e9 Durable 100%","e":""},"geometry":{"type":"Polygon","coordinates":[[[-73.03529,50.90064],[-73.03505,50.90048],[-73.03619,50.89918],[-73.03751,50.8977],[-73.03883,50.89705],[-73.04003,50.89671],[-73.03867,50.89784],[-73.03793,50.89871],[-73.03756,50.89992],[-73.03778,50.90074],[-73.03665,50.90159],[-73.0364,50.90144],[-73.03612,50.90067],[-73.03529,50.90064]]]}},{"type":"Feature","properties":{"c":"AMO-271","o":"Soci\u00e9t\u00e9 de D\u00e9veloppement de la Baie-James 100%","e":""},"geometry":{"type":"Polygon","coordinates":[[[-73.02937,50.90078],[-73.0311,50.89959],[-73.03222,50.89935],[-73.03313,50.8997],[-73.03361,50.90113],[-73.03339,50.90133],[-73.0314,50.90159],[-73.02972,50.90151],[-73.02937,50.90078]]]}},{"type":"Feature","properties":{"c":"CDC-2832346","o":"Soci\u00e9t\u00e9 de D\u00e9veloppement de la Baie-James 100%","e":""},"geometry":{"type":"Polygon","coordinates":[[[-73.05833,50.91667],[-73.05,50.91667],[-73.05,50.90833],[-73.05833,50.90833],[-73.05833,50.91667]]]}},{"type":"Feature","properties":{"c":"CDC-2832345","o":"Soci\u00e9t\u00e9 de D\u00e9veloppement de la Baie-James 100%","e":""},"geometry":{"type":"Polygon","coordinates":[[[-73.06667,50.91667],[-73.05833,50.91667],[-73.05833,50.90833],[-73.06667,50.90833],[-73.06667,50.91667]]]}},{"type":"Feature","properties":{"c":"CDC-2829087","o":"Brunswick Exploration inc. 100%","e":""},"geometry":{"type":"Polygon","coordinates":[[[-73.40833,50.50833],[-73.4,50.50833],[-73.4,50.5],[-73.40833,50.5],[-73.40833,50.50833]]]}},{"type":"Feature","properties":{"c":"CDC-2829089","o":"Brunswick Exploration inc. 100%","e":""},"geometry":{"type":"Polygon","coordinates":[[[-73.40833,50.51667],[-73.4,50.51667],[-73.4,50.50833],[-73.40833,50.50833],[-73.40833,50.51667]]]}},{"type":"Feature","properties":{"c":"CDC-2829101","o":"Brunswick Exploration inc. 100%","e":""},"geometry":{"type":"Polygon","coordinates":[[[-73.40833,50.56667],[-73.4,50.56667],[-73.4,50.55833],[-73.40833,50.55833],[-73.40833,50.56667]]]}},{"type":"Feature","properties":{"c":"CDC-2829103","o":"Brunswick Exploration inc. 100%","e":""},"geometry":{"type":"Polygon","coordinates":[[[-73.40833,50.575],[-73.4,50.575],[-73.4,50.56667],[-73.40833,50.56667],[-73.40833,50.575]]]}},{"type":"Feature","properties":{"c":"CDC-2829058","o":"Brunswick Exploration inc. 100%","e":""},"geometry":{"type":"Polygon","coordinates":[[[-73.4,50.5],[-73.39167,50.5],[-73.39167,50.49167],[-73.4,50.49167],[-73.4,50.5]]]}},{"type":"Feature","properties":{"c":"CDC-2829107","o":"Brunswick Exploration inc. 100%","e":""},"geometry":{"type":"Polygon","coordinates":[[[-73.40833,50.58333],[-73.4,50.58333],[-73.4,50.575],[-73.40833,50.575],[-73.40833,50.58333]]]}},{"type":"Feature","properties":{"c":"CDC-2829088","o":"Brunswick Exploration inc. 100%","e":""},"geometry":{"type":"Polygon","coordinates":[[[-73.4,50.50833],[-73.39167,50.50833],[-73.39167,50.5],[-73.4,50.5],[-73.4,50.50833]]]}},{"type":"Feature","properties":{"c":"CDC-2829090","o":"Brunswick Exploration inc. 100%","e":""},"geometry":{"type":"Polygon","coordinates":[[[-73.4,50.51667],[-73.39167,50.51667],[-73.39167,50.50833],[-73.4,50.50833],[-73.4,50.51667]]]}},{"type":"Feature","properties":{"c":"CDC-2829102","o":"Brunswick Exploration inc. 100%","e":""},"geometry":{"type":"Polygon","coordinates":[[[-73.4,50.56667],[-73.39167,50.56667],[-73.39167,50.55833],[-73.4,50.55833],[-73.4,50.56667]]]}},{"type":"Feature","properties":{"c":"CDC-2829104","o":"Brunswick Exploration inc. 100%","e":""},"geometry":{"type":"Polygon","coordinates":[[[-73.4,50.575],[-73.39167,50.575],[-73.39167,50.56667],[-73.4,50.56667],[-73.4,50.575]]]}},{"type":"Feature","properties":{"c":"CDC-2829108","o":"Brunswick Exploration inc. 100%","e":""},"geometry":{"type":"Polygon","coordinates":[[[-73.4,50.58333],[-73.39167,50.58333],[-73.39167,50.575],[-73.4,50.575],[-73.4,50.58333]]]}},{"type":"Feature","properties":{"c":"CDC-2829091","o":"Brunswick Exploration inc. 100%","e":""},"geometry":{"type":"Polygon","coordinates":[[[-73.39167,50.51667],[-73.38333,50.51667],[-73.38333,50.50833],[-73.39167,50.50833],[-73.39167,50.51667]]]}},{"type":"Feature","properties":{"c":"CDC-2829105","o":"Brunswick Exploration inc. 100%","e":""},"geometry":{"type":"Polygon","coordinates":[[[-73.39167,50.575],[-73.38333,50.575],[-73.38333,50.56667],[-73.39167,50.56667],[-73.39167,50.575]]]}},{"type":"Feature","properties":{"c":"CDC-2829109","o":"Brunswick Exploration inc. 100%","e":""},"geometry":{"type":"Polygon","coordinates":[[[-73.39167,50.58333],[-73.38333,50.58333],[-73.38333,50.575],[-73.39167,50.575],[-73.39167,50.58333]]]}},{"type":"Feature","properties":{"c":"CDC-2829106","o":"Brunswick Exploration inc. 100%","e":""},"geometry":{"type":"Polygon","coordinates":[[[-73.38333,50.575],[-73.375,50.575],[-73.375,50.56667],[-73.38333,50.56667],[-73.38333,50.575]]]}},{"type":"Feature","properties":{"c":"CDC-2829110","o":"Brunswick Exploration inc. 100%","e":""},"geometry":{"type":"Polygon","coordinates":[[[-73.38333,50.58333],[-73.375,50.58333],[-73.375,50.575],[-73.38333,50.575],[-73.38333,50.58333]]]}},{"type":"Feature","properties":{"c":"AMO-203","o":"Minist\u00e8re des Transports et de la Mobilit\u00e9 Durable 100%","e":""},"geometry":{"type":"Polygon","coordinates":[[[-73.38939,50.66183],[-73.38986,50.66192],[-73.38997,50.66211],[-73.38974,50.66235],[-73.38818,50.66332],[-73.38734,50.66383],[-73.38695,50.66401],[-73.38634,50.66366],[-73.3864,50.66332],[-73.38699,50.66274],[-73.38749,50.66243],[-73.3885,50.66229],[-73.38939,50.66183]]]}},{"type":"Feature","properties":{"c":"CDC-2826978","o":"Jean-Francois Dallaire 100%","e":""},"geometry":{"type":"Polygon","coordinates":[[[-73.29167,50.5],[-73.28333,50.5],[-73.28333,50.49167],[-73.29167,50.49167],[-73.29167,50.5]]]}},{"type":"Feature","properties":{"c":"CDC-2829092","o":"Brunswick Exploration inc. 100%","e":""},"geometry":{"type":"Polygon","coordinates":[[[-73.28333,50.54167],[-73.275,50.54167],[-73.275,50.53333],[-73.28333,50.53333],[-73.28333,50.54167]]]}},{"type":"Feature","properties":{"c":"CDC-2829095","o":"Brunswick Exploration inc. 100%","e":""},"geometry":{"type":"Polygon","coordinates":[[[-73.28333,50.55],[-73.275,50.55],[-73.275,50.54167],[-73.28333,50.54167],[-73.28333,50.55]]]}},{"type":"Feature","properties":{"c":"CDC-2829098","o":"Brunswick Exploration inc. 100%","e":""},"geometry":{"type":"Polygon","coordinates":[[[-73.28333,50.55833],[-73.275,50.55833],[-73.275,50.55],[-73.28333,50.55],[-73.28333,50.55833]]]}},{"type":"Feature","properties":{"c":"CDC-2829093","o":"Brunswick Exploration inc. 100%","e":""},"geometry":{"type":"Polygon","coordinates":[[[-73.275,50.54167],[-73.26667,50.54167],[-73.26667,50.53333],[-73.275,50.53333],[-73.275,50.54167]]]}},{"type":"Feature","properties":{"c":"CDC-2829096","o":"Brunswick Exploration inc. 100%","e":""},"geometry":{"type":"Polygon","coordinates":[[[-73.275,50.55],[-73.26667,50.55],[-73.26667,50.54167],[-73.275,50.54167],[-73.275,50.55]]]}},{"type":"Feature","properties":{"c":"CDC-2829099","o":"Brunswick Exploration inc. 100%","e":""},"geometry":{"type":"Polygon","coordinates":[[[-73.275,50.55833],[-73.26667,50.55833],[-73.26667,50.55],[-73.275,50.55],[-73.275,50.55833]]]}},{"type":"Feature","properties":{"c":"CDC-2829094","o":"Brunswick Exploration inc. 100%","e":""},"geometry":{"type":"Polygon","coordinates":[[[-73.26667,50.54167],[-73.25833,50.54167],[-73.25833,50.53333],[-73.26667,50.53333],[-73.26667,50.54167]]]}},{"type":"Feature","properties":{"c":"CDC-2829097","o":"Brunswick Exploration inc. 100%","e":""},"geometry":{"type":"Polygon","coordinates":[[[-73.26667,50.55],[-73.25833,50.55],[-73.25833,50.54167],[-73.26667,50.54167],[-73.26667,50.55]]]}},{"type":"Feature","properties":{"c":"CDC-2829100","o":"Brunswick Exploration inc. 100%","e":""},"geometry":{"type":"Polygon","coordinates":[[[-73.26667,50.55833],[-73.25833,50.55833],[-73.25833,50.55],[-73.26667,50.55],[-73.26667,50.55833]]]}}]}