{"type":"FeatureCollection","features":[{"type":"Feature","properties":{"c":"CDC-2826165","o":"Daphn\u00e9 Leclair 100%","e":""},"geometry":{"type":"Polygon","coordinates":[[[-73.25833,46.64167],[-73.25,46.64167],[-73.25,46.63333],[-73.25833,46.63333],[-73.25833,46.64167]]]}},{"type":"Feature","properties":{"c":"CDC-2826167","o":"Daphn\u00e9 Leclair 100%","e":""},"geometry":{"type":"Polygon","coordinates":[[[-73.25,46.65],[-73.25,46.64167],[-73.25833,46.64167],[-73.25833,46.65],[-73.25,46.65]]]}},{"type":"Feature","properties":{"c":"CDC-2809503","o":"Eagle Ridge Mining Ltd. 100%","e":""},"geometry":{"type":"Polygon","coordinates":[[[-73.24167,46.63333],[-73.25,46.63333],[-73.25,46.64167],[-73.24167,46.64167],[-73.24167,46.63333]]]}},{"type":"Feature","properties":{"c":"CDC-2826168","o":"Daphn\u00e9 Leclair 100%","e":""},"geometry":{"type":"Polygon","coordinates":[[[-73.25,46.64167],[-73.25,46.65],[-73.24167,46.65],[-73.24167,46.64167],[-73.25,46.64167]]]}},{"type":"Feature","properties":{"c":"CDC-2826166","o":"Daphn\u00e9 Leclair 100%","e":""},"geometry":{"type":"Polygon","coordinates":[[[-73.24167,46.64167],[-73.23333,46.64167],[-73.23333,46.63333],[-73.24167,46.63333],[-73.24167,46.64167]]]}},{"type":"Feature","properties":{"c":"CDC-2826169","o":"Daphn\u00e9 Leclair 100%","e":""},"geometry":{"type":"Polygon","coordinates":[[[-73.23333,46.64167],[-73.24167,46.64167],[-73.24167,46.65],[-73.23333,46.65],[-73.23333,46.64167]]]}},{"type":"Feature","properties":{"c":"CDC-2827013","o":"Jean-Guy Lafreni\u00e8re 100%","e":""},"geometry":{"type":"Polygon","coordinates":[[[-73.09167,46.61667],[-73.08333,46.61667],[-73.08333,46.60833],[-73.09167,46.60833],[-73.09167,46.61667]]]}},{"type":"Feature","properties":{"c":"CDC-2837266","o":"Iris Cantin 100%","e":""},"geometry":{"type":"Polygon","coordinates":[[[-73.09167,46.63333],[-73.08333,46.63333],[-73.08333,46.625],[-73.09167,46.625],[-73.09167,46.63333]]]}},{"type":"Feature","properties":{"c":"CDC-2836536","o":"Pure Graphite Corp. 100%","e":""},"geometry":{"type":"Polygon","coordinates":[[[-73.05833,46.61667],[-73.05833,46.60833],[-73.06667,46.60833],[-73.06667,46.60835],[-73.06662,46.60836],[-73.0665,46.60842],[-73.06648,46.60848],[-73.06651,46.60859],[-73.06657,46.60861],[-73.06666,46.60865],[-73.06667,46.60865],[-73.06667,46.60897],[-73.06588,46.60901],[-73.06566,46.60905],[-73.06549,46.60915],[-73.06572,46.60947],[-73.06667,46.60934],[-73.06667,46.61667],[-73.05833,46.61667]]]}},{"type":"Feature","properties":{"c":"CDC-2827014","o":"Jean-Guy Lafreni\u00e8re 100%","e":""},"geometry":{"type":"Polygon","coordinates":[[[-73.06667,46.625],[-73.05833,46.625],[-73.05833,46.61667],[-73.06667,46.61667],[-73.06667,46.625]]]}},{"type":"Feature","properties":{"c":"CDC-2827015","o":"Jean-Guy Lafreni\u00e8re 100%","e":""},"geometry":{"type":"Polygon","coordinates":[[[-73.06667,46.63333],[-73.05833,46.63333],[-73.05833,46.625],[-73.06667,46.625],[-73.06667,46.63333]]]}},{"type":"Feature","properties":{"c":"CDC-2828718","o":"Martin Gigu\u00e8re 100%","e":""},"geometry":{"type":"Polygon","coordinates":[[[-73.05833,46.6],[-73.05,46.6],[-73.05,46.59167],[-73.05833,46.59167],[-73.05833,46.6]]]}},{"type":"Feature","properties":{"c":"CDC-2826143","o":"Pure Graphite Corp. 100%","e":""},"geometry":{"type":"Polygon","coordinates":[[[-73.05833,46.61667],[-73.05,46.61667],[-73.05,46.60833],[-73.05833,46.60833],[-73.05833,46.61667]]]}},{"type":"Feature","properties":{"c":"CDC-2826146","o":"Pure Graphite Corp. 100%","e":""},"geometry":{"type":"Polygon","coordinates":[[[-73.05833,46.625],[-73.05,46.625],[-73.05,46.61667],[-73.05833,46.61667],[-73.05833,46.625]]]}},{"type":"Feature","properties":{"c":"CDC-2826150","o":"Pure Graphite Corp. 100%","e":""},"geometry":{"type":"Polygon","coordinates":[[[-73.05833,46.63333],[-73.05,46.63333],[-73.05,46.625],[-73.05833,46.625],[-73.05833,46.63333]]]}},{"type":"Feature","properties":{"c":"CDC-2828719","o":"Martin Gigu\u00e8re 100%","e":""},"geometry":{"type":"Polygon","coordinates":[[[-73.05,46.60833],[-73.04167,46.60833],[-73.04167,46.6],[-73.05,46.6],[-73.05,46.60833]]]}},{"type":"Feature","properties":{"c":"CDC-2826144","o":"Pure Graphite Corp. 100%","e":""},"geometry":{"type":"Polygon","coordinates":[[[-73.05,46.61667],[-73.04167,46.61667],[-73.04167,46.60833],[-73.05,46.60833],[-73.05,46.61667]]]}},{"type":"Feature","properties":{"c":"CDC-2826147","o":"Pure Graphite Corp. 100%","e":""},"geometry":{"type":"Polygon","coordinates":[[[-73.05,46.625],[-73.04167,46.625],[-73.04167,46.61667],[-73.05,46.61667],[-73.05,46.625]]]}},{"type":"Feature","properties":{"c":"CDC-2826151","o":"Pure Graphite Corp. 100%","e":""},"geometry":{"type":"Polygon","coordinates":[[[-73.05,46.63333],[-73.04167,46.63333],[-73.04167,46.625],[-73.05,46.625],[-73.05,46.63333]]]}},{"type":"Feature","properties":{"c":"CDC-2826145","o":"Pure Graphite Corp. 100%","e":""},"geometry":{"type":"Polygon","coordinates":[[[-73.04167,46.61667],[-73.03333,46.61667],[-73.03333,46.60833],[-73.04167,46.60833],[-73.04167,46.61667]]]}},{"type":"Feature","properties":{"c":"CDC-2826148","o":"Pure Graphite Corp. 100%","e":""},"geometry":{"type":"Polygon","coordinates":[[[-73.04167,46.625],[-73.03333,46.625],[-73.03333,46.61667],[-73.04167,46.61667],[-73.04167,46.625]]]}},{"type":"Feature","properties":{"c":"CDC-2826152","o":"Pure Graphite Corp. 100%","e":""},"geometry":{"type":"Polygon","coordinates":[[[-73.04167,46.63333],[-73.03333,46.63333],[-73.03333,46.625],[-73.04167,46.625],[-73.04167,46.63333]]]}},{"type":"Feature","properties":{"c":"CDC-2826149","o":"Pure Graphite Corp. 100%","e":""},"geometry":{"type":"Polygon","coordinates":[[[-73.03333,46.625],[-73.025,46.625],[-73.025,46.61667],[-73.03333,46.61667],[-73.03333,46.625]]]}},{"type":"Feature","properties":{"c":"CDC-2826153","o":"Pure Graphite Corp. 100%","e":""},"geometry":{"type":"Polygon","coordinates":[[[-73.03333,46.63333],[-73.025,46.63333],[-73.025,46.625],[-73.03333,46.625],[-73.03333,46.63333]]]}},{"type":"Feature","properties":{"c":"CDC-2836187","o":"Pure Graphite Corp. 100%","e":""},"geometry":{"type":"Polygon","coordinates":[[[-73.025,46.625],[-73.01667,46.625],[-73.01667,46.61667],[-73.025,46.61667],[-73.025,46.625]]]}},{"type":"Feature","properties":{"c":"CDC-2826154","o":"Pure Graphite Corp. 100%","e":""},"geometry":{"type":"Polygon","coordinates":[[[-73.025,46.63333],[-73.01667,46.63333],[-73.01667,46.625],[-73.025,46.625],[-73.025,46.63333]]]}},{"type":"Feature","properties":{"c":"CDC-2826162","o":"Daphn\u00e9 Leclair 100%","e":""},"geometry":{"type":"Polygon","coordinates":[[[-73.25833,46.63333],[-73.25,46.63333],[-73.25,46.625],[-73.25833,46.625],[-73.25833,46.63333]]]}},{"type":"Feature","properties":{"c":"CDC-2826163","o":"Daphn\u00e9 Leclair 100%","e":""},"geometry":{"type":"Polygon","coordinates":[[[-73.25,46.63333],[-73.24167,46.63333],[-73.24167,46.625],[-73.25,46.625],[-73.25,46.63333]]]}},{"type":"Feature","properties":{"c":"CDC-2826164","o":"Daphn\u00e9 Leclair 100%","e":""},"geometry":{"type":"Polygon","coordinates":[[[-73.24167,46.63333],[-73.23333,46.63333],[-73.23333,46.625],[-73.24167,46.625],[-73.24167,46.63333]]]}}]}