{"type":"FeatureCollection","features":[{"type":"Feature","properties":{"c":"CDC-2664260","o":"Lithium Canuck S.A. 100%","e":""},"geometry":{"type":"Polygon","coordinates":[[[-73.06667,53.175],[-73.05833,53.175],[-73.05833,53.16667],[-73.06667,53.16667],[-73.06667,53.175]]]}},{"type":"Feature","properties":{"c":"CDC-2664280","o":"Lithium Canuck S.A. 100%","e":""},"geometry":{"type":"Polygon","coordinates":[[[-73.06667,53.18333],[-73.05833,53.18333],[-73.05833,53.175],[-73.06667,53.175],[-73.06667,53.18333]]]}},{"type":"Feature","properties":{"c":"CDC-2664261","o":"Lithium Canuck S.A. 100%","e":""},"geometry":{"type":"Polygon","coordinates":[[[-73.05833,53.175],[-73.05,53.175],[-73.05,53.16667],[-73.05833,53.16667],[-73.05833,53.175]]]}},{"type":"Feature","properties":{"c":"CDC-2664281","o":"Lithium Canuck S.A. 100%","e":""},"geometry":{"type":"Polygon","coordinates":[[[-73.05833,53.18333],[-73.05,53.18333],[-73.05,53.175],[-73.05833,53.175],[-73.05833,53.18333]]]}},{"type":"Feature","properties":{"c":"CDC-2664262","o":"Lithium Canuck S.A. 100%","e":""},"geometry":{"type":"Polygon","coordinates":[[[-73.05,53.175],[-73.04167,53.175],[-73.04167,53.16667],[-73.05,53.16667],[-73.05,53.175]]]}},{"type":"Feature","properties":{"c":"CDC-2664264","o":"Lithium Canuck S.A. 100%","e":""},"geometry":{"type":"Polygon","coordinates":[[[-73.05,53.18333],[-73.04167,53.18333],[-73.04167,53.175],[-73.05,53.175],[-73.05,53.18333]]]}},{"type":"Feature","properties":{"c":"CDC-2664282","o":"Lithium Canuck S.A. 100%","e":""},"geometry":{"type":"Polygon","coordinates":[[[-73.05,53.19167],[-73.04167,53.19167],[-73.04167,53.18333],[-73.05,53.18333],[-73.05,53.19167]]]}},{"type":"Feature","properties":{"c":"CDC-2881347","o":"Lithium Canuck S.A. 100%","e":""},"geometry":{"type":"Polygon","coordinates":[[[-73.04167,53.18333],[-73.03333,53.18333],[-73.03333,53.175],[-73.04167,53.175],[-73.04167,53.18333]]]}},{"type":"Feature","properties":{"c":"CDC-2881348","o":"Lithium Canuck S.A. 100%","e":""},"geometry":{"type":"Polygon","coordinates":[[[-73.04167,53.19167],[-73.03333,53.19167],[-73.03333,53.18333],[-73.04167,53.18333],[-73.04167,53.19167]]]}},{"type":"Feature","properties":{"c":"CDC-2881349","o":"Lithium Canuck S.A. 100%","e":""},"geometry":{"type":"Polygon","coordinates":[[[-73.03333,53.19167],[-73.025,53.19167],[-73.025,53.18333],[-73.03333,53.18333],[-73.03333,53.19167]]]}},{"type":"Feature","properties":{"c":"CDC-2881350","o":"Lithium Canuck S.A. 100%","e":""},"geometry":{"type":"Polygon","coordinates":[[[-73.025,53.19167],[-73.01667,53.19167],[-73.01667,53.18333],[-73.025,53.18333],[-73.025,53.19167]]]}},{"type":"Feature","properties":{"c":"CDC-2881351","o":"Lithium Canuck S.A. 100%","e":""},"geometry":{"type":"Polygon","coordinates":[[[-73.025,53.2],[-73.01667,53.2],[-73.01667,53.19167],[-73.025,53.19167],[-73.025,53.2]]]}},{"type":"Feature","properties":{"c":"CDC-2664265","o":"Lithium Canuck S.A. 100%","e":""},"geometry":{"type":"Polygon","coordinates":[[[-73.01667,53.19167],[-73.00833,53.19167],[-73.00833,53.18333],[-73.01667,53.18333],[-73.01667,53.19167]]]}},{"type":"Feature","properties":{"c":"CDC-2664266","o":"Lithium Canuck S.A. 100%","e":""},"geometry":{"type":"Polygon","coordinates":[[[-73.01667,53.2],[-73.00833,53.2],[-73.00833,53.19167],[-73.01667,53.19167],[-73.01667,53.2]]]}},{"type":"Feature","properties":{"c":"CDC-2664267","o":"Lithium Canuck S.A. 100%","e":""},"geometry":{"type":"Polygon","coordinates":[[[-73.00833,53.2],[-73.0,53.2],[-73.0,53.19167],[-73.00833,53.19167],[-73.00833,53.2]]]}},{"type":"Feature","properties":{"c":"CDC-2669028","o":"Lithium Canuck S.A. 100%","e":""},"geometry":{"type":"Polygon","coordinates":[[[-73.45,53.375],[-73.44167,53.375],[-73.44167,53.36667],[-73.45,53.36667],[-73.45,53.375]]]}},{"type":"Feature","properties":{"c":"CDC-2651266","o":"Lithium Canuck S.A. 100%","e":""},"geometry":{"type":"Polygon","coordinates":[[[-73.45,53.38333],[-73.44167,53.38333],[-73.44167,53.375],[-73.45,53.375],[-73.45,53.38333]]]}},{"type":"Feature","properties":{"c":"CDC-2651353","o":"Lithium Canuck S.A. 100%","e":""},"geometry":{"type":"Polygon","coordinates":[[[-73.45,53.39167],[-73.44167,53.39167],[-73.44167,53.38333],[-73.45,53.38333],[-73.45,53.39167]]]}},{"type":"Feature","properties":{"c":"CDC-2681437","o":"Lithium Canuck S.A. 100%","e":""},"geometry":{"type":"Polygon","coordinates":[[[-73.44167,53.35833],[-73.43333,53.35833],[-73.43333,53.35],[-73.44167,53.35],[-73.44167,53.35833]]]}},{"type":"Feature","properties":{"c":"CDC-2651258","o":"Lithium Canuck S.A. 100%","e":""},"geometry":{"type":"Polygon","coordinates":[[[-73.44167,53.36667],[-73.43333,53.36667],[-73.43333,53.35833],[-73.44167,53.35833],[-73.44167,53.36667]]]}},{"type":"Feature","properties":{"c":"CDC-2651263","o":"Lithium Canuck S.A. 100%","e":""},"geometry":{"type":"Polygon","coordinates":[[[-73.44167,53.375],[-73.43333,53.375],[-73.43333,53.36667],[-73.44167,53.36667],[-73.44167,53.375]]]}},{"type":"Feature","properties":{"c":"CDC-2651267","o":"Lithium Canuck S.A. 100%","e":""},"geometry":{"type":"Polygon","coordinates":[[[-73.44167,53.38333],[-73.43333,53.38333],[-73.43333,53.375],[-73.44167,53.375],[-73.44167,53.38333]]]}},{"type":"Feature","properties":{"c":"CDC-2651354","o":"Lithium Canuck S.A. 100%","e":""},"geometry":{"type":"Polygon","coordinates":[[[-73.44167,53.39167],[-73.43333,53.39167],[-73.43333,53.38333],[-73.44167,53.38333],[-73.44167,53.39167]]]}},{"type":"Feature","properties":{"c":"CDC-2681438","o":"Lithium Canuck S.A. 100%","e":""},"geometry":{"type":"Polygon","coordinates":[[[-73.43333,53.35833],[-73.425,53.35833],[-73.425,53.35],[-73.43333,53.35],[-73.43333,53.35833]]]}},{"type":"Feature","properties":{"c":"CDC-2651259","o":"Lithium Canuck S.A. 100%","e":""},"geometry":{"type":"Polygon","coordinates":[[[-73.43333,53.36667],[-73.425,53.36667],[-73.425,53.35833],[-73.43333,53.35833],[-73.43333,53.36667]]]}},{"type":"Feature","properties":{"c":"CDC-2651264","o":"Lithium Canuck S.A. 100%","e":""},"geometry":{"type":"Polygon","coordinates":[[[-73.43333,53.375],[-73.425,53.375],[-73.425,53.36667],[-73.43333,53.36667],[-73.43333,53.375]]]}},{"type":"Feature","properties":{"c":"CDC-2651268","o":"Lithium Canuck S.A. 100%","e":""},"geometry":{"type":"Polygon","coordinates":[[[-73.43333,53.38333],[-73.425,53.38333],[-73.425,53.375],[-73.43333,53.375],[-73.43333,53.38333]]]}},{"type":"Feature","properties":{"c":"CDC-2651355","o":"Lithium Canuck S.A. 100%","e":""},"geometry":{"type":"Polygon","coordinates":[[[-73.43333,53.39167],[-73.425,53.39167],[-73.425,53.38333],[-73.43333,53.38333],[-73.43333,53.39167]]]}},{"type":"Feature","properties":{"c":"CDC-2651256","o":"Lithium Canuck S.A. 100%","e":""},"geometry":{"type":"Polygon","coordinates":[[[-73.425,53.35833],[-73.41667,53.35833],[-73.41667,53.35],[-73.425,53.35],[-73.425,53.35833]]]}},{"type":"Feature","properties":{"c":"CDC-2651260","o":"Lithium Canuck S.A. 100%","e":""},"geometry":{"type":"Polygon","coordinates":[[[-73.425,53.36667],[-73.41667,53.36667],[-73.41667,53.35833],[-73.425,53.35833],[-73.425,53.36667]]]}},{"type":"Feature","properties":{"c":"CDC-2651265","o":"Lithium Canuck S.A. 100%","e":""},"geometry":{"type":"Polygon","coordinates":[[[-73.425,53.375],[-73.41667,53.375],[-73.41667,53.36667],[-73.425,53.36667],[-73.425,53.375]]]}},{"type":"Feature","properties":{"c":"CDC-2651269","o":"Lithium Canuck S.A. 100%","e":""},"geometry":{"type":"Polygon","coordinates":[[[-73.425,53.38333],[-73.41667,53.38333],[-73.41667,53.375],[-73.425,53.375],[-73.425,53.38333]]]}},{"type":"Feature","properties":{"c":"CDC-2651356","o":"Lithium Canuck S.A. 100%","e":""},"geometry":{"type":"Polygon","coordinates":[[[-73.425,53.39167],[-73.41667,53.39167],[-73.41667,53.38333],[-73.425,53.38333],[-73.425,53.39167]]]}},{"type":"Feature","properties":{"c":"CDC-2651362","o":"Lithium Canuck S.A. 100%","e":""},"geometry":{"type":"Polygon","coordinates":[[[-73.425,53.4],[-73.41667,53.4],[-73.41667,53.39167],[-73.425,53.39167],[-73.425,53.4]]]}},{"type":"Feature","properties":{"c":"CDC-2651261","o":"Lithium Canuck S.A. 100%","e":""},"geometry":{"type":"Polygon","coordinates":[[[-73.41667,53.36667],[-73.40833,53.36667],[-73.40833,53.35833],[-73.41667,53.35833],[-73.41667,53.36667]]]}},{"type":"Feature","properties":{"c":"CDC-2651270","o":"Lithium Canuck S.A. 100%","e":""},"geometry":{"type":"Polygon","coordinates":[[[-73.41667,53.38333],[-73.40833,53.38333],[-73.40833,53.375],[-73.41667,53.375],[-73.41667,53.38333]]]}},{"type":"Feature","properties":{"c":"CDC-2651272","o":"Lithium Canuck S.A. 100%","e":""},"geometry":{"type":"Polygon","coordinates":[[[-73.41667,53.39167],[-73.40833,53.39167],[-73.40833,53.38333],[-73.41667,53.38333],[-73.41667,53.39167]]]}},{"type":"Feature","properties":{"c":"CDC-2651363","o":"Lithium Canuck S.A. 100%","e":""},"geometry":{"type":"Polygon","coordinates":[[[-73.41667,53.4],[-73.40833,53.4],[-73.40833,53.39167],[-73.41667,53.39167],[-73.41667,53.4]]]}},{"type":"Feature","properties":{"c":"CDC-2651262","o":"Lithium Canuck S.A. 100%","e":""},"geometry":{"type":"Polygon","coordinates":[[[-73.40833,53.36667],[-73.4,53.36667],[-73.4,53.35833],[-73.40833,53.35833],[-73.40833,53.36667]]]}},{"type":"Feature","properties":{"c":"CDC-2651271","o":"Lithium Canuck S.A. 100%","e":""},"geometry":{"type":"Polygon","coordinates":[[[-73.40833,53.38333],[-73.4,53.38333],[-73.4,53.375],[-73.40833,53.375],[-73.40833,53.38333]]]}},{"type":"Feature","properties":{"c":"CDC-2651273","o":"Lithium Canuck S.A. 100%","e":""},"geometry":{"type":"Polygon","coordinates":[[[-73.40833,53.39167],[-73.4,53.39167],[-73.4,53.38333],[-73.40833,53.38333],[-73.40833,53.39167]]]}},{"type":"Feature","properties":{"c":"CDC-2651274","o":"Lithium Canuck S.A. 100%","e":""},"geometry":{"type":"Polygon","coordinates":[[[-73.40833,53.4],[-73.4,53.4],[-73.4,53.39167],[-73.40833,53.39167],[-73.40833,53.4]]]}},{"type":"Feature","properties":{"c":"CDC-2668870","o":"Lithium Canuck S.A. 100%","e":""},"geometry":{"type":"Polygon","coordinates":[[[-73.49167,53.36667],[-73.48333,53.36667],[-73.48333,53.35833],[-73.49167,53.35833],[-73.49167,53.36667]]]}},{"type":"Feature","properties":{"c":"CDC-2668875","o":"Lithium Canuck S.A. 100%","e":""},"geometry":{"type":"Polygon","coordinates":[[[-73.49167,53.375],[-73.48333,53.375],[-73.48333,53.36667],[-73.49167,53.36667],[-73.49167,53.375]]]}},{"type":"Feature","properties":{"c":"CDC-2665963","o":"Lithium Canuck S.A. 100%","e":""},"geometry":{"type":"Polygon","coordinates":[[[-73.48333,53.34167],[-73.475,53.34167],[-73.475,53.33333],[-73.48333,53.33333],[-73.48333,53.34167]]]}},{"type":"Feature","properties":{"c":"CDC-2668871","o":"Lithium Canuck S.A. 100%","e":""},"geometry":{"type":"Polygon","coordinates":[[[-73.48333,53.36667],[-73.475,53.36667],[-73.475,53.35833],[-73.48333,53.35833],[-73.48333,53.36667]]]}},{"type":"Feature","properties":{"c":"CDC-2668876","o":"Lithium Canuck S.A. 100%","e":""},"geometry":{"type":"Polygon","coordinates":[[[-73.48333,53.375],[-73.475,53.375],[-73.475,53.36667],[-73.48333,53.36667],[-73.48333,53.375]]]}},{"type":"Feature","properties":{"c":"CDC-2668880","o":"Lithium Canuck S.A. 100%","e":""},"geometry":{"type":"Polygon","coordinates":[[[-73.48333,53.38333],[-73.475,53.38333],[-73.475,53.375],[-73.48333,53.375],[-73.48333,53.38333]]]}},{"type":"Feature","properties":{"c":"CDC-2665964","o":"Lithium Canuck S.A. 100%","e":""},"geometry":{"type":"Polygon","coordinates":[[[-73.475,53.34167],[-73.46667,53.34167],[-73.46667,53.33333],[-73.475,53.33333],[-73.475,53.34167]]]}},{"type":"Feature","properties":{"c":"CDC-2668872","o":"Lithium Canuck S.A. 100%","e":""},"geometry":{"type":"Polygon","coordinates":[[[-73.475,53.36667],[-73.46667,53.36667],[-73.46667,53.35833],[-73.475,53.35833],[-73.475,53.36667]]]}},{"type":"Feature","properties":{"c":"CDC-2668877","o":"Lithium Canuck S.A. 100%","e":""},"geometry":{"type":"Polygon","coordinates":[[[-73.475,53.375],[-73.46667,53.375],[-73.46667,53.36667],[-73.475,53.36667],[-73.475,53.375]]]}},{"type":"Feature","properties":{"c":"CDC-2668881","o":"Lithium Canuck S.A. 100%","e":""},"geometry":{"type":"Polygon","coordinates":[[[-73.475,53.38333],[-73.46667,53.38333],[-73.46667,53.375],[-73.475,53.375],[-73.475,53.38333]]]}},{"type":"Feature","properties":{"c":"CDC-2651350","o":"Lithium Canuck S.A. 100%","e":""},"geometry":{"type":"Polygon","coordinates":[[[-73.475,53.39167],[-73.46667,53.39167],[-73.46667,53.38333],[-73.475,53.38333],[-73.475,53.39167]]]}},{"type":"Feature","properties":{"c":"CDC-2665965","o":"Lithium Canuck S.A. 100%","e":""},"geometry":{"type":"Polygon","coordinates":[[[-73.46667,53.34167],[-73.45833,53.34167],[-73.45833,53.33333],[-73.46667,53.33333],[-73.46667,53.34167]]]}},{"type":"Feature","properties":{"c":"CDC-2681432","o":"Lithium Canuck S.A. 100%","e":""},"geometry":{"type":"Polygon","coordinates":[[[-73.46667,53.35],[-73.45833,53.35],[-73.45833,53.34167],[-73.46667,53.34167],[-73.46667,53.35]]]}},{"type":"Feature","properties":{"c":"CDC-2681434","o":"Lithium Canuck S.A. 100%","e":""},"geometry":{"type":"Polygon","coordinates":[[[-73.46667,53.35833],[-73.45833,53.35833],[-73.45833,53.35],[-73.46667,53.35],[-73.46667,53.35833]]]}},{"type":"Feature","properties":{"c":"CDC-2668873","o":"Lithium Canuck S.A. 100%","e":""},"geometry":{"type":"Polygon","coordinates":[[[-73.46667,53.36667],[-73.45833,53.36667],[-73.45833,53.35833],[-73.46667,53.35833],[-73.46667,53.36667]]]}},{"type":"Feature","properties":{"c":"CDC-2668878","o":"Lithium Canuck S.A. 100%","e":""},"geometry":{"type":"Polygon","coordinates":[[[-73.46667,53.375],[-73.45833,53.375],[-73.45833,53.36667],[-73.46667,53.36667],[-73.46667,53.375]]]}},{"type":"Feature","properties":{"c":"CDC-2668882","o":"Lithium Canuck S.A. 100%","e":""},"geometry":{"type":"Polygon","coordinates":[[[-73.46667,53.38333],[-73.45833,53.38333],[-73.45833,53.375],[-73.46667,53.375],[-73.46667,53.38333]]]}},{"type":"Feature","properties":{"c":"CDC-2651351","o":"Lithium Canuck S.A. 100%","e":""},"geometry":{"type":"Polygon","coordinates":[[[-73.46667,53.39167],[-73.45833,53.39167],[-73.45833,53.38333],[-73.46667,53.38333],[-73.46667,53.39167]]]}},{"type":"Feature","properties":{"c":"CDC-2665966","o":"Lithium Canuck S.A. 100%","e":""},"geometry":{"type":"Polygon","coordinates":[[[-73.45833,53.34167],[-73.45,53.34167],[-73.45,53.33333],[-73.45833,53.33333],[-73.45833,53.34167]]]}},{"type":"Feature","properties":{"c":"CDC-2681433","o":"Lithium Canuck S.A. 100%","e":""},"geometry":{"type":"Polygon","coordinates":[[[-73.45833,53.35],[-73.45,53.35],[-73.45,53.34167],[-73.45833,53.34167],[-73.45833,53.35]]]}},{"type":"Feature","properties":{"c":"CDC-2681435","o":"Lithium Canuck S.A. 100%","e":""},"geometry":{"type":"Polygon","coordinates":[[[-73.45833,53.35833],[-73.45,53.35833],[-73.45,53.35],[-73.45833,53.35],[-73.45833,53.35833]]]}},{"type":"Feature","properties":{"c":"CDC-2668874","o":"Lithium Canuck S.A. 100%","e":""},"geometry":{"type":"Polygon","coordinates":[[[-73.45833,53.36667],[-73.45,53.36667],[-73.45,53.35833],[-73.45833,53.35833],[-73.45833,53.36667]]]}},{"type":"Feature","properties":{"c":"CDC-2668879","o":"Lithium Canuck S.A. 100%","e":""},"geometry":{"type":"Polygon","coordinates":[[[-73.45833,53.375],[-73.45,53.375],[-73.45,53.36667],[-73.45833,53.36667],[-73.45833,53.375]]]}},{"type":"Feature","properties":{"c":"CDC-2669029","o":"Lithium Canuck S.A. 100%","e":""},"geometry":{"type":"Polygon","coordinates":[[[-73.45833,53.38333],[-73.45,53.38333],[-73.45,53.375],[-73.45833,53.375],[-73.45833,53.38333]]]}},{"type":"Feature","properties":{"c":"CDC-2651352","o":"Lithium Canuck S.A. 100%","e":""},"geometry":{"type":"Polygon","coordinates":[[[-73.45833,53.39167],[-73.45,53.39167],[-73.45,53.38333],[-73.45833,53.38333],[-73.45833,53.39167]]]}},{"type":"Feature","properties":{"c":"CDC-2681436","o":"Lithium Canuck S.A. 100%","e":""},"geometry":{"type":"Polygon","coordinates":[[[-73.45,53.35833],[-73.44167,53.35833],[-73.44167,53.35],[-73.45,53.35],[-73.45,53.35833]]]}},{"type":"Feature","properties":{"c":"CDC-2651257","o":"Lithium Canuck S.A. 100%","e":""},"geometry":{"type":"Polygon","coordinates":[[[-73.45,53.36667],[-73.44167,53.36667],[-73.44167,53.35833],[-73.45,53.35833],[-73.45,53.36667]]]}},{"type":"Feature","properties":{"c":"CDC-2625624","o":"Exploration Azimut inc. 100%","e":""},"geometry":{"type":"Polygon","coordinates":[[[-73.46667,53.31667],[-73.45833,53.31667],[-73.45833,53.30833],[-73.46667,53.30833],[-73.46667,53.31667]]]}},{"type":"Feature","properties":{"c":"CDC-2625627","o":"Exploration Azimut inc. 100%","e":""},"geometry":{"type":"Polygon","coordinates":[[[-73.46667,53.325],[-73.45833,53.325],[-73.45833,53.31667],[-73.46667,53.31667],[-73.46667,53.325]]]}},{"type":"Feature","properties":{"c":"CDC-2665961","o":"Lithium Canuck S.A. 100%","e":""},"geometry":{"type":"Polygon","coordinates":[[[-73.46667,53.33333],[-73.45833,53.33333],[-73.45833,53.325],[-73.46667,53.325],[-73.46667,53.33333]]]}},{"type":"Feature","properties":{"c":"CDC-2625613","o":"Exploration Azimut inc. 100%","e":""},"geometry":{"type":"Polygon","coordinates":[[[-73.45833,53.3],[-73.45,53.3],[-73.45,53.29167],[-73.45833,53.29167],[-73.45833,53.3]]]}},{"type":"Feature","properties":{"c":"CDC-2625619","o":"Exploration Azimut inc. 100%","e":""},"geometry":{"type":"Polygon","coordinates":[[[-73.45833,53.30833],[-73.45,53.30833],[-73.45,53.3],[-73.45833,53.3],[-73.45833,53.30833]]]}},{"type":"Feature","properties":{"c":"CDC-2625625","o":"Exploration Azimut inc. 100%","e":""},"geometry":{"type":"Polygon","coordinates":[[[-73.45833,53.31667],[-73.45,53.31667],[-73.45,53.30833],[-73.45833,53.30833],[-73.45833,53.31667]]]}},{"type":"Feature","properties":{"c":"CDC-2625628","o":"Exploration Azimut inc. 100%","e":""},"geometry":{"type":"Polygon","coordinates":[[[-73.45833,53.325],[-73.45,53.325],[-73.45,53.31667],[-73.45833,53.31667],[-73.45833,53.325]]]}},{"type":"Feature","properties":{"c":"CDC-2665962","o":"Lithium Canuck S.A. 100%","e":""},"geometry":{"type":"Polygon","coordinates":[[[-73.45833,53.33333],[-73.45,53.33333],[-73.45,53.325],[-73.45833,53.325],[-73.45833,53.33333]]]}},{"type":"Feature","properties":{"c":"CDC-2626729","o":"Exploration Azimut inc. 100%","e":""},"geometry":{"type":"Polygon","coordinates":[[[-73.45,53.3],[-73.44167,53.3],[-73.44167,53.29167],[-73.45,53.29167],[-73.45,53.3]]]}},{"type":"Feature","properties":{"c":"CDC-2626730","o":"Exploration Azimut inc. 100%","e":""},"geometry":{"type":"Polygon","coordinates":[[[-73.45,53.30833],[-73.44167,53.30833],[-73.44167,53.3],[-73.45,53.3],[-73.45,53.30833]]]}},{"type":"Feature","properties":{"c":"CDC-2625626","o":"Exploration Azimut inc. 100%","e":""},"geometry":{"type":"Polygon","coordinates":[[[-73.45,53.31667],[-73.44167,53.31667],[-73.44167,53.30833],[-73.45,53.30833],[-73.45,53.31667]]]}},{"type":"Feature","properties":{"c":"CDC-2625629","o":"Exploration Azimut inc. 100%","e":""},"geometry":{"type":"Polygon","coordinates":[[[-73.45,53.325],[-73.44167,53.325],[-73.44167,53.31667],[-73.45,53.31667],[-73.45,53.325]]]}},{"type":"Feature","properties":{"c":"CDC-2655991","o":"Exploration Azimut inc. 100%","e":""},"geometry":{"type":"Polygon","coordinates":[[[-73.44167,53.3],[-73.43333,53.3],[-73.43333,53.29167],[-73.44167,53.29167],[-73.44167,53.3]]]}},{"type":"Feature","properties":{"c":"CDC-2655996","o":"Exploration Azimut inc. 100%","e":""},"geometry":{"type":"Polygon","coordinates":[[[-73.44167,53.30833],[-73.43333,53.30833],[-73.43333,53.3],[-73.44167,53.3],[-73.44167,53.30833]]]}},{"type":"Feature","properties":{"c":"CDC-2627104","o":"Exploration Azimut inc. 100%","e":""},"geometry":{"type":"Polygon","coordinates":[[[-73.44167,53.31667],[-73.43333,53.31667],[-73.43333,53.30833],[-73.44167,53.30833],[-73.44167,53.31667]]]}},{"type":"Feature","properties":{"c":"CDC-2627105","o":"Exploration Azimut inc. 100%","e":""},"geometry":{"type":"Polygon","coordinates":[[[-73.44167,53.325],[-73.43333,53.325],[-73.43333,53.31667],[-73.44167,53.31667],[-73.44167,53.325]]]}},{"type":"Feature","properties":{"c":"CDC-2661381","o":"Lithium Canuck S.A. 100%","e":""},"geometry":{"type":"Polygon","coordinates":[[[-73.43333,53.3],[-73.425,53.3],[-73.425,53.29167],[-73.43333,53.29167],[-73.43333,53.3]]]}},{"type":"Feature","properties":{"c":"CDC-2661383","o":"Lithium Canuck S.A. 100%","e":""},"geometry":{"type":"Polygon","coordinates":[[[-73.43333,53.30833],[-73.425,53.30833],[-73.425,53.3],[-73.43333,53.3],[-73.43333,53.30833]]]}},{"type":"Feature","properties":{"c":"CDC-2661382","o":"Lithium Canuck S.A. 100%","e":""},"geometry":{"type":"Polygon","coordinates":[[[-73.425,53.3],[-73.41667,53.3],[-73.41667,53.29167],[-73.425,53.29167],[-73.425,53.3]]]}},{"type":"Feature","properties":{"c":"CDC-2661384","o":"Lithium Canuck S.A. 100%","e":""},"geometry":{"type":"Polygon","coordinates":[[[-73.425,53.30833],[-73.41667,53.30833],[-73.41667,53.3],[-73.425,53.3],[-73.425,53.30833]]]}},{"type":"Feature","properties":{"c":"CDC-2662459","o":"Lithium Canuck S.A. 100%","e":""},"geometry":{"type":"Polygon","coordinates":[[[-73.41667,53.3],[-73.40833,53.3],[-73.40833,53.29167],[-73.41667,53.29167],[-73.41667,53.3]]]}},{"type":"Feature","properties":{"c":"CDC-2661385","o":"Lithium Canuck S.A. 100%","e":""},"geometry":{"type":"Polygon","coordinates":[[[-73.41667,53.30833],[-73.40833,53.30833],[-73.40833,53.3],[-73.41667,53.3],[-73.41667,53.30833]]]}},{"type":"Feature","properties":{"c":"CDC-2661388","o":"Lithium Canuck S.A. 100%","e":""},"geometry":{"type":"Polygon","coordinates":[[[-73.41667,53.31667],[-73.40833,53.31667],[-73.40833,53.30833],[-73.41667,53.30833],[-73.41667,53.31667]]]}},{"type":"Feature","properties":{"c":"CDC-2661386","o":"Lithium Canuck S.A. 100%","e":""},"geometry":{"type":"Polygon","coordinates":[[[-73.40833,53.30833],[-73.4,53.30833],[-73.4,53.3],[-73.40833,53.3],[-73.40833,53.30833]]]}},{"type":"Feature","properties":{"c":"CDC-2661389","o":"Lithium Canuck S.A. 100%","e":""},"geometry":{"type":"Polygon","coordinates":[[[-73.40833,53.31667],[-73.4,53.31667],[-73.4,53.30833],[-73.40833,53.30833],[-73.40833,53.31667]]]}},{"type":"Feature","properties":{"c":"CDC-2661387","o":"Lithium Canuck S.A. 100%","e":""},"geometry":{"type":"Polygon","coordinates":[[[-73.4,53.30833],[-73.39167,53.30833],[-73.39167,53.3],[-73.4,53.3],[-73.4,53.30833]]]}},{"type":"Feature","properties":{"c":"CDC-2661390","o":"Lithium Canuck S.A. 100%","e":""},"geometry":{"type":"Polygon","coordinates":[[[-73.4,53.31667],[-73.39167,53.31667],[-73.39167,53.30833],[-73.4,53.30833],[-73.4,53.31667]]]}},{"type":"Feature","properties":{"c":"CDC-2661371","o":"Lithium Canuck S.A. 100%","e":""},"geometry":{"type":"Polygon","coordinates":[[[-73.50833,53.30833],[-73.5,53.30833],[-73.5,53.3],[-73.50833,53.3],[-73.50833,53.30833]]]}},{"type":"Feature","properties":{"c":"CDC-2661372","o":"Lithium Canuck S.A. 100%","e":""},"geometry":{"type":"Polygon","coordinates":[[[-73.50833,53.31667],[-73.5,53.31667],[-73.5,53.30833],[-73.50833,53.30833],[-73.50833,53.31667]]]}},{"type":"Feature","properties":{"c":"CDC-2661375","o":"Lithium Canuck S.A. 100%","e":""},"geometry":{"type":"Polygon","coordinates":[[[-73.50833,53.325],[-73.5,53.325],[-73.5,53.31667],[-73.50833,53.31667],[-73.50833,53.325]]]}},{"type":"Feature","properties":{"c":"CDC-2655986","o":"Exploration Azimut inc. 100%","e":""},"geometry":{"type":"Polygon","coordinates":[[[-73.5,53.29167],[-73.49167,53.29167],[-73.49167,53.28333],[-73.5,53.28333],[-73.5,53.29167]]]}},{"type":"Feature","properties":{"c":"CDC-2626727","o":"Exploration Azimut inc. 100%","e":""},"geometry":{"type":"Polygon","coordinates":[[[-73.5,53.3],[-73.49167,53.3],[-73.49167,53.29167],[-73.5,53.29167],[-73.5,53.3]]]}},{"type":"Feature","properties":{"c":"CDC-2625614","o":"Exploration Azimut inc. 100%","e":""},"geometry":{"type":"Polygon","coordinates":[[[-73.5,53.30833],[-73.49167,53.30833],[-73.49167,53.3],[-73.5,53.3],[-73.5,53.30833]]]}},{"type":"Feature","properties":{"c":"CDC-2625620","o":"Exploration Azimut inc. 100%","e":""},"geometry":{"type":"Polygon","coordinates":[[[-73.5,53.31667],[-73.49167,53.31667],[-73.49167,53.30833],[-73.5,53.30833],[-73.5,53.31667]]]}},{"type":"Feature","properties":{"c":"CDC-2626731","o":"Exploration Azimut inc. 100%","e":""},"geometry":{"type":"Polygon","coordinates":[[[-73.5,53.325],[-73.49167,53.325],[-73.49167,53.31667],[-73.5,53.31667],[-73.5,53.325]]]}},{"type":"Feature","properties":{"c":"CDC-2655987","o":"Exploration Azimut inc. 100%","e":""},"geometry":{"type":"Polygon","coordinates":[[[-73.49167,53.29167],[-73.48333,53.29167],[-73.48333,53.28333],[-73.49167,53.28333],[-73.49167,53.29167]]]}},{"type":"Feature","properties":{"c":"CDC-2626728","o":"Exploration Azimut inc. 100%","e":""},"geometry":{"type":"Polygon","coordinates":[[[-73.49167,53.3],[-73.48333,53.3],[-73.48333,53.29167],[-73.49167,53.29167],[-73.49167,53.3]]]}},{"type":"Feature","properties":{"c":"CDC-2625615","o":"Exploration Azimut inc. 100%","e":""},"geometry":{"type":"Polygon","coordinates":[[[-73.49167,53.30833],[-73.48333,53.30833],[-73.48333,53.3],[-73.49167,53.3],[-73.49167,53.30833]]]}},{"type":"Feature","properties":{"c":"CDC-2625621","o":"Exploration Azimut inc. 100%","e":""},"geometry":{"type":"Polygon","coordinates":[[[-73.49167,53.31667],[-73.48333,53.31667],[-73.48333,53.30833],[-73.49167,53.30833],[-73.49167,53.31667]]]}},{"type":"Feature","properties":{"c":"CDC-2626732","o":"Exploration Azimut inc. 100%","e":""},"geometry":{"type":"Polygon","coordinates":[[[-73.49167,53.325],[-73.48333,53.325],[-73.48333,53.31667],[-73.49167,53.31667],[-73.49167,53.325]]]}},{"type":"Feature","properties":{"c":"CDC-2655988","o":"Exploration Azimut inc. 100%","e":""},"geometry":{"type":"Polygon","coordinates":[[[-73.48333,53.29167],[-73.475,53.29167],[-73.475,53.28333],[-73.48333,53.28333],[-73.48333,53.29167]]]}},{"type":"Feature","properties":{"c":"CDC-2625610","o":"Exploration Azimut inc. 100%","e":""},"geometry":{"type":"Polygon","coordinates":[[[-73.48333,53.3],[-73.475,53.3],[-73.475,53.29167],[-73.48333,53.29167],[-73.48333,53.3]]]}},{"type":"Feature","properties":{"c":"CDC-2625616","o":"Exploration Azimut inc. 100%","e":""},"geometry":{"type":"Polygon","coordinates":[[[-73.48333,53.30833],[-73.475,53.30833],[-73.475,53.3],[-73.48333,53.3],[-73.48333,53.30833]]]}},{"type":"Feature","properties":{"c":"CDC-2625622","o":"Exploration Azimut inc. 100%","e":""},"geometry":{"type":"Polygon","coordinates":[[[-73.48333,53.31667],[-73.475,53.31667],[-73.475,53.30833],[-73.48333,53.30833],[-73.48333,53.31667]]]}},{"type":"Feature","properties":{"c":"CDC-2626733","o":"Exploration Azimut inc. 100%","e":""},"geometry":{"type":"Polygon","coordinates":[[[-73.48333,53.325],[-73.475,53.325],[-73.475,53.31667],[-73.48333,53.31667],[-73.48333,53.325]]]}},{"type":"Feature","properties":{"c":"CDC-2665959","o":"Lithium Canuck S.A. 100%","e":""},"geometry":{"type":"Polygon","coordinates":[[[-73.48333,53.33333],[-73.475,53.33333],[-73.475,53.325],[-73.48333,53.325],[-73.48333,53.33333]]]}},{"type":"Feature","properties":{"c":"CDC-2627099","o":"Exploration Azimut inc. 100%","e":""},"geometry":{"type":"Polygon","coordinates":[[[-73.475,53.29167],[-73.46667,53.29167],[-73.46667,53.28333],[-73.475,53.28333],[-73.475,53.29167]]]}},{"type":"Feature","properties":{"c":"CDC-2625611","o":"Exploration Azimut inc. 100%","e":""},"geometry":{"type":"Polygon","coordinates":[[[-73.475,53.3],[-73.46667,53.3],[-73.46667,53.29167],[-73.475,53.29167],[-73.475,53.3]]]}},{"type":"Feature","properties":{"c":"CDC-2625617","o":"Exploration Azimut inc. 100%","e":""},"geometry":{"type":"Polygon","coordinates":[[[-73.475,53.30833],[-73.46667,53.30833],[-73.46667,53.3],[-73.475,53.3],[-73.475,53.30833]]]}},{"type":"Feature","properties":{"c":"CDC-2625623","o":"Exploration Azimut inc. 100%","e":""},"geometry":{"type":"Polygon","coordinates":[[[-73.475,53.31667],[-73.46667,53.31667],[-73.46667,53.30833],[-73.475,53.30833],[-73.475,53.31667]]]}},{"type":"Feature","properties":{"c":"CDC-2626734","o":"Exploration Azimut inc. 100%","e":""},"geometry":{"type":"Polygon","coordinates":[[[-73.475,53.325],[-73.46667,53.325],[-73.46667,53.31667],[-73.475,53.31667],[-73.475,53.325]]]}},{"type":"Feature","properties":{"c":"CDC-2665960","o":"Lithium Canuck S.A. 100%","e":""},"geometry":{"type":"Polygon","coordinates":[[[-73.475,53.33333],[-73.46667,53.33333],[-73.46667,53.325],[-73.475,53.325],[-73.475,53.33333]]]}},{"type":"Feature","properties":{"c":"CDC-2625612","o":"Exploration Azimut inc. 100%","e":""},"geometry":{"type":"Polygon","coordinates":[[[-73.46667,53.3],[-73.45833,53.3],[-73.45833,53.29167],[-73.46667,53.29167],[-73.46667,53.3]]]}},{"type":"Feature","properties":{"c":"CDC-2625618","o":"Exploration Azimut inc. 100%","e":""},"geometry":{"type":"Polygon","coordinates":[[[-73.46667,53.30833],[-73.45833,53.30833],[-73.45833,53.3],[-73.46667,53.3],[-73.46667,53.30833]]]}},{"type":"Feature","properties":{"c":"CDC-2655979","o":"Exploration Azimut inc. 100%","e":""},"geometry":{"type":"Polygon","coordinates":[[[-73.3,53.25833],[-73.29167,53.25833],[-73.29167,53.25],[-73.3,53.25],[-73.3,53.25833]]]}},{"type":"Feature","properties":{"c":"CDC-2655980","o":"Exploration Azimut inc. 100%","e":""},"geometry":{"type":"Polygon","coordinates":[[[-73.3,53.26667],[-73.29167,53.26667],[-73.29167,53.25833],[-73.3,53.25833],[-73.3,53.26667]]]}},{"type":"Feature","properties":{"c":"CDC-2655981","o":"Exploration Azimut inc. 100%","e":""},"geometry":{"type":"Polygon","coordinates":[[[-73.3,53.275],[-73.29167,53.275],[-73.29167,53.26667],[-73.3,53.26667],[-73.3,53.275]]]}},{"type":"Feature","properties":{"c":"CDC-2625593","o":"Exploration Azimut inc. 100%","e":""},"geometry":{"type":"Polygon","coordinates":[[[-73.29167,53.25833],[-73.28333,53.25833],[-73.28333,53.25],[-73.29167,53.25],[-73.29167,53.25833]]]}},{"type":"Feature","properties":{"c":"CDC-2625596","o":"Exploration Azimut inc. 100%","e":""},"geometry":{"type":"Polygon","coordinates":[[[-73.29167,53.26667],[-73.28333,53.26667],[-73.28333,53.25833],[-73.29167,53.25833],[-73.29167,53.26667]]]}},{"type":"Feature","properties":{"c":"CDC-2655982","o":"Exploration Azimut inc. 100%","e":""},"geometry":{"type":"Polygon","coordinates":[[[-73.29167,53.275],[-73.28333,53.275],[-73.28333,53.26667],[-73.29167,53.26667],[-73.29167,53.275]]]}},{"type":"Feature","properties":{"c":"CDC-2625594","o":"Exploration Azimut inc. 100%","e":""},"geometry":{"type":"Polygon","coordinates":[[[-73.28333,53.25833],[-73.275,53.25833],[-73.275,53.25],[-73.28333,53.25],[-73.28333,53.25833]]]}},{"type":"Feature","properties":{"c":"CDC-2625597","o":"Exploration Azimut inc. 100%","e":""},"geometry":{"type":"Polygon","coordinates":[[[-73.28333,53.26667],[-73.275,53.26667],[-73.275,53.25833],[-73.28333,53.25833],[-73.28333,53.26667]]]}},{"type":"Feature","properties":{"c":"CDC-2627094","o":"Exploration Azimut inc. 100%","e":""},"geometry":{"type":"Polygon","coordinates":[[[-73.28333,53.275],[-73.275,53.275],[-73.275,53.26667],[-73.28333,53.26667],[-73.28333,53.275]]]}},{"type":"Feature","properties":{"c":"CDC-2625595","o":"Exploration Azimut inc. 100%","e":""},"geometry":{"type":"Polygon","coordinates":[[[-73.275,53.25833],[-73.26667,53.25833],[-73.26667,53.25],[-73.275,53.25],[-73.275,53.25833]]]}},{"type":"Feature","properties":{"c":"CDC-2625598","o":"Exploration Azimut inc. 100%","e":""},"geometry":{"type":"Polygon","coordinates":[[[-73.275,53.26667],[-73.26667,53.26667],[-73.26667,53.25833],[-73.275,53.25833],[-73.275,53.26667]]]}},{"type":"Feature","properties":{"c":"CDC-2627095","o":"Exploration Azimut inc. 100%","e":""},"geometry":{"type":"Polygon","coordinates":[[[-73.275,53.275],[-73.26667,53.275],[-73.26667,53.26667],[-73.275,53.26667],[-73.275,53.275]]]}},{"type":"Feature","properties":{"c":"CDC-2698812","o":"Exploration Azimut inc. 100%","e":""},"geometry":{"type":"Polygon","coordinates":[[[-73.275,53.28333],[-73.26667,53.28333],[-73.26667,53.275],[-73.275,53.275],[-73.275,53.28333]]]}},{"type":"Feature","properties":{"c":"CDC-2627092","o":"Exploration Azimut inc. 100%","e":""},"geometry":{"type":"Polygon","coordinates":[[[-73.26667,53.25833],[-73.25833,53.25833],[-73.25833,53.25],[-73.26667,53.25],[-73.26667,53.25833]]]}},{"type":"Feature","properties":{"c":"CDC-2625599","o":"Exploration Azimut inc. 100%","e":""},"geometry":{"type":"Polygon","coordinates":[[[-73.26667,53.26667],[-73.25833,53.26667],[-73.25833,53.25833],[-73.26667,53.25833],[-73.26667,53.26667]]]}},{"type":"Feature","properties":{"c":"CDC-2627096","o":"Exploration Azimut inc. 100%","e":""},"geometry":{"type":"Polygon","coordinates":[[[-73.26667,53.275],[-73.25833,53.275],[-73.25833,53.26667],[-73.26667,53.26667],[-73.26667,53.275]]]}},{"type":"Feature","properties":{"c":"CDC-2698813","o":"Exploration Azimut inc. 100%","e":""},"geometry":{"type":"Polygon","coordinates":[[[-73.26667,53.28333],[-73.25833,53.28333],[-73.25833,53.275],[-73.26667,53.275],[-73.26667,53.28333]]]}},{"type":"Feature","properties":{"c":"CDC-2625600","o":"Exploration Azimut inc. 100%","e":""},"geometry":{"type":"Polygon","coordinates":[[[-73.25833,53.26667],[-73.25,53.26667],[-73.25,53.25833],[-73.25833,53.25833],[-73.25833,53.26667]]]}},{"type":"Feature","properties":{"c":"CDC-2627097","o":"Exploration Azimut inc. 100%","e":""},"geometry":{"type":"Polygon","coordinates":[[[-73.25833,53.275],[-73.25,53.275],[-73.25,53.26667],[-73.25833,53.26667],[-73.25833,53.275]]]}},{"type":"Feature","properties":{"c":"CDC-2698814","o":"Exploration Azimut inc. 100%","e":""},"geometry":{"type":"Polygon","coordinates":[[[-73.25833,53.28333],[-73.25,53.28333],[-73.25,53.275],[-73.25833,53.275],[-73.25833,53.28333]]]}},{"type":"Feature","properties":{"c":"CDC-2625601","o":"Exploration Azimut inc. 100%","e":""},"geometry":{"type":"Polygon","coordinates":[[[-73.25,53.26667],[-73.24167,53.26667],[-73.24167,53.25833],[-73.25,53.25833],[-73.25,53.26667]]]}},{"type":"Feature","properties":{"c":"CDC-2625602","o":"Exploration Azimut inc. 100%","e":""},"geometry":{"type":"Polygon","coordinates":[[[-73.25,53.275],[-73.24167,53.275],[-73.24167,53.26667],[-73.25,53.26667],[-73.25,53.275]]]}},{"type":"Feature","properties":{"c":"CDC-2655983","o":"Exploration Azimut inc. 100%","e":""},"geometry":{"type":"Polygon","coordinates":[[[-73.25,53.28333],[-73.24167,53.28333],[-73.24167,53.275],[-73.25,53.275],[-73.25,53.28333]]]}},{"type":"Feature","properties":{"c":"CDC-2627093","o":"Exploration Azimut inc. 100%","e":""},"geometry":{"type":"Polygon","coordinates":[[[-73.24167,53.26667],[-73.23333,53.26667],[-73.23333,53.25833],[-73.24167,53.25833],[-73.24167,53.26667]]]}},{"type":"Feature","properties":{"c":"CDC-2625603","o":"Exploration Azimut inc. 100%","e":""},"geometry":{"type":"Polygon","coordinates":[[[-73.24167,53.275],[-73.23333,53.275],[-73.23333,53.26667],[-73.24167,53.26667],[-73.24167,53.275]]]}},{"type":"Feature","properties":{"c":"CDC-2655984","o":"Exploration Azimut inc. 100%","e":""},"geometry":{"type":"Polygon","coordinates":[[[-73.24167,53.28333],[-73.23333,53.28333],[-73.23333,53.275],[-73.24167,53.275],[-73.24167,53.28333]]]}},{"type":"Feature","properties":{"c":"CDC-2655985","o":"Exploration Azimut inc. 100%","e":""},"geometry":{"type":"Polygon","coordinates":[[[-73.23333,53.28333],[-73.225,53.28333],[-73.225,53.275],[-73.23333,53.275],[-73.23333,53.28333]]]}},{"type":"Feature","properties":{"c":"CDC-2662456","o":"Lithium Canuck S.A. 100%","e":""},"geometry":{"type":"Polygon","coordinates":[[[-73.45833,53.28333],[-73.45,53.28333],[-73.45,53.275],[-73.45833,53.275],[-73.45833,53.28333]]]}},{"type":"Feature","properties":{"c":"CDC-2627101","o":"Exploration Azimut inc. 100%","e":""},"geometry":{"type":"Polygon","coordinates":[[[-73.45833,53.29167],[-73.45,53.29167],[-73.45,53.28333],[-73.45833,53.28333],[-73.45833,53.29167]]]}},{"type":"Feature","properties":{"c":"CDC-2662457","o":"Lithium Canuck S.A. 100%","e":""},"geometry":{"type":"Polygon","coordinates":[[[-73.45,53.28333],[-73.44167,53.28333],[-73.44167,53.275],[-73.45,53.275],[-73.45,53.28333]]]}},{"type":"Feature","properties":{"c":"CDC-2627102","o":"Exploration Azimut inc. 100%","e":""},"geometry":{"type":"Polygon","coordinates":[[[-73.45,53.29167],[-73.44167,53.29167],[-73.44167,53.28333],[-73.45,53.28333],[-73.45,53.29167]]]}},{"type":"Feature","properties":{"c":"CDC-2669003","o":"Lithium Canuck S.A. 100%","e":""},"geometry":{"type":"Polygon","coordinates":[[[-73.44167,53.25],[-73.43333,53.25],[-73.43333,53.24167],[-73.44167,53.24167],[-73.44167,53.25]]]}},{"type":"Feature","properties":{"c":"CDC-2669013","o":"Lithium Canuck S.A. 100%","e":""},"geometry":{"type":"Polygon","coordinates":[[[-73.44167,53.25833],[-73.43333,53.25833],[-73.43333,53.25],[-73.44167,53.25],[-73.44167,53.25833]]]}},{"type":"Feature","properties":{"c":"CDC-2662458","o":"Lithium Canuck S.A. 100%","e":""},"geometry":{"type":"Polygon","coordinates":[[[-73.44167,53.28333],[-73.43333,53.28333],[-73.43333,53.275],[-73.44167,53.275],[-73.44167,53.28333]]]}},{"type":"Feature","properties":{"c":"CDC-2655989","o":"Exploration Azimut inc. 100%","e":""},"geometry":{"type":"Polygon","coordinates":[[[-73.44167,53.29167],[-73.43333,53.29167],[-73.43333,53.28333],[-73.44167,53.28333],[-73.44167,53.29167]]]}},{"type":"Feature","properties":{"c":"CDC-2669004","o":"Lithium Canuck S.A. 100%","e":""},"geometry":{"type":"Polygon","coordinates":[[[-73.43333,53.25],[-73.425,53.25],[-73.425,53.24167],[-73.43333,53.24167],[-73.43333,53.25]]]}},{"type":"Feature","properties":{"c":"CDC-2669014","o":"Lithium Canuck S.A. 100%","e":""},"geometry":{"type":"Polygon","coordinates":[[[-73.43333,53.25833],[-73.425,53.25833],[-73.425,53.25],[-73.43333,53.25],[-73.43333,53.25833]]]}},{"type":"Feature","properties":{"c":"CDC-2661380","o":"Lithium Canuck S.A. 100%","e":""},"geometry":{"type":"Polygon","coordinates":[[[-73.43333,53.29167],[-73.425,53.29167],[-73.425,53.28333],[-73.43333,53.28333],[-73.43333,53.29167]]]}},{"type":"Feature","properties":{"c":"CDC-2669005","o":"Lithium Canuck S.A. 100%","e":""},"geometry":{"type":"Polygon","coordinates":[[[-73.425,53.25],[-73.41667,53.25],[-73.41667,53.24167],[-73.425,53.24167],[-73.425,53.25]]]}},{"type":"Feature","properties":{"c":"CDC-2669015","o":"Lithium Canuck S.A. 100%","e":""},"geometry":{"type":"Polygon","coordinates":[[[-73.425,53.25833],[-73.41667,53.25833],[-73.41667,53.25],[-73.425,53.25],[-73.425,53.25833]]]}},{"type":"Feature","properties":{"c":"CDC-2669006","o":"Lithium Canuck S.A. 100%","e":""},"geometry":{"type":"Polygon","coordinates":[[[-73.41667,53.25],[-73.40833,53.25],[-73.40833,53.24167],[-73.41667,53.24167],[-73.41667,53.25]]]}},{"type":"Feature","properties":{"c":"CDC-2669016","o":"Lithium Canuck S.A. 100%","e":""},"geometry":{"type":"Polygon","coordinates":[[[-73.41667,53.25833],[-73.40833,53.25833],[-73.40833,53.25],[-73.41667,53.25],[-73.41667,53.25833]]]}},{"type":"Feature","properties":{"c":"CDC-2669007","o":"Lithium Canuck S.A. 100%","e":""},"geometry":{"type":"Polygon","coordinates":[[[-73.40833,53.25],[-73.4,53.25],[-73.4,53.24167],[-73.40833,53.24167],[-73.40833,53.25]]]}},{"type":"Feature","properties":{"c":"CDC-2669017","o":"Lithium Canuck S.A. 100%","e":""},"geometry":{"type":"Polygon","coordinates":[[[-73.40833,53.25833],[-73.4,53.25833],[-73.4,53.25],[-73.40833,53.25],[-73.40833,53.25833]]]}},{"type":"Feature","properties":{"c":"CDC-2669008","o":"Lithium Canuck S.A. 100%","e":""},"geometry":{"type":"Polygon","coordinates":[[[-73.4,53.25],[-73.39167,53.25],[-73.39167,53.24167],[-73.4,53.24167],[-73.4,53.25]]]}},{"type":"Feature","properties":{"c":"CDC-2669018","o":"Lithium Canuck S.A. 100%","e":""},"geometry":{"type":"Polygon","coordinates":[[[-73.4,53.25833],[-73.39167,53.25833],[-73.39167,53.25],[-73.4,53.25],[-73.4,53.25833]]]}},{"type":"Feature","properties":{"c":"CDC-2669009","o":"Lithium Canuck S.A. 100%","e":""},"geometry":{"type":"Polygon","coordinates":[[[-73.39167,53.25],[-73.38333,53.25],[-73.38333,53.24167],[-73.39167,53.24167],[-73.39167,53.25]]]}},{"type":"Feature","properties":{"c":"CDC-2669019","o":"Lithium Canuck S.A. 100%","e":""},"geometry":{"type":"Polygon","coordinates":[[[-73.39167,53.25833],[-73.38333,53.25833],[-73.38333,53.25],[-73.39167,53.25],[-73.39167,53.25833]]]}},{"type":"Feature","properties":{"c":"CDC-2669010","o":"Lithium Canuck S.A. 100%","e":""},"geometry":{"type":"Polygon","coordinates":[[[-73.38333,53.25],[-73.375,53.25],[-73.375,53.24167],[-73.38333,53.24167],[-73.38333,53.25]]]}},{"type":"Feature","properties":{"c":"CDC-2669020","o":"Lithium Canuck S.A. 100%","e":""},"geometry":{"type":"Polygon","coordinates":[[[-73.38333,53.25833],[-73.375,53.25833],[-73.375,53.25],[-73.38333,53.25],[-73.38333,53.25833]]]}},{"type":"Feature","properties":{"c":"CDC-2698808","o":"Exploration Azimut inc. 100%","e":""},"geometry":{"type":"Polygon","coordinates":[[[-73.30833,53.25],[-73.3,53.25],[-73.3,53.24167],[-73.30833,53.24167],[-73.30833,53.25]]]}},{"type":"Feature","properties":{"c":"CDC-2698810","o":"Exploration Azimut inc. 100%","e":""},"geometry":{"type":"Polygon","coordinates":[[[-73.30833,53.25833],[-73.3,53.25833],[-73.3,53.25],[-73.30833,53.25],[-73.30833,53.25833]]]}},{"type":"Feature","properties":{"c":"CDC-2698811","o":"Exploration Azimut inc. 100%","e":""},"geometry":{"type":"Polygon","coordinates":[[[-73.30833,53.26667],[-73.3,53.26667],[-73.3,53.25833],[-73.30833,53.25833],[-73.30833,53.26667]]]}},{"type":"Feature","properties":{"c":"CDC-2698809","o":"Exploration Azimut inc. 100%","e":""},"geometry":{"type":"Polygon","coordinates":[[[-73.3,53.25],[-73.29167,53.25],[-73.29167,53.24167],[-73.3,53.24167],[-73.3,53.25]]]}},{"type":"Feature","properties":{"c":"CDC-2662455","o":"Lithium Canuck S.A. 100%","e":""},"geometry":{"type":"Polygon","coordinates":[[[-73.46667,53.28333],[-73.45833,53.28333],[-73.45833,53.275],[-73.46667,53.275],[-73.46667,53.28333]]]}},{"type":"Feature","properties":{"c":"CDC-2662454","o":"Lithium Canuck S.A. 100%","e":""},"geometry":{"type":"Polygon","coordinates":[[[-73.475,53.28333],[-73.46667,53.28333],[-73.46667,53.275],[-73.475,53.275],[-73.475,53.28333]]]}},{"type":"Feature","properties":{"c":"CDC-2662453","o":"Lithium Canuck S.A. 100%","e":""},"geometry":{"type":"Polygon","coordinates":[[[-73.48333,53.28333],[-73.475,53.28333],[-73.475,53.275],[-73.48333,53.275],[-73.48333,53.28333]]]}},{"type":"Feature","properties":{"c":"CDC-2662452","o":"Lithium Canuck S.A. 100%","e":""},"geometry":{"type":"Polygon","coordinates":[[[-73.49167,53.28333],[-73.48333,53.28333],[-73.48333,53.275],[-73.49167,53.275],[-73.49167,53.28333]]]}},{"type":"Feature","properties":{"c":"CDC-2662451","o":"Lithium Canuck S.A. 100%","e":""},"geometry":{"type":"Polygon","coordinates":[[[-73.5,53.28333],[-73.49167,53.28333],[-73.49167,53.275],[-73.5,53.275],[-73.5,53.28333]]]}},{"type":"Feature","properties":{"c":"CDC-2627100","o":"Exploration Azimut inc. 100%","e":""},"geometry":{"type":"Polygon","coordinates":[[[-73.46667,53.29167],[-73.45833,53.29167],[-73.45833,53.28333],[-73.46667,53.28333],[-73.46667,53.29167]]]}},{"type":"Feature","properties":{"c":"CDC-2655990","o":"Exploration Azimut inc. 100%","e":""},"geometry":{"type":"Polygon","coordinates":[[[-73.23333,53.29167],[-73.225,53.29167],[-73.225,53.28333],[-73.23333,53.28333],[-73.23333,53.29167]]]}},{"type":"Feature","properties":{"c":"CDC-2627098","o":"Exploration Azimut inc. 100%","e":""},"geometry":{"type":"Polygon","coordinates":[[[-73.225,53.28333],[-73.21667,53.28333],[-73.21667,53.275],[-73.225,53.275],[-73.225,53.28333]]]}},{"type":"Feature","properties":{"c":"CDC-2627103","o":"Exploration Azimut inc. 100%","e":""},"geometry":{"type":"Polygon","coordinates":[[[-73.225,53.29167],[-73.21667,53.29167],[-73.21667,53.28333],[-73.225,53.28333],[-73.225,53.29167]]]}},{"type":"Feature","properties":{"c":"CDC-2655992","o":"Exploration Azimut inc. 100%","e":""},"geometry":{"type":"Polygon","coordinates":[[[-73.225,53.3],[-73.21667,53.3],[-73.21667,53.29167],[-73.225,53.29167],[-73.225,53.3]]]}},{"type":"Feature","properties":{"c":"CDC-2625604","o":"Exploration Azimut inc. 100%","e":""},"geometry":{"type":"Polygon","coordinates":[[[-73.21667,53.28333],[-73.20833,53.28333],[-73.20833,53.275],[-73.21667,53.275],[-73.21667,53.28333]]]}},{"type":"Feature","properties":{"c":"CDC-2625607","o":"Exploration Azimut inc. 100%","e":""},"geometry":{"type":"Polygon","coordinates":[[[-73.21667,53.29167],[-73.20833,53.29167],[-73.20833,53.28333],[-73.21667,53.28333],[-73.21667,53.29167]]]}},{"type":"Feature","properties":{"c":"CDC-2655993","o":"Exploration Azimut inc. 100%","e":""},"geometry":{"type":"Polygon","coordinates":[[[-73.21667,53.3],[-73.20833,53.3],[-73.20833,53.29167],[-73.21667,53.29167],[-73.21667,53.3]]]}},{"type":"Feature","properties":{"c":"CDC-2625605","o":"Exploration Azimut inc. 100%","e":""},"geometry":{"type":"Polygon","coordinates":[[[-73.20833,53.28333],[-73.2,53.28333],[-73.2,53.275],[-73.20833,53.275],[-73.20833,53.28333]]]}},{"type":"Feature","properties":{"c":"CDC-2625608","o":"Exploration Azimut inc. 100%","e":""},"geometry":{"type":"Polygon","coordinates":[[[-73.20833,53.29167],[-73.2,53.29167],[-73.2,53.28333],[-73.20833,53.28333],[-73.20833,53.29167]]]}},{"type":"Feature","properties":{"c":"CDC-2655994","o":"Exploration Azimut inc. 100%","e":""},"geometry":{"type":"Polygon","coordinates":[[[-73.20833,53.3],[-73.2,53.3],[-73.2,53.29167],[-73.20833,53.29167],[-73.20833,53.3]]]}},{"type":"Feature","properties":{"c":"CDC-2625606","o":"Exploration Azimut inc. 100%","e":""},"geometry":{"type":"Polygon","coordinates":[[[-73.2,53.28333],[-73.19167,53.28333],[-73.19167,53.275],[-73.2,53.275],[-73.2,53.28333]]]}},{"type":"Feature","properties":{"c":"CDC-2625609","o":"Exploration Azimut inc. 100%","e":""},"geometry":{"type":"Polygon","coordinates":[[[-73.2,53.29167],[-73.19167,53.29167],[-73.19167,53.28333],[-73.2,53.28333],[-73.2,53.29167]]]}},{"type":"Feature","properties":{"c":"CDC-2655995","o":"Exploration Azimut inc. 100%","e":""},"geometry":{"type":"Polygon","coordinates":[[[-73.2,53.3],[-73.19167,53.3],[-73.19167,53.29167],[-73.2,53.29167],[-73.2,53.3]]]}},{"type":"Feature","properties":{"c":"CDC-2664251","o":"Lithium Canuck S.A. 100%","e":""},"geometry":{"type":"Polygon","coordinates":[[[-73.14167,53.175],[-73.13333,53.175],[-73.13333,53.16667],[-73.14167,53.16667],[-73.14167,53.175]]]}},{"type":"Feature","properties":{"c":"CDC-2664263","o":"Lithium Canuck S.A. 100%","e":""},"geometry":{"type":"Polygon","coordinates":[[[-73.14167,53.18333],[-73.13333,53.18333],[-73.13333,53.175],[-73.14167,53.175],[-73.14167,53.18333]]]}},{"type":"Feature","properties":{"c":"CDC-2664252","o":"Lithium Canuck S.A. 100%","e":""},"geometry":{"type":"Polygon","coordinates":[[[-73.13333,53.175],[-73.125,53.175],[-73.125,53.16667],[-73.13333,53.16667],[-73.13333,53.175]]]}},{"type":"Feature","properties":{"c":"CDC-2664247","o":"Lithium Canuck S.A. 100%","e":""},"geometry":{"type":"Polygon","coordinates":[[[-73.125,53.16667],[-73.11667,53.16667],[-73.11667,53.15833],[-73.125,53.15833],[-73.125,53.16667]]]}},{"type":"Feature","properties":{"c":"CDC-2664253","o":"Lithium Canuck S.A. 100%","e":""},"geometry":{"type":"Polygon","coordinates":[[[-73.125,53.175],[-73.11667,53.175],[-73.11667,53.16667],[-73.125,53.16667],[-73.125,53.175]]]}},{"type":"Feature","properties":{"c":"CDC-2664248","o":"Lithium Canuck S.A. 100%","e":""},"geometry":{"type":"Polygon","coordinates":[[[-73.11667,53.16667],[-73.10833,53.16667],[-73.10833,53.15833],[-73.11667,53.15833],[-73.11667,53.16667]]]}},{"type":"Feature","properties":{"c":"CDC-2664254","o":"Lithium Canuck S.A. 100%","e":""},"geometry":{"type":"Polygon","coordinates":[[[-73.11667,53.175],[-73.10833,53.175],[-73.10833,53.16667],[-73.11667,53.16667],[-73.11667,53.175]]]}},{"type":"Feature","properties":{"c":"CDC-2664249","o":"Lithium Canuck S.A. 100%","e":""},"geometry":{"type":"Polygon","coordinates":[[[-73.10833,53.16667],[-73.1,53.16667],[-73.1,53.15833],[-73.10833,53.15833],[-73.10833,53.16667]]]}},{"type":"Feature","properties":{"c":"CDC-2664255","o":"Lithium Canuck S.A. 100%","e":""},"geometry":{"type":"Polygon","coordinates":[[[-73.10833,53.175],[-73.1,53.175],[-73.1,53.16667],[-73.10833,53.16667],[-73.10833,53.175]]]}},{"type":"Feature","properties":{"c":"CDC-2664250","o":"Lithium Canuck S.A. 100%","e":""},"geometry":{"type":"Polygon","coordinates":[[[-73.1,53.16667],[-73.09167,53.16667],[-73.09167,53.15833],[-73.1,53.15833],[-73.1,53.16667]]]}},{"type":"Feature","properties":{"c":"CDC-2664256","o":"Lithium Canuck S.A. 100%","e":""},"geometry":{"type":"Polygon","coordinates":[[[-73.1,53.175],[-73.09167,53.175],[-73.09167,53.16667],[-73.1,53.16667],[-73.1,53.175]]]}},{"type":"Feature","properties":{"c":"CDC-2664257","o":"Lithium Canuck S.A. 100%","e":""},"geometry":{"type":"Polygon","coordinates":[[[-73.09167,53.175],[-73.08333,53.175],[-73.08333,53.16667],[-73.09167,53.16667],[-73.09167,53.175]]]}},{"type":"Feature","properties":{"c":"CDC-2664258","o":"Lithium Canuck S.A. 100%","e":""},"geometry":{"type":"Polygon","coordinates":[[[-73.08333,53.175],[-73.075,53.175],[-73.075,53.16667],[-73.08333,53.16667],[-73.08333,53.175]]]}},{"type":"Feature","properties":{"c":"CDC-2664259","o":"Lithium Canuck S.A. 100%","e":""},"geometry":{"type":"Polygon","coordinates":[[[-73.075,53.175],[-73.06667,53.175],[-73.06667,53.16667],[-73.075,53.16667],[-73.075,53.175]]]}},{"type":"Feature","properties":{"c":"CDC-2853390","o":"Kal Malhi 100%","e":""},"geometry":{"type":"Polygon","coordinates":[[[-73.25833,53.46667],[-73.25,53.46667],[-73.25,53.45833],[-73.25833,53.45833],[-73.25833,53.46667]]]}},{"type":"Feature","properties":{"c":"CDC-2853389","o":"Kal Malhi 100%","e":""},"geometry":{"type":"Polygon","coordinates":[[[-73.26667,53.46667],[-73.25833,53.46667],[-73.25833,53.45833],[-73.26667,53.45833],[-73.26667,53.46667]]]}},{"type":"Feature","properties":{"c":"CDC-2853388","o":"Kal Malhi 100%","e":""},"geometry":{"type":"Polygon","coordinates":[[[-73.275,53.46667],[-73.26667,53.46667],[-73.26667,53.45833],[-73.275,53.45833],[-73.275,53.46667]]]}},{"type":"Feature","properties":{"c":"CDC-2853387","o":"Kal Malhi 100%","e":""},"geometry":{"type":"Polygon","coordinates":[[[-73.28333,53.46667],[-73.275,53.46667],[-73.275,53.45833],[-73.28333,53.45833],[-73.28333,53.46667]]]}},{"type":"Feature","properties":{"c":"CDC-2853386","o":"Kal Malhi 100%","e":""},"geometry":{"type":"Polygon","coordinates":[[[-73.3,53.46667],[-73.29167,53.46667],[-73.29167,53.45833],[-73.3,53.45833],[-73.3,53.46667]]]}},{"type":"Feature","properties":{"c":"CDC-2853385","o":"Kal Malhi 100%","e":""},"geometry":{"type":"Polygon","coordinates":[[[-73.30833,53.46667],[-73.3,53.46667],[-73.3,53.45833],[-73.30833,53.45833],[-73.30833,53.46667]]]}},{"type":"Feature","properties":{"c":"CDC-2853384","o":"Kal Malhi 100%","e":""},"geometry":{"type":"Polygon","coordinates":[[[-73.31667,53.46667],[-73.30833,53.46667],[-73.30833,53.45833],[-73.31667,53.45833],[-73.31667,53.46667]]]}},{"type":"Feature","properties":{"c":"CDC-2853383","o":"Kal Malhi 100%","e":""},"geometry":{"type":"Polygon","coordinates":[[[-73.325,53.46667],[-73.31667,53.46667],[-73.31667,53.45833],[-73.325,53.45833],[-73.325,53.46667]]]}},{"type":"Feature","properties":{"c":"CDC-2853400","o":"Kal Malhi 100%","e":""},"geometry":{"type":"Polygon","coordinates":[[[-73.24167,53.475],[-73.23333,53.475],[-73.23333,53.46667],[-73.24167,53.46667],[-73.24167,53.475]]]}},{"type":"Feature","properties":{"c":"CDC-2853399","o":"Kal Malhi 100%","e":""},"geometry":{"type":"Polygon","coordinates":[[[-73.25,53.475],[-73.24167,53.475],[-73.24167,53.46667],[-73.25,53.46667],[-73.25,53.475]]]}},{"type":"Feature","properties":{"c":"CDC-2853398","o":"Kal Malhi 100%","e":""},"geometry":{"type":"Polygon","coordinates":[[[-73.25833,53.475],[-73.25,53.475],[-73.25,53.46667],[-73.25833,53.46667],[-73.25833,53.475]]]}},{"type":"Feature","properties":{"c":"CDC-2853397","o":"Kal Malhi 100%","e":""},"geometry":{"type":"Polygon","coordinates":[[[-73.26667,53.475],[-73.25833,53.475],[-73.25833,53.46667],[-73.26667,53.46667],[-73.26667,53.475]]]}},{"type":"Feature","properties":{"c":"CDC-2853396","o":"Kal Malhi 100%","e":""},"geometry":{"type":"Polygon","coordinates":[[[-73.275,53.475],[-73.26667,53.475],[-73.26667,53.46667],[-73.275,53.46667],[-73.275,53.475]]]}},{"type":"Feature","properties":{"c":"CDC-2853395","o":"Kal Malhi 100%","e":""},"geometry":{"type":"Polygon","coordinates":[[[-73.28333,53.475],[-73.275,53.475],[-73.275,53.46667],[-73.28333,53.46667],[-73.28333,53.475]]]}},{"type":"Feature","properties":{"c":"CDC-2853394","o":"Kal Malhi 100%","e":""},"geometry":{"type":"Polygon","coordinates":[[[-73.29167,53.475],[-73.28333,53.475],[-73.28333,53.46667],[-73.29167,53.46667],[-73.29167,53.475]]]}},{"type":"Feature","properties":{"c":"CDC-2853393","o":"Kal Malhi 100%","e":""},"geometry":{"type":"Polygon","coordinates":[[[-73.3,53.475],[-73.29167,53.475],[-73.29167,53.46667],[-73.3,53.46667],[-73.3,53.475]]]}},{"type":"Feature","properties":{"c":"CDC-2853392","o":"Kal Malhi 100%","e":""},"geometry":{"type":"Polygon","coordinates":[[[-73.30833,53.475],[-73.3,53.475],[-73.3,53.46667],[-73.30833,53.46667],[-73.30833,53.475]]]}},{"type":"Feature","properties":{"c":"CDC-2853391","o":"Kal Malhi 100%","e":""},"geometry":{"type":"Polygon","coordinates":[[[-73.31667,53.475],[-73.30833,53.475],[-73.30833,53.46667],[-73.31667,53.46667],[-73.31667,53.475]]]}},{"type":"Feature","properties":{"c":"CDC-2853409","o":"Kal Malhi 100%","e":""},"geometry":{"type":"Polygon","coordinates":[[[-73.24167,53.48333],[-73.23333,53.48333],[-73.23333,53.475],[-73.24167,53.475],[-73.24167,53.48333]]]}},{"type":"Feature","properties":{"c":"CDC-2853408","o":"Kal Malhi 100%","e":""},"geometry":{"type":"Polygon","coordinates":[[[-73.25,53.48333],[-73.24167,53.48333],[-73.24167,53.475],[-73.25,53.475],[-73.25,53.48333]]]}},{"type":"Feature","properties":{"c":"CDC-2853407","o":"Kal Malhi 100%","e":""},"geometry":{"type":"Polygon","coordinates":[[[-73.25833,53.48333],[-73.25,53.48333],[-73.25,53.475],[-73.25833,53.475],[-73.25833,53.48333]]]}},{"type":"Feature","properties":{"c":"CDC-2853406","o":"Kal Malhi 100%","e":""},"geometry":{"type":"Polygon","coordinates":[[[-73.26667,53.48333],[-73.25833,53.48333],[-73.25833,53.475],[-73.26667,53.475],[-73.26667,53.48333]]]}},{"type":"Feature","properties":{"c":"CDC-2853405","o":"Kal Malhi 100%","e":""},"geometry":{"type":"Polygon","coordinates":[[[-73.275,53.48333],[-73.26667,53.48333],[-73.26667,53.475],[-73.275,53.475],[-73.275,53.48333]]]}},{"type":"Feature","properties":{"c":"CDC-2853404","o":"Kal Malhi 100%","e":""},"geometry":{"type":"Polygon","coordinates":[[[-73.28333,53.48333],[-73.275,53.48333],[-73.275,53.475],[-73.28333,53.475],[-73.28333,53.48333]]]}},{"type":"Feature","properties":{"c":"CDC-2853403","o":"Kal Malhi 100%","e":""},"geometry":{"type":"Polygon","coordinates":[[[-73.29167,53.48333],[-73.28333,53.48333],[-73.28333,53.475],[-73.29167,53.475],[-73.29167,53.48333]]]}},{"type":"Feature","properties":{"c":"CDC-2853402","o":"Kal Malhi 100%","e":""},"geometry":{"type":"Polygon","coordinates":[[[-73.3,53.48333],[-73.29167,53.48333],[-73.29167,53.475],[-73.3,53.475],[-73.3,53.48333]]]}},{"type":"Feature","properties":{"c":"CDC-2853401","o":"Kal Malhi 100%","e":""},"geometry":{"type":"Polygon","coordinates":[[[-73.30833,53.48333],[-73.3,53.48333],[-73.3,53.475],[-73.30833,53.475],[-73.30833,53.48333]]]}},{"type":"Feature","properties":{"c":"CDC-2651380","o":"Lithium Canuck S.A. 100%","e":""},"geometry":{"type":"Polygon","coordinates":[[[-73.43333,53.43333],[-73.425,53.43333],[-73.425,53.425],[-73.43333,53.425],[-73.43333,53.43333]]]}},{"type":"Feature","properties":{"c":"CDC-2651379","o":"Lithium Canuck S.A. 100%","e":""},"geometry":{"type":"Polygon","coordinates":[[[-73.44167,53.43333],[-73.43333,53.43333],[-73.43333,53.425],[-73.44167,53.425],[-73.44167,53.43333]]]}},{"type":"Feature","properties":{"c":"CDC-2660905","o":"Lithium Canuck S.A. 100%","e":""},"geometry":{"type":"Polygon","coordinates":[[[-73.45833,53.43333],[-73.45,53.43333],[-73.45,53.425],[-73.45833,53.425],[-73.45833,53.43333]]]}},{"type":"Feature","properties":{"c":"CDC-2660904","o":"Lithium Canuck S.A. 100%","e":""},"geometry":{"type":"Polygon","coordinates":[[[-73.46667,53.43333],[-73.45833,53.43333],[-73.45833,53.425],[-73.46667,53.425],[-73.46667,53.43333]]]}},{"type":"Feature","properties":{"c":"CDC-2660903","o":"Lithium Canuck S.A. 100%","e":""},"geometry":{"type":"Polygon","coordinates":[[[-73.475,53.43333],[-73.46667,53.43333],[-73.46667,53.425],[-73.475,53.425],[-73.475,53.43333]]]}},{"type":"Feature","properties":{"c":"CDC-2660902","o":"Lithium Canuck S.A. 100%","e":""},"geometry":{"type":"Polygon","coordinates":[[[-73.48333,53.43333],[-73.475,53.43333],[-73.475,53.425],[-73.48333,53.425],[-73.48333,53.43333]]]}},{"type":"Feature","properties":{"c":"CDC-2660901","o":"Lithium Canuck S.A. 100%","e":""},"geometry":{"type":"Polygon","coordinates":[[[-73.49167,53.43333],[-73.48333,53.43333],[-73.48333,53.425],[-73.49167,53.425],[-73.49167,53.43333]]]}},{"type":"Feature","properties":{"c":"CDC-2853366","o":"Kal Malhi 100%","e":""},"geometry":{"type":"Polygon","coordinates":[[[-73.31667,53.44167],[-73.30833,53.44167],[-73.30833,53.43333],[-73.31667,53.43333],[-73.31667,53.44167]]]}},{"type":"Feature","properties":{"c":"CDC-2853365","o":"Kal Malhi 100%","e":""},"geometry":{"type":"Polygon","coordinates":[[[-73.325,53.44167],[-73.31667,53.44167],[-73.31667,53.43333],[-73.325,53.43333],[-73.325,53.44167]]]}},{"type":"Feature","properties":{"c":"CDC-2651382","o":"Lithium Canuck S.A. 100%","e":""},"geometry":{"type":"Polygon","coordinates":[[[-73.425,53.44167],[-73.41667,53.44167],[-73.41667,53.43333],[-73.425,53.43333],[-73.425,53.44167]]]}},{"type":"Feature","properties":{"c":"CDC-2651381","o":"Lithium Canuck S.A. 100%","e":""},"geometry":{"type":"Polygon","coordinates":[[[-73.43333,53.44167],[-73.425,53.44167],[-73.425,53.43333],[-73.43333,53.43333],[-73.43333,53.44167]]]}},{"type":"Feature","properties":{"c":"CDC-2853374","o":"Kal Malhi 100%","e":""},"geometry":{"type":"Polygon","coordinates":[[[-73.275,53.45],[-73.26667,53.45],[-73.26667,53.44167],[-73.275,53.44167],[-73.275,53.45]]]}},{"type":"Feature","properties":{"c":"CDC-2853373","o":"Kal Malhi 100%","e":""},"geometry":{"type":"Polygon","coordinates":[[[-73.28333,53.45],[-73.275,53.45],[-73.275,53.44167],[-73.28333,53.44167],[-73.28333,53.45]]]}},{"type":"Feature","properties":{"c":"CDC-2853372","o":"Kal Malhi 100%","e":""},"geometry":{"type":"Polygon","coordinates":[[[-73.29167,53.45],[-73.28333,53.45],[-73.28333,53.44167],[-73.29167,53.44167],[-73.29167,53.45]]]}},{"type":"Feature","properties":{"c":"CDC-2853371","o":"Kal Malhi 100%","e":""},"geometry":{"type":"Polygon","coordinates":[[[-73.3,53.45],[-73.29167,53.45],[-73.29167,53.44167],[-73.3,53.44167],[-73.3,53.45]]]}},{"type":"Feature","properties":{"c":"CDC-2853370","o":"Kal Malhi 100%","e":""},"geometry":{"type":"Polygon","coordinates":[[[-73.30833,53.45],[-73.3,53.45],[-73.3,53.44167],[-73.30833,53.44167],[-73.30833,53.45]]]}},{"type":"Feature","properties":{"c":"CDC-2853369","o":"Kal Malhi 100%","e":""},"geometry":{"type":"Polygon","coordinates":[[[-73.31667,53.45],[-73.30833,53.45],[-73.30833,53.44167],[-73.31667,53.44167],[-73.31667,53.45]]]}},{"type":"Feature","properties":{"c":"CDC-2853368","o":"Kal Malhi 100%","e":""},"geometry":{"type":"Polygon","coordinates":[[[-73.325,53.45],[-73.31667,53.45],[-73.31667,53.44167],[-73.325,53.44167],[-73.325,53.45]]]}},{"type":"Feature","properties":{"c":"CDC-2853367","o":"Kal Malhi 100%","e":""},"geometry":{"type":"Polygon","coordinates":[[[-73.33333,53.45],[-73.325,53.45],[-73.325,53.44167],[-73.33333,53.44167],[-73.33333,53.45]]]}},{"type":"Feature","properties":{"c":"CDC-2853382","o":"Kal Malhi 100%","e":""},"geometry":{"type":"Polygon","coordinates":[[[-73.26667,53.45833],[-73.25833,53.45833],[-73.25833,53.45],[-73.26667,53.45],[-73.26667,53.45833]]]}},{"type":"Feature","properties":{"c":"CDC-2853381","o":"Kal Malhi 100%","e":""},"geometry":{"type":"Polygon","coordinates":[[[-73.275,53.45833],[-73.26667,53.45833],[-73.26667,53.45],[-73.275,53.45],[-73.275,53.45833]]]}},{"type":"Feature","properties":{"c":"CDC-2853380","o":"Kal Malhi 100%","e":""},"geometry":{"type":"Polygon","coordinates":[[[-73.28333,53.45833],[-73.275,53.45833],[-73.275,53.45],[-73.28333,53.45],[-73.28333,53.45833]]]}},{"type":"Feature","properties":{"c":"CDC-2853379","o":"Kal Malhi 100%","e":""},"geometry":{"type":"Polygon","coordinates":[[[-73.29167,53.45833],[-73.28333,53.45833],[-73.28333,53.45],[-73.29167,53.45],[-73.29167,53.45833]]]}},{"type":"Feature","properties":{"c":"CDC-2853378","o":"Kal Malhi 100%","e":""},"geometry":{"type":"Polygon","coordinates":[[[-73.3,53.45833],[-73.29167,53.45833],[-73.29167,53.45],[-73.3,53.45],[-73.3,53.45833]]]}},{"type":"Feature","properties":{"c":"CDC-2853377","o":"Kal Malhi 100%","e":""},"geometry":{"type":"Polygon","coordinates":[[[-73.30833,53.45833],[-73.3,53.45833],[-73.3,53.45],[-73.30833,53.45],[-73.30833,53.45833]]]}},{"type":"Feature","properties":{"c":"CDC-2853376","o":"Kal Malhi 100%","e":""},"geometry":{"type":"Polygon","coordinates":[[[-73.31667,53.45833],[-73.30833,53.45833],[-73.30833,53.45],[-73.31667,53.45],[-73.31667,53.45833]]]}},{"type":"Feature","properties":{"c":"CDC-2853375","o":"Kal Malhi 100%","e":""},"geometry":{"type":"Polygon","coordinates":[[[-73.325,53.45833],[-73.31667,53.45833],[-73.31667,53.45],[-73.325,53.45],[-73.325,53.45833]]]}},{"type":"Feature","properties":{"c":"CDC-2651361","o":"Lithium Canuck S.A. 100%","e":""},"geometry":{"type":"Polygon","coordinates":[[[-73.43333,53.4],[-73.425,53.4],[-73.425,53.39167],[-73.43333,53.39167],[-73.43333,53.4]]]}},{"type":"Feature","properties":{"c":"CDC-2651360","o":"Lithium Canuck S.A. 100%","e":""},"geometry":{"type":"Polygon","coordinates":[[[-73.44167,53.4],[-73.43333,53.4],[-73.43333,53.39167],[-73.44167,53.39167],[-73.44167,53.4]]]}},{"type":"Feature","properties":{"c":"CDC-2651359","o":"Lithium Canuck S.A. 100%","e":""},"geometry":{"type":"Polygon","coordinates":[[[-73.45,53.4],[-73.44167,53.4],[-73.44167,53.39167],[-73.45,53.39167],[-73.45,53.4]]]}},{"type":"Feature","properties":{"c":"CDC-2651358","o":"Lithium Canuck S.A. 100%","e":""},"geometry":{"type":"Polygon","coordinates":[[[-73.45833,53.4],[-73.45,53.4],[-73.45,53.39167],[-73.45833,53.39167],[-73.45833,53.4]]]}},{"type":"Feature","properties":{"c":"CDC-2651357","o":"Lithium Canuck S.A. 100%","e":""},"geometry":{"type":"Polygon","coordinates":[[[-73.46667,53.4],[-73.45833,53.4],[-73.45833,53.39167],[-73.46667,53.39167],[-73.46667,53.4]]]}},{"type":"Feature","properties":{"c":"CDC-2651369","o":"Lithium Canuck S.A. 100%","e":""},"geometry":{"type":"Polygon","coordinates":[[[-73.44167,53.40833],[-73.43333,53.40833],[-73.43333,53.4],[-73.44167,53.4],[-73.44167,53.40833]]]}},{"type":"Feature","properties":{"c":"CDC-2651368","o":"Lithium Canuck S.A. 100%","e":""},"geometry":{"type":"Polygon","coordinates":[[[-73.45,53.40833],[-73.44167,53.40833],[-73.44167,53.4],[-73.45,53.4],[-73.45,53.40833]]]}},{"type":"Feature","properties":{"c":"CDC-2651367","o":"Lithium Canuck S.A. 100%","e":""},"geometry":{"type":"Polygon","coordinates":[[[-73.45833,53.40833],[-73.45,53.40833],[-73.45,53.4],[-73.45833,53.4],[-73.45833,53.40833]]]}},{"type":"Feature","properties":{"c":"CDC-2651366","o":"Lithium Canuck S.A. 100%","e":""},"geometry":{"type":"Polygon","coordinates":[[[-73.46667,53.40833],[-73.45833,53.40833],[-73.45833,53.4],[-73.46667,53.4],[-73.46667,53.40833]]]}},{"type":"Feature","properties":{"c":"CDC-2651365","o":"Lithium Canuck S.A. 100%","e":""},"geometry":{"type":"Polygon","coordinates":[[[-73.475,53.40833],[-73.46667,53.40833],[-73.46667,53.4],[-73.475,53.4],[-73.475,53.40833]]]}},{"type":"Feature","properties":{"c":"CDC-2651364","o":"Lithium Canuck S.A. 100%","e":""},"geometry":{"type":"Polygon","coordinates":[[[-73.48333,53.40833],[-73.475,53.40833],[-73.475,53.4],[-73.48333,53.4],[-73.48333,53.40833]]]}},{"type":"Feature","properties":{"c":"CDC-2668261","o":"Lithium Canuck S.A. 100%","e":""},"geometry":{"type":"Polygon","coordinates":[[[-73.49167,53.40833],[-73.48333,53.40833],[-73.48333,53.4],[-73.49167,53.4],[-73.49167,53.40833]]]}},{"type":"Feature","properties":{"c":"CDC-2681439","o":"Lithium Canuck S.A. 100%","e":""},"geometry":{"type":"Polygon","coordinates":[[[-73.5,53.40833],[-73.49167,53.40833],[-73.49167,53.4],[-73.5,53.4],[-73.5,53.40833]]]}},{"type":"Feature","properties":{"c":"CDC-2651374","o":"Lithium Canuck S.A. 100%","e":""},"geometry":{"type":"Polygon","coordinates":[[[-73.44167,53.41667],[-73.43333,53.41667],[-73.43333,53.40833],[-73.44167,53.40833],[-73.44167,53.41667]]]}},{"type":"Feature","properties":{"c":"CDC-2651373","o":"Lithium Canuck S.A. 100%","e":""},"geometry":{"type":"Polygon","coordinates":[[[-73.45,53.41667],[-73.44167,53.41667],[-73.44167,53.40833],[-73.45,53.40833],[-73.45,53.41667]]]}},{"type":"Feature","properties":{"c":"CDC-2651372","o":"Lithium Canuck S.A. 100%","e":""},"geometry":{"type":"Polygon","coordinates":[[[-73.45833,53.41667],[-73.45,53.41667],[-73.45,53.40833],[-73.45833,53.40833],[-73.45833,53.41667]]]}},{"type":"Feature","properties":{"c":"CDC-2651371","o":"Lithium Canuck S.A. 100%","e":""},"geometry":{"type":"Polygon","coordinates":[[[-73.46667,53.41667],[-73.45833,53.41667],[-73.45833,53.40833],[-73.46667,53.40833],[-73.46667,53.41667]]]}},{"type":"Feature","properties":{"c":"CDC-2651370","o":"Lithium Canuck S.A. 100%","e":""},"geometry":{"type":"Polygon","coordinates":[[[-73.475,53.41667],[-73.46667,53.41667],[-73.46667,53.40833],[-73.475,53.40833],[-73.475,53.41667]]]}},{"type":"Feature","properties":{"c":"CDC-2668262","o":"Lithium Canuck S.A. 100%","e":""},"geometry":{"type":"Polygon","coordinates":[[[-73.49167,53.41667],[-73.48333,53.41667],[-73.48333,53.40833],[-73.49167,53.40833],[-73.49167,53.41667]]]}},{"type":"Feature","properties":{"c":"CDC-2660899","o":"Lithium Canuck S.A. 100%","e":""},"geometry":{"type":"Polygon","coordinates":[[[-73.5,53.41667],[-73.49167,53.41667],[-73.49167,53.40833],[-73.5,53.40833],[-73.5,53.41667]]]}},{"type":"Feature","properties":{"c":"CDC-2651378","o":"Lithium Canuck S.A. 100%","e":""},"geometry":{"type":"Polygon","coordinates":[[[-73.43333,53.425],[-73.425,53.425],[-73.425,53.41667],[-73.43333,53.41667],[-73.43333,53.425]]]}},{"type":"Feature","properties":{"c":"CDC-2651377","o":"Lithium Canuck S.A. 100%","e":""},"geometry":{"type":"Polygon","coordinates":[[[-73.44167,53.425],[-73.43333,53.425],[-73.43333,53.41667],[-73.44167,53.41667],[-73.44167,53.425]]]}},{"type":"Feature","properties":{"c":"CDC-2651376","o":"Lithium Canuck S.A. 100%","e":""},"geometry":{"type":"Polygon","coordinates":[[[-73.45,53.425],[-73.44167,53.425],[-73.44167,53.41667],[-73.45,53.41667],[-73.45,53.425]]]}},{"type":"Feature","properties":{"c":"CDC-2651375","o":"Lithium Canuck S.A. 100%","e":""},"geometry":{"type":"Polygon","coordinates":[[[-73.45833,53.425],[-73.45,53.425],[-73.45,53.41667],[-73.45833,53.41667],[-73.45833,53.425]]]}},{"type":"Feature","properties":{"c":"CDC-2660900","o":"Lithium Canuck S.A. 100%","e":""},"geometry":{"type":"Polygon","coordinates":[[[-73.48333,53.425],[-73.475,53.425],[-73.475,53.41667],[-73.48333,53.41667],[-73.48333,53.425]]]}},{"type":"Feature","properties":{"c":"CDC-2652587","o":"Lithium Canuck S.A. 100%","e":""},"geometry":{"type":"Polygon","coordinates":[[[-73.49167,53.425],[-73.48333,53.425],[-73.48333,53.41667],[-73.49167,53.41667],[-73.49167,53.425]]]}},{"type":"Feature","properties":{"c":"CDC-2652586","o":"Lithium Canuck S.A. 100%","e":""},"geometry":{"type":"Polygon","coordinates":[[[-73.5,53.425],[-73.49167,53.425],[-73.49167,53.41667],[-73.5,53.41667],[-73.5,53.425]]]}},{"type":"Feature","properties":{"c":"CDC-2652579","o":"Lithium Canuck S.A. 100%","e":""},"geometry":{"type":"Polygon","coordinates":[[[-73.50833,53.41667],[-73.5,53.41667],[-73.5,53.40833],[-73.50833,53.40833],[-73.50833,53.41667]]]}},{"type":"Feature","properties":{"c":"CDC-2652585","o":"Lithium Canuck S.A. 100%","e":""},"geometry":{"type":"Polygon","coordinates":[[[-73.50833,53.425],[-73.5,53.425],[-73.5,53.41667],[-73.50833,53.41667],[-73.50833,53.425]]]}},{"type":"Feature","properties":{"c":"CDC-2669422","o":"Lithium Canuck S.A. 100%","e":""},"geometry":{"type":"Polygon","coordinates":[[[-73.5,53.14167],[-73.49167,53.14167],[-73.49167,53.13333],[-73.5,53.13333],[-73.5,53.14167]]]}},{"type":"Feature","properties":{"c":"CDC-2669441","o":"Lithium Canuck S.A. 100%","e":""},"geometry":{"type":"Polygon","coordinates":[[[-73.50833,53.14167],[-73.5,53.14167],[-73.5,53.13333],[-73.50833,53.13333],[-73.50833,53.14167]]]}},{"type":"Feature","properties":{"c":"CDC-2669427","o":"Lithium Canuck S.A. 100%","e":""},"geometry":{"type":"Polygon","coordinates":[[[-73.48333,53.15],[-73.475,53.15],[-73.475,53.14167],[-73.48333,53.14167],[-73.48333,53.15]]]}},{"type":"Feature","properties":{"c":"CDC-2669426","o":"Lithium Canuck S.A. 100%","e":""},"geometry":{"type":"Polygon","coordinates":[[[-73.49167,53.15],[-73.48333,53.15],[-73.48333,53.14167],[-73.49167,53.14167],[-73.49167,53.15]]]}},{"type":"Feature","properties":{"c":"CDC-2669425","o":"Lithium Canuck S.A. 100%","e":""},"geometry":{"type":"Polygon","coordinates":[[[-73.5,53.15],[-73.49167,53.15],[-73.49167,53.14167],[-73.5,53.14167],[-73.5,53.15]]]}},{"type":"Feature","properties":{"c":"CDC-2669434","o":"Lithium Canuck S.A. 100%","e":""},"geometry":{"type":"Polygon","coordinates":[[[-73.50833,53.13333],[-73.5,53.13333],[-73.5,53.125],[-73.50833,53.125],[-73.50833,53.13333]]]}},{"type":"Feature","properties":{"c":"CDC-2669419","o":"Lithium Canuck S.A. 100%","e":""},"geometry":{"type":"Polygon","coordinates":[[[-73.5,53.13333],[-73.49167,53.13333],[-73.49167,53.125],[-73.5,53.125],[-73.5,53.13333]]]}},{"type":"Feature","properties":{"c":"CDC-2669420","o":"Lithium Canuck S.A. 100%","e":""},"geometry":{"type":"Polygon","coordinates":[[[-73.49167,53.13333],[-73.48333,53.13333],[-73.48333,53.125],[-73.49167,53.125],[-73.49167,53.13333]]]}},{"type":"Feature","properties":{"c":"CDC-2669423","o":"Lithium Canuck S.A. 100%","e":""},"geometry":{"type":"Polygon","coordinates":[[[-73.49167,53.14167],[-73.48333,53.14167],[-73.48333,53.13333],[-73.49167,53.13333],[-73.49167,53.14167]]]}},{"type":"Feature","properties":{"c":"CDC-2669421","o":"Lithium Canuck S.A. 100%","e":""},"geometry":{"type":"Polygon","coordinates":[[[-73.48333,53.13333],[-73.475,53.13333],[-73.475,53.125],[-73.48333,53.125],[-73.48333,53.13333]]]}},{"type":"Feature","properties":{"c":"CDC-2669424","o":"Lithium Canuck S.A. 100%","e":""},"geometry":{"type":"Polygon","coordinates":[[[-73.48333,53.14167],[-73.475,53.14167],[-73.475,53.13333],[-73.48333,53.13333],[-73.48333,53.14167]]]}}]}