{"type":"FeatureCollection","features":[{"type":"Feature","properties":{"c":"CDC-2391375","o":"Canadian Royalties Inc. 100%","e":""},"geometry":{"type":"Polygon","coordinates":[[[-73.5,61.48333],[-73.5,61.475],[-73.50833,61.475],[-73.50833,61.48333],[-73.5,61.48333]]]}},{"type":"Feature","properties":{"c":"CDC-2559035","o":"9414-5349 Qu\u00e9bec inc. 100%","e":""},"geometry":{"type":"Polygon","coordinates":[[[-73.50833,61.48333],[-73.50833,61.475],[-73.51667,61.475],[-73.51667,61.48333],[-73.50833,61.48333]]]}},{"type":"Feature","properties":{"c":"CDC-2559034","o":"9414-5349 Qu\u00e9bec inc. 100%","e":""},"geometry":{"type":"Polygon","coordinates":[[[-73.51667,61.48333],[-73.51667,61.475],[-73.525,61.475],[-73.525,61.48333],[-73.51667,61.48333]]]}},{"type":"Feature","properties":{"c":"CDC-2559033","o":"9414-5349 Qu\u00e9bec inc. 100%","e":""},"geometry":{"type":"Polygon","coordinates":[[[-73.525,61.48333],[-73.525,61.475],[-73.53333,61.475],[-73.53333,61.48333],[-73.525,61.48333]]]}},{"type":"Feature","properties":{"c":"CDC-2559032","o":"9414-5349 Qu\u00e9bec inc. 100%","e":""},"geometry":{"type":"Polygon","coordinates":[[[-73.53333,61.48333],[-73.53333,61.475],[-73.54167,61.475],[-73.54167,61.48333],[-73.53333,61.48333]]]}},{"type":"Feature","properties":{"c":"CDC-2559031","o":"9414-5349 Qu\u00e9bec inc. 100%","e":""},"geometry":{"type":"Polygon","coordinates":[[[-73.54167,61.48333],[-73.54167,61.475],[-73.55,61.475],[-73.55,61.48333],[-73.54167,61.48333]]]}},{"type":"Feature","properties":{"c":"CDC-2559047","o":"9414-5349 Qu\u00e9bec inc. 100%","e":""},"geometry":{"type":"Polygon","coordinates":[[[-73.5,61.49167],[-73.5,61.48333],[-73.50833,61.48333],[-73.50833,61.49167],[-73.5,61.49167]]]}},{"type":"Feature","properties":{"c":"CDC-2559046","o":"9414-5349 Qu\u00e9bec inc. 100%","e":""},"geometry":{"type":"Polygon","coordinates":[[[-73.50833,61.49167],[-73.50833,61.48333],[-73.51667,61.48333],[-73.51667,61.49167],[-73.50833,61.49167]]]}},{"type":"Feature","properties":{"c":"CDC-2559045","o":"9414-5349 Qu\u00e9bec inc. 100%","e":""},"geometry":{"type":"Polygon","coordinates":[[[-73.51667,61.49167],[-73.51667,61.48333],[-73.525,61.48333],[-73.525,61.49167],[-73.51667,61.49167]]]}},{"type":"Feature","properties":{"c":"CDC-2559044","o":"9414-5349 Qu\u00e9bec inc. 100%","e":""},"geometry":{"type":"Polygon","coordinates":[[[-73.525,61.49167],[-73.525,61.48333],[-73.53333,61.48333],[-73.53333,61.49167],[-73.525,61.49167]]]}},{"type":"Feature","properties":{"c":"CDC-2559043","o":"9414-5349 Qu\u00e9bec inc. 100%","e":""},"geometry":{"type":"Polygon","coordinates":[[[-73.53333,61.49167],[-73.53333,61.48333],[-73.54167,61.48333],[-73.54167,61.49167],[-73.53333,61.49167]]]}},{"type":"Feature","properties":{"c":"CDC-2559042","o":"9414-5349 Qu\u00e9bec inc. 100%","e":""},"geometry":{"type":"Polygon","coordinates":[[[-73.54167,61.49167],[-73.54167,61.48333],[-73.55,61.48333],[-73.55,61.49167],[-73.54167,61.49167]]]}},{"type":"Feature","properties":{"c":"CDC-2559058","o":"9414-5349 Qu\u00e9bec inc. 100%","e":""},"geometry":{"type":"Polygon","coordinates":[[[-73.5,61.5],[-73.5,61.49167],[-73.50833,61.49167],[-73.50833,61.5],[-73.5,61.5]]]}},{"type":"Feature","properties":{"c":"CDC-2559057","o":"9414-5349 Qu\u00e9bec inc. 100%","e":""},"geometry":{"type":"Polygon","coordinates":[[[-73.50833,61.5],[-73.50833,61.49167],[-73.51667,61.49167],[-73.51667,61.5],[-73.50833,61.5]]]}},{"type":"Feature","properties":{"c":"CDC-2559056","o":"9414-5349 Qu\u00e9bec inc. 100%","e":""},"geometry":{"type":"Polygon","coordinates":[[[-73.51667,61.5],[-73.51667,61.49167],[-73.525,61.49167],[-73.525,61.5],[-73.51667,61.5]]]}},{"type":"Feature","properties":{"c":"CDC-2559055","o":"9414-5349 Qu\u00e9bec inc. 100%","e":""},"geometry":{"type":"Polygon","coordinates":[[[-73.525,61.5],[-73.525,61.49167],[-73.53333,61.49167],[-73.53333,61.5],[-73.525,61.5]]]}},{"type":"Feature","properties":{"c":"CDC-2559054","o":"9414-5349 Qu\u00e9bec inc. 100%","e":""},"geometry":{"type":"Polygon","coordinates":[[[-73.53333,61.5],[-73.53333,61.49167],[-73.54167,61.49167],[-73.54167,61.5],[-73.53333,61.5]]]}},{"type":"Feature","properties":{"c":"CDC-2559053","o":"9414-5349 Qu\u00e9bec inc. 100%","e":""},"geometry":{"type":"Polygon","coordinates":[[[-73.54167,61.5],[-73.54167,61.49167],[-73.55,61.49167],[-73.55,61.5],[-73.54167,61.5]]]}},{"type":"Feature","properties":{"c":"CDC-2559018","o":"9414-5349 Qu\u00e9bec inc. 100%","e":""},"geometry":{"type":"Polygon","coordinates":[[[-73.54167,61.475],[-73.54167,61.46667],[-73.55,61.46667],[-73.55,61.475],[-73.54167,61.475]]]}},{"type":"Feature","properties":{"c":"CDC-2561905","o":"9414-5349 Qu\u00e9bec inc. 100%","e":""},"geometry":{"type":"Polygon","coordinates":[[[-73.54167,61.45833],[-73.53333,61.45833],[-73.53333,61.45062],[-73.54167,61.45375],[-73.54167,61.45833]]]}},{"type":"Feature","properties":{"c":"CDC-2559004","o":"9414-5349 Qu\u00e9bec inc. 100%","e":""},"geometry":{"type":"Polygon","coordinates":[[[-73.53333,61.46667],[-73.53333,61.45833],[-73.54167,61.45833],[-73.54167,61.46667],[-73.53333,61.46667]]]}},{"type":"Feature","properties":{"c":"CDC-2559019","o":"9414-5349 Qu\u00e9bec inc. 100%","e":""},"geometry":{"type":"Polygon","coordinates":[[[-73.53333,61.475],[-73.53333,61.46667],[-73.54167,61.46667],[-73.54167,61.475],[-73.53333,61.475]]]}},{"type":"Feature","properties":{"c":"CDC-2561906","o":"9414-5349 Qu\u00e9bec inc. 100%","e":""},"geometry":{"type":"Polygon","coordinates":[[[-73.53333,61.45833],[-73.525,61.45833],[-73.525,61.45],[-73.53168,61.45],[-73.53333,61.45062],[-73.53333,61.45833]]]}},{"type":"Feature","properties":{"c":"CDC-2559005","o":"9414-5349 Qu\u00e9bec inc. 100%","e":""},"geometry":{"type":"Polygon","coordinates":[[[-73.525,61.46667],[-73.525,61.45833],[-73.53333,61.45833],[-73.53333,61.46667],[-73.525,61.46667]]]}},{"type":"Feature","properties":{"c":"CDC-2561900","o":"9414-5349 Qu\u00e9bec inc. 100%","e":""},"geometry":{"type":"Polygon","coordinates":[[[-73.525,61.45],[-73.525,61.44802],[-73.52803,61.44863],[-73.53168,61.45],[-73.525,61.45]]]}},{"type":"Feature","properties":{"c":"CDC-2559020","o":"9414-5349 Qu\u00e9bec inc. 100%","e":""},"geometry":{"type":"Polygon","coordinates":[[[-73.525,61.475],[-73.525,61.46667],[-73.53333,61.46667],[-73.53333,61.475],[-73.525,61.475]]]}},{"type":"Feature","properties":{"c":"CDC-2561901","o":"9414-5349 Qu\u00e9bec inc. 100%","e":""},"geometry":{"type":"Polygon","coordinates":[[[-73.51667,61.45],[-73.51667,61.44633],[-73.525,61.44802],[-73.525,61.45],[-73.51667,61.45]]]}},{"type":"Feature","properties":{"c":"CDC-2559000","o":"9414-5349 Qu\u00e9bec inc. 100%","e":""},"geometry":{"type":"Polygon","coordinates":[[[-73.51667,61.45833],[-73.51667,61.45],[-73.525,61.45],[-73.525,61.45833],[-73.51667,61.45833]]]}},{"type":"Feature","properties":{"c":"CDC-2559006","o":"9414-5349 Qu\u00e9bec inc. 100%","e":""},"geometry":{"type":"Polygon","coordinates":[[[-73.51667,61.46667],[-73.51667,61.45833],[-73.525,61.45833],[-73.525,61.46667],[-73.51667,61.46667]]]}},{"type":"Feature","properties":{"c":"CDC-2559021","o":"9414-5349 Qu\u00e9bec inc. 100%","e":""},"geometry":{"type":"Polygon","coordinates":[[[-73.51667,61.475],[-73.51667,61.46667],[-73.525,61.46667],[-73.525,61.475],[-73.51667,61.475]]]}},{"type":"Feature","properties":{"c":"CDC-2561902","o":"9414-5349 Qu\u00e9bec inc. 100%","e":""},"geometry":{"type":"Polygon","coordinates":[[[-73.50833,61.45],[-73.50833,61.44465],[-73.51667,61.44633],[-73.51667,61.45],[-73.50833,61.45]]]}},{"type":"Feature","properties":{"c":"CDC-2559001","o":"9414-5349 Qu\u00e9bec inc. 100%","e":""},"geometry":{"type":"Polygon","coordinates":[[[-73.50833,61.45833],[-73.50833,61.45],[-73.51667,61.45],[-73.51667,61.45833],[-73.50833,61.45833]]]}},{"type":"Feature","properties":{"c":"CDC-2559007","o":"9414-5349 Qu\u00e9bec inc. 100%","e":""},"geometry":{"type":"Polygon","coordinates":[[[-73.50833,61.46667],[-73.50833,61.45833],[-73.51667,61.45833],[-73.51667,61.46667],[-73.50833,61.46667]]]}},{"type":"Feature","properties":{"c":"CDC-2559022","o":"9414-5349 Qu\u00e9bec inc. 100%","e":""},"geometry":{"type":"Polygon","coordinates":[[[-73.50833,61.475],[-73.50833,61.46667],[-73.51667,61.46667],[-73.51667,61.475],[-73.50833,61.475]]]}},{"type":"Feature","properties":{"c":"CDC-2561903","o":"9414-5349 Qu\u00e9bec inc. 100%","e":""},"geometry":{"type":"Polygon","coordinates":[[[-73.5,61.45],[-73.5,61.44191],[-73.50175,61.44252],[-73.50653,61.44428],[-73.50705,61.44439],[-73.50833,61.44465],[-73.50833,61.45],[-73.5,61.45]]]}},{"type":"Feature","properties":{"c":"CDC-2559002","o":"9414-5349 Qu\u00e9bec inc. 100%","e":""},"geometry":{"type":"Polygon","coordinates":[[[-73.5,61.45833],[-73.5,61.45],[-73.50833,61.45],[-73.50833,61.45833],[-73.5,61.45833]]]}},{"type":"Feature","properties":{"c":"CDC-2559008","o":"9414-5349 Qu\u00e9bec inc. 100%","e":""},"geometry":{"type":"Polygon","coordinates":[[[-73.5,61.46667],[-73.5,61.45833],[-73.50833,61.45833],[-73.50833,61.46667],[-73.5,61.46667]]]}},{"type":"Feature","properties":{"c":"CDC-2559023","o":"9414-5349 Qu\u00e9bec inc. 100%","e":""},"geometry":{"type":"Polygon","coordinates":[[[-73.5,61.475],[-73.5,61.46667],[-73.50833,61.46667],[-73.50833,61.475],[-73.5,61.475]]]}},{"type":"Feature","properties":{"c":"CDC-1125428","o":"Exploration Nunavik Lt\u00e9e 100%","e":""},"geometry":{"type":"Polygon","coordinates":[[[-73.58333,61.49167],[-73.58333,61.48333],[-73.59167,61.48333],[-73.59167,61.49167],[-73.58333,61.49167]]]}},{"type":"Feature","properties":{"c":"CDC-1125431","o":"Exploration Nunavik Lt\u00e9e 100%","e":""},"geometry":{"type":"Polygon","coordinates":[[[-73.58333,61.5],[-73.58333,61.49167],[-73.59167,61.49167],[-73.59167,61.5],[-73.58333,61.5]]]}},{"type":"Feature","properties":{"c":"CDC-1125429","o":"Exploration Nunavik Lt\u00e9e 100%","e":""},"geometry":{"type":"Polygon","coordinates":[[[-73.575,61.49167],[-73.575,61.48333],[-73.58333,61.48333],[-73.58333,61.49167],[-73.575,61.49167]]]}},{"type":"Feature","properties":{"c":"CDC-1125432","o":"Exploration Nunavik Lt\u00e9e 100%","e":""},"geometry":{"type":"Polygon","coordinates":[[[-73.575,61.5],[-73.575,61.49167],[-73.58333,61.49167],[-73.58333,61.5],[-73.575,61.5]]]}},{"type":"Feature","properties":{"c":"CDC-2559039","o":"9414-5349 Qu\u00e9bec inc. 100%","e":""},"geometry":{"type":"Polygon","coordinates":[[[-73.56667,61.49167],[-73.56667,61.48333],[-73.575,61.48333],[-73.575,61.49167],[-73.56667,61.49167]]]}},{"type":"Feature","properties":{"c":"CDC-2559050","o":"9414-5349 Qu\u00e9bec inc. 100%","e":""},"geometry":{"type":"Polygon","coordinates":[[[-73.56667,61.5],[-73.56667,61.49167],[-73.575,61.49167],[-73.575,61.5],[-73.56667,61.5]]]}},{"type":"Feature","properties":{"c":"CDC-2559040","o":"9414-5349 Qu\u00e9bec inc. 100%","e":""},"geometry":{"type":"Polygon","coordinates":[[[-73.55833,61.49167],[-73.55833,61.48333],[-73.56667,61.48333],[-73.56667,61.49167],[-73.55833,61.49167]]]}},{"type":"Feature","properties":{"c":"CDC-2559051","o":"9414-5349 Qu\u00e9bec inc. 100%","e":""},"geometry":{"type":"Polygon","coordinates":[[[-73.55833,61.5],[-73.55833,61.49167],[-73.56667,61.49167],[-73.56667,61.5],[-73.55833,61.5]]]}},{"type":"Feature","properties":{"c":"CDC-2559041","o":"9414-5349 Qu\u00e9bec inc. 100%","e":""},"geometry":{"type":"Polygon","coordinates":[[[-73.55,61.49167],[-73.55,61.48333],[-73.55833,61.48333],[-73.55833,61.49167],[-73.55,61.49167]]]}},{"type":"Feature","properties":{"c":"CDC-2559052","o":"9414-5349 Qu\u00e9bec inc. 100%","e":""},"geometry":{"type":"Polygon","coordinates":[[[-73.55,61.5],[-73.55,61.49167],[-73.55833,61.49167],[-73.55833,61.5],[-73.55,61.5]]]}},{"type":"Feature","properties":{"c":"CDC-2561904","o":"9414-5349 Qu\u00e9bec inc. 100%","e":""},"geometry":{"type":"Polygon","coordinates":[[[-73.54167,61.45833],[-73.54167,61.45375],[-73.55,61.45688],[-73.55,61.45833],[-73.54167,61.45833]]]}},{"type":"Feature","properties":{"c":"CDC-2559003","o":"9414-5349 Qu\u00e9bec inc. 100%","e":""},"geometry":{"type":"Polygon","coordinates":[[[-73.54167,61.46667],[-73.54167,61.45833],[-73.55,61.45833],[-73.55,61.46667],[-73.54167,61.46667]]]}},{"type":"Feature","properties":{"c":"CDC-2561916","o":"9414-5349 Qu\u00e9bec inc. 100%","e":""},"geometry":{"type":"Polygon","coordinates":[[[-73.55833,61.46667],[-73.55,61.46667],[-73.55,61.45833],[-73.55387,61.45833],[-73.55498,61.45875],[-73.55833,61.45877],[-73.55833,61.46667]]]}},{"type":"Feature","properties":{"c":"CDC-2561915","o":"9414-5349 Qu\u00e9bec inc. 100%","e":""},"geometry":{"type":"Polygon","coordinates":[[[-73.56667,61.45883],[-73.56667,61.46667],[-73.55833,61.46667],[-73.55833,61.45877],[-73.56667,61.45883]]]}},{"type":"Feature","properties":{"c":"CDC-2561914","o":"9414-5349 Qu\u00e9bec inc. 100%","e":""},"geometry":{"type":"Polygon","coordinates":[[[-73.575,61.46667],[-73.56667,61.46667],[-73.56667,61.45883],[-73.575,61.45889],[-73.575,61.46667]]]}},{"type":"Feature","properties":{"c":"CDC-2561913","o":"9414-5349 Qu\u00e9bec inc. 100%","e":""},"geometry":{"type":"Polygon","coordinates":[[[-73.58333,61.45895],[-73.58333,61.46667],[-73.575,61.46667],[-73.575,61.45889],[-73.58333,61.45895]]]}},{"type":"Feature","properties":{"c":"CDC-2561912","o":"9414-5349 Qu\u00e9bec inc. 100%","e":""},"geometry":{"type":"Polygon","coordinates":[[[-73.59167,61.46667],[-73.58333,61.46667],[-73.58333,61.45895],[-73.59167,61.45901],[-73.59167,61.46667]]]}},{"type":"Feature","properties":{"c":"CDC-2561911","o":"9414-5349 Qu\u00e9bec inc. 100%","e":""},"geometry":{"type":"Polygon","coordinates":[[[-73.6,61.46667],[-73.59167,61.46667],[-73.59167,61.45901],[-73.6,61.45907],[-73.6,61.46667]]]}},{"type":"Feature","properties":{"c":"CDC-2561910","o":"9414-5349 Qu\u00e9bec inc. 100%","e":""},"geometry":{"type":"Polygon","coordinates":[[[-73.60833,61.46667],[-73.6,61.46667],[-73.6,61.45907],[-73.60833,61.45913],[-73.60833,61.46667]]]}},{"type":"Feature","properties":{"c":"CDC-2561909","o":"9414-5349 Qu\u00e9bec inc. 100%","e":""},"geometry":{"type":"Polygon","coordinates":[[[-73.61667,61.46667],[-73.60833,61.46667],[-73.60833,61.45913],[-73.61667,61.45918],[-73.61667,61.46667]]]}},{"type":"Feature","properties":{"c":"CDC-2561908","o":"9414-5349 Qu\u00e9bec inc. 100%","e":""},"geometry":{"type":"Polygon","coordinates":[[[-73.625,61.46667],[-73.61667,61.46667],[-73.61667,61.45918],[-73.625,61.45924],[-73.625,61.46667]]]}},{"type":"Feature","properties":{"c":"CDC-2561907","o":"9414-5349 Qu\u00e9bec inc. 100%","e":""},"geometry":{"type":"Polygon","coordinates":[[[-73.63333,61.4593],[-73.63333,61.46667],[-73.625,61.46667],[-73.625,61.45924],[-73.63333,61.4593]]]}},{"type":"Feature","properties":{"c":"CDC-2559017","o":"9414-5349 Qu\u00e9bec inc. 100%","e":""},"geometry":{"type":"Polygon","coordinates":[[[-73.55,61.475],[-73.55,61.46667],[-73.55833,61.46667],[-73.55833,61.475],[-73.55,61.475]]]}},{"type":"Feature","properties":{"c":"CDC-2559016","o":"9414-5349 Qu\u00e9bec inc. 100%","e":""},"geometry":{"type":"Polygon","coordinates":[[[-73.55833,61.475],[-73.55833,61.46667],[-73.56667,61.46667],[-73.56667,61.475],[-73.55833,61.475]]]}},{"type":"Feature","properties":{"c":"CDC-2559015","o":"9414-5349 Qu\u00e9bec inc. 100%","e":""},"geometry":{"type":"Polygon","coordinates":[[[-73.56667,61.475],[-73.56667,61.46667],[-73.575,61.46667],[-73.575,61.475],[-73.56667,61.475]]]}},{"type":"Feature","properties":{"c":"CDC-2559014","o":"9414-5349 Qu\u00e9bec inc. 100%","e":""},"geometry":{"type":"Polygon","coordinates":[[[-73.575,61.475],[-73.575,61.46667],[-73.58333,61.46667],[-73.58333,61.475],[-73.575,61.475]]]}},{"type":"Feature","properties":{"c":"CDC-2559013","o":"9414-5349 Qu\u00e9bec inc. 100%","e":""},"geometry":{"type":"Polygon","coordinates":[[[-73.58333,61.475],[-73.58333,61.46667],[-73.59167,61.46667],[-73.59167,61.475],[-73.58333,61.475]]]}},{"type":"Feature","properties":{"c":"CDC-2559012","o":"9414-5349 Qu\u00e9bec inc. 100%","e":""},"geometry":{"type":"Polygon","coordinates":[[[-73.59167,61.475],[-73.59167,61.46667],[-73.6,61.46667],[-73.6,61.475],[-73.59167,61.475]]]}},{"type":"Feature","properties":{"c":"CDC-2559011","o":"9414-5349 Qu\u00e9bec inc. 100%","e":""},"geometry":{"type":"Polygon","coordinates":[[[-73.6,61.475],[-73.6,61.46667],[-73.60833,61.46667],[-73.60833,61.475],[-73.6,61.475]]]}},{"type":"Feature","properties":{"c":"CDC-2559010","o":"9414-5349 Qu\u00e9bec inc. 100%","e":""},"geometry":{"type":"Polygon","coordinates":[[[-73.60833,61.475],[-73.60833,61.46667],[-73.61667,61.46667],[-73.61667,61.475],[-73.60833,61.475]]]}},{"type":"Feature","properties":{"c":"CDC-2559009","o":"9414-5349 Qu\u00e9bec inc. 100%","e":""},"geometry":{"type":"Polygon","coordinates":[[[-73.61667,61.475],[-73.61667,61.46667],[-73.625,61.46667],[-73.625,61.475],[-73.61667,61.475]]]}},{"type":"Feature","properties":{"c":"CDC-2558702","o":"9414-5349 Qu\u00e9bec inc. 100%","e":""},"geometry":{"type":"Polygon","coordinates":[[[-73.625,61.475],[-73.625,61.46667],[-73.63333,61.46667],[-73.63333,61.475],[-73.625,61.475]]]}},{"type":"Feature","properties":{"c":"CDC-2559030","o":"9414-5349 Qu\u00e9bec inc. 100%","e":""},"geometry":{"type":"Polygon","coordinates":[[[-73.55,61.48333],[-73.55,61.475],[-73.55833,61.475],[-73.55833,61.48333],[-73.55,61.48333]]]}},{"type":"Feature","properties":{"c":"CDC-2559029","o":"9414-5349 Qu\u00e9bec inc. 100%","e":""},"geometry":{"type":"Polygon","coordinates":[[[-73.55833,61.48333],[-73.55833,61.475],[-73.56667,61.475],[-73.56667,61.48333],[-73.55833,61.48333]]]}},{"type":"Feature","properties":{"c":"CDC-2559028","o":"9414-5349 Qu\u00e9bec inc. 100%","e":""},"geometry":{"type":"Polygon","coordinates":[[[-73.56667,61.48333],[-73.56667,61.475],[-73.575,61.475],[-73.575,61.48333],[-73.56667,61.48333]]]}},{"type":"Feature","properties":{"c":"CDC-2559027","o":"9414-5349 Qu\u00e9bec inc. 100%","e":""},"geometry":{"type":"Polygon","coordinates":[[[-73.575,61.48333],[-73.575,61.475],[-73.58333,61.475],[-73.58333,61.48333],[-73.575,61.48333]]]}},{"type":"Feature","properties":{"c":"CDC-2413033","o":"Canadian Royalties Inc. 100%","e":""},"geometry":{"type":"Polygon","coordinates":[[[-73.58333,61.48333],[-73.58333,61.475],[-73.59167,61.475],[-73.59167,61.48333],[-73.58333,61.48333]]]}},{"type":"Feature","properties":{"c":"CDC-2558715","o":"9414-5349 Qu\u00e9bec inc. 100%","e":""},"geometry":{"type":"Polygon","coordinates":[[[-73.625,61.48333],[-73.625,61.475],[-73.63333,61.475],[-73.63333,61.48333],[-73.625,61.48333]]]}},{"type":"Feature","properties":{"c":"CDC-2558722","o":"9414-5349 Qu\u00e9bec inc. 100%","e":""},"geometry":{"type":"Polygon","coordinates":[[[-73.625,61.49167],[-73.625,61.48333],[-73.63333,61.48333],[-73.63333,61.49167],[-73.625,61.49167]]]}},{"type":"Feature","properties":{"c":"CDC-2558727","o":"9414-5349 Qu\u00e9bec inc. 100%","e":""},"geometry":{"type":"Polygon","coordinates":[[[-73.625,61.5],[-73.625,61.49167],[-73.63333,61.49167],[-73.63333,61.5],[-73.625,61.5]]]}},{"type":"Feature","properties":{"c":"CDC-2559024","o":"9414-5349 Qu\u00e9bec inc. 100%","e":""},"geometry":{"type":"Polygon","coordinates":[[[-73.61667,61.48333],[-73.61667,61.475],[-73.625,61.475],[-73.625,61.48333],[-73.61667,61.48333]]]}},{"type":"Feature","properties":{"c":"CDC-2559036","o":"9414-5349 Qu\u00e9bec inc. 100%","e":""},"geometry":{"type":"Polygon","coordinates":[[[-73.61667,61.49167],[-73.61667,61.48333],[-73.625,61.48333],[-73.625,61.49167],[-73.61667,61.49167]]]}},{"type":"Feature","properties":{"c":"CDC-2559048","o":"9414-5349 Qu\u00e9bec inc. 100%","e":""},"geometry":{"type":"Polygon","coordinates":[[[-73.61667,61.5],[-73.61667,61.49167],[-73.625,61.49167],[-73.625,61.5],[-73.61667,61.5]]]}},{"type":"Feature","properties":{"c":"CDC-2559025","o":"9414-5349 Qu\u00e9bec inc. 100%","e":""},"geometry":{"type":"Polygon","coordinates":[[[-73.60833,61.48333],[-73.60833,61.475],[-73.61667,61.475],[-73.61667,61.48333],[-73.60833,61.48333]]]}},{"type":"Feature","properties":{"c":"CDC-2559037","o":"9414-5349 Qu\u00e9bec inc. 100%","e":""},"geometry":{"type":"Polygon","coordinates":[[[-73.60833,61.49167],[-73.60833,61.48333],[-73.61667,61.48333],[-73.61667,61.49167],[-73.60833,61.49167]]]}},{"type":"Feature","properties":{"c":"CDC-2559049","o":"9414-5349 Qu\u00e9bec inc. 100%","e":""},"geometry":{"type":"Polygon","coordinates":[[[-73.60833,61.5],[-73.60833,61.49167],[-73.61667,61.49167],[-73.61667,61.5],[-73.60833,61.5]]]}},{"type":"Feature","properties":{"c":"CDC-2559026","o":"9414-5349 Qu\u00e9bec inc. 100%","e":""},"geometry":{"type":"Polygon","coordinates":[[[-73.6,61.48333],[-73.6,61.475],[-73.60833,61.475],[-73.60833,61.48333],[-73.6,61.48333]]]}},{"type":"Feature","properties":{"c":"CDC-2559038","o":"9414-5349 Qu\u00e9bec inc. 100%","e":""},"geometry":{"type":"Polygon","coordinates":[[[-73.6,61.49167],[-73.6,61.48333],[-73.60833,61.48333],[-73.60833,61.49167],[-73.6,61.49167]]]}},{"type":"Feature","properties":{"c":"CDC-2413056","o":"Canadian Royalties Inc. 100%","e":""},"geometry":{"type":"Polygon","coordinates":[[[-73.6,61.5],[-73.6,61.49167],[-73.60833,61.49167],[-73.60833,61.5],[-73.6,61.5]]]}},{"type":"Feature","properties":{"c":"CDC-2413032","o":"Canadian Royalties Inc. 100%","e":""},"geometry":{"type":"Polygon","coordinates":[[[-73.59167,61.48333],[-73.59167,61.475],[-73.6,61.475],[-73.6,61.48333],[-73.59167,61.48333]]]}},{"type":"Feature","properties":{"c":"CDC-2413039","o":"Canadian Royalties Inc. 100%","e":""},"geometry":{"type":"Polygon","coordinates":[[[-73.59167,61.49167],[-73.59167,61.48333],[-73.6,61.48333],[-73.6,61.49167],[-73.59167,61.49167]]]}},{"type":"Feature","properties":{"c":"CDC-1125430","o":"Exploration Nunavik Lt\u00e9e 100%","e":""},"geometry":{"type":"Polygon","coordinates":[[[-73.59167,61.5],[-73.59167,61.49167],[-73.6,61.49167],[-73.6,61.5],[-73.59167,61.5]]]}},{"type":"Feature","properties":{"c":"CDC-2558716","o":"9414-5349 Qu\u00e9bec inc. 100%","e":""},"geometry":{"type":"Polygon","coordinates":[[[-73.675,61.49167],[-73.675,61.48333],[-73.68333,61.48333],[-73.68333,61.49167],[-73.675,61.49167]]]}},{"type":"Feature","properties":{"c":"CDC-1005968","o":"Canadian Royalties Inc. 100%","e":""},"geometry":{"type":"Polygon","coordinates":[[[-73.675,61.5],[-73.675,61.49167],[-73.68333,61.49167],[-73.68333,61.5],[-73.675,61.5]]]}},{"type":"Feature","properties":{"c":"CDC-2558687","o":"9414-5349 Qu\u00e9bec inc. 100%","e":""},"geometry":{"type":"Polygon","coordinates":[[[-73.66667,61.46667],[-73.66667,61.45833],[-73.675,61.45833],[-73.675,61.46667],[-73.66667,61.46667]]]}},{"type":"Feature","properties":{"c":"CDC-2558697","o":"9414-5349 Qu\u00e9bec inc. 100%","e":""},"geometry":{"type":"Polygon","coordinates":[[[-73.66667,61.475],[-73.66667,61.46667],[-73.675,61.46667],[-73.675,61.475],[-73.66667,61.475]]]}},{"type":"Feature","properties":{"c":"CDC-2558710","o":"9414-5349 Qu\u00e9bec inc. 100%","e":""},"geometry":{"type":"Polygon","coordinates":[[[-73.66667,61.48333],[-73.66667,61.475],[-73.675,61.475],[-73.675,61.48333],[-73.66667,61.48333]]]}},{"type":"Feature","properties":{"c":"CDC-2558717","o":"9414-5349 Qu\u00e9bec inc. 100%","e":""},"geometry":{"type":"Polygon","coordinates":[[[-73.66667,61.49167],[-73.66667,61.48333],[-73.675,61.48333],[-73.675,61.49167],[-73.66667,61.49167]]]}},{"type":"Feature","properties":{"c":"CDC-1005969","o":"Canadian Royalties Inc. 100%","e":""},"geometry":{"type":"Polygon","coordinates":[[[-73.66667,61.5],[-73.66667,61.49167],[-73.675,61.49167],[-73.675,61.5],[-73.66667,61.5]]]}},{"type":"Feature","properties":{"c":"CDC-2558688","o":"9414-5349 Qu\u00e9bec inc. 100%","e":""},"geometry":{"type":"Polygon","coordinates":[[[-73.65833,61.46667],[-73.65833,61.45833],[-73.66667,61.45833],[-73.66667,61.46667],[-73.65833,61.46667]]]}},{"type":"Feature","properties":{"c":"CDC-2558698","o":"9414-5349 Qu\u00e9bec inc. 100%","e":""},"geometry":{"type":"Polygon","coordinates":[[[-73.65833,61.475],[-73.65833,61.46667],[-73.66667,61.46667],[-73.66667,61.475],[-73.65833,61.475]]]}},{"type":"Feature","properties":{"c":"CDC-2558711","o":"9414-5349 Qu\u00e9bec inc. 100%","e":""},"geometry":{"type":"Polygon","coordinates":[[[-73.65833,61.48333],[-73.65833,61.475],[-73.66667,61.475],[-73.66667,61.48333],[-73.65833,61.48333]]]}},{"type":"Feature","properties":{"c":"CDC-2558718","o":"9414-5349 Qu\u00e9bec inc. 100%","e":""},"geometry":{"type":"Polygon","coordinates":[[[-73.65833,61.49167],[-73.65833,61.48333],[-73.66667,61.48333],[-73.66667,61.49167],[-73.65833,61.49167]]]}},{"type":"Feature","properties":{"c":"CDC-2558723","o":"9414-5349 Qu\u00e9bec inc. 100%","e":""},"geometry":{"type":"Polygon","coordinates":[[[-73.65833,61.5],[-73.65833,61.49167],[-73.66667,61.49167],[-73.66667,61.5],[-73.65833,61.5]]]}},{"type":"Feature","properties":{"c":"CDC-2558689","o":"9414-5349 Qu\u00e9bec inc. 100%","e":""},"geometry":{"type":"Polygon","coordinates":[[[-73.65,61.46667],[-73.65,61.45833],[-73.65833,61.45833],[-73.65833,61.46667],[-73.65,61.46667]]]}},{"type":"Feature","properties":{"c":"CDC-2558699","o":"9414-5349 Qu\u00e9bec inc. 100%","e":""},"geometry":{"type":"Polygon","coordinates":[[[-73.65,61.475],[-73.65,61.46667],[-73.65833,61.46667],[-73.65833,61.475],[-73.65,61.475]]]}},{"type":"Feature","properties":{"c":"CDC-2558712","o":"9414-5349 Qu\u00e9bec inc. 100%","e":""},"geometry":{"type":"Polygon","coordinates":[[[-73.65,61.48333],[-73.65,61.475],[-73.65833,61.475],[-73.65833,61.48333],[-73.65,61.48333]]]}},{"type":"Feature","properties":{"c":"CDC-2558719","o":"9414-5349 Qu\u00e9bec inc. 100%","e":""},"geometry":{"type":"Polygon","coordinates":[[[-73.65,61.49167],[-73.65,61.48333],[-73.65833,61.48333],[-73.65833,61.49167],[-73.65,61.49167]]]}},{"type":"Feature","properties":{"c":"CDC-2558724","o":"9414-5349 Qu\u00e9bec inc. 100%","e":""},"geometry":{"type":"Polygon","coordinates":[[[-73.65,61.5],[-73.65,61.49167],[-73.65833,61.49167],[-73.65833,61.5],[-73.65,61.5]]]}},{"type":"Feature","properties":{"c":"CDC-2561933","o":"9414-5349 Qu\u00e9bec inc. 100%","e":""},"geometry":{"type":"Polygon","coordinates":[[[-73.64805,61.45833],[-73.65,61.45833],[-73.65,61.46667],[-73.64167,61.46667],[-73.64167,61.45878],[-73.64805,61.45833]]]}},{"type":"Feature","properties":{"c":"CDC-2558700","o":"9414-5349 Qu\u00e9bec inc. 100%","e":""},"geometry":{"type":"Polygon","coordinates":[[[-73.64167,61.475],[-73.64167,61.46667],[-73.65,61.46667],[-73.65,61.475],[-73.64167,61.475]]]}},{"type":"Feature","properties":{"c":"CDC-2558713","o":"9414-5349 Qu\u00e9bec inc. 100%","e":""},"geometry":{"type":"Polygon","coordinates":[[[-73.64167,61.48333],[-73.64167,61.475],[-73.65,61.475],[-73.65,61.48333],[-73.64167,61.48333]]]}},{"type":"Feature","properties":{"c":"CDC-2558720","o":"9414-5349 Qu\u00e9bec inc. 100%","e":""},"geometry":{"type":"Polygon","coordinates":[[[-73.64167,61.49167],[-73.64167,61.48333],[-73.65,61.48333],[-73.65,61.49167],[-73.64167,61.49167]]]}},{"type":"Feature","properties":{"c":"CDC-2558725","o":"9414-5349 Qu\u00e9bec inc. 100%","e":""},"geometry":{"type":"Polygon","coordinates":[[[-73.64167,61.5],[-73.64167,61.49167],[-73.65,61.49167],[-73.65,61.5],[-73.64167,61.5]]]}},{"type":"Feature","properties":{"c":"CDC-2561934","o":"9414-5349 Qu\u00e9bec inc. 100%","e":""},"geometry":{"type":"Polygon","coordinates":[[[-73.64167,61.46667],[-73.63333,61.46667],[-73.63333,61.4593],[-73.63431,61.4593],[-73.64167,61.45878],[-73.64167,61.46667]]]}},{"type":"Feature","properties":{"c":"CDC-2558701","o":"9414-5349 Qu\u00e9bec inc. 100%","e":""},"geometry":{"type":"Polygon","coordinates":[[[-73.63333,61.475],[-73.63333,61.46667],[-73.64167,61.46667],[-73.64167,61.475],[-73.63333,61.475]]]}},{"type":"Feature","properties":{"c":"CDC-2558714","o":"9414-5349 Qu\u00e9bec inc. 100%","e":""},"geometry":{"type":"Polygon","coordinates":[[[-73.63333,61.48333],[-73.63333,61.475],[-73.64167,61.475],[-73.64167,61.48333],[-73.63333,61.48333]]]}},{"type":"Feature","properties":{"c":"CDC-2558721","o":"9414-5349 Qu\u00e9bec inc. 100%","e":""},"geometry":{"type":"Polygon","coordinates":[[[-73.63333,61.49167],[-73.63333,61.48333],[-73.64167,61.48333],[-73.64167,61.49167],[-73.63333,61.49167]]]}},{"type":"Feature","properties":{"c":"CDC-2558726","o":"9414-5349 Qu\u00e9bec inc. 100%","e":""},"geometry":{"type":"Polygon","coordinates":[[[-73.63333,61.5],[-73.63333,61.49167],[-73.64167,61.49167],[-73.64167,61.5],[-73.63333,61.5]]]}},{"type":"Feature","properties":{"c":"CDC-1005966","o":"Canadian Royalties Inc. 100%","e":""},"geometry":{"type":"Polygon","coordinates":[[[-73.69167,61.5],[-73.69167,61.49167],[-73.7,61.49167],[-73.7,61.5],[-73.69167,61.5]]]}},{"type":"Feature","properties":{"c":"CDC-1005965","o":"Canadian Royalties Inc. 100%","e":""},"geometry":{"type":"Polygon","coordinates":[[[-73.7,61.5],[-73.7,61.49167],[-73.70833,61.49167],[-73.70833,61.5],[-73.7,61.5]]]}},{"type":"Feature","properties":{"c":"CDC-1005964","o":"Canadian Royalties Inc. 100%","e":""},"geometry":{"type":"Polygon","coordinates":[[[-73.70833,61.5],[-73.70833,61.49167],[-73.71667,61.49167],[-73.71667,61.5],[-73.70833,61.5]]]}},{"type":"Feature","properties":{"c":"CDC-1005963","o":"Canadian Royalties Inc. 100%","e":""},"geometry":{"type":"Polygon","coordinates":[[[-73.71667,61.5],[-73.71667,61.49167],[-73.725,61.49167],[-73.725,61.5],[-73.71667,61.5]]]}},{"type":"Feature","properties":{"c":"CDC-1005962","o":"Canadian Royalties Inc. 100%","e":""},"geometry":{"type":"Polygon","coordinates":[[[-73.725,61.5],[-73.725,61.49167],[-73.73333,61.49167],[-73.73333,61.5],[-73.725,61.5]]]}},{"type":"Feature","properties":{"c":"CDC-2558590","o":"9414-5349 Qu\u00e9bec inc. 100%","e":""},"geometry":{"type":"Polygon","coordinates":[[[-73.875,61.49167],[-73.875,61.48333],[-73.88333,61.48333],[-73.88333,61.49167],[-73.875,61.49167]]]}},{"type":"Feature","properties":{"c":"CDC-2558589","o":"9414-5349 Qu\u00e9bec inc. 100%","e":""},"geometry":{"type":"Polygon","coordinates":[[[-73.88333,61.49167],[-73.88333,61.48333],[-73.89167,61.48333],[-73.89167,61.49167],[-73.88333,61.49167]]]}},{"type":"Feature","properties":{"c":"CDC-2558588","o":"9414-5349 Qu\u00e9bec inc. 100%","e":""},"geometry":{"type":"Polygon","coordinates":[[[-73.89167,61.49167],[-73.89167,61.48333],[-73.9,61.48333],[-73.9,61.49167],[-73.89167,61.49167]]]}},{"type":"Feature","properties":{"c":"CDC-2558587","o":"9414-5349 Qu\u00e9bec inc. 100%","e":""},"geometry":{"type":"Polygon","coordinates":[[[-73.9,61.49167],[-73.9,61.48333],[-73.90833,61.48333],[-73.90833,61.49167],[-73.9,61.49167]]]}},{"type":"Feature","properties":{"c":"CDC-2558586","o":"9414-5349 Qu\u00e9bec inc. 100%","e":""},"geometry":{"type":"Polygon","coordinates":[[[-73.90833,61.49167],[-73.90833,61.48333],[-73.91667,61.48333],[-73.91667,61.49167],[-73.90833,61.49167]]]}},{"type":"Feature","properties":{"c":"CDC-2558585","o":"9414-5349 Qu\u00e9bec inc. 100%","e":""},"geometry":{"type":"Polygon","coordinates":[[[-73.91667,61.49167],[-73.91667,61.48333],[-73.925,61.48333],[-73.925,61.49167],[-73.91667,61.49167]]]}},{"type":"Feature","properties":{"c":"CDC-2558584","o":"9414-5349 Qu\u00e9bec inc. 100%","e":""},"geometry":{"type":"Polygon","coordinates":[[[-73.925,61.49167],[-73.925,61.48333],[-73.93333,61.48333],[-73.93333,61.49167],[-73.925,61.49167]]]}},{"type":"Feature","properties":{"c":"CDC-2558609","o":"9414-5349 Qu\u00e9bec inc. 100%","e":""},"geometry":{"type":"Polygon","coordinates":[[[-73.85833,61.5],[-73.85833,61.49167],[-73.86667,61.49167],[-73.86667,61.5],[-73.85833,61.5]]]}},{"type":"Feature","properties":{"c":"CDC-2558608","o":"9414-5349 Qu\u00e9bec inc. 100%","e":""},"geometry":{"type":"Polygon","coordinates":[[[-73.86667,61.5],[-73.86667,61.49167],[-73.875,61.49167],[-73.875,61.5],[-73.86667,61.5]]]}},{"type":"Feature","properties":{"c":"CDC-2558607","o":"9414-5349 Qu\u00e9bec inc. 100%","e":""},"geometry":{"type":"Polygon","coordinates":[[[-73.875,61.5],[-73.875,61.49167],[-73.88333,61.49167],[-73.88333,61.5],[-73.875,61.5]]]}},{"type":"Feature","properties":{"c":"CDC-2558606","o":"9414-5349 Qu\u00e9bec inc. 100%","e":""},"geometry":{"type":"Polygon","coordinates":[[[-73.88333,61.5],[-73.88333,61.49167],[-73.89167,61.49167],[-73.89167,61.5],[-73.88333,61.5]]]}},{"type":"Feature","properties":{"c":"CDC-2558605","o":"9414-5349 Qu\u00e9bec inc. 100%","e":""},"geometry":{"type":"Polygon","coordinates":[[[-73.89167,61.5],[-73.89167,61.49167],[-73.9,61.49167],[-73.9,61.5],[-73.89167,61.5]]]}},{"type":"Feature","properties":{"c":"CDC-2558604","o":"9414-5349 Qu\u00e9bec inc. 100%","e":""},"geometry":{"type":"Polygon","coordinates":[[[-73.9,61.5],[-73.9,61.49167],[-73.90833,61.49167],[-73.90833,61.5],[-73.9,61.5]]]}},{"type":"Feature","properties":{"c":"CDC-2558603","o":"9414-5349 Qu\u00e9bec inc. 100%","e":""},"geometry":{"type":"Polygon","coordinates":[[[-73.90833,61.5],[-73.90833,61.49167],[-73.91667,61.49167],[-73.91667,61.5],[-73.90833,61.5]]]}},{"type":"Feature","properties":{"c":"CDC-2558602","o":"9414-5349 Qu\u00e9bec inc. 100%","e":""},"geometry":{"type":"Polygon","coordinates":[[[-73.91667,61.5],[-73.91667,61.49167],[-73.925,61.49167],[-73.925,61.5],[-73.91667,61.5]]]}},{"type":"Feature","properties":{"c":"CDC-2558601","o":"9414-5349 Qu\u00e9bec inc. 100%","e":""},"geometry":{"type":"Polygon","coordinates":[[[-73.925,61.5],[-73.925,61.49167],[-73.93333,61.49167],[-73.93333,61.5],[-73.925,61.5]]]}},{"type":"Feature","properties":{"c":"CDC-2558600","o":"Canadian Royalties Inc. 100%","e":""},"geometry":{"type":"Polygon","coordinates":[[[-73.93333,61.5],[-73.93333,61.49167],[-73.94167,61.49167],[-73.94167,61.5],[-73.93333,61.5]]]}},{"type":"Feature","properties":{"c":"CDC-1005934","o":"Canadian Royalties Inc. 100%","e":""},"geometry":{"type":"Polygon","coordinates":[[[-73.81667,61.49167],[-73.81667,61.48333],[-73.825,61.48333],[-73.825,61.49167],[-73.81667,61.49167]]]}},{"type":"Feature","properties":{"c":"CDC-1005933","o":"Canadian Royalties Inc. 100%","e":""},"geometry":{"type":"Polygon","coordinates":[[[-73.825,61.49167],[-73.825,61.48333],[-73.83333,61.48333],[-73.83333,61.49167],[-73.825,61.49167]]]}},{"type":"Feature","properties":{"c":"CDC-1005932","o":"Canadian Royalties Inc. 100%","e":""},"geometry":{"type":"Polygon","coordinates":[[[-73.83333,61.49167],[-73.83333,61.48333],[-73.84167,61.48333],[-73.84167,61.49167],[-73.83333,61.49167]]]}},{"type":"Feature","properties":{"c":"CDC-1005931","o":"Canadian Royalties Inc. 100%","e":""},"geometry":{"type":"Polygon","coordinates":[[[-73.84167,61.49167],[-73.84167,61.48333],[-73.85,61.48333],[-73.85,61.49167],[-73.84167,61.49167]]]}},{"type":"Feature","properties":{"c":"CDC-1005930","o":"Canadian Royalties Inc. 100%","e":""},"geometry":{"type":"Polygon","coordinates":[[[-73.85,61.49167],[-73.85,61.48333],[-73.85833,61.48333],[-73.85833,61.49167],[-73.85,61.49167]]]}},{"type":"Feature","properties":{"c":"CDC-1005954","o":"Canadian Royalties Inc. 100%","e":""},"geometry":{"type":"Polygon","coordinates":[[[-73.79167,61.5],[-73.79167,61.49167],[-73.8,61.49167],[-73.8,61.5],[-73.79167,61.5]]]}},{"type":"Feature","properties":{"c":"CDC-1005953","o":"Canadian Royalties Inc. 100%","e":""},"geometry":{"type":"Polygon","coordinates":[[[-73.8,61.5],[-73.8,61.49167],[-73.80833,61.49167],[-73.80833,61.5],[-73.8,61.5]]]}},{"type":"Feature","properties":{"c":"CDC-1005952","o":"Canadian Royalties Inc. 100%","e":""},"geometry":{"type":"Polygon","coordinates":[[[-73.80833,61.5],[-73.80833,61.49167],[-73.81667,61.49167],[-73.81667,61.5],[-73.80833,61.5]]]}},{"type":"Feature","properties":{"c":"CDC-1005951","o":"Canadian Royalties Inc. 100%","e":""},"geometry":{"type":"Polygon","coordinates":[[[-73.81667,61.5],[-73.81667,61.49167],[-73.825,61.49167],[-73.825,61.5],[-73.81667,61.5]]]}},{"type":"Feature","properties":{"c":"CDC-1005950","o":"Canadian Royalties Inc. 100%","e":""},"geometry":{"type":"Polygon","coordinates":[[[-73.825,61.5],[-73.825,61.49167],[-73.83333,61.49167],[-73.83333,61.5],[-73.825,61.5]]]}},{"type":"Feature","properties":{"c":"CDC-1005949","o":"Canadian Royalties Inc. 100%","e":""},"geometry":{"type":"Polygon","coordinates":[[[-73.83333,61.5],[-73.83333,61.49167],[-73.84167,61.49167],[-73.84167,61.5],[-73.83333,61.5]]]}},{"type":"Feature","properties":{"c":"CDC-1005948","o":"Canadian Royalties Inc. 100%","e":""},"geometry":{"type":"Polygon","coordinates":[[[-73.84167,61.5],[-73.84167,61.49167],[-73.85,61.49167],[-73.85,61.5],[-73.84167,61.5]]]}},{"type":"Feature","properties":{"c":"CDC-1005947","o":"Canadian Royalties Inc. 100%","e":""},"geometry":{"type":"Polygon","coordinates":[[[-73.85,61.5],[-73.85,61.49167],[-73.85833,61.49167],[-73.85833,61.5],[-73.85,61.5]]]}},{"type":"Feature","properties":{"c":"CDC-2558437","o":"9414-5349 Qu\u00e9bec inc. 100%","e":""},"geometry":{"type":"Polygon","coordinates":[[[-74.0,61.49167],[-74.0,61.48333],[-74.00833,61.48333],[-74.00833,61.49167],[-74.0,61.49167]]]}},{"type":"Feature","properties":{"c":"CDC-1005939","o":"Canadian Royalties Inc. 100%","e":""},"geometry":{"type":"Polygon","coordinates":[[[-73.775,61.49167],[-73.775,61.48333],[-73.78333,61.48333],[-73.78333,61.49167],[-73.775,61.49167]]]}},{"type":"Feature","properties":{"c":"CDC-1005938","o":"Canadian Royalties Inc. 100%","e":""},"geometry":{"type":"Polygon","coordinates":[[[-73.78333,61.49167],[-73.78333,61.48333],[-73.79167,61.48333],[-73.79167,61.49167],[-73.78333,61.49167]]]}},{"type":"Feature","properties":{"c":"CDC-1005961","o":"Canadian Royalties Inc. 100%","e":""},"geometry":{"type":"Polygon","coordinates":[[[-73.73333,61.5],[-73.73333,61.49167],[-73.74167,61.49167],[-73.74167,61.5],[-73.73333,61.5]]]}},{"type":"Feature","properties":{"c":"CDC-1005960","o":"Canadian Royalties Inc. 100%","e":""},"geometry":{"type":"Polygon","coordinates":[[[-73.74167,61.5],[-73.74167,61.49167],[-73.75,61.49167],[-73.75,61.5],[-73.74167,61.5]]]}},{"type":"Feature","properties":{"c":"CDC-1005959","o":"Canadian Royalties Inc. 100%","e":""},"geometry":{"type":"Polygon","coordinates":[[[-73.75,61.5],[-73.75,61.49167],[-73.75833,61.49167],[-73.75833,61.5],[-73.75,61.5]]]}},{"type":"Feature","properties":{"c":"CDC-1005958","o":"Canadian Royalties Inc. 100%","e":""},"geometry":{"type":"Polygon","coordinates":[[[-73.75833,61.5],[-73.75833,61.49167],[-73.76667,61.49167],[-73.76667,61.5],[-73.75833,61.5]]]}},{"type":"Feature","properties":{"c":"CDC-1005957","o":"Canadian Royalties Inc. 100%","e":""},"geometry":{"type":"Polygon","coordinates":[[[-73.76667,61.5],[-73.76667,61.49167],[-73.775,61.49167],[-73.775,61.5],[-73.76667,61.5]]]}},{"type":"Feature","properties":{"c":"CDC-1005956","o":"Canadian Royalties Inc. 100%","e":""},"geometry":{"type":"Polygon","coordinates":[[[-73.775,61.5],[-73.775,61.49167],[-73.78333,61.49167],[-73.78333,61.5],[-73.775,61.5]]]}},{"type":"Feature","properties":{"c":"CDC-1005955","o":"Canadian Royalties Inc. 100%","e":""},"geometry":{"type":"Polygon","coordinates":[[[-73.78333,61.5],[-73.78333,61.49167],[-73.79167,61.49167],[-73.79167,61.5],[-73.78333,61.5]]]}},{"type":"Feature","properties":{"c":"CDC-2558567","o":"9414-5349 Qu\u00e9bec inc. 100%","e":""},"geometry":{"type":"Polygon","coordinates":[[[-73.98333,61.48333],[-73.98333,61.475],[-73.99167,61.475],[-73.99167,61.48333],[-73.98333,61.48333]]]}},{"type":"Feature","properties":{"c":"CDC-2558566","o":"9414-5349 Qu\u00e9bec inc. 100%","e":""},"geometry":{"type":"Polygon","coordinates":[[[-73.99167,61.48333],[-73.99167,61.475],[-74.0,61.475],[-74.0,61.48333],[-73.99167,61.48333]]]}},{"type":"Feature","properties":{"c":"CDC-2558583","o":"9414-5349 Qu\u00e9bec inc. 100%","e":""},"geometry":{"type":"Polygon","coordinates":[[[-73.93333,61.49167],[-73.93333,61.48333],[-73.94167,61.48333],[-73.94167,61.49167],[-73.93333,61.49167]]]}},{"type":"Feature","properties":{"c":"CDC-2558582","o":"9414-5349 Qu\u00e9bec inc. 100%","e":""},"geometry":{"type":"Polygon","coordinates":[[[-73.94167,61.49167],[-73.94167,61.48333],[-73.95,61.48333],[-73.95,61.49167],[-73.94167,61.49167]]]}},{"type":"Feature","properties":{"c":"CDC-2558581","o":"9414-5349 Qu\u00e9bec inc. 100%","e":""},"geometry":{"type":"Polygon","coordinates":[[[-73.95,61.49167],[-73.95,61.48333],[-73.95833,61.48333],[-73.95833,61.49167],[-73.95,61.49167]]]}},{"type":"Feature","properties":{"c":"CDC-2558580","o":"9414-5349 Qu\u00e9bec inc. 100%","e":""},"geometry":{"type":"Polygon","coordinates":[[[-73.95833,61.49167],[-73.95833,61.48333],[-73.96667,61.48333],[-73.96667,61.49167],[-73.95833,61.49167]]]}},{"type":"Feature","properties":{"c":"CDC-2558579","o":"9414-5349 Qu\u00e9bec inc. 100%","e":""},"geometry":{"type":"Polygon","coordinates":[[[-73.96667,61.49167],[-73.96667,61.48333],[-73.975,61.48333],[-73.975,61.49167],[-73.96667,61.49167]]]}},{"type":"Feature","properties":{"c":"CDC-2558578","o":"9414-5349 Qu\u00e9bec inc. 100%","e":""},"geometry":{"type":"Polygon","coordinates":[[[-73.975,61.49167],[-73.975,61.48333],[-73.98333,61.48333],[-73.98333,61.49167],[-73.975,61.49167]]]}},{"type":"Feature","properties":{"c":"CDC-2558577","o":"9414-5349 Qu\u00e9bec inc. 100%","e":""},"geometry":{"type":"Polygon","coordinates":[[[-73.98333,61.49167],[-73.98333,61.48333],[-73.99167,61.48333],[-73.99167,61.49167],[-73.98333,61.49167]]]}},{"type":"Feature","properties":{"c":"CDC-2558576","o":"9414-5349 Qu\u00e9bec inc. 100%","e":""},"geometry":{"type":"Polygon","coordinates":[[[-73.99167,61.49167],[-73.99167,61.48333],[-74.0,61.48333],[-74.0,61.49167],[-73.99167,61.49167]]]}},{"type":"Feature","properties":{"c":"CDC-2558599","o":"9414-5349 Qu\u00e9bec inc. 100%","e":""},"geometry":{"type":"Polygon","coordinates":[[[-73.94167,61.5],[-73.94167,61.49167],[-73.95,61.49167],[-73.95,61.5],[-73.94167,61.5]]]}},{"type":"Feature","properties":{"c":"CDC-2558598","o":"9414-5349 Qu\u00e9bec inc. 100%","e":""},"geometry":{"type":"Polygon","coordinates":[[[-73.95,61.5],[-73.95,61.49167],[-73.95833,61.49167],[-73.95833,61.5],[-73.95,61.5]]]}},{"type":"Feature","properties":{"c":"CDC-2558597","o":"9414-5349 Qu\u00e9bec inc. 100%","e":""},"geometry":{"type":"Polygon","coordinates":[[[-73.95833,61.5],[-73.95833,61.49167],[-73.96667,61.49167],[-73.96667,61.5],[-73.95833,61.5]]]}},{"type":"Feature","properties":{"c":"CDC-2558596","o":"9414-5349 Qu\u00e9bec inc. 100%","e":""},"geometry":{"type":"Polygon","coordinates":[[[-73.96667,61.5],[-73.96667,61.49167],[-73.975,61.49167],[-73.975,61.5],[-73.96667,61.5]]]}},{"type":"Feature","properties":{"c":"CDC-2558595","o":"9414-5349 Qu\u00e9bec inc. 100%","e":""},"geometry":{"type":"Polygon","coordinates":[[[-73.975,61.5],[-73.975,61.49167],[-73.98333,61.49167],[-73.98333,61.5],[-73.975,61.5]]]}},{"type":"Feature","properties":{"c":"CDC-2558594","o":"9414-5349 Qu\u00e9bec inc. 100%","e":""},"geometry":{"type":"Polygon","coordinates":[[[-73.98333,61.5],[-73.98333,61.49167],[-73.99167,61.49167],[-73.99167,61.5],[-73.98333,61.5]]]}},{"type":"Feature","properties":{"c":"BEX-1823","o":"Canadian Royalties Inc. 100%","e":""},"geometry":{"type":"Polygon","coordinates":[[[-73.93872,61.49618],[-73.93875,61.49533],[-73.93595,61.49481],[-73.93544,61.49347],[-73.94163,61.49354],[-73.94157,61.4942],[-73.93917,61.49498],[-73.93913,61.49619],[-73.93872,61.49618]]]}},{"type":"Feature","properties":{"c":"CDC-2558593","o":"9414-5349 Qu\u00e9bec inc. 100%","e":""},"geometry":{"type":"Polygon","coordinates":[[[-73.99167,61.5],[-73.99167,61.49167],[-74.0,61.49167],[-74.0,61.5],[-73.99167,61.5]]]}},{"type":"Feature","properties":{"c":"CDC-2558455","o":"9414-5349 Qu\u00e9bec inc. 100%","e":""},"geometry":{"type":"Polygon","coordinates":[[[-74.0,61.5],[-74.0,61.49167],[-74.00833,61.49167],[-74.00833,61.5],[-74.0,61.5]]]}},{"type":"Feature","properties":{"c":"CDC-1027603","o":"Canadian Royalties Inc. 100%","e":""},"geometry":{"type":"Polygon","coordinates":[[[-73.875,61.46667],[-73.875,61.45833],[-73.88333,61.45833],[-73.88333,61.46667],[-73.875,61.46667]]]}},{"type":"Feature","properties":{"c":"CDC-2535031","o":"Canadian Royalties Inc. 100%","e":""},"geometry":{"type":"Polygon","coordinates":[[[-73.88333,61.46667],[-73.88333,61.45833],[-73.89167,61.45833],[-73.89167,61.46667],[-73.88333,61.46667]]]}},{"type":"Feature","properties":{"c":"CDC-2535030","o":"Canadian Royalties Inc. 100%","e":""},"geometry":{"type":"Polygon","coordinates":[[[-73.89167,61.46667],[-73.89167,61.45833],[-73.9,61.45833],[-73.9,61.46667],[-73.89167,61.46667]]]}},{"type":"Feature","properties":{"c":"CDC-2535029","o":"Canadian Royalties Inc. 100%","e":""},"geometry":{"type":"Polygon","coordinates":[[[-73.9,61.46667],[-73.9,61.45833],[-73.90833,61.45833],[-73.90833,61.46667],[-73.9,61.46667]]]}},{"type":"Feature","properties":{"c":"CDC-1027602","o":"Canadian Royalties Inc. 100%","e":""},"geometry":{"type":"Polygon","coordinates":[[[-73.90833,61.46667],[-73.90833,61.45833],[-73.91667,61.45833],[-73.91667,61.46667],[-73.90833,61.46667]]]}},{"type":"Feature","properties":{"c":"CDC-1027601","o":"Canadian Royalties Inc. 100%","e":""},"geometry":{"type":"Polygon","coordinates":[[[-73.91667,61.46667],[-73.91667,61.45833],[-73.925,61.45833],[-73.925,61.46667],[-73.91667,61.46667]]]}},{"type":"Feature","properties":{"c":"CDC-1027600","o":"Canadian Royalties Inc. 100%","e":""},"geometry":{"type":"Polygon","coordinates":[[[-73.925,61.46667],[-73.925,61.45833],[-73.93333,61.45833],[-73.93333,61.46667],[-73.925,61.46667]]]}},{"type":"Feature","properties":{"c":"CDC-1027617","o":"Canadian Royalties Inc. 100%","e":""},"geometry":{"type":"Polygon","coordinates":[[[-73.85833,61.475],[-73.85833,61.46667],[-73.86667,61.46667],[-73.86667,61.475],[-73.85833,61.475]]]}},{"type":"Feature","properties":{"c":"CDC-1027616","o":"Canadian Royalties Inc. 100%","e":""},"geometry":{"type":"Polygon","coordinates":[[[-73.86667,61.475],[-73.86667,61.46667],[-73.875,61.46667],[-73.875,61.475],[-73.86667,61.475]]]}},{"type":"Feature","properties":{"c":"CDC-1027615","o":"Canadian Royalties Inc. 100%","e":""},"geometry":{"type":"Polygon","coordinates":[[[-73.875,61.475],[-73.875,61.46667],[-73.88333,61.46667],[-73.88333,61.475],[-73.875,61.475]]]}},{"type":"Feature","properties":{"c":"CDC-2535034","o":"Canadian Royalties Inc. 100%","e":""},"geometry":{"type":"Polygon","coordinates":[[[-73.88333,61.475],[-73.88333,61.46667],[-73.89167,61.46667],[-73.89167,61.475],[-73.88333,61.475]]]}},{"type":"Feature","properties":{"c":"CDC-2535033","o":"Canadian Royalties Inc. 100%","e":""},"geometry":{"type":"Polygon","coordinates":[[[-73.89167,61.475],[-73.89167,61.46667],[-73.9,61.46667],[-73.9,61.475],[-73.89167,61.475]]]}},{"type":"Feature","properties":{"c":"CDC-2535032","o":"Canadian Royalties Inc. 100%","e":""},"geometry":{"type":"Polygon","coordinates":[[[-73.9,61.475],[-73.9,61.46667],[-73.90833,61.46667],[-73.90833,61.475],[-73.9,61.475]]]}},{"type":"Feature","properties":{"c":"CDC-1027614","o":"Canadian Royalties Inc. 100%","e":""},"geometry":{"type":"Polygon","coordinates":[[[-73.90833,61.475],[-73.90833,61.46667],[-73.91667,61.46667],[-73.91667,61.475],[-73.90833,61.475]]]}},{"type":"Feature","properties":{"c":"CDC-1027613","o":"Canadian Royalties Inc. 100%","e":""},"geometry":{"type":"Polygon","coordinates":[[[-73.91667,61.475],[-73.91667,61.46667],[-73.925,61.46667],[-73.925,61.475],[-73.91667,61.475]]]}},{"type":"Feature","properties":{"c":"CDC-1027612","o":"Canadian Royalties Inc. 100%","e":""},"geometry":{"type":"Polygon","coordinates":[[[-73.925,61.475],[-73.925,61.46667],[-73.93333,61.46667],[-73.93333,61.475],[-73.925,61.475]]]}},{"type":"Feature","properties":{"c":"CDC-2558575","o":"9414-5349 Qu\u00e9bec inc. 100%","e":""},"geometry":{"type":"Polygon","coordinates":[[[-73.85833,61.48333],[-73.85833,61.475],[-73.86667,61.475],[-73.86667,61.48333],[-73.85833,61.48333]]]}},{"type":"Feature","properties":{"c":"CDC-2558574","o":"9414-5349 Qu\u00e9bec inc. 100%","e":""},"geometry":{"type":"Polygon","coordinates":[[[-73.86667,61.48333],[-73.86667,61.475],[-73.875,61.475],[-73.875,61.48333],[-73.86667,61.48333]]]}},{"type":"Feature","properties":{"c":"CDC-2558573","o":"9414-5349 Qu\u00e9bec inc. 100%","e":""},"geometry":{"type":"Polygon","coordinates":[[[-73.875,61.48333],[-73.875,61.475],[-73.88333,61.475],[-73.88333,61.48333],[-73.875,61.48333]]]}},{"type":"Feature","properties":{"c":"CDC-2558572","o":"9414-5349 Qu\u00e9bec inc. 100%","e":""},"geometry":{"type":"Polygon","coordinates":[[[-73.88333,61.48333],[-73.88333,61.475],[-73.89167,61.475],[-73.89167,61.48333],[-73.88333,61.48333]]]}},{"type":"Feature","properties":{"c":"CDC-2558571","o":"9414-5349 Qu\u00e9bec inc. 100%","e":""},"geometry":{"type":"Polygon","coordinates":[[[-73.89167,61.48333],[-73.89167,61.475],[-73.9,61.475],[-73.9,61.48333],[-73.89167,61.48333]]]}},{"type":"Feature","properties":{"c":"CDC-2558570","o":"9414-5349 Qu\u00e9bec inc. 100%","e":""},"geometry":{"type":"Polygon","coordinates":[[[-73.9,61.48333],[-73.9,61.475],[-73.90833,61.475],[-73.90833,61.48333],[-73.9,61.48333]]]}},{"type":"Feature","properties":{"c":"CDC-1027624","o":"Canadian Royalties Inc. 100%","e":""},"geometry":{"type":"Polygon","coordinates":[[[-73.90833,61.48333],[-73.90833,61.475],[-73.91667,61.475],[-73.91667,61.48333],[-73.90833,61.48333]]]}},{"type":"Feature","properties":{"c":"CDC-1027623","o":"Canadian Royalties Inc. 100%","e":""},"geometry":{"type":"Polygon","coordinates":[[[-73.91667,61.48333],[-73.91667,61.475],[-73.925,61.475],[-73.925,61.48333],[-73.91667,61.48333]]]}},{"type":"Feature","properties":{"c":"CDC-1027622","o":"Canadian Royalties Inc. 100%","e":""},"geometry":{"type":"Polygon","coordinates":[[[-73.925,61.48333],[-73.925,61.475],[-73.93333,61.475],[-73.93333,61.48333],[-73.925,61.48333]]]}},{"type":"Feature","properties":{"c":"CDC-2558592","o":"9414-5349 Qu\u00e9bec inc. 100%","e":""},"geometry":{"type":"Polygon","coordinates":[[[-73.85833,61.49167],[-73.85833,61.48333],[-73.86667,61.48333],[-73.86667,61.49167],[-73.85833,61.49167]]]}},{"type":"Feature","properties":{"c":"CDC-2558591","o":"9414-5349 Qu\u00e9bec inc. 100%","e":""},"geometry":{"type":"Polygon","coordinates":[[[-73.86667,61.49167],[-73.86667,61.48333],[-73.875,61.48333],[-73.875,61.49167],[-73.86667,61.49167]]]}},{"type":"Feature","properties":{"c":"CDC-2558383","o":"9414-5349 Qu\u00e9bec inc. 100%","e":""},"geometry":{"type":"Polygon","coordinates":[[[-74.0,61.46667],[-74.0,61.45833],[-74.00833,61.45833],[-74.00833,61.46667],[-74.0,61.46667]]]}},{"type":"Feature","properties":{"c":"CDC-2558401","o":"9414-5349 Qu\u00e9bec inc. 100%","e":""},"geometry":{"type":"Polygon","coordinates":[[[-74.0,61.475],[-74.0,61.46667],[-74.00833,61.46667],[-74.00833,61.475],[-74.0,61.475]]]}},{"type":"Feature","properties":{"c":"CDC-2558419","o":"9414-5349 Qu\u00e9bec inc. 100%","e":""},"geometry":{"type":"Polygon","coordinates":[[[-74.0,61.48333],[-74.0,61.475],[-74.00833,61.475],[-74.00833,61.48333],[-74.0,61.48333]]]}},{"type":"Feature","properties":{"c":"CDC-1129607","o":"Canadian Royalties Inc. 100%","e":""},"geometry":{"type":"Polygon","coordinates":[[[-73.84167,61.45833],[-73.84167,61.45454],[-73.85,61.45471],[-73.85,61.45833],[-73.84167,61.45833]]]}},{"type":"Feature","properties":{"c":"CDC-2558665","o":"9414-5349 Qu\u00e9bec inc. 100%","e":""},"geometry":{"type":"Polygon","coordinates":[[[-73.79167,61.46667],[-73.79167,61.45833],[-73.8,61.45833],[-73.8,61.46667],[-73.79167,61.46667]]]}},{"type":"Feature","properties":{"c":"CDC-2558664","o":"9414-5349 Qu\u00e9bec inc. 100%","e":""},"geometry":{"type":"Polygon","coordinates":[[[-73.8,61.46667],[-73.8,61.45833],[-73.80833,61.45833],[-73.80833,61.46667],[-73.8,61.46667]]]}},{"type":"Feature","properties":{"c":"CDC-2554631","o":"Canadian Royalties Inc. 100%","e":""},"geometry":{"type":"Polygon","coordinates":[[[-73.80833,61.46667],[-73.80833,61.45833],[-73.81667,61.45833],[-73.81667,61.46667],[-73.80833,61.46667]]]}},{"type":"Feature","properties":{"c":"CDC-2554630","o":"Canadian Royalties Inc. 100%","e":""},"geometry":{"type":"Polygon","coordinates":[[[-73.81667,61.46667],[-73.81667,61.45833],[-73.825,61.45833],[-73.825,61.46667],[-73.81667,61.46667]]]}},{"type":"Feature","properties":{"c":"CDC-2554629","o":"Canadian Royalties Inc. 100%","e":""},"geometry":{"type":"Polygon","coordinates":[[[-73.825,61.46667],[-73.825,61.45833],[-73.83333,61.45833],[-73.83333,61.46667],[-73.825,61.46667]]]}},{"type":"Feature","properties":{"c":"CDC-2554628","o":"Canadian Royalties Inc. 100%","e":""},"geometry":{"type":"Polygon","coordinates":[[[-73.83333,61.46667],[-73.83333,61.45833],[-73.84167,61.45833],[-73.84167,61.46667],[-73.83333,61.46667]]]}},{"type":"Feature","properties":{"c":"CDC-1027607","o":"Canadian Royalties Inc. 100%","e":""},"geometry":{"type":"Polygon","coordinates":[[[-73.84167,61.46667],[-73.84167,61.45833],[-73.85,61.45833],[-73.85,61.46667],[-73.84167,61.46667]]]}},{"type":"Feature","properties":{"c":"CDC-2554634","o":"Canadian Royalties Inc. 100%","e":""},"geometry":{"type":"Polygon","coordinates":[[[-73.79167,61.475],[-73.79167,61.46667],[-73.8,61.46667],[-73.8,61.475],[-73.79167,61.475]]]}},{"type":"Feature","properties":{"c":"CDC-2554633","o":"Canadian Royalties Inc. 100%","e":""},"geometry":{"type":"Polygon","coordinates":[[[-73.8,61.475],[-73.8,61.46667],[-73.80833,61.46667],[-73.80833,61.475],[-73.8,61.475]]]}},{"type":"Feature","properties":{"c":"CDC-2554632","o":"Canadian Royalties Inc. 100%","e":""},"geometry":{"type":"Polygon","coordinates":[[[-73.80833,61.475],[-73.80833,61.46667],[-73.81667,61.46667],[-73.81667,61.475],[-73.80833,61.475]]]}},{"type":"Feature","properties":{"c":"CDC-1005918","o":"Canadian Royalties Inc. 100%","e":""},"geometry":{"type":"Polygon","coordinates":[[[-73.81667,61.475],[-73.81667,61.46667],[-73.825,61.46667],[-73.825,61.475],[-73.81667,61.475]]]}},{"type":"Feature","properties":{"c":"CDC-1005917","o":"Canadian Royalties Inc. 100%","e":""},"geometry":{"type":"Polygon","coordinates":[[[-73.825,61.475],[-73.825,61.46667],[-73.83333,61.46667],[-73.83333,61.475],[-73.825,61.475]]]}},{"type":"Feature","properties":{"c":"CDC-1005916","o":"Canadian Royalties Inc. 100%","e":""},"geometry":{"type":"Polygon","coordinates":[[[-73.83333,61.475],[-73.83333,61.46667],[-73.84167,61.46667],[-73.84167,61.475],[-73.83333,61.475]]]}},{"type":"Feature","properties":{"c":"CDC-1005915","o":"Canadian Royalties Inc. 100%","e":""},"geometry":{"type":"Polygon","coordinates":[[[-73.84167,61.475],[-73.84167,61.46667],[-73.85,61.46667],[-73.85,61.475],[-73.84167,61.475]]]}},{"type":"Feature","properties":{"c":"CDC-1005914","o":"Canadian Royalties Inc. 100%","e":""},"geometry":{"type":"Polygon","coordinates":[[[-73.85,61.475],[-73.85,61.46667],[-73.85833,61.46667],[-73.85833,61.475],[-73.85,61.475]]]}},{"type":"Feature","properties":{"c":"CDC-1005926","o":"Canadian Royalties Inc. 100%","e":""},"geometry":{"type":"Polygon","coordinates":[[[-73.79167,61.48333],[-73.79167,61.475],[-73.8,61.475],[-73.8,61.48333],[-73.79167,61.48333]]]}},{"type":"Feature","properties":{"c":"CDC-1005925","o":"Canadian Royalties Inc. 100%","e":""},"geometry":{"type":"Polygon","coordinates":[[[-73.8,61.48333],[-73.8,61.475],[-73.80833,61.475],[-73.80833,61.48333],[-73.8,61.48333]]]}},{"type":"Feature","properties":{"c":"CDC-1005924","o":"Canadian Royalties Inc. 100%","e":""},"geometry":{"type":"Polygon","coordinates":[[[-73.80833,61.48333],[-73.80833,61.475],[-73.81667,61.475],[-73.81667,61.48333],[-73.80833,61.48333]]]}},{"type":"Feature","properties":{"c":"CDC-1005923","o":"Canadian Royalties Inc. 100%","e":""},"geometry":{"type":"Polygon","coordinates":[[[-73.81667,61.48333],[-73.81667,61.475],[-73.825,61.475],[-73.825,61.48333],[-73.81667,61.48333]]]}},{"type":"Feature","properties":{"c":"CDC-1005922","o":"Canadian Royalties Inc. 100%","e":""},"geometry":{"type":"Polygon","coordinates":[[[-73.825,61.48333],[-73.825,61.475],[-73.83333,61.475],[-73.83333,61.48333],[-73.825,61.48333]]]}},{"type":"Feature","properties":{"c":"CDC-1005921","o":"Canadian Royalties Inc. 100%","e":""},"geometry":{"type":"Polygon","coordinates":[[[-73.83333,61.48333],[-73.83333,61.475],[-73.84167,61.475],[-73.84167,61.48333],[-73.83333,61.48333]]]}},{"type":"Feature","properties":{"c":"CDC-1005920","o":"Canadian Royalties Inc. 100%","e":""},"geometry":{"type":"Polygon","coordinates":[[[-73.84167,61.48333],[-73.84167,61.475],[-73.85,61.475],[-73.85,61.48333],[-73.84167,61.48333]]]}},{"type":"Feature","properties":{"c":"CDC-1005919","o":"Canadian Royalties Inc. 100%","e":""},"geometry":{"type":"Polygon","coordinates":[[[-73.85,61.48333],[-73.85,61.475],[-73.85833,61.475],[-73.85833,61.48333],[-73.85,61.48333]]]}},{"type":"Feature","properties":{"c":"CDC-1005937","o":"Canadian Royalties Inc. 100%","e":""},"geometry":{"type":"Polygon","coordinates":[[[-73.79167,61.49167],[-73.79167,61.48333],[-73.8,61.48333],[-73.8,61.49167],[-73.79167,61.49167]]]}},{"type":"Feature","properties":{"c":"CDC-1005936","o":"Canadian Royalties Inc. 100%","e":""},"geometry":{"type":"Polygon","coordinates":[[[-73.8,61.49167],[-73.8,61.48333],[-73.80833,61.48333],[-73.80833,61.49167],[-73.8,61.49167]]]}},{"type":"Feature","properties":{"c":"CDC-1005935","o":"Canadian Royalties Inc. 100%","e":""},"geometry":{"type":"Polygon","coordinates":[[[-73.80833,61.49167],[-73.80833,61.48333],[-73.81667,61.48333],[-73.81667,61.49167],[-73.80833,61.49167]]]}},{"type":"Feature","properties":{"c":"CDC-2561931","o":"9414-5349 Qu\u00e9bec inc. 100%","e":""},"geometry":{"type":"Polygon","coordinates":[[[-73.73333,61.4592],[-73.73333,61.46667],[-73.725,61.46667],[-73.725,61.45863],[-73.73333,61.4592]]]}},{"type":"Feature","properties":{"c":"CDC-2561929","o":"9414-5349 Qu\u00e9bec inc. 100%","e":""},"geometry":{"type":"Polygon","coordinates":[[[-73.75,61.46667],[-73.74167,61.46667],[-73.74167,61.45907],[-73.7484,61.45833],[-73.75,61.45833],[-73.75,61.46667]]]}},{"type":"Feature","properties":{"c":"CDC-2558670","o":"9414-5349 Qu\u00e9bec inc. 100%","e":""},"geometry":{"type":"Polygon","coordinates":[[[-73.75,61.46667],[-73.75,61.45833],[-73.75833,61.45833],[-73.75833,61.46667],[-73.75,61.46667]]]}},{"type":"Feature","properties":{"c":"CDC-2561930","o":"9414-5349 Qu\u00e9bec inc. 100%","e":""},"geometry":{"type":"Polygon","coordinates":[[[-73.73768,61.4595],[-73.74167,61.45907],[-73.74167,61.46667],[-73.73333,61.46667],[-73.73333,61.4592],[-73.73768,61.4595]]]}},{"type":"Feature","properties":{"c":"CDC-2558669","o":"9414-5349 Qu\u00e9bec inc. 100%","e":""},"geometry":{"type":"Polygon","coordinates":[[[-73.75833,61.46667],[-73.75833,61.45833],[-73.76667,61.45833],[-73.76667,61.46667],[-73.75833,61.46667]]]}},{"type":"Feature","properties":{"c":"CDC-2558668","o":"9414-5349 Qu\u00e9bec inc. 100%","e":""},"geometry":{"type":"Polygon","coordinates":[[[-73.76667,61.46667],[-73.76667,61.45833],[-73.775,61.45833],[-73.775,61.46667],[-73.76667,61.46667]]]}},{"type":"Feature","properties":{"c":"CDC-2558667","o":"9414-5349 Qu\u00e9bec inc. 100%","e":""},"geometry":{"type":"Polygon","coordinates":[[[-73.775,61.46667],[-73.775,61.45833],[-73.78333,61.45833],[-73.78333,61.46667],[-73.775,61.46667]]]}},{"type":"Feature","properties":{"c":"CDC-2558666","o":"9414-5349 Qu\u00e9bec inc. 100%","e":""},"geometry":{"type":"Polygon","coordinates":[[[-73.78333,61.46667],[-73.78333,61.45833],[-73.79167,61.45833],[-73.79167,61.46667],[-73.78333,61.46667]]]}},{"type":"Feature","properties":{"c":"CDC-2558677","o":"9414-5349 Qu\u00e9bec inc. 100%","e":""},"geometry":{"type":"Polygon","coordinates":[[[-73.73333,61.475],[-73.73333,61.46667],[-73.74167,61.46667],[-73.74167,61.475],[-73.73333,61.475]]]}},{"type":"Feature","properties":{"c":"CDC-2558676","o":"9414-5349 Qu\u00e9bec inc. 100%","e":""},"geometry":{"type":"Polygon","coordinates":[[[-73.74167,61.475],[-73.74167,61.46667],[-73.75,61.46667],[-73.75,61.475],[-73.74167,61.475]]]}},{"type":"Feature","properties":{"c":"CDC-2558675","o":"9414-5349 Qu\u00e9bec inc. 100%","e":""},"geometry":{"type":"Polygon","coordinates":[[[-73.75,61.475],[-73.75,61.46667],[-73.75833,61.46667],[-73.75833,61.475],[-73.75,61.475]]]}},{"type":"Feature","properties":{"c":"CDC-2558674","o":"9414-5349 Qu\u00e9bec inc. 100%","e":""},"geometry":{"type":"Polygon","coordinates":[[[-73.75833,61.475],[-73.75833,61.46667],[-73.76667,61.46667],[-73.76667,61.475],[-73.75833,61.475]]]}},{"type":"Feature","properties":{"c":"CDC-2558673","o":"9414-5349 Qu\u00e9bec inc. 100%","e":""},"geometry":{"type":"Polygon","coordinates":[[[-73.76667,61.475],[-73.76667,61.46667],[-73.775,61.46667],[-73.775,61.475],[-73.76667,61.475]]]}},{"type":"Feature","properties":{"c":"CDC-2558672","o":"9414-5349 Qu\u00e9bec inc. 100%","e":""},"geometry":{"type":"Polygon","coordinates":[[[-73.775,61.475],[-73.775,61.46667],[-73.78333,61.46667],[-73.78333,61.475],[-73.775,61.475]]]}},{"type":"Feature","properties":{"c":"CDC-2558671","o":"9414-5349 Qu\u00e9bec inc. 100%","e":""},"geometry":{"type":"Polygon","coordinates":[[[-73.78333,61.475],[-73.78333,61.46667],[-73.79167,61.46667],[-73.79167,61.475],[-73.78333,61.475]]]}},{"type":"Feature","properties":{"c":"CDC-2558681","o":"9414-5349 Qu\u00e9bec inc. 100%","e":""},"geometry":{"type":"Polygon","coordinates":[[[-73.73333,61.48333],[-73.73333,61.475],[-73.74167,61.475],[-73.74167,61.48333],[-73.73333,61.48333]]]}},{"type":"Feature","properties":{"c":"CDC-2558680","o":"9414-5349 Qu\u00e9bec inc. 100%","e":""},"geometry":{"type":"Polygon","coordinates":[[[-73.74167,61.48333],[-73.74167,61.475],[-73.75,61.475],[-73.75,61.48333],[-73.74167,61.48333]]]}},{"type":"Feature","properties":{"c":"CDC-2558679","o":"9414-5349 Qu\u00e9bec inc. 100%","e":""},"geometry":{"type":"Polygon","coordinates":[[[-73.75,61.48333],[-73.75,61.475],[-73.75833,61.475],[-73.75833,61.48333],[-73.75,61.48333]]]}},{"type":"Feature","properties":{"c":"CDC-2558678","o":"9414-5349 Qu\u00e9bec inc. 100%","e":""},"geometry":{"type":"Polygon","coordinates":[[[-73.75833,61.48333],[-73.75833,61.475],[-73.76667,61.475],[-73.76667,61.48333],[-73.75833,61.48333]]]}},{"type":"Feature","properties":{"c":"CDC-1005929","o":"Canadian Royalties Inc. 100%","e":""},"geometry":{"type":"Polygon","coordinates":[[[-73.76667,61.48333],[-73.76667,61.475],[-73.775,61.475],[-73.775,61.48333],[-73.76667,61.48333]]]}},{"type":"Feature","properties":{"c":"CDC-1005928","o":"Canadian Royalties Inc. 100%","e":""},"geometry":{"type":"Polygon","coordinates":[[[-73.775,61.48333],[-73.775,61.475],[-73.78333,61.475],[-73.78333,61.48333],[-73.775,61.48333]]]}},{"type":"Feature","properties":{"c":"CDC-1005927","o":"Canadian Royalties Inc. 100%","e":""},"geometry":{"type":"Polygon","coordinates":[[[-73.78333,61.48333],[-73.78333,61.475],[-73.79167,61.475],[-73.79167,61.48333],[-73.78333,61.48333]]]}},{"type":"Feature","properties":{"c":"CDC-1005944","o":"Canadian Royalties Inc. 100%","e":""},"geometry":{"type":"Polygon","coordinates":[[[-73.73333,61.49167],[-73.73333,61.48333],[-73.74167,61.48333],[-73.74167,61.49167],[-73.73333,61.49167]]]}},{"type":"Feature","properties":{"c":"CDC-1005943","o":"Canadian Royalties Inc. 100%","e":""},"geometry":{"type":"Polygon","coordinates":[[[-73.74167,61.49167],[-73.74167,61.48333],[-73.75,61.48333],[-73.75,61.49167],[-73.74167,61.49167]]]}},{"type":"Feature","properties":{"c":"CDC-1005942","o":"Canadian Royalties Inc. 100%","e":""},"geometry":{"type":"Polygon","coordinates":[[[-73.75,61.49167],[-73.75,61.48333],[-73.75833,61.48333],[-73.75833,61.49167],[-73.75,61.49167]]]}},{"type":"Feature","properties":{"c":"CDC-1005941","o":"Canadian Royalties Inc. 100%","e":""},"geometry":{"type":"Polygon","coordinates":[[[-73.75833,61.49167],[-73.75833,61.48333],[-73.76667,61.48333],[-73.76667,61.49167],[-73.75833,61.49167]]]}},{"type":"Feature","properties":{"c":"CDC-1005940","o":"Canadian Royalties Inc. 100%","e":""},"geometry":{"type":"Polygon","coordinates":[[[-73.76667,61.49167],[-73.76667,61.48333],[-73.775,61.48333],[-73.775,61.49167],[-73.76667,61.49167]]]}},{"type":"Feature","properties":{"c":"CDC-1027589","o":"Canadian Royalties Inc. 100%","e":""},"geometry":{"type":"Polygon","coordinates":[[[-73.95833,61.45833],[-73.95833,61.45],[-73.96667,61.45],[-73.96667,61.45833],[-73.95833,61.45833]]]}},{"type":"Feature","properties":{"c":"CDC-2558561","o":"9414-5349 Qu\u00e9bec inc. 100%","e":""},"geometry":{"type":"Polygon","coordinates":[[[-73.96667,61.45833],[-73.96667,61.45],[-73.975,61.45],[-73.975,61.45833],[-73.96667,61.45833]]]}},{"type":"Feature","properties":{"c":"CDC-2558560","o":"9414-5349 Qu\u00e9bec inc. 100%","e":""},"geometry":{"type":"Polygon","coordinates":[[[-73.975,61.45833],[-73.975,61.45],[-73.98333,61.45],[-73.98333,61.45833],[-73.975,61.45833]]]}},{"type":"Feature","properties":{"c":"CDC-2558559","o":"9414-5349 Qu\u00e9bec inc. 100%","e":""},"geometry":{"type":"Polygon","coordinates":[[[-73.98333,61.45833],[-73.98333,61.45],[-73.99167,61.45],[-73.99167,61.45833],[-73.98333,61.45833]]]}},{"type":"Feature","properties":{"c":"CDC-2558558","o":"9414-5349 Qu\u00e9bec inc. 100%","e":""},"geometry":{"type":"Polygon","coordinates":[[[-73.99167,61.45833],[-73.99167,61.45],[-74.0,61.45],[-74.0,61.45833],[-73.99167,61.45833]]]}},{"type":"Feature","properties":{"c":"CDC-1027599","o":"Canadian Royalties Inc. 100%","e":""},"geometry":{"type":"Polygon","coordinates":[[[-73.93333,61.46667],[-73.93333,61.45833],[-73.94167,61.45833],[-73.94167,61.46667],[-73.93333,61.46667]]]}},{"type":"Feature","properties":{"c":"CDC-1027598","o":"Canadian Royalties Inc. 100%","e":""},"geometry":{"type":"Polygon","coordinates":[[[-73.94167,61.46667],[-73.94167,61.45833],[-73.95,61.45833],[-73.95,61.46667],[-73.94167,61.46667]]]}},{"type":"Feature","properties":{"c":"CDC-1027597","o":"Canadian Royalties Inc. 100%","e":""},"geometry":{"type":"Polygon","coordinates":[[[-73.95,61.46667],[-73.95,61.45833],[-73.95833,61.45833],[-73.95833,61.46667],[-73.95,61.46667]]]}},{"type":"Feature","properties":{"c":"CDC-1027596","o":"Canadian Royalties Inc. 100%","e":""},"geometry":{"type":"Polygon","coordinates":[[[-73.95833,61.46667],[-73.95833,61.45833],[-73.96667,61.45833],[-73.96667,61.46667],[-73.95833,61.46667]]]}},{"type":"Feature","properties":{"c":"CDC-2558565","o":"9414-5349 Qu\u00e9bec inc. 100%","e":""},"geometry":{"type":"Polygon","coordinates":[[[-73.96667,61.46667],[-73.96667,61.45833],[-73.975,61.45833],[-73.975,61.46667],[-73.96667,61.46667]]]}},{"type":"Feature","properties":{"c":"CDC-2558564","o":"9414-5349 Qu\u00e9bec inc. 100%","e":""},"geometry":{"type":"Polygon","coordinates":[[[-73.975,61.46667],[-73.975,61.45833],[-73.98333,61.45833],[-73.98333,61.46667],[-73.975,61.46667]]]}},{"type":"Feature","properties":{"c":"CDC-2558563","o":"9414-5349 Qu\u00e9bec inc. 100%","e":""},"geometry":{"type":"Polygon","coordinates":[[[-73.98333,61.46667],[-73.98333,61.45833],[-73.99167,61.45833],[-73.99167,61.46667],[-73.98333,61.46667]]]}},{"type":"Feature","properties":{"c":"CDC-2558562","o":"9414-5349 Qu\u00e9bec inc. 100%","e":""},"geometry":{"type":"Polygon","coordinates":[[[-73.99167,61.46667],[-73.99167,61.45833],[-74.0,61.45833],[-74.0,61.46667],[-73.99167,61.46667]]]}},{"type":"Feature","properties":{"c":"CDC-1027611","o":"Canadian Royalties Inc. 100%","e":""},"geometry":{"type":"Polygon","coordinates":[[[-73.93333,61.475],[-73.93333,61.46667],[-73.94167,61.46667],[-73.94167,61.475],[-73.93333,61.475]]]}},{"type":"Feature","properties":{"c":"CDC-1027610","o":"Canadian Royalties Inc. 100%","e":""},"geometry":{"type":"Polygon","coordinates":[[[-73.94167,61.475],[-73.94167,61.46667],[-73.95,61.46667],[-73.95,61.475],[-73.94167,61.475]]]}},{"type":"Feature","properties":{"c":"CDC-1027609","o":"Canadian Royalties Inc. 100%","e":""},"geometry":{"type":"Polygon","coordinates":[[[-73.95,61.475],[-73.95,61.46667],[-73.95833,61.46667],[-73.95833,61.475],[-73.95,61.475]]]}},{"type":"Feature","properties":{"c":"CDC-1027608","o":"Canadian Royalties Inc. 100%","e":""},"geometry":{"type":"Polygon","coordinates":[[[-73.95833,61.475],[-73.95833,61.46667],[-73.96667,61.46667],[-73.96667,61.475],[-73.95833,61.475]]]}},{"type":"Feature","properties":{"c":"CDC-1087763","o":"Canadian Royalties Inc. 100%","e":""},"geometry":{"type":"Polygon","coordinates":[[[-73.96667,61.475],[-73.96667,61.46667],[-73.975,61.46667],[-73.975,61.475],[-73.96667,61.475]]]}},{"type":"Feature","properties":{"c":"CDC-1087762","o":"Canadian Royalties Inc. 100%","e":""},"geometry":{"type":"Polygon","coordinates":[[[-73.975,61.475],[-73.975,61.46667],[-73.98333,61.46667],[-73.98333,61.475],[-73.975,61.475]]]}},{"type":"Feature","properties":{"c":"CDC-1087761","o":"Canadian Royalties Inc. 100%","e":""},"geometry":{"type":"Polygon","coordinates":[[[-73.98333,61.475],[-73.98333,61.46667],[-73.99167,61.46667],[-73.99167,61.475],[-73.98333,61.475]]]}},{"type":"Feature","properties":{"c":"CDC-1087760","o":"Canadian Royalties Inc. 100%","e":""},"geometry":{"type":"Polygon","coordinates":[[[-73.99167,61.475],[-73.99167,61.46667],[-74.0,61.46667],[-74.0,61.475],[-73.99167,61.475]]]}},{"type":"Feature","properties":{"c":"CDC-1027621","o":"Canadian Royalties Inc. 100%","e":""},"geometry":{"type":"Polygon","coordinates":[[[-73.93333,61.48333],[-73.93333,61.475],[-73.94167,61.475],[-73.94167,61.48333],[-73.93333,61.48333]]]}},{"type":"Feature","properties":{"c":"CDC-1027620","o":"Canadian Royalties Inc. 100%","e":""},"geometry":{"type":"Polygon","coordinates":[[[-73.94167,61.48333],[-73.94167,61.475],[-73.95,61.475],[-73.95,61.48333],[-73.94167,61.48333]]]}},{"type":"Feature","properties":{"c":"CDC-1027619","o":"Canadian Royalties Inc. 100%","e":""},"geometry":{"type":"Polygon","coordinates":[[[-73.95,61.48333],[-73.95,61.475],[-73.95833,61.475],[-73.95833,61.48333],[-73.95,61.48333]]]}},{"type":"Feature","properties":{"c":"CDC-1027618","o":"Canadian Royalties Inc. 100%","e":""},"geometry":{"type":"Polygon","coordinates":[[[-73.95833,61.48333],[-73.95833,61.475],[-73.96667,61.475],[-73.96667,61.48333],[-73.95833,61.48333]]]}},{"type":"Feature","properties":{"c":"CDC-2558569","o":"9414-5349 Qu\u00e9bec inc. 100%","e":""},"geometry":{"type":"Polygon","coordinates":[[[-73.96667,61.48333],[-73.96667,61.475],[-73.975,61.475],[-73.975,61.48333],[-73.96667,61.48333]]]}},{"type":"Feature","properties":{"c":"CDC-2558568","o":"9414-5349 Qu\u00e9bec inc. 100%","e":""},"geometry":{"type":"Polygon","coordinates":[[[-73.975,61.48333],[-73.975,61.475],[-73.98333,61.475],[-73.98333,61.48333],[-73.975,61.48333]]]}},{"type":"Feature","properties":{"c":"CDC-2558690","o":"9414-5349 Qu\u00e9bec inc. 100%","e":""},"geometry":{"type":"Polygon","coordinates":[[[-73.725,61.475],[-73.725,61.46667],[-73.73333,61.46667],[-73.73333,61.475],[-73.725,61.475]]]}},{"type":"Feature","properties":{"c":"CDC-2558703","o":"9414-5349 Qu\u00e9bec inc. 100%","e":""},"geometry":{"type":"Polygon","coordinates":[[[-73.725,61.48333],[-73.725,61.475],[-73.73333,61.475],[-73.73333,61.48333],[-73.725,61.48333]]]}},{"type":"Feature","properties":{"c":"CDC-1005945","o":"Canadian Royalties Inc. 100%","e":""},"geometry":{"type":"Polygon","coordinates":[[[-73.725,61.49167],[-73.725,61.48333],[-73.73333,61.48333],[-73.73333,61.49167],[-73.725,61.49167]]]}},{"type":"Feature","properties":{"c":"CDC-2561932","o":"9414-5349 Qu\u00e9bec inc. 100%","e":""},"geometry":{"type":"Polygon","coordinates":[[[-73.725,61.45863],[-73.725,61.46667],[-73.71667,61.46667],[-73.71667,61.45833],[-73.72073,61.45833],[-73.725,61.45863]]]}},{"type":"Feature","properties":{"c":"CDC-2558691","o":"9414-5349 Qu\u00e9bec inc. 100%","e":""},"geometry":{"type":"Polygon","coordinates":[[[-73.71667,61.475],[-73.71667,61.46667],[-73.725,61.46667],[-73.725,61.475],[-73.71667,61.475]]]}},{"type":"Feature","properties":{"c":"CDC-2558704","o":"9414-5349 Qu\u00e9bec inc. 100%","e":""},"geometry":{"type":"Polygon","coordinates":[[[-73.71667,61.48333],[-73.71667,61.475],[-73.725,61.475],[-73.725,61.48333],[-73.71667,61.48333]]]}},{"type":"Feature","properties":{"c":"CDC-1005946","o":"Canadian Royalties Inc. 100%","e":""},"geometry":{"type":"Polygon","coordinates":[[[-73.71667,61.49167],[-73.71667,61.48333],[-73.725,61.48333],[-73.725,61.49167],[-73.71667,61.49167]]]}},{"type":"Feature","properties":{"c":"CDC-2558682","o":"9414-5349 Qu\u00e9bec inc. 100%","e":""},"geometry":{"type":"Polygon","coordinates":[[[-73.70833,61.46667],[-73.70833,61.45833],[-73.71667,61.45833],[-73.71667,61.46667],[-73.70833,61.46667]]]}},{"type":"Feature","properties":{"c":"CDC-2558692","o":"9414-5349 Qu\u00e9bec inc. 100%","e":""},"geometry":{"type":"Polygon","coordinates":[[[-73.70833,61.475],[-73.70833,61.46667],[-73.71667,61.46667],[-73.71667,61.475],[-73.70833,61.475]]]}},{"type":"Feature","properties":{"c":"CDC-2558705","o":"9414-5349 Qu\u00e9bec inc. 100%","e":""},"geometry":{"type":"Polygon","coordinates":[[[-73.70833,61.48333],[-73.70833,61.475],[-73.71667,61.475],[-73.71667,61.48333],[-73.70833,61.48333]]]}},{"type":"Feature","properties":{"c":"CDC-2430686","o":"Canadian Royalties Inc. 100%","e":""},"geometry":{"type":"Polygon","coordinates":[[[-73.70833,61.49167],[-73.70833,61.48333],[-73.71667,61.48333],[-73.71667,61.49167],[-73.70833,61.49167]]]}},{"type":"Feature","properties":{"c":"CDC-2558683","o":"9414-5349 Qu\u00e9bec inc. 100%","e":""},"geometry":{"type":"Polygon","coordinates":[[[-73.7,61.46667],[-73.7,61.45833],[-73.70833,61.45833],[-73.70833,61.46667],[-73.7,61.46667]]]}},{"type":"Feature","properties":{"c":"CDC-2558693","o":"9414-5349 Qu\u00e9bec inc. 100%","e":""},"geometry":{"type":"Polygon","coordinates":[[[-73.7,61.475],[-73.7,61.46667],[-73.70833,61.46667],[-73.70833,61.475],[-73.7,61.475]]]}},{"type":"Feature","properties":{"c":"CDC-2558706","o":"9414-5349 Qu\u00e9bec inc. 100%","e":""},"geometry":{"type":"Polygon","coordinates":[[[-73.7,61.48333],[-73.7,61.475],[-73.70833,61.475],[-73.70833,61.48333],[-73.7,61.48333]]]}},{"type":"Feature","properties":{"c":"CDC-2430687","o":"Canadian Royalties Inc. 100%","e":""},"geometry":{"type":"Polygon","coordinates":[[[-73.7,61.49167],[-73.7,61.48333],[-73.70833,61.48333],[-73.70833,61.49167],[-73.7,61.49167]]]}},{"type":"Feature","properties":{"c":"CDC-2558684","o":"9414-5349 Qu\u00e9bec inc. 100%","e":""},"geometry":{"type":"Polygon","coordinates":[[[-73.69167,61.46667],[-73.69167,61.45833],[-73.7,61.45833],[-73.7,61.46667],[-73.69167,61.46667]]]}},{"type":"Feature","properties":{"c":"CDC-2558694","o":"9414-5349 Qu\u00e9bec inc. 100%","e":""},"geometry":{"type":"Polygon","coordinates":[[[-73.69167,61.475],[-73.69167,61.46667],[-73.7,61.46667],[-73.7,61.475],[-73.69167,61.475]]]}},{"type":"Feature","properties":{"c":"CDC-2558707","o":"9414-5349 Qu\u00e9bec inc. 100%","e":""},"geometry":{"type":"Polygon","coordinates":[[[-73.69167,61.48333],[-73.69167,61.475],[-73.7,61.475],[-73.7,61.48333],[-73.69167,61.48333]]]}},{"type":"Feature","properties":{"c":"CDC-2430688","o":"Canadian Royalties Inc. 100%","e":""},"geometry":{"type":"Polygon","coordinates":[[[-73.69167,61.49167],[-73.69167,61.48333],[-73.7,61.48333],[-73.7,61.49167],[-73.69167,61.49167]]]}},{"type":"Feature","properties":{"c":"CDC-2558685","o":"9414-5349 Qu\u00e9bec inc. 100%","e":""},"geometry":{"type":"Polygon","coordinates":[[[-73.68333,61.46667],[-73.68333,61.45833],[-73.69167,61.45833],[-73.69167,61.46667],[-73.68333,61.46667]]]}},{"type":"Feature","properties":{"c":"CDC-2558695","o":"9414-5349 Qu\u00e9bec inc. 100%","e":""},"geometry":{"type":"Polygon","coordinates":[[[-73.68333,61.475],[-73.68333,61.46667],[-73.69167,61.46667],[-73.69167,61.475],[-73.68333,61.475]]]}},{"type":"Feature","properties":{"c":"CDC-2558708","o":"9414-5349 Qu\u00e9bec inc. 100%","e":""},"geometry":{"type":"Polygon","coordinates":[[[-73.68333,61.48333],[-73.68333,61.475],[-73.69167,61.475],[-73.69167,61.48333],[-73.68333,61.48333]]]}},{"type":"Feature","properties":{"c":"CDC-2430689","o":"Canadian Royalties Inc. 100%","e":""},"geometry":{"type":"Polygon","coordinates":[[[-73.68333,61.49167],[-73.68333,61.48333],[-73.69167,61.48333],[-73.69167,61.49167],[-73.68333,61.49167]]]}},{"type":"Feature","properties":{"c":"CDC-1005967","o":"Canadian Royalties Inc. 100%","e":""},"geometry":{"type":"Polygon","coordinates":[[[-73.68333,61.5],[-73.68333,61.49167],[-73.69167,61.49167],[-73.69167,61.5],[-73.68333,61.5]]]}},{"type":"Feature","properties":{"c":"CDC-2558686","o":"9414-5349 Qu\u00e9bec inc. 100%","e":""},"geometry":{"type":"Polygon","coordinates":[[[-73.675,61.46667],[-73.675,61.45833],[-73.68333,61.45833],[-73.68333,61.46667],[-73.675,61.46667]]]}},{"type":"Feature","properties":{"c":"CDC-2558696","o":"9414-5349 Qu\u00e9bec inc. 100%","e":""},"geometry":{"type":"Polygon","coordinates":[[[-73.675,61.475],[-73.675,61.46667],[-73.68333,61.46667],[-73.68333,61.475],[-73.675,61.475]]]}},{"type":"Feature","properties":{"c":"CDC-2558709","o":"9414-5349 Qu\u00e9bec inc. 100%","e":""},"geometry":{"type":"Polygon","coordinates":[[[-73.675,61.48333],[-73.675,61.475],[-73.68333,61.475],[-73.68333,61.48333],[-73.675,61.48333]]]}},{"type":"Feature","properties":{"c":"CDC-2561917","o":"9414-5349 Qu\u00e9bec inc. 100%","e":""},"geometry":{"type":"Polygon","coordinates":[[[-73.96667,61.425],[-73.96667,61.43333],[-73.95833,61.43333],[-73.95833,61.42683],[-73.96399,61.425],[-73.96667,61.425]]]}},{"type":"Feature","properties":{"c":"CDC-1027918","o":"Canadian Royalties Inc. 100%","e":""},"geometry":{"type":"Polygon","coordinates":[[[-73.96667,61.43333],[-73.96667,61.425],[-73.975,61.425],[-73.975,61.43333],[-73.96667,61.43333]]]}},{"type":"Feature","properties":{"c":"CDC-1027917","o":"Canadian Royalties Inc. 100%","e":""},"geometry":{"type":"Polygon","coordinates":[[[-73.975,61.43333],[-73.975,61.425],[-73.98333,61.425],[-73.98333,61.43333],[-73.975,61.43333]]]}},{"type":"Feature","properties":{"c":"CDC-1027916","o":"Canadian Royalties Inc. 100%","e":""},"geometry":{"type":"Polygon","coordinates":[[[-73.98333,61.43333],[-73.98333,61.425],[-73.99167,61.425],[-73.99167,61.43333],[-73.98333,61.43333]]]}},{"type":"Feature","properties":{"c":"CDC-2561918","o":"9414-5349 Qu\u00e9bec inc. 100%","e":""},"geometry":{"type":"Polygon","coordinates":[[[-73.95833,61.43333],[-73.95,61.43333],[-73.95,61.42952],[-73.95833,61.42683],[-73.95833,61.43333]]]}},{"type":"Feature","properties":{"c":"CDC-2561921","o":"9414-5349 Qu\u00e9bec inc. 100%","e":""},"geometry":{"type":"Polygon","coordinates":[[[-73.93333,61.42938],[-73.93333,61.43333],[-73.925,61.43333],[-73.925,61.42848],[-73.93333,61.42938]]]}},{"type":"Feature","properties":{"c":"CDC-2561920","o":"9414-5349 Qu\u00e9bec inc. 100%","e":""},"geometry":{"type":"Polygon","coordinates":[[[-73.94167,61.43333],[-73.93333,61.43333],[-73.93333,61.42938],[-73.94167,61.43028],[-73.94167,61.43333]]]}},{"type":"Feature","properties":{"c":"CDC-2561919","o":"9414-5349 Qu\u00e9bec inc. 100%","e":""},"geometry":{"type":"Polygon","coordinates":[[[-73.95,61.43333],[-73.94167,61.43333],[-73.94167,61.43028],[-73.94616,61.43076],[-73.95,61.42952],[-73.95,61.43333]]]}},{"type":"Feature","properties":{"c":"CDC-2558546","o":"9414-5349 Qu\u00e9bec inc. 100%","e":""},"geometry":{"type":"Polygon","coordinates":[[[-73.925,61.44167],[-73.925,61.43333],[-73.93333,61.43333],[-73.93333,61.44167],[-73.925,61.44167]]]}},{"type":"Feature","properties":{"c":"CDC-2558545","o":"9414-5349 Qu\u00e9bec inc. 100%","e":""},"geometry":{"type":"Polygon","coordinates":[[[-73.93333,61.44167],[-73.93333,61.43333],[-73.94167,61.43333],[-73.94167,61.44167],[-73.93333,61.44167]]]}},{"type":"Feature","properties":{"c":"CDC-2558544","o":"9414-5349 Qu\u00e9bec inc. 100%","e":""},"geometry":{"type":"Polygon","coordinates":[[[-73.94167,61.44167],[-73.94167,61.43333],[-73.95,61.43333],[-73.95,61.44167],[-73.94167,61.44167]]]}},{"type":"Feature","properties":{"c":"CDC-2558543","o":"9414-5349 Qu\u00e9bec inc. 100%","e":""},"geometry":{"type":"Polygon","coordinates":[[[-73.95,61.44167],[-73.95,61.43333],[-73.95833,61.43333],[-73.95833,61.44167],[-73.95,61.44167]]]}},{"type":"Feature","properties":{"c":"CDC-2558542","o":"9414-5349 Qu\u00e9bec inc. 100%","e":""},"geometry":{"type":"Polygon","coordinates":[[[-73.95833,61.44167],[-73.95833,61.43333],[-73.96667,61.43333],[-73.96667,61.44167],[-73.95833,61.44167]]]}},{"type":"Feature","properties":{"c":"CDC-1027922","o":"Canadian Royalties Inc. 100%","e":""},"geometry":{"type":"Polygon","coordinates":[[[-73.96667,61.44167],[-73.96667,61.43333],[-73.975,61.43333],[-73.975,61.44167],[-73.96667,61.44167]]]}},{"type":"Feature","properties":{"c":"CDC-1027921","o":"Canadian Royalties Inc. 100%","e":""},"geometry":{"type":"Polygon","coordinates":[[[-73.975,61.44167],[-73.975,61.43333],[-73.98333,61.43333],[-73.98333,61.44167],[-73.975,61.44167]]]}},{"type":"Feature","properties":{"c":"CDC-1027920","o":"Canadian Royalties Inc. 100%","e":""},"geometry":{"type":"Polygon","coordinates":[[[-73.98333,61.44167],[-73.98333,61.43333],[-73.99167,61.43333],[-73.99167,61.44167],[-73.98333,61.44167]]]}},{"type":"Feature","properties":{"c":"CDC-2558553","o":"9414-5349 Qu\u00e9bec inc. 100%","e":""},"geometry":{"type":"Polygon","coordinates":[[[-73.93333,61.45],[-73.93333,61.44167],[-73.94167,61.44167],[-73.94167,61.45],[-73.93333,61.45]]]}},{"type":"Feature","properties":{"c":"CDC-2558552","o":"9414-5349 Qu\u00e9bec inc. 100%","e":""},"geometry":{"type":"Polygon","coordinates":[[[-73.94167,61.45],[-73.94167,61.44167],[-73.95,61.44167],[-73.95,61.45],[-73.94167,61.45]]]}},{"type":"Feature","properties":{"c":"CDC-2558551","o":"9414-5349 Qu\u00e9bec inc. 100%","e":""},"geometry":{"type":"Polygon","coordinates":[[[-73.95,61.45],[-73.95,61.44167],[-73.95833,61.44167],[-73.95833,61.45],[-73.95,61.45]]]}},{"type":"Feature","properties":{"c":"CDC-2558550","o":"9414-5349 Qu\u00e9bec inc. 100%","e":""},"geometry":{"type":"Polygon","coordinates":[[[-73.95833,61.45],[-73.95833,61.44167],[-73.96667,61.44167],[-73.96667,61.45],[-73.95833,61.45]]]}},{"type":"Feature","properties":{"c":"CDC-1027926","o":"Canadian Royalties Inc. 100%","e":""},"geometry":{"type":"Polygon","coordinates":[[[-73.96667,61.45],[-73.96667,61.44167],[-73.975,61.44167],[-73.975,61.45],[-73.96667,61.45]]]}},{"type":"Feature","properties":{"c":"CDC-1027925","o":"Canadian Royalties Inc. 100%","e":""},"geometry":{"type":"Polygon","coordinates":[[[-73.975,61.45],[-73.975,61.44167],[-73.98333,61.44167],[-73.98333,61.45],[-73.975,61.45]]]}},{"type":"Feature","properties":{"c":"CDC-1027924","o":"Canadian Royalties Inc. 100%","e":""},"geometry":{"type":"Polygon","coordinates":[[[-73.98333,61.45],[-73.98333,61.44167],[-73.99167,61.44167],[-73.99167,61.45],[-73.98333,61.45]]]}},{"type":"Feature","properties":{"c":"CDC-1027923","o":"Canadian Royalties Inc. 100%","e":""},"geometry":{"type":"Polygon","coordinates":[[[-73.99167,61.45],[-73.99167,61.44167],[-74.0,61.44167],[-74.0,61.45],[-73.99167,61.45]]]}},{"type":"Feature","properties":{"c":"CDC-1027592","o":"Canadian Royalties Inc. 100%","e":""},"geometry":{"type":"Polygon","coordinates":[[[-73.93333,61.45833],[-73.93333,61.45],[-73.94167,61.45],[-73.94167,61.45833],[-73.93333,61.45833]]]}},{"type":"Feature","properties":{"c":"CDC-1027591","o":"Canadian Royalties Inc. 100%","e":""},"geometry":{"type":"Polygon","coordinates":[[[-73.94167,61.45833],[-73.94167,61.45],[-73.95,61.45],[-73.95,61.45833],[-73.94167,61.45833]]]}},{"type":"Feature","properties":{"c":"CDC-1027590","o":"Canadian Royalties Inc. 100%","e":""},"geometry":{"type":"Polygon","coordinates":[[[-73.95,61.45833],[-73.95,61.45],[-73.95833,61.45],[-73.95833,61.45833],[-73.95,61.45833]]]}},{"type":"Feature","properties":{"c":"CDC-2561925","o":"9414-5349 Qu\u00e9bec inc. 100%","e":""},"geometry":{"type":"Polygon","coordinates":[[[-73.9,61.43333],[-73.89558,61.43333],[-73.89804,61.42556],[-73.9,61.42578],[-73.9,61.43333]]]}},{"type":"Feature","properties":{"c":"CDC-2561924","o":"9414-5349 Qu\u00e9bec inc. 100%","e":""},"geometry":{"type":"Polygon","coordinates":[[[-73.90833,61.42668],[-73.90833,61.43333],[-73.9,61.43333],[-73.9,61.42578],[-73.90833,61.42668]]]}},{"type":"Feature","properties":{"c":"CDC-2561923","o":"9414-5349 Qu\u00e9bec inc. 100%","e":""},"geometry":{"type":"Polygon","coordinates":[[[-73.91667,61.43333],[-73.90833,61.43333],[-73.90833,61.42668],[-73.91667,61.42758],[-73.91667,61.43333]]]}},{"type":"Feature","properties":{"c":"CDC-2561922","o":"9414-5349 Qu\u00e9bec inc. 100%","e":""},"geometry":{"type":"Polygon","coordinates":[[[-73.91667,61.43333],[-73.91667,61.42758],[-73.925,61.42848],[-73.925,61.43333],[-73.91667,61.43333]]]}},{"type":"Feature","properties":{"c":"CDC-2561926","o":"9414-5349 Qu\u00e9bec inc. 100%","e":""},"geometry":{"type":"Polygon","coordinates":[[[-73.89261,61.44167],[-73.89315,61.44101],[-73.89558,61.43333],[-73.9,61.43333],[-73.9,61.44167],[-73.89261,61.44167]]]}},{"type":"Feature","properties":{"c":"CDC-2558549","o":"9414-5349 Qu\u00e9bec inc. 100%","e":""},"geometry":{"type":"Polygon","coordinates":[[[-73.9,61.44167],[-73.9,61.43333],[-73.90833,61.43333],[-73.90833,61.44167],[-73.9,61.44167]]]}},{"type":"Feature","properties":{"c":"CDC-2558548","o":"9414-5349 Qu\u00e9bec inc. 100%","e":""},"geometry":{"type":"Polygon","coordinates":[[[-73.90833,61.44167],[-73.90833,61.43333],[-73.91667,61.43333],[-73.91667,61.44167],[-73.90833,61.44167]]]}},{"type":"Feature","properties":{"c":"CDC-2558547","o":"9414-5349 Qu\u00e9bec inc. 100%","e":""},"geometry":{"type":"Polygon","coordinates":[[[-73.91667,61.44167],[-73.91667,61.43333],[-73.925,61.43333],[-73.925,61.44167],[-73.91667,61.44167]]]}},{"type":"Feature","properties":{"c":"CDC-2561927","o":"9414-5349 Qu\u00e9bec inc. 100%","e":""},"geometry":{"type":"Polygon","coordinates":[[[-73.9,61.45],[-73.89167,61.45],[-73.89167,61.44282],[-73.89261,61.44167],[-73.9,61.44167],[-73.9,61.45]]]}},{"type":"Feature","properties":{"c":"CDC-2558557","o":"9414-5349 Qu\u00e9bec inc. 100%","e":""},"geometry":{"type":"Polygon","coordinates":[[[-73.9,61.45],[-73.9,61.44167],[-73.90833,61.44167],[-73.90833,61.45],[-73.9,61.45]]]}},{"type":"Feature","properties":{"c":"CDC-2558556","o":"9414-5349 Qu\u00e9bec inc. 100%","e":""},"geometry":{"type":"Polygon","coordinates":[[[-73.90833,61.45],[-73.90833,61.44167],[-73.91667,61.44167],[-73.91667,61.45],[-73.90833,61.45]]]}},{"type":"Feature","properties":{"c":"CDC-2558555","o":"9414-5349 Qu\u00e9bec inc. 100%","e":""},"geometry":{"type":"Polygon","coordinates":[[[-73.91667,61.45],[-73.91667,61.44167],[-73.925,61.44167],[-73.925,61.45],[-73.91667,61.45]]]}},{"type":"Feature","properties":{"c":"CDC-2561928","o":"9414-5349 Qu\u00e9bec inc. 100%","e":""},"geometry":{"type":"Polygon","coordinates":[[[-73.89167,61.44282],[-73.89167,61.45],[-73.88582,61.45],[-73.89167,61.44282]]]}},{"type":"Feature","properties":{"c":"CDC-2558554","o":"9414-5349 Qu\u00e9bec inc. 100%","e":""},"geometry":{"type":"Polygon","coordinates":[[[-73.925,61.45],[-73.925,61.44167],[-73.93333,61.44167],[-73.93333,61.45],[-73.925,61.45]]]}},{"type":"Feature","properties":{"c":"CDC-2535650","o":"Canadian Royalties Inc. 100%","e":""},"geometry":{"type":"Polygon","coordinates":[[[-73.89167,61.45833],[-73.88333,61.45833],[-73.88333,61.45305],[-73.88582,61.45],[-73.89167,61.45],[-73.89167,61.45833]]]}},{"type":"Feature","properties":{"c":"CDC-2535028","o":"Canadian Royalties Inc. 100%","e":""},"geometry":{"type":"Polygon","coordinates":[[[-73.89167,61.45833],[-73.89167,61.45],[-73.9,61.45],[-73.9,61.45833],[-73.89167,61.45833]]]}},{"type":"Feature","properties":{"c":"CDC-2535027","o":"Canadian Royalties Inc. 100%","e":""},"geometry":{"type":"Polygon","coordinates":[[[-73.9,61.45833],[-73.9,61.45],[-73.90833,61.45],[-73.90833,61.45833],[-73.9,61.45833]]]}},{"type":"Feature","properties":{"c":"CDC-1027595","o":"Canadian Royalties Inc. 100%","e":""},"geometry":{"type":"Polygon","coordinates":[[[-73.90833,61.45833],[-73.90833,61.45],[-73.91667,61.45],[-73.91667,61.45833],[-73.90833,61.45833]]]}},{"type":"Feature","properties":{"c":"CDC-1027594","o":"Canadian Royalties Inc. 100%","e":""},"geometry":{"type":"Polygon","coordinates":[[[-73.91667,61.45833],[-73.91667,61.45],[-73.925,61.45],[-73.925,61.45833],[-73.91667,61.45833]]]}},{"type":"Feature","properties":{"c":"CDC-1027593","o":"Canadian Royalties Inc. 100%","e":""},"geometry":{"type":"Polygon","coordinates":[[[-73.925,61.45833],[-73.925,61.45],[-73.93333,61.45],[-73.93333,61.45833],[-73.925,61.45833]]]}},{"type":"Feature","properties":{"c":"CDC-2535651","o":"Canadian Royalties Inc. 100%","e":""},"geometry":{"type":"Polygon","coordinates":[[[-73.875,61.45833],[-73.875,61.45521],[-73.87621,61.45523],[-73.88146,61.45534],[-73.88333,61.45305],[-73.88333,61.45833],[-73.875,61.45833]]]}},{"type":"Feature","properties":{"c":"CDC-1129606","o":"Canadian Royalties Inc. 100%","e":""},"geometry":{"type":"Polygon","coordinates":[[[-73.85,61.45833],[-73.85,61.45471],[-73.85833,61.45488],[-73.85833,61.45833],[-73.85,61.45833]]]}},{"type":"Feature","properties":{"c":"CDC-1129605","o":"Canadian Royalties Inc. 100%","e":""},"geometry":{"type":"Polygon","coordinates":[[[-73.85833,61.45833],[-73.85833,61.45488],[-73.86667,61.45504],[-73.86667,61.45833],[-73.85833,61.45833]]]}},{"type":"Feature","properties":{"c":"CDC-1129604","o":"Canadian Royalties Inc. 100%","e":""},"geometry":{"type":"Polygon","coordinates":[[[-73.86667,61.45833],[-73.86667,61.45504],[-73.875,61.45521],[-73.875,61.45833],[-73.86667,61.45833]]]}},{"type":"Feature","properties":{"c":"CDC-1027606","o":"Canadian Royalties Inc. 100%","e":""},"geometry":{"type":"Polygon","coordinates":[[[-73.85,61.46667],[-73.85,61.45833],[-73.85833,61.45833],[-73.85833,61.46667],[-73.85,61.46667]]]}},{"type":"Feature","properties":{"c":"CDC-1027605","o":"Canadian Royalties Inc. 100%","e":""},"geometry":{"type":"Polygon","coordinates":[[[-73.85833,61.46667],[-73.85833,61.45833],[-73.86667,61.45833],[-73.86667,61.46667],[-73.85833,61.46667]]]}},{"type":"Feature","properties":{"c":"CDC-1027604","o":"Canadian Royalties Inc. 100%","e":""},"geometry":{"type":"Polygon","coordinates":[[[-73.86667,61.46667],[-73.86667,61.45833],[-73.875,61.45833],[-73.875,61.46667],[-73.86667,61.46667]]]}},{"type":"Feature","properties":{"c":"CDC-1027636","o":"Canadian Royalties Inc. 100%","e":""},"geometry":{"type":"Polygon","coordinates":[[[-74.0,61.425],[-74.0,61.41667],[-74.00833,61.41667],[-74.00833,61.425],[-74.0,61.425]]]}},{"type":"Feature","properties":{"c":"CDC-1027648","o":"Canadian Royalties Inc. 100%","e":""},"geometry":{"type":"Polygon","coordinates":[[[-74.0,61.43333],[-74.0,61.425],[-74.00833,61.425],[-74.00833,61.43333],[-74.0,61.43333]]]}},{"type":"Feature","properties":{"c":"CDC-1027660","o":"Canadian Royalties Inc. 100%","e":""},"geometry":{"type":"Polygon","coordinates":[[[-74.0,61.44167],[-74.0,61.43333],[-74.00833,61.43333],[-74.00833,61.44167],[-74.0,61.44167]]]}},{"type":"Feature","properties":{"c":"CDC-1027667","o":"Canadian Royalties Inc. 100%","e":""},"geometry":{"type":"Polygon","coordinates":[[[-74.0,61.45],[-74.0,61.44167],[-74.00833,61.44167],[-74.00833,61.45],[-74.0,61.45]]]}},{"type":"Feature","properties":{"c":"CDC-2558365","o":"9414-5349 Qu\u00e9bec inc. 100%","e":""},"geometry":{"type":"Polygon","coordinates":[[[-74.0,61.45833],[-74.0,61.45],[-74.00833,61.45],[-74.00833,61.45833],[-74.0,61.45833]]]}},{"type":"Feature","properties":{"c":"CDC-1027911","o":"Canadian Royalties Inc. 100%","e":""},"geometry":{"type":"Polygon","coordinates":[[[-73.99167,61.425],[-73.99167,61.41667],[-74.0,61.41667],[-74.0,61.425],[-73.99167,61.425]]]}},{"type":"Feature","properties":{"c":"CDC-1027915","o":"Canadian Royalties Inc. 100%","e":""},"geometry":{"type":"Polygon","coordinates":[[[-73.99167,61.43333],[-73.99167,61.425],[-74.0,61.425],[-74.0,61.43333],[-73.99167,61.43333]]]}},{"type":"Feature","properties":{"c":"CDC-1027919","o":"Canadian Royalties Inc. 100%","e":""},"geometry":{"type":"Polygon","coordinates":[[[-73.99167,61.44167],[-73.99167,61.43333],[-74.0,61.43333],[-74.0,61.44167],[-73.99167,61.44167]]]}}]}