{"type":"FeatureCollection","features":[{"type":"Feature","properties":{"c":"CDC-2336626","o":"Lomiko Metals Inc. 100%","e":""},"geometry":{"type":"Polygon","coordinates":[[[-75.0,45.99167],[-74.99167,45.99167],[-74.99167,45.98333],[-75.0,45.98333],[-75.0,45.99167]]]}},{"type":"Feature","properties":{"c":"CDC-2336616","o":"Lomiko Metals Inc. 100%","e":""},"geometry":{"type":"Polygon","coordinates":[[[-75.00833,45.99167],[-75.0,45.99167],[-75.0,45.98333],[-75.00833,45.98333],[-75.00833,45.99167]]]}},{"type":"Feature","properties":{"c":"CDC-2637257","o":"Lomiko Metals Inc. 100%","e":""},"geometry":{"type":"Polygon","coordinates":[[[-74.975,46.0],[-74.96667,46.0],[-74.96667,45.99167],[-74.975,45.99167],[-74.975,46.0]]]}},{"type":"Feature","properties":{"c":"CDC-2637256","o":"Lomiko Metals Inc. 100%","e":""},"geometry":{"type":"Polygon","coordinates":[[[-74.98333,46.0],[-74.975,46.0],[-74.975,45.99167],[-74.98333,45.99167],[-74.98333,46.0]]]}},{"type":"Feature","properties":{"c":"CDC-2336629","o":"Lomiko Metals Inc. 100%","e":""},"geometry":{"type":"Polygon","coordinates":[[[-74.99167,46.0],[-74.98333,46.0],[-74.98333,45.99167],[-74.99167,45.99167],[-74.99167,46.0]]]}},{"type":"Feature","properties":{"c":"CDC-2336628","o":"Lomiko Metals Inc. 100%","e":""},"geometry":{"type":"Polygon","coordinates":[[[-75.0,46.0],[-74.99167,46.0],[-74.99167,45.99167],[-75.0,45.99167],[-75.0,46.0]]]}},{"type":"Feature","properties":{"c":"CDC-2336617","o":"Lomiko Metals Inc. 100%","e":""},"geometry":{"type":"Polygon","coordinates":[[[-75.00833,46.0],[-75.0,46.0],[-75.0,45.99167],[-75.00833,45.99167],[-75.00833,46.0]]]}},{"type":"Feature","properties":{"c":"CDC-2849880","o":"Tommy Perreault 100%","e":""},"geometry":{"type":"Polygon","coordinates":[[[-74.94167,45.98333],[-74.93333,45.98333],[-74.93333,45.975],[-74.94167,45.975],[-74.94167,45.98333]]]}},{"type":"Feature","properties":{"c":"CDC-2849882","o":"Tommy Perreault 100%","e":""},"geometry":{"type":"Polygon","coordinates":[[[-74.94167,45.99167],[-74.93333,45.99167],[-74.93333,45.98333],[-74.94167,45.98333],[-74.94167,45.99167]]]}},{"type":"Feature","properties":{"c":"CDC-2849881","o":"Tommy Perreault 100%","e":""},"geometry":{"type":"Polygon","coordinates":[[[-74.93333,45.98333],[-74.925,45.98333],[-74.925,45.975],[-74.93333,45.975],[-74.93333,45.98333]]]}},{"type":"Feature","properties":{"c":"CDC-2849883","o":"Tommy Perreault 100%","e":""},"geometry":{"type":"Polygon","coordinates":[[[-74.93333,45.99167],[-74.925,45.99167],[-74.925,45.98333],[-74.93333,45.98333],[-74.93333,45.99167]]]}},{"type":"Feature","properties":{"c":"CDC-2848698","o":"9430-4979 QU\u00c9BEC INC. 100%","e":""},"geometry":{"type":"Polygon","coordinates":[[[-74.825,46.0],[-74.825,45.99167],[-74.83154,45.99167],[-74.83154,45.9928],[-74.83152,45.99301],[-74.83153,45.99403],[-74.83153,45.99421],[-74.83154,45.99948],[-74.83143,45.99972],[-74.83143,46.0],[-74.825,46.0]]]}},{"type":"Feature","properties":{"c":"CDC-2857595","o":"9430-4979 QU\u00c9BEC INC. 100%","e":""},"geometry":{"type":"Polygon","coordinates":[[[-74.825,46.0],[-74.81667,46.0],[-74.81667,45.99167],[-74.825,45.99167],[-74.825,46.0]]]}},{"type":"Feature","properties":{"c":"CDC-2857596","o":"9430-4979 QU\u00c9BEC INC. 100%","e":""},"geometry":{"type":"Polygon","coordinates":[[[-74.81667,46.0],[-74.80833,46.0],[-74.80833,45.99167],[-74.81667,45.99167],[-74.81667,46.0]]]}},{"type":"Feature","properties":{"c":"CDC-2848697","o":"9430-4979 QU\u00c9BEC INC. 100%","e":""},"geometry":{"type":"Polygon","coordinates":[[[-74.80397,45.98333],[-74.80833,45.98333],[-74.80833,45.99167],[-74.8,45.99167],[-74.8,45.98982],[-74.80011,45.98975],[-74.80012,45.98975],[-74.80047,45.98961],[-74.8009,45.98942],[-74.80131,45.98921],[-74.80169,45.98898],[-74.80205,45.98874],[-74.80208,45.98871],[-74.80209,45.98871],[-74.80243,45.98844],[-74.80275,45.98817],[-74.80304,45.98788],[-74.8033,45.98757],[-74.80348,45.98733],[-74.8035,45.9873],[-74.80355,45.98723],[-74.80375,45.98691],[-74.80392,45.98657],[-74.80406,45.98623],[-74.80417,45.98589],[-74.80422,45.98568],[-74.80422,45.98565],[-74.80425,45.98551],[-74.80429,45.98516],[-74.8043,45.9848],[-74.80427,45.98445],[-74.80422,45.9841],[-74.80418,45.98396],[-74.80418,45.98393],[-74.80412,45.98372],[-74.80399,45.98338],[-74.80397,45.98333]]]}},{"type":"Feature","properties":{"c":"CDC-2857597","o":"9430-4979 QU\u00c9BEC INC. 100%","e":""},"geometry":{"type":"Polygon","coordinates":[[[-74.80833,46.0],[-74.8,46.0],[-74.8,45.99167],[-74.80833,45.99167],[-74.80833,46.0]]]}},{"type":"Feature","properties":{"c":"CDC-2842855","o":"9430-4979 QU\u00c9BEC INC. 100%","e":""},"geometry":{"type":"Polygon","coordinates":[[[-74.79198,45.99072],[-74.79221,45.99078],[-74.79245,45.99084],[-74.79294,45.99093],[-74.79344,45.99101],[-74.79374,45.99104],[-74.7938,45.99105],[-74.794,45.99107],[-74.79451,45.99109],[-74.79501,45.9911],[-74.79552,45.99108],[-74.79602,45.99104],[-74.79622,45.99102],[-74.79628,45.99101],[-74.79659,45.99097],[-74.79708,45.99089],[-74.79756,45.99078],[-74.79803,45.99065],[-74.79849,45.9905],[-74.79857,45.99047],[-74.79871,45.99042],[-74.79907,45.99027],[-74.7995,45.99008],[-74.79991,45.98987],[-74.8,45.98982],[-74.8,45.99167],[-74.79167,45.99167],[-74.79167,45.99062],[-74.79198,45.99072]]]}},{"type":"Feature","properties":{"c":"CDC-2840069","o":"9430-4979 QU\u00c9BEC INC. 100%","e":""},"geometry":{"type":"Polygon","coordinates":[[[-74.8,46.0],[-74.79167,46.0],[-74.79167,45.99167],[-74.8,45.99167],[-74.8,46.0]]]}},{"type":"Feature","properties":{"c":"CDC-2848699","o":"9430-4979 QU\u00c9BEC INC. 100%","e":""},"geometry":{"type":"Polygon","coordinates":[[[-74.78378,45.99283],[-74.78426,45.99273],[-74.78473,45.9926],[-74.78519,45.99245],[-74.78527,45.99242],[-74.78532,45.9924],[-74.78569,45.99225],[-74.78611,45.99206],[-74.78652,45.99185],[-74.78683,45.99167],[-74.79167,45.99167],[-74.79167,46.0],[-74.78333,46.0],[-74.78333,45.99291],[-74.78378,45.99283]]]}},{"type":"Feature","properties":{"c":"CDC-2333037","o":"Lomiko Metals Inc. 100%","e":""},"geometry":{"type":"Polygon","coordinates":[[[-74.975,45.95833],[-74.96667,45.95833],[-74.96667,45.95],[-74.975,45.95],[-74.975,45.95833]]]}},{"type":"Feature","properties":{"c":"CDC-2333036","o":"Lomiko Metals Inc. 100%","e":""},"geometry":{"type":"Polygon","coordinates":[[[-74.98333,45.95833],[-74.975,45.95833],[-74.975,45.95],[-74.98333,45.95],[-74.98333,45.95833]]]}},{"type":"Feature","properties":{"c":"CDC-2333035","o":"Lomiko Metals Inc. 100%","e":""},"geometry":{"type":"Polygon","coordinates":[[[-74.99167,45.95833],[-74.98333,45.95833],[-74.98333,45.95],[-74.99167,45.95],[-74.99167,45.95833]]]}},{"type":"Feature","properties":{"c":"CDC-2333034","o":"Lomiko Metals Inc. 100%","e":""},"geometry":{"type":"Polygon","coordinates":[[[-75.0,45.95833],[-74.99167,45.95833],[-74.99167,45.95],[-75.0,45.95],[-75.0,45.95833]]]}},{"type":"Feature","properties":{"c":"CDC-2637240","o":"Lomiko Metals Inc. 100%","e":""},"geometry":{"type":"Polygon","coordinates":[[[-75.00833,45.95833],[-75.0,45.95833],[-75.0,45.95],[-75.00833,45.95],[-75.00833,45.95833]]]}},{"type":"Feature","properties":{"c":"CDC-2333038","o":"Lomiko Metals Inc. 100%","e":""},"geometry":{"type":"Polygon","coordinates":[[[-74.975,45.96667],[-74.96667,45.96667],[-74.96667,45.95833],[-74.975,45.95833],[-74.975,45.96667]]]}},{"type":"Feature","properties":{"c":"CDC-2336620","o":"Lomiko Metals Inc. 100%","e":""},"geometry":{"type":"Polygon","coordinates":[[[-74.98333,45.96667],[-74.975,45.96667],[-74.975,45.95833],[-74.98333,45.95833],[-74.98333,45.96667]]]}},{"type":"Feature","properties":{"c":"CDC-2336619","o":"Lomiko Metals Inc. 100%","e":""},"geometry":{"type":"Polygon","coordinates":[[[-74.99167,45.96667],[-74.98333,45.96667],[-74.98333,45.95833],[-74.99167,45.95833],[-74.99167,45.96667]]]}},{"type":"Feature","properties":{"c":"CDC-2336618","o":"Lomiko Metals Inc. 100%","e":""},"geometry":{"type":"Polygon","coordinates":[[[-75.0,45.96667],[-74.99167,45.96667],[-74.99167,45.95833],[-75.0,45.95833],[-75.0,45.96667]]]}},{"type":"Feature","properties":{"c":"CDC-2637242","o":"Lomiko Metals Inc. 100%","e":""},"geometry":{"type":"Polygon","coordinates":[[[-75.00833,45.96667],[-75.0,45.96667],[-75.0,45.95833],[-75.00833,45.95833],[-75.00833,45.96667]]]}},{"type":"Feature","properties":{"c":"CDC-2637251","o":"Lomiko Metals Inc. 100%","e":""},"geometry":{"type":"Polygon","coordinates":[[[-74.975,45.975],[-74.96667,45.975],[-74.96667,45.96667],[-74.975,45.96667],[-74.975,45.975]]]}},{"type":"Feature","properties":{"c":"CDC-2336623","o":"Lomiko Metals Inc. 100%","e":""},"geometry":{"type":"Polygon","coordinates":[[[-74.98333,45.975],[-74.975,45.975],[-74.975,45.96667],[-74.98333,45.96667],[-74.98333,45.975]]]}},{"type":"Feature","properties":{"c":"CDC-2336622","o":"Lomiko Metals Inc. 100%","e":""},"geometry":{"type":"Polygon","coordinates":[[[-74.99167,45.975],[-74.98333,45.975],[-74.98333,45.96667],[-74.99167,45.96667],[-74.99167,45.975]]]}},{"type":"Feature","properties":{"c":"CDC-2336621","o":"Lomiko Metals Inc. 100%","e":""},"geometry":{"type":"Polygon","coordinates":[[[-75.0,45.975],[-74.99167,45.975],[-74.99167,45.96667],[-75.0,45.96667],[-75.0,45.975]]]}},{"type":"Feature","properties":{"c":"CDC-2637244","o":"Lomiko Metals Inc. 100%","e":""},"geometry":{"type":"Polygon","coordinates":[[[-75.00833,45.975],[-75.0,45.975],[-75.0,45.96667],[-75.00833,45.96667],[-75.00833,45.975]]]}},{"type":"Feature","properties":{"c":"CDC-2637253","o":"Lomiko Metals Inc. 100%","e":""},"geometry":{"type":"Polygon","coordinates":[[[-74.975,45.98333],[-74.96667,45.98333],[-74.96667,45.975],[-74.975,45.975],[-74.975,45.98333]]]}},{"type":"Feature","properties":{"c":"CDC-2637252","o":"Lomiko Metals Inc. 100%","e":""},"geometry":{"type":"Polygon","coordinates":[[[-74.98333,45.98333],[-74.975,45.98333],[-74.975,45.975],[-74.98333,45.975],[-74.98333,45.98333]]]}},{"type":"Feature","properties":{"c":"CDC-2336625","o":"Lomiko Metals Inc. 100%","e":""},"geometry":{"type":"Polygon","coordinates":[[[-74.99167,45.98333],[-74.98333,45.98333],[-74.98333,45.975],[-74.99167,45.975],[-74.99167,45.98333]]]}},{"type":"Feature","properties":{"c":"CDC-2336624","o":"Lomiko Metals Inc. 100%","e":""},"geometry":{"type":"Polygon","coordinates":[[[-75.0,45.98333],[-74.99167,45.98333],[-74.99167,45.975],[-75.0,45.975],[-75.0,45.98333]]]}},{"type":"Feature","properties":{"c":"CDC-2637246","o":"Lomiko Metals Inc. 100%","e":""},"geometry":{"type":"Polygon","coordinates":[[[-75.00833,45.98333],[-75.0,45.98333],[-75.0,45.975],[-75.00833,45.975],[-75.00833,45.98333]]]}},{"type":"Feature","properties":{"c":"CDC-2637255","o":"Lomiko Metals Inc. 100%","e":""},"geometry":{"type":"Polygon","coordinates":[[[-74.975,45.99167],[-74.96667,45.99167],[-74.96667,45.98333],[-74.975,45.98333],[-74.975,45.99167]]]}},{"type":"Feature","properties":{"c":"CDC-2637254","o":"Lomiko Metals Inc. 100%","e":""},"geometry":{"type":"Polygon","coordinates":[[[-74.98333,45.99167],[-74.975,45.99167],[-74.975,45.98333],[-74.98333,45.98333],[-74.98333,45.99167]]]}},{"type":"Feature","properties":{"c":"CDC-2336627","o":"Lomiko Metals Inc. 100%","e":""},"geometry":{"type":"Polygon","coordinates":[[[-74.99167,45.99167],[-74.98333,45.99167],[-74.98333,45.98333],[-74.99167,45.98333],[-74.99167,45.99167]]]}},{"type":"Feature","properties":{"c":"CDC-2822530","o":"9430-4979 QU\u00c9BEC INC. 100%","e":""},"geometry":{"type":"Polygon","coordinates":[[[-74.85833,45.875],[-74.85,45.875],[-74.85,45.86667],[-74.85833,45.86667],[-74.85833,45.875]]]}},{"type":"Feature","properties":{"c":"CDC-2822529","o":"9430-4979 QU\u00c9BEC INC. 100%","e":""},"geometry":{"type":"Polygon","coordinates":[[[-74.86667,45.875],[-74.85833,45.875],[-74.85833,45.86667],[-74.86667,45.86667],[-74.86667,45.875]]]}},{"type":"Feature","properties":{"c":"CDC-2822528","o":"9430-4979 QU\u00c9BEC INC. 100%","e":""},"geometry":{"type":"Polygon","coordinates":[[[-74.875,45.875],[-74.86667,45.875],[-74.86667,45.86667],[-74.875,45.86667],[-74.875,45.875]]]}},{"type":"Feature","properties":{"c":"CDC-2822527","o":"9430-4979 QU\u00c9BEC INC. 100%","e":""},"geometry":{"type":"Polygon","coordinates":[[[-74.88333,45.875],[-74.875,45.875],[-74.875,45.86667],[-74.88333,45.86667],[-74.88333,45.875]]]}},{"type":"Feature","properties":{"c":"CDC-2822526","o":"9430-4979 QU\u00c9BEC INC. 100%","e":""},"geometry":{"type":"Polygon","coordinates":[[[-74.89167,45.875],[-74.88333,45.875],[-74.88333,45.86667],[-74.89167,45.86667],[-74.89167,45.875]]]}},{"type":"Feature","properties":{"c":"CDC-2827026","o":"9430-4979 QU\u00c9BEC INC. 100%","e":""},"geometry":{"type":"Polygon","coordinates":[[[-74.89703,45.86915],[-74.9,45.86916],[-74.9,45.875],[-74.89167,45.875],[-74.89167,45.86667],[-74.89702,45.86667],[-74.89703,45.86915]]]}},{"type":"Feature","properties":{"c":"CDC-2822535","o":"9430-4979 QU\u00c9BEC INC. 100%","e":""},"geometry":{"type":"Polygon","coordinates":[[[-74.86667,45.88333],[-74.85833,45.88333],[-74.85833,45.875],[-74.86667,45.875],[-74.86667,45.88333]]]}},{"type":"Feature","properties":{"c":"CDC-2822534","o":"9430-4979 QU\u00c9BEC INC. 100%","e":""},"geometry":{"type":"Polygon","coordinates":[[[-74.875,45.88333],[-74.86667,45.88333],[-74.86667,45.875],[-74.875,45.875],[-74.875,45.88333]]]}},{"type":"Feature","properties":{"c":"CDC-2822533","o":"9430-4979 QU\u00c9BEC INC. 100%","e":""},"geometry":{"type":"Polygon","coordinates":[[[-74.88333,45.88333],[-74.875,45.88333],[-74.875,45.875],[-74.88333,45.875],[-74.88333,45.88333]]]}},{"type":"Feature","properties":{"c":"CDC-2822532","o":"9430-4979 QU\u00c9BEC INC. 100%","e":""},"geometry":{"type":"Polygon","coordinates":[[[-74.89167,45.88333],[-74.88333,45.88333],[-74.88333,45.875],[-74.89167,45.875],[-74.89167,45.88333]]]}},{"type":"Feature","properties":{"c":"CDC-2822531","o":"9430-4979 QU\u00c9BEC INC. 100%","e":""},"geometry":{"type":"Polygon","coordinates":[[[-74.9,45.88333],[-74.89167,45.88333],[-74.89167,45.875],[-74.9,45.875],[-74.9,45.88333]]]}},{"type":"Feature","properties":{"c":"CDC-2822537","o":"9430-4979 QU\u00c9BEC INC. 100%","e":""},"geometry":{"type":"Polygon","coordinates":[[[-74.88333,45.89167],[-74.875,45.89167],[-74.875,45.88333],[-74.88333,45.88333],[-74.88333,45.89167]]]}},{"type":"Feature","properties":{"c":"CDC-2822536","o":"9430-4979 QU\u00c9BEC INC. 100%","e":""},"geometry":{"type":"Polygon","coordinates":[[[-74.89167,45.89167],[-74.88333,45.89167],[-74.88333,45.88333],[-74.89167,45.88333],[-74.89167,45.89167]]]}},{"type":"Feature","properties":{"c":"CDC-2827027","o":"9430-4979 QU\u00c9BEC INC. 100%","e":""},"geometry":{"type":"Polygon","coordinates":[[[-74.8934,45.89167],[-74.89226,45.88433],[-74.8918,45.88432],[-74.8931,45.89167],[-74.89167,45.89167],[-74.89167,45.88333],[-74.9,45.88333],[-74.9,45.88433],[-74.8988,45.88434],[-74.89555,45.88438],[-74.89676,45.89167],[-74.8934,45.89167]]]}},{"type":"Feature","properties":{"c":"CDC-2637250","o":"Lomiko Metals Inc. 100%","e":""},"geometry":{"type":"Polygon","coordinates":[[[-74.975,45.95],[-74.96667,45.95],[-74.96667,45.94167],[-74.975,45.94167],[-74.975,45.95]]]}},{"type":"Feature","properties":{"c":"CDC-2642555","o":"Lomiko Metals Inc. 100%","e":""},"geometry":{"type":"Polygon","coordinates":[[[-74.98175,45.94167],[-74.98333,45.94167],[-74.98333,45.95],[-74.975,45.95],[-74.975,45.94167],[-74.97835,45.94167],[-74.97837,45.94243],[-74.9812,45.94245],[-74.98177,45.94245],[-74.98175,45.94167]]]}},{"type":"Feature","properties":{"c":"CDC-2637249","o":"Lomiko Metals Inc. 100%","e":""},"geometry":{"type":"Polygon","coordinates":[[[-74.99167,45.95],[-74.98333,45.95],[-74.98333,45.94167],[-74.99167,45.94167],[-74.99167,45.95]]]}},{"type":"Feature","properties":{"c":"CDC-2637248","o":"Lomiko Metals Inc. 100%","e":""},"geometry":{"type":"Polygon","coordinates":[[[-75.0,45.95],[-74.99167,45.95],[-74.99167,45.94167],[-75.0,45.94167],[-75.0,45.95]]]}},{"type":"Feature","properties":{"c":"CDC-2637238","o":"Lomiko Metals Inc. 100%","e":""},"geometry":{"type":"Polygon","coordinates":[[[-75.00833,45.95],[-75.0,45.95],[-75.0,45.94167],[-75.00833,45.94167],[-75.00833,45.95]]]}},{"type":"Feature","properties":{"c":"CDC-2487827","o":"Canada Carbon Inc. 100%","e":""},"geometry":{"type":"Polygon","coordinates":[[[-74.74167,45.675],[-74.73333,45.675],[-74.73333,45.66667],[-74.74167,45.66667],[-74.74167,45.675]]]}},{"type":"Feature","properties":{"c":"CDC-2487826","o":"Canada Carbon Inc. 100%","e":""},"geometry":{"type":"Polygon","coordinates":[[[-74.75,45.675],[-74.74167,45.675],[-74.74167,45.66667],[-74.75,45.66667],[-74.75,45.675]]]}},{"type":"Feature","properties":{"c":"CDC-2487834","o":"Canada Carbon Inc. 100%","e":""},"geometry":{"type":"Polygon","coordinates":[[[-74.74167,45.7],[-74.73333,45.7],[-74.73333,45.69167],[-74.74167,45.69167],[-74.74167,45.7]]]}},{"type":"Feature","properties":{"c":"CDC-2487840","o":"Canada Carbon Inc. 100%","e":""},"geometry":{"type":"Polygon","coordinates":[[[-74.74167,45.70833],[-74.73333,45.70833],[-74.73333,45.7],[-74.74167,45.7],[-74.74167,45.70833]]]}},{"type":"Feature","properties":{"c":"CDC-2835845","o":"9430-4979 QU\u00c9BEC INC. 100%","e":""},"geometry":{"type":"Polygon","coordinates":[[[-74.85833,45.85613],[-74.85833,45.85833],[-74.85,45.85833],[-74.85,45.85467],[-74.85833,45.85613]]]}},{"type":"Feature","properties":{"c":"CDC-2827022","o":"9430-4979 QU\u00c9BEC INC. 100%","e":""},"geometry":{"type":"Polygon","coordinates":[[[-74.86667,45.85833],[-74.85833,45.85833],[-74.85833,45.85613],[-74.86667,45.85757],[-74.86667,45.85833]]]}},{"type":"Feature","properties":{"c":"CDC-2822525","o":"9430-4979 QU\u00c9BEC INC. 100%","e":""},"geometry":{"type":"Polygon","coordinates":[[[-74.85833,45.86667],[-74.85,45.86667],[-74.85,45.85833],[-74.85833,45.85833],[-74.85833,45.86667]]]}},{"type":"Feature","properties":{"c":"CDC-2822524","o":"9430-4979 QU\u00c9BEC INC. 100%","e":""},"geometry":{"type":"Polygon","coordinates":[[[-74.86667,45.86667],[-74.85833,45.86667],[-74.85833,45.85833],[-74.86667,45.85833],[-74.86667,45.86667]]]}},{"type":"Feature","properties":{"c":"CDC-2827025","o":"9430-4979 QU\u00c9BEC INC. 100%","e":""},"geometry":{"type":"Polygon","coordinates":[[[-74.87099,45.85833],[-74.8732,45.85872],[-74.875,45.85904],[-74.875,45.86667],[-74.86667,45.86667],[-74.86667,45.85833],[-74.87099,45.85833]]]}},{"type":"Feature","properties":{"c":"CDC-2827024","o":"9430-4979 QU\u00c9BEC INC. 100%","e":""},"geometry":{"type":"Polygon","coordinates":[[[-74.88333,45.86667],[-74.875,45.86667],[-74.875,45.85904],[-74.88333,45.86049],[-74.88333,45.86667]]]}},{"type":"Feature","properties":{"c":"CDC-2835846","o":"9430-4979 QU\u00c9BEC INC. 100%","e":""},"geometry":{"type":"Polygon","coordinates":[[[-74.89167,45.86196],[-74.89167,45.86667],[-74.88333,45.86667],[-74.88333,45.86049],[-74.89167,45.86196]]]}},{"type":"Feature","properties":{"c":"CDC-2827023","o":"9430-4979 QU\u00c9BEC INC. 100%","e":""},"geometry":{"type":"Polygon","coordinates":[[[-74.89167,45.86667],[-74.89167,45.86196],[-74.89571,45.86267],[-74.89702,45.8629],[-74.89702,45.86667],[-74.89167,45.86667]]]}},{"type":"Feature","properties":{"c":"CDC-2292100","o":"Soci\u00e9t\u00e9 Mini\u00e8re Gerdin inc. 100%","e":""},"geometry":{"type":"Polygon","coordinates":[[[-74.73178,45.97466],[-74.725,45.97465],[-74.725,45.97222],[-74.72602,45.97224],[-74.72941,45.97228],[-74.72991,45.97229],[-74.73177,45.97231],[-74.73178,45.97466]]]}},{"type":"Feature","properties":{"c":"BM-625","o":"Soci\u00e9t\u00e9 Mini\u00e8re Gerdin inc. 100%","e":""},"geometry":{"type":"Polygon","coordinates":[[[-74.73178,45.97466],[-74.73177,45.97231],[-74.75359,45.97257],[-74.75347,45.97695],[-74.7318,45.97701],[-74.73178,45.97466]]]}},{"type":"Feature","properties":{"c":"CDC-2292099","o":"Soci\u00e9t\u00e9 Mini\u00e8re Gerdin inc. 100%","e":""},"geometry":{"type":"Polygon","coordinates":[[[-74.725,45.977],[-74.725,45.975],[-74.725,45.97465],[-74.73178,45.97466],[-74.7318,45.97701],[-74.725,45.977]]]}},{"type":"Feature","properties":{"c":"CDC-59747","o":"Soci\u00e9t\u00e9 Mini\u00e8re Gerdin inc. 100%","e":""},"geometry":{"type":"Polygon","coordinates":[[[-74.73182,45.97936],[-74.7318,45.97701],[-74.75347,45.97695],[-74.75347,45.97707],[-74.7534,45.9793],[-74.73182,45.97936]]]}},{"type":"Feature","properties":{"c":"BEX-107","o":"Soci\u00e9t\u00e9 Mini\u00e8re Gerdin inc. 100%","e":""},"geometry":{"type":"Polygon","coordinates":[[[-74.74793,45.97931],[-74.74726,45.97932],[-74.74351,45.97933],[-74.74328,45.98675],[-74.74997,45.99145],[-74.75227,46.00096],[-74.74868,46.00095],[-74.74109,45.98933],[-74.74106,45.97933],[-74.73804,45.97934],[-74.73805,45.97699],[-74.74809,45.97696],[-74.74793,45.97931]]]}},{"type":"Feature","properties":{"c":"CDC-2046888","o":"Soci\u00e9t\u00e9 Mini\u00e8re Gerdin inc. 100%","e":""},"geometry":{"type":"Polygon","coordinates":[[[-74.73183,45.98171],[-74.73182,45.97936],[-74.7534,45.9793],[-74.7534,45.97943],[-74.75334,45.98166],[-74.73183,45.98171]]]}},{"type":"Feature","properties":{"c":"BEX-404","o":"Soci\u00e9t\u00e9 Mini\u00e8re Gerdin inc. 100%","e":""},"geometry":{"type":"Polygon","coordinates":[[[-74.74526,45.98643],[-74.75306,45.99189],[-74.75301,45.99344],[-74.75301,45.9936],[-74.75295,45.9958],[-74.75294,45.99596],[-74.75288,45.99815],[-74.75288,45.99832],[-74.75281,46.00068],[-74.7528,46.00098],[-74.74558,46.00095],[-74.73812,45.98931],[-74.73804,45.97934],[-74.74106,45.97933],[-74.74109,45.98933],[-74.74868,46.00095],[-74.75227,46.00096],[-74.74997,45.99145],[-74.74328,45.98675],[-74.74351,45.97933],[-74.74726,45.97932],[-74.74526,45.98643]]]}},{"type":"Feature","properties":{"c":"CDC-2046887","o":"Soci\u00e9t\u00e9 Mini\u00e8re Gerdin inc. 100%","e":""},"geometry":{"type":"Polygon","coordinates":[[[-74.73185,45.98406],[-74.73183,45.98171],[-74.75334,45.98166],[-74.75333,45.9818],[-74.75327,45.98401],[-74.74283,45.98404],[-74.73185,45.98406]]]}},{"type":"Feature","properties":{"c":"CDC-2874351","o":"michele Cleveland St.Amour 100%","e":""},"geometry":{"type":"Polygon","coordinates":[[[-74.58463,45.73333],[-74.58463,45.73332],[-74.5846,45.73326],[-74.58458,45.73321],[-74.58457,45.73316],[-74.5846,45.73309],[-74.58464,45.73303],[-74.58469,45.73298],[-74.58471,45.73295],[-74.58472,45.73289],[-74.5847,45.73283],[-74.58466,45.73275],[-74.58461,45.73268],[-74.58457,45.73261],[-74.58451,45.73253],[-74.5844,45.73235],[-74.58436,45.73229],[-74.58431,45.73222],[-74.58426,45.73214],[-74.58424,45.73209],[-74.58422,45.73198],[-74.58423,45.73192],[-74.58425,45.73186],[-74.58429,45.73178],[-74.58435,45.73169],[-74.58439,45.7316],[-74.58452,45.73139],[-74.58456,45.73131],[-74.58459,45.73125],[-74.58463,45.73117],[-74.58467,45.7311],[-74.58468,45.73109],[-74.58478,45.73096],[-74.58484,45.73089],[-74.58492,45.73082],[-74.58501,45.73076],[-74.58513,45.73069],[-74.58524,45.73063],[-74.58537,45.73058],[-74.58563,45.73051],[-74.58572,45.73048],[-74.58576,45.73047],[-74.58587,45.73045],[-74.58593,45.73042],[-74.58597,45.73038],[-74.58606,45.73031],[-74.58612,45.73026],[-74.58615,45.73021],[-74.58618,45.73015],[-74.5862,45.73008],[-74.5862,45.73002],[-74.58618,45.72991],[-74.58615,45.72985],[-74.58614,45.72981],[-74.58615,45.72976],[-74.5862,45.7297],[-74.58626,45.72966],[-74.58632,45.72961],[-74.58641,45.72954],[-74.58652,45.72947],[-74.5866,45.72942],[-74.58672,45.72936],[-74.58681,45.72932],[-74.58684,45.72932],[-74.58694,45.72926],[-74.58725,45.72888],[-74.58761,45.72844],[-74.58788,45.72808],[-74.58788,45.72803],[-74.5879,45.72799],[-74.58789,45.72794],[-74.58786,45.72791],[-74.5878,45.72788],[-74.58768,45.72787],[-74.58759,45.72788],[-74.58749,45.72789],[-74.5874,45.72789],[-74.58726,45.72788],[-74.58713,45.72788],[-74.58702,45.72787],[-74.58675,45.72785],[-74.58655,45.72782],[-74.58645,45.72779],[-74.58634,45.72776],[-74.58623,45.72769],[-74.58611,45.72765],[-74.58597,45.72761],[-74.58584,45.72758],[-74.58568,45.72753],[-74.58561,45.72752],[-74.5855,45.72752],[-74.58541,45.72753],[-74.58526,45.72755],[-74.58518,45.72757],[-74.58511,45.72757],[-74.58507,45.72756],[-74.585,45.72754],[-74.58494,45.7275],[-74.58492,45.72744],[-74.58489,45.72738],[-74.58481,45.72731],[-74.58471,45.72724],[-74.58461,45.72719],[-74.58452,45.72715],[-74.58441,45.72714],[-74.58434,45.72715],[-74.58431,45.72717],[-74.58429,45.72724],[-74.58425,45.72726],[-74.58418,45.72726],[-74.58411,45.72726],[-74.58404,45.72725],[-74.58393,45.7272],[-74.58386,45.72715],[-74.58378,45.72709],[-74.58372,45.72702],[-74.58357,45.72684],[-74.58352,45.72676],[-74.5834,45.72657],[-74.58335,45.72651],[-74.58333,45.72647],[-74.58333,45.725],[-74.59011,45.725],[-74.59013,45.72505],[-74.59014,45.72511],[-74.59014,45.72518],[-74.59014,45.72525],[-74.59017,45.72534],[-74.59019,45.7254],[-74.59023,45.72548],[-74.59028,45.72554],[-74.59035,45.7256],[-74.59043,45.72568],[-74.59051,45.72572],[-74.5906,45.72576],[-74.59069,45.7258],[-74.59088,45.72584],[-74.59099,45.72585],[-74.59106,45.72585],[-74.5909,45.72623],[-74.59006,45.72731],[-74.59083,45.72726],[-74.59095,45.72749],[-74.59072,45.72744],[-74.59071,45.72744],[-74.5905,45.7274],[-74.59039,45.7274],[-74.59025,45.72742],[-74.59013,45.72745],[-74.59006,45.72748],[-74.58993,45.72749],[-74.58981,45.72749],[-74.5897,45.72748],[-74.58959,45.7275],[-74.58955,45.72752],[-74.5895,45.72754],[-74.58943,45.72758],[-74.58935,45.72765],[-74.5893,45.72773],[-74.58923,45.7278],[-74.58913,45.72786],[-74.58901,45.72792],[-74.58891,45.72796],[-74.58879,45.728],[-74.58869,45.72802],[-74.58859,45.72801],[-74.58846,45.728],[-74.58834,45.72799],[-74.58823,45.72801],[-74.58816,45.72805],[-74.58811,45.7281],[-74.58806,45.72815],[-74.58803,45.72816],[-74.58795,45.72817],[-74.58775,45.72844],[-74.58739,45.72887],[-74.5872,45.72915],[-74.58705,45.7293],[-74.58712,45.72932],[-74.58716,45.72934],[-74.58717,45.72939],[-74.58714,45.72944],[-74.58715,45.7295],[-74.58719,45.72954],[-74.58723,45.72955],[-74.58729,45.72954],[-74.5874,45.7295],[-74.58746,45.72945],[-74.58755,45.72941],[-74.58767,45.7294],[-74.58777,45.72943],[-74.58783,45.72946],[-74.58785,45.72952],[-74.58785,45.72957],[-74.58782,45.72961],[-74.58777,45.72965],[-74.58769,45.72969],[-74.5876,45.72974],[-74.5875,45.72981],[-74.58746,45.72986],[-74.58744,45.72991],[-74.58745,45.72997],[-74.58749,45.73],[-74.58757,45.73002],[-74.58765,45.73001],[-74.58773,45.72998],[-74.58779,45.72994],[-74.58783,45.72989],[-74.5879,45.72985],[-74.58791,45.72985],[-74.58796,45.72983],[-74.58805,45.72981],[-74.58813,45.72979],[-74.58975,45.73005],[-74.59021,45.72957],[-74.59096,45.72903],[-74.59073,45.72889],[-74.59085,45.72871],[-74.59082,45.72863],[-74.59084,45.72863],[-74.59086,45.72863],[-74.5909,45.72863],[-74.59093,45.72866],[-74.59096,45.72869],[-74.59099,45.72872],[-74.59106,45.72879],[-74.59114,45.72884],[-74.59122,45.72888],[-74.59126,45.7289],[-74.59132,45.7289],[-74.59137,45.72888],[-74.5914,45.72885],[-74.59142,45.72884],[-74.59148,45.7288],[-74.59153,45.72878],[-74.5916,45.72875],[-74.59165,45.72873],[-74.59167,45.72872],[-74.59167,45.7294],[-74.59166,45.72941],[-74.59162,45.72948],[-74.5916,45.72952],[-74.5916,45.72958],[-74.59161,45.72963],[-74.59162,45.72967],[-74.59167,45.72964],[-74.59167,45.73333],[-74.59039,45.73333],[-74.5904,45.73332],[-74.59045,45.73329],[-74.59049,45.73325],[-74.5905,45.73321],[-74.59048,45.73317],[-74.59043,45.73314],[-74.59031,45.73312],[-74.5902,45.73313],[-74.59011,45.73312],[-74.59003,45.73311],[-74.58997,45.73307],[-74.58994,45.73303],[-74.58993,45.73298],[-74.58994,45.73292],[-74.58998,45.73284],[-74.59005,45.73272],[-74.59007,45.73268],[-74.59008,45.73261],[-74.59008,45.73255],[-74.59009,45.73248],[-74.59009,45.73242],[-74.59012,45.73235],[-74.59016,45.7323],[-74.59021,45.73227],[-74.59029,45.73224],[-74.59038,45.73223],[-74.59048,45.73224],[-74.59056,45.73228],[-74.59062,45.73235],[-74.59063,45.73241],[-74.59063,45.73247],[-74.59066,45.73256],[-74.59072,45.73262],[-74.59078,45.73265],[-74.59083,45.73264],[-74.59086,45.7326],[-74.59086,45.73253],[-74.59085,45.73244],[-74.59081,45.73227],[-74.59078,45.73221],[-74.59074,45.73212],[-74.59068,45.73207],[-74.59061,45.73202],[-74.59053,45.73197],[-74.59048,45.73192],[-74.59043,45.73185],[-74.5904,45.73177],[-74.59036,45.73173],[-74.59031,45.73171],[-74.59023,45.73172],[-74.59015,45.73175],[-74.5901,45.73178],[-74.59003,45.73179],[-74.58996,45.73177],[-74.58991,45.73172],[-74.5899,45.73167],[-74.5899,45.7316],[-74.58994,45.73152],[-74.59003,45.73135],[-74.59007,45.7313],[-74.59015,45.73123],[-74.59022,45.73117],[-74.59033,45.73111],[-74.59043,45.73108],[-74.5905,45.73103],[-74.59053,45.73098],[-74.59052,45.73092],[-74.59047,45.73086],[-74.59038,45.73082],[-74.5903,45.73081],[-74.59021,45.73079],[-74.59012,45.73076],[-74.58996,45.73066],[-74.5899,45.73064],[-74.58985,45.73063],[-74.58978,45.73064],[-74.58975,45.73069],[-74.58975,45.73074],[-74.58979,45.73079],[-74.58986,45.73084],[-74.58991,45.7309],[-74.58996,45.73096],[-74.58996,45.73102],[-74.58995,45.73107],[-74.58991,45.73112],[-74.58985,45.73118],[-74.58979,45.73123],[-74.58973,45.73131],[-74.5897,45.73139],[-74.58966,45.73146],[-74.58962,45.73153],[-74.58957,45.7316],[-74.5895,45.73167],[-74.58941,45.73172],[-74.58931,45.73178],[-74.58924,45.73182],[-74.58918,45.73187],[-74.58911,45.73193],[-74.58904,45.73198],[-74.58897,45.732],[-74.58886,45.73201],[-74.58875,45.73201],[-74.58861,45.73199],[-74.58853,45.73198],[-74.58842,45.73194],[-74.58831,45.7319],[-74.58823,45.73188],[-74.58812,45.73183],[-74.58809,45.73183],[-74.58805,45.73185],[-74.58806,45.73189],[-74.58812,45.73193],[-74.5882,45.73196],[-74.58831,45.73199],[-74.58844,45.73207],[-74.58847,45.73211],[-74.58848,45.73217],[-74.58846,45.73223],[-74.5884,45.73229],[-74.58828,45.73237],[-74.58821,45.73243],[-74.58818,45.73248],[-74.58816,45.73255],[-74.58816,45.7326],[-74.58817,45.73264],[-74.58815,45.73267],[-74.58811,45.7327],[-74.58802,45.73271],[-74.58795,45.73271],[-74.58786,45.73269],[-74.58777,45.73266],[-74.58763,45.73265],[-74.58755,45.73267],[-74.58742,45.73271],[-74.58736,45.73274],[-74.5873,45.73279],[-74.58725,45.73284],[-74.58721,45.73289],[-74.58714,45.73297],[-74.58712,45.73303],[-74.58713,45.7331],[-74.58718,45.7332],[-74.58731,45.73333],[-74.58463,45.73333]]]}},{"type":"Feature","properties":{"c":"CDC-2388721","o":"Canada Carbon Inc. 100%","e":""},"geometry":{"type":"Polygon","coordinates":[[[-74.58333,45.675],[-74.575,45.675],[-74.575,45.66667],[-74.58333,45.66667],[-74.58333,45.675]]]}},{"type":"Feature","properties":{"c":"CDC-2388722","o":"Canada Carbon Inc. 100%","e":""},"geometry":{"type":"Polygon","coordinates":[[[-74.58333,45.68333],[-74.575,45.68333],[-74.575,45.675],[-74.58333,45.675],[-74.58333,45.68333]]]}},{"type":"Feature","properties":{"c":"CDC-2487855","o":"Canada Carbon Inc. 100%","e":""},"geometry":{"type":"Polygon","coordinates":[[[-74.58333,45.69167],[-74.575,45.69167],[-74.575,45.68333],[-74.58333,45.68333],[-74.58333,45.69167]]]}},{"type":"Feature","properties":{"c":"CDC-2866460","o":"Dominic Houle 100%","e":""},"geometry":{"type":"Polygon","coordinates":[[[-74.575,45.83333],[-74.56667,45.83333],[-74.56667,45.825],[-74.575,45.825],[-74.575,45.83333]]]}},{"type":"Feature","properties":{"c":"CDC-2866461","o":"Dominic Houle 100%","e":""},"geometry":{"type":"Polygon","coordinates":[[[-74.56667,45.83333],[-74.55833,45.83333],[-74.55833,45.825],[-74.56667,45.825],[-74.56667,45.83333]]]}},{"type":"Feature","properties":{"c":"CDC-2380946","o":"Canada Carbon Inc. 100%","e":""},"geometry":{"type":"Polygon","coordinates":[[[-74.73333,45.69167],[-74.725,45.69167],[-74.725,45.68333],[-74.73333,45.68333],[-74.73333,45.69167]]]}},{"type":"Feature","properties":{"c":"CDC-2380947","o":"Canada Carbon Inc. 100%","e":""},"geometry":{"type":"Polygon","coordinates":[[[-74.73333,45.7],[-74.725,45.7],[-74.725,45.69167],[-74.73333,45.69167],[-74.73333,45.7]]]}},{"type":"Feature","properties":{"c":"CDC-2380949","o":"Canada Carbon Inc. 100%","e":""},"geometry":{"type":"Polygon","coordinates":[[[-74.73333,45.70833],[-74.725,45.70833],[-74.725,45.7],[-74.73333,45.7],[-74.73333,45.70833]]]}},{"type":"Feature","properties":{"c":"CDC-2380950","o":"Canada Carbon Inc. 100%","e":""},"geometry":{"type":"Polygon","coordinates":[[[-74.73333,45.71667],[-74.725,45.71667],[-74.725,45.70833],[-74.73333,45.70833],[-74.73333,45.71667]]]}},{"type":"Feature","properties":{"c":"CDC-2380952","o":"Canada Carbon Inc. 100%","e":""},"geometry":{"type":"Polygon","coordinates":[[[-74.73333,45.725],[-74.725,45.725],[-74.725,45.71667],[-74.73333,45.71667],[-74.73333,45.725]]]}},{"type":"Feature","properties":{"c":"CDC-2487987","o":"Canada Carbon Inc. 100%","e":""},"geometry":{"type":"Polygon","coordinates":[[[-74.71667,45.68333],[-74.725,45.68333],[-74.725,45.69167],[-74.71667,45.69167],[-74.71667,45.68333]]]}},{"type":"Feature","properties":{"c":"CDC-2487835","o":"Canada Carbon Inc. 100%","e":""},"geometry":{"type":"Polygon","coordinates":[[[-74.71667,45.69167],[-74.725,45.69167],[-74.725,45.7],[-74.71667,45.7],[-74.71667,45.69167]]]}},{"type":"Feature","properties":{"c":"CDC-2380951","o":"Canada Carbon Inc. 100%","e":""},"geometry":{"type":"Polygon","coordinates":[[[-74.725,45.71667],[-74.71667,45.71667],[-74.71667,45.70833],[-74.725,45.70833],[-74.725,45.71667]]]}},{"type":"Feature","properties":{"c":"CDC-2380953","o":"Canada Carbon Inc. 100%","e":""},"geometry":{"type":"Polygon","coordinates":[[[-74.725,45.725],[-74.71667,45.725],[-74.71667,45.71667],[-74.725,45.71667],[-74.725,45.725]]]}},{"type":"Feature","properties":{"c":"CDC-2393440","o":"Canada Carbon Inc. 100%","e":""},"geometry":{"type":"Polygon","coordinates":[[[-74.66671,45.69619],[-74.66681,45.69621],[-74.66687,45.69623],[-74.66693,45.69625],[-74.66698,45.69627],[-74.66702,45.69629],[-74.66707,45.69633],[-74.66708,45.69634],[-74.6671,45.69635],[-74.66712,45.69637],[-74.66713,45.69638],[-74.66716,45.6964],[-74.66721,45.69641],[-74.66725,45.69641],[-74.66731,45.69641],[-74.66735,45.69642],[-74.66739,45.69642],[-74.66742,45.69641],[-74.66744,45.69639],[-74.66747,45.69637],[-74.6675,45.69635],[-74.66757,45.69626],[-74.66762,45.69624],[-74.66765,45.69626],[-74.66766,45.69629],[-74.66767,45.69631],[-74.66768,45.69634],[-74.66769,45.69638],[-74.6677,45.6964],[-74.6677,45.69642],[-74.66773,45.69644],[-74.66777,45.69645],[-74.66781,45.69645],[-74.66786,45.69645],[-74.66789,45.69646],[-74.66795,45.69646],[-74.66801,45.69644],[-74.66807,45.69644],[-74.66814,45.69643],[-74.66818,45.6964],[-74.66825,45.69637],[-74.66828,45.69636],[-74.66835,45.69631],[-74.66842,45.6963],[-74.66848,45.6963],[-74.66855,45.69633],[-74.66861,45.69635],[-74.66866,45.69638],[-74.6687,45.69641],[-74.66877,45.69643],[-74.66885,45.69643],[-74.66892,45.69646],[-74.66894,45.6965],[-74.66895,45.69657],[-74.66898,45.69662],[-74.66901,45.69666],[-74.66905,45.6967],[-74.66908,45.69675],[-74.66913,45.69679],[-74.66918,45.69681],[-74.66926,45.69681],[-74.66933,45.69682],[-74.6694,45.69683],[-74.66947,45.69684],[-74.66953,45.69687],[-74.66959,45.69688],[-74.66967,45.69688],[-74.66976,45.69686],[-74.66985,45.69685],[-74.66994,45.69684],[-74.67001,45.69684],[-74.67009,45.69683],[-74.6702,45.69684],[-74.67029,45.69687],[-74.67039,45.69686],[-74.67046,45.69687],[-74.67055,45.69687],[-74.67067,45.69688],[-74.67077,45.6969],[-74.67086,45.69692],[-74.67093,45.69694],[-74.67099,45.69696],[-74.67105,45.69699],[-74.67109,45.69703],[-74.67116,45.69705],[-74.67123,45.69706],[-74.67132,45.69707],[-74.67139,45.69708],[-74.67142,45.69708],[-74.67145,45.6971],[-74.67145,45.69712],[-74.67144,45.69715],[-74.67143,45.69717],[-74.67143,45.6972],[-74.67143,45.69723],[-74.67144,45.69726],[-74.67144,45.69728],[-74.67144,45.69732],[-74.67144,45.69735],[-74.67145,45.69737],[-74.67151,45.69739],[-74.67155,45.69742],[-74.67162,45.69744],[-74.67168,45.6975],[-74.67174,45.69753],[-74.67178,45.69756],[-74.67182,45.69759],[-74.67184,45.69763],[-74.6719,45.69766],[-74.67196,45.6977],[-74.67206,45.69775],[-74.67222,45.69783],[-74.67238,45.69791],[-74.67243,45.69795],[-74.67215,45.69795],[-74.67194,45.69798],[-74.6718,45.69797],[-74.67174,45.69795],[-74.67168,45.69793],[-74.67163,45.69791],[-74.67158,45.69788],[-74.67152,45.69782],[-74.67144,45.6978],[-74.67137,45.69777],[-74.67129,45.69775],[-74.67119,45.69776],[-74.67108,45.69778],[-74.67098,45.69782],[-74.67088,45.69785],[-74.67077,45.69791],[-74.6707,45.698],[-74.67063,45.69805],[-74.67058,45.69803],[-74.67053,45.698],[-74.67048,45.69796],[-74.67044,45.6979],[-74.6704,45.6978],[-74.67029,45.69783],[-74.67018,45.69782],[-74.67005,45.69781],[-74.66991,45.69778],[-74.6698,45.69777],[-74.66962,45.69777],[-74.66946,45.6978],[-74.6693,45.69788],[-74.66918,45.69793],[-74.66906,45.69797],[-74.66896,45.69797],[-74.66888,45.69795],[-74.66878,45.69796],[-74.66867,45.69793],[-74.66857,45.69795],[-74.66845,45.69799],[-74.66835,45.69803],[-74.66822,45.6981],[-74.66814,45.69814],[-74.66804,45.69816],[-74.66796,45.69816],[-74.66789,45.69813],[-74.66781,45.69811],[-74.66772,45.69809],[-74.6676,45.6981],[-74.66747,45.69813],[-74.66735,45.69817],[-74.66722,45.69822],[-74.66708,45.69827],[-74.66695,45.69832],[-74.66684,45.69838],[-74.66676,45.69845],[-74.6667,45.69852],[-74.66667,45.69856],[-74.66667,45.69619],[-74.66671,45.69619]]]}},{"type":"Feature","properties":{"c":"CDC-2393635","o":"Canada Carbon Inc. 100%","e":""},"geometry":{"type":"Polygon","coordinates":[[[-74.66675,45.69878],[-74.66681,45.69883],[-74.66686,45.69888],[-74.66694,45.69897],[-74.66698,45.69903],[-74.66702,45.69907],[-74.66706,45.69913],[-74.66708,45.69917],[-74.66714,45.69923],[-74.66718,45.69929],[-74.66719,45.69935],[-74.66712,45.69934],[-74.66704,45.69932],[-74.66696,45.69931],[-74.66687,45.6993],[-74.66677,45.6993],[-74.66669,45.6993],[-74.66667,45.6993],[-74.66667,45.6987],[-74.66675,45.69878]]]}},{"type":"Feature","properties":{"c":"CDC-2380945","o":"Canada Carbon Inc. 100%","e":""},"geometry":{"type":"Polygon","coordinates":[[[-74.65833,45.675],[-74.65,45.675],[-74.65,45.66667],[-74.65833,45.66667],[-74.65833,45.675]]]}},{"type":"Feature","properties":{"c":"CDC-2487829","o":"Canada Carbon Inc. 100%","e":""},"geometry":{"type":"Polygon","coordinates":[[[-74.65833,45.68333],[-74.65,45.68333],[-74.65,45.675],[-74.65833,45.675],[-74.65833,45.68333]]]}},{"type":"Feature","properties":{"c":"CDC-2303792","o":"Canada Carbon Inc. 100%","e":""},"geometry":{"type":"Polygon","coordinates":[[[-74.65,45.66667],[-74.64167,45.66667],[-74.64167,45.65833],[-74.65,45.65833],[-74.65,45.66667]]]}},{"type":"Feature","properties":{"c":"CDC-2327931","o":"Canada Carbon Inc. 100%","e":""},"geometry":{"type":"Polygon","coordinates":[[[-74.65,45.675],[-74.64167,45.675],[-74.64167,45.66667],[-74.65,45.66667],[-74.65,45.675]]]}},{"type":"Feature","properties":{"c":"CDC-2487832","o":"Canada Carbon Inc. 100%","e":""},"geometry":{"type":"Polygon","coordinates":[[[-74.65,45.69167],[-74.64167,45.69167],[-74.64167,45.68333],[-74.65,45.68333],[-74.65,45.69167]]]}},{"type":"Feature","properties":{"c":"CDC-2487836","o":"Canada Carbon Inc. 100%","e":""},"geometry":{"type":"Polygon","coordinates":[[[-74.65,45.7],[-74.64167,45.7],[-74.64167,45.69167],[-74.65,45.69167],[-74.65,45.7]]]}},{"type":"Feature","properties":{"c":"CDC-2327928","o":"Canada Carbon Inc. 100%","e":""},"geometry":{"type":"Polygon","coordinates":[[[-74.64167,45.66667],[-74.63333,45.66667],[-74.63333,45.65833],[-74.64167,45.65833],[-74.64167,45.66667]]]}},{"type":"Feature","properties":{"c":"CDC-2327932","o":"Canada Carbon Inc. 100%","e":""},"geometry":{"type":"Polygon","coordinates":[[[-74.64167,45.675],[-74.63333,45.675],[-74.63333,45.66667],[-74.64167,45.66667],[-74.64167,45.675]]]}},{"type":"Feature","properties":{"c":"CDC-2487830","o":"Canada Carbon Inc. 100%","e":""},"geometry":{"type":"Polygon","coordinates":[[[-74.64167,45.68333],[-74.63333,45.68333],[-74.63333,45.675],[-74.64167,45.675],[-74.64167,45.68333]]]}},{"type":"Feature","properties":{"c":"CDC-2487833","o":"Canada Carbon Inc. 100%","e":""},"geometry":{"type":"Polygon","coordinates":[[[-74.64167,45.69167],[-74.63333,45.69167],[-74.63333,45.68333],[-74.64167,45.68333],[-74.64167,45.69167]]]}},{"type":"Feature","properties":{"c":"CDC-2380948","o":"Canada Carbon Inc. 100%","e":""},"geometry":{"type":"Polygon","coordinates":[[[-74.64167,45.7],[-74.63333,45.7],[-74.63333,45.69167],[-74.64167,45.69167],[-74.64167,45.7]]]}},{"type":"Feature","properties":{"c":"CDC-2327929","o":"Canada Carbon Inc. 100%","e":""},"geometry":{"type":"Polygon","coordinates":[[[-74.63333,45.66667],[-74.625,45.66667],[-74.625,45.65833],[-74.63333,45.65833],[-74.63333,45.66667]]]}},{"type":"Feature","properties":{"c":"CDC-2327933","o":"Canada Carbon Inc. 100%","e":""},"geometry":{"type":"Polygon","coordinates":[[[-74.63333,45.675],[-74.625,45.675],[-74.625,45.66667],[-74.63333,45.66667],[-74.63333,45.675]]]}},{"type":"Feature","properties":{"c":"CDC-2487831","o":"Canada Carbon Inc. 100%","e":""},"geometry":{"type":"Polygon","coordinates":[[[-74.63333,45.68333],[-74.625,45.68333],[-74.625,45.675],[-74.63333,45.675],[-74.63333,45.68333]]]}},{"type":"Feature","properties":{"c":"CDC-2487837","o":"Canada Carbon Inc. 100%","e":""},"geometry":{"type":"Polygon","coordinates":[[[-74.63333,45.7],[-74.625,45.7],[-74.625,45.69167],[-74.63333,45.69167],[-74.63333,45.7]]]}},{"type":"Feature","properties":{"c":"CDC-2327930","o":"Canada Carbon Inc. 100%","e":""},"geometry":{"type":"Polygon","coordinates":[[[-74.625,45.66667],[-74.61667,45.66667],[-74.61667,45.65833],[-74.625,45.65833],[-74.625,45.66667]]]}},{"type":"Feature","properties":{"c":"CDC-2327934","o":"Canada Carbon Inc. 100%","e":""},"geometry":{"type":"Polygon","coordinates":[[[-74.625,45.675],[-74.61667,45.675],[-74.61667,45.66667],[-74.625,45.66667],[-74.625,45.675]]]}},{"type":"Feature","properties":{"c":"CDC-2349743","o":"Canada Carbon Inc. 100%","e":""},"geometry":{"type":"Polygon","coordinates":[[[-74.625,45.68333],[-74.61667,45.68333],[-74.61667,45.675],[-74.625,45.675],[-74.625,45.68333]]]}},{"type":"Feature","properties":{"c":"CDC-2349745","o":"Canada Carbon Inc. 100%","e":""},"geometry":{"type":"Polygon","coordinates":[[[-74.625,45.69167],[-74.61667,45.69167],[-74.61667,45.68333],[-74.625,45.68333],[-74.625,45.69167]]]}},{"type":"Feature","properties":{"c":"CDC-2487838","o":"Canada Carbon Inc. 100%","e":""},"geometry":{"type":"Polygon","coordinates":[[[-74.625,45.7],[-74.61667,45.7],[-74.61667,45.69167],[-74.625,45.69167],[-74.625,45.7]]]}},{"type":"Feature","properties":{"c":"CDC-2349738","o":"Canada Carbon Inc. 100%","e":""},"geometry":{"type":"Polygon","coordinates":[[[-74.61667,45.66667],[-74.60833,45.66667],[-74.60833,45.65833],[-74.61667,45.65833],[-74.61667,45.66667]]]}},{"type":"Feature","properties":{"c":"CDC-2349742","o":"Canada Carbon Inc. 100%","e":""},"geometry":{"type":"Polygon","coordinates":[[[-74.61667,45.675],[-74.60833,45.675],[-74.60833,45.66667],[-74.61667,45.66667],[-74.61667,45.675]]]}},{"type":"Feature","properties":{"c":"CM-36","o":"Thomas J Watters 100%","e":""},"geometry":{"type":"Polygon","coordinates":[[[-74.62543,45.7869],[-74.62328,45.78641],[-74.62088,45.78611],[-74.621,45.78575],[-74.62333,45.77861],[-74.62976,45.77949],[-74.62742,45.78717],[-74.62543,45.7869]]]}},{"type":"Feature","properties":{"c":"CDC-2349744","o":"Canada Carbon Inc. 100%","e":""},"geometry":{"type":"Polygon","coordinates":[[[-74.61667,45.68333],[-74.60833,45.68333],[-74.60833,45.675],[-74.61667,45.675],[-74.61667,45.68333]]]}},{"type":"Feature","properties":{"c":"CDC-2487845","o":"Canada Carbon Inc. 100%","e":""},"geometry":{"type":"Polygon","coordinates":[[[-74.61667,45.69167],[-74.60833,45.69167],[-74.60833,45.68333],[-74.61667,45.68333],[-74.61667,45.69167]]]}},{"type":"Feature","properties":{"c":"CDC-2487839","o":"Canada Carbon Inc. 100%","e":""},"geometry":{"type":"Polygon","coordinates":[[[-74.61667,45.7],[-74.60833,45.7],[-74.60833,45.69167],[-74.61667,45.69167],[-74.61667,45.7]]]}},{"type":"Feature","properties":{"c":"CDC-2487990","o":"Canada Carbon Inc. 100%","e":""},"geometry":{"type":"Polygon","coordinates":[[[-74.61667,45.70833],[-74.60833,45.70833],[-74.60833,45.7],[-74.61667,45.7],[-74.61667,45.70833]]]}},{"type":"Feature","properties":{"c":"CDC-2349739","o":"Canada Carbon Inc. 100%","e":""},"geometry":{"type":"Polygon","coordinates":[[[-74.60833,45.66667],[-74.6,45.66667],[-74.6,45.65833],[-74.60833,45.65833],[-74.60833,45.66667]]]}},{"type":"Feature","properties":{"c":"CDC-2299284","o":"Canada Carbon Inc. 100%","e":""},"geometry":{"type":"Polygon","coordinates":[[[-74.60833,45.675],[-74.6,45.675],[-74.6,45.66667],[-74.60833,45.66667],[-74.60833,45.675]]]}},{"type":"Feature","properties":{"c":"CDC-2344488","o":"Canada Carbon Inc. 100%","e":""},"geometry":{"type":"Polygon","coordinates":[[[-74.60833,45.68333],[-74.6,45.68333],[-74.6,45.675],[-74.60833,45.675],[-74.60833,45.68333]]]}},{"type":"Feature","properties":{"c":"CDC-2487846","o":"Canada Carbon Inc. 100%","e":""},"geometry":{"type":"Polygon","coordinates":[[[-74.60833,45.69167],[-74.6,45.69167],[-74.6,45.68333],[-74.60833,45.68333],[-74.60833,45.69167]]]}},{"type":"Feature","properties":{"c":"CDC-2487856","o":"Canada Carbon Inc. 100%","e":""},"geometry":{"type":"Polygon","coordinates":[[[-74.60833,45.7],[-74.6,45.7],[-74.6,45.69167],[-74.60833,45.69167],[-74.60833,45.7]]]}},{"type":"Feature","properties":{"c":"CDC-2487991","o":"Canada Carbon Inc. 100%","e":""},"geometry":{"type":"Polygon","coordinates":[[[-74.60833,45.70833],[-74.6,45.70833],[-74.6,45.7],[-74.60833,45.7],[-74.60833,45.70833]]]}},{"type":"Feature","properties":{"c":"CDC-2344486","o":"Canada Carbon Inc. 100%","e":""},"geometry":{"type":"Polygon","coordinates":[[[-74.6,45.675],[-74.59167,45.675],[-74.59167,45.66667],[-74.6,45.66667],[-74.6,45.675]]]}},{"type":"Feature","properties":{"c":"CDC-2487843","o":"Canada Carbon Inc. 100%","e":""},"geometry":{"type":"Polygon","coordinates":[[[-74.6,45.68333],[-74.59167,45.68333],[-74.59167,45.675],[-74.6,45.675],[-74.6,45.68333]]]}},{"type":"Feature","properties":{"c":"CDC-2487847","o":"Canada Carbon Inc. 100%","e":""},"geometry":{"type":"Polygon","coordinates":[[[-74.6,45.69167],[-74.59167,45.69167],[-74.59167,45.68333],[-74.6,45.68333],[-74.6,45.69167]]]}},{"type":"Feature","properties":{"c":"CDC-2487857","o":"Canada Carbon Inc. 100%","e":""},"geometry":{"type":"Polygon","coordinates":[[[-74.6,45.7],[-74.59167,45.7],[-74.59167,45.69167],[-74.6,45.69167],[-74.6,45.7]]]}},{"type":"Feature","properties":{"c":"CDC-2819250","o":"Eric Maltais 100%","e":""},"geometry":{"type":"Polygon","coordinates":[[[-74.6,45.7268],[-74.60081,45.7261],[-74.60092,45.72592],[-74.60109,45.72582],[-74.60194,45.7261],[-74.60219,45.72567],[-74.60267,45.72533],[-74.60291,45.72503],[-74.60295,45.725],[-74.60331,45.725],[-74.60333,45.72504],[-74.60335,45.72511],[-74.60337,45.72519],[-74.60339,45.72534],[-74.60344,45.72551],[-74.60346,45.72565],[-74.6035,45.7258],[-74.60351,45.72586],[-74.60352,45.72593],[-74.60352,45.72594],[-74.60352,45.72601],[-74.60349,45.72608],[-74.60348,45.72612],[-74.60339,45.72619],[-74.60327,45.72676],[-74.60355,45.72725],[-74.60353,45.72728],[-74.6035,45.72734],[-74.6035,45.72741],[-74.6035,45.72746],[-74.60348,45.72751],[-74.60345,45.72755],[-74.60341,45.72759],[-74.60337,45.72764],[-74.6033,45.72773],[-74.60329,45.72778],[-74.6033,45.72782],[-74.60333,45.72785],[-74.6034,45.72788],[-74.60349,45.7279],[-74.60359,45.7279],[-74.60367,45.72787],[-74.6037,45.7278],[-74.60379,45.72816],[-74.60327,45.72875],[-74.60266,45.72892],[-74.60216,45.72893],[-74.60129,45.72856],[-74.60089,45.72898],[-74.60027,45.72956],[-74.6,45.72966],[-74.6,45.7268]]]}},{"type":"Feature","properties":{"c":"CDC-2344487","o":"Canada Carbon Inc. 100%","e":""},"geometry":{"type":"Polygon","coordinates":[[[-74.59167,45.675],[-74.58333,45.675],[-74.58333,45.66667],[-74.59167,45.66667],[-74.59167,45.675]]]}},{"type":"Feature","properties":{"c":"CDC-2487844","o":"Canada Carbon Inc. 100%","e":""},"geometry":{"type":"Polygon","coordinates":[[[-74.59167,45.68333],[-74.58333,45.68333],[-74.58333,45.675],[-74.59167,45.675],[-74.59167,45.68333]]]}},{"type":"Feature","properties":{"c":"CDC-2487854","o":"Canada Carbon Inc. 100%","e":""},"geometry":{"type":"Polygon","coordinates":[[[-74.59167,45.69167],[-74.58333,45.69167],[-74.58333,45.68333],[-74.59167,45.68333],[-74.59167,45.69167]]]}},{"type":"Feature","properties":{"c":"CDC-2487858","o":"Canada Carbon Inc. 100%","e":""},"geometry":{"type":"Polygon","coordinates":[[[-74.59167,45.7],[-74.58333,45.7],[-74.58333,45.69167],[-74.59167,45.69167],[-74.59167,45.7]]]}},{"type":"Feature","properties":{"c":"CDC-2819251","o":"Eric Maltais 100%","e":""},"geometry":{"type":"Polygon","coordinates":[[[-74.59167,45.72297],[-74.59156,45.72297],[-74.59144,45.72297],[-74.59135,45.72297],[-74.59126,45.72297],[-74.59116,45.72295],[-74.59104,45.72291],[-74.59096,45.72287],[-74.59084,45.7228],[-74.59074,45.72275],[-74.59062,45.72272],[-74.5905,45.72268],[-74.59037,45.72265],[-74.59023,45.72263],[-74.59013,45.72262],[-74.59008,45.72261],[-74.58991,45.7226],[-74.58953,45.7226],[-74.58929,45.72263],[-74.5893,45.72264],[-74.58929,45.72267],[-74.58927,45.72271],[-74.58927,45.72274],[-74.58927,45.72278],[-74.58928,45.72283],[-74.58928,45.72289],[-74.58927,45.72295],[-74.58925,45.72302],[-74.58923,45.7231],[-74.58922,45.72317],[-74.58922,45.7232],[-74.58923,45.72326],[-74.58926,45.7233],[-74.5893,45.72336],[-74.58934,45.72342],[-74.58938,45.72349],[-74.58943,45.72357],[-74.5895,45.72362],[-74.58954,45.72367],[-74.58966,45.72376],[-74.58969,45.72378],[-74.58975,45.7238],[-74.58979,45.72381],[-74.58987,45.72384],[-74.58993,45.72387],[-74.58995,45.72393],[-74.58998,45.72396],[-74.59001,45.724],[-74.59004,45.72404],[-74.59007,45.7241],[-74.59007,45.72418],[-74.59004,45.72425],[-74.58999,45.72431],[-74.58993,45.72439],[-74.58987,45.72445],[-74.58985,45.72451],[-74.58984,45.72458],[-74.58986,45.72464],[-74.58988,45.72469],[-74.58991,45.72477],[-74.58999,45.72485],[-74.5901,45.72499],[-74.59011,45.725],[-74.58333,45.725],[-74.58333,45.72249],[-74.58342,45.72245],[-74.58349,45.72242],[-74.58356,45.72241],[-74.5837,45.72241],[-74.58386,45.72241],[-74.58393,45.7224],[-74.58412,45.72241],[-74.5842,45.72242],[-74.58431,45.72243],[-74.58439,45.72242],[-74.58442,45.72239],[-74.58441,45.72234],[-74.58433,45.72228],[-74.58423,45.72227],[-74.58413,45.72228],[-74.58402,45.72228],[-74.5839,45.72225],[-74.58381,45.72221],[-74.58371,45.72218],[-74.58364,45.72217],[-74.58353,45.72214],[-74.58345,45.7221],[-74.58339,45.72205],[-74.58333,45.72199],[-74.58333,45.71667],[-74.59167,45.71667],[-74.59167,45.72297]]]}},{"type":"Feature","properties":{"c":"CDC-2388719","o":"Canada Carbon Inc. 100%","e":""},"geometry":{"type":"Polygon","coordinates":[[[-74.58333,45.65833],[-74.575,45.65833],[-74.575,45.65],[-74.58333,45.65],[-74.58333,45.65833]]]}},{"type":"Feature","properties":{"c":"CDC-2388718","o":"Canada Carbon Inc. 100%","e":""},"geometry":{"type":"Polygon","coordinates":[[[-74.59167,45.65833],[-74.58333,45.65833],[-74.58333,45.65],[-74.59167,45.65],[-74.59167,45.65833]]]}},{"type":"Feature","properties":{"c":"CDC-2388717","o":"Canada Carbon Inc. 100%","e":""},"geometry":{"type":"Polygon","coordinates":[[[-74.6,45.65833],[-74.59167,45.65833],[-74.59167,45.65],[-74.6,45.65],[-74.6,45.65833]]]}},{"type":"Feature","properties":{"c":"CDC-2388716","o":"Canada Carbon Inc. 100%","e":""},"geometry":{"type":"Polygon","coordinates":[[[-74.60833,45.65833],[-74.6,45.65833],[-74.6,45.65],[-74.60833,45.65],[-74.60833,45.65833]]]}},{"type":"Feature","properties":{"c":"CDC-2388715","o":"Canada Carbon Inc. 100%","e":""},"geometry":{"type":"Polygon","coordinates":[[[-74.61667,45.65833],[-74.60833,45.65833],[-74.60833,45.65],[-74.61667,45.65],[-74.61667,45.65833]]]}},{"type":"Feature","properties":{"c":"CDC-2380944","o":"Canada Carbon Inc. 100%","e":""},"geometry":{"type":"Polygon","coordinates":[[[-74.625,45.65833],[-74.61667,45.65833],[-74.61667,45.65],[-74.625,45.65],[-74.625,45.65833]]]}},{"type":"Feature","properties":{"c":"CDC-2487825","o":"Canada Carbon Inc. 100%","e":""},"geometry":{"type":"Polygon","coordinates":[[[-74.63333,45.65833],[-74.625,45.65833],[-74.625,45.65],[-74.63333,45.65],[-74.63333,45.65833]]]}},{"type":"Feature","properties":{"c":"CDC-2487820","o":"Canada Carbon Inc. 100%","e":""},"geometry":{"type":"Polygon","coordinates":[[[-74.64167,45.65833],[-74.63333,45.65833],[-74.63333,45.65],[-74.64167,45.65],[-74.64167,45.65833]]]}},{"type":"Feature","properties":{"c":"CDC-2850098","o":"infinity stone ventures corp 100%","e":""},"geometry":{"type":"Polygon","coordinates":[[[-74.65833,45.65833],[-74.65,45.65833],[-74.65,45.65],[-74.65833,45.65],[-74.65833,45.65833]]]}},{"type":"Feature","properties":{"c":"CDC-2388720","o":"Canada Carbon Inc. 100%","e":""},"geometry":{"type":"Polygon","coordinates":[[[-74.58333,45.66667],[-74.575,45.66667],[-74.575,45.65833],[-74.58333,45.65833],[-74.58333,45.66667]]]}},{"type":"Feature","properties":{"c":"CDC-2349741","o":"Canada Carbon Inc. 100%","e":""},"geometry":{"type":"Polygon","coordinates":[[[-74.59167,45.66667],[-74.58333,45.66667],[-74.58333,45.65833],[-74.59167,45.65833],[-74.59167,45.66667]]]}},{"type":"Feature","properties":{"c":"CDC-2349740","o":"Canada Carbon Inc. 100%","e":""},"geometry":{"type":"Polygon","coordinates":[[[-74.6,45.66667],[-74.59167,45.66667],[-74.59167,45.65833],[-74.6,45.65833],[-74.6,45.66667]]]}}]}