{"type":"FeatureCollection","features":[{"type":"Feature","properties":{"c":"CDC-2646358","o":"SOQUEM inc. 100%","e":""},"geometry":{"type":"Polygon","coordinates":[[[-75.65,46.825],[-75.64167,46.825],[-75.64167,46.81667],[-75.65,46.81667],[-75.65,46.825]]]}},{"type":"Feature","properties":{"c":"CDC-2646366","o":"SOQUEM inc. 100%","e":""},"geometry":{"type":"Polygon","coordinates":[[[-75.65,46.83333],[-75.64167,46.83333],[-75.64167,46.825],[-75.65,46.825],[-75.65,46.83333]]]}},{"type":"Feature","properties":{"c":"CDC-2646371","o":"SOQUEM inc. 100%","e":""},"geometry":{"type":"Polygon","coordinates":[[[-75.65,46.84167],[-75.64167,46.84167],[-75.64167,46.83333],[-75.65,46.83333],[-75.65,46.84167]]]}},{"type":"Feature","properties":{"c":"CDC-2777043","o":"SOQUEM inc. 100%","e":""},"geometry":{"type":"Polygon","coordinates":[[[-75.64167,46.79795],[-75.64119,46.79799],[-75.6409,46.79798],[-75.64068,46.79796],[-75.64024,46.79808],[-75.64003,46.79811],[-75.63936,46.79809],[-75.63918,46.79805],[-75.63872,46.79802],[-75.63828,46.79808],[-75.63812,46.79808],[-75.63783,46.79803],[-75.63766,46.79801],[-75.6374,46.79812],[-75.63724,46.79816],[-75.63683,46.79822],[-75.63665,46.79827],[-75.63631,46.79838],[-75.63616,46.79847],[-75.63608,46.79857],[-75.636,46.79864],[-75.63591,46.79873],[-75.6358,46.79875],[-75.63566,46.79874],[-75.63555,46.79871],[-75.63532,46.79876],[-75.63516,46.79875],[-75.63503,46.7987],[-75.63478,46.79856],[-75.63461,46.79856],[-75.63443,46.79858],[-75.63414,46.79866],[-75.63397,46.79878],[-75.63382,46.79908],[-75.63366,46.8],[-75.63333,46.8],[-75.63333,46.79167],[-75.64167,46.79167],[-75.64167,46.79795]]]}},{"type":"Feature","properties":{"c":"CDC-2657227","o":"SOQUEM inc. 100%","e":""},"geometry":{"type":"Polygon","coordinates":[[[-75.64167,46.80833],[-75.63333,46.80833],[-75.63333,46.80423],[-75.63338,46.80425],[-75.6335,46.80432],[-75.6336,46.8044],[-75.63376,46.80444],[-75.63389,46.8044],[-75.63488,46.8043],[-75.63511,46.8043],[-75.63553,46.80434],[-75.63574,46.80433],[-75.63594,46.80436],[-75.63638,46.80454],[-75.6365,46.8046],[-75.63653,46.80466],[-75.63656,46.80487],[-75.63644,46.80499],[-75.63644,46.80506],[-75.6365,46.80508],[-75.63656,46.80497],[-75.63661,46.80492],[-75.63667,46.80491],[-75.63671,46.80485],[-75.63669,46.80474],[-75.63686,46.80448],[-75.63689,46.80435],[-75.63689,46.80421],[-75.63687,46.80407],[-75.63668,46.80361],[-75.63675,46.80358],[-75.63688,46.80355],[-75.63701,46.80373],[-75.63724,46.80396],[-75.63754,46.80416],[-75.63767,46.80427],[-75.63838,46.80477],[-75.63856,46.80491],[-75.63877,46.80504],[-75.63972,46.8054],[-75.63993,46.80552],[-75.64025,46.80573],[-75.6407,46.80564],[-75.64069,46.80558],[-75.6407,46.80536],[-75.64077,46.80522],[-75.64082,46.80515],[-75.64102,46.80497],[-75.64106,46.80482],[-75.64106,46.80459],[-75.64104,46.80455],[-75.64099,46.80449],[-75.64098,46.80424],[-75.64079,46.8037],[-75.64078,46.80356],[-75.64123,46.80364],[-75.64131,46.80369],[-75.64162,46.80378],[-75.64167,46.80379],[-75.64167,46.80833]]]}},{"type":"Feature","properties":{"c":"CDC-2646349","o":"SOQUEM inc. 100%","e":""},"geometry":{"type":"Polygon","coordinates":[[[-75.64167,46.81667],[-75.63333,46.81667],[-75.63333,46.80833],[-75.64167,46.80833],[-75.64167,46.81667]]]}},{"type":"Feature","properties":{"c":"CDC-2646359","o":"SOQUEM inc. 100%","e":""},"geometry":{"type":"Polygon","coordinates":[[[-75.64167,46.825],[-75.63333,46.825],[-75.63333,46.81667],[-75.64167,46.81667],[-75.64167,46.825]]]}},{"type":"Feature","properties":{"c":"CDC-2646367","o":"SOQUEM inc. 100%","e":""},"geometry":{"type":"Polygon","coordinates":[[[-75.64167,46.83333],[-75.63333,46.83333],[-75.63333,46.825],[-75.64167,46.825],[-75.64167,46.83333]]]}},{"type":"Feature","properties":{"c":"CDC-2646372","o":"SOQUEM inc. 100%","e":""},"geometry":{"type":"Polygon","coordinates":[[[-75.64167,46.84167],[-75.63333,46.84167],[-75.63333,46.83333],[-75.64167,46.83333],[-75.64167,46.84167]]]}},{"type":"Feature","properties":{"c":"CDC-2646341","o":"SOQUEM inc. 100%","e":""},"geometry":{"type":"Polygon","coordinates":[[[-75.63333,46.8],[-75.625,46.8],[-75.625,46.79167],[-75.63333,46.79167],[-75.63333,46.8]]]}},{"type":"Feature","properties":{"c":"CDC-2657228","o":"SOQUEM inc. 100%","e":""},"geometry":{"type":"Polygon","coordinates":[[[-75.63333,46.80162],[-75.63333,46.8],[-75.63366,46.8],[-75.63359,46.80043],[-75.63333,46.80162]]]}},{"type":"Feature","properties":{"c":"CDC-2650283","o":"SOQUEM inc. 100%","e":""},"geometry":{"type":"Polygon","coordinates":[[[-75.63333,46.80833],[-75.625,46.80833],[-75.625,46.8],[-75.63333,46.8],[-75.63333,46.80162],[-75.63325,46.80202],[-75.6325,46.80218],[-75.63205,46.80212],[-75.632,46.80215],[-75.63189,46.80229],[-75.63189,46.80259],[-75.63183,46.80276],[-75.63169,46.80294],[-75.63145,46.8031],[-75.63144,46.80316],[-75.6313,46.80321],[-75.63122,46.80409],[-75.63143,46.80416],[-75.63165,46.80421],[-75.63185,46.80428],[-75.63207,46.80431],[-75.63231,46.80427],[-75.63283,46.80425],[-75.63325,46.80421],[-75.63333,46.80423],[-75.63333,46.80833]]]}},{"type":"Feature","properties":{"c":"CDC-2646350","o":"SOQUEM inc. 100%","e":""},"geometry":{"type":"Polygon","coordinates":[[[-75.63333,46.81667],[-75.625,46.81667],[-75.625,46.80833],[-75.63333,46.80833],[-75.63333,46.81667]]]}},{"type":"Feature","properties":{"c":"CDC-2646360","o":"SOQUEM inc. 100%","e":""},"geometry":{"type":"Polygon","coordinates":[[[-75.63333,46.825],[-75.625,46.825],[-75.625,46.81667],[-75.63333,46.81667],[-75.63333,46.825]]]}},{"type":"Feature","properties":{"c":"CDC-2646368","o":"SOQUEM inc. 100%","e":""},"geometry":{"type":"Polygon","coordinates":[[[-75.63333,46.83333],[-75.625,46.83333],[-75.625,46.825],[-75.63333,46.825],[-75.63333,46.83333]]]}},{"type":"Feature","properties":{"c":"CDC-2844835","o":"Pierre Parent 100%","e":""},"geometry":{"type":"Polygon","coordinates":[[[-75.63333,46.84167],[-75.625,46.84167],[-75.625,46.83333],[-75.63333,46.83333],[-75.63333,46.84167]]]}},{"type":"Feature","properties":{"c":"CDC-2646342","o":"SOQUEM inc. 100%","e":""},"geometry":{"type":"Polygon","coordinates":[[[-75.625,46.8],[-75.61667,46.8],[-75.61667,46.79167],[-75.625,46.79167],[-75.625,46.8]]]}},{"type":"Feature","properties":{"c":"CDC-2646343","o":"SOQUEM inc. 100%","e":""},"geometry":{"type":"Polygon","coordinates":[[[-75.625,46.80833],[-75.61667,46.80833],[-75.61667,46.8],[-75.625,46.8],[-75.625,46.80833]]]}},{"type":"Feature","properties":{"c":"CDC-2646351","o":"SOQUEM inc. 100%","e":""},"geometry":{"type":"Polygon","coordinates":[[[-75.625,46.81667],[-75.61667,46.81667],[-75.61667,46.80833],[-75.625,46.80833],[-75.625,46.81667]]]}},{"type":"Feature","properties":{"c":"CDC-2646361","o":"SOQUEM inc. 100%","e":""},"geometry":{"type":"Polygon","coordinates":[[[-75.625,46.825],[-75.61667,46.825],[-75.61667,46.81667],[-75.625,46.81667],[-75.625,46.825]]]}},{"type":"Feature","properties":{"c":"CDC-2646369","o":"SOQUEM inc. 100%","e":""},"geometry":{"type":"Polygon","coordinates":[[[-75.625,46.83333],[-75.61667,46.83333],[-75.61667,46.825],[-75.625,46.825],[-75.625,46.83333]]]}},{"type":"Feature","properties":{"c":"CDC-2844836","o":"Pierre Parent 100%","e":""},"geometry":{"type":"Polygon","coordinates":[[[-75.625,46.84167],[-75.61667,46.84167],[-75.61667,46.83333],[-75.625,46.83333],[-75.625,46.84167]]]}},{"type":"Feature","properties":{"c":"CDC-2646285","o":"SOQUEM inc. 100%","e":""},"geometry":{"type":"Polygon","coordinates":[[[-75.61667,46.8],[-75.60833,46.8],[-75.60833,46.79167],[-75.61667,46.79167],[-75.61667,46.8]]]}},{"type":"Feature","properties":{"c":"CDC-2646344","o":"SOQUEM inc. 100%","e":""},"geometry":{"type":"Polygon","coordinates":[[[-75.61667,46.80833],[-75.60833,46.80833],[-75.60833,46.8],[-75.61667,46.8],[-75.61667,46.80833]]]}},{"type":"Feature","properties":{"c":"CDC-2646352","o":"SOQUEM inc. 100%","e":""},"geometry":{"type":"Polygon","coordinates":[[[-75.61667,46.81667],[-75.60833,46.81667],[-75.60833,46.80833],[-75.61667,46.80833],[-75.61667,46.81667]]]}},{"type":"Feature","properties":{"c":"CDC-2646362","o":"SOQUEM inc. 100%","e":""},"geometry":{"type":"Polygon","coordinates":[[[-75.61667,46.825],[-75.60833,46.825],[-75.60833,46.81667],[-75.61667,46.81667],[-75.61667,46.825]]]}},{"type":"Feature","properties":{"c":"CDC-2844837","o":"Pierre Parent 100%","e":""},"geometry":{"type":"Polygon","coordinates":[[[-75.61667,46.84167],[-75.60833,46.84167],[-75.60833,46.83333],[-75.61667,46.83333],[-75.61667,46.84167]]]}},{"type":"Feature","properties":{"c":"CDC-2848762","o":"Steven Scott 100%","e":""},"geometry":{"type":"Polygon","coordinates":[[[-75.875,46.90833],[-75.86667,46.90833],[-75.86667,46.9],[-75.875,46.9],[-75.875,46.90833]]]}},{"type":"Feature","properties":{"c":"CDC-2805983","o":"Kenneth Kuiper 100%","e":""},"geometry":{"type":"Polygon","coordinates":[[[-75.86667,46.90833],[-75.85833,46.90833],[-75.85833,46.9],[-75.86667,46.9],[-75.86667,46.90833]]]}},{"type":"Feature","properties":{"c":"CDC-2860869","o":"Ressources Maxima inc. 100%","e":""},"geometry":{"type":"Polygon","coordinates":[[[-75.85833,46.90833],[-75.85,46.90833],[-75.85,46.9],[-75.85833,46.9],[-75.85833,46.90833]]]}},{"type":"Feature","properties":{"c":"CDC-2763799","o":"SOQUEM inc. 100%","e":""},"geometry":{"type":"Polygon","coordinates":[[[-75.69167,46.79167],[-75.68333,46.79167],[-75.68333,46.78333],[-75.69167,46.78333],[-75.69167,46.79167]]]}},{"type":"Feature","properties":{"c":"CDC-2646708","o":"SOQUEM inc. 100%","e":""},"geometry":{"type":"Polygon","coordinates":[[[-75.68333,46.79167],[-75.675,46.79167],[-75.675,46.78333],[-75.68333,46.78333],[-75.68333,46.79167]]]}},{"type":"Feature","properties":{"c":"CDC-2646709","o":"SOQUEM inc. 100%","e":""},"geometry":{"type":"Polygon","coordinates":[[[-75.675,46.79167],[-75.66667,46.79167],[-75.66667,46.78333],[-75.675,46.78333],[-75.675,46.79167]]]}},{"type":"Feature","properties":{"c":"CDC-2763800","o":"SOQUEM inc. 100%","e":""},"geometry":{"type":"Polygon","coordinates":[[[-75.675,46.8],[-75.66667,46.8],[-75.66667,46.79167],[-75.675,46.79167],[-75.675,46.8]]]}},{"type":"Feature","properties":{"c":"CDC-2763803","o":"SOQUEM inc. 100%","e":""},"geometry":{"type":"Polygon","coordinates":[[[-75.675,46.80833],[-75.66667,46.80833],[-75.66667,46.8],[-75.675,46.8],[-75.675,46.80833]]]}},{"type":"Feature","properties":{"c":"CDC-2763806","o":"SOQUEM inc. 100%","e":""},"geometry":{"type":"Polygon","coordinates":[[[-75.675,46.81667],[-75.66667,46.81667],[-75.66667,46.80833],[-75.675,46.80833],[-75.675,46.81667]]]}},{"type":"Feature","properties":{"c":"CDC-2646355","o":"SOQUEM inc. 100%","e":""},"geometry":{"type":"Polygon","coordinates":[[[-75.675,46.825],[-75.66667,46.825],[-75.66667,46.81667],[-75.675,46.81667],[-75.675,46.825]]]}},{"type":"Feature","properties":{"c":"CDC-2650284","o":"SOQUEM inc. 100%","e":""},"geometry":{"type":"Polygon","coordinates":[[[-75.67466,46.83333],[-75.66667,46.83333],[-75.66667,46.825],[-75.675,46.825],[-75.675,46.83325],[-75.67497,46.83325],[-75.67466,46.83333]]]}},{"type":"Feature","properties":{"c":"CDC-2646710","o":"SOQUEM inc. 100%","e":""},"geometry":{"type":"Polygon","coordinates":[[[-75.66667,46.79167],[-75.65833,46.79167],[-75.65833,46.78333],[-75.66667,46.78333],[-75.66667,46.79167]]]}},{"type":"Feature","properties":{"c":"CDC-2763801","o":"SOQUEM inc. 100%","e":""},"geometry":{"type":"Polygon","coordinates":[[[-75.66667,46.8],[-75.65833,46.8],[-75.65833,46.79167],[-75.66667,46.79167],[-75.66667,46.8]]]}},{"type":"Feature","properties":{"c":"CDC-2763804","o":"SOQUEM inc. 100%","e":""},"geometry":{"type":"Polygon","coordinates":[[[-75.66667,46.80833],[-75.65833,46.80833],[-75.65833,46.8],[-75.66667,46.8],[-75.66667,46.80833]]]}},{"type":"Feature","properties":{"c":"CDC-2646346","o":"SOQUEM inc. 100%","e":""},"geometry":{"type":"Polygon","coordinates":[[[-75.66667,46.81667],[-75.65833,46.81667],[-75.65833,46.80833],[-75.66667,46.80833],[-75.66667,46.81667]]]}},{"type":"Feature","properties":{"c":"CDC-2646356","o":"SOQUEM inc. 100%","e":""},"geometry":{"type":"Polygon","coordinates":[[[-75.66667,46.825],[-75.65833,46.825],[-75.65833,46.81667],[-75.66667,46.81667],[-75.66667,46.825]]]}},{"type":"Feature","properties":{"c":"CDC-2646364","o":"SOQUEM inc. 100%","e":""},"geometry":{"type":"Polygon","coordinates":[[[-75.66667,46.83333],[-75.65833,46.83333],[-75.65833,46.825],[-75.66667,46.825],[-75.66667,46.83333]]]}},{"type":"Feature","properties":{"c":"CDC-2650285","o":"SOQUEM inc. 100%","e":""},"geometry":{"type":"Polygon","coordinates":[[[-75.66593,46.83797],[-75.66557,46.8382],[-75.66521,46.83846],[-75.66488,46.83873],[-75.66457,46.83901],[-75.6643,46.83931],[-75.66405,46.83962],[-75.66392,46.83981],[-75.66304,46.84112],[-75.66295,46.84125],[-75.66277,46.84158],[-75.66273,46.84167],[-75.65833,46.84167],[-75.65833,46.83333],[-75.66667,46.83333],[-75.66667,46.83753],[-75.66593,46.83797]]]}},{"type":"Feature","properties":{"c":"CDC-2763802","o":"SOQUEM inc. 100%","e":""},"geometry":{"type":"Polygon","coordinates":[[[-75.65833,46.8],[-75.65,46.8],[-75.65,46.79167],[-75.65833,46.79167],[-75.65833,46.8]]]}},{"type":"Feature","properties":{"c":"CDC-2763805","o":"SOQUEM inc. 100%","e":""},"geometry":{"type":"Polygon","coordinates":[[[-75.65833,46.80833],[-75.65,46.80833],[-75.65,46.8],[-75.65833,46.8],[-75.65833,46.80833]]]}},{"type":"Feature","properties":{"c":"CDC-2646347","o":"SOQUEM inc. 100%","e":""},"geometry":{"type":"Polygon","coordinates":[[[-75.65833,46.81667],[-75.65,46.81667],[-75.65,46.80833],[-75.65833,46.80833],[-75.65833,46.81667]]]}},{"type":"Feature","properties":{"c":"CDC-2646357","o":"SOQUEM inc. 100%","e":""},"geometry":{"type":"Polygon","coordinates":[[[-75.65833,46.825],[-75.65,46.825],[-75.65,46.81667],[-75.65833,46.81667],[-75.65833,46.825]]]}},{"type":"Feature","properties":{"c":"CDC-2646365","o":"SOQUEM inc. 100%","e":""},"geometry":{"type":"Polygon","coordinates":[[[-75.65833,46.83333],[-75.65,46.83333],[-75.65,46.825],[-75.65833,46.825],[-75.65833,46.83333]]]}},{"type":"Feature","properties":{"c":"CDC-2646370","o":"SOQUEM inc. 100%","e":""},"geometry":{"type":"Polygon","coordinates":[[[-75.65833,46.84167],[-75.65,46.84167],[-75.65,46.83333],[-75.65833,46.83333],[-75.65833,46.84167]]]}},{"type":"Feature","properties":{"c":"CDC-2777042","o":"SOQUEM inc. 100%","e":""},"geometry":{"type":"Polygon","coordinates":[[[-75.64301,46.8],[-75.64322,46.79969],[-75.64344,46.79892],[-75.6436,46.79866],[-75.64364,46.79845],[-75.64378,46.79826],[-75.64275,46.79799],[-75.64229,46.79783],[-75.64225,46.79785],[-75.64211,46.79786],[-75.64171,46.79794],[-75.64167,46.79795],[-75.64167,46.79167],[-75.65,46.79167],[-75.65,46.8],[-75.64301,46.8]]]}},{"type":"Feature","properties":{"c":"CDC-2650282","o":"SOQUEM inc. 100%","e":""},"geometry":{"type":"Polygon","coordinates":[[[-75.65,46.8],[-75.65,46.80833],[-75.64167,46.80833],[-75.64167,46.80379],[-75.64191,46.80382],[-75.64215,46.80392],[-75.64232,46.80403],[-75.64244,46.80406],[-75.64284,46.80424],[-75.64288,46.80419],[-75.64291,46.80406],[-75.64292,46.804],[-75.64289,46.80369],[-75.64295,46.80355],[-75.64308,46.80341],[-75.64292,46.8033],[-75.64274,46.80313],[-75.64232,46.80267],[-75.64215,46.80243],[-75.64206,46.80224],[-75.64203,46.80203],[-75.64202,46.80185],[-75.64206,46.80156],[-75.64221,46.80111],[-75.64228,46.80084],[-75.64228,46.80071],[-75.64224,46.80065],[-75.64218,46.80059],[-75.64213,46.80057],[-75.64214,46.80056],[-75.64282,46.80047],[-75.64295,46.80009],[-75.64301,46.8],[-75.65,46.8]]]}},{"type":"Feature","properties":{"c":"CDC-2646348","o":"SOQUEM inc. 100%","e":""},"geometry":{"type":"Polygon","coordinates":[[[-75.65,46.81667],[-75.64167,46.81667],[-75.64167,46.80833],[-75.65,46.80833],[-75.65,46.81667]]]}},{"type":"Feature","properties":{"c":"CDC-2646687","o":"SOQUEM inc. 100%","e":""},"geometry":{"type":"Polygon","coordinates":[[[-75.65833,46.775],[-75.65,46.775],[-75.65,46.76667],[-75.65833,46.76667],[-75.65833,46.775]]]}},{"type":"Feature","properties":{"c":"CDC-2646699","o":"SOQUEM inc. 100%","e":""},"geometry":{"type":"Polygon","coordinates":[[[-75.65833,46.78333],[-75.65,46.78333],[-75.65,46.775],[-75.65833,46.775],[-75.65833,46.78333]]]}},{"type":"Feature","properties":{"c":"CDC-2646711","o":"SOQUEM inc. 100%","e":""},"geometry":{"type":"Polygon","coordinates":[[[-75.65833,46.79167],[-75.65,46.79167],[-75.65,46.78333],[-75.65833,46.78333],[-75.65833,46.79167]]]}},{"type":"Feature","properties":{"c":"CDC-2651248","o":"SOQUEM inc. 100%","e":""},"geometry":{"type":"Polygon","coordinates":[[[-75.65,46.75],[-75.65,46.75833],[-75.64167,46.75833],[-75.64167,46.75187],[-75.64171,46.75186],[-75.64183,46.75181],[-75.64195,46.75178],[-75.64206,46.75173],[-75.6422,46.75169],[-75.64229,46.75163],[-75.64239,46.75156],[-75.64249,46.7515],[-75.64258,46.75145],[-75.64269,46.75139],[-75.64278,46.75132],[-75.64279,46.75131],[-75.64287,46.75124],[-75.64294,46.75116],[-75.64302,46.75109],[-75.6431,46.75101],[-75.64316,46.75094],[-75.64324,46.75087],[-75.64327,46.75085],[-75.64335,46.75078],[-75.64343,46.75071],[-75.64351,46.75064],[-75.64359,46.75057],[-75.64367,46.75049],[-75.64375,46.75041],[-75.64376,46.75032],[-75.64379,46.75023],[-75.6438,46.75014],[-75.64382,46.75005],[-75.64383,46.75],[-75.65,46.75]]]}},{"type":"Feature","properties":{"c":"CDC-2646683","o":"SOQUEM inc. 100%","e":""},"geometry":{"type":"Polygon","coordinates":[[[-75.65,46.76667],[-75.64167,46.76667],[-75.64167,46.75833],[-75.65,46.75833],[-75.65,46.76667]]]}},{"type":"Feature","properties":{"c":"CDC-2646688","o":"SOQUEM inc. 100%","e":""},"geometry":{"type":"Polygon","coordinates":[[[-75.65,46.775],[-75.64167,46.775],[-75.64167,46.76667],[-75.65,46.76667],[-75.65,46.775]]]}},{"type":"Feature","properties":{"c":"CDC-2646700","o":"SOQUEM inc. 100%","e":""},"geometry":{"type":"Polygon","coordinates":[[[-75.65,46.78333],[-75.64167,46.78333],[-75.64167,46.775],[-75.65,46.775],[-75.65,46.78333]]]}},{"type":"Feature","properties":{"c":"CDC-2646712","o":"SOQUEM inc. 100%","e":""},"geometry":{"type":"Polygon","coordinates":[[[-75.65,46.79167],[-75.64167,46.79167],[-75.64167,46.78333],[-75.65,46.78333],[-75.65,46.79167]]]}},{"type":"Feature","properties":{"c":"CDC-2646684","o":"SOQUEM inc. 100%","e":""},"geometry":{"type":"Polygon","coordinates":[[[-75.64167,46.76667],[-75.63333,46.76667],[-75.63333,46.75833],[-75.64167,46.75833],[-75.64167,46.76667]]]}},{"type":"Feature","properties":{"c":"CDC-2646689","o":"SOQUEM inc. 100%","e":""},"geometry":{"type":"Polygon","coordinates":[[[-75.64167,46.775],[-75.63333,46.775],[-75.63333,46.76667],[-75.64167,46.76667],[-75.64167,46.775]]]}},{"type":"Feature","properties":{"c":"CDC-2646701","o":"SOQUEM inc. 100%","e":""},"geometry":{"type":"Polygon","coordinates":[[[-75.64167,46.78333],[-75.63333,46.78333],[-75.63333,46.775],[-75.64167,46.775],[-75.64167,46.78333]]]}},{"type":"Feature","properties":{"c":"CDC-2646338","o":"SOQUEM inc. 100%","e":""},"geometry":{"type":"Polygon","coordinates":[[[-75.64167,46.79167],[-75.63333,46.79167],[-75.63333,46.78333],[-75.64167,46.78333],[-75.64167,46.79167]]]}},{"type":"Feature","properties":{"c":"CDC-2651249","o":"SOQUEM inc. 100%","e":""},"geometry":{"type":"Polygon","coordinates":[[[-75.625,46.76667],[-75.625,46.75978],[-75.62642,46.76018],[-75.62882,46.76035],[-75.62926,46.76007],[-75.62872,46.75998],[-75.6282,46.75985],[-75.62769,46.7597],[-75.62721,46.75952],[-75.62675,46.75931],[-75.62631,46.75907],[-75.62591,46.75881],[-75.62554,46.75853],[-75.62532,46.75833],[-75.63333,46.75833],[-75.63333,46.76667],[-75.625,46.76667]]]}},{"type":"Feature","properties":{"c":"CDC-2646690","o":"SOQUEM inc. 100%","e":""},"geometry":{"type":"Polygon","coordinates":[[[-75.63333,46.775],[-75.625,46.775],[-75.625,46.76667],[-75.63333,46.76667],[-75.63333,46.775]]]}},{"type":"Feature","properties":{"c":"CDC-2646702","o":"SOQUEM inc. 100%","e":""},"geometry":{"type":"Polygon","coordinates":[[[-75.63333,46.78333],[-75.625,46.78333],[-75.625,46.775],[-75.63333,46.775],[-75.63333,46.78333]]]}},{"type":"Feature","properties":{"c":"CDC-2646339","o":"SOQUEM inc. 100%","e":""},"geometry":{"type":"Polygon","coordinates":[[[-75.63333,46.79167],[-75.625,46.79167],[-75.625,46.78333],[-75.63333,46.78333],[-75.63333,46.79167]]]}},{"type":"Feature","properties":{"c":"CDC-2651250","o":"SOQUEM inc. 100%","e":""},"geometry":{"type":"Polygon","coordinates":[[[-75.62036,46.76076],[-75.62089,46.75966],[-75.62164,46.75895],[-75.62211,46.75887],[-75.62279,46.75892],[-75.62366,46.7594],[-75.625,46.75978],[-75.625,46.76667],[-75.61667,46.76667],[-75.61667,46.76245],[-75.61672,46.76241],[-75.61673,46.7624],[-75.61676,46.7624],[-75.61688,46.76237],[-75.61701,46.76235],[-75.61713,46.76232],[-75.61726,46.7623],[-75.61738,46.76227],[-75.61751,46.76224],[-75.61755,46.76223],[-75.61765,46.76217],[-75.61776,46.76212],[-75.61786,46.76207],[-75.61797,46.76201],[-75.61808,46.76196],[-75.61814,46.76193],[-75.61825,46.76188],[-75.61837,46.76184],[-75.61847,46.76179],[-75.61859,46.76174],[-75.61865,46.76172],[-75.61864,46.76171],[-75.61941,46.76138],[-75.62036,46.76076]]]}},{"type":"Feature","properties":{"c":"CDC-2646691","o":"SOQUEM inc. 100%","e":""},"geometry":{"type":"Polygon","coordinates":[[[-75.625,46.775],[-75.61667,46.775],[-75.61667,46.76667],[-75.625,46.76667],[-75.625,46.775]]]}},{"type":"Feature","properties":{"c":"CDC-2646703","o":"SOQUEM inc. 100%","e":""},"geometry":{"type":"Polygon","coordinates":[[[-75.625,46.78333],[-75.61667,46.78333],[-75.61667,46.775],[-75.625,46.775],[-75.625,46.78333]]]}},{"type":"Feature","properties":{"c":"CDC-2646340","o":"SOQUEM inc. 100%","e":""},"geometry":{"type":"Polygon","coordinates":[[[-75.625,46.79167],[-75.61667,46.79167],[-75.61667,46.78333],[-75.625,46.78333],[-75.625,46.79167]]]}},{"type":"Feature","properties":{"c":"CDC-2651251","o":"SOQUEM inc. 100%","e":""},"geometry":{"type":"Polygon","coordinates":[[[-75.60833,46.76395],[-75.60851,46.76393],[-75.60853,46.76393],[-75.60855,46.76392],[-75.60867,46.76391],[-75.60934,46.76409],[-75.60961,46.76419],[-75.60969,46.76422],[-75.60979,46.76426],[-75.60991,46.76431],[-75.61,46.76434],[-75.61012,46.76437],[-75.61023,46.76441],[-75.61035,46.76445],[-75.61047,46.76449],[-75.61059,46.76453],[-75.61061,46.76453],[-75.61074,46.76451],[-75.61087,46.7645],[-75.61101,46.76449],[-75.61112,46.76446],[-75.61124,46.76443],[-75.61137,46.76441],[-75.61149,46.76438],[-75.61162,46.76435],[-75.61174,46.76432],[-75.61187,46.7643],[-75.61199,46.76427],[-75.61207,46.76425],[-75.61219,46.76422],[-75.61232,46.76419],[-75.61244,46.76416],[-75.61256,46.76413],[-75.61269,46.7641],[-75.6128,46.76407],[-75.61291,46.76404],[-75.61294,46.76403],[-75.61305,46.76401],[-75.61315,46.76398],[-75.61317,46.76397],[-75.61323,46.76396],[-75.61327,46.76396],[-75.6134,46.76393],[-75.61352,46.7639],[-75.61365,46.76388],[-75.61377,46.76385],[-75.6139,46.76383],[-75.61401,46.7638],[-75.61414,46.76377],[-75.61426,46.76375],[-75.6144,46.76372],[-75.61451,46.7637],[-75.61465,46.76367],[-75.61474,46.76364],[-75.61485,46.7636],[-75.61496,46.76355],[-75.61508,46.76352],[-75.6152,46.76348],[-75.61532,46.76344],[-75.61544,46.7634],[-75.6155,46.76333],[-75.61559,46.76327],[-75.61567,46.7632],[-75.61575,46.76313],[-75.61577,46.76311],[-75.61578,46.7631],[-75.61667,46.76245],[-75.61667,46.76667],[-75.60833,46.76667],[-75.60833,46.76395]]]}},{"type":"Feature","properties":{"c":"CDC-2646692","o":"SOQUEM inc. 100%","e":""},"geometry":{"type":"Polygon","coordinates":[[[-75.61667,46.775],[-75.60833,46.775],[-75.60833,46.76667],[-75.61667,46.76667],[-75.61667,46.775]]]}},{"type":"Feature","properties":{"c":"CDC-2646704","o":"SOQUEM inc. 100%","e":""},"geometry":{"type":"Polygon","coordinates":[[[-75.61667,46.78333],[-75.60833,46.78333],[-75.60833,46.775],[-75.61667,46.775],[-75.61667,46.78333]]]}},{"type":"Feature","properties":{"c":"CDC-2646282","o":"SOQUEM inc. 100%","e":""},"geometry":{"type":"Polygon","coordinates":[[[-75.61667,46.79167],[-75.60833,46.79167],[-75.60833,46.78333],[-75.61667,46.78333],[-75.61667,46.79167]]]}},{"type":"Feature","properties":{"c":"CDC-2646693","o":"SOQUEM inc. 100%","e":""},"geometry":{"type":"Polygon","coordinates":[[[-75.60833,46.775],[-75.6,46.775],[-75.6,46.76667],[-75.60833,46.76667],[-75.60833,46.775]]]}},{"type":"Feature","properties":{"c":"CDC-2646705","o":"SOQUEM inc. 100%","e":""},"geometry":{"type":"Polygon","coordinates":[[[-75.60833,46.78333],[-75.6,46.78333],[-75.6,46.775],[-75.60833,46.775],[-75.60833,46.78333]]]}},{"type":"Feature","properties":{"c":"CDC-2646283","o":"SOQUEM inc. 100%","e":""},"geometry":{"type":"Polygon","coordinates":[[[-75.60833,46.79167],[-75.6,46.79167],[-75.6,46.78333],[-75.60833,46.78333],[-75.60833,46.79167]]]}},{"type":"Feature","properties":{"c":"CDC-2646286","o":"SOQUEM inc. 100%","e":""},"geometry":{"type":"Polygon","coordinates":[[[-75.60833,46.8],[-75.6,46.8],[-75.6,46.79167],[-75.60833,46.79167],[-75.60833,46.8]]]}},{"type":"Feature","properties":{"c":"CDC-2646345","o":"SOQUEM inc. 100%","e":""},"geometry":{"type":"Polygon","coordinates":[[[-75.60833,46.80833],[-75.6,46.80833],[-75.6,46.8],[-75.60833,46.8],[-75.60833,46.80833]]]}},{"type":"Feature","properties":{"c":"CDC-2646353","o":"SOQUEM inc. 100%","e":""},"geometry":{"type":"Polygon","coordinates":[[[-75.60833,46.81667],[-75.6,46.81667],[-75.6,46.80833],[-75.60833,46.80833],[-75.60833,46.81667]]]}},{"type":"Feature","properties":{"c":"CDC-2646363","o":"SOQUEM inc. 100%","e":""},"geometry":{"type":"Polygon","coordinates":[[[-75.60833,46.825],[-75.6,46.825],[-75.6,46.81667],[-75.60833,46.81667],[-75.60833,46.825]]]}},{"type":"Feature","properties":{"c":"CDC-2646694","o":"SOQUEM inc. 100%","e":""},"geometry":{"type":"Polygon","coordinates":[[[-75.6,46.775],[-75.59167,46.775],[-75.59167,46.76667],[-75.6,46.76667],[-75.6,46.775]]]}},{"type":"Feature","properties":{"c":"CDC-2646706","o":"SOQUEM inc. 100%","e":""},"geometry":{"type":"Polygon","coordinates":[[[-75.6,46.78333],[-75.59167,46.78333],[-75.59167,46.775],[-75.6,46.775],[-75.6,46.78333]]]}},{"type":"Feature","properties":{"c":"CDC-2646284","o":"SOQUEM inc. 100%","e":""},"geometry":{"type":"Polygon","coordinates":[[[-75.6,46.79167],[-75.59167,46.79167],[-75.59167,46.78333],[-75.6,46.78333],[-75.6,46.79167]]]}},{"type":"Feature","properties":{"c":"CDC-2646287","o":"SOQUEM inc. 100%","e":""},"geometry":{"type":"Polygon","coordinates":[[[-75.6,46.8],[-75.59167,46.8],[-75.59167,46.79167],[-75.6,46.79167],[-75.6,46.8]]]}},{"type":"Feature","properties":{"c":"CDC-2646291","o":"SOQUEM inc. 100%","e":""},"geometry":{"type":"Polygon","coordinates":[[[-75.6,46.80833],[-75.59167,46.80833],[-75.59167,46.8],[-75.6,46.8],[-75.6,46.80833]]]}},{"type":"Feature","properties":{"c":"CDC-2646354","o":"SOQUEM inc. 100%","e":""},"geometry":{"type":"Polygon","coordinates":[[[-75.6,46.81667],[-75.59167,46.81667],[-75.59167,46.80833],[-75.6,46.80833],[-75.6,46.81667]]]}},{"type":"Feature","properties":{"c":"CDC-2646695","o":"SOQUEM inc. 100%","e":""},"geometry":{"type":"Polygon","coordinates":[[[-75.59167,46.775],[-75.58333,46.775],[-75.58333,46.76667],[-75.59167,46.76667],[-75.59167,46.775]]]}},{"type":"Feature","properties":{"c":"CDC-2646707","o":"SOQUEM inc. 100%","e":""},"geometry":{"type":"Polygon","coordinates":[[[-75.59167,46.78333],[-75.58333,46.78333],[-75.58333,46.775],[-75.59167,46.775],[-75.59167,46.78333]]]}},{"type":"Feature","properties":{"c":"CDC-2650273","o":"SOQUEM inc. 100%","e":""},"geometry":{"type":"Polygon","coordinates":[[[-75.58333,46.78333],[-75.59167,46.78333],[-75.59167,46.79167],[-75.58333,46.79167],[-75.58333,46.79131],[-75.58381,46.79095],[-75.58463,46.79035],[-75.58523,46.79007],[-75.58569,46.78981],[-75.58593,46.78962],[-75.58754,46.7882],[-75.58744,46.78818],[-75.58729,46.78805],[-75.58715,46.78785],[-75.58709,46.78761],[-75.58709,46.78734],[-75.58699,46.78697],[-75.58702,46.7867],[-75.58693,46.78627],[-75.58675,46.78602],[-75.58662,46.78593],[-75.58567,46.78549],[-75.5854,46.78532],[-75.58521,46.78526],[-75.58493,46.78508],[-75.58464,46.78497],[-75.58417,46.78489],[-75.58352,46.78466],[-75.58333,46.78457],[-75.58333,46.78333]]]}},{"type":"Feature","properties":{"c":"CDC-2646288","o":"SOQUEM inc. 100%","e":""},"geometry":{"type":"Polygon","coordinates":[[[-75.59167,46.8],[-75.58333,46.8],[-75.58333,46.79167],[-75.59167,46.79167],[-75.59167,46.8]]]}},{"type":"Feature","properties":{"c":"CDC-2646292","o":"SOQUEM inc. 100%","e":""},"geometry":{"type":"Polygon","coordinates":[[[-75.59167,46.80833],[-75.58333,46.80833],[-75.58333,46.8],[-75.59167,46.8],[-75.59167,46.80833]]]}},{"type":"Feature","properties":{"c":"CDC-2646300","o":"SOQUEM inc. 100%","e":""},"geometry":{"type":"Polygon","coordinates":[[[-75.59167,46.81667],[-75.58333,46.81667],[-75.58333,46.80833],[-75.59167,46.80833],[-75.59167,46.81667]]]}},{"type":"Feature","properties":{"c":"CDC-2650274","o":"SOQUEM inc. 100%","e":""},"geometry":{"type":"Polygon","coordinates":[[[-75.58333,46.79167],[-75.58333,46.8],[-75.575,46.8],[-75.575,46.79406],[-75.57541,46.79404],[-75.57623,46.79368],[-75.57735,46.79331],[-75.57781,46.7933],[-75.57806,46.7932],[-75.57901,46.79259],[-75.58007,46.79218],[-75.58023,46.79203],[-75.58058,46.79187],[-75.58094,46.79167],[-75.58098,46.79167],[-75.58333,46.79167]]]}},{"type":"Feature","properties":{"c":"CDC-2646293","o":"SOQUEM inc. 100%","e":""},"geometry":{"type":"Polygon","coordinates":[[[-75.575,46.8],[-75.58333,46.8],[-75.58333,46.80833],[-75.575,46.80833],[-75.575,46.8]]]}},{"type":"Feature","properties":{"c":"CDC-2646301","o":"SOQUEM inc. 100%","e":""},"geometry":{"type":"Polygon","coordinates":[[[-75.58333,46.80833],[-75.58333,46.81667],[-75.575,46.81667],[-75.575,46.80833],[-75.58333,46.80833]]]}},{"type":"Feature","properties":{"c":"CDC-2860479","o":"Amixam Resources inc. 100%","e":""},"geometry":{"type":"Polygon","coordinates":[[[-75.56667,46.75833],[-75.55833,46.75833],[-75.55833,46.75],[-75.56667,46.75],[-75.56667,46.75833]]]}},{"type":"Feature","properties":{"c":"CDC-2500598","o":"Amixam Resources inc. 100%","e":""},"geometry":{"type":"Polygon","coordinates":[[[-75.55833,46.75],[-75.55,46.75],[-75.55,46.74167],[-75.55833,46.74167],[-75.55833,46.75]]]}},{"type":"Feature","properties":{"c":"CDC-2500601","o":"Amixam Resources inc. 100%","e":""},"geometry":{"type":"Polygon","coordinates":[[[-75.55833,46.75833],[-75.55,46.75833],[-75.55,46.75],[-75.55833,46.75],[-75.55833,46.75833]]]}},{"type":"Feature","properties":{"c":"CDC-2500599","o":"Amixam Resources inc. 100%","e":""},"geometry":{"type":"Polygon","coordinates":[[[-75.55,46.75],[-75.54167,46.75],[-75.54167,46.74167],[-75.55,46.74167],[-75.55,46.75]]]}},{"type":"Feature","properties":{"c":"CDC-2500602","o":"Amixam Resources inc. 100%","e":""},"geometry":{"type":"Polygon","coordinates":[[[-75.55,46.75833],[-75.54167,46.75833],[-75.54167,46.75],[-75.55,46.75],[-75.55,46.75833]]]}},{"type":"Feature","properties":{"c":"CDC-2860483","o":"Amixam Resources inc. 100%","e":""},"geometry":{"type":"Polygon","coordinates":[[[-75.54167,46.75],[-75.53333,46.75],[-75.53333,46.74167],[-75.54167,46.74167],[-75.54167,46.75]]]}},{"type":"Feature","properties":{"c":"CDC-2860480","o":"Amixam Resources inc. 100%","e":""},"geometry":{"type":"Polygon","coordinates":[[[-75.54167,46.75833],[-75.53333,46.75833],[-75.53333,46.75],[-75.54167,46.75],[-75.54167,46.75833]]]}},{"type":"Feature","properties":{"c":"CDC-2822414","o":"Kenneth Kuiper 100%","e":""},"geometry":{"type":"Polygon","coordinates":[[[-75.86667,46.69167],[-75.85833,46.69167],[-75.85833,46.68333],[-75.86667,46.68333],[-75.86667,46.69167]]]}},{"type":"Feature","properties":{"c":"CDC-2822416","o":"Kenneth Kuiper 100%","e":""},"geometry":{"type":"Polygon","coordinates":[[[-75.875,46.775],[-75.86667,46.775],[-75.86667,46.76667],[-75.875,46.76667],[-75.875,46.775]]]}},{"type":"Feature","properties":{"c":"CDC-2849474","o":"Daniel Terrett 100%","e":""},"geometry":{"type":"Polygon","coordinates":[[[-75.84167,46.725],[-75.84167,46.71667],[-75.85,46.71667],[-75.85,46.725],[-75.84167,46.725]]]}},{"type":"Feature","properties":{"c":"CDC-2858287","o":"Daniel Terrett 100%","e":""},"geometry":{"type":"Polygon","coordinates":[[[-75.83333,46.725],[-75.83333,46.71667],[-75.84167,46.71667],[-75.84167,46.725],[-75.83333,46.725]]]}},{"type":"Feature","properties":{"c":"CDC-2836492","o":"Michel McKenzie 100%","e":""},"geometry":{"type":"Polygon","coordinates":[[[-75.68333,46.54167],[-75.675,46.54167],[-75.675,46.53333],[-75.68333,46.53333],[-75.68333,46.54167]]]}},{"type":"Feature","properties":{"c":"CDC-2849417","o":"D\u00e9neigement Jorg 100%","e":""},"geometry":{"type":"Polygon","coordinates":[[[-75.67417,46.55989],[-75.67418,46.56102],[-75.675,46.56111],[-75.675,46.56667],[-75.66667,46.56667],[-75.66667,46.56034],[-75.66669,46.56028],[-75.66683,46.5601],[-75.6668,46.56008],[-75.66698,46.55982],[-75.66711,46.55952],[-75.66717,46.55939],[-75.66728,46.55914],[-75.6673,46.55914],[-75.66744,46.55896],[-75.66748,46.55856],[-75.66753,46.55839],[-75.66754,46.55833],[-75.67417,46.55833],[-75.67417,46.55989]]]}},{"type":"Feature","properties":{"c":"CDC-2650933","o":"SOQUEM inc. 100%","e":""},"geometry":{"type":"Polygon","coordinates":[[[-75.69131,46.75],[-75.69132,46.75],[-75.69135,46.75003],[-75.69138,46.75005],[-75.69139,46.75006],[-75.69141,46.75007],[-75.69143,46.75008],[-75.69147,46.7501],[-75.6915,46.75012],[-75.6916,46.75019],[-75.69167,46.75022],[-75.69167,46.75409],[-75.69163,46.75413],[-75.69125,46.75447],[-75.69106,46.75466],[-75.69079,46.75495],[-75.69054,46.75526],[-75.69032,46.75558],[-75.69014,46.75591],[-75.69011,46.75597],[-75.68996,46.75629],[-75.68985,46.75652],[-75.68975,46.75663],[-75.68951,46.75694],[-75.68929,46.75726],[-75.6891,46.75759],[-75.68895,46.75792],[-75.68894,46.75795],[-75.68885,46.75817],[-75.68879,46.75833],[-75.68333,46.75833],[-75.68333,46.75],[-75.69131,46.75]]]}},{"type":"Feature","properties":{"c":"CDC-2650929","o":"SOQUEM inc. 100%","e":""},"geometry":{"type":"Polygon","coordinates":[[[-75.68333,46.74763],[-75.68336,46.74764],[-75.68349,46.74765],[-75.68362,46.74766],[-75.68375,46.74768],[-75.68388,46.74769],[-75.68396,46.7477],[-75.68401,46.74771],[-75.68409,46.74772],[-75.68422,46.74773],[-75.68435,46.74775],[-75.68448,46.74777],[-75.68461,46.74778],[-75.68464,46.74778],[-75.68477,46.74779],[-75.68479,46.74779],[-75.68481,46.74779],[-75.68494,46.74781],[-75.685,46.74781],[-75.68507,46.74782],[-75.6852,46.74783],[-75.68533,46.74784],[-75.68536,46.74784],[-75.68538,46.74784],[-75.68551,46.74785],[-75.68565,46.74786],[-75.68578,46.74787],[-75.68585,46.74787],[-75.68591,46.74788],[-75.68604,46.74789],[-75.68617,46.7479],[-75.6863,46.74791],[-75.68634,46.74791],[-75.68647,46.74791],[-75.6866,46.74791],[-75.68673,46.74791],[-75.68686,46.7479],[-75.68699,46.7479],[-75.68712,46.74791],[-75.68721,46.74791],[-75.68725,46.74791],[-75.68729,46.7479],[-75.68739,46.7479],[-75.68752,46.74789],[-75.68765,46.74788],[-75.68778,46.74787],[-75.68791,46.74787],[-75.68804,46.74787],[-75.68817,46.74786],[-75.68824,46.74785],[-75.6883,46.74785],[-75.68833,46.74786],[-75.68837,46.74787],[-75.68838,46.74787],[-75.6885,46.7479],[-75.68857,46.74792],[-75.68863,46.74793],[-75.68867,46.74794],[-75.68875,46.74796],[-75.68876,46.74797],[-75.68878,46.74799],[-75.68882,46.74802],[-75.68886,46.74805],[-75.68891,46.74809],[-75.68895,46.74812],[-75.68898,46.74815],[-75.68903,46.74819],[-75.68912,46.74826],[-75.68917,46.74832],[-75.68921,46.74838],[-75.68924,46.74841],[-75.6893,46.74849],[-75.68933,46.74853],[-75.68935,46.74856],[-75.68942,46.74864],[-75.68948,46.74872],[-75.68951,46.74876],[-75.68957,46.74884],[-75.68962,46.74892],[-75.68964,46.74895],[-75.68965,46.74895],[-75.68969,46.74899],[-75.68971,46.74903],[-75.68974,46.74908],[-75.6898,46.74916],[-75.68985,46.74924],[-75.68992,46.74932],[-75.68994,46.74933],[-75.68997,46.74935],[-75.69001,46.74937],[-75.69006,46.7494],[-75.69016,46.74946],[-75.6902,46.74949],[-75.69028,46.74953],[-75.69038,46.74958],[-75.69047,46.74963],[-75.69049,46.74964],[-75.69054,46.74967],[-75.69056,46.74967],[-75.69059,46.74969],[-75.6907,46.74975],[-75.69072,46.74976],[-75.69079,46.74978],[-75.69084,46.7498],[-75.6909,46.74983],[-75.69094,46.74986],[-75.69106,46.7499],[-75.6911,46.74992],[-75.69116,46.74995],[-75.69131,46.75],[-75.68333,46.75],[-75.68333,46.74763]]]}},{"type":"Feature","properties":{"c":"CDC-2777041","o":"SOQUEM inc. 100%","e":""},"geometry":{"type":"Polygon","coordinates":[[[-75.69155,46.775],[-75.69164,46.77512],[-75.69167,46.77515],[-75.69167,46.78333],[-75.68333,46.78333],[-75.68333,46.775],[-75.69155,46.775]]]}},{"type":"Feature","properties":{"c":"CDC-2650934","o":"SOQUEM inc. 100%","e":""},"geometry":{"type":"Polygon","coordinates":[[[-75.68879,46.75833],[-75.68874,46.75848],[-75.68865,46.75883],[-75.6886,46.75918],[-75.68859,46.75929],[-75.68857,46.75967],[-75.68855,46.75974],[-75.6884,46.76013],[-75.68833,46.76036],[-75.68828,46.76054],[-75.68818,46.76058],[-75.68788,46.76071],[-75.68758,46.76085],[-75.68718,46.76105],[-75.68681,46.76118],[-75.68651,46.76129],[-75.68608,46.76147],[-75.68565,46.76167],[-75.68525,46.76189],[-75.68488,46.76213],[-75.68452,46.76239],[-75.68419,46.76266],[-75.68389,46.76294],[-75.68372,46.76312],[-75.68333,46.76354],[-75.68333,46.75833],[-75.68879,46.75833]]]}},{"type":"Feature","properties":{"c":"CDC-2650930","o":"SOQUEM inc. 100%","e":""},"geometry":{"type":"Polygon","coordinates":[[[-75.675,46.74824],[-75.6751,46.74825],[-75.67523,46.74826],[-75.67529,46.74827],[-75.67537,46.74827],[-75.6755,46.74827],[-75.67563,46.74828],[-75.67576,46.74829],[-75.6759,46.7483],[-75.67602,46.74829],[-75.67615,46.74828],[-75.67628,46.74827],[-75.67641,46.74826],[-75.67654,46.74824],[-75.67667,46.74824],[-75.6767,46.74824],[-75.67683,46.74822],[-75.67695,46.74818],[-75.67707,46.74816],[-75.67719,46.74812],[-75.67723,46.74811],[-75.67732,46.74809],[-75.67744,46.74805],[-75.67755,46.74802],[-75.6776,46.74801],[-75.67767,46.74799],[-75.6778,46.74796],[-75.67787,46.74793],[-75.67788,46.74793],[-75.67796,46.74791],[-75.67801,46.74789],[-75.67804,46.74789],[-75.6781,46.74787],[-75.67812,46.74786],[-75.67824,46.74782],[-75.6783,46.74781],[-75.67836,46.74779],[-75.67847,46.74774],[-75.67859,46.74771],[-75.67871,46.74767],[-75.67883,46.74764],[-75.67886,46.74763],[-75.67895,46.74759],[-75.67907,46.74756],[-75.67911,46.74756],[-75.67917,46.74755],[-75.6793,46.74753],[-75.67943,46.74752],[-75.67955,46.7475],[-75.67968,46.74749],[-75.6798,46.74748],[-75.67981,46.74747],[-75.67995,46.74746],[-75.68006,46.74746],[-75.68019,46.74746],[-75.68032,46.74746],[-75.68044,46.74745],[-75.6805,46.74745],[-75.68057,46.74744],[-75.68068,46.74744],[-75.68116,46.74746],[-75.6812,46.74746],[-75.68124,46.74746],[-75.68137,46.74747],[-75.6815,46.74747],[-75.68163,46.74748],[-75.68176,46.74748],[-75.68177,46.74748],[-75.68186,46.74749],[-75.6819,46.74749],[-75.68198,46.7475],[-75.68199,46.7475],[-75.68202,46.7475],[-75.68212,46.7475],[-75.68225,46.74751],[-75.68238,46.74752],[-75.68251,46.74753],[-75.68254,46.74754],[-75.68256,46.74754],[-75.68269,46.74756],[-75.68282,46.74757],[-75.68289,46.74758],[-75.68294,46.74759],[-75.68307,46.74761],[-75.6832,46.74763],[-75.68324,46.74763],[-75.68333,46.74763],[-75.68333,46.75],[-75.675,46.75],[-75.675,46.74824]]]}},{"type":"Feature","properties":{"c":"CDC-2646676","o":"SOQUEM inc. 100%","e":""},"geometry":{"type":"Polygon","coordinates":[[[-75.68333,46.75833],[-75.675,46.75833],[-75.675,46.75],[-75.68333,46.75],[-75.68333,46.75833]]]}},{"type":"Feature","properties":{"c":"CDC-2650935","o":"SOQUEM inc. 100%","e":""},"geometry":{"type":"Polygon","coordinates":[[[-75.68333,46.75833],[-75.68333,46.76354],[-75.6833,46.76358],[-75.68319,46.7637],[-75.68294,46.76401],[-75.68272,46.76433],[-75.68254,46.76466],[-75.68238,46.765],[-75.68226,46.76534],[-75.68222,46.76549],[-75.6822,46.76556],[-75.68216,46.76565],[-75.68215,46.76568],[-75.68203,46.76602],[-75.68194,46.76637],[-75.68189,46.76667],[-75.675,46.76667],[-75.675,46.75833],[-75.68333,46.75833]]]}},{"type":"Feature","properties":{"c":"CDC-2777040","o":"SOQUEM inc. 100%","e":""},"geometry":{"type":"Polygon","coordinates":[[[-75.68189,46.76667],[-75.68189,46.76672],[-75.68186,46.76707],[-75.68188,46.76742],[-75.68189,46.76757],[-75.68193,46.76793],[-75.68196,46.76813],[-75.68204,46.76848],[-75.68215,46.76883],[-75.6823,46.76917],[-75.68247,46.7695],[-75.68268,46.76982],[-75.68292,46.77014],[-75.68319,46.77044],[-75.68333,46.77058],[-75.68333,46.775],[-75.675,46.775],[-75.675,46.76667],[-75.68189,46.76667]]]}},{"type":"Feature","properties":{"c":"CDC-2646696","o":"SOQUEM inc. 100%","e":""},"geometry":{"type":"Polygon","coordinates":[[[-75.68333,46.78333],[-75.675,46.78333],[-75.675,46.775],[-75.68333,46.775],[-75.68333,46.78333]]]}},{"type":"Feature","properties":{"c":"CDC-2650931","o":"SOQUEM inc. 100%","e":""},"geometry":{"type":"Polygon","coordinates":[[[-75.66667,46.74481],[-75.66671,46.74481],[-75.66686,46.7448],[-75.66699,46.74478],[-75.66711,46.74477],[-75.66724,46.74475],[-75.66737,46.74473],[-75.6675,46.74471],[-75.66763,46.7447],[-75.66775,46.74468],[-75.66781,46.74467],[-75.66788,46.74466],[-75.668,46.74465],[-75.66801,46.74465],[-75.6681,46.74463],[-75.66815,46.74462],[-75.66822,46.7446],[-75.66835,46.74459],[-75.66848,46.74456],[-75.6686,46.74454],[-75.66873,46.74452],[-75.66887,46.74449],[-75.66897,46.74448],[-75.66898,46.74447],[-75.66912,46.74445],[-75.66915,46.74444],[-75.66929,46.7444],[-75.6694,46.74437],[-75.66952,46.74433],[-75.66955,46.74432],[-75.66964,46.7443],[-75.66977,46.74427],[-75.66989,46.74424],[-75.67001,46.7442],[-75.67003,46.7442],[-75.67006,46.74419],[-75.67009,46.74418],[-75.67022,46.74416],[-75.67023,46.74415],[-75.67034,46.74412],[-75.67046,46.7441],[-75.67047,46.7441],[-75.67059,46.74407],[-75.67061,46.74407],[-75.67065,46.74407],[-75.67078,46.74406],[-75.67091,46.74406],[-75.67105,46.74405],[-75.67118,46.74404],[-75.67132,46.74403],[-75.67145,46.74402],[-75.67158,46.74402],[-75.67159,46.74402],[-75.67166,46.74402],[-75.67179,46.74403],[-75.67192,46.74403],[-75.67199,46.74403],[-75.67205,46.74403],[-75.67218,46.74403],[-75.67222,46.74403],[-75.67224,46.74403],[-75.67237,46.74404],[-75.67238,46.74404],[-75.6725,46.74404],[-75.67256,46.74404],[-75.67263,46.74405],[-75.67276,46.74405],[-75.67289,46.74406],[-75.67296,46.74406],[-75.67302,46.74406],[-75.6731,46.74409],[-75.67314,46.74411],[-75.67321,46.74413],[-75.67322,46.74413],[-75.67332,46.74418],[-75.67338,46.7442],[-75.67344,46.74422],[-75.67355,46.74426],[-75.67363,46.74434],[-75.67367,46.74439],[-75.67369,46.74441],[-75.6737,46.74442],[-75.67373,46.74445],[-75.67377,46.74449],[-75.67384,46.74457],[-75.67391,46.74464],[-75.67391,46.74466],[-75.67392,46.74471],[-75.67393,46.74475],[-75.67394,46.74484],[-75.67394,46.74485],[-75.67395,46.74493],[-75.67395,46.74497],[-75.67396,46.74502],[-75.67397,46.74511],[-75.67397,46.74512],[-75.67397,46.74513],[-75.67397,46.74522],[-75.67397,46.7453],[-75.67397,46.74531],[-75.67397,46.74534],[-75.67397,46.7454],[-75.67397,46.74542],[-75.67397,46.74544],[-75.67397,46.74549],[-75.67397,46.74557],[-75.67397,46.74558],[-75.67396,46.74567],[-75.67396,46.7457],[-75.67396,46.74571],[-75.67395,46.7458],[-75.67394,46.74586],[-75.67394,46.74588],[-75.67393,46.74592],[-75.67392,46.74598],[-75.67391,46.74603],[-75.67391,46.74606],[-75.6739,46.74611],[-75.67389,46.74615],[-75.67388,46.7462],[-75.67388,46.74624],[-75.67387,46.74629],[-75.67387,46.7463],[-75.67386,46.74633],[-75.67385,46.74636],[-75.67383,46.74642],[-75.67383,46.74643],[-75.67382,46.74645],[-75.67381,46.74648],[-75.67378,46.74654],[-75.67377,46.74656],[-75.67374,46.74662],[-75.67373,46.74666],[-75.67372,46.74668],[-75.67371,46.74671],[-75.6737,46.74675],[-75.67367,46.7468],[-75.67366,46.74684],[-75.67365,46.74688],[-75.67361,46.74697],[-75.6736,46.74697],[-75.6736,46.74703],[-75.67362,46.74712],[-75.67361,46.74717],[-75.67361,46.74721],[-75.67362,46.74728],[-75.67363,46.7473],[-75.67362,46.74737],[-75.67362,46.74739],[-75.67363,46.74741],[-75.67365,46.74743],[-75.6737,46.74751],[-75.67375,46.74758],[-75.6738,46.74765],[-75.6738,46.74766],[-75.67381,46.74767],[-75.67384,46.7477],[-75.67387,46.74773],[-75.67391,46.74778],[-75.67393,46.74781],[-75.67396,46.74786],[-75.67398,46.74788],[-75.67398,46.74789],[-75.67401,46.74794],[-75.67402,46.74795],[-75.67402,46.74796],[-75.67403,46.74796],[-75.67405,46.74797],[-75.67407,46.74798],[-75.6741,46.74799],[-75.67411,46.74799],[-75.67423,46.74804],[-75.67428,46.74805],[-75.67435,46.74807],[-75.67446,46.74811],[-75.67458,46.74815],[-75.67463,46.74817],[-75.6747,46.74819],[-75.67482,46.74823],[-75.67484,46.74823],[-75.67486,46.74823],[-75.67497,46.74824],[-75.675,46.74824],[-75.675,46.75],[-75.66667,46.75],[-75.66667,46.74481]]]}},{"type":"Feature","properties":{"c":"CDC-2646677","o":"SOQUEM inc. 100%","e":""},"geometry":{"type":"Polygon","coordinates":[[[-75.675,46.75833],[-75.66667,46.75833],[-75.66667,46.75],[-75.675,46.75],[-75.675,46.75833]]]}},{"type":"Feature","properties":{"c":"CDC-2646680","o":"SOQUEM inc. 100%","e":""},"geometry":{"type":"Polygon","coordinates":[[[-75.675,46.76667],[-75.66667,46.76667],[-75.66667,46.75833],[-75.675,46.75833],[-75.675,46.76667]]]}},{"type":"Feature","properties":{"c":"CDC-2646685","o":"SOQUEM inc. 100%","e":""},"geometry":{"type":"Polygon","coordinates":[[[-75.675,46.775],[-75.66667,46.775],[-75.66667,46.76667],[-75.675,46.76667],[-75.675,46.775]]]}},{"type":"Feature","properties":{"c":"CDC-2646697","o":"SOQUEM inc. 100%","e":""},"geometry":{"type":"Polygon","coordinates":[[[-75.675,46.78333],[-75.66667,46.78333],[-75.66667,46.775],[-75.675,46.775],[-75.675,46.78333]]]}},{"type":"Feature","properties":{"c":"CDC-2650932","o":"SOQUEM inc. 100%","e":""},"geometry":{"type":"Polygon","coordinates":[[[-75.65833,46.74389],[-75.65844,46.7439],[-75.65857,46.74391],[-75.65871,46.74392],[-75.65884,46.74394],[-75.65897,46.74395],[-75.65901,46.74395],[-75.65912,46.74399],[-75.65917,46.744],[-75.65924,46.74402],[-75.65934,46.74405],[-75.65937,46.74405],[-75.65939,46.74406],[-75.65949,46.74409],[-75.65961,46.74413],[-75.65965,46.74414],[-75.65972,46.74416],[-75.65985,46.7442],[-75.65988,46.74421],[-75.65989,46.74421],[-75.6599,46.74421],[-75.65993,46.74422],[-75.66,46.74425],[-75.66011,46.74431],[-75.66022,46.74436],[-75.66033,46.74441],[-75.66034,46.74441],[-75.66044,46.74446],[-75.66045,46.74446],[-75.66047,46.74447],[-75.66054,46.7445],[-75.66062,46.74454],[-75.66075,46.74457],[-75.66087,46.74459],[-75.661,46.74462],[-75.66112,46.74465],[-75.66125,46.74468],[-75.66136,46.74471],[-75.66149,46.74473],[-75.66161,46.74476],[-75.66173,46.74481],[-75.66184,46.74486],[-75.66195,46.74491],[-75.66207,46.74496],[-75.66217,46.74501],[-75.66227,46.74505],[-75.66239,46.74511],[-75.66251,46.74515],[-75.66263,46.74518],[-75.66276,46.74522],[-75.66287,46.74526],[-75.66294,46.74527],[-75.66306,46.74531],[-75.66309,46.74533],[-75.66323,46.74531],[-75.66328,46.7453],[-75.66334,46.74529],[-75.66341,46.74527],[-75.66345,46.74526],[-75.66347,46.74527],[-75.66354,46.74526],[-75.66366,46.74523],[-75.66379,46.74521],[-75.66391,46.74518],[-75.66404,46.74516],[-75.66407,46.74515],[-75.66418,46.74511],[-75.6643,46.74508],[-75.66442,46.74503],[-75.66454,46.745],[-75.66466,46.74496],[-75.6647,46.74496],[-75.66483,46.74496],[-75.66496,46.74495],[-75.66509,46.74494],[-75.66522,46.74493],[-75.66535,46.74493],[-75.66548,46.74492],[-75.66561,46.74492],[-75.66568,46.74491],[-75.66581,46.7449],[-75.66594,46.74488],[-75.66607,46.74487],[-75.6662,46.74486],[-75.66625,46.74485],[-75.66632,46.74485],[-75.66639,46.74484],[-75.66645,46.74483],[-75.66658,46.74482],[-75.66667,46.74481],[-75.66667,46.75],[-75.65833,46.75],[-75.65833,46.74389]]]}},{"type":"Feature","properties":{"c":"CDC-2646678","o":"SOQUEM inc. 100%","e":""},"geometry":{"type":"Polygon","coordinates":[[[-75.66667,46.75833],[-75.65833,46.75833],[-75.65833,46.75],[-75.66667,46.75],[-75.66667,46.75833]]]}},{"type":"Feature","properties":{"c":"CDC-2646681","o":"SOQUEM inc. 100%","e":""},"geometry":{"type":"Polygon","coordinates":[[[-75.66667,46.76667],[-75.65833,46.76667],[-75.65833,46.75833],[-75.66667,46.75833],[-75.66667,46.76667]]]}},{"type":"Feature","properties":{"c":"CDC-2646686","o":"SOQUEM inc. 100%","e":""},"geometry":{"type":"Polygon","coordinates":[[[-75.66667,46.775],[-75.65833,46.775],[-75.65833,46.76667],[-75.66667,46.76667],[-75.66667,46.775]]]}},{"type":"Feature","properties":{"c":"CDC-2646698","o":"SOQUEM inc. 100%","e":""},"geometry":{"type":"Polygon","coordinates":[[[-75.66667,46.78333],[-75.65833,46.78333],[-75.65833,46.775],[-75.66667,46.775],[-75.66667,46.78333]]]}},{"type":"Feature","properties":{"c":"CDC-2646679","o":"SOQUEM inc. 100%","e":""},"geometry":{"type":"Polygon","coordinates":[[[-75.65833,46.75833],[-75.65,46.75833],[-75.65,46.75],[-75.65833,46.75],[-75.65833,46.75833]]]}},{"type":"Feature","properties":{"c":"CDC-2646682","o":"SOQUEM inc. 100%","e":""},"geometry":{"type":"Polygon","coordinates":[[[-75.65833,46.76667],[-75.65,46.76667],[-75.65,46.75833],[-75.65833,46.75833],[-75.65833,46.76667]]]}},{"type":"Feature","properties":{"c":"BEX-1664","o":"Construction Norascon inc. 100%","e":""},"geometry":{"type":"Polygon","coordinates":[[[-75.64798,46.52907],[-75.64781,46.51428],[-75.65442,46.51427],[-75.65449,46.51987],[-75.65637,46.51986],[-75.65648,46.52902],[-75.64798,46.52907]]]}},{"type":"Feature","properties":{"c":"CDC-2817552","o":"6628796 Canada inc. 100%","e":""},"geometry":{"type":"Polygon","coordinates":[[[-75.92292,46.94997],[-75.92284,46.95],[-75.91667,46.95],[-75.91667,46.94167],[-75.925,46.94167],[-75.925,46.95],[-75.9232,46.95],[-75.92302,46.94987],[-75.92292,46.94997]]]}},{"type":"Feature","properties":{"c":"CDC-2821327","o":"Jean Mariadassou 100%","e":""},"geometry":{"type":"Polygon","coordinates":[[[-75.91667,46.93333],[-75.90833,46.93333],[-75.90833,46.925],[-75.91667,46.925],[-75.91667,46.93333]]]}},{"type":"Feature","properties":{"c":"CDC-2866205","o":"Jean Mariadassou 100%","e":""},"geometry":{"type":"Polygon","coordinates":[[[-75.91667,46.94167],[-75.90833,46.94167],[-75.90833,46.93333],[-75.91667,46.93333],[-75.91667,46.94167]]]}},{"type":"Feature","properties":{"c":"CDC-2821329","o":"Jean Mariadassou 100%","e":""},"geometry":{"type":"Polygon","coordinates":[[[-75.91667,46.95],[-75.90833,46.95],[-75.90833,46.94167],[-75.91667,46.94167],[-75.91667,46.95]]]}},{"type":"Feature","properties":{"c":"CDC-2821326","o":"Jean Mariadassou 100%","e":""},"geometry":{"type":"Polygon","coordinates":[[[-75.90833,46.925],[-75.9,46.925],[-75.9,46.91667],[-75.90833,46.91667],[-75.90833,46.925]]]}},{"type":"Feature","properties":{"c":"CDC-2821328","o":"Jean Mariadassou 100%","e":""},"geometry":{"type":"Polygon","coordinates":[[[-75.90833,46.93333],[-75.9,46.93333],[-75.9,46.925],[-75.90833,46.925],[-75.90833,46.93333]]]}},{"type":"Feature","properties":{"c":"CDC-2860677","o":"Jean Mariadassou 100%","e":""},"geometry":{"type":"Polygon","coordinates":[[[-75.90833,46.94167],[-75.9,46.94167],[-75.9,46.93333],[-75.90833,46.93333],[-75.90833,46.94167]]]}},{"type":"Feature","properties":{"c":"CDC-2821330","o":"Jean Mariadassou 100%","e":""},"geometry":{"type":"Polygon","coordinates":[[[-75.90833,46.95],[-75.9,46.95],[-75.9,46.94167],[-75.90833,46.94167],[-75.90833,46.95]]]}},{"type":"Feature","properties":{"c":"CDC-2809468","o":"6628796 Canada inc. 100%","e":""},"geometry":{"type":"Polygon","coordinates":[[[-75.9,46.925],[-75.89167,46.925],[-75.89167,46.91667],[-75.9,46.91667],[-75.9,46.925]]]}},{"type":"Feature","properties":{"c":"CDC-2860675","o":"Jean Mariadassou 100%","e":""},"geometry":{"type":"Polygon","coordinates":[[[-75.9,46.93333],[-75.89167,46.93333],[-75.89167,46.925],[-75.9,46.925],[-75.9,46.93333]]]}},{"type":"Feature","properties":{"c":"CDC-2860678","o":"Jean Mariadassou 100%","e":""},"geometry":{"type":"Polygon","coordinates":[[[-75.9,46.94167],[-75.89167,46.94167],[-75.89167,46.93333],[-75.9,46.93333],[-75.9,46.94167]]]}},{"type":"Feature","properties":{"c":"CDC-2870942","o":"Jean Mariadassou 100%","e":""},"geometry":{"type":"Polygon","coordinates":[[[-75.9,46.95],[-75.89167,46.95],[-75.89167,46.94167],[-75.9,46.94167],[-75.9,46.95]]]}},{"type":"Feature","properties":{"c":"CDC-2809469","o":"6628796 Canada inc. 100%","e":""},"geometry":{"type":"Polygon","coordinates":[[[-75.89167,46.925],[-75.88333,46.925],[-75.88333,46.91667],[-75.89167,46.91667],[-75.89167,46.925]]]}},{"type":"Feature","properties":{"c":"CDC-2860676","o":"Jean Mariadassou 100%","e":""},"geometry":{"type":"Polygon","coordinates":[[[-75.89167,46.93333],[-75.88333,46.93333],[-75.88333,46.925],[-75.89167,46.925],[-75.89167,46.93333]]]}},{"type":"Feature","properties":{"c":"CDC-2860679","o":"Jean Mariadassou 100%","e":""},"geometry":{"type":"Polygon","coordinates":[[[-75.89167,46.94167],[-75.88333,46.94167],[-75.88333,46.93333],[-75.89167,46.93333],[-75.89167,46.94167]]]}},{"type":"Feature","properties":{"c":"CDC-2870943","o":"Jean Mariadassou 100%","e":""},"geometry":{"type":"Polygon","coordinates":[[[-75.89167,46.95],[-75.88333,46.95],[-75.88333,46.94167],[-75.89167,46.94167],[-75.89167,46.95]]]}},{"type":"Feature","properties":{"c":"CDC-2848763","o":"6628796 Canada inc. 100%","e":""},"geometry":{"type":"Polygon","coordinates":[[[-75.88333,46.925],[-75.875,46.925],[-75.875,46.91667],[-75.88333,46.91667],[-75.88333,46.925]]]}},{"type":"Feature","properties":{"c":"CDC-2870941","o":"Jean Mariadassou 100%","e":""},"geometry":{"type":"Polygon","coordinates":[[[-75.88333,46.93333],[-75.875,46.93333],[-75.875,46.925],[-75.88333,46.925],[-75.88333,46.93333]]]}},{"type":"Feature","properties":{"c":"CDC-2860680","o":"Jean Mariadassou 100%","e":""},"geometry":{"type":"Polygon","coordinates":[[[-75.88333,46.94167],[-75.875,46.94167],[-75.875,46.93333],[-75.88333,46.93333],[-75.88333,46.94167]]]}},{"type":"Feature","properties":{"c":"CDC-2860681","o":"Jean Mariadassou 100%","e":""},"geometry":{"type":"Polygon","coordinates":[[[-75.88333,46.95],[-75.875,46.95],[-75.875,46.94167],[-75.88333,46.94167],[-75.88333,46.95]]]}},{"type":"Feature","properties":{"c":"CDC-2860870","o":"Ressources Maxima inc. 100%","e":""},"geometry":{"type":"Polygon","coordinates":[[[-75.875,46.91667],[-75.86667,46.91667],[-75.86667,46.90833],[-75.875,46.90833],[-75.875,46.91667]]]}},{"type":"Feature","properties":{"c":"CDC-2848764","o":"6628796 Canada inc. 100%","e":""},"geometry":{"type":"Polygon","coordinates":[[[-75.875,46.925],[-75.86667,46.925],[-75.86667,46.91667],[-75.875,46.91667],[-75.875,46.925]]]}},{"type":"Feature","properties":{"c":"CDC-2853323","o":"6628796 Canada inc. 100%","e":""},"geometry":{"type":"Polygon","coordinates":[[[-75.875,46.93333],[-75.86667,46.93333],[-75.86667,46.925],[-75.875,46.925],[-75.875,46.93333]]]}},{"type":"Feature","properties":{"c":"CDC-2853324","o":"6628796 Canada inc. 100%","e":""},"geometry":{"type":"Polygon","coordinates":[[[-75.875,46.94167],[-75.86667,46.94167],[-75.86667,46.93333],[-75.875,46.93333],[-75.875,46.94167]]]}},{"type":"Feature","properties":{"c":"CDC-2853325","o":"6628796 Canada inc. 100%","e":""},"geometry":{"type":"Polygon","coordinates":[[[-75.875,46.95],[-75.86667,46.95],[-75.86667,46.94167],[-75.875,46.94167],[-75.875,46.95]]]}},{"type":"Feature","properties":{"c":"CDC-2805984","o":"Kenneth Kuiper 100%","e":""},"geometry":{"type":"Polygon","coordinates":[[[-75.86667,46.91667],[-75.85833,46.91667],[-75.85833,46.90833],[-75.86667,46.90833],[-75.86667,46.91667]]]}},{"type":"Feature","properties":{"c":"CDC-2860872","o":"Ressources Maxima inc. 100%","e":""},"geometry":{"type":"Polygon","coordinates":[[[-75.86667,46.925],[-75.85833,46.925],[-75.85833,46.91667],[-75.86667,46.91667],[-75.86667,46.925]]]}},{"type":"Feature","properties":{"c":"CDC-2860871","o":"Ressources Maxima inc. 100%","e":""},"geometry":{"type":"Polygon","coordinates":[[[-75.85833,46.91667],[-75.85,46.91667],[-75.85,46.90833],[-75.85833,46.90833],[-75.85833,46.91667]]]}},{"type":"Feature","properties":{"c":"CDC-2860873","o":"Ressources Maxima inc. 100%","e":""},"geometry":{"type":"Polygon","coordinates":[[[-75.85833,46.925],[-75.85,46.925],[-75.85,46.91667],[-75.85833,46.91667],[-75.85833,46.925]]]}},{"type":"Feature","properties":{"c":"CDC-2844262","o":"Steven Lauzier 100%","e":""},"geometry":{"type":"Polygon","coordinates":[[[-75.53333,46.93333],[-75.53333,46.92755],[-75.53334,46.92755],[-75.53345,46.92759],[-75.53373,46.92767],[-75.53381,46.92763],[-75.53393,46.92757],[-75.53409,46.92744],[-75.53414,46.92735],[-75.53413,46.9273],[-75.53407,46.92726],[-75.53391,46.92726],[-75.53387,46.92725],[-75.53368,46.92718],[-75.53363,46.92715],[-75.53361,46.92713],[-75.53357,46.92709],[-75.53358,46.92699],[-75.53359,46.92686],[-75.53359,46.92681],[-75.53359,46.92663],[-75.53346,46.92659],[-75.53333,46.9266],[-75.53333,46.92602],[-75.53346,46.92605],[-75.53352,46.92605],[-75.53362,46.92596],[-75.53375,46.92589],[-75.53388,46.92583],[-75.53399,46.9257],[-75.53398,46.92567],[-75.53397,46.92561],[-75.53385,46.92553],[-75.53382,46.92553],[-75.53378,46.92554],[-75.53369,46.92564],[-75.53362,46.92562],[-75.53352,46.92553],[-75.53348,46.92549],[-75.53335,46.92547],[-75.53334,46.92542],[-75.53339,46.92533],[-75.53357,46.92515],[-75.53358,46.92513],[-75.53362,46.92507],[-75.53362,46.925],[-75.53484,46.925],[-75.53474,46.92506],[-75.5348,46.9251],[-75.53493,46.92514],[-75.535,46.92516],[-75.53527,46.92531],[-75.5354,46.92535],[-75.53545,46.92533],[-75.53559,46.92525],[-75.53577,46.92515],[-75.5359,46.9252],[-75.53588,46.92529],[-75.53589,46.92531],[-75.5359,46.92534],[-75.53593,46.92533],[-75.53597,46.92532],[-75.536,46.9253],[-75.53603,46.92527],[-75.53604,46.92526],[-75.53606,46.92523],[-75.53608,46.92522],[-75.53611,46.92519],[-75.53619,46.9252],[-75.5363,46.92513],[-75.53633,46.9251],[-75.53635,46.92509],[-75.53642,46.92509],[-75.53644,46.92513],[-75.5365,46.92515],[-75.53651,46.92515],[-75.53671,46.92507],[-75.53675,46.92502],[-75.53677,46.92501],[-75.53678,46.925],[-75.53687,46.925],[-75.53688,46.925],[-75.53688,46.92505],[-75.53677,46.92514],[-75.53665,46.9252],[-75.53611,46.92556],[-75.53611,46.92561],[-75.53616,46.92565],[-75.53629,46.92565],[-75.53642,46.9256],[-75.53667,46.92544],[-75.5367,46.92543],[-75.53674,46.92542],[-75.53681,46.92542],[-75.53684,46.92546],[-75.53671,46.92553],[-75.53659,46.92562],[-75.5365,46.92572],[-75.53638,46.92581],[-75.53633,46.92585],[-75.53632,46.9259],[-75.53644,46.92599],[-75.53664,46.92603],[-75.53675,46.92602],[-75.53683,46.92602],[-75.5369,46.92597],[-75.53696,46.92591],[-75.53702,46.92584],[-75.53709,46.92581],[-75.53722,46.92581],[-75.53735,46.92583],[-75.53751,46.92584],[-75.53767,46.92582],[-75.53773,46.92579],[-75.53786,46.92571],[-75.5379,46.92571],[-75.53793,46.9257],[-75.53802,46.92572],[-75.53813,46.92574],[-75.53815,46.92573],[-75.53819,46.92572],[-75.53824,46.92567],[-75.53826,46.92566],[-75.53834,46.92553],[-75.53839,46.92548],[-75.53853,46.92542],[-75.53867,46.92543],[-75.53876,46.92544],[-75.53884,46.92546],[-75.53895,46.92548],[-75.53913,46.92549],[-75.53927,46.92551],[-75.53935,46.92559],[-75.53949,46.9256],[-75.53977,46.92558],[-75.53996,46.92548],[-75.54002,46.92547],[-75.54009,46.92546],[-75.54015,46.92546],[-75.54038,46.92541],[-75.54052,46.92535],[-75.54066,46.92514],[-75.5407,46.925],[-75.54084,46.925],[-75.54077,46.9252],[-75.54068,46.92607],[-75.54072,46.92631],[-75.54069,46.92631],[-75.5406,46.92634],[-75.54049,46.92638],[-75.54043,46.92639],[-75.54036,46.9264],[-75.54003,46.92654],[-75.54005,46.92659],[-75.54001,46.92663],[-75.53997,46.92662],[-75.53995,46.92661],[-75.53989,46.92658],[-75.53982,46.92654],[-75.53975,46.92657],[-75.5395,46.92683],[-75.53937,46.92688],[-75.5393,46.92684],[-75.53925,46.9268],[-75.53911,46.92678],[-75.53897,46.92677],[-75.53864,46.92664],[-75.5386,46.92664],[-75.53857,46.92665],[-75.53845,46.92673],[-75.53844,46.92682],[-75.5384,46.92686],[-75.5383,46.92691],[-75.53826,46.92693],[-75.53816,46.92703],[-75.53806,46.92707],[-75.5379,46.92714],[-75.53777,46.92716],[-75.53743,46.92708],[-75.5373,46.92706],[-75.53706,46.92733],[-75.53686,46.92731],[-75.53676,46.92734],[-75.53649,46.92741],[-75.53643,46.92742],[-75.5363,46.92743],[-75.53622,46.92741],[-75.5361,46.92739],[-75.53598,46.92731],[-75.53588,46.92709],[-75.53588,46.92705],[-75.53585,46.927],[-75.53578,46.92697],[-75.53558,46.92694],[-75.53554,46.92691],[-75.53549,46.92685],[-75.53534,46.92679],[-75.53523,46.92674],[-75.53521,46.92665],[-75.53517,46.92661],[-75.5351,46.92657],[-75.53498,46.92665],[-75.53489,46.92674],[-75.53497,46.92688],[-75.5351,46.92697],[-75.53517,46.92705],[-75.53517,46.92706],[-75.53534,46.92719],[-75.53539,46.92728],[-75.53543,46.92731],[-75.53551,46.9274],[-75.53551,46.92745],[-75.53557,46.92754],[-75.53568,46.92763],[-75.53573,46.92764],[-75.53581,46.92767],[-75.53562,46.92777],[-75.53561,46.92778],[-75.53557,46.92783],[-75.53557,46.92787],[-75.53557,46.92792],[-75.53554,46.92796],[-75.53551,46.92801],[-75.53533,46.92815],[-75.53531,46.92819],[-75.53535,46.92824],[-75.5354,46.92824],[-75.53542,46.92824],[-75.53576,46.92818],[-75.53586,46.92811],[-75.53589,46.92806],[-75.53596,46.92802],[-75.53609,46.92808],[-75.53615,46.92806],[-75.53617,46.92805],[-75.53621,46.92803],[-75.53634,46.928],[-75.53631,46.92805],[-75.53629,46.92808],[-75.53677,46.92796],[-75.5368,46.92795],[-75.53728,46.92781],[-75.53743,46.92775],[-75.53746,46.92774],[-75.53776,46.92763],[-75.53806,46.92751],[-75.53809,46.9275],[-75.53823,46.92744],[-75.53847,46.92733],[-75.53853,46.92744],[-75.53873,46.92777],[-75.53897,46.92808],[-75.53924,46.92838],[-75.53953,46.92867],[-75.53985,46.92895],[-75.54018,46.92919],[-75.54045,46.92938],[-75.54056,46.92952],[-75.54082,46.92982],[-75.54112,46.93011],[-75.54144,46.93039],[-75.54167,46.93056],[-75.54167,46.93333],[-75.53333,46.93333]]]}},{"type":"Feature","properties":{"c":"CDC-2827307","o":"Steven Lauzier 100%","e":""},"geometry":{"type":"Polygon","coordinates":[[[-75.54167,46.94167],[-75.53333,46.94167],[-75.53333,46.93333],[-75.54167,46.93333],[-75.54167,46.94167]]]}},{"type":"Feature","properties":{"c":"CDC-2838367","o":"Steven Lauzier 100%","e":""},"geometry":{"type":"Polygon","coordinates":[[[-75.525,46.93333],[-75.525,46.925],[-75.52617,46.925],[-75.52625,46.92513],[-75.52633,46.92524],[-75.52634,46.92526],[-75.5265,46.92546],[-75.52668,46.92567],[-75.5267,46.92569],[-75.52679,46.92579],[-75.52708,46.92608],[-75.5271,46.92609],[-75.52742,46.92637],[-75.52754,46.92646],[-75.52756,46.92648],[-75.5278,46.92665],[-75.52804,46.92681],[-75.52807,46.92683],[-75.52819,46.92691],[-75.52859,46.92714],[-75.52861,46.92715],[-75.52903,46.92736],[-75.52917,46.92743],[-75.5292,46.92744],[-75.52949,46.92756],[-75.52979,46.92768],[-75.52982,46.92769],[-75.52997,46.92775],[-75.53044,46.92789],[-75.53047,46.9279],[-75.53095,46.92803],[-75.53112,46.92807],[-75.53115,46.92808],[-75.53148,46.92815],[-75.53181,46.92821],[-75.53184,46.92821],[-75.53201,46.92824],[-75.53252,46.9283],[-75.53255,46.9283],[-75.53294,46.92833],[-75.53294,46.92802],[-75.53292,46.92761],[-75.53293,46.92759],[-75.53295,46.92756],[-75.53301,46.92753],[-75.53304,46.92754],[-75.53308,46.92755],[-75.53333,46.92755],[-75.53333,46.93333],[-75.525,46.93333]]]}},{"type":"Feature","properties":{"c":"CDC-2827308","o":"Steven Lauzier 100%","e":""},"geometry":{"type":"Polygon","coordinates":[[[-75.53333,46.94167],[-75.525,46.94167],[-75.525,46.93333],[-75.53333,46.93333],[-75.53333,46.94167]]]}},{"type":"Feature","properties":{"c":"CDC-2838368","o":"Steven Lauzier 100%","e":""},"geometry":{"type":"Polygon","coordinates":[[[-75.525,46.94167],[-75.53333,46.94167],[-75.53333,46.95],[-75.525,46.95],[-75.525,46.94954],[-75.52512,46.94951],[-75.52527,46.94942],[-75.52539,46.94936],[-75.52554,46.94929],[-75.52566,46.94921],[-75.52571,46.94916],[-75.52582,46.94906],[-75.52592,46.94901],[-75.52608,46.94891],[-75.52614,46.9488],[-75.52619,46.94869],[-75.52623,46.94861],[-75.52626,46.94853],[-75.52625,46.94835],[-75.52623,46.94825],[-75.5262,46.94812],[-75.52618,46.94801],[-75.52622,46.94793],[-75.5263,46.94784],[-75.52636,46.94774],[-75.5264,46.9477],[-75.52649,46.9476],[-75.5265,46.94751],[-75.52652,46.94738],[-75.5265,46.94723],[-75.52634,46.9471],[-75.52632,46.94703],[-75.52628,46.94693],[-75.52633,46.94687],[-75.52635,46.94688],[-75.5264,46.94689],[-75.52641,46.94694],[-75.52649,46.94703],[-75.52655,46.94707],[-75.52668,46.94712],[-75.52679,46.94716],[-75.52694,46.9472],[-75.5272,46.94721],[-75.52747,46.94723],[-75.52767,46.94726],[-75.52768,46.94726],[-75.52774,46.94727],[-75.52784,46.94725],[-75.52788,46.94725],[-75.52814,46.94701],[-75.52841,46.94666],[-75.52844,46.94661],[-75.52844,46.94648],[-75.52854,46.94632],[-75.5286,46.94627],[-75.52865,46.94628],[-75.52867,46.94628],[-75.5288,46.94635],[-75.52881,46.94635],[-75.52886,46.94635],[-75.52896,46.94625],[-75.52901,46.94619],[-75.52909,46.94605],[-75.5291,46.94584],[-75.52898,46.94567],[-75.52893,46.94556],[-75.52891,46.94549],[-75.5289,46.94546],[-75.52888,46.9454],[-75.52891,46.94531],[-75.52888,46.94527],[-75.52882,46.94523],[-75.52862,46.94517],[-75.52869,46.94515],[-75.52881,46.94506],[-75.52887,46.94505],[-75.52894,46.9451],[-75.52899,46.94514],[-75.52913,46.94517],[-75.52917,46.94516],[-75.52919,46.94515],[-75.52927,46.94506],[-75.52924,46.94496],[-75.52927,46.94487],[-75.5293,46.94482],[-75.52935,46.94474],[-75.52928,46.9446],[-75.52926,46.94451],[-75.52933,46.94443],[-75.52931,46.94424],[-75.52934,46.94418],[-75.52936,46.94413],[-75.52946,46.94404],[-75.52957,46.94388],[-75.52962,46.94375],[-75.52969,46.94372],[-75.52981,46.94399],[-75.5299,46.94408],[-75.52992,46.94408],[-75.52997,46.9441],[-75.52999,46.94409],[-75.53003,46.94406],[-75.53014,46.94398],[-75.53021,46.94392],[-75.53025,46.94384],[-75.53018,46.94381],[-75.53004,46.94374],[-75.53001,46.94373],[-75.52971,46.9436],[-75.52942,46.94349],[-75.52939,46.94348],[-75.52923,46.94342],[-75.52877,46.94327],[-75.52873,46.94326],[-75.52825,46.94314],[-75.52809,46.9431],[-75.52806,46.94309],[-75.52773,46.94302],[-75.5274,46.94296],[-75.52736,46.94296],[-75.5272,46.94293],[-75.52669,46.94287],[-75.52665,46.94287],[-75.52614,46.94283],[-75.52597,46.94282],[-75.52594,46.94282],[-75.52559,46.94281],[-75.52525,46.94281],[-75.52521,46.94281],[-75.52504,46.94282],[-75.525,46.94282],[-75.525,46.94167]]]}},{"type":"Feature","properties":{"c":"CDC-2827306","o":"Steven Lauzier 100%","e":""},"geometry":{"type":"Polygon","coordinates":[[[-75.525,46.93333],[-75.51667,46.93333],[-75.51667,46.925],[-75.525,46.925],[-75.525,46.93333]]]}},{"type":"Feature","properties":{"c":"CDC-2827309","o":"Steven Lauzier 100%","e":""},"geometry":{"type":"Polygon","coordinates":[[[-75.525,46.94167],[-75.51667,46.94167],[-75.51667,46.93333],[-75.525,46.93333],[-75.525,46.94167]]]}},{"type":"Feature","properties":{"c":"CDC-2838369","o":"Steven Lauzier 100%","e":""},"geometry":{"type":"Polygon","coordinates":[[[-75.525,46.95],[-75.51667,46.95],[-75.51667,46.94167],[-75.525,46.94167],[-75.525,46.94282],[-75.52453,46.94285],[-75.52449,46.94285],[-75.52398,46.9429],[-75.52381,46.94293],[-75.52378,46.94293],[-75.52345,46.94298],[-75.52311,46.94305],[-75.52308,46.94305],[-75.52292,46.94309],[-75.52243,46.94321],[-75.5224,46.94322],[-75.52193,46.94336],[-75.52177,46.94341],[-75.52174,46.94342],[-75.52144,46.94353],[-75.52114,46.94365],[-75.52111,46.94367],[-75.52097,46.94373],[-75.52055,46.94393],[-75.52052,46.94395],[-75.52012,46.94417],[-75.51999,46.94424],[-75.51996,46.94426],[-75.51971,46.94442],[-75.51947,46.94459],[-75.51945,46.94461],[-75.51933,46.94469],[-75.519,46.94496],[-75.51898,46.94498],[-75.51867,46.94526],[-75.51857,46.94536],[-75.51856,46.94538],[-75.51837,46.94558],[-75.5182,46.94579],[-75.51819,46.94581],[-75.51811,46.94591],[-75.51789,46.94623],[-75.51788,46.94625],[-75.51769,46.94658],[-75.51763,46.94669],[-75.51762,46.94672],[-75.51752,46.94694],[-75.51744,46.94717],[-75.51743,46.94719],[-75.51743,46.9472],[-75.51749,46.94718],[-75.51762,46.9472],[-75.51768,46.9472],[-75.51799,46.94699],[-75.51812,46.947],[-75.51819,46.94698],[-75.51858,46.94677],[-75.51869,46.94668],[-75.51876,46.94649],[-75.51892,46.94646],[-75.51911,46.94644],[-75.51939,46.94646],[-75.51952,46.94653],[-75.5196,46.94656],[-75.51971,46.94656],[-75.51978,46.94656],[-75.51993,46.94657],[-75.52007,46.94659],[-75.52016,46.94658],[-75.52041,46.94652],[-75.52057,46.9465],[-75.52082,46.94644],[-75.52101,46.94642],[-75.52138,46.9463],[-75.52142,46.9463],[-75.52153,46.94628],[-75.52184,46.94629],[-75.52196,46.94626],[-75.52216,46.94608],[-75.52218,46.94604],[-75.52219,46.94583],[-75.52223,46.94579],[-75.52242,46.94576],[-75.52256,46.94578],[-75.52259,46.94583],[-75.52259,46.946],[-75.52256,46.94609],[-75.52257,46.94618],[-75.5224,46.94636],[-75.52244,46.94641],[-75.52246,46.94642],[-75.5225,46.94644],[-75.52256,46.94647],[-75.52262,46.94647],[-75.52275,46.94639],[-75.52285,46.94629],[-75.5229,46.94617],[-75.52293,46.94594],[-75.523,46.94588],[-75.52312,46.94588],[-75.52318,46.94587],[-75.52332,46.9459],[-75.52334,46.94595],[-75.52333,46.94626],[-75.52328,46.94635],[-75.52308,46.94647],[-75.52304,46.94651],[-75.52304,46.94656],[-75.5231,46.94662],[-75.52316,46.94669],[-75.5232,46.94671],[-75.52322,46.94672],[-75.52335,46.94675],[-75.52348,46.94681],[-75.52363,46.94684],[-75.52368,46.94685],[-75.52371,46.94686],[-75.52374,46.94688],[-75.5238,46.94692],[-75.52386,46.94697],[-75.52393,46.94695],[-75.52395,46.94696],[-75.52399,46.94697],[-75.52417,46.94708],[-75.52424,46.94704],[-75.52426,46.94702],[-75.52428,46.947],[-75.52428,46.9468],[-75.52434,46.94676],[-75.52439,46.94679],[-75.52447,46.94684],[-75.52461,46.94697],[-75.52466,46.94702],[-75.52473,46.94699],[-75.52469,46.94685],[-75.52476,46.94681],[-75.52489,46.94685],[-75.52495,46.94683],[-75.525,46.94681],[-75.525,46.94686],[-75.52498,46.94691],[-75.52487,46.94714],[-75.52479,46.94724],[-75.52469,46.94735],[-75.52465,46.94745],[-75.52481,46.94768],[-75.52485,46.94779],[-75.52488,46.94789],[-75.52489,46.94817],[-75.52486,46.94828],[-75.52483,46.94836],[-75.52478,46.94845],[-75.52478,46.94846],[-75.52471,46.94885],[-75.52474,46.94917],[-75.52473,46.94923],[-75.52478,46.94938],[-75.52476,46.94945],[-75.52475,46.94949],[-75.52477,46.94953],[-75.52481,46.94955],[-75.52484,46.94956],[-75.52488,46.94956],[-75.5249,46.94956],[-75.525,46.94954],[-75.525,46.95]]]}},{"type":"Feature","properties":{"c":"CDC-2648235","o":"NeoTerrex Minerals inc. 100%","e":""},"geometry":{"type":"Polygon","coordinates":[[[-75.94167,46.51667],[-75.93333,46.51667],[-75.93333,46.50833],[-75.94167,46.50833],[-75.94167,46.51667]]]}},{"type":"Feature","properties":{"c":"CDC-2648234","o":"NeoTerrex Minerals inc. 100%","e":""},"geometry":{"type":"Polygon","coordinates":[[[-75.95,46.51667],[-75.94167,46.51667],[-75.94167,46.50833],[-75.95,46.50833],[-75.95,46.51667]]]}},{"type":"Feature","properties":{"c":"CDC-2648233","o":"NeoTerrex Minerals inc. 100%","e":""},"geometry":{"type":"Polygon","coordinates":[[[-75.95833,46.51667],[-75.95,46.51667],[-75.95,46.50833],[-75.95833,46.50833],[-75.95833,46.51667]]]}},{"type":"Feature","properties":{"c":"CDC-2648232","o":"NeoTerrex Minerals inc. 100%","e":""},"geometry":{"type":"Polygon","coordinates":[[[-75.96667,46.51667],[-75.95833,46.51667],[-75.95833,46.50833],[-75.96667,46.50833],[-75.96667,46.51667]]]}},{"type":"Feature","properties":{"c":"CDC-2648231","o":"NeoTerrex Minerals inc. 100%","e":""},"geometry":{"type":"Polygon","coordinates":[[[-75.975,46.51667],[-75.96667,46.51667],[-75.96667,46.50833],[-75.975,46.50833],[-75.975,46.51667]]]}},{"type":"Feature","properties":{"c":"CDC-2648243","o":"NeoTerrex Minerals inc. 100%","e":""},"geometry":{"type":"Polygon","coordinates":[[[-75.925,46.525],[-75.91667,46.525],[-75.91667,46.51667],[-75.925,46.51667],[-75.925,46.525]]]}},{"type":"Feature","properties":{"c":"CDC-2648242","o":"NeoTerrex Minerals inc. 100%","e":""},"geometry":{"type":"Polygon","coordinates":[[[-75.93333,46.525],[-75.925,46.525],[-75.925,46.51667],[-75.93333,46.51667],[-75.93333,46.525]]]}},{"type":"Feature","properties":{"c":"CDC-2648241","o":"NeoTerrex Minerals inc. 100%","e":""},"geometry":{"type":"Polygon","coordinates":[[[-75.94167,46.525],[-75.93333,46.525],[-75.93333,46.51667],[-75.94167,46.51667],[-75.94167,46.525]]]}},{"type":"Feature","properties":{"c":"CDC-2648240","o":"NeoTerrex Minerals inc. 100%","e":""},"geometry":{"type":"Polygon","coordinates":[[[-75.95,46.525],[-75.94167,46.525],[-75.94167,46.51667],[-75.95,46.51667],[-75.95,46.525]]]}},{"type":"Feature","properties":{"c":"CDC-2648239","o":"NeoTerrex Minerals inc. 100%","e":""},"geometry":{"type":"Polygon","coordinates":[[[-75.95833,46.525],[-75.95,46.525],[-75.95,46.51667],[-75.95833,46.51667],[-75.95833,46.525]]]}},{"type":"Feature","properties":{"c":"CDC-2648238","o":"NeoTerrex Minerals inc. 100%","e":""},"geometry":{"type":"Polygon","coordinates":[[[-75.96667,46.525],[-75.95833,46.525],[-75.95833,46.51667],[-75.96667,46.51667],[-75.96667,46.525]]]}},{"type":"Feature","properties":{"c":"CDC-2652189","o":"NeoTerrex Minerals inc. 100%","e":""},"geometry":{"type":"Polygon","coordinates":[[[-75.97393,46.525],[-75.96667,46.525],[-75.96667,46.51667],[-75.975,46.51667],[-75.975,46.52444],[-75.97393,46.525]]]}},{"type":"Feature","properties":{"c":"CDC-2648247","o":"NeoTerrex Minerals inc. 100%","e":""},"geometry":{"type":"Polygon","coordinates":[[[-75.925,46.53333],[-75.91667,46.53333],[-75.91667,46.525],[-75.925,46.525],[-75.925,46.53333]]]}},{"type":"Feature","properties":{"c":"CDC-2648246","o":"NeoTerrex Minerals inc. 100%","e":""},"geometry":{"type":"Polygon","coordinates":[[[-75.93333,46.53333],[-75.925,46.53333],[-75.925,46.525],[-75.93333,46.525],[-75.93333,46.53333]]]}},{"type":"Feature","properties":{"c":"CDC-2648245","o":"NeoTerrex Minerals inc. 100%","e":""},"geometry":{"type":"Polygon","coordinates":[[[-75.94167,46.53333],[-75.93333,46.53333],[-75.93333,46.525],[-75.94167,46.525],[-75.94167,46.53333]]]}},{"type":"Feature","properties":{"c":"CDC-2816767","o":"R\u00e9jean Raymond 100%","e":""},"geometry":{"type":"Polygon","coordinates":[[[-75.98333,46.61667],[-75.975,46.61667],[-75.975,46.60833],[-75.98333,46.60833],[-75.98333,46.61667]]]}},{"type":"Feature","properties":{"c":"CDC-2856816","o":"Daniel Terrett 100%","e":""},"geometry":{"type":"Polygon","coordinates":[[[-75.91667,46.64167],[-75.91667,46.63626],[-75.9172,46.63649],[-75.91795,46.63677],[-75.91873,46.63702],[-75.91952,46.63723],[-75.92034,46.63741],[-75.92117,46.63755],[-75.92201,46.63765],[-75.92286,46.63771],[-75.92372,46.63773],[-75.92379,46.63773],[-75.925,46.63773],[-75.925,46.64167],[-75.91667,46.64167]]]}},{"type":"Feature","properties":{"c":"CDC-2837633","o":"Daniel Terrett 100%","e":""},"geometry":{"type":"Polygon","coordinates":[[[-75.925,46.65],[-75.91667,46.65],[-75.91667,46.64167],[-75.925,46.64167],[-75.925,46.65]]]}},{"type":"Feature","properties":{"c":"CDC-2808957","o":"Eric Blais 100%","e":""},"geometry":{"type":"Polygon","coordinates":[[[-76.00833,46.65],[-76.0,46.65],[-76.0,46.64167],[-76.00833,46.64167],[-76.00833,46.65]]]}},{"type":"Feature","properties":{"c":"CDC-2504824","o":"Les Pierres Anangosh inc. 100%","e":""},"geometry":{"type":"Polygon","coordinates":[[[-75.95,46.68333],[-75.94167,46.68333],[-75.94167,46.675],[-75.95,46.675],[-75.95,46.68333]]]}},{"type":"Feature","properties":{"c":"BEX-1851","o":"Les Pierres Anangosh inc. 100%","e":""},"geometry":{"type":"Polygon","coordinates":[[[-75.94985,46.68699],[-75.94887,46.68676],[-75.94843,46.68025],[-75.9503,46.68024],[-75.95359,46.68637],[-75.94985,46.68699]]]}},{"type":"Feature","properties":{"c":"CDC-2528570","o":"Les Pierres Anangosh inc. 100%","e":""},"geometry":{"type":"Polygon","coordinates":[[[-75.95,46.69167],[-75.94167,46.69167],[-75.94167,46.68333],[-75.95,46.68333],[-75.95,46.69167]]]}},{"type":"Feature","properties":{"c":"CDC-2505430","o":"Les Pierres Anangosh inc. 100%","e":""},"geometry":{"type":"Polygon","coordinates":[[[-75.95833,46.69167],[-75.95,46.69167],[-75.95,46.68333],[-75.95833,46.68333],[-75.95833,46.69167]]]}},{"type":"Feature","properties":{"c":"CDC-2822415","o":"Kenneth Kuiper 100%","e":""},"geometry":{"type":"Polygon","coordinates":[[[-75.89167,46.725],[-75.88333,46.725],[-75.88333,46.71667],[-75.89167,46.71667],[-75.89167,46.725]]]}},{"type":"Feature","properties":{"c":"CDC-2887731","o":"Marino Specogna 100%","e":""},"geometry":{"type":"Polygon","coordinates":[[[-75.975,46.78333],[-75.96667,46.78333],[-75.96667,46.775],[-75.975,46.775],[-75.975,46.78333]]]}},{"type":"Feature","properties":{"c":"CDC-2648224","o":"NeoTerrex Minerals inc. 100%","e":""},"geometry":{"type":"Polygon","coordinates":[[[-75.93333,46.5],[-75.925,46.5],[-75.925,46.49167],[-75.93333,46.49167],[-75.93333,46.5]]]}},{"type":"Feature","properties":{"c":"CDC-2648223","o":"NeoTerrex Minerals inc. 100%","e":""},"geometry":{"type":"Polygon","coordinates":[[[-75.94167,46.5],[-75.93333,46.5],[-75.93333,46.49167],[-75.94167,46.49167],[-75.94167,46.5]]]}},{"type":"Feature","properties":{"c":"CDC-2648222","o":"NeoTerrex Minerals inc. 100%","e":""},"geometry":{"type":"Polygon","coordinates":[[[-75.95,46.49167],[-75.95,46.5],[-75.94167,46.5],[-75.94167,46.49167],[-75.95,46.49167]]]}},{"type":"Feature","properties":{"c":"CDC-2648221","o":"NeoTerrex Minerals inc. 100%","e":""},"geometry":{"type":"Polygon","coordinates":[[[-75.95833,46.5],[-75.95,46.5],[-75.95,46.49167],[-75.95833,46.49167],[-75.95833,46.5]]]}},{"type":"Feature","properties":{"c":"CDC-2648220","o":"NeoTerrex Minerals inc. 100%","e":""},"geometry":{"type":"Polygon","coordinates":[[[-75.96667,46.5],[-75.95833,46.5],[-75.95833,46.49167],[-75.96667,46.49167],[-75.96667,46.5]]]}},{"type":"Feature","properties":{"c":"CDC-2648219","o":"NeoTerrex Minerals inc. 100%","e":""},"geometry":{"type":"Polygon","coordinates":[[[-75.975,46.5],[-75.96667,46.5],[-75.96667,46.49167],[-75.975,46.49167],[-75.975,46.5]]]}},{"type":"Feature","properties":{"c":"CDC-2648230","o":"NeoTerrex Minerals inc. 100%","e":""},"geometry":{"type":"Polygon","coordinates":[[[-75.93333,46.50833],[-75.925,46.50833],[-75.925,46.5],[-75.93333,46.5],[-75.93333,46.50833]]]}},{"type":"Feature","properties":{"c":"CDC-2648229","o":"NeoTerrex Minerals inc. 100%","e":""},"geometry":{"type":"Polygon","coordinates":[[[-75.94167,46.50833],[-75.93333,46.50833],[-75.93333,46.5],[-75.94167,46.5],[-75.94167,46.50833]]]}},{"type":"Feature","properties":{"c":"CDC-2648228","o":"NeoTerrex Minerals inc. 100%","e":""},"geometry":{"type":"Polygon","coordinates":[[[-75.95,46.50833],[-75.94167,46.50833],[-75.94167,46.5],[-75.95,46.5],[-75.95,46.50833]]]}},{"type":"Feature","properties":{"c":"CDC-2648227","o":"NeoTerrex Minerals inc. 100%","e":""},"geometry":{"type":"Polygon","coordinates":[[[-75.95833,46.50833],[-75.95,46.50833],[-75.95,46.5],[-75.95833,46.5],[-75.95833,46.50833]]]}},{"type":"Feature","properties":{"c":"CDC-2648226","o":"NeoTerrex Minerals inc. 100%","e":""},"geometry":{"type":"Polygon","coordinates":[[[-75.96667,46.50833],[-75.95833,46.50833],[-75.95833,46.5],[-75.96667,46.5],[-75.96667,46.50833]]]}},{"type":"Feature","properties":{"c":"CDC-2648225","o":"NeoTerrex Minerals inc. 100%","e":""},"geometry":{"type":"Polygon","coordinates":[[[-75.975,46.50833],[-75.96667,46.50833],[-75.96667,46.5],[-75.975,46.5],[-75.975,46.50833]]]}},{"type":"Feature","properties":{"c":"CDC-2648237","o":"NeoTerrex Minerals inc. 100%","e":""},"geometry":{"type":"Polygon","coordinates":[[[-75.925,46.51667],[-75.91667,46.51667],[-75.91667,46.50833],[-75.925,46.50833],[-75.925,46.51667]]]}},{"type":"Feature","properties":{"c":"CDC-2648236","o":"NeoTerrex Minerals inc. 100%","e":""},"geometry":{"type":"Polygon","coordinates":[[[-75.93333,46.51667],[-75.925,46.51667],[-75.925,46.50833],[-75.93333,46.50833],[-75.93333,46.51667]]]}}]}