{"type":"FeatureCollection","features":[{"type":"Feature","properties":{"c":"K14311","o":"Baffinland Iron Mines Corporation (100%)","e":"2021-09-17"},"geometry":{"type":"Polygon","coordinates":[[[-76.26068,70.95164],[-76.26065,70.91041],[-76.32479,70.91054],[-76.32361,70.95167],[-76.26068,70.95164]]]}},{"type":"Feature","properties":{"c":"K14312","o":"Baffinland Iron Mines Corporation (100%)","e":"2021-09-17"},"geometry":{"type":"Polygon","coordinates":[[[-76.26068,70.95164],[-76.19847,70.95158],[-76.20017,70.91027],[-76.26065,70.91041],[-76.26068,70.95164]]]}},{"type":"Feature","properties":{"c":"104097","o":"Baffinland Iron Mines Corporation (100%)","e":"2027-01-25"},"geometry":{"type":"Polygon","coordinates":[[[-76.24888,70.99247],[-76.1364,70.99244],[-76.1364,70.9841],[-76.24888,70.98414],[-76.24888,70.98831],[-76.24888,70.99247]]]}}]}