{"type":"FeatureCollection","features":[{"type":"Feature","properties":{"c":"CDC-2766630","o":"Cibles\u00a0Mini\u00e8res Critiques inc. 50%","e":""},"geometry":{"type":"Polygon","coordinates":[[[-76.20833,55.01667],[-76.2,55.01667],[-76.2,55.00833],[-76.20833,55.00833],[-76.20833,55.01667]]]}},{"type":"Feature","properties":{"c":"CDC-2766631","o":"Cibles\u00a0Mini\u00e8res Critiques inc. 50%","e":""},"geometry":{"type":"Polygon","coordinates":[[[-76.2,55.01667],[-76.19167,55.01667],[-76.19167,55.00833],[-76.2,55.00833],[-76.2,55.01667]]]}},{"type":"Feature","properties":{"c":"CDC-2766636","o":"Cibles\u00a0Mini\u00e8res Critiques inc. 50%","e":""},"geometry":{"type":"Polygon","coordinates":[[[-76.45,55.025],[-76.44167,55.025],[-76.44167,55.01667],[-76.45,55.01667],[-76.45,55.025]]]}},{"type":"Feature","properties":{"c":"CDC-2766635","o":"Cibles\u00a0Mini\u00e8res Critiques inc. 50%","e":""},"geometry":{"type":"Polygon","coordinates":[[[-76.45833,55.025],[-76.45,55.025],[-76.45,55.01667],[-76.45833,55.01667],[-76.45833,55.025]]]}},{"type":"Feature","properties":{"c":"CDC-2766634","o":"Cibles\u00a0Mini\u00e8res Critiques inc. 50%","e":""},"geometry":{"type":"Polygon","coordinates":[[[-76.46667,55.025],[-76.45833,55.025],[-76.45833,55.01667],[-76.46667,55.01667],[-76.46667,55.025]]]}},{"type":"Feature","properties":{"c":"CDC-2766633","o":"Cibles\u00a0Mini\u00e8res Critiques inc. 50%","e":""},"geometry":{"type":"Polygon","coordinates":[[[-76.475,55.025],[-76.46667,55.025],[-76.46667,55.01667],[-76.475,55.01667],[-76.475,55.025]]]}},{"type":"Feature","properties":{"c":"CDC-2766632","o":"Cibles\u00a0Mini\u00e8res Critiques inc. 50%","e":""},"geometry":{"type":"Polygon","coordinates":[[[-76.48333,55.025],[-76.475,55.025],[-76.475,55.01667],[-76.48333,55.01667],[-76.48333,55.025]]]}},{"type":"Feature","properties":{"c":"CDC-2766643","o":"Cibles\u00a0Mini\u00e8res Critiques inc. 50%","e":""},"geometry":{"type":"Polygon","coordinates":[[[-76.45833,55.03333],[-76.45,55.03333],[-76.45,55.025],[-76.45833,55.025],[-76.45833,55.03333]]]}},{"type":"Feature","properties":{"c":"CDC-2766642","o":"Cibles\u00a0Mini\u00e8res Critiques inc. 50%","e":""},"geometry":{"type":"Polygon","coordinates":[[[-76.46667,55.03333],[-76.45833,55.03333],[-76.45833,55.025],[-76.46667,55.025],[-76.46667,55.03333]]]}},{"type":"Feature","properties":{"c":"CDC-2766641","o":"Cibles\u00a0Mini\u00e8res Critiques inc. 50%","e":""},"geometry":{"type":"Polygon","coordinates":[[[-76.475,55.03333],[-76.46667,55.03333],[-76.46667,55.025],[-76.475,55.025],[-76.475,55.03333]]]}},{"type":"Feature","properties":{"c":"CDC-2766640","o":"Cibles\u00a0Mini\u00e8res Critiques inc. 50%","e":""},"geometry":{"type":"Polygon","coordinates":[[[-76.48333,55.03333],[-76.475,55.03333],[-76.475,55.025],[-76.48333,55.025],[-76.48333,55.03333]]]}},{"type":"Feature","properties":{"c":"CDC-2766651","o":"Cibles\u00a0Mini\u00e8res Critiques inc. 50%","e":""},"geometry":{"type":"Polygon","coordinates":[[[-76.45833,55.04167],[-76.45,55.04167],[-76.45,55.03333],[-76.45833,55.03333],[-76.45833,55.04167]]]}},{"type":"Feature","properties":{"c":"CDC-2766650","o":"Cibles\u00a0Mini\u00e8res Critiques inc. 50%","e":""},"geometry":{"type":"Polygon","coordinates":[[[-76.46667,55.04167],[-76.45833,55.04167],[-76.45833,55.03333],[-76.46667,55.03333],[-76.46667,55.04167]]]}},{"type":"Feature","properties":{"c":"CDC-2766649","o":"Cibles\u00a0Mini\u00e8res Critiques inc. 50%","e":""},"geometry":{"type":"Polygon","coordinates":[[[-76.475,55.04167],[-76.46667,55.04167],[-76.46667,55.03333],[-76.475,55.03333],[-76.475,55.04167]]]}},{"type":"Feature","properties":{"c":"CDC-2766648","o":"Cibles\u00a0Mini\u00e8res Critiques inc. 50%","e":""},"geometry":{"type":"Polygon","coordinates":[[[-76.48333,55.04167],[-76.475,55.04167],[-76.475,55.03333],[-76.48333,55.03333],[-76.48333,55.04167]]]}},{"type":"Feature","properties":{"c":"CDC-2766659","o":"Cibles\u00a0Mini\u00e8res Critiques inc. 50%","e":""},"geometry":{"type":"Polygon","coordinates":[[[-76.45833,55.05],[-76.45,55.05],[-76.45,55.04167],[-76.45833,55.04167],[-76.45833,55.05]]]}},{"type":"Feature","properties":{"c":"CDC-2766658","o":"Cibles\u00a0Mini\u00e8res Critiques inc. 50%","e":""},"geometry":{"type":"Polygon","coordinates":[[[-76.46667,55.05],[-76.45833,55.05],[-76.45833,55.04167],[-76.46667,55.04167],[-76.46667,55.05]]]}},{"type":"Feature","properties":{"c":"CDC-2766657","o":"Cibles\u00a0Mini\u00e8res Critiques inc. 50%","e":""},"geometry":{"type":"Polygon","coordinates":[[[-76.475,55.05],[-76.46667,55.05],[-76.46667,55.04167],[-76.475,55.04167],[-76.475,55.05]]]}},{"type":"Feature","properties":{"c":"CDC-2766656","o":"Cibles\u00a0Mini\u00e8res Critiques inc. 50%","e":""},"geometry":{"type":"Polygon","coordinates":[[[-76.48333,55.05],[-76.475,55.05],[-76.475,55.04167],[-76.48333,55.04167],[-76.48333,55.05]]]}},{"type":"Feature","properties":{"c":"CDC-2766644","o":"Cibles\u00a0Mini\u00e8res Critiques inc. 50%","e":""},"geometry":{"type":"Polygon","coordinates":[[[-76.45,55.03333],[-76.44167,55.03333],[-76.44167,55.025],[-76.45,55.025],[-76.45,55.03333]]]}},{"type":"Feature","properties":{"c":"CDC-2766652","o":"Cibles\u00a0Mini\u00e8res Critiques inc. 50%","e":""},"geometry":{"type":"Polygon","coordinates":[[[-76.45,55.04167],[-76.44167,55.04167],[-76.44167,55.03333],[-76.45,55.03333],[-76.45,55.04167]]]}},{"type":"Feature","properties":{"c":"CDC-2766660","o":"Cibles\u00a0Mini\u00e8res Critiques inc. 50%","e":""},"geometry":{"type":"Polygon","coordinates":[[[-76.45,55.05],[-76.44167,55.05],[-76.44167,55.04167],[-76.45,55.04167],[-76.45,55.05]]]}},{"type":"Feature","properties":{"c":"CDC-2766637","o":"Cibles\u00a0Mini\u00e8res Critiques inc. 50%","e":""},"geometry":{"type":"Polygon","coordinates":[[[-76.44167,55.025],[-76.43333,55.025],[-76.43333,55.01667],[-76.44167,55.01667],[-76.44167,55.025]]]}},{"type":"Feature","properties":{"c":"CDC-2766645","o":"Cibles\u00a0Mini\u00e8res Critiques inc. 50%","e":""},"geometry":{"type":"Polygon","coordinates":[[[-76.44167,55.03333],[-76.43333,55.03333],[-76.43333,55.025],[-76.44167,55.025],[-76.44167,55.03333]]]}},{"type":"Feature","properties":{"c":"CDC-2766653","o":"Cibles\u00a0Mini\u00e8res Critiques inc. 50%","e":""},"geometry":{"type":"Polygon","coordinates":[[[-76.44167,55.04167],[-76.43333,55.04167],[-76.43333,55.03333],[-76.44167,55.03333],[-76.44167,55.04167]]]}},{"type":"Feature","properties":{"c":"CDC-2766661","o":"Cibles\u00a0Mini\u00e8res Critiques inc. 50%","e":""},"geometry":{"type":"Polygon","coordinates":[[[-76.44167,55.05],[-76.43333,55.05],[-76.43333,55.04167],[-76.44167,55.04167],[-76.44167,55.05]]]}},{"type":"Feature","properties":{"c":"CDC-2766638","o":"Cibles\u00a0Mini\u00e8res Critiques inc. 50%","e":""},"geometry":{"type":"Polygon","coordinates":[[[-76.43333,55.025],[-76.425,55.025],[-76.425,55.01667],[-76.43333,55.01667],[-76.43333,55.025]]]}},{"type":"Feature","properties":{"c":"CDC-2766646","o":"Cibles\u00a0Mini\u00e8res Critiques inc. 50%","e":""},"geometry":{"type":"Polygon","coordinates":[[[-76.43333,55.03333],[-76.425,55.03333],[-76.425,55.025],[-76.43333,55.025],[-76.43333,55.03333]]]}},{"type":"Feature","properties":{"c":"CDC-2766654","o":"Cibles\u00a0Mini\u00e8res Critiques inc. 50%","e":""},"geometry":{"type":"Polygon","coordinates":[[[-76.43333,55.04167],[-76.425,55.04167],[-76.425,55.03333],[-76.43333,55.03333],[-76.43333,55.04167]]]}},{"type":"Feature","properties":{"c":"CDC-2766662","o":"Cibles\u00a0Mini\u00e8res Critiques inc. 50%","e":""},"geometry":{"type":"Polygon","coordinates":[[[-76.43333,55.05],[-76.425,55.05],[-76.425,55.04167],[-76.43333,55.04167],[-76.43333,55.05]]]}},{"type":"Feature","properties":{"c":"CDC-2766639","o":"Cibles\u00a0Mini\u00e8res Critiques inc. 50%","e":""},"geometry":{"type":"Polygon","coordinates":[[[-76.425,55.025],[-76.41667,55.025],[-76.41667,55.01667],[-76.425,55.01667],[-76.425,55.025]]]}},{"type":"Feature","properties":{"c":"CDC-2766647","o":"Cibles\u00a0Mini\u00e8res Critiques inc. 50%","e":""},"geometry":{"type":"Polygon","coordinates":[[[-76.425,55.03333],[-76.41667,55.03333],[-76.41667,55.025],[-76.425,55.025],[-76.425,55.03333]]]}},{"type":"Feature","properties":{"c":"CDC-2766655","o":"Cibles\u00a0Mini\u00e8res Critiques inc. 50%","e":""},"geometry":{"type":"Polygon","coordinates":[[[-76.425,55.04167],[-76.41667,55.04167],[-76.41667,55.03333],[-76.425,55.03333],[-76.425,55.04167]]]}},{"type":"Feature","properties":{"c":"CDC-2766663","o":"Cibles\u00a0Mini\u00e8res Critiques inc. 50%","e":""},"geometry":{"type":"Polygon","coordinates":[[[-76.425,55.05],[-76.41667,55.05],[-76.41667,55.04167],[-76.425,55.04167],[-76.425,55.05]]]}},{"type":"Feature","properties":{"c":"CDC-2766617","o":"Cibles\u00a0Mini\u00e8res Critiques inc. 50%","e":""},"geometry":{"type":"Polygon","coordinates":[[[-76.26667,55.00833],[-76.25833,55.00833],[-76.25833,55.0],[-76.26667,55.0],[-76.26667,55.00833]]]}},{"type":"Feature","properties":{"c":"CDC-2766618","o":"Cibles\u00a0Mini\u00e8res Critiques inc. 50%","e":""},"geometry":{"type":"Polygon","coordinates":[[[-76.25833,55.00833],[-76.25,55.00833],[-76.25,55.0],[-76.25833,55.0],[-76.25833,55.00833]]]}},{"type":"Feature","properties":{"c":"CDC-2766616","o":"Cibles\u00a0Mini\u00e8res Critiques inc. 50%","e":""},"geometry":{"type":"Polygon","coordinates":[[[-76.25,55.0],[-76.24167,55.0],[-76.24167,54.99167],[-76.25,54.99167],[-76.25,55.0]]]}},{"type":"Feature","properties":{"c":"CDC-2766619","o":"Cibles\u00a0Mini\u00e8res Critiques inc. 50%","e":""},"geometry":{"type":"Polygon","coordinates":[[[-76.25,55.00833],[-76.24167,55.00833],[-76.24167,55.0],[-76.25,55.0],[-76.25,55.00833]]]}}]}