{"type":"FeatureCollection","features":[{"type":"Feature","properties":{"c":"CDC-2850525","o":"CDN Maverick Capital Corp. 100%","e":""},"geometry":{"type":"Polygon","coordinates":[[[-77.0,50.34167],[-77.0,50.33333],[-77.00833,50.33333],[-77.00833,50.34167],[-77.0,50.34167]]]}},{"type":"Feature","properties":{"c":"CDC-2850524","o":"CDN Maverick Capital Corp. 100%","e":""},"geometry":{"type":"Polygon","coordinates":[[[-77.00833,50.34167],[-77.00833,50.33333],[-77.01667,50.33333],[-77.01667,50.34167],[-77.00833,50.34167]]]}},{"type":"Feature","properties":{"c":"CDC-2850523","o":"CDN Maverick Capital Corp. 100%","e":""},"geometry":{"type":"Polygon","coordinates":[[[-77.01667,50.34167],[-77.01667,50.33333],[-77.025,50.33333],[-77.025,50.34167],[-77.01667,50.34167]]]}},{"type":"Feature","properties":{"c":"CDC-2880299","o":"CDN Maverick Capital Corp. 100%","e":""},"geometry":{"type":"Polygon","coordinates":[[[-77.00833,50.05],[-77.0,50.05],[-77.0,50.04167],[-77.00833,50.04167],[-77.00833,50.05]]]}},{"type":"Feature","properties":{"c":"CDC-2880300","o":"CDN Maverick Capital Corp. 100%","e":""},"geometry":{"type":"Polygon","coordinates":[[[-77.00833,50.05833],[-77.0,50.05833],[-77.0,50.05],[-77.00833,50.05],[-77.00833,50.05833]]]}},{"type":"Feature","properties":{"c":"CDC-2880302","o":"CDN Maverick Capital Corp. 100%","e":""},"geometry":{"type":"Polygon","coordinates":[[[-77.00833,50.06667],[-77.0,50.06667],[-77.0,50.05833],[-77.00833,50.05833],[-77.00833,50.06667]]]}},{"type":"Feature","properties":{"c":"CDC-2880301","o":"CDN Maverick Capital Corp. 100%","e":""},"geometry":{"type":"Polygon","coordinates":[[[-77.01667,50.06667],[-77.00833,50.06667],[-77.00833,50.05833],[-77.01667,50.05833],[-77.01667,50.06667]]]}},{"type":"Feature","properties":{"c":"CDC-2880304","o":"CDN Maverick Capital Corp. 100%","e":""},"geometry":{"type":"Polygon","coordinates":[[[-77.00833,50.075],[-77.0,50.075],[-77.0,50.06667],[-77.00833,50.06667],[-77.00833,50.075]]]}},{"type":"Feature","properties":{"c":"CDC-2880303","o":"CDN Maverick Capital Corp. 100%","e":""},"geometry":{"type":"Polygon","coordinates":[[[-77.01667,50.075],[-77.00833,50.075],[-77.00833,50.06667],[-77.01667,50.06667],[-77.01667,50.075]]]}},{"type":"Feature","properties":{"c":"CDC-2880306","o":"CDN Maverick Capital Corp. 100%","e":""},"geometry":{"type":"Polygon","coordinates":[[[-77.00833,50.08333],[-77.0,50.08333],[-77.0,50.075],[-77.00833,50.075],[-77.00833,50.08333]]]}},{"type":"Feature","properties":{"c":"CDC-2880305","o":"CDN Maverick Capital Corp. 100%","e":""},"geometry":{"type":"Polygon","coordinates":[[[-77.01667,50.08333],[-77.00833,50.08333],[-77.00833,50.075],[-77.01667,50.075],[-77.01667,50.08333]]]}},{"type":"Feature","properties":{"c":"CDC-2880308","o":"CDN Maverick Capital Corp. 100%","e":""},"geometry":{"type":"Polygon","coordinates":[[[-77.00833,50.09167],[-77.0,50.09167],[-77.0,50.08333],[-77.00833,50.08333],[-77.00833,50.09167]]]}},{"type":"Feature","properties":{"c":"CDC-2880307","o":"CDN Maverick Capital Corp. 100%","e":""},"geometry":{"type":"Polygon","coordinates":[[[-77.01667,50.09167],[-77.00833,50.09167],[-77.00833,50.08333],[-77.01667,50.08333],[-77.01667,50.09167]]]}},{"type":"Feature","properties":{"c":"BEX-1746","o":"Trimix b\u00e9ton inc. 100%","e":""},"geometry":{"type":"Polygon","coordinates":[[[-77.0895,50.21996],[-77.09252,50.21909],[-77.09254,50.22047],[-77.08993,50.22108],[-77.0895,50.21996]]]}},{"type":"Feature","properties":{"c":"CDC-2876399","o":"CDN Maverick Capital Corp. 100%","e":""},"geometry":{"type":"Polygon","coordinates":[[[-77.08333,50.01667],[-77.075,50.01667],[-77.075,50.00833],[-77.08333,50.00833],[-77.08333,50.01667]]]}},{"type":"Feature","properties":{"c":"CDC-2876396","o":"CDN Maverick Capital Corp. 100%","e":""},"geometry":{"type":"Polygon","coordinates":[[[-77.075,50.00833],[-77.06667,50.00833],[-77.06667,50.0],[-77.075,50.0],[-77.075,50.00833]]]}},{"type":"Feature","properties":{"c":"CDC-2876400","o":"CDN Maverick Capital Corp. 100%","e":""},"geometry":{"type":"Polygon","coordinates":[[[-77.075,50.01667],[-77.06667,50.01667],[-77.06667,50.00833],[-77.075,50.00833],[-77.075,50.01667]]]}},{"type":"Feature","properties":{"c":"CDC-2881279","o":"CDN Maverick Capital Corp. 100%","e":""},"geometry":{"type":"Polygon","coordinates":[[[-77.075,50.025],[-77.06667,50.025],[-77.06667,50.01667],[-77.075,50.01667],[-77.075,50.025]]]}},{"type":"Feature","properties":{"c":"CDC-2876382","o":"CDN Maverick Capital Corp. 100%","e":""},"geometry":{"type":"Polygon","coordinates":[[[-77.06667,50.0],[-77.05833,50.0],[-77.05833,49.99167],[-77.06667,49.99167],[-77.06667,50.0]]]}},{"type":"Feature","properties":{"c":"CDC-2876397","o":"CDN Maverick Capital Corp. 100%","e":""},"geometry":{"type":"Polygon","coordinates":[[[-77.06667,50.00833],[-77.05833,50.00833],[-77.05833,50.0],[-77.06667,50.0],[-77.06667,50.00833]]]}},{"type":"Feature","properties":{"c":"CDC-2876401","o":"CDN Maverick Capital Corp. 100%","e":""},"geometry":{"type":"Polygon","coordinates":[[[-77.06667,50.01667],[-77.05833,50.01667],[-77.05833,50.00833],[-77.06667,50.00833],[-77.06667,50.01667]]]}},{"type":"Feature","properties":{"c":"CDC-2881280","o":"CDN Maverick Capital Corp. 100%","e":""},"geometry":{"type":"Polygon","coordinates":[[[-77.06667,50.025],[-77.05833,50.025],[-77.05833,50.01667],[-77.06667,50.01667],[-77.06667,50.025]]]}},{"type":"Feature","properties":{"c":"CDC-2876383","o":"CDN Maverick Capital Corp. 100%","e":""},"geometry":{"type":"Polygon","coordinates":[[[-77.05833,50.0],[-77.05,50.0],[-77.05,49.99167],[-77.05833,49.99167],[-77.05833,50.0]]]}},{"type":"Feature","properties":{"c":"CDC-2876398","o":"CDN Maverick Capital Corp. 100%","e":""},"geometry":{"type":"Polygon","coordinates":[[[-77.05833,50.00833],[-77.05,50.00833],[-77.05,50.0],[-77.05833,50.0],[-77.05833,50.00833]]]}},{"type":"Feature","properties":{"c":"CDC-2876402","o":"CDN Maverick Capital Corp. 100%","e":""},"geometry":{"type":"Polygon","coordinates":[[[-77.05833,50.01667],[-77.05,50.01667],[-77.05,50.00833],[-77.05833,50.00833],[-77.05833,50.01667]]]}},{"type":"Feature","properties":{"c":"CDC-2881281","o":"CDN Maverick Capital Corp. 100%","e":""},"geometry":{"type":"Polygon","coordinates":[[[-77.05833,50.025],[-77.05,50.025],[-77.05,50.01667],[-77.05833,50.01667],[-77.05833,50.025]]]}},{"type":"Feature","properties":{"c":"CDC-2852666","o":"CDN Maverick Capital Corp. 100%","e":""},"geometry":{"type":"Polygon","coordinates":[[[-77.05,50.0],[-77.04167,50.0],[-77.04167,49.99167],[-77.05,49.99167],[-77.05,50.0]]]}},{"type":"Feature","properties":{"c":"CDC-2852708","o":"CDN Maverick Capital Corp. 100%","e":""},"geometry":{"type":"Polygon","coordinates":[[[-77.05,50.00833],[-77.04167,50.00833],[-77.04167,50.0],[-77.05,50.0],[-77.05,50.00833]]]}},{"type":"Feature","properties":{"c":"CDC-2852714","o":"CDN Maverick Capital Corp. 100%","e":""},"geometry":{"type":"Polygon","coordinates":[[[-77.05,50.01667],[-77.04167,50.01667],[-77.04167,50.00833],[-77.05,50.00833],[-77.05,50.01667]]]}},{"type":"Feature","properties":{"c":"CDC-2881282","o":"CDN Maverick Capital Corp. 100%","e":""},"geometry":{"type":"Polygon","coordinates":[[[-77.05,50.025],[-77.04167,50.025],[-77.04167,50.01667],[-77.05,50.01667],[-77.05,50.025]]]}},{"type":"Feature","properties":{"c":"CDC-2881283","o":"CDN Maverick Capital Corp. 100%","e":""},"geometry":{"type":"Polygon","coordinates":[[[-77.05,50.03333],[-77.04167,50.03333],[-77.04167,50.025],[-77.05,50.025],[-77.05,50.03333]]]}},{"type":"Feature","properties":{"c":"CDC-2852667","o":"CDN Maverick Capital Corp. 100%","e":""},"geometry":{"type":"Polygon","coordinates":[[[-77.04167,50.0],[-77.03333,50.0],[-77.03333,49.99167],[-77.04167,49.99167],[-77.04167,50.0]]]}},{"type":"Feature","properties":{"c":"CDC-2852709","o":"CDN Maverick Capital Corp. 100%","e":""},"geometry":{"type":"Polygon","coordinates":[[[-77.04167,50.00833],[-77.03333,50.00833],[-77.03333,50.0],[-77.04167,50.0],[-77.04167,50.00833]]]}},{"type":"Feature","properties":{"c":"CDC-2852715","o":"CDN Maverick Capital Corp. 100%","e":""},"geometry":{"type":"Polygon","coordinates":[[[-77.04167,50.01667],[-77.03333,50.01667],[-77.03333,50.00833],[-77.04167,50.00833],[-77.04167,50.01667]]]}},{"type":"Feature","properties":{"c":"CDC-2860041","o":"CDN Maverick Capital Corp. 100%","e":""},"geometry":{"type":"Polygon","coordinates":[[[-77.04167,50.025],[-77.03333,50.025],[-77.03333,50.01667],[-77.04167,50.01667],[-77.04167,50.025]]]}},{"type":"Feature","properties":{"c":"CDC-2880292","o":"CDN Maverick Capital Corp. 100%","e":""},"geometry":{"type":"Polygon","coordinates":[[[-77.04167,50.03333],[-77.03333,50.03333],[-77.03333,50.025],[-77.04167,50.025],[-77.04167,50.03333]]]}},{"type":"Feature","properties":{"c":"CDC-2852668","o":"CDN Maverick Capital Corp. 100%","e":""},"geometry":{"type":"Polygon","coordinates":[[[-77.03333,50.0],[-77.025,50.0],[-77.025,49.99167],[-77.03333,49.99167],[-77.03333,50.0]]]}},{"type":"Feature","properties":{"c":"CDC-2852710","o":"CDN Maverick Capital Corp. 100%","e":""},"geometry":{"type":"Polygon","coordinates":[[[-77.03333,50.00833],[-77.025,50.00833],[-77.025,50.0],[-77.03333,50.0],[-77.03333,50.00833]]]}},{"type":"Feature","properties":{"c":"CDC-2852716","o":"CDN Maverick Capital Corp. 100%","e":""},"geometry":{"type":"Polygon","coordinates":[[[-77.03333,50.01667],[-77.025,50.01667],[-77.025,50.00833],[-77.03333,50.00833],[-77.03333,50.01667]]]}},{"type":"Feature","properties":{"c":"CDC-2860042","o":"CDN Maverick Capital Corp. 100%","e":""},"geometry":{"type":"Polygon","coordinates":[[[-77.03333,50.025],[-77.025,50.025],[-77.025,50.01667],[-77.03333,50.01667],[-77.03333,50.025]]]}},{"type":"Feature","properties":{"c":"CDC-2880293","o":"CDN Maverick Capital Corp. 100%","e":""},"geometry":{"type":"Polygon","coordinates":[[[-77.03333,50.03333],[-77.025,50.03333],[-77.025,50.025],[-77.03333,50.025],[-77.03333,50.03333]]]}},{"type":"Feature","properties":{"c":"CDC-2852669","o":"CDN Maverick Capital Corp. 100%","e":""},"geometry":{"type":"Polygon","coordinates":[[[-77.025,50.0],[-77.01667,50.0],[-77.01667,49.99167],[-77.025,49.99167],[-77.025,50.0]]]}},{"type":"Feature","properties":{"c":"CDC-2852711","o":"CDN Maverick Capital Corp. 100%","e":""},"geometry":{"type":"Polygon","coordinates":[[[-77.025,50.00833],[-77.01667,50.00833],[-77.01667,50.0],[-77.025,50.0],[-77.025,50.00833]]]}},{"type":"Feature","properties":{"c":"CDC-2852717","o":"CDN Maverick Capital Corp. 100%","e":""},"geometry":{"type":"Polygon","coordinates":[[[-77.025,50.01667],[-77.01667,50.01667],[-77.01667,50.00833],[-77.025,50.00833],[-77.025,50.01667]]]}},{"type":"Feature","properties":{"c":"CDC-2852720","o":"CDN Maverick Capital Corp. 100%","e":""},"geometry":{"type":"Polygon","coordinates":[[[-77.025,50.025],[-77.01667,50.025],[-77.01667,50.01667],[-77.025,50.01667],[-77.025,50.025]]]}},{"type":"Feature","properties":{"c":"CDC-2880294","o":"CDN Maverick Capital Corp. 100%","e":""},"geometry":{"type":"Polygon","coordinates":[[[-77.025,50.03333],[-77.01667,50.03333],[-77.01667,50.025],[-77.025,50.025],[-77.025,50.03333]]]}},{"type":"Feature","properties":{"c":"CDC-2880296","o":"CDN Maverick Capital Corp. 100%","e":""},"geometry":{"type":"Polygon","coordinates":[[[-77.025,50.04167],[-77.01667,50.04167],[-77.01667,50.03333],[-77.025,50.03333],[-77.025,50.04167]]]}},{"type":"Feature","properties":{"c":"CDC-2852670","o":"CDN Maverick Capital Corp. 100%","e":""},"geometry":{"type":"Polygon","coordinates":[[[-77.01667,50.0],[-77.00833,50.0],[-77.00833,49.99167],[-77.01667,49.99167],[-77.01667,50.0]]]}},{"type":"Feature","properties":{"c":"CDC-2852712","o":"CDN Maverick Capital Corp. 100%","e":""},"geometry":{"type":"Polygon","coordinates":[[[-77.01667,50.00833],[-77.00833,50.00833],[-77.00833,50.0],[-77.01667,50.0],[-77.01667,50.00833]]]}},{"type":"Feature","properties":{"c":"CDC-2852718","o":"CDN Maverick Capital Corp. 100%","e":""},"geometry":{"type":"Polygon","coordinates":[[[-77.01667,50.01667],[-77.00833,50.01667],[-77.00833,50.00833],[-77.01667,50.00833],[-77.01667,50.01667]]]}},{"type":"Feature","properties":{"c":"CDC-2852721","o":"CDN Maverick Capital Corp. 100%","e":""},"geometry":{"type":"Polygon","coordinates":[[[-77.01667,50.025],[-77.00833,50.025],[-77.00833,50.01667],[-77.01667,50.01667],[-77.01667,50.025]]]}},{"type":"Feature","properties":{"c":"CDC-2880295","o":"CDN Maverick Capital Corp. 100%","e":""},"geometry":{"type":"Polygon","coordinates":[[[-77.01667,50.03333],[-77.00833,50.03333],[-77.00833,50.025],[-77.01667,50.025],[-77.01667,50.03333]]]}},{"type":"Feature","properties":{"c":"CDC-2880297","o":"CDN Maverick Capital Corp. 100%","e":""},"geometry":{"type":"Polygon","coordinates":[[[-77.01667,50.04167],[-77.00833,50.04167],[-77.00833,50.03333],[-77.01667,50.03333],[-77.01667,50.04167]]]}},{"type":"Feature","properties":{"c":"CDC-2852713","o":"CDN Maverick Capital Corp. 100%","e":""},"geometry":{"type":"Polygon","coordinates":[[[-77.00119,50.00833],[-77.00798,50.0002],[-77.00798,50.0],[-77.00833,50.0],[-77.00833,50.00833],[-77.00119,50.00833]]]}},{"type":"Feature","properties":{"c":"CDC-2852719","o":"CDN Maverick Capital Corp. 100%","e":""},"geometry":{"type":"Polygon","coordinates":[[[-77.0,50.01667],[-77.0,50.00975],[-77.00119,50.00833],[-77.00833,50.00833],[-77.00833,50.01667],[-77.0,50.01667]]]}},{"type":"Feature","properties":{"c":"CDC-2852722","o":"CDN Maverick Capital Corp. 100%","e":""},"geometry":{"type":"Polygon","coordinates":[[[-77.00833,50.025],[-77.0,50.025],[-77.0,50.01667],[-77.00833,50.01667],[-77.00833,50.025]]]}},{"type":"Feature","properties":{"c":"CDC-2852723","o":"CDN Maverick Capital Corp. 100%","e":""},"geometry":{"type":"Polygon","coordinates":[[[-77.00833,50.03333],[-77.0,50.03333],[-77.0,50.025],[-77.00833,50.025],[-77.00833,50.03333]]]}},{"type":"Feature","properties":{"c":"CDC-2880298","o":"CDN Maverick Capital Corp. 100%","e":""},"geometry":{"type":"Polygon","coordinates":[[[-77.00833,50.04167],[-77.0,50.04167],[-77.0,50.03333],[-77.00833,50.03333],[-77.00833,50.04167]]]}},{"type":"Feature","properties":{"c":"CDC-2836670","o":"Q2 Metals Corp. 100%","e":""},"geometry":{"type":"Polygon","coordinates":[[[-77.31667,50.49167],[-77.31667,50.48333],[-77.325,50.48333],[-77.325,50.49167],[-77.31667,50.49167]]]}},{"type":"Feature","properties":{"c":"CDC-2836686","o":"Q2 Metals Corp. 100%","e":""},"geometry":{"type":"Polygon","coordinates":[[[-77.31667,50.5],[-77.31667,50.49167],[-77.325,50.49167],[-77.325,50.5],[-77.31667,50.5]]]}},{"type":"Feature","properties":{"c":"CDC-2836671","o":"Q2 Metals Corp. 100%","e":""},"geometry":{"type":"Polygon","coordinates":[[[-77.30833,50.49167],[-77.30833,50.48333],[-77.31667,50.48333],[-77.31667,50.49167],[-77.30833,50.49167]]]}},{"type":"Feature","properties":{"c":"CDC-2836687","o":"Q2 Metals Corp. 100%","e":""},"geometry":{"type":"Polygon","coordinates":[[[-77.30833,50.5],[-77.30833,50.49167],[-77.31667,50.49167],[-77.31667,50.5],[-77.30833,50.5]]]}},{"type":"Feature","properties":{"c":"CDC-2836672","o":"Q2 Metals Corp. 100%","e":""},"geometry":{"type":"Polygon","coordinates":[[[-77.3,50.49167],[-77.3,50.48333],[-77.30833,50.48333],[-77.30833,50.49167],[-77.3,50.49167]]]}},{"type":"Feature","properties":{"c":"CDC-2836688","o":"Q2 Metals Corp. 100%","e":""},"geometry":{"type":"Polygon","coordinates":[[[-77.3,50.5],[-77.3,50.49167],[-77.30833,50.49167],[-77.30833,50.5],[-77.3,50.5]]]}},{"type":"Feature","properties":{"c":"CDC-2836673","o":"Q2 Metals Corp. 100%","e":""},"geometry":{"type":"Polygon","coordinates":[[[-77.29167,50.49167],[-77.29167,50.48333],[-77.3,50.48333],[-77.3,50.49167],[-77.29167,50.49167]]]}},{"type":"Feature","properties":{"c":"CDC-2836689","o":"Q2 Metals Corp. 100%","e":""},"geometry":{"type":"Polygon","coordinates":[[[-77.29167,50.5],[-77.29167,50.49167],[-77.3,50.49167],[-77.3,50.5],[-77.29167,50.5]]]}},{"type":"Feature","properties":{"c":"CDC-2836664","o":"Q2 Metals Corp. 100%","e":""},"geometry":{"type":"Polygon","coordinates":[[[-77.28333,50.48333],[-77.28333,50.475],[-77.29167,50.475],[-77.29167,50.48333],[-77.28333,50.48333]]]}},{"type":"Feature","properties":{"c":"CDC-2836674","o":"Q2 Metals Corp. 100%","e":""},"geometry":{"type":"Polygon","coordinates":[[[-77.28333,50.49167],[-77.28333,50.48333],[-77.29167,50.48333],[-77.29167,50.49167],[-77.28333,50.49167]]]}},{"type":"Feature","properties":{"c":"CDC-2836690","o":"Q2 Metals Corp. 100%","e":""},"geometry":{"type":"Polygon","coordinates":[[[-77.28333,50.5],[-77.28333,50.49167],[-77.29167,50.49167],[-77.29167,50.5],[-77.28333,50.5]]]}},{"type":"Feature","properties":{"c":"BEX-1753","o":"Trimix b\u00e9ton inc. 100%","e":""},"geometry":{"type":"Polygon","coordinates":[[[-77.28094,50.45777],[-77.28286,50.45832],[-77.28316,50.45954],[-77.28382,50.45996],[-77.28226,50.46124],[-77.28187,50.46157],[-77.28068,50.46168],[-77.2783,50.46054],[-77.28094,50.45777]]]}},{"type":"Feature","properties":{"c":"CDC-2836665","o":"Q2 Metals Corp. 100%","e":""},"geometry":{"type":"Polygon","coordinates":[[[-77.275,50.48333],[-77.275,50.475],[-77.28333,50.475],[-77.28333,50.48333],[-77.275,50.48333]]]}},{"type":"Feature","properties":{"c":"CDC-2836675","o":"Q2 Metals Corp. 100%","e":""},"geometry":{"type":"Polygon","coordinates":[[[-77.275,50.49167],[-77.275,50.48333],[-77.28333,50.48333],[-77.28333,50.49167],[-77.275,50.49167]]]}},{"type":"Feature","properties":{"c":"CDC-2728005","o":"Q2 Metals Corp. 100%","e":""},"geometry":{"type":"Polygon","coordinates":[[[-77.275,50.5],[-77.275,50.49167],[-77.28333,50.49167],[-77.28333,50.5],[-77.275,50.5]]]}},{"type":"Feature","properties":{"c":"CDC-2836666","o":"Q2 Metals Corp. 100%","e":""},"geometry":{"type":"Polygon","coordinates":[[[-77.26667,50.48333],[-77.26667,50.475],[-77.275,50.475],[-77.275,50.48333],[-77.26667,50.48333]]]}},{"type":"Feature","properties":{"c":"CDC-2836676","o":"Q2 Metals Corp. 100%","e":""},"geometry":{"type":"Polygon","coordinates":[[[-77.26667,50.49167],[-77.26667,50.48333],[-77.275,50.48333],[-77.275,50.49167],[-77.26667,50.49167]]]}},{"type":"Feature","properties":{"c":"CDC-2728006","o":"Q2 Metals Corp. 100%","e":""},"geometry":{"type":"Polygon","coordinates":[[[-77.26667,50.5],[-77.26667,50.49167],[-77.275,50.49167],[-77.275,50.5],[-77.26667,50.5]]]}},{"type":"Feature","properties":{"c":"CDC-2836667","o":"Q2 Metals Corp. 100%","e":""},"geometry":{"type":"Polygon","coordinates":[[[-77.25833,50.48333],[-77.25833,50.475],[-77.26667,50.475],[-77.26667,50.48333],[-77.25833,50.48333]]]}},{"type":"Feature","properties":{"c":"CDC-2836677","o":"Q2 Metals Corp. 100%","e":""},"geometry":{"type":"Polygon","coordinates":[[[-77.25833,50.49167],[-77.25833,50.48333],[-77.26667,50.48333],[-77.26667,50.49167],[-77.25833,50.49167]]]}},{"type":"Feature","properties":{"c":"CDC-2728007","o":"Q2 Metals Corp. 100%","e":""},"geometry":{"type":"Polygon","coordinates":[[[-77.25833,50.5],[-77.25833,50.49167],[-77.26667,50.49167],[-77.26667,50.5],[-77.25833,50.5]]]}},{"type":"Feature","properties":{"c":"CDC-2836659","o":"Q2 Metals Corp. 100%","e":""},"geometry":{"type":"Polygon","coordinates":[[[-77.25,50.475],[-77.25,50.46667],[-77.25833,50.46667],[-77.25833,50.475],[-77.25,50.475]]]}},{"type":"Feature","properties":{"c":"CDC-2836668","o":"Q2 Metals Corp. 100%","e":""},"geometry":{"type":"Polygon","coordinates":[[[-77.25,50.48333],[-77.25,50.475],[-77.25833,50.475],[-77.25833,50.48333],[-77.25,50.48333]]]}},{"type":"Feature","properties":{"c":"CDC-2727996","o":"Q2 Metals Corp. 100%","e":""},"geometry":{"type":"Polygon","coordinates":[[[-77.25,50.49167],[-77.25,50.48333],[-77.25833,50.48333],[-77.25833,50.49167],[-77.25,50.49167]]]}},{"type":"Feature","properties":{"c":"CDC-2728008","o":"Q2 Metals Corp. 100%","e":""},"geometry":{"type":"Polygon","coordinates":[[[-77.25,50.5],[-77.25,50.49167],[-77.25833,50.49167],[-77.25833,50.5],[-77.25,50.5]]]}},{"type":"Feature","properties":{"c":"CDC-2836660","o":"Q2 Metals Corp. 100%","e":""},"geometry":{"type":"Polygon","coordinates":[[[-77.24167,50.475],[-77.24167,50.46667],[-77.25,50.46667],[-77.25,50.475],[-77.24167,50.475]]]}},{"type":"Feature","properties":{"c":"CDC-2836669","o":"Q2 Metals Corp. 100%","e":""},"geometry":{"type":"Polygon","coordinates":[[[-77.24167,50.48333],[-77.24167,50.475],[-77.25,50.475],[-77.25,50.48333],[-77.24167,50.48333]]]}},{"type":"Feature","properties":{"c":"CDC-2727997","o":"Q2 Metals Corp. 100%","e":""},"geometry":{"type":"Polygon","coordinates":[[[-77.24167,50.49167],[-77.24167,50.48333],[-77.25,50.48333],[-77.25,50.49167],[-77.24167,50.49167]]]}},{"type":"Feature","properties":{"c":"CDC-2728009","o":"Q2 Metals Corp. 100%","e":""},"geometry":{"type":"Polygon","coordinates":[[[-77.24167,50.5],[-77.24167,50.49167],[-77.25,50.49167],[-77.25,50.5],[-77.24167,50.5]]]}},{"type":"Feature","properties":{"c":"CDC-2836661","o":"Q2 Metals Corp. 100%","e":""},"geometry":{"type":"Polygon","coordinates":[[[-77.23333,50.475],[-77.23333,50.46667],[-77.24167,50.46667],[-77.24167,50.475],[-77.23333,50.475]]]}},{"type":"Feature","properties":{"c":"CDC-2727989","o":"Q2 Metals Corp. 100%","e":""},"geometry":{"type":"Polygon","coordinates":[[[-77.23333,50.48333],[-77.23333,50.475],[-77.24167,50.475],[-77.24167,50.48333],[-77.23333,50.48333]]]}},{"type":"Feature","properties":{"c":"CDC-2727998","o":"Q2 Metals Corp. 100%","e":""},"geometry":{"type":"Polygon","coordinates":[[[-77.23333,50.49167],[-77.23333,50.48333],[-77.24167,50.48333],[-77.24167,50.49167],[-77.23333,50.49167]]]}},{"type":"Feature","properties":{"c":"CDC-2728010","o":"Q2 Metals Corp. 100%","e":""},"geometry":{"type":"Polygon","coordinates":[[[-77.23333,50.5],[-77.23333,50.49167],[-77.24167,50.49167],[-77.24167,50.5],[-77.23333,50.5]]]}},{"type":"Feature","properties":{"c":"CDC-2836662","o":"Q2 Metals Corp. 100%","e":""},"geometry":{"type":"Polygon","coordinates":[[[-77.225,50.475],[-77.225,50.46667],[-77.23333,50.46667],[-77.23333,50.475],[-77.225,50.475]]]}},{"type":"Feature","properties":{"c":"CDC-2727990","o":"Q2 Metals Corp. 100%","e":""},"geometry":{"type":"Polygon","coordinates":[[[-77.225,50.48333],[-77.225,50.475],[-77.23333,50.475],[-77.23333,50.48333],[-77.225,50.48333]]]}},{"type":"Feature","properties":{"c":"CDC-2727999","o":"Q2 Metals Corp. 100%","e":""},"geometry":{"type":"Polygon","coordinates":[[[-77.225,50.49167],[-77.225,50.48333],[-77.23333,50.48333],[-77.23333,50.49167],[-77.225,50.49167]]]}},{"type":"Feature","properties":{"c":"CDC-2728011","o":"Q2 Metals Corp. 100%","e":""},"geometry":{"type":"Polygon","coordinates":[[[-77.225,50.5],[-77.225,50.49167],[-77.23333,50.49167],[-77.23333,50.5],[-77.225,50.5]]]}},{"type":"Feature","properties":{"c":"CDC-2836663","o":"Q2 Metals Corp. 100%","e":""},"geometry":{"type":"Polygon","coordinates":[[[-77.21667,50.475],[-77.21667,50.46667],[-77.225,50.46667],[-77.225,50.475],[-77.21667,50.475]]]}},{"type":"Feature","properties":{"c":"CDC-2727991","o":"Q2 Metals Corp. 100%","e":""},"geometry":{"type":"Polygon","coordinates":[[[-77.21667,50.48333],[-77.21667,50.475],[-77.225,50.475],[-77.225,50.48333],[-77.21667,50.48333]]]}},{"type":"Feature","properties":{"c":"CDC-2728000","o":"Q2 Metals Corp. 100%","e":""},"geometry":{"type":"Polygon","coordinates":[[[-77.21667,50.49167],[-77.21667,50.48333],[-77.225,50.48333],[-77.225,50.49167],[-77.21667,50.49167]]]}},{"type":"Feature","properties":{"c":"CDC-2728012","o":"Q2 Metals Corp. 100%","e":""},"geometry":{"type":"Polygon","coordinates":[[[-77.21667,50.5],[-77.21667,50.49167],[-77.225,50.49167],[-77.225,50.5],[-77.21667,50.5]]]}},{"type":"Feature","properties":{"c":"CDC-2836657","o":"Q2 Metals Corp. 100%","e":""},"geometry":{"type":"Polygon","coordinates":[[[-77.20833,50.46667],[-77.20833,50.45833],[-77.21667,50.45833],[-77.21667,50.46667],[-77.20833,50.46667]]]}},{"type":"Feature","properties":{"c":"CDC-2727985","o":"Q2 Metals Corp. 100%","e":""},"geometry":{"type":"Polygon","coordinates":[[[-77.20833,50.475],[-77.20833,50.46667],[-77.21667,50.46667],[-77.21667,50.475],[-77.20833,50.475]]]}},{"type":"Feature","properties":{"c":"CDC-2727992","o":"Q2 Metals Corp. 100%","e":""},"geometry":{"type":"Polygon","coordinates":[[[-77.20833,50.48333],[-77.20833,50.475],[-77.21667,50.475],[-77.21667,50.48333],[-77.20833,50.48333]]]}},{"type":"Feature","properties":{"c":"CDC-2728001","o":"Q2 Metals Corp. 100%","e":""},"geometry":{"type":"Polygon","coordinates":[[[-77.20833,50.49167],[-77.20833,50.48333],[-77.21667,50.48333],[-77.21667,50.49167],[-77.20833,50.49167]]]}},{"type":"Feature","properties":{"c":"CDC-2728013","o":"Q2 Metals Corp. 100%","e":""},"geometry":{"type":"Polygon","coordinates":[[[-77.20833,50.5],[-77.20833,50.49167],[-77.21667,50.49167],[-77.21667,50.5],[-77.20833,50.5]]]}},{"type":"Feature","properties":{"c":"CDC-2836658","o":"Q2 Metals Corp. 100%","e":""},"geometry":{"type":"Polygon","coordinates":[[[-77.2,50.46667],[-77.2,50.45833],[-77.20833,50.45833],[-77.20833,50.46667],[-77.2,50.46667]]]}},{"type":"Feature","properties":{"c":"CDC-2727986","o":"Q2 Metals Corp. 100%","e":""},"geometry":{"type":"Polygon","coordinates":[[[-77.2,50.475],[-77.2,50.46667],[-77.20833,50.46667],[-77.20833,50.475],[-77.2,50.475]]]}},{"type":"Feature","properties":{"c":"CDC-2727993","o":"Q2 Metals Corp. 100%","e":""},"geometry":{"type":"Polygon","coordinates":[[[-77.2,50.48333],[-77.2,50.475],[-77.20833,50.475],[-77.20833,50.48333],[-77.2,50.48333]]]}},{"type":"Feature","properties":{"c":"CDC-2728002","o":"Q2 Metals Corp. 100%","e":""},"geometry":{"type":"Polygon","coordinates":[[[-77.2,50.49167],[-77.2,50.48333],[-77.20833,50.48333],[-77.20833,50.49167],[-77.2,50.49167]]]}},{"type":"Feature","properties":{"c":"CDC-2728014","o":"Q2 Metals Corp. 100%","e":""},"geometry":{"type":"Polygon","coordinates":[[[-77.2,50.5],[-77.2,50.49167],[-77.20833,50.49167],[-77.20833,50.5],[-77.2,50.5]]]}},{"type":"Feature","properties":{"c":"CDC-2727983","o":"Q2 Metals Corp. 100%","e":""},"geometry":{"type":"Polygon","coordinates":[[[-77.19167,50.46667],[-77.19167,50.45833],[-77.2,50.45833],[-77.2,50.46667],[-77.19167,50.46667]]]}},{"type":"Feature","properties":{"c":"CDC-2727987","o":"Q2 Metals Corp. 100%","e":""},"geometry":{"type":"Polygon","coordinates":[[[-77.19167,50.475],[-77.19167,50.46667],[-77.2,50.46667],[-77.2,50.475],[-77.19167,50.475]]]}},{"type":"Feature","properties":{"c":"CDC-2727994","o":"Q2 Metals Corp. 100%","e":""},"geometry":{"type":"Polygon","coordinates":[[[-77.19167,50.48333],[-77.19167,50.475],[-77.2,50.475],[-77.2,50.48333],[-77.19167,50.48333]]]}},{"type":"Feature","properties":{"c":"CDC-2728003","o":"Q2 Metals Corp. 100%","e":""},"geometry":{"type":"Polygon","coordinates":[[[-77.19167,50.49167],[-77.19167,50.48333],[-77.2,50.48333],[-77.2,50.49167],[-77.19167,50.49167]]]}},{"type":"Feature","properties":{"c":"CDC-2728015","o":"Q2 Metals Corp. 100%","e":""},"geometry":{"type":"Polygon","coordinates":[[[-77.19167,50.5],[-77.19167,50.49167],[-77.2,50.49167],[-77.2,50.5],[-77.19167,50.5]]]}},{"type":"Feature","properties":{"c":"CDC-2727984","o":"Q2 Metals Corp. 100%","e":""},"geometry":{"type":"Polygon","coordinates":[[[-77.18333,50.46667],[-77.18333,50.45833],[-77.19167,50.45833],[-77.19167,50.46667],[-77.18333,50.46667]]]}},{"type":"Feature","properties":{"c":"CDC-2727988","o":"Q2 Metals Corp. 100%","e":""},"geometry":{"type":"Polygon","coordinates":[[[-77.18333,50.475],[-77.18333,50.46667],[-77.19167,50.46667],[-77.19167,50.475],[-77.18333,50.475]]]}},{"type":"Feature","properties":{"c":"CDC-2727995","o":"Q2 Metals Corp. 100%","e":""},"geometry":{"type":"Polygon","coordinates":[[[-77.18333,50.48333],[-77.18333,50.475],[-77.19167,50.475],[-77.19167,50.48333],[-77.18333,50.48333]]]}},{"type":"Feature","properties":{"c":"CDC-2728004","o":"Q2 Metals Corp. 100%","e":""},"geometry":{"type":"Polygon","coordinates":[[[-77.18333,50.49167],[-77.18333,50.48333],[-77.19167,50.48333],[-77.19167,50.49167],[-77.18333,50.49167]]]}},{"type":"Feature","properties":{"c":"CDC-2728016","o":"Q2 Metals Corp. 100%","e":""},"geometry":{"type":"Polygon","coordinates":[[[-77.18333,50.5],[-77.18333,50.49167],[-77.19167,50.49167],[-77.19167,50.5],[-77.18333,50.5]]]}},{"type":"Feature","properties":{"c":"CDC-2872004","o":"eagles maxwell 100%","e":""},"geometry":{"type":"Polygon","coordinates":[[[-77.175,50.46667],[-77.175,50.45833],[-77.18333,50.45833],[-77.18333,50.46667],[-77.175,50.46667]]]}},{"type":"Feature","properties":{"c":"CDC-2872012","o":"eagles maxwell 100%","e":""},"geometry":{"type":"Polygon","coordinates":[[[-77.175,50.475],[-77.175,50.46667],[-77.18333,50.46667],[-77.18333,50.475],[-77.175,50.475]]]}},{"type":"Feature","properties":{"c":"CDC-2872020","o":"eagles maxwell 100%","e":""},"geometry":{"type":"Polygon","coordinates":[[[-77.175,50.48333],[-77.175,50.475],[-77.18333,50.475],[-77.18333,50.48333],[-77.175,50.48333]]]}},{"type":"Feature","properties":{"c":"CDC-2872027","o":"eagles maxwell 100%","e":""},"geometry":{"type":"Polygon","coordinates":[[[-77.175,50.49167],[-77.175,50.48333],[-77.18333,50.48333],[-77.18333,50.49167],[-77.175,50.49167]]]}},{"type":"Feature","properties":{"c":"CDC-2872034","o":"eagles maxwell 100%","e":""},"geometry":{"type":"Polygon","coordinates":[[[-77.175,50.5],[-77.175,50.49167],[-77.18333,50.49167],[-77.18333,50.5],[-77.175,50.5]]]}},{"type":"Feature","properties":{"c":"CDC-2872005","o":"eagles maxwell 100%","e":""},"geometry":{"type":"Polygon","coordinates":[[[-77.16667,50.46667],[-77.16667,50.45833],[-77.175,50.45833],[-77.175,50.46667],[-77.16667,50.46667]]]}},{"type":"Feature","properties":{"c":"CDC-2872013","o":"eagles maxwell 100%","e":""},"geometry":{"type":"Polygon","coordinates":[[[-77.16667,50.475],[-77.16667,50.46667],[-77.175,50.46667],[-77.175,50.475],[-77.16667,50.475]]]}},{"type":"Feature","properties":{"c":"CDC-2872021","o":"eagles maxwell 100%","e":""},"geometry":{"type":"Polygon","coordinates":[[[-77.16667,50.48333],[-77.16667,50.475],[-77.175,50.475],[-77.175,50.48333],[-77.16667,50.48333]]]}},{"type":"Feature","properties":{"c":"CDC-2872028","o":"eagles maxwell 100%","e":""},"geometry":{"type":"Polygon","coordinates":[[[-77.16667,50.49167],[-77.16667,50.48333],[-77.175,50.48333],[-77.175,50.49167],[-77.16667,50.49167]]]}},{"type":"Feature","properties":{"c":"CDC-2872035","o":"eagles maxwell 100%","e":""},"geometry":{"type":"Polygon","coordinates":[[[-77.16667,50.5],[-77.16667,50.49167],[-77.175,50.49167],[-77.175,50.5],[-77.16667,50.5]]]}},{"type":"Feature","properties":{"c":"CDC-2872006","o":"eagles maxwell 100%","e":""},"geometry":{"type":"Polygon","coordinates":[[[-77.15833,50.46667],[-77.15833,50.45833],[-77.16667,50.45833],[-77.16667,50.46667],[-77.15833,50.46667]]]}},{"type":"Feature","properties":{"c":"CDC-2872014","o":"eagles maxwell 100%","e":""},"geometry":{"type":"Polygon","coordinates":[[[-77.15833,50.475],[-77.15833,50.46667],[-77.16667,50.46667],[-77.16667,50.475],[-77.15833,50.475]]]}},{"type":"Feature","properties":{"c":"CDC-2872022","o":"eagles maxwell 100%","e":""},"geometry":{"type":"Polygon","coordinates":[[[-77.15833,50.48333],[-77.15833,50.475],[-77.16667,50.475],[-77.16667,50.48333],[-77.15833,50.48333]]]}},{"type":"Feature","properties":{"c":"CDC-2872029","o":"eagles maxwell 100%","e":""},"geometry":{"type":"Polygon","coordinates":[[[-77.15833,50.49167],[-77.15833,50.48333],[-77.16667,50.48333],[-77.16667,50.49167],[-77.15833,50.49167]]]}},{"type":"Feature","properties":{"c":"CDC-2872036","o":"eagles maxwell 100%","e":""},"geometry":{"type":"Polygon","coordinates":[[[-77.15833,50.5],[-77.15833,50.49167],[-77.16667,50.49167],[-77.16667,50.5],[-77.15833,50.5]]]}},{"type":"Feature","properties":{"c":"CDC-2872007","o":"eagles maxwell 100%","e":""},"geometry":{"type":"Polygon","coordinates":[[[-77.15,50.46667],[-77.15,50.45833],[-77.15833,50.45833],[-77.15833,50.46667],[-77.15,50.46667]]]}},{"type":"Feature","properties":{"c":"CDC-2872015","o":"eagles maxwell 100%","e":""},"geometry":{"type":"Polygon","coordinates":[[[-77.15,50.475],[-77.15,50.46667],[-77.15833,50.46667],[-77.15833,50.475],[-77.15,50.475]]]}},{"type":"Feature","properties":{"c":"CDC-2872023","o":"eagles maxwell 100%","e":""},"geometry":{"type":"Polygon","coordinates":[[[-77.15,50.48333],[-77.15,50.475],[-77.15833,50.475],[-77.15833,50.48333],[-77.15,50.48333]]]}},{"type":"Feature","properties":{"c":"CDC-2872030","o":"eagles maxwell 100%","e":""},"geometry":{"type":"Polygon","coordinates":[[[-77.15,50.49167],[-77.15,50.48333],[-77.15833,50.48333],[-77.15833,50.49167],[-77.15,50.49167]]]}},{"type":"Feature","properties":{"c":"CDC-2872037","o":"eagles maxwell 100%","e":""},"geometry":{"type":"Polygon","coordinates":[[[-77.15,50.5],[-77.15,50.49167],[-77.15833,50.49167],[-77.15833,50.5],[-77.15,50.5]]]}},{"type":"Feature","properties":{"c":"CDC-2872016","o":"eagles maxwell 100%","e":""},"geometry":{"type":"Polygon","coordinates":[[[-77.14167,50.475],[-77.14167,50.46667],[-77.15,50.46667],[-77.15,50.475],[-77.14167,50.475]]]}},{"type":"Feature","properties":{"c":"CDC-2872024","o":"eagles maxwell 100%","e":""},"geometry":{"type":"Polygon","coordinates":[[[-77.14167,50.48333],[-77.14167,50.475],[-77.15,50.475],[-77.15,50.48333],[-77.14167,50.48333]]]}},{"type":"Feature","properties":{"c":"CDC-2872031","o":"eagles maxwell 100%","e":""},"geometry":{"type":"Polygon","coordinates":[[[-77.14167,50.49167],[-77.14167,50.48333],[-77.15,50.48333],[-77.15,50.49167],[-77.14167,50.49167]]]}},{"type":"Feature","properties":{"c":"CDC-2872038","o":"eagles maxwell 100%","e":""},"geometry":{"type":"Polygon","coordinates":[[[-77.14167,50.5],[-77.14167,50.49167],[-77.15,50.49167],[-77.15,50.5],[-77.14167,50.5]]]}},{"type":"Feature","properties":{"c":"CDC-2872017","o":"eagles maxwell 100%","e":""},"geometry":{"type":"Polygon","coordinates":[[[-77.13333,50.475],[-77.13333,50.46667],[-77.14167,50.46667],[-77.14167,50.475],[-77.13333,50.475]]]}},{"type":"Feature","properties":{"c":"CDC-2872025","o":"eagles maxwell 100%","e":""},"geometry":{"type":"Polygon","coordinates":[[[-77.13333,50.48333],[-77.13333,50.475],[-77.14167,50.475],[-77.14167,50.48333],[-77.13333,50.48333]]]}},{"type":"Feature","properties":{"c":"CDC-2872032","o":"eagles maxwell 100%","e":""},"geometry":{"type":"Polygon","coordinates":[[[-77.13333,50.49167],[-77.13333,50.48333],[-77.14167,50.48333],[-77.14167,50.49167],[-77.13333,50.49167]]]}},{"type":"Feature","properties":{"c":"CDC-2872039","o":"eagles maxwell 100%","e":""},"geometry":{"type":"Polygon","coordinates":[[[-77.13333,50.5],[-77.13333,50.49167],[-77.14167,50.49167],[-77.14167,50.5],[-77.13333,50.5]]]}},{"type":"Feature","properties":{"c":"CDC-2872018","o":"eagles maxwell 100%","e":""},"geometry":{"type":"Polygon","coordinates":[[[-77.125,50.475],[-77.125,50.46667],[-77.13333,50.46667],[-77.13333,50.475],[-77.125,50.475]]]}},{"type":"Feature","properties":{"c":"CDC-2872026","o":"eagles maxwell 100%","e":""},"geometry":{"type":"Polygon","coordinates":[[[-77.125,50.48333],[-77.125,50.475],[-77.13333,50.475],[-77.13333,50.48333],[-77.125,50.48333]]]}},{"type":"Feature","properties":{"c":"CDC-2872033","o":"eagles maxwell 100%","e":""},"geometry":{"type":"Polygon","coordinates":[[[-77.125,50.49167],[-77.125,50.48333],[-77.13333,50.48333],[-77.13333,50.49167],[-77.125,50.49167]]]}},{"type":"Feature","properties":{"c":"CDC-2872040","o":"eagles maxwell 100%","e":""},"geometry":{"type":"Polygon","coordinates":[[[-77.125,50.5],[-77.125,50.49167],[-77.13333,50.49167],[-77.13333,50.5],[-77.125,50.5]]]}},{"type":"Feature","properties":{"c":"CDC-2872019","o":"eagles maxwell 100%","e":""},"geometry":{"type":"Polygon","coordinates":[[[-77.11667,50.475],[-77.11667,50.46667],[-77.125,50.46667],[-77.125,50.475],[-77.11667,50.475]]]}},{"type":"Feature","properties":{"c":"CDC-2877340","o":"Lauren Furman 100%","e":""},"geometry":{"type":"Polygon","coordinates":[[[-77.11904,50.48333],[-77.11945,50.48312],[-77.11965,50.48283],[-77.11966,50.48238],[-77.11986,50.48162],[-77.11981,50.48124],[-77.11978,50.48103],[-77.11952,50.48069],[-77.11909,50.48043],[-77.1187,50.48013],[-77.1186,50.47995],[-77.11858,50.47956],[-77.11867,50.47936],[-77.11853,50.47907],[-77.11853,50.47898],[-77.11865,50.47879],[-77.119,50.47851],[-77.1193,50.47816],[-77.11926,50.47779],[-77.11874,50.47692],[-77.11869,50.47642],[-77.11898,50.47582],[-77.11898,50.47562],[-77.11883,50.4754],[-77.11865,50.47523],[-77.11849,50.47514],[-77.11838,50.47512],[-77.11757,50.4751],[-77.11686,50.47515],[-77.11667,50.47512],[-77.11667,50.475],[-77.125,50.475],[-77.125,50.48333],[-77.11904,50.48333]]]}},{"type":"Feature","properties":{"c":"CDC-2877341","o":"Lauren Furman 100%","e":""},"geometry":{"type":"Polygon","coordinates":[[[-77.11667,50.48592],[-77.1168,50.48585],[-77.11727,50.48549],[-77.11766,50.48504],[-77.11783,50.48465],[-77.11782,50.48438],[-77.118,50.48412],[-77.11888,50.48342],[-77.11904,50.48333],[-77.125,50.48333],[-77.125,50.49167],[-77.11667,50.49167],[-77.11667,50.48592]]]}},{"type":"Feature","properties":{"c":"CDC-2872041","o":"eagles maxwell 100%","e":""},"geometry":{"type":"Polygon","coordinates":[[[-77.11667,50.5],[-77.11667,50.49167],[-77.125,50.49167],[-77.125,50.5],[-77.11667,50.5]]]}},{"type":"Feature","properties":{"c":"CDC-2872158","o":"Lauren Furman 100%","e":""},"geometry":{"type":"Polygon","coordinates":[[[-77.06667,50.475],[-77.06667,50.46667],[-77.075,50.46667],[-77.075,50.475],[-77.06667,50.475]]]}},{"type":"Feature","properties":{"c":"CDC-2872165","o":"Lauren Furman 100%","e":""},"geometry":{"type":"Polygon","coordinates":[[[-77.06667,50.48333],[-77.06667,50.475],[-77.075,50.475],[-77.075,50.48333],[-77.06667,50.48333]]]}},{"type":"Feature","properties":{"c":"CDC-2872172","o":"Lauren Furman 100%","e":""},"geometry":{"type":"Polygon","coordinates":[[[-77.06667,50.49167],[-77.06667,50.48333],[-77.075,50.48333],[-77.075,50.49167],[-77.06667,50.49167]]]}},{"type":"Feature","properties":{"c":"CDC-2872181","o":"Lauren Furman 100%","e":""},"geometry":{"type":"Polygon","coordinates":[[[-77.06667,50.5],[-77.06667,50.49167],[-77.075,50.49167],[-77.075,50.5],[-77.06667,50.5]]]}},{"type":"Feature","properties":{"c":"CDC-2872159","o":"Lauren Furman 100%","e":""},"geometry":{"type":"Polygon","coordinates":[[[-77.05833,50.475],[-77.05833,50.46667],[-77.06667,50.46667],[-77.06667,50.475],[-77.05833,50.475]]]}},{"type":"Feature","properties":{"c":"CDC-2872166","o":"Lauren Furman 100%","e":""},"geometry":{"type":"Polygon","coordinates":[[[-77.05833,50.48333],[-77.05833,50.475],[-77.06667,50.475],[-77.06667,50.48333],[-77.05833,50.48333]]]}},{"type":"Feature","properties":{"c":"CDC-2872173","o":"Lauren Furman 100%","e":""},"geometry":{"type":"Polygon","coordinates":[[[-77.05833,50.49167],[-77.05833,50.48333],[-77.06667,50.48333],[-77.06667,50.49167],[-77.05833,50.49167]]]}},{"type":"Feature","properties":{"c":"CDC-2872182","o":"Lauren Furman 100%","e":""},"geometry":{"type":"Polygon","coordinates":[[[-77.05833,50.5],[-77.05833,50.49167],[-77.06667,50.49167],[-77.06667,50.5],[-77.05833,50.5]]]}},{"type":"Feature","properties":{"c":"CDC-2872160","o":"Lauren Furman 100%","e":""},"geometry":{"type":"Polygon","coordinates":[[[-77.05,50.475],[-77.05,50.46667],[-77.05833,50.46667],[-77.05833,50.475],[-77.05,50.475]]]}},{"type":"Feature","properties":{"c":"CDC-2872167","o":"Lauren Furman 100%","e":""},"geometry":{"type":"Polygon","coordinates":[[[-77.05,50.48333],[-77.05,50.475],[-77.05833,50.475],[-77.05833,50.48333],[-77.05,50.48333]]]}},{"type":"Feature","properties":{"c":"CDC-2872174","o":"Lauren Furman 100%","e":""},"geometry":{"type":"Polygon","coordinates":[[[-77.05,50.49167],[-77.05,50.48333],[-77.05833,50.48333],[-77.05833,50.49167],[-77.05,50.49167]]]}},{"type":"Feature","properties":{"c":"CDC-2872183","o":"Lauren Furman 100%","e":""},"geometry":{"type":"Polygon","coordinates":[[[-77.05,50.5],[-77.05,50.49167],[-77.05833,50.49167],[-77.05833,50.5],[-77.05,50.5]]]}},{"type":"Feature","properties":{"c":"CDC-2872161","o":"Lauren Furman 100%","e":""},"geometry":{"type":"Polygon","coordinates":[[[-77.04167,50.475],[-77.04167,50.46667],[-77.05,50.46667],[-77.05,50.475],[-77.04167,50.475]]]}},{"type":"Feature","properties":{"c":"CDC-2872168","o":"Lauren Furman 100%","e":""},"geometry":{"type":"Polygon","coordinates":[[[-77.04167,50.48333],[-77.04167,50.475],[-77.05,50.475],[-77.05,50.48333],[-77.04167,50.48333]]]}},{"type":"Feature","properties":{"c":"CDC-2872175","o":"Lauren Furman 100%","e":""},"geometry":{"type":"Polygon","coordinates":[[[-77.04167,50.49167],[-77.04167,50.48333],[-77.05,50.48333],[-77.05,50.49167],[-77.04167,50.49167]]]}},{"type":"Feature","properties":{"c":"CDC-2872184","o":"Lauren Furman 100%","e":""},"geometry":{"type":"Polygon","coordinates":[[[-77.04167,50.5],[-77.04167,50.49167],[-77.05,50.49167],[-77.05,50.5],[-77.04167,50.5]]]}},{"type":"Feature","properties":{"c":"CDC-2872162","o":"Lauren Furman 100%","e":""},"geometry":{"type":"Polygon","coordinates":[[[-77.03333,50.475],[-77.03333,50.46667],[-77.04167,50.46667],[-77.04167,50.475],[-77.03333,50.475]]]}},{"type":"Feature","properties":{"c":"CDC-2872169","o":"Lauren Furman 100%","e":""},"geometry":{"type":"Polygon","coordinates":[[[-77.03333,50.48333],[-77.03333,50.475],[-77.04167,50.475],[-77.04167,50.48333],[-77.03333,50.48333]]]}},{"type":"Feature","properties":{"c":"CDC-2872176","o":"Lauren Furman 100%","e":""},"geometry":{"type":"Polygon","coordinates":[[[-77.03333,50.49167],[-77.03333,50.48333],[-77.04167,50.48333],[-77.04167,50.49167],[-77.03333,50.49167]]]}},{"type":"Feature","properties":{"c":"CDC-2872185","o":"Lauren Furman 100%","e":""},"geometry":{"type":"Polygon","coordinates":[[[-77.03333,50.5],[-77.03333,50.49167],[-77.04167,50.49167],[-77.04167,50.5],[-77.03333,50.5]]]}},{"type":"Feature","properties":{"c":"CDC-2875746","o":"CDN Maverick Capital Corp. 100%","e":""},"geometry":{"type":"Polygon","coordinates":[[[-77.025,50.475],[-77.025,50.46667],[-77.03333,50.46667],[-77.03333,50.475],[-77.025,50.475]]]}},{"type":"Feature","properties":{"c":"CDC-2875749","o":"CDN Maverick Capital Corp. 100%","e":""},"geometry":{"type":"Polygon","coordinates":[[[-77.025,50.48333],[-77.025,50.475],[-77.03333,50.475],[-77.03333,50.48333],[-77.025,50.48333]]]}},{"type":"Feature","properties":{"c":"CDC-2875753","o":"CDN Maverick Capital Corp. 100%","e":""},"geometry":{"type":"Polygon","coordinates":[[[-77.025,50.49167],[-77.025,50.48333],[-77.03333,50.48333],[-77.03333,50.49167],[-77.025,50.49167]]]}},{"type":"Feature","properties":{"c":"CDC-2875757","o":"CDN Maverick Capital Corp. 100%","e":""},"geometry":{"type":"Polygon","coordinates":[[[-77.025,50.5],[-77.025,50.49167],[-77.03333,50.49167],[-77.03333,50.5],[-77.025,50.5]]]}},{"type":"Feature","properties":{"c":"CDC-2875747","o":"CDN Maverick Capital Corp. 100%","e":""},"geometry":{"type":"Polygon","coordinates":[[[-77.01667,50.475],[-77.01667,50.46667],[-77.025,50.46667],[-77.025,50.475],[-77.01667,50.475]]]}},{"type":"Feature","properties":{"c":"CDC-2875750","o":"CDN Maverick Capital Corp. 100%","e":""},"geometry":{"type":"Polygon","coordinates":[[[-77.01667,50.48333],[-77.01667,50.475],[-77.025,50.475],[-77.025,50.48333],[-77.01667,50.48333]]]}},{"type":"Feature","properties":{"c":"CDC-2875754","o":"CDN Maverick Capital Corp. 100%","e":""},"geometry":{"type":"Polygon","coordinates":[[[-77.01667,50.49167],[-77.01667,50.48333],[-77.025,50.48333],[-77.025,50.49167],[-77.01667,50.49167]]]}},{"type":"Feature","properties":{"c":"CDC-2875758","o":"CDN Maverick Capital Corp. 100%","e":""},"geometry":{"type":"Polygon","coordinates":[[[-77.01667,50.5],[-77.01667,50.49167],[-77.025,50.49167],[-77.025,50.5],[-77.01667,50.5]]]}},{"type":"Feature","properties":{"c":"CDC-2875748","o":"CDN Maverick Capital Corp. 100%","e":""},"geometry":{"type":"Polygon","coordinates":[[[-77.00833,50.475],[-77.00833,50.46667],[-77.01667,50.46667],[-77.01667,50.475],[-77.00833,50.475]]]}},{"type":"Feature","properties":{"c":"CDC-2875751","o":"CDN Maverick Capital Corp. 100%","e":""},"geometry":{"type":"Polygon","coordinates":[[[-77.00833,50.48333],[-77.00833,50.475],[-77.01667,50.475],[-77.01667,50.48333],[-77.00833,50.48333]]]}},{"type":"Feature","properties":{"c":"CDC-2875755","o":"CDN Maverick Capital Corp. 100%","e":""},"geometry":{"type":"Polygon","coordinates":[[[-77.00833,50.49167],[-77.00833,50.48333],[-77.01667,50.48333],[-77.01667,50.49167],[-77.00833,50.49167]]]}},{"type":"Feature","properties":{"c":"CDC-2875759","o":"CDN Maverick Capital Corp. 100%","e":""},"geometry":{"type":"Polygon","coordinates":[[[-77.00833,50.5],[-77.00833,50.49167],[-77.01667,50.49167],[-77.01667,50.5],[-77.00833,50.5]]]}},{"type":"Feature","properties":{"c":"CDC-2880739","o":"CDN Maverick Capital Corp. 100%","e":""},"geometry":{"type":"Polygon","coordinates":[[[-77.0,50.475],[-77.0,50.46667],[-77.00833,50.46667],[-77.00833,50.475],[-77.0,50.475]]]}},{"type":"Feature","properties":{"c":"CDC-2875752","o":"CDN Maverick Capital Corp. 100%","e":""},"geometry":{"type":"Polygon","coordinates":[[[-77.0,50.48333],[-77.0,50.475],[-77.00833,50.475],[-77.00833,50.48333],[-77.0,50.48333]]]}},{"type":"Feature","properties":{"c":"CDC-2875756","o":"CDN Maverick Capital Corp. 100%","e":""},"geometry":{"type":"Polygon","coordinates":[[[-77.0,50.49167],[-77.0,50.48333],[-77.00833,50.48333],[-77.00833,50.49167],[-77.0,50.49167]]]}},{"type":"Feature","properties":{"c":"CDC-2875760","o":"CDN Maverick Capital Corp. 100%","e":""},"geometry":{"type":"Polygon","coordinates":[[[-77.0,50.5],[-77.0,50.49167],[-77.00833,50.49167],[-77.00833,50.5],[-77.0,50.5]]]}},{"type":"Feature","properties":{"c":"CDC-2872146","o":"Lauren Furman 100%","e":""},"geometry":{"type":"Polygon","coordinates":[[[-77.10833,50.46667],[-77.10833,50.45833],[-77.11667,50.45833],[-77.11667,50.46667],[-77.10833,50.46667]]]}},{"type":"Feature","properties":{"c":"CDC-2877342","o":"Lauren Furman 100%","e":""},"geometry":{"type":"Polygon","coordinates":[[[-77.11398,50.49167],[-77.11401,50.49169],[-77.11423,50.49191],[-77.11433,50.49186],[-77.11466,50.49167],[-77.11667,50.49167],[-77.11667,50.5],[-77.10833,50.5],[-77.10833,50.49167],[-77.11398,50.49167]]]}},{"type":"Feature","properties":{"c":"CDC-2872147","o":"Lauren Furman 100%","e":""},"geometry":{"type":"Polygon","coordinates":[[[-77.1,50.46667],[-77.1,50.45833],[-77.10833,50.45833],[-77.10833,50.46667],[-77.1,50.46667]]]}},{"type":"Feature","properties":{"c":"CDC-2872177","o":"Lauren Furman 100%","e":""},"geometry":{"type":"Polygon","coordinates":[[[-77.1,50.5],[-77.1,50.49167],[-77.10833,50.49167],[-77.10833,50.5],[-77.1,50.5]]]}},{"type":"Feature","properties":{"c":"CDC-2872148","o":"Lauren Furman 100%","e":""},"geometry":{"type":"Polygon","coordinates":[[[-77.09167,50.46667],[-77.09167,50.45833],[-77.1,50.45833],[-77.1,50.46667],[-77.09167,50.46667]]]}},{"type":"Feature","properties":{"c":"CDC-2877339","o":"Lauren Furman 100%","e":""},"geometry":{"type":"Polygon","coordinates":[[[-77.1,50.47019],[-77.09965,50.47064],[-77.09932,50.47084],[-77.09873,50.47111],[-77.09774,50.47111],[-77.09766,50.4711],[-77.09736,50.47104],[-77.09742,50.47126],[-77.09739,50.47138],[-77.09727,50.47163],[-77.09722,50.47172],[-77.09719,50.47176],[-77.09717,50.4718],[-77.09718,50.47192],[-77.09716,50.47195],[-77.09716,50.47206],[-77.09707,50.47211],[-77.09695,50.47225],[-77.09676,50.47249],[-77.09658,50.47276],[-77.09646,50.47295],[-77.0961,50.4735],[-77.096,50.47357],[-77.09572,50.47377],[-77.09544,50.47431],[-77.09539,50.47447],[-77.09539,50.47451],[-77.09536,50.47458],[-77.09524,50.47472],[-77.0951,50.47488],[-77.09499,50.475],[-77.09167,50.475],[-77.09167,50.46667],[-77.1,50.46667],[-77.1,50.47019]]]}},{"type":"Feature","properties":{"c":"CDC-2872178","o":"Lauren Furman 100%","e":""},"geometry":{"type":"Polygon","coordinates":[[[-77.09167,50.5],[-77.09167,50.49167],[-77.1,50.49167],[-77.1,50.5],[-77.09167,50.5]]]}},{"type":"Feature","properties":{"c":"CDC-2872149","o":"Lauren Furman 100%","e":""},"geometry":{"type":"Polygon","coordinates":[[[-77.08333,50.46667],[-77.08333,50.45833],[-77.09167,50.45833],[-77.09167,50.46667],[-77.08333,50.46667]]]}},{"type":"Feature","properties":{"c":"CDC-2872156","o":"Lauren Furman 100%","e":""},"geometry":{"type":"Polygon","coordinates":[[[-77.08333,50.475],[-77.08333,50.46667],[-77.09167,50.46667],[-77.09167,50.475],[-77.08333,50.475]]]}},{"type":"Feature","properties":{"c":"CDC-2872163","o":"Lauren Furman 100%","e":""},"geometry":{"type":"Polygon","coordinates":[[[-77.08333,50.48333],[-77.08333,50.475],[-77.09167,50.475],[-77.09167,50.48333],[-77.08333,50.48333]]]}},{"type":"Feature","properties":{"c":"CDC-2872170","o":"Lauren Furman 100%","e":""},"geometry":{"type":"Polygon","coordinates":[[[-77.08333,50.49167],[-77.08333,50.48333],[-77.09167,50.48333],[-77.09167,50.49167],[-77.08333,50.49167]]]}},{"type":"Feature","properties":{"c":"CDC-2872179","o":"Lauren Furman 100%","e":""},"geometry":{"type":"Polygon","coordinates":[[[-77.08333,50.5],[-77.08333,50.49167],[-77.09167,50.49167],[-77.09167,50.5],[-77.08333,50.5]]]}},{"type":"Feature","properties":{"c":"CDC-2872150","o":"Lauren Furman 100%","e":""},"geometry":{"type":"Polygon","coordinates":[[[-77.075,50.46667],[-77.075,50.45833],[-77.08333,50.45833],[-77.08333,50.46667],[-77.075,50.46667]]]}},{"type":"Feature","properties":{"c":"CDC-2872157","o":"Lauren Furman 100%","e":""},"geometry":{"type":"Polygon","coordinates":[[[-77.075,50.475],[-77.075,50.46667],[-77.08333,50.46667],[-77.08333,50.475],[-77.075,50.475]]]}},{"type":"Feature","properties":{"c":"CDC-2872164","o":"Lauren Furman 100%","e":""},"geometry":{"type":"Polygon","coordinates":[[[-77.075,50.48333],[-77.075,50.475],[-77.08333,50.475],[-77.08333,50.48333],[-77.075,50.48333]]]}},{"type":"Feature","properties":{"c":"CDC-2872171","o":"Lauren Furman 100%","e":""},"geometry":{"type":"Polygon","coordinates":[[[-77.075,50.49167],[-77.075,50.48333],[-77.08333,50.48333],[-77.08333,50.49167],[-77.075,50.49167]]]}},{"type":"Feature","properties":{"c":"CDC-2872180","o":"Lauren Furman 100%","e":""},"geometry":{"type":"Polygon","coordinates":[[[-77.075,50.5],[-77.075,50.49167],[-77.08333,50.49167],[-77.08333,50.5],[-77.075,50.5]]]}},{"type":"Feature","properties":{"c":"CDC-2872094","o":"Guy Gammon 100%","e":""},"geometry":{"type":"Polygon","coordinates":[[[-77.10833,50.43333],[-77.10833,50.425],[-77.11667,50.425],[-77.11667,50.43333],[-77.10833,50.43333]]]}},{"type":"Feature","properties":{"c":"CDC-2872093","o":"Guy Gammon 100%","e":""},"geometry":{"type":"Polygon","coordinates":[[[-77.11667,50.43333],[-77.11667,50.425],[-77.125,50.425],[-77.125,50.43333],[-77.11667,50.43333]]]}},{"type":"Feature","properties":{"c":"CDC-2872092","o":"Guy Gammon 100%","e":""},"geometry":{"type":"Polygon","coordinates":[[[-77.125,50.43333],[-77.125,50.425],[-77.13333,50.425],[-77.13333,50.43333],[-77.125,50.43333]]]}},{"type":"Feature","properties":{"c":"CDC-2872102","o":"Guy Gammon 100%","e":""},"geometry":{"type":"Polygon","coordinates":[[[-77.10833,50.44167],[-77.10833,50.43333],[-77.11667,50.43333],[-77.11667,50.44167],[-77.10833,50.44167]]]}},{"type":"Feature","properties":{"c":"CDC-2872101","o":"Guy Gammon 100%","e":""},"geometry":{"type":"Polygon","coordinates":[[[-77.11667,50.44167],[-77.11667,50.43333],[-77.125,50.43333],[-77.125,50.44167],[-77.11667,50.44167]]]}},{"type":"Feature","properties":{"c":"CDC-2872100","o":"Guy Gammon 100%","e":""},"geometry":{"type":"Polygon","coordinates":[[[-77.125,50.44167],[-77.125,50.43333],[-77.13333,50.43333],[-77.13333,50.44167],[-77.125,50.44167]]]}},{"type":"Feature","properties":{"c":"CDC-2872099","o":"Guy Gammon 100%","e":""},"geometry":{"type":"Polygon","coordinates":[[[-77.13333,50.44167],[-77.13333,50.43333],[-77.14167,50.43333],[-77.14167,50.44167],[-77.13333,50.44167]]]}},{"type":"Feature","properties":{"c":"CDC-2872098","o":"Guy Gammon 100%","e":""},"geometry":{"type":"Polygon","coordinates":[[[-77.14167,50.44167],[-77.14167,50.43333],[-77.15,50.43333],[-77.15,50.44167],[-77.14167,50.44167]]]}},{"type":"Feature","properties":{"c":"CDC-2872112","o":"Guy Gammon 100%","e":""},"geometry":{"type":"Polygon","coordinates":[[[-77.10833,50.45],[-77.10833,50.44167],[-77.11667,50.44167],[-77.11667,50.45],[-77.10833,50.45]]]}},{"type":"Feature","properties":{"c":"CDC-2872111","o":"Guy Gammon 100%","e":""},"geometry":{"type":"Polygon","coordinates":[[[-77.11667,50.45],[-77.11667,50.44167],[-77.125,50.44167],[-77.125,50.45],[-77.11667,50.45]]]}},{"type":"Feature","properties":{"c":"CDC-2872110","o":"Guy Gammon 100%","e":""},"geometry":{"type":"Polygon","coordinates":[[[-77.125,50.45],[-77.125,50.44167],[-77.13333,50.44167],[-77.13333,50.45],[-77.125,50.45]]]}},{"type":"Feature","properties":{"c":"CDC-2872109","o":"Guy Gammon 100%","e":""},"geometry":{"type":"Polygon","coordinates":[[[-77.13333,50.45],[-77.13333,50.44167],[-77.14167,50.44167],[-77.14167,50.45],[-77.13333,50.45]]]}},{"type":"Feature","properties":{"c":"CDC-2872108","o":"Guy Gammon 100%","e":""},"geometry":{"type":"Polygon","coordinates":[[[-77.14167,50.45],[-77.14167,50.44167],[-77.15,50.44167],[-77.15,50.45],[-77.14167,50.45]]]}},{"type":"Feature","properties":{"c":"CDC-2872107","o":"Guy Gammon 100%","e":""},"geometry":{"type":"Polygon","coordinates":[[[-77.15,50.45],[-77.15,50.44167],[-77.15833,50.44167],[-77.15833,50.45],[-77.15,50.45]]]}},{"type":"Feature","properties":{"c":"CDC-2872106","o":"Guy Gammon 100%","e":""},"geometry":{"type":"Polygon","coordinates":[[[-77.15833,50.45],[-77.15833,50.44167],[-77.16667,50.44167],[-77.16667,50.45],[-77.15833,50.45]]]}},{"type":"Feature","properties":{"c":"CDC-2872122","o":"Guy Gammon 100%","e":""},"geometry":{"type":"Polygon","coordinates":[[[-77.11667,50.45833],[-77.11667,50.45],[-77.125,50.45],[-77.125,50.45833],[-77.11667,50.45833]]]}},{"type":"Feature","properties":{"c":"CDC-2872121","o":"Guy Gammon 100%","e":""},"geometry":{"type":"Polygon","coordinates":[[[-77.125,50.45833],[-77.125,50.45],[-77.13333,50.45],[-77.13333,50.45833],[-77.125,50.45833]]]}},{"type":"Feature","properties":{"c":"CDC-2872120","o":"Guy Gammon 100%","e":""},"geometry":{"type":"Polygon","coordinates":[[[-77.13333,50.45833],[-77.13333,50.45],[-77.14167,50.45],[-77.14167,50.45833],[-77.13333,50.45833]]]}},{"type":"Feature","properties":{"c":"CDC-2872119","o":"Guy Gammon 100%","e":""},"geometry":{"type":"Polygon","coordinates":[[[-77.14167,50.45833],[-77.14167,50.45],[-77.15,50.45],[-77.15,50.45833],[-77.14167,50.45833]]]}},{"type":"Feature","properties":{"c":"CDC-2872118","o":"Guy Gammon 100%","e":""},"geometry":{"type":"Polygon","coordinates":[[[-77.15,50.45833],[-77.15,50.45],[-77.15833,50.45],[-77.15833,50.45833],[-77.15,50.45833]]]}},{"type":"Feature","properties":{"c":"CDC-2872117","o":"Guy Gammon 100%","e":""},"geometry":{"type":"Polygon","coordinates":[[[-77.15833,50.45833],[-77.15833,50.45],[-77.16667,50.45],[-77.16667,50.45833],[-77.15833,50.45833]]]}},{"type":"Feature","properties":{"c":"CDC-2872003","o":"eagles maxwell 100%","e":""},"geometry":{"type":"Polygon","coordinates":[[[-77.16667,50.45833],[-77.16667,50.45],[-77.175,50.45],[-77.175,50.45833],[-77.16667,50.45833]]]}},{"type":"Feature","properties":{"c":"CDC-2872002","o":"eagles maxwell 100%","e":""},"geometry":{"type":"Polygon","coordinates":[[[-77.175,50.45833],[-77.175,50.45],[-77.18333,50.45],[-77.18333,50.45833],[-77.175,50.45833]]]}},{"type":"Feature","properties":{"c":"CDC-2872011","o":"eagles maxwell 100%","e":""},"geometry":{"type":"Polygon","coordinates":[[[-77.11667,50.46667],[-77.11667,50.45833],[-77.125,50.45833],[-77.125,50.46667],[-77.11667,50.46667]]]}},{"type":"Feature","properties":{"c":"CDC-2872010","o":"eagles maxwell 100%","e":""},"geometry":{"type":"Polygon","coordinates":[[[-77.125,50.46667],[-77.125,50.45833],[-77.13333,50.45833],[-77.13333,50.46667],[-77.125,50.46667]]]}},{"type":"Feature","properties":{"c":"CDC-2872009","o":"eagles maxwell 100%","e":""},"geometry":{"type":"Polygon","coordinates":[[[-77.13333,50.46667],[-77.13333,50.45833],[-77.14167,50.45833],[-77.14167,50.46667],[-77.13333,50.46667]]]}},{"type":"Feature","properties":{"c":"CDC-2872008","o":"eagles maxwell 100%","e":""},"geometry":{"type":"Polygon","coordinates":[[[-77.14167,50.46667],[-77.14167,50.45833],[-77.15,50.45833],[-77.15,50.46667],[-77.14167,50.46667]]]}},{"type":"Feature","properties":{"c":"CDC-2875741","o":"CDN Maverick Capital Corp. 100%","e":""},"geometry":{"type":"Polygon","coordinates":[[[-77.025,50.45],[-77.025,50.44167],[-77.03333,50.44167],[-77.03333,50.45],[-77.025,50.45]]]}},{"type":"Feature","properties":{"c":"CDC-2875742","o":"CDN Maverick Capital Corp. 100%","e":""},"geometry":{"type":"Polygon","coordinates":[[[-77.025,50.45833],[-77.025,50.45],[-77.03333,50.45],[-77.03333,50.45833],[-77.025,50.45833]]]}},{"type":"Feature","properties":{"c":"CDC-2875743","o":"CDN Maverick Capital Corp. 100%","e":""},"geometry":{"type":"Polygon","coordinates":[[[-77.025,50.46667],[-77.025,50.45833],[-77.03333,50.45833],[-77.03333,50.46667],[-77.025,50.46667]]]}},{"type":"Feature","properties":{"c":"CDC-2880727","o":"CDN Maverick Capital Corp. 100%","e":""},"geometry":{"type":"Polygon","coordinates":[[[-77.01667,50.43333],[-77.01667,50.425],[-77.025,50.425],[-77.025,50.43333],[-77.01667,50.43333]]]}},{"type":"Feature","properties":{"c":"CDC-2875740","o":"CDN Maverick Capital Corp. 100%","e":""},"geometry":{"type":"Polygon","coordinates":[[[-77.01667,50.44167],[-77.01667,50.43333],[-77.025,50.43333],[-77.025,50.44167],[-77.01667,50.44167]]]}},{"type":"Feature","properties":{"c":"CDC-2880732","o":"CDN Maverick Capital Corp. 100%","e":""},"geometry":{"type":"Polygon","coordinates":[[[-77.01667,50.45],[-77.01667,50.44167],[-77.025,50.44167],[-77.025,50.45],[-77.01667,50.45]]]}},{"type":"Feature","properties":{"c":"CDC-2880735","o":"CDN Maverick Capital Corp. 100%","e":""},"geometry":{"type":"Polygon","coordinates":[[[-77.01667,50.45833],[-77.01667,50.45],[-77.025,50.45],[-77.025,50.45833],[-77.01667,50.45833]]]}},{"type":"Feature","properties":{"c":"CDC-2875744","o":"CDN Maverick Capital Corp. 100%","e":""},"geometry":{"type":"Polygon","coordinates":[[[-77.01667,50.46667],[-77.01667,50.45833],[-77.025,50.45833],[-77.025,50.46667],[-77.01667,50.46667]]]}},{"type":"Feature","properties":{"c":"CDC-2880728","o":"CDN Maverick Capital Corp. 100%","e":""},"geometry":{"type":"Polygon","coordinates":[[[-77.00833,50.43333],[-77.00833,50.425],[-77.01667,50.425],[-77.01667,50.43333],[-77.00833,50.43333]]]}},{"type":"Feature","properties":{"c":"CDC-2880730","o":"CDN Maverick Capital Corp. 100%","e":""},"geometry":{"type":"Polygon","coordinates":[[[-77.00833,50.44167],[-77.00833,50.43333],[-77.01667,50.43333],[-77.01667,50.44167],[-77.00833,50.44167]]]}},{"type":"Feature","properties":{"c":"CDC-2880733","o":"CDN Maverick Capital Corp. 100%","e":""},"geometry":{"type":"Polygon","coordinates":[[[-77.00833,50.45],[-77.00833,50.44167],[-77.01667,50.44167],[-77.01667,50.45],[-77.00833,50.45]]]}},{"type":"Feature","properties":{"c":"CDC-2880736","o":"CDN Maverick Capital Corp. 100%","e":""},"geometry":{"type":"Polygon","coordinates":[[[-77.00833,50.45833],[-77.00833,50.45],[-77.01667,50.45],[-77.01667,50.45833],[-77.00833,50.45833]]]}},{"type":"Feature","properties":{"c":"CDC-2875745","o":"CDN Maverick Capital Corp. 100%","e":""},"geometry":{"type":"Polygon","coordinates":[[[-77.00833,50.46667],[-77.00833,50.45833],[-77.01667,50.45833],[-77.01667,50.46667],[-77.00833,50.46667]]]}},{"type":"Feature","properties":{"c":"CDC-2880729","o":"CDN Maverick Capital Corp. 100%","e":""},"geometry":{"type":"Polygon","coordinates":[[[-77.0,50.43333],[-77.0,50.425],[-77.00833,50.425],[-77.00833,50.43333],[-77.0,50.43333]]]}},{"type":"Feature","properties":{"c":"CDC-2880731","o":"CDN Maverick Capital Corp. 100%","e":""},"geometry":{"type":"Polygon","coordinates":[[[-77.0,50.44167],[-77.0,50.43333],[-77.00833,50.43333],[-77.00833,50.44167],[-77.0,50.44167]]]}},{"type":"Feature","properties":{"c":"CDC-2880734","o":"CDN Maverick Capital Corp. 100%","e":""},"geometry":{"type":"Polygon","coordinates":[[[-77.0,50.45],[-77.0,50.44167],[-77.00833,50.44167],[-77.00833,50.45],[-77.0,50.45]]]}},{"type":"Feature","properties":{"c":"CDC-2880737","o":"CDN Maverick Capital Corp. 100%","e":""},"geometry":{"type":"Polygon","coordinates":[[[-77.0,50.45833],[-77.0,50.45],[-77.00833,50.45],[-77.00833,50.45833],[-77.0,50.45833]]]}},{"type":"Feature","properties":{"c":"CDC-2880738","o":"CDN Maverick Capital Corp. 100%","e":""},"geometry":{"type":"Polygon","coordinates":[[[-77.0,50.46667],[-77.0,50.45833],[-77.00833,50.45833],[-77.00833,50.46667],[-77.0,50.46667]]]}},{"type":"Feature","properties":{"c":"CDC-2872123","o":"Guy Gammon 100%","e":""},"geometry":{"type":"Polygon","coordinates":[[[-77.10833,50.45833],[-77.10833,50.45],[-77.11667,50.45],[-77.11667,50.45833],[-77.10833,50.45833]]]}},{"type":"Feature","properties":{"c":"CDC-2872089","o":"Guy Gammon 100%","e":""},"geometry":{"type":"Polygon","coordinates":[[[-77.1,50.425],[-77.1,50.41667],[-77.10833,50.41667],[-77.10833,50.425],[-77.1,50.425]]]}},{"type":"Feature","properties":{"c":"CDC-2872095","o":"Guy Gammon 100%","e":""},"geometry":{"type":"Polygon","coordinates":[[[-77.1,50.43333],[-77.1,50.425],[-77.10833,50.425],[-77.10833,50.43333],[-77.1,50.43333]]]}},{"type":"Feature","properties":{"c":"CDC-2872103","o":"Guy Gammon 100%","e":""},"geometry":{"type":"Polygon","coordinates":[[[-77.1,50.44167],[-77.1,50.43333],[-77.10833,50.43333],[-77.10833,50.44167],[-77.1,50.44167]]]}},{"type":"Feature","properties":{"c":"CDC-2872113","o":"Guy Gammon 100%","e":""},"geometry":{"type":"Polygon","coordinates":[[[-77.1,50.45],[-77.1,50.44167],[-77.10833,50.44167],[-77.10833,50.45],[-77.1,50.45]]]}},{"type":"Feature","properties":{"c":"CDC-2872124","o":"Guy Gammon 100%","e":""},"geometry":{"type":"Polygon","coordinates":[[[-77.1,50.45833],[-77.1,50.45],[-77.10833,50.45],[-77.10833,50.45833],[-77.1,50.45833]]]}},{"type":"Feature","properties":{"c":"CDC-2872090","o":"Guy Gammon 100%","e":""},"geometry":{"type":"Polygon","coordinates":[[[-77.09167,50.425],[-77.09167,50.41667],[-77.1,50.41667],[-77.1,50.425],[-77.09167,50.425]]]}},{"type":"Feature","properties":{"c":"CDC-2872096","o":"Guy Gammon 100%","e":""},"geometry":{"type":"Polygon","coordinates":[[[-77.09167,50.43333],[-77.09167,50.425],[-77.1,50.425],[-77.1,50.43333],[-77.09167,50.43333]]]}},{"type":"Feature","properties":{"c":"CDC-2872104","o":"Guy Gammon 100%","e":""},"geometry":{"type":"Polygon","coordinates":[[[-77.09167,50.44167],[-77.09167,50.43333],[-77.1,50.43333],[-77.1,50.44167],[-77.09167,50.44167]]]}},{"type":"Feature","properties":{"c":"CDC-2872114","o":"Guy Gammon 100%","e":""},"geometry":{"type":"Polygon","coordinates":[[[-77.09167,50.45],[-77.09167,50.44167],[-77.1,50.44167],[-77.1,50.45],[-77.09167,50.45]]]}},{"type":"Feature","properties":{"c":"CDC-2872125","o":"Guy Gammon 100%","e":""},"geometry":{"type":"Polygon","coordinates":[[[-77.09167,50.45833],[-77.09167,50.45],[-77.1,50.45],[-77.1,50.45833],[-77.09167,50.45833]]]}},{"type":"Feature","properties":{"c":"CDC-2872091","o":"Guy Gammon 100%","e":""},"geometry":{"type":"Polygon","coordinates":[[[-77.08333,50.425],[-77.08333,50.41667],[-77.09167,50.41667],[-77.09167,50.425],[-77.08333,50.425]]]}},{"type":"Feature","properties":{"c":"CDC-2872097","o":"Guy Gammon 100%","e":""},"geometry":{"type":"Polygon","coordinates":[[[-77.08333,50.43333],[-77.08333,50.425],[-77.09167,50.425],[-77.09167,50.43333],[-77.08333,50.43333]]]}},{"type":"Feature","properties":{"c":"CDC-2872105","o":"Guy Gammon 100%","e":""},"geometry":{"type":"Polygon","coordinates":[[[-77.08333,50.44167],[-77.08333,50.43333],[-77.09167,50.43333],[-77.09167,50.44167],[-77.08333,50.44167]]]}},{"type":"Feature","properties":{"c":"CDC-2872115","o":"Guy Gammon 100%","e":""},"geometry":{"type":"Polygon","coordinates":[[[-77.08333,50.45],[-77.08333,50.44167],[-77.09167,50.44167],[-77.09167,50.45],[-77.08333,50.45]]]}},{"type":"Feature","properties":{"c":"CDC-2872126","o":"Guy Gammon 100%","e":""},"geometry":{"type":"Polygon","coordinates":[[[-77.08333,50.45833],[-77.08333,50.45],[-77.09167,50.45],[-77.09167,50.45833],[-77.08333,50.45833]]]}},{"type":"Feature","properties":{"c":"CDC-2872060","o":"Jua Fernando Palacios Caceres 100%","e":""},"geometry":{"type":"Polygon","coordinates":[[[-77.075,50.425],[-77.075,50.41667],[-77.08333,50.41667],[-77.08333,50.425],[-77.075,50.425]]]}},{"type":"Feature","properties":{"c":"CDC-2872066","o":"Jua Fernando Palacios Caceres 100%","e":""},"geometry":{"type":"Polygon","coordinates":[[[-77.075,50.43333],[-77.075,50.425],[-77.08333,50.425],[-77.08333,50.43333],[-77.075,50.43333]]]}},{"type":"Feature","properties":{"c":"CDC-2872072","o":"Jua Fernando Palacios Caceres 100%","e":""},"geometry":{"type":"Polygon","coordinates":[[[-77.075,50.44167],[-77.075,50.43333],[-77.08333,50.43333],[-77.08333,50.44167],[-77.075,50.44167]]]}},{"type":"Feature","properties":{"c":"CDC-2872116","o":"Guy Gammon 100%","e":""},"geometry":{"type":"Polygon","coordinates":[[[-77.075,50.45],[-77.075,50.44167],[-77.08333,50.44167],[-77.08333,50.45],[-77.075,50.45]]]}},{"type":"Feature","properties":{"c":"CDC-2872127","o":"Guy Gammon 100%","e":""},"geometry":{"type":"Polygon","coordinates":[[[-77.075,50.45833],[-77.075,50.45],[-77.08333,50.45],[-77.08333,50.45833],[-77.075,50.45833]]]}},{"type":"Feature","properties":{"c":"CDC-2872061","o":"Jua Fernando Palacios Caceres 100%","e":""},"geometry":{"type":"Polygon","coordinates":[[[-77.06667,50.425],[-77.06667,50.41667],[-77.075,50.41667],[-77.075,50.425],[-77.06667,50.425]]]}},{"type":"Feature","properties":{"c":"CDC-2872067","o":"Jua Fernando Palacios Caceres 100%","e":""},"geometry":{"type":"Polygon","coordinates":[[[-77.06667,50.43333],[-77.06667,50.425],[-77.075,50.425],[-77.075,50.43333],[-77.06667,50.43333]]]}},{"type":"Feature","properties":{"c":"CDC-2872073","o":"Jua Fernando Palacios Caceres 100%","e":""},"geometry":{"type":"Polygon","coordinates":[[[-77.06667,50.44167],[-77.06667,50.43333],[-77.075,50.43333],[-77.075,50.44167],[-77.06667,50.44167]]]}},{"type":"Feature","properties":{"c":"CDC-2872078","o":"Jua Fernando Palacios Caceres 100%","e":""},"geometry":{"type":"Polygon","coordinates":[[[-77.06667,50.45],[-77.06667,50.44167],[-77.075,50.44167],[-77.075,50.45],[-77.06667,50.45]]]}},{"type":"Feature","properties":{"c":"CDC-2872083","o":"Jua Fernando Palacios Caceres 100%","e":""},"geometry":{"type":"Polygon","coordinates":[[[-77.06667,50.45833],[-77.06667,50.45],[-77.075,50.45],[-77.075,50.45833],[-77.06667,50.45833]]]}},{"type":"Feature","properties":{"c":"CDC-2872151","o":"Lauren Furman 100%","e":""},"geometry":{"type":"Polygon","coordinates":[[[-77.06667,50.46667],[-77.06667,50.45833],[-77.075,50.45833],[-77.075,50.46667],[-77.06667,50.46667]]]}},{"type":"Feature","properties":{"c":"CDC-2872062","o":"Jua Fernando Palacios Caceres 100%","e":""},"geometry":{"type":"Polygon","coordinates":[[[-77.05833,50.425],[-77.05833,50.41667],[-77.06667,50.41667],[-77.06667,50.425],[-77.05833,50.425]]]}},{"type":"Feature","properties":{"c":"CDC-2872068","o":"Jua Fernando Palacios Caceres 100%","e":""},"geometry":{"type":"Polygon","coordinates":[[[-77.05833,50.43333],[-77.05833,50.425],[-77.06667,50.425],[-77.06667,50.43333],[-77.05833,50.43333]]]}},{"type":"Feature","properties":{"c":"CDC-2872074","o":"Jua Fernando Palacios Caceres 100%","e":""},"geometry":{"type":"Polygon","coordinates":[[[-77.05833,50.44167],[-77.05833,50.43333],[-77.06667,50.43333],[-77.06667,50.44167],[-77.05833,50.44167]]]}},{"type":"Feature","properties":{"c":"CDC-2872079","o":"Jua Fernando Palacios Caceres 100%","e":""},"geometry":{"type":"Polygon","coordinates":[[[-77.05833,50.45],[-77.05833,50.44167],[-77.06667,50.44167],[-77.06667,50.45],[-77.05833,50.45]]]}},{"type":"Feature","properties":{"c":"CDC-2872084","o":"Jua Fernando Palacios Caceres 100%","e":""},"geometry":{"type":"Polygon","coordinates":[[[-77.05833,50.45833],[-77.05833,50.45],[-77.06667,50.45],[-77.06667,50.45833],[-77.05833,50.45833]]]}},{"type":"Feature","properties":{"c":"CDC-2872152","o":"Lauren Furman 100%","e":""},"geometry":{"type":"Polygon","coordinates":[[[-77.05833,50.46667],[-77.05833,50.45833],[-77.06667,50.45833],[-77.06667,50.46667],[-77.05833,50.46667]]]}},{"type":"Feature","properties":{"c":"CDC-2872063","o":"Jua Fernando Palacios Caceres 100%","e":""},"geometry":{"type":"Polygon","coordinates":[[[-77.05,50.425],[-77.05,50.41667],[-77.05833,50.41667],[-77.05833,50.425],[-77.05,50.425]]]}},{"type":"Feature","properties":{"c":"CDC-2872069","o":"Jua Fernando Palacios Caceres 100%","e":""},"geometry":{"type":"Polygon","coordinates":[[[-77.05,50.43333],[-77.05,50.425],[-77.05833,50.425],[-77.05833,50.43333],[-77.05,50.43333]]]}},{"type":"Feature","properties":{"c":"CDC-2872075","o":"Jua Fernando Palacios Caceres 100%","e":""},"geometry":{"type":"Polygon","coordinates":[[[-77.05,50.44167],[-77.05,50.43333],[-77.05833,50.43333],[-77.05833,50.44167],[-77.05,50.44167]]]}},{"type":"Feature","properties":{"c":"CDC-2872080","o":"Jua Fernando Palacios Caceres 100%","e":""},"geometry":{"type":"Polygon","coordinates":[[[-77.05,50.45],[-77.05,50.44167],[-77.05833,50.44167],[-77.05833,50.45],[-77.05,50.45]]]}},{"type":"Feature","properties":{"c":"CDC-2872085","o":"Jua Fernando Palacios Caceres 100%","e":""},"geometry":{"type":"Polygon","coordinates":[[[-77.05,50.45833],[-77.05,50.45],[-77.05833,50.45],[-77.05833,50.45833],[-77.05,50.45833]]]}},{"type":"Feature","properties":{"c":"CDC-2872153","o":"Lauren Furman 100%","e":""},"geometry":{"type":"Polygon","coordinates":[[[-77.05,50.46667],[-77.05,50.45833],[-77.05833,50.45833],[-77.05833,50.46667],[-77.05,50.46667]]]}},{"type":"Feature","properties":{"c":"CDC-2872064","o":"Jua Fernando Palacios Caceres 100%","e":""},"geometry":{"type":"Polygon","coordinates":[[[-77.04167,50.425],[-77.04167,50.41667],[-77.05,50.41667],[-77.05,50.425],[-77.04167,50.425]]]}},{"type":"Feature","properties":{"c":"CDC-2872070","o":"Jua Fernando Palacios Caceres 100%","e":""},"geometry":{"type":"Polygon","coordinates":[[[-77.04167,50.43333],[-77.04167,50.425],[-77.05,50.425],[-77.05,50.43333],[-77.04167,50.43333]]]}},{"type":"Feature","properties":{"c":"CDC-2872076","o":"Jua Fernando Palacios Caceres 100%","e":""},"geometry":{"type":"Polygon","coordinates":[[[-77.04167,50.44167],[-77.04167,50.43333],[-77.05,50.43333],[-77.05,50.44167],[-77.04167,50.44167]]]}},{"type":"Feature","properties":{"c":"CDC-2872081","o":"Jua Fernando Palacios Caceres 100%","e":""},"geometry":{"type":"Polygon","coordinates":[[[-77.04167,50.45],[-77.04167,50.44167],[-77.05,50.44167],[-77.05,50.45],[-77.04167,50.45]]]}},{"type":"Feature","properties":{"c":"CDC-2872086","o":"Jua Fernando Palacios Caceres 100%","e":""},"geometry":{"type":"Polygon","coordinates":[[[-77.04167,50.45833],[-77.04167,50.45],[-77.05,50.45],[-77.05,50.45833],[-77.04167,50.45833]]]}},{"type":"Feature","properties":{"c":"CDC-2872154","o":"Lauren Furman 100%","e":""},"geometry":{"type":"Polygon","coordinates":[[[-77.04167,50.46667],[-77.04167,50.45833],[-77.05,50.45833],[-77.05,50.46667],[-77.04167,50.46667]]]}},{"type":"Feature","properties":{"c":"CDC-2872065","o":"Jua Fernando Palacios Caceres 100%","e":""},"geometry":{"type":"Polygon","coordinates":[[[-77.03333,50.425],[-77.03333,50.41667],[-77.04167,50.41667],[-77.04167,50.425],[-77.03333,50.425]]]}},{"type":"Feature","properties":{"c":"CDC-2872071","o":"Jua Fernando Palacios Caceres 100%","e":""},"geometry":{"type":"Polygon","coordinates":[[[-77.03333,50.43333],[-77.03333,50.425],[-77.04167,50.425],[-77.04167,50.43333],[-77.03333,50.43333]]]}},{"type":"Feature","properties":{"c":"CDC-2872077","o":"Jua Fernando Palacios Caceres 100%","e":""},"geometry":{"type":"Polygon","coordinates":[[[-77.03333,50.44167],[-77.03333,50.43333],[-77.04167,50.43333],[-77.04167,50.44167],[-77.03333,50.44167]]]}},{"type":"Feature","properties":{"c":"CDC-2872082","o":"Jua Fernando Palacios Caceres 100%","e":""},"geometry":{"type":"Polygon","coordinates":[[[-77.03333,50.45],[-77.03333,50.44167],[-77.04167,50.44167],[-77.04167,50.45],[-77.03333,50.45]]]}},{"type":"Feature","properties":{"c":"CDC-2872087","o":"Jua Fernando Palacios Caceres 100%","e":""},"geometry":{"type":"Polygon","coordinates":[[[-77.03333,50.45833],[-77.03333,50.45],[-77.04167,50.45],[-77.04167,50.45833],[-77.03333,50.45833]]]}},{"type":"Feature","properties":{"c":"CDC-2872155","o":"Lauren Furman 100%","e":""},"geometry":{"type":"Polygon","coordinates":[[[-77.03333,50.46667],[-77.03333,50.45833],[-77.04167,50.45833],[-77.04167,50.46667],[-77.03333,50.46667]]]}},{"type":"Feature","properties":{"c":"CDC-2880722","o":"CDN Maverick Capital Corp. 100%","e":""},"geometry":{"type":"Polygon","coordinates":[[[-77.025,50.425],[-77.025,50.41667],[-77.03333,50.41667],[-77.03333,50.425],[-77.025,50.425]]]}},{"type":"Feature","properties":{"c":"CDC-2880726","o":"CDN Maverick Capital Corp. 100%","e":""},"geometry":{"type":"Polygon","coordinates":[[[-77.025,50.43333],[-77.025,50.425],[-77.03333,50.425],[-77.03333,50.43333],[-77.025,50.43333]]]}},{"type":"Feature","properties":{"c":"CDC-2875739","o":"CDN Maverick Capital Corp. 100%","e":""},"geometry":{"type":"Polygon","coordinates":[[[-77.025,50.44167],[-77.025,50.43333],[-77.03333,50.43333],[-77.03333,50.44167],[-77.025,50.44167]]]}},{"type":"Feature","properties":{"c":"CDC-2872088","o":"Guy Gammon 100%","e":""},"geometry":{"type":"Polygon","coordinates":[[[-77.08333,50.41667],[-77.08333,50.40833],[-77.09167,50.40833],[-77.09167,50.41667],[-77.08333,50.41667]]]}},{"type":"Feature","properties":{"c":"CDC-2872054","o":"Jua Fernando Palacios Caceres 100%","e":""},"geometry":{"type":"Polygon","coordinates":[[[-77.075,50.41667],[-77.075,50.40833],[-77.08333,50.40833],[-77.08333,50.41667],[-77.075,50.41667]]]}},{"type":"Feature","properties":{"c":"CDC-2872049","o":"Jua Fernando Palacios Caceres 100%","e":""},"geometry":{"type":"Polygon","coordinates":[[[-77.06667,50.40833],[-77.06667,50.4],[-77.075,50.4],[-77.075,50.40833],[-77.06667,50.40833]]]}},{"type":"Feature","properties":{"c":"CDC-2872055","o":"Jua Fernando Palacios Caceres 100%","e":""},"geometry":{"type":"Polygon","coordinates":[[[-77.06667,50.41667],[-77.06667,50.40833],[-77.075,50.40833],[-77.075,50.41667],[-77.06667,50.41667]]]}},{"type":"Feature","properties":{"c":"CDC-2872050","o":"Jua Fernando Palacios Caceres 100%","e":""},"geometry":{"type":"Polygon","coordinates":[[[-77.05833,50.40833],[-77.05833,50.4],[-77.06667,50.4],[-77.06667,50.40833],[-77.05833,50.40833]]]}},{"type":"Feature","properties":{"c":"CDC-2872056","o":"Jua Fernando Palacios Caceres 100%","e":""},"geometry":{"type":"Polygon","coordinates":[[[-77.05833,50.41667],[-77.05833,50.40833],[-77.06667,50.40833],[-77.06667,50.41667],[-77.05833,50.41667]]]}},{"type":"Feature","properties":{"c":"CDC-2872051","o":"Jua Fernando Palacios Caceres 100%","e":""},"geometry":{"type":"Polygon","coordinates":[[[-77.05,50.40833],[-77.05,50.4],[-77.05833,50.4],[-77.05833,50.40833],[-77.05,50.40833]]]}},{"type":"Feature","properties":{"c":"CDC-2872057","o":"Jua Fernando Palacios Caceres 100%","e":""},"geometry":{"type":"Polygon","coordinates":[[[-77.05,50.41667],[-77.05,50.40833],[-77.05833,50.40833],[-77.05833,50.41667],[-77.05,50.41667]]]}},{"type":"Feature","properties":{"c":"CDC-2875730","o":"CDN Maverick Capital Corp. 100%","e":""},"geometry":{"type":"Polygon","coordinates":[[[-77.04167,50.4],[-77.04167,50.39167],[-77.05,50.39167],[-77.05,50.4],[-77.04167,50.4]]]}},{"type":"Feature","properties":{"c":"CDC-2872052","o":"Jua Fernando Palacios Caceres 100%","e":""},"geometry":{"type":"Polygon","coordinates":[[[-77.04167,50.40833],[-77.04167,50.4],[-77.05,50.4],[-77.05,50.40833],[-77.04167,50.40833]]]}},{"type":"Feature","properties":{"c":"CDC-2872058","o":"Jua Fernando Palacios Caceres 100%","e":""},"geometry":{"type":"Polygon","coordinates":[[[-77.04167,50.41667],[-77.04167,50.40833],[-77.05,50.40833],[-77.05,50.41667],[-77.04167,50.41667]]]}},{"type":"Feature","properties":{"c":"CDC-2875725","o":"CDN Maverick Capital Corp. 100%","e":""},"geometry":{"type":"Polygon","coordinates":[[[-77.03333,50.39167],[-77.03333,50.38333],[-77.04167,50.38333],[-77.04167,50.39167],[-77.03333,50.39167]]]}},{"type":"Feature","properties":{"c":"CDC-2875731","o":"CDN Maverick Capital Corp. 100%","e":""},"geometry":{"type":"Polygon","coordinates":[[[-77.03333,50.4],[-77.03333,50.39167],[-77.04167,50.39167],[-77.04167,50.4],[-77.03333,50.4]]]}},{"type":"Feature","properties":{"c":"CDC-2872053","o":"Jua Fernando Palacios Caceres 100%","e":""},"geometry":{"type":"Polygon","coordinates":[[[-77.03333,50.40833],[-77.03333,50.4],[-77.04167,50.4],[-77.04167,50.40833],[-77.03333,50.40833]]]}},{"type":"Feature","properties":{"c":"CDC-2872059","o":"Jua Fernando Palacios Caceres 100%","e":""},"geometry":{"type":"Polygon","coordinates":[[[-77.03333,50.41667],[-77.03333,50.40833],[-77.04167,50.40833],[-77.04167,50.41667],[-77.03333,50.41667]]]}},{"type":"Feature","properties":{"c":"CDC-2875726","o":"CDN Maverick Capital Corp. 100%","e":""},"geometry":{"type":"Polygon","coordinates":[[[-77.025,50.39167],[-77.025,50.38333],[-77.03333,50.38333],[-77.03333,50.39167],[-77.025,50.39167]]]}},{"type":"Feature","properties":{"c":"CDC-2875732","o":"CDN Maverick Capital Corp. 100%","e":""},"geometry":{"type":"Polygon","coordinates":[[[-77.025,50.4],[-77.025,50.39167],[-77.03333,50.39167],[-77.03333,50.4],[-77.025,50.4]]]}},{"type":"Feature","properties":{"c":"CDC-2875736","o":"CDN Maverick Capital Corp. 100%","e":""},"geometry":{"type":"Polygon","coordinates":[[[-77.025,50.40833],[-77.025,50.4],[-77.03333,50.4],[-77.03333,50.40833],[-77.025,50.40833]]]}},{"type":"Feature","properties":{"c":"CDC-2880718","o":"CDN Maverick Capital Corp. 100%","e":""},"geometry":{"type":"Polygon","coordinates":[[[-77.025,50.41667],[-77.025,50.40833],[-77.03333,50.40833],[-77.03333,50.41667],[-77.025,50.41667]]]}},{"type":"Feature","properties":{"c":"CDC-2875722","o":"CDN Maverick Capital Corp. 100%","e":""},"geometry":{"type":"Polygon","coordinates":[[[-77.01667,50.38333],[-77.01667,50.375],[-77.025,50.375],[-77.025,50.38333],[-77.01667,50.38333]]]}},{"type":"Feature","properties":{"c":"CDC-2875727","o":"CDN Maverick Capital Corp. 100%","e":""},"geometry":{"type":"Polygon","coordinates":[[[-77.01667,50.39167],[-77.01667,50.38333],[-77.025,50.38333],[-77.025,50.39167],[-77.01667,50.39167]]]}},{"type":"Feature","properties":{"c":"CDC-2875733","o":"CDN Maverick Capital Corp. 100%","e":""},"geometry":{"type":"Polygon","coordinates":[[[-77.01667,50.4],[-77.01667,50.39167],[-77.025,50.39167],[-77.025,50.4],[-77.01667,50.4]]]}},{"type":"Feature","properties":{"c":"CDC-2875737","o":"CDN Maverick Capital Corp. 100%","e":""},"geometry":{"type":"Polygon","coordinates":[[[-77.01667,50.40833],[-77.01667,50.4],[-77.025,50.4],[-77.025,50.40833],[-77.01667,50.40833]]]}},{"type":"Feature","properties":{"c":"CDC-2880719","o":"CDN Maverick Capital Corp. 100%","e":""},"geometry":{"type":"Polygon","coordinates":[[[-77.01667,50.41667],[-77.01667,50.40833],[-77.025,50.40833],[-77.025,50.41667],[-77.01667,50.41667]]]}},{"type":"Feature","properties":{"c":"CDC-2880723","o":"CDN Maverick Capital Corp. 100%","e":""},"geometry":{"type":"Polygon","coordinates":[[[-77.01667,50.425],[-77.01667,50.41667],[-77.025,50.41667],[-77.025,50.425],[-77.01667,50.425]]]}},{"type":"Feature","properties":{"c":"CDC-2875723","o":"CDN Maverick Capital Corp. 100%","e":""},"geometry":{"type":"Polygon","coordinates":[[[-77.00833,50.38333],[-77.00833,50.375],[-77.01667,50.375],[-77.01667,50.38333],[-77.00833,50.38333]]]}},{"type":"Feature","properties":{"c":"CDC-2875728","o":"CDN Maverick Capital Corp. 100%","e":""},"geometry":{"type":"Polygon","coordinates":[[[-77.00833,50.39167],[-77.00833,50.38333],[-77.01667,50.38333],[-77.01667,50.39167],[-77.00833,50.39167]]]}},{"type":"Feature","properties":{"c":"CDC-2875734","o":"CDN Maverick Capital Corp. 100%","e":""},"geometry":{"type":"Polygon","coordinates":[[[-77.00833,50.4],[-77.00833,50.39167],[-77.01667,50.39167],[-77.01667,50.4],[-77.00833,50.4]]]}},{"type":"Feature","properties":{"c":"CDC-2875738","o":"CDN Maverick Capital Corp. 100%","e":""},"geometry":{"type":"Polygon","coordinates":[[[-77.00833,50.40833],[-77.00833,50.4],[-77.01667,50.4],[-77.01667,50.40833],[-77.00833,50.40833]]]}},{"type":"Feature","properties":{"c":"CDC-2880720","o":"CDN Maverick Capital Corp. 100%","e":""},"geometry":{"type":"Polygon","coordinates":[[[-77.00833,50.41667],[-77.00833,50.40833],[-77.01667,50.40833],[-77.01667,50.41667],[-77.00833,50.41667]]]}},{"type":"Feature","properties":{"c":"CDC-2880724","o":"CDN Maverick Capital Corp. 100%","e":""},"geometry":{"type":"Polygon","coordinates":[[[-77.00833,50.425],[-77.00833,50.41667],[-77.01667,50.41667],[-77.01667,50.425],[-77.00833,50.425]]]}},{"type":"Feature","properties":{"c":"CDC-2875724","o":"CDN Maverick Capital Corp. 100%","e":""},"geometry":{"type":"Polygon","coordinates":[[[-77.0,50.38333],[-77.0,50.375],[-77.00833,50.375],[-77.00833,50.38333],[-77.0,50.38333]]]}},{"type":"Feature","properties":{"c":"CDC-2875729","o":"CDN Maverick Capital Corp. 100%","e":""},"geometry":{"type":"Polygon","coordinates":[[[-77.0,50.39167],[-77.0,50.38333],[-77.00833,50.38333],[-77.00833,50.39167],[-77.0,50.39167]]]}},{"type":"Feature","properties":{"c":"CDC-2875735","o":"CDN Maverick Capital Corp. 100%","e":""},"geometry":{"type":"Polygon","coordinates":[[[-77.0,50.4],[-77.0,50.39167],[-77.00833,50.39167],[-77.00833,50.4],[-77.0,50.4]]]}},{"type":"Feature","properties":{"c":"CDC-2880717","o":"CDN Maverick Capital Corp. 100%","e":""},"geometry":{"type":"Polygon","coordinates":[[[-77.0,50.40833],[-77.0,50.4],[-77.00833,50.4],[-77.00833,50.40833],[-77.0,50.40833]]]}},{"type":"Feature","properties":{"c":"CDC-2880721","o":"CDN Maverick Capital Corp. 100%","e":""},"geometry":{"type":"Polygon","coordinates":[[[-77.0,50.41667],[-77.0,50.40833],[-77.00833,50.40833],[-77.00833,50.41667],[-77.0,50.41667]]]}},{"type":"Feature","properties":{"c":"CDC-2880725","o":"CDN Maverick Capital Corp. 100%","e":""},"geometry":{"type":"Polygon","coordinates":[[[-77.0,50.425],[-77.0,50.41667],[-77.00833,50.41667],[-77.00833,50.425],[-77.0,50.425]]]}},{"type":"Feature","properties":{"c":"CDC-2875721","o":"CDN Maverick Capital Corp. 100%","e":""},"geometry":{"type":"Polygon","coordinates":[[[-77.0,50.375],[-77.0,50.36667],[-77.00833,50.36667],[-77.00833,50.375],[-77.0,50.375]]]}},{"type":"Feature","properties":{"c":"CDC-2836685","o":"Q2 Metals Corp. 100%","e":""},"geometry":{"type":"Polygon","coordinates":[[[-77.325,50.5],[-77.325,50.49167],[-77.33333,50.49167],[-77.33333,50.5],[-77.325,50.5]]]}},{"type":"Feature","properties":{"c":"CDC-2836684","o":"Q2 Metals Corp. 100%","e":""},"geometry":{"type":"Polygon","coordinates":[[[-77.33333,50.5],[-77.33333,50.49167],[-77.34167,50.49167],[-77.34167,50.5],[-77.33333,50.5]]]}},{"type":"Feature","properties":{"c":"CDC-2836683","o":"Q2 Metals Corp. 100%","e":""},"geometry":{"type":"Polygon","coordinates":[[[-77.34167,50.5],[-77.34167,50.49167],[-77.35,50.49167],[-77.35,50.5],[-77.34167,50.5]]]}},{"type":"Feature","properties":{"c":"CDC-2836682","o":"Q2 Metals Corp. 100%","e":""},"geometry":{"type":"Polygon","coordinates":[[[-77.35,50.5],[-77.35,50.49167],[-77.35833,50.49167],[-77.35833,50.5],[-77.35,50.5]]]}},{"type":"Feature","properties":{"c":"CDC-2721715","o":"Q2 Metals Corp. 100%","e":""},"geometry":{"type":"Polygon","coordinates":[[[-77.39167,50.5],[-77.39167,50.49167],[-77.4,50.49167],[-77.4,50.5],[-77.39167,50.5]]]}},{"type":"Feature","properties":{"c":"CDC-2836678","o":"Q2 Metals Corp. 100%","e":""},"geometry":{"type":"Polygon","coordinates":[[[-77.38333,50.5],[-77.38333,50.49167],[-77.39167,50.49167],[-77.39167,50.5],[-77.38333,50.5]]]}},{"type":"Feature","properties":{"c":"CDC-2836679","o":"Q2 Metals Corp. 100%","e":""},"geometry":{"type":"Polygon","coordinates":[[[-77.375,50.5],[-77.375,50.49167],[-77.38333,50.49167],[-77.38333,50.5],[-77.375,50.5]]]}},{"type":"Feature","properties":{"c":"CDC-2836680","o":"Q2 Metals Corp. 100%","e":""},"geometry":{"type":"Polygon","coordinates":[[[-77.36667,50.5],[-77.36667,50.49167],[-77.375,50.49167],[-77.375,50.5],[-77.36667,50.5]]]}},{"type":"Feature","properties":{"c":"CDC-2836681","o":"Q2 Metals Corp. 100%","e":""},"geometry":{"type":"Polygon","coordinates":[[[-77.35833,50.5],[-77.35833,50.49167],[-77.36667,50.49167],[-77.36667,50.5],[-77.35833,50.5]]]}},{"type":"Feature","properties":{"c":"AMO-106","o":"Soci\u00e9t\u00e9 de D\u00e9veloppement de la Baie-James 100%","e":""},"geometry":{"type":"Polygon","coordinates":[[[-77.43966,50.48761],[-77.44183,50.48899],[-77.43931,50.49011],[-77.43674,50.48939],[-77.43966,50.48761]]]}},{"type":"Feature","properties":{"c":"CDC-2721714","o":"Q2 Metals Corp. 100%","e":""},"geometry":{"type":"Polygon","coordinates":[[[-77.4,50.5],[-77.4,50.49167],[-77.40833,50.49167],[-77.40833,50.5],[-77.4,50.5]]]}},{"type":"Feature","properties":{"c":"CDC-2751649","o":"Q2 Metals Corp. 100%","e":""},"geometry":{"type":"Polygon","coordinates":[[[-77.40833,50.5],[-77.40833,50.49167],[-77.41667,50.49167],[-77.41667,50.5],[-77.40833,50.5]]]}},{"type":"Feature","properties":{"c":"CDC-2751648","o":"Q2 Metals Corp. 100%","e":""},"geometry":{"type":"Polygon","coordinates":[[[-77.41667,50.5],[-77.41667,50.49167],[-77.425,50.49167],[-77.425,50.5],[-77.41667,50.5]]]}},{"type":"Feature","properties":{"c":"CDC-2751647","o":"Q2 Metals Corp. 100%","e":""},"geometry":{"type":"Polygon","coordinates":[[[-77.425,50.5],[-77.425,50.49167],[-77.43333,50.49167],[-77.43333,50.5],[-77.425,50.5]]]}},{"type":"Feature","properties":{"c":"CDC-2751483","o":"Q2 Metals Corp. 100%","e":""},"geometry":{"type":"Polygon","coordinates":[[[-77.43333,50.5],[-77.43333,50.49167],[-77.44167,50.49167],[-77.44167,50.5],[-77.43333,50.5]]]}},{"type":"Feature","properties":{"c":"CDC-2751482","o":"Q2 Metals Corp. 100%","e":""},"geometry":{"type":"Polygon","coordinates":[[[-77.44167,50.5],[-77.44167,50.49167],[-77.45,50.49167],[-77.45,50.5],[-77.44167,50.5]]]}},{"type":"Feature","properties":{"c":"CDC-2751481","o":"Q2 Metals Corp. 100%","e":""},"geometry":{"type":"Polygon","coordinates":[[[-77.45,50.5],[-77.45,50.49167],[-77.45833,50.49167],[-77.45833,50.5],[-77.45,50.5]]]}},{"type":"Feature","properties":{"c":"CDC-2751646","o":"Q2 Metals Corp. 100%","e":""},"geometry":{"type":"Polygon","coordinates":[[[-77.45833,50.5],[-77.45833,50.49167],[-77.46667,50.49167],[-77.46667,50.5],[-77.45833,50.5]]]}},{"type":"Feature","properties":{"c":"CDC-2800474","o":"Ressources White Stag lt\u00e9e 100%","e":""},"geometry":{"type":"Polygon","coordinates":[[[-77.48333,50.05833],[-77.48333,50.05],[-77.48877,50.05],[-77.48898,50.05011],[-77.48942,50.05014],[-77.49002,50.05036],[-77.49009,50.0508],[-77.49167,50.05145],[-77.49167,50.05833],[-77.48333,50.05833]]]}}]}