{"type":"FeatureCollection","features":[{"type":"Feature","properties":{"c":"CDC-2611640","o":"SRQ Resources Inc. 100%","e":""},"geometry":{"type":"Polygon","coordinates":[[[-77.61667,46.94167],[-77.60833,46.94167],[-77.60833,46.93333],[-77.61667,46.93333],[-77.61667,46.94167]]]}},{"type":"Feature","properties":{"c":"CDC-2611644","o":"SRQ Resources Inc. 100%","e":""},"geometry":{"type":"Polygon","coordinates":[[[-77.61667,46.95],[-77.60833,46.95],[-77.60833,46.94167],[-77.61667,46.94167],[-77.61667,46.95]]]}},{"type":"Feature","properties":{"c":"CDC-2852788","o":"SRQ Resources Inc. 100%","e":""},"geometry":{"type":"Polygon","coordinates":[[[-77.61667,46.95833],[-77.60833,46.95833],[-77.60833,46.95],[-77.61667,46.95],[-77.61667,46.95833]]]}},{"type":"Feature","properties":{"c":"CDC-2852637","o":"SRQ Resources Inc. 100%","e":""},"geometry":{"type":"Polygon","coordinates":[[[-77.61667,46.96667],[-77.60833,46.96667],[-77.60833,46.95833],[-77.61667,46.95833],[-77.61667,46.96667]]]}},{"type":"Feature","properties":{"c":"CDC-2611641","o":"SRQ Resources Inc. 100%","e":""},"geometry":{"type":"Polygon","coordinates":[[[-77.60833,46.94167],[-77.6,46.94167],[-77.6,46.93333],[-77.60833,46.93333],[-77.60833,46.94167]]]}},{"type":"Feature","properties":{"c":"CDC-2611645","o":"SRQ Resources Inc. 100%","e":""},"geometry":{"type":"Polygon","coordinates":[[[-77.60833,46.95],[-77.6,46.95],[-77.6,46.94167],[-77.60833,46.94167],[-77.60833,46.95]]]}},{"type":"Feature","properties":{"c":"CDC-2852789","o":"SRQ Resources Inc. 100%","e":""},"geometry":{"type":"Polygon","coordinates":[[[-77.60833,46.95833],[-77.6,46.95833],[-77.6,46.95],[-77.60833,46.95],[-77.60833,46.95833]]]}},{"type":"Feature","properties":{"c":"CDC-2852638","o":"SRQ Resources Inc. 100%","e":""},"geometry":{"type":"Polygon","coordinates":[[[-77.60833,46.96667],[-77.6,46.96667],[-77.6,46.95833],[-77.60833,46.95833],[-77.60833,46.96667]]]}},{"type":"Feature","properties":{"c":"CDC-2611642","o":"SRQ Resources Inc. 100%","e":""},"geometry":{"type":"Polygon","coordinates":[[[-77.6,46.94167],[-77.59167,46.94167],[-77.59167,46.93333],[-77.6,46.93333],[-77.6,46.94167]]]}},{"type":"Feature","properties":{"c":"CDC-2611646","o":"SRQ Resources Inc. 100%","e":""},"geometry":{"type":"Polygon","coordinates":[[[-77.6,46.95],[-77.59167,46.95],[-77.59167,46.94167],[-77.6,46.94167],[-77.6,46.95]]]}},{"type":"Feature","properties":{"c":"CDC-2852790","o":"SRQ Resources Inc. 100%","e":""},"geometry":{"type":"Polygon","coordinates":[[[-77.6,46.95833],[-77.59167,46.95833],[-77.59167,46.95],[-77.6,46.95],[-77.6,46.95833]]]}},{"type":"Feature","properties":{"c":"CDC-2852639","o":"SRQ Resources Inc. 100%","e":""},"geometry":{"type":"Polygon","coordinates":[[[-77.6,46.96667],[-77.59167,46.96667],[-77.59167,46.95833],[-77.6,46.95833],[-77.6,46.96667]]]}},{"type":"Feature","properties":{"c":"CDC-2611643","o":"SRQ Resources Inc. 100%","e":""},"geometry":{"type":"Polygon","coordinates":[[[-77.59167,46.94167],[-77.58333,46.94167],[-77.58333,46.93333],[-77.59167,46.93333],[-77.59167,46.94167]]]}},{"type":"Feature","properties":{"c":"CDC-2852782","o":"SRQ Resources Inc. 100%","e":""},"geometry":{"type":"Polygon","coordinates":[[[-77.59167,46.95],[-77.58333,46.95],[-77.58333,46.94167],[-77.59167,46.94167],[-77.59167,46.95]]]}},{"type":"Feature","properties":{"c":"CDC-2852791","o":"SRQ Resources Inc. 100%","e":""},"geometry":{"type":"Polygon","coordinates":[[[-77.59167,46.95833],[-77.58333,46.95833],[-77.58333,46.95],[-77.59167,46.95],[-77.59167,46.95833]]]}},{"type":"Feature","properties":{"c":"CDC-2852640","o":"SRQ Resources Inc. 100%","e":""},"geometry":{"type":"Polygon","coordinates":[[[-77.59167,46.96667],[-77.58333,46.96667],[-77.58333,46.95833],[-77.59167,46.95833],[-77.59167,46.96667]]]}},{"type":"Feature","properties":{"c":"CDC-2610794","o":"SRQ Resources Inc. 100%","e":""},"geometry":{"type":"Polygon","coordinates":[[[-77.58333,46.94167],[-77.575,46.94167],[-77.575,46.93333],[-77.58333,46.93333],[-77.58333,46.94167]]]}},{"type":"Feature","properties":{"c":"CDC-2852783","o":"SRQ Resources Inc. 100%","e":""},"geometry":{"type":"Polygon","coordinates":[[[-77.58333,46.95],[-77.575,46.95],[-77.575,46.94167],[-77.58333,46.94167],[-77.58333,46.95]]]}},{"type":"Feature","properties":{"c":"CDC-2852792","o":"SRQ Resources Inc. 100%","e":""},"geometry":{"type":"Polygon","coordinates":[[[-77.58333,46.95833],[-77.575,46.95833],[-77.575,46.95],[-77.58333,46.95],[-77.58333,46.95833]]]}},{"type":"Feature","properties":{"c":"CDC-2852641","o":"SRQ Resources Inc. 100%","e":""},"geometry":{"type":"Polygon","coordinates":[[[-77.58333,46.96667],[-77.575,46.96667],[-77.575,46.95833],[-77.58333,46.95833],[-77.58333,46.96667]]]}},{"type":"Feature","properties":{"c":"CDC-2610795","o":"SRQ Resources Inc. 100%","e":""},"geometry":{"type":"Polygon","coordinates":[[[-77.575,46.94167],[-77.56667,46.94167],[-77.56667,46.93333],[-77.575,46.93333],[-77.575,46.94167]]]}},{"type":"Feature","properties":{"c":"CDC-2852784","o":"SRQ Resources Inc. 100%","e":""},"geometry":{"type":"Polygon","coordinates":[[[-77.575,46.95],[-77.56667,46.95],[-77.56667,46.94167],[-77.575,46.94167],[-77.575,46.95]]]}},{"type":"Feature","properties":{"c":"CDC-2852793","o":"SRQ Resources Inc. 100%","e":""},"geometry":{"type":"Polygon","coordinates":[[[-77.575,46.95833],[-77.56667,46.95833],[-77.56667,46.95],[-77.575,46.95],[-77.575,46.95833]]]}},{"type":"Feature","properties":{"c":"CDC-2852642","o":"SRQ Resources Inc. 100%","e":""},"geometry":{"type":"Polygon","coordinates":[[[-77.575,46.96667],[-77.56667,46.96667],[-77.56667,46.95833],[-77.575,46.95833],[-77.575,46.96667]]]}},{"type":"Feature","properties":{"c":"CDC-2610796","o":"SRQ Resources Inc. 100%","e":""},"geometry":{"type":"Polygon","coordinates":[[[-77.56667,46.94167],[-77.55833,46.94167],[-77.55833,46.93333],[-77.56667,46.93333],[-77.56667,46.94167]]]}},{"type":"Feature","properties":{"c":"CDC-2852785","o":"SRQ Resources Inc. 100%","e":""},"geometry":{"type":"Polygon","coordinates":[[[-77.56667,46.95],[-77.55833,46.95],[-77.55833,46.94167],[-77.56667,46.94167],[-77.56667,46.95]]]}},{"type":"Feature","properties":{"c":"CDC-2865373","o":"SRQ Resources Inc. 100%","e":""},"geometry":{"type":"Polygon","coordinates":[[[-77.56206,46.95776],[-77.56204,46.95764],[-77.56199,46.95751],[-77.56187,46.95739],[-77.56171,46.95728],[-77.56148,46.95713],[-77.56124,46.95699],[-77.56042,46.95666],[-77.56005,46.95652],[-77.55958,46.95635],[-77.55931,46.95622],[-77.55905,46.95609],[-77.55897,46.95605],[-77.55891,46.95599],[-77.55875,46.95583],[-77.55862,46.95566],[-77.55857,46.95567],[-77.55851,46.95568],[-77.55843,46.9557],[-77.55835,46.95572],[-77.55833,46.95572],[-77.55833,46.95],[-77.56667,46.95],[-77.56667,46.95833],[-77.56207,46.95833],[-77.56206,46.95776]]]}},{"type":"Feature","properties":{"c":"CDC-2611629","o":"SRQ Resources Inc. 100%","e":""},"geometry":{"type":"Polygon","coordinates":[[[-77.59167,46.90833],[-77.58333,46.90833],[-77.58333,46.9],[-77.59167,46.9],[-77.59167,46.90833]]]}},{"type":"Feature","properties":{"c":"CDC-2831996","o":"SRQ Resources Inc. 100%","e":""},"geometry":{"type":"Polygon","coordinates":[[[-77.6,46.90833],[-77.59167,46.90833],[-77.59167,46.9],[-77.6,46.9],[-77.6,46.90833]]]}},{"type":"Feature","properties":{"c":"CDC-2831995","o":"SRQ Resources Inc. 100%","e":""},"geometry":{"type":"Polygon","coordinates":[[[-77.60833,46.90833],[-77.6,46.90833],[-77.6,46.9],[-77.60833,46.9],[-77.60833,46.90833]]]}},{"type":"Feature","properties":{"c":"CDC-2831994","o":"SRQ Resources Inc. 100%","e":""},"geometry":{"type":"Polygon","coordinates":[[[-77.61667,46.90833],[-77.60833,46.90833],[-77.60833,46.9],[-77.61667,46.9],[-77.61667,46.90833]]]}},{"type":"Feature","properties":{"c":"CDC-2610779","o":"SRQ Resources Inc. 100%","e":""},"geometry":{"type":"Polygon","coordinates":[[[-77.55833,46.91667],[-77.55,46.91667],[-77.55,46.90833],[-77.55833,46.90833],[-77.55833,46.91667]]]}},{"type":"Feature","properties":{"c":"CDC-2610778","o":"SRQ Resources Inc. 100%","e":""},"geometry":{"type":"Polygon","coordinates":[[[-77.56667,46.91667],[-77.55833,46.91667],[-77.55833,46.90833],[-77.56667,46.90833],[-77.56667,46.91667]]]}},{"type":"Feature","properties":{"c":"CDC-2610777","o":"SRQ Resources Inc. 100%","e":""},"geometry":{"type":"Polygon","coordinates":[[[-77.575,46.91667],[-77.56667,46.91667],[-77.56667,46.90833],[-77.575,46.90833],[-77.575,46.91667]]]}},{"type":"Feature","properties":{"c":"CDC-2610776","o":"SRQ Resources Inc. 100%","e":""},"geometry":{"type":"Polygon","coordinates":[[[-77.58333,46.91667],[-77.575,46.91667],[-77.575,46.90833],[-77.58333,46.90833],[-77.58333,46.91667]]]}},{"type":"Feature","properties":{"c":"CDC-2611631","o":"SRQ Resources Inc. 100%","e":""},"geometry":{"type":"Polygon","coordinates":[[[-77.59167,46.91667],[-77.58333,46.91667],[-77.58333,46.90833],[-77.59167,46.90833],[-77.59167,46.91667]]]}},{"type":"Feature","properties":{"c":"CDC-2611630","o":"SRQ Resources Inc. 100%","e":""},"geometry":{"type":"Polygon","coordinates":[[[-77.6,46.91667],[-77.59167,46.91667],[-77.59167,46.90833],[-77.6,46.90833],[-77.6,46.91667]]]}},{"type":"Feature","properties":{"c":"CDC-2832006","o":"SRQ Resources Inc. 100%","e":""},"geometry":{"type":"Polygon","coordinates":[[[-77.60833,46.91667],[-77.6,46.91667],[-77.6,46.90833],[-77.60833,46.90833],[-77.60833,46.91667]]]}},{"type":"Feature","properties":{"c":"CDC-2832005","o":"SRQ Resources Inc. 100%","e":""},"geometry":{"type":"Polygon","coordinates":[[[-77.61667,46.91667],[-77.60833,46.91667],[-77.60833,46.90833],[-77.61667,46.90833],[-77.61667,46.91667]]]}},{"type":"Feature","properties":{"c":"CDC-2610784","o":"SRQ Resources Inc. 100%","e":""},"geometry":{"type":"Polygon","coordinates":[[[-77.56667,46.925],[-77.55833,46.925],[-77.55833,46.91667],[-77.56667,46.91667],[-77.56667,46.925]]]}},{"type":"Feature","properties":{"c":"CDC-2610783","o":"SRQ Resources Inc. 100%","e":""},"geometry":{"type":"Polygon","coordinates":[[[-77.575,46.925],[-77.56667,46.925],[-77.56667,46.91667],[-77.575,46.91667],[-77.575,46.925]]]}},{"type":"Feature","properties":{"c":"CDC-2610782","o":"SRQ Resources Inc. 100%","e":""},"geometry":{"type":"Polygon","coordinates":[[[-77.58333,46.925],[-77.575,46.925],[-77.575,46.91667],[-77.58333,46.91667],[-77.58333,46.925]]]}},{"type":"Feature","properties":{"c":"CDC-2611635","o":"SRQ Resources Inc. 100%","e":""},"geometry":{"type":"Polygon","coordinates":[[[-77.59167,46.925],[-77.58333,46.925],[-77.58333,46.91667],[-77.59167,46.91667],[-77.59167,46.925]]]}},{"type":"Feature","properties":{"c":"CDC-2611634","o":"SRQ Resources Inc. 100%","e":""},"geometry":{"type":"Polygon","coordinates":[[[-77.6,46.925],[-77.59167,46.925],[-77.59167,46.91667],[-77.6,46.91667],[-77.6,46.925]]]}},{"type":"Feature","properties":{"c":"CDC-2611633","o":"SRQ Resources Inc. 100%","e":""},"geometry":{"type":"Polygon","coordinates":[[[-77.60833,46.925],[-77.6,46.925],[-77.6,46.91667],[-77.60833,46.91667],[-77.60833,46.925]]]}},{"type":"Feature","properties":{"c":"CDC-2611632","o":"SRQ Resources Inc. 100%","e":""},"geometry":{"type":"Polygon","coordinates":[[[-77.61667,46.925],[-77.60833,46.925],[-77.60833,46.91667],[-77.61667,46.91667],[-77.61667,46.925]]]}},{"type":"Feature","properties":{"c":"CDC-2610790","o":"SRQ Resources Inc. 100%","e":""},"geometry":{"type":"Polygon","coordinates":[[[-77.56667,46.93333],[-77.55833,46.93333],[-77.55833,46.925],[-77.56667,46.925],[-77.56667,46.93333]]]}},{"type":"Feature","properties":{"c":"CDC-2610789","o":"SRQ Resources Inc. 100%","e":""},"geometry":{"type":"Polygon","coordinates":[[[-77.575,46.93333],[-77.56667,46.93333],[-77.56667,46.925],[-77.575,46.925],[-77.575,46.93333]]]}},{"type":"Feature","properties":{"c":"CDC-2610788","o":"SRQ Resources Inc. 100%","e":""},"geometry":{"type":"Polygon","coordinates":[[[-77.58333,46.93333],[-77.575,46.93333],[-77.575,46.925],[-77.58333,46.925],[-77.58333,46.93333]]]}},{"type":"Feature","properties":{"c":"CDC-2611639","o":"SRQ Resources Inc. 100%","e":""},"geometry":{"type":"Polygon","coordinates":[[[-77.59167,46.93333],[-77.58333,46.93333],[-77.58333,46.925],[-77.59167,46.925],[-77.59167,46.93333]]]}},{"type":"Feature","properties":{"c":"CDC-2611638","o":"SRQ Resources Inc. 100%","e":""},"geometry":{"type":"Polygon","coordinates":[[[-77.6,46.93333],[-77.59167,46.93333],[-77.59167,46.925],[-77.6,46.925],[-77.6,46.93333]]]}},{"type":"Feature","properties":{"c":"CDC-2611637","o":"SRQ Resources Inc. 100%","e":""},"geometry":{"type":"Polygon","coordinates":[[[-77.60833,46.93333],[-77.6,46.93333],[-77.6,46.925],[-77.60833,46.925],[-77.60833,46.93333]]]}},{"type":"Feature","properties":{"c":"CDC-2611636","o":"SRQ Resources Inc. 100%","e":""},"geometry":{"type":"Polygon","coordinates":[[[-77.61667,46.93333],[-77.60833,46.93333],[-77.60833,46.925],[-77.61667,46.925],[-77.61667,46.93333]]]}},{"type":"Feature","properties":{"c":"CDC-2611671","o":"SRQ Resources Inc. 100%","e":""},"geometry":{"type":"Polygon","coordinates":[[[-77.625,46.93333],[-77.61667,46.93333],[-77.61667,46.925],[-77.625,46.925],[-77.625,46.93333]]]}},{"type":"Feature","properties":{"c":"CDC-2852632","o":"SRQ Resources Inc. 100%","e":""},"geometry":{"type":"Polygon","coordinates":[[[-77.55833,46.88333],[-77.55,46.88333],[-77.55,46.875],[-77.55833,46.875],[-77.55833,46.88333]]]}},{"type":"Feature","properties":{"c":"CDC-2852631","o":"SRQ Resources Inc. 100%","e":""},"geometry":{"type":"Polygon","coordinates":[[[-77.56667,46.88333],[-77.55833,46.88333],[-77.55833,46.875],[-77.56667,46.875],[-77.56667,46.88333]]]}},{"type":"Feature","properties":{"c":"CDC-2852630","o":"SRQ Resources Inc. 100%","e":""},"geometry":{"type":"Polygon","coordinates":[[[-77.575,46.88333],[-77.56667,46.88333],[-77.56667,46.875],[-77.575,46.875],[-77.575,46.88333]]]}},{"type":"Feature","properties":{"c":"CDC-2852629","o":"SRQ Resources Inc. 100%","e":""},"geometry":{"type":"Polygon","coordinates":[[[-77.58333,46.88333],[-77.575,46.88333],[-77.575,46.875],[-77.58333,46.875],[-77.58333,46.88333]]]}},{"type":"Feature","properties":{"c":"CDC-2852628","o":"SRQ Resources Inc. 100%","e":""},"geometry":{"type":"Polygon","coordinates":[[[-77.59167,46.88333],[-77.58333,46.88333],[-77.58333,46.875],[-77.59167,46.875],[-77.59167,46.88333]]]}},{"type":"Feature","properties":{"c":"CDC-2865416","o":"SRQ Resources Inc. 100%","e":""},"geometry":{"type":"Polygon","coordinates":[[[-77.59232,46.87588],[-77.59253,46.87594],[-77.59261,46.87598],[-77.59293,46.87612],[-77.5931,46.87619],[-77.59325,46.87628],[-77.59331,46.87635],[-77.59335,46.87639],[-77.59345,46.87649],[-77.59352,46.87661],[-77.5936,46.87672],[-77.59377,46.87686],[-77.59398,46.87697],[-77.59439,46.87723],[-77.59468,46.87762],[-77.595,46.87802],[-77.59511,46.8781],[-77.59523,46.87819],[-77.59636,46.87899],[-77.59749,46.8798],[-77.59802,46.88029],[-77.59847,46.88084],[-77.59856,46.88098],[-77.59863,46.88112],[-77.59869,46.88132],[-77.59873,46.88151],[-77.59849,46.88333],[-77.59167,46.88333],[-77.59167,46.875],[-77.59522,46.875],[-77.59232,46.87588]]]}},{"type":"Feature","properties":{"c":"CDC-2865415","o":"SRQ Resources Inc. 100%","e":""},"geometry":{"type":"Polygon","coordinates":[[[-77.6,46.875],[-77.60833,46.875],[-77.60833,46.87974],[-77.60825,46.87965],[-77.6081,46.87955],[-77.60793,46.87946],[-77.60785,46.87944],[-77.60777,46.87943],[-77.60774,46.87946],[-77.60765,46.8795],[-77.60744,46.87944],[-77.60727,46.87935],[-77.60712,46.87921],[-77.60709,46.8792],[-77.60695,46.87903],[-77.60692,46.87897],[-77.60691,46.87892],[-77.60689,46.87861],[-77.60688,46.8783],[-77.60685,46.87818],[-77.60681,46.87807],[-77.60655,46.87756],[-77.6062,46.87708],[-77.60604,46.87698],[-77.60595,46.87696],[-77.60588,46.87698],[-77.60579,46.87709],[-77.60577,46.87719],[-77.6058,46.8773],[-77.60584,46.87741],[-77.60588,46.87746],[-77.60591,46.87752],[-77.60595,46.87768],[-77.6059,46.87784],[-77.60582,46.8779],[-77.60573,46.87793],[-77.60551,46.87799],[-77.60527,46.87803],[-77.6051,46.87803],[-77.60493,46.87798],[-77.60485,46.87792],[-77.60481,46.87787],[-77.6048,46.87776],[-77.60482,46.87765],[-77.60496,46.87755],[-77.60509,46.87745],[-77.60509,46.87739],[-77.60506,46.87734],[-77.60488,46.87718],[-77.60465,46.87702],[-77.60434,46.87687],[-77.60403,46.87673],[-77.60385,46.87667],[-77.60367,46.87663],[-77.60347,46.87647],[-77.60336,46.87638],[-77.60323,46.87633],[-77.60299,46.87631],[-77.60276,46.8763],[-77.60265,46.87629],[-77.60255,46.87631],[-77.60243,46.87637],[-77.60218,46.87627],[-77.60193,46.8762],[-77.60165,46.87619],[-77.60137,46.87618],[-77.60123,46.87616],[-77.60113,46.87611],[-77.60081,46.87579],[-77.60051,46.87547],[-77.60042,46.87536],[-77.60031,46.87526],[-77.60008,46.87513],[-77.6,46.87511],[-77.6,46.875]]]}},{"type":"Feature","properties":{"c":"CDC-2852627","o":"SRQ Resources Inc. 100%","e":""},"geometry":{"type":"Polygon","coordinates":[[[-77.6088,46.88333],[-77.60888,46.88186],[-77.60883,46.88183],[-77.60881,46.88181],[-77.6088,46.88177],[-77.60881,46.88171],[-77.60886,46.88165],[-77.60896,46.88162],[-77.60903,46.88158],[-77.60907,46.88147],[-77.60913,46.88136],[-77.60921,46.8813],[-77.60929,46.88128],[-77.60927,46.88106],[-77.60927,46.88098],[-77.60928,46.88082],[-77.60911,46.88071],[-77.60905,46.88067],[-77.60883,46.88052],[-77.60871,46.88042],[-77.60861,46.88031],[-77.60857,46.88014],[-77.60854,46.87997],[-77.60841,46.8798],[-77.60833,46.87974],[-77.60833,46.875],[-77.61667,46.875],[-77.61667,46.88333],[-77.6088,46.88333]]]}},{"type":"Feature","properties":{"c":"CDC-2852613","o":"SRQ Resources Inc. 100%","e":""},"geometry":{"type":"Polygon","coordinates":[[[-77.55833,46.89167],[-77.55,46.89167],[-77.55,46.88333],[-77.55833,46.88333],[-77.55833,46.89167]]]}},{"type":"Feature","properties":{"c":"CDC-2852612","o":"SRQ Resources Inc. 100%","e":""},"geometry":{"type":"Polygon","coordinates":[[[-77.56667,46.89167],[-77.55833,46.89167],[-77.55833,46.88333],[-77.56667,46.88333],[-77.56667,46.89167]]]}},{"type":"Feature","properties":{"c":"CDC-2852611","o":"SRQ Resources Inc. 100%","e":""},"geometry":{"type":"Polygon","coordinates":[[[-77.575,46.89167],[-77.56667,46.89167],[-77.56667,46.88333],[-77.575,46.88333],[-77.575,46.89167]]]}},{"type":"Feature","properties":{"c":"CDC-2852610","o":"SRQ Resources Inc. 100%","e":""},"geometry":{"type":"Polygon","coordinates":[[[-77.58333,46.89167],[-77.575,46.89167],[-77.575,46.88333],[-77.58333,46.88333],[-77.58333,46.89167]]]}},{"type":"Feature","properties":{"c":"CDC-2852609","o":"SRQ Resources Inc. 100%","e":""},"geometry":{"type":"Polygon","coordinates":[[[-77.59167,46.89167],[-77.58333,46.89167],[-77.58333,46.88333],[-77.59167,46.88333],[-77.59167,46.89167]]]}},{"type":"Feature","properties":{"c":"CDC-2852636","o":"SRQ Resources Inc. 100%","e":""},"geometry":{"type":"Polygon","coordinates":[[[-77.59167,46.89167],[-77.59167,46.88333],[-77.59849,46.88333],[-77.59847,46.88349],[-77.59854,46.88353],[-77.59843,46.88387],[-77.59843,46.88411],[-77.59854,46.88433],[-77.59836,46.8843],[-77.59829,46.8848],[-77.59835,46.88481],[-77.59852,46.88487],[-77.59868,46.88493],[-77.599,46.88505],[-77.59925,46.88516],[-77.59932,46.88518],[-77.59948,46.88526],[-77.59965,46.88535],[-77.5998,46.88551],[-77.59995,46.88567],[-77.6,46.88571],[-77.6,46.89167],[-77.59167,46.89167]]]}},{"type":"Feature","properties":{"c":"CDC-2852635","o":"SRQ Resources Inc. 100%","e":""},"geometry":{"type":"Polygon","coordinates":[[[-77.61667,46.89167],[-77.60833,46.89167],[-77.60833,46.88471],[-77.60848,46.88467],[-77.60865,46.88467],[-77.60873,46.88465],[-77.6088,46.88333],[-77.61667,46.88333],[-77.61667,46.89167]]]}},{"type":"Feature","properties":{"c":"CDC-2865376","o":"SRQ Resources Inc. 100%","e":""},"geometry":{"type":"Polygon","coordinates":[[[-77.60001,46.88572],[-77.6001,46.88576],[-77.60034,46.8858],[-77.60058,46.88584],[-77.60074,46.8859],[-77.6009,46.88595],[-77.60107,46.88597],[-77.60122,46.88598],[-77.60148,46.88605],[-77.6017,46.88614],[-77.60187,46.88622],[-77.60203,46.8863],[-77.6021,46.88635],[-77.60214,46.88641],[-77.60217,46.88651],[-77.60212,46.88662],[-77.60201,46.88676],[-77.6081,46.88485],[-77.60826,46.88473],[-77.60833,46.88471],[-77.60833,46.89167],[-77.6,46.89167],[-77.6,46.88571],[-77.60001,46.88572]]]}},{"type":"Feature","properties":{"c":"CDC-2852621","o":"SRQ Resources Inc. 100%","e":""},"geometry":{"type":"Polygon","coordinates":[[[-77.55833,46.9],[-77.55,46.9],[-77.55,46.89167],[-77.55833,46.89167],[-77.55833,46.9]]]}},{"type":"Feature","properties":{"c":"CDC-2852620","o":"SRQ Resources Inc. 100%","e":""},"geometry":{"type":"Polygon","coordinates":[[[-77.56667,46.9],[-77.55833,46.9],[-77.55833,46.89167],[-77.56667,46.89167],[-77.56667,46.9]]]}},{"type":"Feature","properties":{"c":"CDC-2852619","o":"SRQ Resources Inc. 100%","e":""},"geometry":{"type":"Polygon","coordinates":[[[-77.575,46.9],[-77.56667,46.9],[-77.56667,46.89167],[-77.575,46.89167],[-77.575,46.9]]]}},{"type":"Feature","properties":{"c":"CDC-2852618","o":"SRQ Resources Inc. 100%","e":""},"geometry":{"type":"Polygon","coordinates":[[[-77.58333,46.9],[-77.575,46.9],[-77.575,46.89167],[-77.58333,46.89167],[-77.58333,46.9]]]}},{"type":"Feature","properties":{"c":"CDC-2852617","o":"SRQ Resources Inc. 100%","e":""},"geometry":{"type":"Polygon","coordinates":[[[-77.6,46.9],[-77.59167,46.9],[-77.59167,46.89167],[-77.6,46.89167],[-77.6,46.9]]]}},{"type":"Feature","properties":{"c":"CDC-2852616","o":"SRQ Resources Inc. 100%","e":""},"geometry":{"type":"Polygon","coordinates":[[[-77.60833,46.9],[-77.6,46.9],[-77.6,46.89167],[-77.60833,46.89167],[-77.60833,46.9]]]}},{"type":"Feature","properties":{"c":"CDC-2852615","o":"SRQ Resources Inc. 100%","e":""},"geometry":{"type":"Polygon","coordinates":[[[-77.61667,46.9],[-77.60833,46.9],[-77.60833,46.89167],[-77.61667,46.89167],[-77.61667,46.9]]]}},{"type":"Feature","properties":{"c":"CDC-2610773","o":"SRQ Resources Inc. 100%","e":""},"geometry":{"type":"Polygon","coordinates":[[[-77.55833,46.90833],[-77.55,46.90833],[-77.55,46.9],[-77.55833,46.9],[-77.55833,46.90833]]]}},{"type":"Feature","properties":{"c":"CDC-2610772","o":"SRQ Resources Inc. 100%","e":""},"geometry":{"type":"Polygon","coordinates":[[[-77.56667,46.90833],[-77.55833,46.90833],[-77.55833,46.9],[-77.56667,46.9],[-77.56667,46.90833]]]}},{"type":"Feature","properties":{"c":"CDC-2610771","o":"SRQ Resources Inc. 100%","e":""},"geometry":{"type":"Polygon","coordinates":[[[-77.575,46.90833],[-77.56667,46.90833],[-77.56667,46.9],[-77.575,46.9],[-77.575,46.90833]]]}},{"type":"Feature","properties":{"c":"CDC-2610770","o":"SRQ Resources Inc. 100%","e":""},"geometry":{"type":"Polygon","coordinates":[[[-77.58333,46.90833],[-77.575,46.90833],[-77.575,46.9],[-77.58333,46.9],[-77.58333,46.90833]]]}},{"type":"Feature","properties":{"c":"CDC-2611762","o":"SRQ Resources Inc. 100%","e":""},"geometry":{"type":"Polygon","coordinates":[[[-77.66667,46.95833],[-77.65833,46.95833],[-77.65833,46.95],[-77.66667,46.95],[-77.66667,46.95833]]]}},{"type":"Feature","properties":{"c":"CDC-2611769","o":"SRQ Resources Inc. 100%","e":""},"geometry":{"type":"Polygon","coordinates":[[[-77.66667,46.96667],[-77.65833,46.96667],[-77.65833,46.95833],[-77.66667,46.95833],[-77.66667,46.96667]]]}},{"type":"Feature","properties":{"c":"CDC-2611771","o":"SRQ Resources Inc. 100%","e":""},"geometry":{"type":"Polygon","coordinates":[[[-77.66667,46.975],[-77.65833,46.975],[-77.65833,46.96667],[-77.66667,46.96667],[-77.66667,46.975]]]}},{"type":"Feature","properties":{"c":"CDC-2611740","o":"SRQ Resources Inc. 100%","e":""},"geometry":{"type":"Polygon","coordinates":[[[-77.65833,46.93333],[-77.65,46.93333],[-77.65,46.925],[-77.65833,46.925],[-77.65833,46.93333]]]}},{"type":"Feature","properties":{"c":"CDC-2611748","o":"SRQ Resources Inc. 100%","e":""},"geometry":{"type":"Polygon","coordinates":[[[-77.65833,46.94167],[-77.65,46.94167],[-77.65,46.93333],[-77.65833,46.93333],[-77.65833,46.94167]]]}},{"type":"Feature","properties":{"c":"CDC-2612882","o":"SRQ Resources Inc. 100%","e":""},"geometry":{"type":"Polygon","coordinates":[[[-77.65833,46.95],[-77.65,46.95],[-77.65,46.94167],[-77.65833,46.94167],[-77.65833,46.95]]]}},{"type":"Feature","properties":{"c":"CDC-2611647","o":"SRQ Resources Inc. 100%","e":""},"geometry":{"type":"Polygon","coordinates":[[[-77.65833,46.95833],[-77.65,46.95833],[-77.65,46.95],[-77.65833,46.95],[-77.65833,46.95833]]]}},{"type":"Feature","properties":{"c":"CDC-2611648","o":"SRQ Resources Inc. 100%","e":""},"geometry":{"type":"Polygon","coordinates":[[[-77.65833,46.96667],[-77.65,46.96667],[-77.65,46.95833],[-77.65833,46.95833],[-77.65833,46.96667]]]}},{"type":"Feature","properties":{"c":"CDC-2611772","o":"SRQ Resources Inc. 100%","e":""},"geometry":{"type":"Polygon","coordinates":[[[-77.65833,46.975],[-77.65,46.975],[-77.65,46.96667],[-77.65833,46.96667],[-77.65833,46.975]]]}},{"type":"Feature","properties":{"c":"CDC-2611668","o":"SRQ Resources Inc. 100%","e":""},"geometry":{"type":"Polygon","coordinates":[[[-77.65,46.93333],[-77.64167,46.93333],[-77.64167,46.925],[-77.65,46.925],[-77.65,46.93333]]]}},{"type":"Feature","properties":{"c":"CDC-2611672","o":"SRQ Resources Inc. 100%","e":""},"geometry":{"type":"Polygon","coordinates":[[[-77.65,46.94167],[-77.64167,46.94167],[-77.64167,46.93333],[-77.65,46.93333],[-77.65,46.94167]]]}},{"type":"Feature","properties":{"c":"CDC-2611679","o":"SRQ Resources Inc. 100%","e":""},"geometry":{"type":"Polygon","coordinates":[[[-77.65,46.95],[-77.64167,46.95],[-77.64167,46.94167],[-77.65,46.94167],[-77.65,46.95]]]}},{"type":"Feature","properties":{"c":"CDC-2611686","o":"SRQ Resources Inc. 100%","e":""},"geometry":{"type":"Polygon","coordinates":[[[-77.65,46.95833],[-77.64167,46.95833],[-77.64167,46.95],[-77.65,46.95],[-77.65,46.95833]]]}},{"type":"Feature","properties":{"c":"CDC-2611693","o":"SRQ Resources Inc. 100%","e":""},"geometry":{"type":"Polygon","coordinates":[[[-77.65,46.96667],[-77.64167,46.96667],[-77.64167,46.95833],[-77.65,46.95833],[-77.65,46.96667]]]}},{"type":"Feature","properties":{"c":"CDC-2611669","o":"SRQ Resources Inc. 100%","e":""},"geometry":{"type":"Polygon","coordinates":[[[-77.64167,46.93333],[-77.63333,46.93333],[-77.63333,46.925],[-77.64167,46.925],[-77.64167,46.93333]]]}},{"type":"Feature","properties":{"c":"CDC-2611673","o":"SRQ Resources Inc. 100%","e":""},"geometry":{"type":"Polygon","coordinates":[[[-77.64167,46.94167],[-77.63333,46.94167],[-77.63333,46.93333],[-77.64167,46.93333],[-77.64167,46.94167]]]}},{"type":"Feature","properties":{"c":"CDC-2611680","o":"SRQ Resources Inc. 100%","e":""},"geometry":{"type":"Polygon","coordinates":[[[-77.64167,46.95],[-77.63333,46.95],[-77.63333,46.94167],[-77.64167,46.94167],[-77.64167,46.95]]]}},{"type":"Feature","properties":{"c":"CDC-2611687","o":"SRQ Resources Inc. 100%","e":""},"geometry":{"type":"Polygon","coordinates":[[[-77.64167,46.95833],[-77.63333,46.95833],[-77.63333,46.95],[-77.64167,46.95],[-77.64167,46.95833]]]}},{"type":"Feature","properties":{"c":"CDC-2611694","o":"SRQ Resources Inc. 100%","e":""},"geometry":{"type":"Polygon","coordinates":[[[-77.64167,46.96667],[-77.63333,46.96667],[-77.63333,46.95833],[-77.64167,46.95833],[-77.64167,46.96667]]]}},{"type":"Feature","properties":{"c":"CDC-2611674","o":"SRQ Resources Inc. 100%","e":""},"geometry":{"type":"Polygon","coordinates":[[[-77.63333,46.94167],[-77.625,46.94167],[-77.625,46.93333],[-77.63333,46.93333],[-77.63333,46.94167]]]}},{"type":"Feature","properties":{"c":"CDC-2611681","o":"SRQ Resources Inc. 100%","e":""},"geometry":{"type":"Polygon","coordinates":[[[-77.63333,46.95],[-77.625,46.95],[-77.625,46.94167],[-77.63333,46.94167],[-77.63333,46.95]]]}},{"type":"Feature","properties":{"c":"CDC-2611688","o":"SRQ Resources Inc. 100%","e":""},"geometry":{"type":"Polygon","coordinates":[[[-77.63333,46.95833],[-77.625,46.95833],[-77.625,46.95],[-77.63333,46.95],[-77.63333,46.95833]]]}},{"type":"Feature","properties":{"c":"CDC-2611695","o":"SRQ Resources Inc. 100%","e":""},"geometry":{"type":"Polygon","coordinates":[[[-77.63333,46.96667],[-77.625,46.96667],[-77.625,46.95833],[-77.63333,46.95833],[-77.63333,46.96667]]]}},{"type":"Feature","properties":{"c":"CDC-2611675","o":"SRQ Resources Inc. 100%","e":""},"geometry":{"type":"Polygon","coordinates":[[[-77.625,46.94167],[-77.61667,46.94167],[-77.61667,46.93333],[-77.625,46.93333],[-77.625,46.94167]]]}},{"type":"Feature","properties":{"c":"CDC-2611682","o":"SRQ Resources Inc. 100%","e":""},"geometry":{"type":"Polygon","coordinates":[[[-77.625,46.95],[-77.61667,46.95],[-77.61667,46.94167],[-77.625,46.94167],[-77.625,46.95]]]}},{"type":"Feature","properties":{"c":"CDC-2611689","o":"SRQ Resources Inc. 100%","e":""},"geometry":{"type":"Polygon","coordinates":[[[-77.625,46.95833],[-77.61667,46.95833],[-77.61667,46.95],[-77.625,46.95],[-77.625,46.95833]]]}},{"type":"Feature","properties":{"c":"CDC-2611696","o":"SRQ Resources Inc. 100%","e":""},"geometry":{"type":"Polygon","coordinates":[[[-77.625,46.96667],[-77.61667,46.96667],[-77.61667,46.95833],[-77.625,46.95833],[-77.625,46.96667]]]}},{"type":"Feature","properties":{"c":"CDC-2831989","o":"SRQ Resources Inc. 100%","e":""},"geometry":{"type":"Polygon","coordinates":[[[-77.65833,46.90833],[-77.65,46.90833],[-77.65,46.9],[-77.65833,46.9],[-77.65833,46.90833]]]}},{"type":"Feature","properties":{"c":"CDC-2832000","o":"SRQ Resources Inc. 100%","e":""},"geometry":{"type":"Polygon","coordinates":[[[-77.65833,46.91667],[-77.65,46.91667],[-77.65,46.90833],[-77.65833,46.90833],[-77.65833,46.91667]]]}},{"type":"Feature","properties":{"c":"CDC-2832010","o":"SRQ Resources Inc. 100%","e":""},"geometry":{"type":"Polygon","coordinates":[[[-77.65833,46.925],[-77.65,46.925],[-77.65,46.91667],[-77.65833,46.91667],[-77.65833,46.925]]]}},{"type":"Feature","properties":{"c":"CDC-2852634","o":"SRQ Resources Inc. 100%","e":""},"geometry":{"type":"Polygon","coordinates":[[[-77.65,46.89167],[-77.64167,46.89167],[-77.64167,46.88333],[-77.64909,46.88333],[-77.64913,46.88339],[-77.64918,46.88344],[-77.64934,46.88348],[-77.6495,46.88353],[-77.64978,46.88364],[-77.65,46.88376],[-77.65,46.89167]]]}},{"type":"Feature","properties":{"c":"CDC-2852777","o":"SRQ Resources Inc. 100%","e":""},"geometry":{"type":"Polygon","coordinates":[[[-77.65,46.9],[-77.64167,46.9],[-77.64167,46.89167],[-77.65,46.89167],[-77.65,46.9]]]}},{"type":"Feature","properties":{"c":"CDC-2831990","o":"SRQ Resources Inc. 100%","e":""},"geometry":{"type":"Polygon","coordinates":[[[-77.65,46.90833],[-77.64167,46.90833],[-77.64167,46.9],[-77.65,46.9],[-77.65,46.90833]]]}},{"type":"Feature","properties":{"c":"CDC-2832001","o":"SRQ Resources Inc. 100%","e":""},"geometry":{"type":"Polygon","coordinates":[[[-77.65,46.91667],[-77.64167,46.91667],[-77.64167,46.90833],[-77.65,46.90833],[-77.65,46.91667]]]}},{"type":"Feature","properties":{"c":"CDC-2832011","o":"SRQ Resources Inc. 100%","e":""},"geometry":{"type":"Polygon","coordinates":[[[-77.65,46.925],[-77.64167,46.925],[-77.64167,46.91667],[-77.65,46.91667],[-77.65,46.925]]]}},{"type":"Feature","properties":{"c":"CDC-2852624","o":"SRQ Resources Inc. 100%","e":""},"geometry":{"type":"Polygon","coordinates":[[[-77.64167,46.88333],[-77.63333,46.88333],[-77.63333,46.875],[-77.64167,46.875],[-77.64167,46.88333]]]}},{"type":"Feature","properties":{"c":"CDC-2852606","o":"SRQ Resources Inc. 100%","e":""},"geometry":{"type":"Polygon","coordinates":[[[-77.64167,46.89167],[-77.63333,46.89167],[-77.63333,46.88333],[-77.64167,46.88333],[-77.64167,46.89167]]]}},{"type":"Feature","properties":{"c":"CDC-2852778","o":"SRQ Resources Inc. 100%","e":""},"geometry":{"type":"Polygon","coordinates":[[[-77.64167,46.9],[-77.63333,46.9],[-77.63333,46.89167],[-77.64167,46.89167],[-77.64167,46.9]]]}},{"type":"Feature","properties":{"c":"CDC-2831991","o":"SRQ Resources Inc. 100%","e":""},"geometry":{"type":"Polygon","coordinates":[[[-77.64167,46.90833],[-77.63333,46.90833],[-77.63333,46.9],[-77.64167,46.9],[-77.64167,46.90833]]]}},{"type":"Feature","properties":{"c":"CDC-2832002","o":"SRQ Resources Inc. 100%","e":""},"geometry":{"type":"Polygon","coordinates":[[[-77.64167,46.91667],[-77.63333,46.91667],[-77.63333,46.90833],[-77.64167,46.90833],[-77.64167,46.91667]]]}},{"type":"Feature","properties":{"c":"CDC-2832012","o":"SRQ Resources Inc. 100%","e":""},"geometry":{"type":"Polygon","coordinates":[[[-77.64167,46.925],[-77.63333,46.925],[-77.63333,46.91667],[-77.64167,46.91667],[-77.64167,46.925]]]}},{"type":"Feature","properties":{"c":"CDC-2852625","o":"SRQ Resources Inc. 100%","e":""},"geometry":{"type":"Polygon","coordinates":[[[-77.63333,46.88333],[-77.625,46.88333],[-77.625,46.875],[-77.63333,46.875],[-77.63333,46.88333]]]}},{"type":"Feature","properties":{"c":"CDC-2852607","o":"SRQ Resources Inc. 100%","e":""},"geometry":{"type":"Polygon","coordinates":[[[-77.63333,46.89167],[-77.625,46.89167],[-77.625,46.88333],[-77.63333,46.88333],[-77.63333,46.89167]]]}},{"type":"Feature","properties":{"c":"CDC-2852779","o":"SRQ Resources Inc. 100%","e":""},"geometry":{"type":"Polygon","coordinates":[[[-77.63333,46.9],[-77.625,46.9],[-77.625,46.89167],[-77.63333,46.89167],[-77.63333,46.9]]]}},{"type":"Feature","properties":{"c":"CDC-2831992","o":"SRQ Resources Inc. 100%","e":""},"geometry":{"type":"Polygon","coordinates":[[[-77.63333,46.90833],[-77.625,46.90833],[-77.625,46.9],[-77.63333,46.9],[-77.63333,46.90833]]]}},{"type":"Feature","properties":{"c":"CDC-2832003","o":"SRQ Resources Inc. 100%","e":""},"geometry":{"type":"Polygon","coordinates":[[[-77.63333,46.91667],[-77.625,46.91667],[-77.625,46.90833],[-77.63333,46.90833],[-77.63333,46.91667]]]}},{"type":"Feature","properties":{"c":"CDC-2832013","o":"SRQ Resources Inc. 100%","e":""},"geometry":{"type":"Polygon","coordinates":[[[-77.63333,46.925],[-77.625,46.925],[-77.625,46.91667],[-77.63333,46.91667],[-77.63333,46.925]]]}},{"type":"Feature","properties":{"c":"CDC-2852626","o":"SRQ Resources Inc. 100%","e":""},"geometry":{"type":"Polygon","coordinates":[[[-77.625,46.88333],[-77.61667,46.88333],[-77.61667,46.875],[-77.625,46.875],[-77.625,46.88333]]]}},{"type":"Feature","properties":{"c":"CDC-2611670","o":"SRQ Resources Inc. 100%","e":""},"geometry":{"type":"Polygon","coordinates":[[[-77.63333,46.93333],[-77.625,46.93333],[-77.625,46.925],[-77.63333,46.925],[-77.63333,46.93333]]]}},{"type":"Feature","properties":{"c":"CDC-2852608","o":"SRQ Resources Inc. 100%","e":""},"geometry":{"type":"Polygon","coordinates":[[[-77.625,46.89167],[-77.61667,46.89167],[-77.61667,46.88333],[-77.625,46.88333],[-77.625,46.89167]]]}},{"type":"Feature","properties":{"c":"CDC-2852780","o":"SRQ Resources Inc. 100%","e":""},"geometry":{"type":"Polygon","coordinates":[[[-77.625,46.9],[-77.61667,46.9],[-77.61667,46.89167],[-77.625,46.89167],[-77.625,46.9]]]}},{"type":"Feature","properties":{"c":"CDC-2831993","o":"SRQ Resources Inc. 100%","e":""},"geometry":{"type":"Polygon","coordinates":[[[-77.625,46.90833],[-77.61667,46.90833],[-77.61667,46.9],[-77.625,46.9],[-77.625,46.90833]]]}},{"type":"Feature","properties":{"c":"CDC-2832004","o":"SRQ Resources Inc. 100%","e":""},"geometry":{"type":"Polygon","coordinates":[[[-77.625,46.91667],[-77.61667,46.91667],[-77.61667,46.90833],[-77.625,46.90833],[-77.625,46.91667]]]}},{"type":"Feature","properties":{"c":"CDC-2832014","o":"SRQ Resources Inc. 100%","e":""},"geometry":{"type":"Polygon","coordinates":[[[-77.625,46.925],[-77.61667,46.925],[-77.61667,46.91667],[-77.625,46.91667],[-77.625,46.925]]]}},{"type":"Feature","properties":{"c":"CDC-2831681","o":"SRQ Resources Inc. 100%","e":""},"geometry":{"type":"Polygon","coordinates":[[[-77.7,46.91667],[-77.69167,46.91667],[-77.69167,46.90833],[-77.7,46.90833],[-77.7,46.91667]]]}},{"type":"Feature","properties":{"c":"CDC-2831692","o":"SRQ Resources Inc. 100%","e":""},"geometry":{"type":"Polygon","coordinates":[[[-77.7,46.925],[-77.69167,46.925],[-77.69167,46.91667],[-77.7,46.91667],[-77.7,46.925]]]}},{"type":"Feature","properties":{"c":"CDC-2611735","o":"SRQ Resources Inc. 100%","e":""},"geometry":{"type":"Polygon","coordinates":[[[-77.7,46.93333],[-77.69167,46.93333],[-77.69167,46.925],[-77.7,46.925],[-77.7,46.93333]]]}},{"type":"Feature","properties":{"c":"CDC-2611743","o":"SRQ Resources Inc. 100%","e":""},"geometry":{"type":"Polygon","coordinates":[[[-77.7,46.94167],[-77.69167,46.94167],[-77.69167,46.93333],[-77.7,46.93333],[-77.7,46.94167]]]}},{"type":"Feature","properties":{"c":"CDC-2831674","o":"SRQ Resources Inc. 100%","e":""},"geometry":{"type":"Polygon","coordinates":[[[-77.69167,46.90833],[-77.68333,46.90833],[-77.68333,46.9],[-77.69167,46.9],[-77.69167,46.90833]]]}},{"type":"Feature","properties":{"c":"CDC-2831682","o":"SRQ Resources Inc. 100%","e":""},"geometry":{"type":"Polygon","coordinates":[[[-77.69167,46.91667],[-77.68333,46.91667],[-77.68333,46.90833],[-77.69167,46.90833],[-77.69167,46.91667]]]}},{"type":"Feature","properties":{"c":"CDC-2831693","o":"SRQ Resources Inc. 100%","e":""},"geometry":{"type":"Polygon","coordinates":[[[-77.69167,46.925],[-77.68333,46.925],[-77.68333,46.91667],[-77.69167,46.91667],[-77.69167,46.925]]]}},{"type":"Feature","properties":{"c":"CDC-2611736","o":"SRQ Resources Inc. 100%","e":""},"geometry":{"type":"Polygon","coordinates":[[[-77.69167,46.93333],[-77.68333,46.93333],[-77.68333,46.925],[-77.69167,46.925],[-77.69167,46.93333]]]}},{"type":"Feature","properties":{"c":"CDC-2611744","o":"SRQ Resources Inc. 100%","e":""},"geometry":{"type":"Polygon","coordinates":[[[-77.69167,46.94167],[-77.68333,46.94167],[-77.68333,46.93333],[-77.69167,46.93333],[-77.69167,46.94167]]]}},{"type":"Feature","properties":{"c":"CDC-2831986","o":"SRQ Resources Inc. 100%","e":""},"geometry":{"type":"Polygon","coordinates":[[[-77.68333,46.90833],[-77.675,46.90833],[-77.675,46.9],[-77.68333,46.9],[-77.68333,46.90833]]]}},{"type":"Feature","properties":{"c":"CDC-2831997","o":"SRQ Resources Inc. 100%","e":""},"geometry":{"type":"Polygon","coordinates":[[[-77.68333,46.91667],[-77.675,46.91667],[-77.675,46.90833],[-77.68333,46.90833],[-77.68333,46.91667]]]}},{"type":"Feature","properties":{"c":"CDC-2832007","o":"SRQ Resources Inc. 100%","e":""},"geometry":{"type":"Polygon","coordinates":[[[-77.68333,46.925],[-77.675,46.925],[-77.675,46.91667],[-77.68333,46.91667],[-77.68333,46.925]]]}},{"type":"Feature","properties":{"c":"CDC-2611737","o":"SRQ Resources Inc. 100%","e":""},"geometry":{"type":"Polygon","coordinates":[[[-77.68333,46.93333],[-77.675,46.93333],[-77.675,46.925],[-77.68333,46.925],[-77.68333,46.93333]]]}},{"type":"Feature","properties":{"c":"CDC-2611745","o":"SRQ Resources Inc. 100%","e":""},"geometry":{"type":"Polygon","coordinates":[[[-77.68333,46.94167],[-77.675,46.94167],[-77.675,46.93333],[-77.68333,46.93333],[-77.68333,46.94167]]]}},{"type":"Feature","properties":{"c":"CDC-2852774","o":"SRQ Resources Inc. 100%","e":""},"geometry":{"type":"Polygon","coordinates":[[[-77.675,46.9],[-77.66667,46.9],[-77.66667,46.89167],[-77.675,46.89167],[-77.675,46.9]]]}},{"type":"Feature","properties":{"c":"CDC-2831987","o":"SRQ Resources Inc. 100%","e":""},"geometry":{"type":"Polygon","coordinates":[[[-77.675,46.90833],[-77.66667,46.90833],[-77.66667,46.9],[-77.675,46.9],[-77.675,46.90833]]]}},{"type":"Feature","properties":{"c":"CDC-2831998","o":"SRQ Resources Inc. 100%","e":""},"geometry":{"type":"Polygon","coordinates":[[[-77.675,46.91667],[-77.66667,46.91667],[-77.66667,46.90833],[-77.675,46.90833],[-77.675,46.91667]]]}},{"type":"Feature","properties":{"c":"CDC-2832008","o":"SRQ Resources Inc. 100%","e":""},"geometry":{"type":"Polygon","coordinates":[[[-77.675,46.925],[-77.66667,46.925],[-77.66667,46.91667],[-77.675,46.91667],[-77.675,46.925]]]}},{"type":"Feature","properties":{"c":"CDC-2611738","o":"SRQ Resources Inc. 100%","e":""},"geometry":{"type":"Polygon","coordinates":[[[-77.675,46.93333],[-77.66667,46.93333],[-77.66667,46.925],[-77.675,46.925],[-77.675,46.93333]]]}},{"type":"Feature","properties":{"c":"CDC-2611746","o":"SRQ Resources Inc. 100%","e":""},"geometry":{"type":"Polygon","coordinates":[[[-77.675,46.94167],[-77.66667,46.94167],[-77.66667,46.93333],[-77.675,46.93333],[-77.675,46.94167]]]}},{"type":"Feature","properties":{"c":"CDC-2852775","o":"SRQ Resources Inc. 100%","e":""},"geometry":{"type":"Polygon","coordinates":[[[-77.66667,46.9],[-77.65833,46.9],[-77.65833,46.89167],[-77.66667,46.89167],[-77.66667,46.9]]]}},{"type":"Feature","properties":{"c":"CDC-2831988","o":"SRQ Resources Inc. 100%","e":""},"geometry":{"type":"Polygon","coordinates":[[[-77.66667,46.90833],[-77.65833,46.90833],[-77.65833,46.9],[-77.66667,46.9],[-77.66667,46.90833]]]}},{"type":"Feature","properties":{"c":"CDC-2831999","o":"SRQ Resources Inc. 100%","e":""},"geometry":{"type":"Polygon","coordinates":[[[-77.66667,46.91667],[-77.65833,46.91667],[-77.65833,46.90833],[-77.66667,46.90833],[-77.66667,46.91667]]]}},{"type":"Feature","properties":{"c":"CDC-2832009","o":"SRQ Resources Inc. 100%","e":""},"geometry":{"type":"Polygon","coordinates":[[[-77.66667,46.925],[-77.65833,46.925],[-77.65833,46.91667],[-77.66667,46.91667],[-77.66667,46.925]]]}},{"type":"Feature","properties":{"c":"CDC-2611739","o":"SRQ Resources Inc. 100%","e":""},"geometry":{"type":"Polygon","coordinates":[[[-77.66667,46.93333],[-77.65833,46.93333],[-77.65833,46.925],[-77.66667,46.925],[-77.66667,46.93333]]]}},{"type":"Feature","properties":{"c":"CDC-2611747","o":"SRQ Resources Inc. 100%","e":""},"geometry":{"type":"Polygon","coordinates":[[[-77.66667,46.94167],[-77.65833,46.94167],[-77.65833,46.93333],[-77.66667,46.93333],[-77.66667,46.94167]]]}},{"type":"Feature","properties":{"c":"CDC-2852776","o":"SRQ Resources Inc. 100%","e":""},"geometry":{"type":"Polygon","coordinates":[[[-77.65833,46.9],[-77.65,46.9],[-77.65,46.89167],[-77.65833,46.89167],[-77.65833,46.9]]]}},{"type":"Feature","properties":{"c":"CDC-2610803","o":"SRQ Resources Inc. 100%","e":""},"geometry":{"type":"Polygon","coordinates":[[[-77.71667,46.975],[-77.70833,46.975],[-77.70833,46.96667],[-77.71667,46.96667],[-77.71667,46.975]]]}},{"type":"Feature","properties":{"c":"CDC-2611651","o":"SRQ Resources Inc. 100%","e":""},"geometry":{"type":"Polygon","coordinates":[[[-77.71667,46.98333],[-77.70833,46.98333],[-77.70833,46.975],[-77.71667,46.975],[-77.71667,46.98333]]]}},{"type":"Feature","properties":{"c":"CDC-2611750","o":"SRQ Resources Inc. 100%","e":""},"geometry":{"type":"Polygon","coordinates":[[[-77.70833,46.95],[-77.7,46.95],[-77.7,46.94167],[-77.70833,46.94167],[-77.70833,46.95]]]}},{"type":"Feature","properties":{"c":"CDC-2611757","o":"SRQ Resources Inc. 100%","e":""},"geometry":{"type":"Polygon","coordinates":[[[-77.70833,46.95833],[-77.7,46.95833],[-77.7,46.95],[-77.70833,46.95],[-77.70833,46.95833]]]}},{"type":"Feature","properties":{"c":"CDC-2611764","o":"SRQ Resources Inc. 100%","e":""},"geometry":{"type":"Polygon","coordinates":[[[-77.70833,46.96667],[-77.7,46.96667],[-77.7,46.95833],[-77.70833,46.95833],[-77.70833,46.96667]]]}},{"type":"Feature","properties":{"c":"CDC-2610804","o":"SRQ Resources Inc. 100%","e":""},"geometry":{"type":"Polygon","coordinates":[[[-77.70833,46.975],[-77.7,46.975],[-77.7,46.96667],[-77.70833,46.96667],[-77.70833,46.975]]]}},{"type":"Feature","properties":{"c":"CDC-2611652","o":"SRQ Resources Inc. 100%","e":""},"geometry":{"type":"Polygon","coordinates":[[[-77.70833,46.98333],[-77.7,46.98333],[-77.7,46.975],[-77.70833,46.975],[-77.70833,46.98333]]]}},{"type":"Feature","properties":{"c":"CDC-2611751","o":"SRQ Resources Inc. 100%","e":""},"geometry":{"type":"Polygon","coordinates":[[[-77.7,46.95],[-77.69167,46.95],[-77.69167,46.94167],[-77.7,46.94167],[-77.7,46.95]]]}},{"type":"Feature","properties":{"c":"CDC-2611758","o":"SRQ Resources Inc. 100%","e":""},"geometry":{"type":"Polygon","coordinates":[[[-77.7,46.95833],[-77.69167,46.95833],[-77.69167,46.95],[-77.7,46.95],[-77.7,46.95833]]]}},{"type":"Feature","properties":{"c":"CDC-2611765","o":"SRQ Resources Inc. 100%","e":""},"geometry":{"type":"Polygon","coordinates":[[[-77.7,46.96667],[-77.69167,46.96667],[-77.69167,46.95833],[-77.7,46.95833],[-77.7,46.96667]]]}},{"type":"Feature","properties":{"c":"CDC-2610805","o":"SRQ Resources Inc. 100%","e":""},"geometry":{"type":"Polygon","coordinates":[[[-77.7,46.975],[-77.69167,46.975],[-77.69167,46.96667],[-77.7,46.96667],[-77.7,46.975]]]}},{"type":"Feature","properties":{"c":"CDC-2611653","o":"SRQ Resources Inc. 100%","e":""},"geometry":{"type":"Polygon","coordinates":[[[-77.7,46.98333],[-77.69167,46.98333],[-77.69167,46.975],[-77.7,46.975],[-77.7,46.98333]]]}},{"type":"Feature","properties":{"c":"CDC-2611752","o":"SRQ Resources Inc. 100%","e":""},"geometry":{"type":"Polygon","coordinates":[[[-77.69167,46.95],[-77.68333,46.95],[-77.68333,46.94167],[-77.69167,46.94167],[-77.69167,46.95]]]}},{"type":"Feature","properties":{"c":"CDC-2611759","o":"SRQ Resources Inc. 100%","e":""},"geometry":{"type":"Polygon","coordinates":[[[-77.69167,46.95833],[-77.68333,46.95833],[-77.68333,46.95],[-77.69167,46.95],[-77.69167,46.95833]]]}},{"type":"Feature","properties":{"c":"CDC-2611766","o":"SRQ Resources Inc. 100%","e":""},"geometry":{"type":"Polygon","coordinates":[[[-77.69167,46.96667],[-77.68333,46.96667],[-77.68333,46.95833],[-77.69167,46.95833],[-77.69167,46.96667]]]}},{"type":"Feature","properties":{"c":"CDC-2610806","o":"SRQ Resources Inc. 100%","e":""},"geometry":{"type":"Polygon","coordinates":[[[-77.69167,46.975],[-77.68333,46.975],[-77.68333,46.96667],[-77.69167,46.96667],[-77.69167,46.975]]]}},{"type":"Feature","properties":{"c":"CDC-2611654","o":"SRQ Resources Inc. 100%","e":""},"geometry":{"type":"Polygon","coordinates":[[[-77.69167,46.98333],[-77.68333,46.98333],[-77.68333,46.975],[-77.69167,46.975],[-77.69167,46.98333]]]}},{"type":"Feature","properties":{"c":"CDC-2611753","o":"SRQ Resources Inc. 100%","e":""},"geometry":{"type":"Polygon","coordinates":[[[-77.68333,46.95],[-77.675,46.95],[-77.675,46.94167],[-77.68333,46.94167],[-77.68333,46.95]]]}},{"type":"Feature","properties":{"c":"CDC-2611760","o":"SRQ Resources Inc. 100%","e":""},"geometry":{"type":"Polygon","coordinates":[[[-77.68333,46.95833],[-77.675,46.95833],[-77.675,46.95],[-77.68333,46.95],[-77.68333,46.95833]]]}},{"type":"Feature","properties":{"c":"CDC-2611767","o":"SRQ Resources Inc. 100%","e":""},"geometry":{"type":"Polygon","coordinates":[[[-77.68333,46.96667],[-77.675,46.96667],[-77.675,46.95833],[-77.68333,46.95833],[-77.68333,46.96667]]]}},{"type":"Feature","properties":{"c":"CDC-2611649","o":"SRQ Resources Inc. 100%","e":""},"geometry":{"type":"Polygon","coordinates":[[[-77.68333,46.975],[-77.675,46.975],[-77.675,46.96667],[-77.68333,46.96667],[-77.68333,46.975]]]}},{"type":"Feature","properties":{"c":"CDC-2611655","o":"SRQ Resources Inc. 100%","e":""},"geometry":{"type":"Polygon","coordinates":[[[-77.68333,46.98333],[-77.675,46.98333],[-77.675,46.975],[-77.68333,46.975],[-77.68333,46.98333]]]}},{"type":"Feature","properties":{"c":"CDC-2611754","o":"SRQ Resources Inc. 100%","e":""},"geometry":{"type":"Polygon","coordinates":[[[-77.675,46.95],[-77.66667,46.95],[-77.66667,46.94167],[-77.675,46.94167],[-77.675,46.95]]]}},{"type":"Feature","properties":{"c":"CDC-2611761","o":"SRQ Resources Inc. 100%","e":""},"geometry":{"type":"Polygon","coordinates":[[[-77.675,46.95833],[-77.66667,46.95833],[-77.66667,46.95],[-77.675,46.95],[-77.675,46.95833]]]}},{"type":"Feature","properties":{"c":"CDC-2611768","o":"SRQ Resources Inc. 100%","e":""},"geometry":{"type":"Polygon","coordinates":[[[-77.675,46.96667],[-77.66667,46.96667],[-77.66667,46.95833],[-77.675,46.95833],[-77.675,46.96667]]]}},{"type":"Feature","properties":{"c":"CDC-2611770","o":"SRQ Resources Inc. 100%","e":""},"geometry":{"type":"Polygon","coordinates":[[[-77.675,46.975],[-77.66667,46.975],[-77.66667,46.96667],[-77.675,46.96667],[-77.675,46.975]]]}},{"type":"Feature","properties":{"c":"CDC-2611755","o":"SRQ Resources Inc. 100%","e":""},"geometry":{"type":"Polygon","coordinates":[[[-77.66667,46.95],[-77.65833,46.95],[-77.65833,46.94167],[-77.66667,46.94167],[-77.66667,46.95]]]}},{"type":"Feature","properties":{"c":"CDC-2611699","o":"SRQ Resources Inc. 100%","e":""},"geometry":{"type":"Polygon","coordinates":[[[-77.75833,46.975],[-77.75,46.975],[-77.75,46.96667],[-77.75833,46.96667],[-77.75833,46.975]]]}},{"type":"Feature","properties":{"c":"CDC-2610721","o":"SRQ Resources Inc. 100%","e":""},"geometry":{"type":"Polygon","coordinates":[[[-77.75833,46.98333],[-77.75,46.98333],[-77.75,46.975],[-77.75833,46.975],[-77.75833,46.98333]]]}},{"type":"Feature","properties":{"c":"CDC-2610705","o":"SRQ Resources Inc. 100%","e":""},"geometry":{"type":"Polygon","coordinates":[[[-77.75,46.94167],[-77.74167,46.94167],[-77.74167,46.93333],[-77.75,46.93333],[-77.75,46.94167]]]}},{"type":"Feature","properties":{"c":"CDC-2610709","o":"SRQ Resources Inc. 100%","e":""},"geometry":{"type":"Polygon","coordinates":[[[-77.75,46.95],[-77.74167,46.95],[-77.74167,46.94167],[-77.75,46.94167],[-77.75,46.95]]]}},{"type":"Feature","properties":{"c":"CDC-2610713","o":"SRQ Resources Inc. 100%","e":""},"geometry":{"type":"Polygon","coordinates":[[[-77.75,46.95833],[-77.74167,46.95833],[-77.74167,46.95],[-77.75,46.95],[-77.75,46.95833]]]}},{"type":"Feature","properties":{"c":"CDC-2610717","o":"SRQ Resources Inc. 100%","e":""},"geometry":{"type":"Polygon","coordinates":[[[-77.75,46.96667],[-77.74167,46.96667],[-77.74167,46.95833],[-77.75,46.95833],[-77.75,46.96667]]]}},{"type":"Feature","properties":{"c":"CDC-2610718","o":"SRQ Resources Inc. 100%","e":""},"geometry":{"type":"Polygon","coordinates":[[[-77.75,46.975],[-77.74167,46.975],[-77.74167,46.96667],[-77.75,46.96667],[-77.75,46.975]]]}},{"type":"Feature","properties":{"c":"CDC-2610807","o":"SRQ Resources Inc. 100%","e":""},"geometry":{"type":"Polygon","coordinates":[[[-77.75,46.98333],[-77.74167,46.98333],[-77.74167,46.975],[-77.75,46.975],[-77.75,46.98333]]]}},{"type":"Feature","properties":{"c":"CDC-2610706","o":"SRQ Resources Inc. 100%","e":""},"geometry":{"type":"Polygon","coordinates":[[[-77.74167,46.94167],[-77.73333,46.94167],[-77.73333,46.93333],[-77.74167,46.93333],[-77.74167,46.94167]]]}},{"type":"Feature","properties":{"c":"CDC-2610710","o":"SRQ Resources Inc. 100%","e":""},"geometry":{"type":"Polygon","coordinates":[[[-77.74167,46.95],[-77.73333,46.95],[-77.73333,46.94167],[-77.74167,46.94167],[-77.74167,46.95]]]}},{"type":"Feature","properties":{"c":"CDC-2610714","o":"SRQ Resources Inc. 100%","e":""},"geometry":{"type":"Polygon","coordinates":[[[-77.74167,46.95833],[-77.73333,46.95833],[-77.73333,46.95],[-77.74167,46.95],[-77.74167,46.95833]]]}},{"type":"Feature","properties":{"c":"CDC-2610797","o":"SRQ Resources Inc. 100%","e":""},"geometry":{"type":"Polygon","coordinates":[[[-77.74167,46.96667],[-77.73333,46.96667],[-77.73333,46.95833],[-77.74167,46.95833],[-77.74167,46.96667]]]}},{"type":"Feature","properties":{"c":"CDC-2610800","o":"SRQ Resources Inc. 100%","e":""},"geometry":{"type":"Polygon","coordinates":[[[-77.74167,46.975],[-77.73333,46.975],[-77.73333,46.96667],[-77.74167,46.96667],[-77.74167,46.975]]]}},{"type":"Feature","properties":{"c":"CDC-2610808","o":"SRQ Resources Inc. 100%","e":""},"geometry":{"type":"Polygon","coordinates":[[[-77.74167,46.98333],[-77.73333,46.98333],[-77.73333,46.975],[-77.74167,46.975],[-77.74167,46.98333]]]}},{"type":"Feature","properties":{"c":"CDC-2610711","o":"SRQ Resources Inc. 100%","e":""},"geometry":{"type":"Polygon","coordinates":[[[-77.73333,46.95],[-77.725,46.95],[-77.725,46.94167],[-77.73333,46.94167],[-77.73333,46.95]]]}},{"type":"Feature","properties":{"c":"CDC-2610715","o":"SRQ Resources Inc. 100%","e":""},"geometry":{"type":"Polygon","coordinates":[[[-77.73333,46.95833],[-77.725,46.95833],[-77.725,46.95],[-77.73333,46.95],[-77.73333,46.95833]]]}},{"type":"Feature","properties":{"c":"CDC-2610798","o":"SRQ Resources Inc. 100%","e":""},"geometry":{"type":"Polygon","coordinates":[[[-77.73333,46.96667],[-77.725,46.96667],[-77.725,46.95833],[-77.73333,46.95833],[-77.73333,46.96667]]]}},{"type":"Feature","properties":{"c":"CDC-2610801","o":"SRQ Resources Inc. 100%","e":""},"geometry":{"type":"Polygon","coordinates":[[[-77.73333,46.975],[-77.725,46.975],[-77.725,46.96667],[-77.73333,46.96667],[-77.73333,46.975]]]}},{"type":"Feature","properties":{"c":"CDC-2610809","o":"SRQ Resources Inc. 100%","e":""},"geometry":{"type":"Polygon","coordinates":[[[-77.73333,46.98333],[-77.725,46.98333],[-77.725,46.975],[-77.73333,46.975],[-77.73333,46.98333]]]}},{"type":"Feature","properties":{"c":"CDC-2610712","o":"SRQ Resources Inc. 100%","e":""},"geometry":{"type":"Polygon","coordinates":[[[-77.725,46.95],[-77.71667,46.95],[-77.71667,46.94167],[-77.725,46.94167],[-77.725,46.95]]]}},{"type":"Feature","properties":{"c":"CDC-2610716","o":"SRQ Resources Inc. 100%","e":""},"geometry":{"type":"Polygon","coordinates":[[[-77.725,46.95833],[-77.71667,46.95833],[-77.71667,46.95],[-77.725,46.95],[-77.725,46.95833]]]}},{"type":"Feature","properties":{"c":"CDC-2610799","o":"SRQ Resources Inc. 100%","e":""},"geometry":{"type":"Polygon","coordinates":[[[-77.725,46.96667],[-77.71667,46.96667],[-77.71667,46.95833],[-77.725,46.95833],[-77.725,46.96667]]]}},{"type":"Feature","properties":{"c":"CDC-2610802","o":"SRQ Resources Inc. 100%","e":""},"geometry":{"type":"Polygon","coordinates":[[[-77.725,46.975],[-77.71667,46.975],[-77.71667,46.96667],[-77.725,46.96667],[-77.725,46.975]]]}},{"type":"Feature","properties":{"c":"CDC-2611650","o":"SRQ Resources Inc. 100%","e":""},"geometry":{"type":"Polygon","coordinates":[[[-77.725,46.98333],[-77.71667,46.98333],[-77.71667,46.975],[-77.725,46.975],[-77.725,46.98333]]]}},{"type":"Feature","properties":{"c":"CDC-2611749","o":"SRQ Resources Inc. 100%","e":""},"geometry":{"type":"Polygon","coordinates":[[[-77.71667,46.95],[-77.70833,46.95],[-77.70833,46.94167],[-77.71667,46.94167],[-77.71667,46.95]]]}},{"type":"Feature","properties":{"c":"CDC-2611756","o":"SRQ Resources Inc. 100%","e":""},"geometry":{"type":"Polygon","coordinates":[[[-77.71667,46.95833],[-77.70833,46.95833],[-77.70833,46.95],[-77.71667,46.95],[-77.71667,46.95833]]]}},{"type":"Feature","properties":{"c":"CDC-2611763","o":"SRQ Resources Inc. 100%","e":""},"geometry":{"type":"Polygon","coordinates":[[[-77.71667,46.96667],[-77.70833,46.96667],[-77.70833,46.95833],[-77.71667,46.95833],[-77.71667,46.96667]]]}},{"type":"Feature","properties":{"c":"CDC-2831686","o":"SRQ Resources Inc. 100%","e":""},"geometry":{"type":"Polygon","coordinates":[[[-77.75,46.925],[-77.74167,46.925],[-77.74167,46.91667],[-77.75,46.91667],[-77.75,46.925]]]}},{"type":"Feature","properties":{"c":"CDC-2831697","o":"SRQ Resources Inc. 100%","e":""},"geometry":{"type":"Polygon","coordinates":[[[-77.75,46.93333],[-77.74167,46.93333],[-77.74167,46.925],[-77.75,46.925],[-77.75,46.93333]]]}},{"type":"Feature","properties":{"c":"CDC-2831668","o":"SRQ Resources Inc. 100%","e":""},"geometry":{"type":"Polygon","coordinates":[[[-77.74167,46.90833],[-77.73333,46.90833],[-77.73333,46.9],[-77.74167,46.9],[-77.74167,46.90833]]]}},{"type":"Feature","properties":{"c":"CDC-2831676","o":"SRQ Resources Inc. 100%","e":""},"geometry":{"type":"Polygon","coordinates":[[[-77.74167,46.91667],[-77.73333,46.91667],[-77.73333,46.90833],[-77.74167,46.90833],[-77.74167,46.91667]]]}},{"type":"Feature","properties":{"c":"CDC-2831687","o":"SRQ Resources Inc. 100%","e":""},"geometry":{"type":"Polygon","coordinates":[[[-77.74167,46.925],[-77.73333,46.925],[-77.73333,46.91667],[-77.74167,46.91667],[-77.74167,46.925]]]}},{"type":"Feature","properties":{"c":"CDC-2831698","o":"SRQ Resources Inc. 100%","e":""},"geometry":{"type":"Polygon","coordinates":[[[-77.74167,46.93333],[-77.73333,46.93333],[-77.73333,46.925],[-77.74167,46.925],[-77.74167,46.93333]]]}},{"type":"Feature","properties":{"c":"CDC-2831669","o":"SRQ Resources Inc. 100%","e":""},"geometry":{"type":"Polygon","coordinates":[[[-77.73333,46.90833],[-77.725,46.90833],[-77.725,46.9],[-77.73333,46.9],[-77.73333,46.90833]]]}},{"type":"Feature","properties":{"c":"CDC-2831677","o":"SRQ Resources Inc. 100%","e":""},"geometry":{"type":"Polygon","coordinates":[[[-77.73333,46.91667],[-77.725,46.91667],[-77.725,46.90833],[-77.73333,46.90833],[-77.73333,46.91667]]]}},{"type":"Feature","properties":{"c":"CDC-2831688","o":"SRQ Resources Inc. 100%","e":""},"geometry":{"type":"Polygon","coordinates":[[[-77.73333,46.925],[-77.725,46.925],[-77.725,46.91667],[-77.73333,46.91667],[-77.73333,46.925]]]}},{"type":"Feature","properties":{"c":"CDC-2831699","o":"SRQ Resources Inc. 100%","e":""},"geometry":{"type":"Polygon","coordinates":[[[-77.73333,46.93333],[-77.725,46.93333],[-77.725,46.925],[-77.73333,46.925],[-77.73333,46.93333]]]}},{"type":"Feature","properties":{"c":"CDC-2610707","o":"SRQ Resources Inc. 100%","e":""},"geometry":{"type":"Polygon","coordinates":[[[-77.73333,46.94167],[-77.725,46.94167],[-77.725,46.93333],[-77.73333,46.93333],[-77.73333,46.94167]]]}},{"type":"Feature","properties":{"c":"CDC-2831670","o":"SRQ Resources Inc. 100%","e":""},"geometry":{"type":"Polygon","coordinates":[[[-77.725,46.90833],[-77.71667,46.90833],[-77.71667,46.9],[-77.725,46.9],[-77.725,46.90833]]]}},{"type":"Feature","properties":{"c":"CDC-2831678","o":"SRQ Resources Inc. 100%","e":""},"geometry":{"type":"Polygon","coordinates":[[[-77.725,46.91667],[-77.71667,46.91667],[-77.71667,46.90833],[-77.725,46.90833],[-77.725,46.91667]]]}},{"type":"Feature","properties":{"c":"CDC-2831689","o":"SRQ Resources Inc. 100%","e":""},"geometry":{"type":"Polygon","coordinates":[[[-77.725,46.925],[-77.71667,46.925],[-77.71667,46.91667],[-77.725,46.91667],[-77.725,46.925]]]}},{"type":"Feature","properties":{"c":"CDC-2831700","o":"SRQ Resources Inc. 100%","e":""},"geometry":{"type":"Polygon","coordinates":[[[-77.725,46.93333],[-77.71667,46.93333],[-77.71667,46.925],[-77.725,46.925],[-77.725,46.93333]]]}},{"type":"Feature","properties":{"c":"CDC-2610708","o":"SRQ Resources Inc. 100%","e":""},"geometry":{"type":"Polygon","coordinates":[[[-77.725,46.94167],[-77.71667,46.94167],[-77.71667,46.93333],[-77.725,46.93333],[-77.725,46.94167]]]}},{"type":"Feature","properties":{"c":"CDC-2831671","o":"SRQ Resources Inc. 100%","e":""},"geometry":{"type":"Polygon","coordinates":[[[-77.71667,46.90833],[-77.70833,46.90833],[-77.70833,46.9],[-77.71667,46.9],[-77.71667,46.90833]]]}},{"type":"Feature","properties":{"c":"CDC-2831679","o":"SRQ Resources Inc. 100%","e":""},"geometry":{"type":"Polygon","coordinates":[[[-77.71667,46.91667],[-77.70833,46.91667],[-77.70833,46.90833],[-77.71667,46.90833],[-77.71667,46.91667]]]}},{"type":"Feature","properties":{"c":"CDC-2831690","o":"SRQ Resources Inc. 100%","e":""},"geometry":{"type":"Polygon","coordinates":[[[-77.71667,46.925],[-77.70833,46.925],[-77.70833,46.91667],[-77.71667,46.91667],[-77.71667,46.925]]]}},{"type":"Feature","properties":{"c":"CDC-2611733","o":"SRQ Resources Inc. 100%","e":""},"geometry":{"type":"Polygon","coordinates":[[[-77.71667,46.93333],[-77.70833,46.93333],[-77.70833,46.925],[-77.71667,46.925],[-77.71667,46.93333]]]}},{"type":"Feature","properties":{"c":"CDC-2611741","o":"SRQ Resources Inc. 100%","e":""},"geometry":{"type":"Polygon","coordinates":[[[-77.71667,46.94167],[-77.70833,46.94167],[-77.70833,46.93333],[-77.71667,46.93333],[-77.71667,46.94167]]]}},{"type":"Feature","properties":{"c":"CDC-2831672","o":"SRQ Resources Inc. 100%","e":""},"geometry":{"type":"Polygon","coordinates":[[[-77.70833,46.90833],[-77.7,46.90833],[-77.7,46.9],[-77.70833,46.9],[-77.70833,46.90833]]]}},{"type":"Feature","properties":{"c":"CDC-2831680","o":"SRQ Resources Inc. 100%","e":""},"geometry":{"type":"Polygon","coordinates":[[[-77.70833,46.91667],[-77.7,46.91667],[-77.7,46.90833],[-77.70833,46.90833],[-77.70833,46.91667]]]}},{"type":"Feature","properties":{"c":"CDC-2831691","o":"SRQ Resources Inc. 100%","e":""},"geometry":{"type":"Polygon","coordinates":[[[-77.70833,46.925],[-77.7,46.925],[-77.7,46.91667],[-77.70833,46.91667],[-77.70833,46.925]]]}},{"type":"Feature","properties":{"c":"CDC-2611734","o":"SRQ Resources Inc. 100%","e":""},"geometry":{"type":"Polygon","coordinates":[[[-77.70833,46.93333],[-77.7,46.93333],[-77.7,46.925],[-77.70833,46.925],[-77.70833,46.93333]]]}},{"type":"Feature","properties":{"c":"CDC-2611742","o":"SRQ Resources Inc. 100%","e":""},"geometry":{"type":"Polygon","coordinates":[[[-77.70833,46.94167],[-77.7,46.94167],[-77.7,46.93333],[-77.70833,46.93333],[-77.70833,46.94167]]]}},{"type":"Feature","properties":{"c":"CDC-2831673","o":"SRQ Resources Inc. 100%","e":""},"geometry":{"type":"Polygon","coordinates":[[[-77.7,46.90833],[-77.69167,46.90833],[-77.69167,46.9],[-77.7,46.9],[-77.7,46.90833]]]}},{"type":"Feature","properties":{"c":"CDC-2849299","o":"SRQ Resources Inc. 100%","e":""},"geometry":{"type":"Polygon","coordinates":[[[-77.78333,46.96667],[-77.775,46.96667],[-77.775,46.95833],[-77.78333,46.95833],[-77.78333,46.96667]]]}},{"type":"Feature","properties":{"c":"CDC-2831683","o":"SRQ Resources Inc. 100%","e":""},"geometry":{"type":"Polygon","coordinates":[[[-77.775,46.925],[-77.76667,46.925],[-77.76667,46.91667],[-77.775,46.91667],[-77.775,46.925]]]}},{"type":"Feature","properties":{"c":"CDC-2849300","o":"SRQ Resources Inc. 100%","e":""},"geometry":{"type":"Polygon","coordinates":[[[-77.78333,46.975],[-77.775,46.975],[-77.775,46.96667],[-77.78333,46.96667],[-77.78333,46.975]]]}},{"type":"Feature","properties":{"c":"CDC-2831694","o":"SRQ Resources Inc. 100%","e":""},"geometry":{"type":"Polygon","coordinates":[[[-77.775,46.93333],[-77.76667,46.93333],[-77.76667,46.925],[-77.775,46.925],[-77.775,46.93333]]]}},{"type":"Feature","properties":{"c":"CDC-2849301","o":"SRQ Resources Inc. 100%","e":""},"geometry":{"type":"Polygon","coordinates":[[[-77.78333,46.98333],[-77.775,46.98333],[-77.775,46.975],[-77.78333,46.975],[-77.78333,46.98333]]]}},{"type":"Feature","properties":{"c":"CDC-2849296","o":"SRQ Resources Inc. 100%","e":""},"geometry":{"type":"Polygon","coordinates":[[[-77.775,46.94167],[-77.76667,46.94167],[-77.76667,46.93333],[-77.775,46.93333],[-77.775,46.94167]]]}},{"type":"Feature","properties":{"c":"CDC-2611676","o":"SRQ Resources Inc. 100%","e":""},"geometry":{"type":"Polygon","coordinates":[[[-77.775,46.95],[-77.76667,46.95],[-77.76667,46.94167],[-77.775,46.94167],[-77.775,46.95]]]}},{"type":"Feature","properties":{"c":"CDC-2611683","o":"SRQ Resources Inc. 100%","e":""},"geometry":{"type":"Polygon","coordinates":[[[-77.775,46.95833],[-77.76667,46.95833],[-77.76667,46.95],[-77.775,46.95],[-77.775,46.95833]]]}},{"type":"Feature","properties":{"c":"CDC-2611690","o":"SRQ Resources Inc. 100%","e":""},"geometry":{"type":"Polygon","coordinates":[[[-77.775,46.96667],[-77.76667,46.96667],[-77.76667,46.95833],[-77.775,46.95833],[-77.775,46.96667]]]}},{"type":"Feature","properties":{"c":"CDC-2831684","o":"SRQ Resources Inc. 100%","e":""},"geometry":{"type":"Polygon","coordinates":[[[-77.76667,46.925],[-77.75833,46.925],[-77.75833,46.91667],[-77.76667,46.91667],[-77.76667,46.925]]]}},{"type":"Feature","properties":{"c":"CDC-2611697","o":"SRQ Resources Inc. 100%","e":""},"geometry":{"type":"Polygon","coordinates":[[[-77.775,46.975],[-77.76667,46.975],[-77.76667,46.96667],[-77.775,46.96667],[-77.775,46.975]]]}},{"type":"Feature","properties":{"c":"CDC-2831695","o":"SRQ Resources Inc. 100%","e":""},"geometry":{"type":"Polygon","coordinates":[[[-77.76667,46.93333],[-77.75833,46.93333],[-77.75833,46.925],[-77.76667,46.925],[-77.76667,46.93333]]]}},{"type":"Feature","properties":{"c":"CDC-2610719","o":"SRQ Resources Inc. 100%","e":""},"geometry":{"type":"Polygon","coordinates":[[[-77.775,46.98333],[-77.76667,46.98333],[-77.76667,46.975],[-77.775,46.975],[-77.775,46.98333]]]}},{"type":"Feature","properties":{"c":"CDC-2610703","o":"SRQ Resources Inc. 100%","e":""},"geometry":{"type":"Polygon","coordinates":[[[-77.76667,46.94167],[-77.75833,46.94167],[-77.75833,46.93333],[-77.76667,46.93333],[-77.76667,46.94167]]]}},{"type":"Feature","properties":{"c":"CDC-2611677","o":"SRQ Resources Inc. 100%","e":""},"geometry":{"type":"Polygon","coordinates":[[[-77.76667,46.95],[-77.75833,46.95],[-77.75833,46.94167],[-77.76667,46.94167],[-77.76667,46.95]]]}},{"type":"Feature","properties":{"c":"CDC-2611684","o":"SRQ Resources Inc. 100%","e":""},"geometry":{"type":"Polygon","coordinates":[[[-77.76667,46.95833],[-77.75833,46.95833],[-77.75833,46.95],[-77.76667,46.95],[-77.76667,46.95833]]]}},{"type":"Feature","properties":{"c":"CDC-2611691","o":"SRQ Resources Inc. 100%","e":""},"geometry":{"type":"Polygon","coordinates":[[[-77.76667,46.96667],[-77.75833,46.96667],[-77.75833,46.95833],[-77.76667,46.95833],[-77.76667,46.96667]]]}},{"type":"Feature","properties":{"c":"CDC-2831685","o":"SRQ Resources Inc. 100%","e":""},"geometry":{"type":"Polygon","coordinates":[[[-77.75833,46.925],[-77.75,46.925],[-77.75,46.91667],[-77.75833,46.91667],[-77.75833,46.925]]]}},{"type":"Feature","properties":{"c":"CDC-2611698","o":"SRQ Resources Inc. 100%","e":""},"geometry":{"type":"Polygon","coordinates":[[[-77.76667,46.975],[-77.75833,46.975],[-77.75833,46.96667],[-77.76667,46.96667],[-77.76667,46.975]]]}},{"type":"Feature","properties":{"c":"CDC-2831696","o":"SRQ Resources Inc. 100%","e":""},"geometry":{"type":"Polygon","coordinates":[[[-77.75833,46.93333],[-77.75,46.93333],[-77.75,46.925],[-77.75833,46.925],[-77.75833,46.93333]]]}},{"type":"Feature","properties":{"c":"CDC-2610720","o":"SRQ Resources Inc. 100%","e":""},"geometry":{"type":"Polygon","coordinates":[[[-77.76667,46.98333],[-77.75833,46.98333],[-77.75833,46.975],[-77.76667,46.975],[-77.76667,46.98333]]]}},{"type":"Feature","properties":{"c":"CDC-2610704","o":"SRQ Resources Inc. 100%","e":""},"geometry":{"type":"Polygon","coordinates":[[[-77.75833,46.94167],[-77.75,46.94167],[-77.75,46.93333],[-77.75833,46.93333],[-77.75833,46.94167]]]}},{"type":"Feature","properties":{"c":"CDC-2611678","o":"SRQ Resources Inc. 100%","e":""},"geometry":{"type":"Polygon","coordinates":[[[-77.75833,46.95],[-77.75,46.95],[-77.75,46.94167],[-77.75833,46.94167],[-77.75833,46.95]]]}},{"type":"Feature","properties":{"c":"CDC-2831667","o":"SRQ Resources Inc. 100%","e":""},"geometry":{"type":"Polygon","coordinates":[[[-77.75,46.90833],[-77.74167,46.90833],[-77.74167,46.9],[-77.75,46.9],[-77.75,46.90833]]]}},{"type":"Feature","properties":{"c":"CDC-2611685","o":"SRQ Resources Inc. 100%","e":""},"geometry":{"type":"Polygon","coordinates":[[[-77.75833,46.95833],[-77.75,46.95833],[-77.75,46.95],[-77.75833,46.95],[-77.75833,46.95833]]]}},{"type":"Feature","properties":{"c":"CDC-2831675","o":"SRQ Resources Inc. 100%","e":""},"geometry":{"type":"Polygon","coordinates":[[[-77.75,46.91667],[-77.74167,46.91667],[-77.74167,46.90833],[-77.75,46.90833],[-77.75,46.91667]]]}},{"type":"Feature","properties":{"c":"CDC-2611692","o":"SRQ Resources Inc. 100%","e":""},"geometry":{"type":"Polygon","coordinates":[[[-77.75833,46.96667],[-77.75,46.96667],[-77.75,46.95833],[-77.75833,46.95833],[-77.75833,46.96667]]]}},{"type":"Feature","properties":{"c":"CDC-2849293","o":"SRQ Resources Inc. 100%","e":""},"geometry":{"type":"Polygon","coordinates":[[[-77.78333,46.925],[-77.775,46.925],[-77.775,46.91667],[-77.78333,46.91667],[-77.78333,46.925]]]}},{"type":"Feature","properties":{"c":"CDC-2849294","o":"SRQ Resources Inc. 100%","e":""},"geometry":{"type":"Polygon","coordinates":[[[-77.78333,46.93333],[-77.775,46.93333],[-77.775,46.925],[-77.78333,46.925],[-77.78333,46.93333]]]}},{"type":"Feature","properties":{"c":"CDC-2849295","o":"SRQ Resources Inc. 100%","e":""},"geometry":{"type":"Polygon","coordinates":[[[-77.78333,46.94167],[-77.775,46.94167],[-77.775,46.93333],[-77.78333,46.93333],[-77.78333,46.94167]]]}},{"type":"Feature","properties":{"c":"CDC-2849297","o":"SRQ Resources Inc. 100%","e":""},"geometry":{"type":"Polygon","coordinates":[[[-77.78333,46.95],[-77.775,46.95],[-77.775,46.94167],[-77.78333,46.94167],[-77.78333,46.95]]]}},{"type":"Feature","properties":{"c":"CDC-2849298","o":"SRQ Resources Inc. 100%","e":""},"geometry":{"type":"Polygon","coordinates":[[[-77.78333,46.95833],[-77.775,46.95833],[-77.775,46.95],[-77.78333,46.95],[-77.78333,46.95833]]]}},{"type":"Feature","properties":{"c":"CDC-2827813","o":"Jamie Cecchetto 100%","e":""},"geometry":{"type":"Polygon","coordinates":[[[-77.51667,46.95],[-77.50833,46.95],[-77.50833,46.94167],[-77.51667,46.94167],[-77.51667,46.95]]]}},{"type":"Feature","properties":{"c":"CDC-2827812","o":"Jamie Cecchetto 100%","e":""},"geometry":{"type":"Polygon","coordinates":[[[-77.525,46.95],[-77.51667,46.95],[-77.51667,46.94167],[-77.525,46.94167],[-77.525,46.95]]]}},{"type":"Feature","properties":{"c":"CDC-2827811","o":"Jamie Cecchetto 100%","e":""},"geometry":{"type":"Polygon","coordinates":[[[-77.53333,46.95],[-77.525,46.95],[-77.525,46.94167],[-77.53333,46.94167],[-77.53333,46.95]]]}},{"type":"Feature","properties":{"c":"CDC-2827810","o":"Jamie Cecchetto 100%","e":""},"geometry":{"type":"Polygon","coordinates":[[[-77.54167,46.95],[-77.53333,46.95],[-77.53333,46.94167],[-77.54167,46.94167],[-77.54167,46.95]]]}},{"type":"Feature","properties":{"c":"CDC-2852787","o":"SRQ Resources Inc. 100%","e":""},"geometry":{"type":"Polygon","coordinates":[[[-77.55,46.95],[-77.54167,46.95],[-77.54167,46.94167],[-77.55,46.94167],[-77.55,46.95]]]}},{"type":"Feature","properties":{"c":"CDC-2852786","o":"SRQ Resources Inc. 100%","e":""},"geometry":{"type":"Polygon","coordinates":[[[-77.55833,46.95],[-77.55,46.95],[-77.55,46.94167],[-77.55833,46.94167],[-77.55833,46.95]]]}},{"type":"Feature","properties":{"c":"CDC-2818038","o":"SRQ Resources Inc. 100%","e":""},"geometry":{"type":"Polygon","coordinates":[[[-77.50833,46.95833],[-77.5,46.95833],[-77.5,46.95],[-77.50833,46.95],[-77.50833,46.95833]]]}},{"type":"Feature","properties":{"c":"CDC-2827817","o":"Jamie Cecchetto 100%","e":""},"geometry":{"type":"Polygon","coordinates":[[[-77.51667,46.95833],[-77.50833,46.95833],[-77.50833,46.95],[-77.51667,46.95],[-77.51667,46.95833]]]}},{"type":"Feature","properties":{"c":"CDC-2827816","o":"Jamie Cecchetto 100%","e":""},"geometry":{"type":"Polygon","coordinates":[[[-77.525,46.95833],[-77.51667,46.95833],[-77.51667,46.95],[-77.525,46.95],[-77.525,46.95833]]]}},{"type":"Feature","properties":{"c":"CDC-2827815","o":"Jamie Cecchetto 100%","e":""},"geometry":{"type":"Polygon","coordinates":[[[-77.53333,46.95833],[-77.525,46.95833],[-77.525,46.95],[-77.53333,46.95],[-77.53333,46.95833]]]}},{"type":"Feature","properties":{"c":"CDC-2827814","o":"Jamie Cecchetto 100%","e":""},"geometry":{"type":"Polygon","coordinates":[[[-77.54167,46.95833],[-77.53333,46.95833],[-77.53333,46.95],[-77.54167,46.95],[-77.54167,46.95833]]]}},{"type":"Feature","properties":{"c":"CDC-2865375","o":"SRQ Resources Inc. 100%","e":""},"geometry":{"type":"Polygon","coordinates":[[[-77.54801,46.9531],[-77.54778,46.95349],[-77.54772,46.95361],[-77.54766,46.95373],[-77.54754,46.95384],[-77.54742,46.95395],[-77.5473,46.95414],[-77.54718,46.95435],[-77.54715,46.95448],[-77.54711,46.95463],[-77.54704,46.95473],[-77.54695,46.95483],[-77.5467,46.95509],[-77.54637,46.95534],[-77.54639,46.95552],[-77.54643,46.95597],[-77.54641,46.95648],[-77.54639,46.95698],[-77.54635,46.95768],[-77.54629,46.95833],[-77.54167,46.95833],[-77.54167,46.95],[-77.55,46.95],[-77.55,46.95321],[-77.54801,46.9531]]]}},{"type":"Feature","properties":{"c":"CDC-2865374","o":"SRQ Resources Inc. 100%","e":""},"geometry":{"type":"Polygon","coordinates":[[[-77.55828,46.95571],[-77.5582,46.95536],[-77.55817,46.95482],[-77.55824,46.95429],[-77.55826,46.95424],[-77.55828,46.95418],[-77.55827,46.95407],[-77.55825,46.95397],[-77.55825,46.95393],[-77.55832,46.95365],[-77.55816,46.95357],[-77.55798,46.9535],[-77.55748,46.95351],[-77.55716,46.95351],[-77.55636,46.95351],[-77.55535,46.95349],[-77.55432,46.95344],[-77.55,46.95321],[-77.55,46.95],[-77.55833,46.95],[-77.55833,46.95572],[-77.55828,46.95571]]]}},{"type":"Feature","properties":{"c":"CDC-2818039","o":"SRQ Resources Inc. 100%","e":""},"geometry":{"type":"Polygon","coordinates":[[[-77.50833,46.96667],[-77.5,46.96667],[-77.5,46.95833],[-77.50833,46.95833],[-77.50833,46.96667]]]}},{"type":"Feature","properties":{"c":"CDC-2827821","o":"Jamie Cecchetto 100%","e":""},"geometry":{"type":"Polygon","coordinates":[[[-77.51667,46.96667],[-77.50833,46.96667],[-77.50833,46.95833],[-77.51667,46.95833],[-77.51667,46.96667]]]}},{"type":"Feature","properties":{"c":"CDC-2827820","o":"Jamie Cecchetto 100%","e":""},"geometry":{"type":"Polygon","coordinates":[[[-77.525,46.96667],[-77.51667,46.96667],[-77.51667,46.95833],[-77.525,46.95833],[-77.525,46.96667]]]}},{"type":"Feature","properties":{"c":"CDC-2827819","o":"Jamie Cecchetto 100%","e":""},"geometry":{"type":"Polygon","coordinates":[[[-77.53333,46.96667],[-77.525,46.96667],[-77.525,46.95833],[-77.53333,46.95833],[-77.53333,46.96667]]]}},{"type":"Feature","properties":{"c":"CDC-2827818","o":"Jamie Cecchetto 100%","e":""},"geometry":{"type":"Polygon","coordinates":[[[-77.54167,46.96667],[-77.53333,46.96667],[-77.53333,46.95833],[-77.54167,46.95833],[-77.54167,46.96667]]]}},{"type":"Feature","properties":{"c":"CDC-2865419","o":"SRQ Resources Inc. 100%","e":""},"geometry":{"type":"Polygon","coordinates":[[[-77.55,46.96667],[-77.54167,46.96667],[-77.54167,46.95833],[-77.54629,46.95833],[-77.54629,46.95838],[-77.54619,46.95862],[-77.54602,46.95885],[-77.54583,46.95908],[-77.54561,46.9593],[-77.54555,46.95937],[-77.54549,46.95943],[-77.5454,46.95954],[-77.54534,46.95965],[-77.54529,46.95979],[-77.54527,46.95993],[-77.5452,46.96005],[-77.54513,46.96018],[-77.5451,46.96035],[-77.54513,46.96052],[-77.54528,46.9608],[-77.54545,46.96108],[-77.54552,46.96132],[-77.54556,46.96155],[-77.54554,46.96191],[-77.54552,46.96228],[-77.5456,46.96267],[-77.54567,46.96305],[-77.54568,46.96368],[-77.54567,46.96391],[-77.54594,46.9639],[-77.54678,46.96388],[-77.55,46.9638],[-77.55,46.96667]]]}},{"type":"Feature","properties":{"c":"CDC-2865417","o":"SRQ Resources Inc. 100%","e":""},"geometry":{"type":"Polygon","coordinates":[[[-77.56667,46.95833],[-77.56667,46.96667],[-77.55833,46.96667],[-77.55833,46.96182],[-77.55863,46.96175],[-77.55898,46.96165],[-77.55935,46.96161],[-77.55971,46.96158],[-77.55999,46.9615],[-77.56028,46.96142],[-77.56043,46.9614],[-77.56059,46.96139],[-77.56085,46.96138],[-77.56112,46.96133],[-77.56135,46.96123],[-77.56154,46.96112],[-77.56176,46.96095],[-77.562,46.96079],[-77.56222,46.96068],[-77.56247,46.96059],[-77.56255,46.96059],[-77.56262,46.96059],[-77.5627,46.96057],[-77.56276,46.96057],[-77.56264,46.96046],[-77.56258,46.96035],[-77.56237,46.96012],[-77.56223,46.95995],[-77.56216,46.95987],[-77.56213,46.95973],[-77.56209,46.95959],[-77.56207,46.9593],[-77.56207,46.9592],[-77.56207,46.95854],[-77.56207,46.95833],[-77.56667,46.95833]]]}},{"type":"Feature","properties":{"c":"CDC-2818040","o":"SRQ Resources Inc. 100%","e":""},"geometry":{"type":"Polygon","coordinates":[[[-77.50833,46.975],[-77.5,46.975],[-77.5,46.96667],[-77.50833,46.96667],[-77.50833,46.975]]]}},{"type":"Feature","properties":{"c":"CDC-2865418","o":"SRQ Resources Inc. 100%","e":""},"geometry":{"type":"Polygon","coordinates":[[[-77.55833,46.96667],[-77.55,46.96667],[-77.55,46.9638],[-77.55252,46.96375],[-77.55254,46.96351],[-77.55259,46.96329],[-77.5527,46.96318],[-77.55284,46.96308],[-77.55312,46.96292],[-77.55343,46.9628],[-77.5535,46.96278],[-77.55357,46.96277],[-77.55397,46.96274],[-77.55436,46.96272],[-77.5548,46.96273],[-77.55512,46.96275],[-77.55523,46.96276],[-77.55548,46.96285],[-77.55572,46.96295],[-77.55588,46.96295],[-77.55604,46.96296],[-77.55612,46.96299],[-77.55619,46.96303],[-77.55627,46.96305],[-77.55634,46.96304],[-77.55643,46.96294],[-77.55645,46.96283],[-77.55652,46.96261],[-77.55666,46.96245],[-77.55681,46.96229],[-77.55694,46.96218],[-77.5571,46.96207],[-77.55733,46.96196],[-77.55759,46.96188],[-77.55772,46.96188],[-77.55784,46.96187],[-77.55805,46.96186],[-77.55826,46.96184],[-77.55833,46.96182],[-77.55833,46.96667]]]}},{"type":"Feature","properties":{"c":"CDC-2827824","o":"Jamie Cecchetto 100%","e":""},"geometry":{"type":"Polygon","coordinates":[[[-77.51667,46.975],[-77.50833,46.975],[-77.50833,46.96667],[-77.51667,46.96667],[-77.51667,46.975]]]}},{"type":"Feature","properties":{"c":"CDC-2827823","o":"Jamie Cecchetto 100%","e":""},"geometry":{"type":"Polygon","coordinates":[[[-77.525,46.975],[-77.51667,46.975],[-77.51667,46.96667],[-77.525,46.96667],[-77.525,46.975]]]}},{"type":"Feature","properties":{"c":"CDC-2827822","o":"Jamie Cecchetto 100%","e":""},"geometry":{"type":"Polygon","coordinates":[[[-77.53333,46.975],[-77.525,46.975],[-77.525,46.96667],[-77.53333,46.96667],[-77.53333,46.975]]]}},{"type":"Feature","properties":{"c":"CDC-2610780","o":"SRQ Resources Inc. 100%","e":""},"geometry":{"type":"Polygon","coordinates":[[[-77.55,46.91667],[-77.54167,46.91667],[-77.54167,46.90833],[-77.55,46.90833],[-77.55,46.91667]]]}},{"type":"Feature","properties":{"c":"CDC-2610698","o":"SRQ Resources Inc. 100%","e":""},"geometry":{"type":"Polygon","coordinates":[[[-77.50833,46.925],[-77.5,46.925],[-77.5,46.91667],[-77.50833,46.91667],[-77.50833,46.925]]]}},{"type":"Feature","properties":{"c":"CDC-2610697","o":"SRQ Resources Inc. 100%","e":""},"geometry":{"type":"Polygon","coordinates":[[[-77.51667,46.925],[-77.50833,46.925],[-77.50833,46.91667],[-77.51667,46.91667],[-77.51667,46.925]]]}},{"type":"Feature","properties":{"c":"CDC-2610696","o":"SRQ Resources Inc. 100%","e":""},"geometry":{"type":"Polygon","coordinates":[[[-77.525,46.925],[-77.51667,46.925],[-77.51667,46.91667],[-77.525,46.91667],[-77.525,46.925]]]}},{"type":"Feature","properties":{"c":"CDC-2610695","o":"SRQ Resources Inc. 100%","e":""},"geometry":{"type":"Polygon","coordinates":[[[-77.53333,46.925],[-77.525,46.925],[-77.525,46.91667],[-77.53333,46.91667],[-77.53333,46.925]]]}},{"type":"Feature","properties":{"c":"CDC-2610787","o":"SRQ Resources Inc. 100%","e":""},"geometry":{"type":"Polygon","coordinates":[[[-77.54167,46.925],[-77.53333,46.925],[-77.53333,46.91667],[-77.54167,46.91667],[-77.54167,46.925]]]}},{"type":"Feature","properties":{"c":"CDC-2610786","o":"SRQ Resources Inc. 100%","e":""},"geometry":{"type":"Polygon","coordinates":[[[-77.55,46.925],[-77.54167,46.925],[-77.54167,46.91667],[-77.55,46.91667],[-77.55,46.925]]]}},{"type":"Feature","properties":{"c":"CDC-2610785","o":"SRQ Resources Inc. 100%","e":""},"geometry":{"type":"Polygon","coordinates":[[[-77.55833,46.925],[-77.55,46.925],[-77.55,46.91667],[-77.55833,46.91667],[-77.55833,46.925]]]}},{"type":"Feature","properties":{"c":"CDC-2610702","o":"SRQ Resources Inc. 100%","e":""},"geometry":{"type":"Polygon","coordinates":[[[-77.50833,46.93333],[-77.5,46.93333],[-77.5,46.925],[-77.50833,46.925],[-77.50833,46.93333]]]}},{"type":"Feature","properties":{"c":"CDC-2610701","o":"SRQ Resources Inc. 100%","e":""},"geometry":{"type":"Polygon","coordinates":[[[-77.51667,46.93333],[-77.50833,46.93333],[-77.50833,46.925],[-77.51667,46.925],[-77.51667,46.93333]]]}},{"type":"Feature","properties":{"c":"CDC-2610700","o":"SRQ Resources Inc. 100%","e":""},"geometry":{"type":"Polygon","coordinates":[[[-77.525,46.93333],[-77.51667,46.93333],[-77.51667,46.925],[-77.525,46.925],[-77.525,46.93333]]]}},{"type":"Feature","properties":{"c":"CDC-2610699","o":"SRQ Resources Inc. 100%","e":""},"geometry":{"type":"Polygon","coordinates":[[[-77.53333,46.93333],[-77.525,46.93333],[-77.525,46.925],[-77.53333,46.925],[-77.53333,46.93333]]]}},{"type":"Feature","properties":{"c":"CDC-2610793","o":"SRQ Resources Inc. 100%","e":""},"geometry":{"type":"Polygon","coordinates":[[[-77.54167,46.93333],[-77.53333,46.93333],[-77.53333,46.925],[-77.54167,46.925],[-77.54167,46.93333]]]}},{"type":"Feature","properties":{"c":"CDC-2610792","o":"SRQ Resources Inc. 100%","e":""},"geometry":{"type":"Polygon","coordinates":[[[-77.55,46.93333],[-77.54167,46.93333],[-77.54167,46.925],[-77.55,46.925],[-77.55,46.93333]]]}},{"type":"Feature","properties":{"c":"CDC-2610791","o":"SRQ Resources Inc. 100%","e":""},"geometry":{"type":"Polygon","coordinates":[[[-77.55833,46.93333],[-77.55,46.93333],[-77.55,46.925],[-77.55833,46.925],[-77.55833,46.93333]]]}},{"type":"Feature","properties":{"c":"CDC-2858490","o":"SRQ Resources Inc. 100%","e":""},"geometry":{"type":"Polygon","coordinates":[[[-77.50833,46.94167],[-77.5,46.94167],[-77.5,46.93333],[-77.50833,46.93333],[-77.50833,46.94167]]]}},{"type":"Feature","properties":{"c":"CDC-2858489","o":"SRQ Resources Inc. 100%","e":""},"geometry":{"type":"Polygon","coordinates":[[[-77.51667,46.94167],[-77.50833,46.94167],[-77.50833,46.93333],[-77.51667,46.93333],[-77.51667,46.94167]]]}},{"type":"Feature","properties":{"c":"CDC-2858488","o":"SRQ Resources Inc. 100%","e":""},"geometry":{"type":"Polygon","coordinates":[[[-77.525,46.94167],[-77.51667,46.94167],[-77.51667,46.93333],[-77.525,46.93333],[-77.525,46.94167]]]}},{"type":"Feature","properties":{"c":"CDC-2858487","o":"SRQ Resources Inc. 100%","e":""},"geometry":{"type":"Polygon","coordinates":[[[-77.53333,46.94167],[-77.525,46.94167],[-77.525,46.93333],[-77.53333,46.93333],[-77.53333,46.94167]]]}},{"type":"Feature","properties":{"c":"CDC-2858486","o":"SRQ Resources Inc. 100%","e":""},"geometry":{"type":"Polygon","coordinates":[[[-77.54167,46.94167],[-77.53333,46.94167],[-77.53333,46.93333],[-77.54167,46.93333],[-77.54167,46.94167]]]}},{"type":"Feature","properties":{"c":"CDC-2858485","o":"SRQ Resources Inc. 100%","e":""},"geometry":{"type":"Polygon","coordinates":[[[-77.55,46.94167],[-77.54167,46.94167],[-77.54167,46.93333],[-77.55,46.93333],[-77.55,46.94167]]]}},{"type":"Feature","properties":{"c":"CDC-2852781","o":"SRQ Resources Inc. 100%","e":""},"geometry":{"type":"Polygon","coordinates":[[[-77.55833,46.94167],[-77.55,46.94167],[-77.55,46.93333],[-77.55833,46.93333],[-77.55833,46.94167]]]}},{"type":"Feature","properties":{"c":"CDC-2818037","o":"SRQ Resources Inc. 100%","e":""},"geometry":{"type":"Polygon","coordinates":[[[-77.50833,46.95],[-77.5,46.95],[-77.5,46.94167],[-77.50833,46.94167],[-77.50833,46.95]]]}},{"type":"Feature","properties":{"c":"CDC-2610690","o":"SRQ Resources Inc. 100%","e":""},"geometry":{"type":"Polygon","coordinates":[[[-77.50833,46.90833],[-77.5,46.90833],[-77.5,46.9],[-77.50833,46.9],[-77.50833,46.90833]]]}},{"type":"Feature","properties":{"c":"CDC-2610694","o":"SRQ Resources Inc. 100%","e":""},"geometry":{"type":"Polygon","coordinates":[[[-77.50833,46.91667],[-77.5,46.91667],[-77.5,46.90833],[-77.50833,46.90833],[-77.50833,46.91667]]]}},{"type":"Feature","properties":{"c":"CDC-2852633","o":"SRQ Resources Inc. 100%","e":""},"geometry":{"type":"Polygon","coordinates":[[[-77.55,46.88333],[-77.54167,46.88333],[-77.54167,46.875],[-77.55,46.875],[-77.55,46.88333]]]}},{"type":"Feature","properties":{"c":"CDC-2852614","o":"SRQ Resources Inc. 100%","e":""},"geometry":{"type":"Polygon","coordinates":[[[-77.55,46.89167],[-77.54167,46.89167],[-77.54167,46.88333],[-77.55,46.88333],[-77.55,46.89167]]]}},{"type":"Feature","properties":{"c":"CDC-2610774","o":"SRQ Resources Inc. 100%","e":""},"geometry":{"type":"Polygon","coordinates":[[[-77.55,46.90833],[-77.54167,46.90833],[-77.54167,46.9],[-77.55,46.9],[-77.55,46.90833]]]}},{"type":"Feature","properties":{"c":"CDC-2827759","o":"Jamie Cecchetto 100%","e":""},"geometry":{"type":"Polygon","coordinates":[[[-77.54167,46.875],[-77.53333,46.875],[-77.53333,46.86667],[-77.54167,46.86667],[-77.54167,46.875]]]}},{"type":"Feature","properties":{"c":"CDC-2827764","o":"Jamie Cecchetto 100%","e":""},"geometry":{"type":"Polygon","coordinates":[[[-77.54167,46.88333],[-77.53333,46.88333],[-77.53333,46.875],[-77.54167,46.875],[-77.54167,46.88333]]]}},{"type":"Feature","properties":{"c":"CDC-2827769","o":"Jamie Cecchetto 100%","e":""},"geometry":{"type":"Polygon","coordinates":[[[-77.54167,46.89167],[-77.53333,46.89167],[-77.53333,46.88333],[-77.54167,46.88333],[-77.54167,46.89167]]]}},{"type":"Feature","properties":{"c":"CDC-2827773","o":"Jamie Cecchetto 100%","e":""},"geometry":{"type":"Polygon","coordinates":[[[-77.54167,46.9],[-77.53333,46.9],[-77.53333,46.89167],[-77.54167,46.89167],[-77.54167,46.9]]]}},{"type":"Feature","properties":{"c":"CDC-2610775","o":"SRQ Resources Inc. 100%","e":""},"geometry":{"type":"Polygon","coordinates":[[[-77.54167,46.90833],[-77.53333,46.90833],[-77.53333,46.9],[-77.54167,46.9],[-77.54167,46.90833]]]}},{"type":"Feature","properties":{"c":"CDC-2610781","o":"SRQ Resources Inc. 100%","e":""},"geometry":{"type":"Polygon","coordinates":[[[-77.54167,46.91667],[-77.53333,46.91667],[-77.53333,46.90833],[-77.54167,46.90833],[-77.54167,46.91667]]]}},{"type":"Feature","properties":{"c":"CDC-2827765","o":"Jamie Cecchetto 100%","e":""},"geometry":{"type":"Polygon","coordinates":[[[-77.53333,46.88333],[-77.525,46.88333],[-77.525,46.875],[-77.53333,46.875],[-77.53333,46.88333]]]}},{"type":"Feature","properties":{"c":"CDC-2827770","o":"Jamie Cecchetto 100%","e":""},"geometry":{"type":"Polygon","coordinates":[[[-77.53333,46.89167],[-77.525,46.89167],[-77.525,46.88333],[-77.53333,46.88333],[-77.53333,46.89167]]]}},{"type":"Feature","properties":{"c":"CDC-2610683","o":"SRQ Resources Inc. 100%","e":""},"geometry":{"type":"Polygon","coordinates":[[[-77.53333,46.9],[-77.525,46.9],[-77.525,46.89167],[-77.53333,46.89167],[-77.53333,46.9]]]}},{"type":"Feature","properties":{"c":"CDC-2610687","o":"SRQ Resources Inc. 100%","e":""},"geometry":{"type":"Polygon","coordinates":[[[-77.53333,46.90833],[-77.525,46.90833],[-77.525,46.9],[-77.53333,46.9],[-77.53333,46.90833]]]}},{"type":"Feature","properties":{"c":"CDC-2610691","o":"SRQ Resources Inc. 100%","e":""},"geometry":{"type":"Polygon","coordinates":[[[-77.53333,46.91667],[-77.525,46.91667],[-77.525,46.90833],[-77.53333,46.90833],[-77.53333,46.91667]]]}},{"type":"Feature","properties":{"c":"CDC-2827766","o":"Jamie Cecchetto 100%","e":""},"geometry":{"type":"Polygon","coordinates":[[[-77.525,46.88333],[-77.51667,46.88333],[-77.51667,46.875],[-77.525,46.875],[-77.525,46.88333]]]}},{"type":"Feature","properties":{"c":"CDC-2827771","o":"Jamie Cecchetto 100%","e":""},"geometry":{"type":"Polygon","coordinates":[[[-77.525,46.89167],[-77.51667,46.89167],[-77.51667,46.88333],[-77.525,46.88333],[-77.525,46.89167]]]}},{"type":"Feature","properties":{"c":"CDC-2610684","o":"SRQ Resources Inc. 100%","e":""},"geometry":{"type":"Polygon","coordinates":[[[-77.525,46.9],[-77.51667,46.9],[-77.51667,46.89167],[-77.525,46.89167],[-77.525,46.9]]]}},{"type":"Feature","properties":{"c":"CDC-2610688","o":"SRQ Resources Inc. 100%","e":""},"geometry":{"type":"Polygon","coordinates":[[[-77.525,46.90833],[-77.51667,46.90833],[-77.51667,46.9],[-77.525,46.9],[-77.525,46.90833]]]}},{"type":"Feature","properties":{"c":"CDC-2610692","o":"SRQ Resources Inc. 100%","e":""},"geometry":{"type":"Polygon","coordinates":[[[-77.525,46.91667],[-77.51667,46.91667],[-77.51667,46.90833],[-77.525,46.90833],[-77.525,46.91667]]]}},{"type":"Feature","properties":{"c":"CDC-2827767","o":"Jamie Cecchetto 100%","e":""},"geometry":{"type":"Polygon","coordinates":[[[-77.51667,46.88333],[-77.50833,46.88333],[-77.50833,46.875],[-77.51667,46.875],[-77.51667,46.88333]]]}},{"type":"Feature","properties":{"c":"CDC-2827772","o":"Jamie Cecchetto 100%","e":""},"geometry":{"type":"Polygon","coordinates":[[[-77.51667,46.89167],[-77.50833,46.89167],[-77.50833,46.88333],[-77.51667,46.88333],[-77.51667,46.89167]]]}},{"type":"Feature","properties":{"c":"CDC-2610685","o":"SRQ Resources Inc. 100%","e":""},"geometry":{"type":"Polygon","coordinates":[[[-77.51667,46.9],[-77.50833,46.9],[-77.50833,46.89167],[-77.51667,46.89167],[-77.51667,46.9]]]}},{"type":"Feature","properties":{"c":"CDC-2610689","o":"SRQ Resources Inc. 100%","e":""},"geometry":{"type":"Polygon","coordinates":[[[-77.51667,46.90833],[-77.50833,46.90833],[-77.50833,46.9],[-77.51667,46.9],[-77.51667,46.90833]]]}},{"type":"Feature","properties":{"c":"CDC-2610693","o":"SRQ Resources Inc. 100%","e":""},"geometry":{"type":"Polygon","coordinates":[[[-77.51667,46.91667],[-77.50833,46.91667],[-77.50833,46.90833],[-77.51667,46.90833],[-77.51667,46.91667]]]}},{"type":"Feature","properties":{"c":"CDC-2827768","o":"Jamie Cecchetto 100%","e":""},"geometry":{"type":"Polygon","coordinates":[[[-77.50833,46.88333],[-77.5,46.88333],[-77.5,46.875],[-77.50833,46.875],[-77.50833,46.88333]]]}},{"type":"Feature","properties":{"c":"CDC-2610682","o":"SRQ Resources Inc. 100%","e":""},"geometry":{"type":"Polygon","coordinates":[[[-77.50833,46.89167],[-77.5,46.89167],[-77.5,46.88333],[-77.50833,46.88333],[-77.50833,46.89167]]]}},{"type":"Feature","properties":{"c":"CDC-2610686","o":"SRQ Resources Inc. 100%","e":""},"geometry":{"type":"Polygon","coordinates":[[[-77.50833,46.9],[-77.5,46.9],[-77.5,46.89167],[-77.50833,46.89167],[-77.50833,46.9]]]}},{"type":"Feature","properties":{"c":"CDC-2827753","o":"Jamie Cecchetto 100%","e":""},"geometry":{"type":"Polygon","coordinates":[[[-77.50833,46.85833],[-77.5,46.85833],[-77.5,46.85],[-77.50833,46.85],[-77.50833,46.85833]]]}},{"type":"Feature","properties":{"c":"CDC-2827752","o":"Jamie Cecchetto 100%","e":""},"geometry":{"type":"Polygon","coordinates":[[[-77.51667,46.85833],[-77.50833,46.85833],[-77.50833,46.85],[-77.51667,46.85],[-77.51667,46.85833]]]}},{"type":"Feature","properties":{"c":"CDC-2827751","o":"Jamie Cecchetto 100%","e":""},"geometry":{"type":"Polygon","coordinates":[[[-77.525,46.85833],[-77.51667,46.85833],[-77.51667,46.85],[-77.525,46.85],[-77.525,46.85833]]]}},{"type":"Feature","properties":{"c":"CDC-2827750","o":"Jamie Cecchetto 100%","e":""},"geometry":{"type":"Polygon","coordinates":[[[-77.53333,46.85833],[-77.525,46.85833],[-77.525,46.85],[-77.53333,46.85],[-77.53333,46.85833]]]}},{"type":"Feature","properties":{"c":"CDC-2827749","o":"Jamie Cecchetto 100%","e":""},"geometry":{"type":"Polygon","coordinates":[[[-77.54167,46.85833],[-77.53333,46.85833],[-77.53333,46.85],[-77.54167,46.85],[-77.54167,46.85833]]]}},{"type":"Feature","properties":{"c":"CDC-2827758","o":"Jamie Cecchetto 100%","e":""},"geometry":{"type":"Polygon","coordinates":[[[-77.50833,46.86667],[-77.5,46.86667],[-77.5,46.85833],[-77.50833,46.85833],[-77.50833,46.86667]]]}},{"type":"Feature","properties":{"c":"CDC-2827757","o":"Jamie Cecchetto 100%","e":""},"geometry":{"type":"Polygon","coordinates":[[[-77.51667,46.86667],[-77.50833,46.86667],[-77.50833,46.85833],[-77.51667,46.85833],[-77.51667,46.86667]]]}},{"type":"Feature","properties":{"c":"CDC-2827756","o":"Jamie Cecchetto 100%","e":""},"geometry":{"type":"Polygon","coordinates":[[[-77.525,46.86667],[-77.51667,46.86667],[-77.51667,46.85833],[-77.525,46.85833],[-77.525,46.86667]]]}},{"type":"Feature","properties":{"c":"CDC-2827755","o":"Jamie Cecchetto 100%","e":""},"geometry":{"type":"Polygon","coordinates":[[[-77.53333,46.86667],[-77.525,46.86667],[-77.525,46.85833],[-77.53333,46.85833],[-77.53333,46.86667]]]}},{"type":"Feature","properties":{"c":"CDC-2827754","o":"Jamie Cecchetto 100%","e":""},"geometry":{"type":"Polygon","coordinates":[[[-77.54167,46.86667],[-77.53333,46.86667],[-77.53333,46.85833],[-77.54167,46.85833],[-77.54167,46.86667]]]}},{"type":"Feature","properties":{"c":"CDC-2827763","o":"Jamie Cecchetto 100%","e":""},"geometry":{"type":"Polygon","coordinates":[[[-77.50833,46.875],[-77.5,46.875],[-77.5,46.86667],[-77.50833,46.86667],[-77.50833,46.875]]]}},{"type":"Feature","properties":{"c":"CDC-2827762","o":"Jamie Cecchetto 100%","e":""},"geometry":{"type":"Polygon","coordinates":[[[-77.51667,46.875],[-77.50833,46.875],[-77.50833,46.86667],[-77.51667,46.86667],[-77.51667,46.875]]]}},{"type":"Feature","properties":{"c":"CDC-2827761","o":"Jamie Cecchetto 100%","e":""},"geometry":{"type":"Polygon","coordinates":[[[-77.525,46.875],[-77.51667,46.875],[-77.51667,46.86667],[-77.525,46.86667],[-77.525,46.875]]]}},{"type":"Feature","properties":{"c":"CDC-2827760","o":"Jamie Cecchetto 100%","e":""},"geometry":{"type":"Polygon","coordinates":[[[-77.53333,46.875],[-77.525,46.875],[-77.525,46.86667],[-77.53333,46.86667],[-77.53333,46.875]]]}}]}