{"type":"FeatureCollection","features":[{"type":"Feature","properties":{"c":"949178","o":"","e":""},"geometry":{"type":"Polygon","coordinates":[[[-78.00625,45.5125],[-78.00625,45.51667],[-78.0,45.51667],[-78.0,45.5125],[-78.00625,45.5125]]]}},{"type":"Feature","properties":{"c":"949180","o":"","e":""},"geometry":{"type":"Polygon","coordinates":[[[-78.0125,45.51667],[-78.0125,45.52083],[-78.00625,45.52083],[-78.00625,45.51667],[-78.0125,45.51667]]]}},{"type":"Feature","properties":{"c":"949181","o":"","e":""},"geometry":{"type":"Polygon","coordinates":[[[-78.0125,45.5125],[-78.0125,45.51667],[-78.00625,45.51667],[-78.00625,45.5125],[-78.0125,45.5125]]]}},{"type":"Feature","properties":{"c":"949182","o":"","e":""},"geometry":{"type":"Polygon","coordinates":[[[-78.00625,45.51667],[-78.00625,45.52083],[-78.0,45.52083],[-78.0,45.51667],[-78.00625,45.51667]]]}},{"type":"Feature","properties":{"c":"907601","o":"","e":""},"geometry":{"type":"Polygon","coordinates":[[[-78.0125,45.525],[-78.0125,45.52917],[-78.00625,45.52917],[-78.00625,45.525],[-78.0125,45.525]]]}},{"type":"Feature","properties":{"c":"1064595","o":"","e":""},"geometry":{"type":"Polygon","coordinates":[[[-78.0125,45.52083],[-78.0125,45.525],[-78.00625,45.525],[-78.00625,45.52083],[-78.0125,45.52083]]]}}]}