{"type":"FeatureCollection","features":[{"type":"Feature","properties":{"c":"K14318","o":"Baffinland Iron Mines Corporation (100%)","e":"2021-09-17"},"geometry":{"type":"Polygon","coordinates":[[[-79.0,71.0],[-78.0,71.0],[-78.0,71.0],[-79.0,71.0]]]}},{"type":"Feature","properties":{"c":"K14319","o":"Baffinland Iron Mines Corporation (100%)","e":"2021-09-17"},"geometry":{"type":"Polygon","coordinates":[[[-78.0,71.0],[-79.0,71.0],[-79.0,72.0],[-78.0,71.0]]]}},{"type":"Feature","properties":{"c":"104082","o":"Baffinland Iron Mines Corporation (100%)","e":"2027-01-25"},"geometry":{"type":"Polygon","coordinates":[[[-79.0,71.0],[-78.0,71.0],[-79.0,71.0],[-79.0,71.0]]]}}]}