{"type":"FeatureCollection","features":[{"type":"Feature","properties":{"c":"777878","o":"","e":""},"geometry":{"type":"Polygon","coordinates":[[[-79.53125,46.8125],[-79.53125,46.81667],[-79.525,46.81667],[-79.525,46.82083],[-79.51875,46.82083],[-79.5125,46.82083],[-79.50625,46.82083],[-79.5,46.82083],[-79.49375,46.82083],[-79.49375,46.81667],[-79.49375,46.8125],[-79.49375,46.80833],[-79.49375,46.80417],[-79.5,46.80417],[-79.50625,46.80417],[-79.5125,46.80417],[-79.51875,46.80417],[-79.525,46.80417],[-79.53125,46.80417],[-79.53125,46.80833],[-79.53125,46.8125]]]}},{"type":"Feature","properties":{"c":"777823","o":"","e":""},"geometry":{"type":"Polygon","coordinates":[[[-79.50625,46.825],[-79.50625,46.82917],[-79.5,46.82917],[-79.5,46.825],[-79.50625,46.825]]]}},{"type":"Feature","properties":{"c":"777830","o":"","e":""},"geometry":{"type":"Polygon","coordinates":[[[-79.50625,46.8375],[-79.50625,46.84167],[-79.5,46.84167],[-79.5,46.8375],[-79.50625,46.8375]]]}},{"type":"Feature","properties":{"c":"777833","o":"","e":""},"geometry":{"type":"Polygon","coordinates":[[[-79.50625,46.82917],[-79.50625,46.83333],[-79.5,46.83333],[-79.5,46.82917],[-79.50625,46.82917]]]}},{"type":"Feature","properties":{"c":"777834","o":"","e":""},"geometry":{"type":"Polygon","coordinates":[[[-79.50625,46.84167],[-79.50625,46.84583],[-79.5,46.84583],[-79.5,46.84167],[-79.50625,46.84167]]]}},{"type":"Feature","properties":{"c":"777839","o":"","e":""},"geometry":{"type":"Polygon","coordinates":[[[-79.50625,46.82083],[-79.50625,46.825],[-79.5,46.825],[-79.5,46.82083],[-79.50625,46.82083]]]}},{"type":"Feature","properties":{"c":"777841","o":"","e":""},"geometry":{"type":"Polygon","coordinates":[[[-79.50625,46.83333],[-79.50625,46.8375],[-79.5,46.8375],[-79.5,46.83333],[-79.50625,46.83333]]]}},{"type":"Feature","properties":{"c":"777842","o":"","e":""},"geometry":{"type":"Polygon","coordinates":[[[-79.50625,46.84583],[-79.50625,46.85],[-79.5,46.85],[-79.5,46.84583],[-79.50625,46.84583]]]}},{"type":"Feature","properties":{"c":"341577","o":"","e":""},"geometry":{"type":"Polygon","coordinates":[[[-79.34375,46.7125],[-79.34375,46.71667],[-79.3375,46.71667],[-79.3375,46.7125],[-79.34375,46.7125]]]}},{"type":"Feature","properties":{"c":"880022","o":"","e":""},"geometry":{"type":"Polygon","coordinates":[[[-79.03125,46.5125],[-79.03125,46.51667],[-79.025,46.51667],[-79.025,46.5125],[-79.03125,46.5125]]]}},{"type":"Feature","properties":{"c":"880023","o":"","e":""},"geometry":{"type":"Polygon","coordinates":[[[-79.03125,46.51667],[-79.03125,46.52083],[-79.025,46.52083],[-79.025,46.51667],[-79.03125,46.51667]]]}},{"type":"Feature","properties":{"c":"880024","o":"","e":""},"geometry":{"type":"Polygon","coordinates":[[[-79.025,46.5125],[-79.025,46.51667],[-79.01875,46.51667],[-79.01875,46.5125],[-79.025,46.5125]]]}},{"type":"Feature","properties":{"c":"880025","o":"","e":""},"geometry":{"type":"Polygon","coordinates":[[[-79.0375,46.5125],[-79.0375,46.51667],[-79.03125,46.51667],[-79.03125,46.5125],[-79.0375,46.5125]]]}},{"type":"Feature","properties":{"c":"880026","o":"","e":""},"geometry":{"type":"Polygon","coordinates":[[[-79.05,46.5125],[-79.05,46.51667],[-79.04375,46.51667],[-79.04375,46.5125],[-79.05,46.5125]]]}},{"type":"Feature","properties":{"c":"521410","o":"","e":""},"geometry":{"type":"Polygon","coordinates":[[[-79.04375,46.5],[-79.04375,46.50417],[-79.0375,46.50417],[-79.0375,46.5],[-79.04375,46.5]]]}},{"type":"Feature","properties":{"c":"521411","o":"","e":""},"geometry":{"type":"Polygon","coordinates":[[[-79.03125,46.50833],[-79.03125,46.5125],[-79.025,46.5125],[-79.025,46.50833],[-79.03125,46.50833]]]}},{"type":"Feature","properties":{"c":"521412","o":"","e":""},"geometry":{"type":"Polygon","coordinates":[[[-79.025,46.50833],[-79.025,46.5125],[-79.01875,46.5125],[-79.01875,46.50833],[-79.025,46.50833]]]}},{"type":"Feature","properties":{"c":"521413","o":"","e":""},"geometry":{"type":"Polygon","coordinates":[[[-79.04375,46.50833],[-79.04375,46.5125],[-79.0375,46.5125],[-79.0375,46.50833],[-79.04375,46.50833]]]}},{"type":"Feature","properties":{"c":"521414","o":"","e":""},"geometry":{"type":"Polygon","coordinates":[[[-79.0375,46.50833],[-79.0375,46.5125],[-79.03125,46.5125],[-79.03125,46.50833],[-79.0375,46.50833]]]}},{"type":"Feature","properties":{"c":"521415","o":"","e":""},"geometry":{"type":"Polygon","coordinates":[[[-79.05,46.50417],[-79.05,46.50833],[-79.04375,46.50833],[-79.04375,46.50417],[-79.05,46.50417]]]}},{"type":"Feature","properties":{"c":"521416","o":"","e":""},"geometry":{"type":"Polygon","coordinates":[[[-79.05,46.50833],[-79.05,46.5125],[-79.04375,46.5125],[-79.04375,46.50833],[-79.05,46.50833]]]}},{"type":"Feature","properties":{"c":"521417","o":"","e":""},"geometry":{"type":"Polygon","coordinates":[[[-79.0375,46.5],[-79.0375,46.50417],[-79.03125,46.50417],[-79.03125,46.5],[-79.0375,46.5]]]}},{"type":"Feature","properties":{"c":"521418","o":"","e":""},"geometry":{"type":"Polygon","coordinates":[[[-79.0375,46.50417],[-79.0375,46.50833],[-79.03125,46.50833],[-79.03125,46.50417],[-79.0375,46.50417]]]}},{"type":"Feature","properties":{"c":"521419","o":"","e":""},"geometry":{"type":"Polygon","coordinates":[[[-79.04375,46.50417],[-79.04375,46.50833],[-79.0375,46.50833],[-79.0375,46.50417],[-79.04375,46.50417]]]}},{"type":"Feature","properties":{"c":"521420","o":"","e":""},"geometry":{"type":"Polygon","coordinates":[[[-79.03125,46.50417],[-79.03125,46.50833],[-79.025,46.50833],[-79.025,46.50417],[-79.03125,46.50417]]]}},{"type":"Feature","properties":{"c":"880027","o":"","e":""},"geometry":{"type":"Polygon","coordinates":[[[-79.04375,46.51667],[-79.04375,46.52083],[-79.0375,46.52083],[-79.0375,46.51667],[-79.04375,46.51667]]]}},{"type":"Feature","properties":{"c":"880028","o":"","e":""},"geometry":{"type":"Polygon","coordinates":[[[-79.04375,46.5125],[-79.04375,46.51667],[-79.0375,46.51667],[-79.0375,46.5125],[-79.04375,46.5125]]]}},{"type":"Feature","properties":{"c":"880029","o":"","e":""},"geometry":{"type":"Polygon","coordinates":[[[-79.04375,46.52083],[-79.04375,46.525],[-79.0375,46.525],[-79.0375,46.52083],[-79.04375,46.52083]]]}},{"type":"Feature","properties":{"c":"880030","o":"","e":""},"geometry":{"type":"Polygon","coordinates":[[[-79.025,46.51667],[-79.025,46.52083],[-79.01875,46.52083],[-79.01875,46.51667],[-79.025,46.51667]]]}},{"type":"Feature","properties":{"c":"880031","o":"","e":""},"geometry":{"type":"Polygon","coordinates":[[[-79.05,46.51667],[-79.05,46.52083],[-79.04375,46.52083],[-79.04375,46.51667],[-79.05,46.51667]]]}},{"type":"Feature","properties":{"c":"549095","o":"","e":""},"geometry":{"type":"Polygon","coordinates":[[[-79.025,46.50417],[-79.025,46.50833],[-79.01875,46.50833],[-79.01875,46.50417],[-79.025,46.50417]]]}},{"type":"Feature","properties":{"c":"102189","o":"","e":""},"geometry":{"type":"Polygon","coordinates":[[[-79.3375,46.72083],[-79.3375,46.725],[-79.33125,46.725],[-79.33125,46.72083],[-79.3375,46.72083]]]}},{"type":"Feature","properties":{"c":"106741","o":"","e":""},"geometry":{"type":"Polygon","coordinates":[[[-79.33125,46.72083],[-79.33125,46.725],[-79.325,46.725],[-79.325,46.72083],[-79.33125,46.72083]]]}},{"type":"Feature","properties":{"c":"106911","o":"","e":""},"geometry":{"type":"Polygon","coordinates":[[[-79.29375,46.70417],[-79.29375,46.70833],[-79.2875,46.70833],[-79.2875,46.70417],[-79.29375,46.70417]]]}},{"type":"Feature","properties":{"c":"104320","o":"","e":""},"geometry":{"type":"Polygon","coordinates":[[[-79.25,46.67917],[-79.25,46.68333],[-79.24375,46.68333],[-79.24375,46.67917],[-79.25,46.67917]]]}},{"type":"Feature","properties":{"c":"104321","o":"","e":""},"geometry":{"type":"Polygon","coordinates":[[[-79.25,46.675],[-79.25,46.67917],[-79.24375,46.67917],[-79.24375,46.675],[-79.25,46.675]]]}},{"type":"Feature","properties":{"c":"1019706","o":"","e":""},"geometry":{"type":"Polygon","coordinates":[[[-79.06875,46.51667],[-79.06875,46.52083],[-79.0625,46.52083],[-79.0625,46.51667],[-79.06875,46.51667]]]}},{"type":"Feature","properties":{"c":"1019707","o":"","e":""},"geometry":{"type":"Polygon","coordinates":[[[-79.06875,46.5125],[-79.06875,46.51667],[-79.0625,46.51667],[-79.0625,46.5125],[-79.06875,46.5125]]]}},{"type":"Feature","properties":{"c":"108283","o":"","e":""},"geometry":{"type":"Polygon","coordinates":[[[-79.2625,46.6875],[-79.2625,46.69167],[-79.25625,46.69167],[-79.25625,46.6875],[-79.2625,46.6875]]]}},{"type":"Feature","properties":{"c":"901337","o":"","e":""},"geometry":{"type":"Polygon","coordinates":[[[-79.275,46.74167],[-79.275,46.74583],[-79.26875,46.74583],[-79.26875,46.74167],[-79.275,46.74167]]]}},{"type":"Feature","properties":{"c":"117487","o":"","e":""},"geometry":{"type":"Polygon","coordinates":[[[-79.34375,46.72083],[-79.34375,46.725],[-79.3375,46.725],[-79.3375,46.72083],[-79.34375,46.72083]]]}},{"type":"Feature","properties":{"c":"129210","o":"","e":""},"geometry":{"type":"Polygon","coordinates":[[[-79.28125,46.70417],[-79.28125,46.70833],[-79.275,46.70833],[-79.275,46.70417],[-79.28125,46.70417]]]}},{"type":"Feature","properties":{"c":"993347","o":"","e":""},"geometry":{"type":"Polygon","coordinates":[[[-79.24375,46.69583],[-79.24375,46.7],[-79.2375,46.7],[-79.2375,46.69583],[-79.24375,46.69583]]]}},{"type":"Feature","properties":{"c":"993341","o":"","e":""},"geometry":{"type":"Polygon","coordinates":[[[-79.2125,46.6625],[-79.2125,46.66667],[-79.20625,46.66667],[-79.20625,46.6625],[-79.2125,46.6625]]]}},{"type":"Feature","properties":{"c":"993342","o":"","e":""},"geometry":{"type":"Polygon","coordinates":[[[-79.20625,46.6625],[-79.20625,46.66667],[-79.2,46.66667],[-79.2,46.6625],[-79.20625,46.6625]]]}},{"type":"Feature","properties":{"c":"993343","o":"","e":""},"geometry":{"type":"Polygon","coordinates":[[[-79.1625,46.6625],[-79.1625,46.66667],[-79.15625,46.66667],[-79.15625,46.6625],[-79.1625,46.6625]]]}},{"type":"Feature","properties":{"c":"993344","o":"","e":""},"geometry":{"type":"Polygon","coordinates":[[[-79.1625,46.65833],[-79.1625,46.6625],[-79.15625,46.6625],[-79.15625,46.65833],[-79.1625,46.65833]]]}},{"type":"Feature","properties":{"c":"993345","o":"","e":""},"geometry":{"type":"Polygon","coordinates":[[[-79.25,46.7],[-79.25,46.70417],[-79.24375,46.70417],[-79.24375,46.7],[-79.25,46.7]]]}},{"type":"Feature","properties":{"c":"993346","o":"","e":""},"geometry":{"type":"Polygon","coordinates":[[[-79.25,46.69583],[-79.25,46.7],[-79.24375,46.7],[-79.24375,46.69583],[-79.25,46.69583]]]}},{"type":"Feature","properties":{"c":"885177","o":"","e":""},"geometry":{"type":"Polygon","coordinates":[[[-79.28125,46.84167],[-79.28125,46.84583],[-79.275,46.84583],[-79.275,46.84167],[-79.28125,46.84167]]]}},{"type":"Feature","properties":{"c":"136776","o":"","e":""},"geometry":{"type":"Polygon","coordinates":[[[-79.24375,46.67083],[-79.24375,46.675],[-79.2375,46.675],[-79.2375,46.67083],[-79.24375,46.67083]]]}},{"type":"Feature","properties":{"c":"138207","o":"","e":""},"geometry":{"type":"Polygon","coordinates":[[[-79.26875,46.69583],[-79.26875,46.7],[-79.2625,46.7],[-79.2625,46.69583],[-79.26875,46.69583]]]}},{"type":"Feature","properties":{"c":"138906","o":"","e":""},"geometry":{"type":"Polygon","coordinates":[[[-79.25625,46.68333],[-79.25625,46.6875],[-79.25,46.6875],[-79.25,46.68333],[-79.25625,46.68333]]]}},{"type":"Feature","properties":{"c":"140695","o":"","e":""},"geometry":{"type":"Polygon","coordinates":[[[-79.2875,46.69167],[-79.2875,46.69583],[-79.28125,46.69583],[-79.28125,46.69167],[-79.2875,46.69167]]]}},{"type":"Feature","properties":{"c":"993363","o":"","e":""},"geometry":{"type":"Polygon","coordinates":[[[-79.225,46.675],[-79.225,46.67917],[-79.21875,46.67917],[-79.21875,46.675],[-79.225,46.675]]]}},{"type":"Feature","properties":{"c":"993364","o":"","e":""},"geometry":{"type":"Polygon","coordinates":[[[-79.21875,46.675],[-79.21875,46.67917],[-79.2125,46.67917],[-79.2125,46.675],[-79.21875,46.675]]]}},{"type":"Feature","properties":{"c":"993365","o":"","e":""},"geometry":{"type":"Polygon","coordinates":[[[-79.2125,46.675],[-79.2125,46.67917],[-79.20625,46.67917],[-79.20625,46.675],[-79.2125,46.675]]]}},{"type":"Feature","properties":{"c":"993366","o":"","e":""},"geometry":{"type":"Polygon","coordinates":[[[-79.20625,46.675],[-79.20625,46.67917],[-79.2,46.67917],[-79.2,46.675],[-79.20625,46.675]]]}},{"type":"Feature","properties":{"c":"993362","o":"","e":""},"geometry":{"type":"Polygon","coordinates":[[[-79.175,46.67917],[-79.175,46.68333],[-79.16875,46.68333],[-79.16875,46.67917],[-79.175,46.67917]]]}},{"type":"Feature","properties":{"c":"993367","o":"","e":""},"geometry":{"type":"Polygon","coordinates":[[[-79.2,46.675],[-79.2,46.67917],[-79.19375,46.67917],[-79.19375,46.675],[-79.2,46.675]]]}},{"type":"Feature","properties":{"c":"993368","o":"","e":""},"geometry":{"type":"Polygon","coordinates":[[[-79.19375,46.675],[-79.19375,46.67917],[-79.1875,46.67917],[-79.1875,46.675],[-79.19375,46.675]]]}},{"type":"Feature","properties":{"c":"993369","o":"","e":""},"geometry":{"type":"Polygon","coordinates":[[[-79.1875,46.675],[-79.1875,46.67917],[-79.18125,46.67917],[-79.18125,46.675],[-79.1875,46.675]]]}},{"type":"Feature","properties":{"c":"880032","o":"","e":""},"geometry":{"type":"Polygon","coordinates":[[[-79.05,46.5],[-79.05,46.50417],[-79.04375,46.50417],[-79.04375,46.5],[-79.05,46.5]]]}},{"type":"Feature","properties":{"c":"146095","o":"","e":""},"geometry":{"type":"Polygon","coordinates":[[[-79.2875,46.7],[-79.2875,46.70417],[-79.28125,46.70417],[-79.28125,46.7],[-79.2875,46.7]]]}},{"type":"Feature","properties":{"c":"146096","o":"","e":""},"geometry":{"type":"Polygon","coordinates":[[[-79.28125,46.69167],[-79.28125,46.69583],[-79.275,46.69583],[-79.275,46.69167],[-79.28125,46.69167]]]}},{"type":"Feature","properties":{"c":"855494","o":"","e":""},"geometry":{"type":"Polygon","coordinates":[[[-79.475,46.8125],[-79.475,46.81667],[-79.475,46.82083],[-79.475,46.825],[-79.475,46.82917],[-79.475,46.83333],[-79.475,46.8375],[-79.475,46.84167],[-79.475,46.84583],[-79.475,46.85],[-79.475,46.85417],[-79.475,46.85833],[-79.475,46.8625],[-79.46875,46.8625],[-79.46875,46.85833],[-79.46875,46.85417],[-79.46875,46.85],[-79.46875,46.84583],[-79.46875,46.84167],[-79.46875,46.8375],[-79.46875,46.83333],[-79.46875,46.82917],[-79.46875,46.825],[-79.46875,46.82083],[-79.46875,46.81667],[-79.46875,46.8125],[-79.46875,46.80833],[-79.46875,46.80417],[-79.475,46.80417],[-79.475,46.80833],[-79.475,46.8125]]]}},{"type":"Feature","properties":{"c":"855493","o":"","e":""},"geometry":{"type":"Polygon","coordinates":[[[-79.53125,46.8625],[-79.53125,46.86667],[-79.525,46.86667],[-79.51875,46.86667],[-79.5125,46.86667],[-79.50625,46.86667],[-79.5,46.86667],[-79.49375,46.86667],[-79.4875,46.86667],[-79.48125,46.86667],[-79.475,46.86667],[-79.46875,46.86667],[-79.46875,46.8625],[-79.475,46.8625],[-79.48125,46.8625],[-79.4875,46.8625],[-79.49375,46.8625],[-79.5,46.8625],[-79.50625,46.8625],[-79.5125,46.8625],[-79.51875,46.8625],[-79.525,46.8625],[-79.53125,46.8625]]]}},{"type":"Feature","properties":{"c":"562760","o":"","e":""},"geometry":{"type":"Polygon","coordinates":[[[-79.03125,46.5],[-79.03125,46.50417],[-79.025,46.50417],[-79.025,46.5],[-79.03125,46.5]]]}},{"type":"Feature","properties":{"c":"162659","o":"","e":""},"geometry":{"type":"Polygon","coordinates":[[[-79.28125,46.69583],[-79.28125,46.7],[-79.275,46.7],[-79.275,46.69583],[-79.28125,46.69583]]]}},{"type":"Feature","properties":{"c":"549799","o":"","e":""},"geometry":{"type":"Polygon","coordinates":[[[-79.25,46.78333],[-79.25,46.7875],[-79.24375,46.7875],[-79.24375,46.78333],[-79.25,46.78333]]]}},{"type":"Feature","properties":{"c":"549800","o":"","e":""},"geometry":{"type":"Polygon","coordinates":[[[-79.24375,46.78333],[-79.24375,46.7875],[-79.2375,46.7875],[-79.2375,46.78333],[-79.24375,46.78333]]]}},{"type":"Feature","properties":{"c":"549801","o":"","e":""},"geometry":{"type":"Polygon","coordinates":[[[-79.2375,46.78333],[-79.2375,46.7875],[-79.23125,46.7875],[-79.23125,46.78333],[-79.2375,46.78333]]]}},{"type":"Feature","properties":{"c":"549802","o":"","e":""},"geometry":{"type":"Polygon","coordinates":[[[-79.25,46.77917],[-79.25,46.78333],[-79.24375,46.78333],[-79.24375,46.77917],[-79.25,46.77917]]]}},{"type":"Feature","properties":{"c":"549803","o":"","e":""},"geometry":{"type":"Polygon","coordinates":[[[-79.24375,46.77917],[-79.24375,46.78333],[-79.2375,46.78333],[-79.2375,46.77917],[-79.24375,46.77917]]]}},{"type":"Feature","properties":{"c":"549804","o":"","e":""},"geometry":{"type":"Polygon","coordinates":[[[-79.2375,46.77917],[-79.2375,46.78333],[-79.23125,46.78333],[-79.23125,46.77917],[-79.2375,46.77917]]]}},{"type":"Feature","properties":{"c":"549810","o":"","e":""},"geometry":{"type":"Polygon","coordinates":[[[-79.25625,46.78333],[-79.25625,46.7875],[-79.25,46.7875],[-79.25,46.78333],[-79.25625,46.78333]]]}},{"type":"Feature","properties":{"c":"549811","o":"","e":""},"geometry":{"type":"Polygon","coordinates":[[[-79.25625,46.77917],[-79.25625,46.78333],[-79.25,46.78333],[-79.25,46.77917],[-79.25625,46.77917]]]}},{"type":"Feature","properties":{"c":"549813","o":"","e":""},"geometry":{"type":"Polygon","coordinates":[[[-79.23125,46.78333],[-79.23125,46.7875],[-79.225,46.7875],[-79.225,46.78333],[-79.23125,46.78333]]]}},{"type":"Feature","properties":{"c":"185387","o":"","e":""},"geometry":{"type":"Polygon","coordinates":[[[-79.25,46.67083],[-79.25,46.675],[-79.24375,46.675],[-79.24375,46.67083],[-79.25,46.67083]]]}},{"type":"Feature","properties":{"c":"185985","o":"","e":""},"geometry":{"type":"Polygon","coordinates":[[[-79.24375,46.67917],[-79.24375,46.68333],[-79.2375,46.68333],[-79.2375,46.67917],[-79.24375,46.67917]]]}},{"type":"Feature","properties":{"c":"203528","o":"","e":""},"geometry":{"type":"Polygon","coordinates":[[[-79.25,46.68333],[-79.25,46.6875],[-79.24375,46.6875],[-79.24375,46.68333],[-79.25,46.68333]]]}},{"type":"Feature","properties":{"c":"209678","o":"","e":""},"geometry":{"type":"Polygon","coordinates":[[[-79.24375,46.6875],[-79.24375,46.69167],[-79.2375,46.69167],[-79.2375,46.6875],[-79.24375,46.6875]]]}},{"type":"Feature","properties":{"c":"958245","o":"","e":""},"geometry":{"type":"Polygon","coordinates":[[[-79.28125,46.74167],[-79.28125,46.74583],[-79.275,46.74583],[-79.275,46.74167],[-79.28125,46.74167]]]}},{"type":"Feature","properties":{"c":"1047706","o":"","e":""},"geometry":{"type":"Polygon","coordinates":[[[-79.25,46.8125],[-79.25,46.81667],[-79.24375,46.81667],[-79.2375,46.81667],[-79.23125,46.81667],[-79.23125,46.8125],[-79.23125,46.80833],[-79.23125,46.80417],[-79.2375,46.80417],[-79.24375,46.80417],[-79.25,46.80417],[-79.25,46.80833],[-79.25,46.8125]]]}},{"type":"Feature","properties":{"c":"221944","o":"","e":""},"geometry":{"type":"Polygon","coordinates":[[[-79.2875,46.69583],[-79.2875,46.7],[-79.28125,46.7],[-79.28125,46.69583],[-79.2875,46.69583]]]}},{"type":"Feature","properties":{"c":"885176","o":"","e":""},"geometry":{"type":"Polygon","coordinates":[[[-79.29375,46.84167],[-79.29375,46.84583],[-79.2875,46.84583],[-79.2875,46.85],[-79.28125,46.85],[-79.275,46.85],[-79.275,46.84583],[-79.28125,46.84583],[-79.28125,46.84167],[-79.2875,46.84167],[-79.29375,46.84167]]]}},{"type":"Feature","properties":{"c":"218094","o":"","e":""},"geometry":{"type":"Polygon","coordinates":[[[-79.26875,46.69167],[-79.26875,46.69583],[-79.2625,46.69583],[-79.2625,46.69167],[-79.26875,46.69167]]]}},{"type":"Feature","properties":{"c":"218095","o":"","e":""},"geometry":{"type":"Polygon","coordinates":[[[-79.275,46.6875],[-79.275,46.69167],[-79.26875,46.69167],[-79.26875,46.6875],[-79.275,46.6875]]]}},{"type":"Feature","properties":{"c":"335507","o":"","e":""},"geometry":{"type":"Polygon","coordinates":[[[-79.3,46.7],[-79.3,46.70417],[-79.29375,46.70417],[-79.29375,46.7],[-79.3,46.7]]]}},{"type":"Feature","properties":{"c":"224652","o":"","e":""},"geometry":{"type":"Polygon","coordinates":[[[-79.25625,46.67083],[-79.25625,46.675],[-79.25,46.675],[-79.25,46.67083],[-79.25625,46.67083]]]}},{"type":"Feature","properties":{"c":"225247","o":"","e":""},"geometry":{"type":"Polygon","coordinates":[[[-79.33125,46.725],[-79.33125,46.72917],[-79.325,46.72917],[-79.325,46.725],[-79.33125,46.725]]]}},{"type":"Feature","properties":{"c":"878354","o":"","e":""},"geometry":{"type":"Polygon","coordinates":[[[-79.06875,46.50833],[-79.06875,46.5125],[-79.0625,46.5125],[-79.0625,46.50833],[-79.06875,46.50833]]]}},{"type":"Feature","properties":{"c":"878357","o":"","e":""},"geometry":{"type":"Polygon","coordinates":[[[-79.06875,46.52083],[-79.06875,46.525],[-79.0625,46.525],[-79.0625,46.52083],[-79.06875,46.52083]]]}},{"type":"Feature","properties":{"c":"993355","o":"","e":""},"geometry":{"type":"Polygon","coordinates":[[[-79.21875,46.67917],[-79.21875,46.68333],[-79.2125,46.68333],[-79.2125,46.67917],[-79.21875,46.67917]]]}},{"type":"Feature","properties":{"c":"993356","o":"","e":""},"geometry":{"type":"Polygon","coordinates":[[[-79.2125,46.67917],[-79.2125,46.68333],[-79.20625,46.68333],[-79.20625,46.67917],[-79.2125,46.67917]]]}},{"type":"Feature","properties":{"c":"993357","o":"","e":""},"geometry":{"type":"Polygon","coordinates":[[[-79.20625,46.67917],[-79.20625,46.68333],[-79.2,46.68333],[-79.2,46.67917],[-79.20625,46.67917]]]}},{"type":"Feature","properties":{"c":"993358","o":"","e":""},"geometry":{"type":"Polygon","coordinates":[[[-79.2,46.67917],[-79.2,46.68333],[-79.19375,46.68333],[-79.19375,46.67917],[-79.2,46.67917]]]}},{"type":"Feature","properties":{"c":"993359","o":"","e":""},"geometry":{"type":"Polygon","coordinates":[[[-79.19375,46.67917],[-79.19375,46.68333],[-79.1875,46.68333],[-79.1875,46.67917],[-79.19375,46.67917]]]}},{"type":"Feature","properties":{"c":"993360","o":"","e":""},"geometry":{"type":"Polygon","coordinates":[[[-79.1875,46.67917],[-79.1875,46.68333],[-79.18125,46.68333],[-79.18125,46.67917],[-79.1875,46.67917]]]}},{"type":"Feature","properties":{"c":"993361","o":"","e":""},"geometry":{"type":"Polygon","coordinates":[[[-79.18125,46.67917],[-79.18125,46.68333],[-79.175,46.68333],[-79.175,46.67917],[-79.18125,46.67917]]]}},{"type":"Feature","properties":{"c":"993354","o":"","e":""},"geometry":{"type":"Polygon","coordinates":[[[-79.225,46.67917],[-79.225,46.68333],[-79.21875,46.68333],[-79.21875,46.67917],[-79.225,46.67917]]]}},{"type":"Feature","properties":{"c":"227382","o":"","e":""},"geometry":{"type":"Polygon","coordinates":[[[-79.26875,46.6875],[-79.26875,46.69167],[-79.2625,46.69167],[-79.2625,46.6875],[-79.26875,46.6875]]]}},{"type":"Feature","properties":{"c":"227383","o":"","e":""},"geometry":{"type":"Polygon","coordinates":[[[-79.26875,46.68333],[-79.26875,46.6875],[-79.2625,46.6875],[-79.2625,46.68333],[-79.26875,46.68333]]]}},{"type":"Feature","properties":{"c":"228136","o":"","e":""},"geometry":{"type":"Polygon","coordinates":[[[-79.35,46.71667],[-79.35,46.72083],[-79.34375,46.72083],[-79.34375,46.71667],[-79.35,46.71667]]]}},{"type":"Feature","properties":{"c":"993348","o":"","e":""},"geometry":{"type":"Polygon","coordinates":[[[-79.2375,46.69583],[-79.2375,46.7],[-79.23125,46.7],[-79.23125,46.69583],[-79.2375,46.69583]]]}},{"type":"Feature","properties":{"c":"993349","o":"","e":""},"geometry":{"type":"Polygon","coordinates":[[[-79.23125,46.69583],[-79.23125,46.7],[-79.225,46.7],[-79.225,46.69583],[-79.23125,46.69583]]]}},{"type":"Feature","properties":{"c":"993350","o":"","e":""},"geometry":{"type":"Polygon","coordinates":[[[-79.23125,46.69167],[-79.23125,46.69583],[-79.225,46.69583],[-79.225,46.69167],[-79.23125,46.69167]]]}},{"type":"Feature","properties":{"c":"993351","o":"","e":""},"geometry":{"type":"Polygon","coordinates":[[[-79.225,46.69167],[-79.225,46.69583],[-79.21875,46.69583],[-79.21875,46.69167],[-79.225,46.69167]]]}},{"type":"Feature","properties":{"c":"993352","o":"","e":""},"geometry":{"type":"Polygon","coordinates":[[[-79.225,46.6875],[-79.225,46.69167],[-79.21875,46.69167],[-79.21875,46.6875],[-79.225,46.6875]]]}},{"type":"Feature","properties":{"c":"993353","o":"","e":""},"geometry":{"type":"Polygon","coordinates":[[[-79.225,46.68333],[-79.225,46.6875],[-79.21875,46.6875],[-79.21875,46.68333],[-79.225,46.68333]]]}},{"type":"Feature","properties":{"c":"229925","o":"","e":""},"geometry":{"type":"Polygon","coordinates":[[[-79.2875,46.70417],[-79.2875,46.70833],[-79.28125,46.70833],[-79.28125,46.70417],[-79.2875,46.70417]]]}},{"type":"Feature","properties":{"c":"229926","o":"","e":""},"geometry":{"type":"Polygon","coordinates":[[[-79.29375,46.69583],[-79.29375,46.7],[-79.2875,46.7],[-79.2875,46.69583],[-79.29375,46.69583]]]}},{"type":"Feature","properties":{"c":"229056","o":"","e":""},"geometry":{"type":"Polygon","coordinates":[[[-79.30625,46.7],[-79.30625,46.70417],[-79.3,46.70417],[-79.3,46.7],[-79.30625,46.7]]]}},{"type":"Feature","properties":{"c":"242088","o":"","e":""},"geometry":{"type":"Polygon","coordinates":[[[-79.28125,46.7],[-79.28125,46.70417],[-79.275,46.70417],[-79.275,46.7],[-79.28125,46.7]]]}},{"type":"Feature","properties":{"c":"918079","o":"","e":""},"geometry":{"type":"Polygon","coordinates":[[[-79.39375,46.86667],[-79.39375,46.87083],[-79.3875,46.87083],[-79.3875,46.86667],[-79.39375,46.86667]]]}},{"type":"Feature","properties":{"c":"918080","o":"","e":""},"geometry":{"type":"Polygon","coordinates":[[[-79.36875,46.875],[-79.36875,46.87917],[-79.3625,46.87917],[-79.3625,46.875],[-79.36875,46.875]]]}},{"type":"Feature","properties":{"c":"918081","o":"","e":""},"geometry":{"type":"Polygon","coordinates":[[[-79.3625,46.87083],[-79.3625,46.875],[-79.35625,46.875],[-79.35625,46.87083],[-79.3625,46.87083]]]}},{"type":"Feature","properties":{"c":"918082","o":"","e":""},"geometry":{"type":"Polygon","coordinates":[[[-79.35,46.8875],[-79.35,46.89167],[-79.34375,46.89167],[-79.34375,46.8875],[-79.35,46.8875]]]}},{"type":"Feature","properties":{"c":"918083","o":"","e":""},"geometry":{"type":"Polygon","coordinates":[[[-79.34375,46.8875],[-79.34375,46.89167],[-79.3375,46.89167],[-79.3375,46.8875],[-79.34375,46.8875]]]}},{"type":"Feature","properties":{"c":"918084","o":"","e":""},"geometry":{"type":"Polygon","coordinates":[[[-79.38125,46.875],[-79.38125,46.87917],[-79.375,46.87917],[-79.375,46.875],[-79.38125,46.875]]]}},{"type":"Feature","properties":{"c":"918085","o":"","e":""},"geometry":{"type":"Polygon","coordinates":[[[-79.35625,46.875],[-79.35625,46.87917],[-79.35,46.87917],[-79.35,46.875],[-79.35625,46.875]]]}},{"type":"Feature","properties":{"c":"246765","o":"","e":""},"geometry":{"type":"Polygon","coordinates":[[[-79.3375,46.71667],[-79.3375,46.72083],[-79.33125,46.72083],[-79.33125,46.71667],[-79.3375,46.71667]]]}},{"type":"Feature","properties":{"c":"246766","o":"","e":""},"geometry":{"type":"Polygon","coordinates":[[[-79.3375,46.7125],[-79.3375,46.71667],[-79.33125,46.71667],[-79.33125,46.7125],[-79.3375,46.7125]]]}},{"type":"Feature","properties":{"c":"244826","o":"","e":""},"geometry":{"type":"Polygon","coordinates":[[[-79.25625,46.67917],[-79.25625,46.68333],[-79.25,46.68333],[-79.25,46.67917],[-79.25625,46.67917]]]}},{"type":"Feature","properties":{"c":"245419","o":"","e":""},"geometry":{"type":"Polygon","coordinates":[[[-79.33125,46.71667],[-79.33125,46.72083],[-79.325,46.72083],[-79.325,46.71667],[-79.33125,46.71667]]]}},{"type":"Feature","properties":{"c":"948454","o":"","e":""},"geometry":{"type":"Polygon","coordinates":[[[-79.2625,46.7],[-79.25625,46.7],[-79.25,46.7],[-79.25,46.69583],[-79.24375,46.69583],[-79.2375,46.69583],[-79.23125,46.69583],[-79.23125,46.69167],[-79.225,46.69167],[-79.225,46.6875],[-79.225,46.68333],[-79.225,46.67917],[-79.225,46.675],[-79.225,46.67083],[-79.225,46.66667],[-79.23125,46.66667],[-79.2375,46.66667],[-79.24375,46.66667],[-79.25,46.66667],[-79.25625,46.66667],[-79.25625,46.67083],[-79.25,46.67083],[-79.24375,46.67083],[-79.2375,46.67083],[-79.2375,46.675],[-79.2375,46.67917],[-79.2375,46.68333],[-79.2375,46.6875],[-79.2375,46.69167],[-79.24375,46.69167],[-79.25,46.69167],[-79.25625,46.69167],[-79.2625,46.69167],[-79.2625,46.69583],[-79.2625,46.7]]]}},{"type":"Feature","properties":{"c":"245418","o":"","e":""},"geometry":{"type":"Polygon","coordinates":[[[-79.3375,46.725],[-79.3375,46.72917],[-79.33125,46.72917],[-79.33125,46.725],[-79.3375,46.725]]]}},{"type":"Feature","properties":{"c":"249415","o":"","e":""},"geometry":{"type":"Polygon","coordinates":[[[-79.275,46.69583],[-79.275,46.7],[-79.26875,46.7],[-79.26875,46.69583],[-79.275,46.69583]]]}},{"type":"Feature","properties":{"c":"247550","o":"","e":""},"geometry":{"type":"Polygon","coordinates":[[[-79.25,46.6875],[-79.25,46.69167],[-79.24375,46.69167],[-79.24375,46.6875],[-79.25,46.6875]]]}},{"type":"Feature","properties":{"c":"256955","o":"","e":""},"geometry":{"type":"Polygon","coordinates":[[[-79.2625,46.68333],[-79.2625,46.6875],[-79.25625,46.6875],[-79.25625,46.68333],[-79.2625,46.68333]]]}},{"type":"Feature","properties":{"c":"256956","o":"","e":""},"geometry":{"type":"Polygon","coordinates":[[[-79.275,46.68333],[-79.275,46.6875],[-79.26875,46.6875],[-79.26875,46.68333],[-79.275,46.68333]]]}},{"type":"Feature","properties":{"c":"918087","o":"","e":""},"geometry":{"type":"Polygon","coordinates":[[[-79.375,46.875],[-79.375,46.87917],[-79.36875,46.87917],[-79.36875,46.875],[-79.375,46.875]]]}},{"type":"Feature","properties":{"c":"918086","o":"","e":""},"geometry":{"type":"Polygon","coordinates":[[[-79.3375,46.8875],[-79.3375,46.89167],[-79.33125,46.89167],[-79.33125,46.8875],[-79.3375,46.8875]]]}},{"type":"Feature","properties":{"c":"918088","o":"","e":""},"geometry":{"type":"Polygon","coordinates":[[[-79.36875,46.86667],[-79.36875,46.87083],[-79.3625,46.87083],[-79.3625,46.86667],[-79.36875,46.86667]]]}},{"type":"Feature","properties":{"c":"918089","o":"","e":""},"geometry":{"type":"Polygon","coordinates":[[[-79.375,46.87083],[-79.375,46.875],[-79.36875,46.875],[-79.36875,46.87083],[-79.375,46.87083]]]}},{"type":"Feature","properties":{"c":"918090","o":"","e":""},"geometry":{"type":"Polygon","coordinates":[[[-79.35625,46.8875],[-79.35625,46.89167],[-79.35,46.89167],[-79.35,46.8875],[-79.35625,46.8875]]]}},{"type":"Feature","properties":{"c":"918091","o":"","e":""},"geometry":{"type":"Polygon","coordinates":[[[-79.3875,46.87083],[-79.3875,46.875],[-79.38125,46.875],[-79.38125,46.87083],[-79.3875,46.87083]]]}},{"type":"Feature","properties":{"c":"918092","o":"","e":""},"geometry":{"type":"Polygon","coordinates":[[[-79.38125,46.87083],[-79.38125,46.875],[-79.375,46.875],[-79.375,46.87083],[-79.38125,46.87083]]]}},{"type":"Feature","properties":{"c":"280694","o":"","e":""},"geometry":{"type":"Polygon","coordinates":[[[-79.25625,46.675],[-79.25625,46.67917],[-79.25,46.67917],[-79.25,46.675],[-79.25625,46.675]]]}},{"type":"Feature","properties":{"c":"918093","o":"","e":""},"geometry":{"type":"Polygon","coordinates":[[[-79.375,46.87917],[-79.375,46.88333],[-79.36875,46.88333],[-79.36875,46.87917],[-79.375,46.87917]]]}},{"type":"Feature","properties":{"c":"918094","o":"","e":""},"geometry":{"type":"Polygon","coordinates":[[[-79.36875,46.88333],[-79.36875,46.8875],[-79.3625,46.8875],[-79.3625,46.88333],[-79.36875,46.88333]]]}},{"type":"Feature","properties":{"c":"918095","o":"","e":""},"geometry":{"type":"Polygon","coordinates":[[[-79.35625,46.87917],[-79.35625,46.88333],[-79.35,46.88333],[-79.35,46.87917],[-79.35625,46.87917]]]}},{"type":"Feature","properties":{"c":"918096","o":"","e":""},"geometry":{"type":"Polygon","coordinates":[[[-79.3375,46.89167],[-79.3375,46.89583],[-79.33125,46.89583],[-79.33125,46.89167],[-79.3375,46.89167]]]}},{"type":"Feature","properties":{"c":"918097","o":"","e":""},"geometry":{"type":"Polygon","coordinates":[[[-79.375,46.86667],[-79.375,46.87083],[-79.36875,46.87083],[-79.36875,46.86667],[-79.375,46.86667]]]}},{"type":"Feature","properties":{"c":"918099","o":"","e":""},"geometry":{"type":"Polygon","coordinates":[[[-79.3625,46.88333],[-79.3625,46.8875],[-79.35625,46.8875],[-79.35625,46.88333],[-79.3625,46.88333]]]}},{"type":"Feature","properties":{"c":"918098","o":"","e":""},"geometry":{"type":"Polygon","coordinates":[[[-79.36875,46.87083],[-79.36875,46.875],[-79.3625,46.875],[-79.3625,46.87083],[-79.36875,46.87083]]]}},{"type":"Feature","properties":{"c":"286700","o":"","e":""},"geometry":{"type":"Polygon","coordinates":[[[-79.24375,46.68333],[-79.24375,46.6875],[-79.2375,46.6875],[-79.2375,46.68333],[-79.24375,46.68333]]]}},{"type":"Feature","properties":{"c":"289863","o":"","e":""},"geometry":{"type":"Polygon","coordinates":[[[-79.24375,46.675],[-79.24375,46.67917],[-79.2375,46.67917],[-79.2375,46.675],[-79.24375,46.675]]]}},{"type":"Feature","properties":{"c":"288520","o":"","e":""},"geometry":{"type":"Polygon","coordinates":[[[-79.275,46.7],[-79.275,46.70417],[-79.26875,46.70417],[-79.26875,46.7],[-79.275,46.7]]]}},{"type":"Feature","properties":{"c":"288521","o":"","e":""},"geometry":{"type":"Polygon","coordinates":[[[-79.29375,46.7],[-79.29375,46.70417],[-79.2875,46.70417],[-79.2875,46.7],[-79.29375,46.7]]]}},{"type":"Feature","properties":{"c":"288522","o":"","e":""},"geometry":{"type":"Polygon","coordinates":[[[-79.275,46.69167],[-79.275,46.69583],[-79.26875,46.69583],[-79.26875,46.69167],[-79.275,46.69167]]]}},{"type":"Feature","properties":{"c":"918100","o":"","e":""},"geometry":{"type":"Polygon","coordinates":[[[-79.35,46.87917],[-79.35,46.88333],[-79.34375,46.88333],[-79.34375,46.87917],[-79.35,46.87917]]]}},{"type":"Feature","properties":{"c":"918101","o":"","e":""},"geometry":{"type":"Polygon","coordinates":[[[-79.35,46.88333],[-79.35,46.8875],[-79.34375,46.8875],[-79.34375,46.88333],[-79.35,46.88333]]]}},{"type":"Feature","properties":{"c":"918102","o":"","e":""},"geometry":{"type":"Polygon","coordinates":[[[-79.3875,46.86667],[-79.3875,46.87083],[-79.38125,46.87083],[-79.38125,46.86667],[-79.3875,46.86667]]]}},{"type":"Feature","properties":{"c":"918103","o":"","e":""},"geometry":{"type":"Polygon","coordinates":[[[-79.38125,46.86667],[-79.38125,46.87083],[-79.375,46.87083],[-79.375,46.86667],[-79.38125,46.86667]]]}},{"type":"Feature","properties":{"c":"918104","o":"","e":""},"geometry":{"type":"Polygon","coordinates":[[[-79.36875,46.87917],[-79.36875,46.88333],[-79.3625,46.88333],[-79.3625,46.87917],[-79.36875,46.87917]]]}},{"type":"Feature","properties":{"c":"918105","o":"","e":""},"geometry":{"type":"Polygon","coordinates":[[[-79.35625,46.88333],[-79.35625,46.8875],[-79.35,46.8875],[-79.35,46.88333],[-79.35625,46.88333]]]}},{"type":"Feature","properties":{"c":"290683","o":"","e":""},"geometry":{"type":"Polygon","coordinates":[[[-79.34375,46.71667],[-79.34375,46.72083],[-79.3375,46.72083],[-79.3375,46.71667],[-79.34375,46.71667]]]}},{"type":"Feature","properties":{"c":"695678","o":"","e":""},"geometry":{"type":"Polygon","coordinates":[[[-79.34375,46.725],[-79.34375,46.72917],[-79.3375,46.72917],[-79.3375,46.725],[-79.34375,46.725]]]}},{"type":"Feature","properties":{"c":"294714","o":"","e":""},"geometry":{"type":"Polygon","coordinates":[[[-79.2625,46.67917],[-79.2625,46.68333],[-79.25625,46.68333],[-79.25625,46.67917],[-79.2625,46.67917]]]}},{"type":"Feature","properties":{"c":"901329","o":"","e":""},"geometry":{"type":"Polygon","coordinates":[[[-79.1875,46.70833],[-79.1875,46.7125],[-79.18125,46.7125],[-79.18125,46.70833],[-79.1875,46.70833]]]}},{"type":"Feature","properties":{"c":"901330","o":"","e":""},"geometry":{"type":"Polygon","coordinates":[[[-79.19375,46.70417],[-79.19375,46.70833],[-79.1875,46.70833],[-79.1875,46.70417],[-79.19375,46.70417]]]}},{"type":"Feature","properties":{"c":"901331","o":"","e":""},"geometry":{"type":"Polygon","coordinates":[[[-79.1875,46.70417],[-79.1875,46.70833],[-79.18125,46.70833],[-79.18125,46.70417],[-79.1875,46.70417]]]}},{"type":"Feature","properties":{"c":"315330","o":"","e":""},"geometry":{"type":"Polygon","coordinates":[[[-79.29375,46.69167],[-79.29375,46.69583],[-79.2875,46.69583],[-79.2875,46.69167],[-79.29375,46.69167]]]}},{"type":"Feature","properties":{"c":"918106","o":"","e":""},"geometry":{"type":"Polygon","coordinates":[[[-79.34375,46.89167],[-79.34375,46.89583],[-79.3375,46.89583],[-79.3375,46.89167],[-79.34375,46.89167]]]}},{"type":"Feature","properties":{"c":"918107","o":"","e":""},"geometry":{"type":"Polygon","coordinates":[[[-79.3625,46.875],[-79.3625,46.87917],[-79.35625,46.87917],[-79.35625,46.875],[-79.3625,46.875]]]}},{"type":"Feature","properties":{"c":"918108","o":"","e":""},"geometry":{"type":"Polygon","coordinates":[[[-79.3625,46.87917],[-79.3625,46.88333],[-79.35625,46.88333],[-79.35625,46.87917],[-79.3625,46.87917]]]}},{"type":"Feature","properties":{"c":"918109","o":"","e":""},"geometry":{"type":"Polygon","coordinates":[[[-79.34375,46.88333],[-79.34375,46.8875],[-79.3375,46.8875],[-79.3375,46.88333],[-79.34375,46.88333]]]}},{"type":"Feature","properties":{"c":"901315","o":"","e":""},"geometry":{"type":"Polygon","coordinates":[[[-79.13125,46.65833],[-79.13125,46.6625],[-79.125,46.6625],[-79.125,46.65833],[-79.13125,46.65833]]]}},{"type":"Feature","properties":{"c":"901314","o":"","e":""},"geometry":{"type":"Polygon","coordinates":[[[-79.1375,46.65833],[-79.1375,46.6625],[-79.13125,46.6625],[-79.13125,46.65833],[-79.1375,46.65833]]]}},{"type":"Feature","properties":{"c":"901316","o":"","e":""},"geometry":{"type":"Polygon","coordinates":[[[-79.1375,46.65417],[-79.1375,46.65833],[-79.13125,46.65833],[-79.13125,46.65417],[-79.1375,46.65417]]]}},{"type":"Feature","properties":{"c":"901317","o":"","e":""},"geometry":{"type":"Polygon","coordinates":[[[-79.13125,46.65417],[-79.13125,46.65833],[-79.125,46.65833],[-79.125,46.65417],[-79.13125,46.65417]]]}},{"type":"Feature","properties":{"c":"901318","o":"","e":""},"geometry":{"type":"Polygon","coordinates":[[[-79.1375,46.65],[-79.1375,46.65417],[-79.13125,46.65417],[-79.13125,46.65],[-79.1375,46.65]]]}},{"type":"Feature","properties":{"c":"901319","o":"","e":""},"geometry":{"type":"Polygon","coordinates":[[[-79.13125,46.65],[-79.13125,46.65417],[-79.125,46.65417],[-79.125,46.65],[-79.13125,46.65]]]}},{"type":"Feature","properties":{"c":"901320","o":"","e":""},"geometry":{"type":"Polygon","coordinates":[[[-79.1375,46.64583],[-79.1375,46.65],[-79.13125,46.65],[-79.13125,46.64583],[-79.1375,46.64583]]]}},{"type":"Feature","properties":{"c":"901321","o":"","e":""},"geometry":{"type":"Polygon","coordinates":[[[-79.13125,46.64583],[-79.13125,46.65],[-79.125,46.65],[-79.125,46.64583],[-79.13125,46.64583]]]}},{"type":"Feature","properties":{"c":"878347","o":"","e":""},"geometry":{"type":"Polygon","coordinates":[[[-79.0625,46.5],[-79.0625,46.50417],[-79.05625,46.50417],[-79.05625,46.5],[-79.0625,46.5]]]}},{"type":"Feature","properties":{"c":"878348","o":"","e":""},"geometry":{"type":"Polygon","coordinates":[[[-79.06875,46.5],[-79.06875,46.50417],[-79.0625,46.50417],[-79.0625,46.5],[-79.06875,46.5]]]}},{"type":"Feature","properties":{"c":"878349","o":"","e":""},"geometry":{"type":"Polygon","coordinates":[[[-79.06875,46.50417],[-79.06875,46.50833],[-79.0625,46.50833],[-79.0625,46.50417],[-79.06875,46.50417]]]}},{"type":"Feature","properties":{"c":"878350","o":"","e":""},"geometry":{"type":"Polygon","coordinates":[[[-79.0625,46.50417],[-79.0625,46.50833],[-79.05625,46.50833],[-79.05625,46.50417],[-79.0625,46.50417]]]}},{"type":"Feature","properties":{"c":"878351","o":"","e":""},"geometry":{"type":"Polygon","coordinates":[[[-79.0625,46.50833],[-79.0625,46.5125],[-79.05625,46.5125],[-79.05625,46.50833],[-79.0625,46.50833]]]}},{"type":"Feature","properties":{"c":"878352","o":"","e":""},"geometry":{"type":"Polygon","coordinates":[[[-79.05625,46.50833],[-79.05625,46.5125],[-79.05,46.5125],[-79.05,46.50833],[-79.05625,46.50833]]]}},{"type":"Feature","properties":{"c":"877095","o":"","e":""},"geometry":{"type":"Polygon","coordinates":[[[-79.19375,46.66667],[-79.19375,46.67083],[-79.19375,46.675],[-79.1875,46.675],[-79.18125,46.675],[-79.175,46.675],[-79.175,46.67083],[-79.16875,46.67083],[-79.1625,46.67083],[-79.1625,46.66667],[-79.1625,46.6625],[-79.1625,46.65833],[-79.16875,46.65833],[-79.175,46.65833],[-79.18125,46.65833],[-79.1875,46.65833],[-79.19375,46.65833],[-79.19375,46.6625],[-79.19375,46.66667]]]}},{"type":"Feature","properties":{"c":"335000","o":"","e":""},"geometry":{"type":"Polygon","coordinates":[[[-79.25625,46.6875],[-79.25625,46.69167],[-79.25,46.69167],[-79.25,46.6875],[-79.25625,46.6875]]]}},{"type":"Feature","properties":{"c":"879349","o":"","e":""},"geometry":{"type":"Polygon","coordinates":[[[-79.075,46.50417],[-79.075,46.50833],[-79.06875,46.50833],[-79.06875,46.50417],[-79.075,46.50417]]]}},{"type":"Feature","properties":{"c":"879350","o":"","e":""},"geometry":{"type":"Polygon","coordinates":[[[-79.075,46.525],[-79.075,46.52917],[-79.06875,46.52917],[-79.06875,46.525],[-79.075,46.525]]]}},{"type":"Feature","properties":{"c":"879354","o":"","e":""},"geometry":{"type":"Polygon","coordinates":[[[-79.075,46.50833],[-79.075,46.5125],[-79.06875,46.5125],[-79.06875,46.50833],[-79.075,46.50833]]]}},{"type":"Feature","properties":{"c":"1024750","o":"","e":""},"geometry":{"type":"Polygon","coordinates":[[[-79.06875,46.525],[-79.06875,46.52917],[-79.0625,46.52917],[-79.0625,46.525],[-79.06875,46.525]]]}},{"type":"Feature","properties":{"c":"777799","o":"","e":""},"geometry":{"type":"Polygon","coordinates":[[[-79.49375,46.8125],[-79.49375,46.81667],[-79.49375,46.82083],[-79.49375,46.825],[-79.49375,46.82917],[-79.49375,46.83333],[-79.4875,46.83333],[-79.48125,46.83333],[-79.475,46.83333],[-79.475,46.82917],[-79.475,46.825],[-79.475,46.82083],[-79.475,46.81667],[-79.475,46.8125],[-79.475,46.80833],[-79.475,46.80417],[-79.48125,46.80417],[-79.4875,46.80417],[-79.49375,46.80417],[-79.49375,46.80833],[-79.49375,46.8125]]]}},{"type":"Feature","properties":{"c":"777820","o":"","e":""},"geometry":{"type":"Polygon","coordinates":[[[-79.5,46.82083],[-79.5,46.825],[-79.49375,46.825],[-79.49375,46.82083],[-79.5,46.82083]]]}},{"type":"Feature","properties":{"c":"777821","o":"","e":""},"geometry":{"type":"Polygon","coordinates":[[[-79.5,46.82917],[-79.5,46.83333],[-79.49375,46.83333],[-79.49375,46.82917],[-79.5,46.82917]]]}},{"type":"Feature","properties":{"c":"777827","o":"","e":""},"geometry":{"type":"Polygon","coordinates":[[[-79.5,46.8375],[-79.5,46.84167],[-79.49375,46.84167],[-79.49375,46.8375],[-79.5,46.8375]]]}},{"type":"Feature","properties":{"c":"777828","o":"","e":""},"geometry":{"type":"Polygon","coordinates":[[[-79.5,46.84167],[-79.5,46.84583],[-79.49375,46.84583],[-79.49375,46.84167],[-79.5,46.84167]]]}},{"type":"Feature","properties":{"c":"777831","o":"","e":""},"geometry":{"type":"Polygon","coordinates":[[[-79.5,46.84583],[-79.5,46.85],[-79.49375,46.85],[-79.49375,46.84583],[-79.5,46.84583]]]}},{"type":"Feature","properties":{"c":"777835","o":"","e":""},"geometry":{"type":"Polygon","coordinates":[[[-79.5,46.83333],[-79.5,46.8375],[-79.49375,46.8375],[-79.49375,46.83333],[-79.5,46.83333]]]}},{"type":"Feature","properties":{"c":"777845","o":"","e":""},"geometry":{"type":"Polygon","coordinates":[[[-79.5,46.825],[-79.5,46.82917],[-79.49375,46.82917],[-79.49375,46.825],[-79.5,46.825]]]}},{"type":"Feature","properties":{"c":"943874","o":"","e":""},"geometry":{"type":"Polygon","coordinates":[[[-79.2875,46.6875],[-79.2875,46.69167],[-79.28125,46.69167],[-79.275,46.69167],[-79.275,46.6875],[-79.275,46.68333],[-79.26875,46.68333],[-79.2625,46.68333],[-79.2625,46.67917],[-79.26875,46.67917],[-79.275,46.67917],[-79.28125,46.67917],[-79.2875,46.67917],[-79.2875,46.68333],[-79.2875,46.6875]]]}},{"type":"Feature","properties":{"c":"102190","o":"","e":""},"geometry":{"type":"Polygon","coordinates":[[[-79.3375,46.71667],[-79.3375,46.72083],[-79.33125,46.72083],[-79.33125,46.71667],[-79.3375,46.71667]]]}},{"type":"Feature","properties":{"c":"174565","o":"","e":""},"geometry":{"type":"Polygon","coordinates":[[[-79.34375,46.71667],[-79.34375,46.72083],[-79.3375,46.72083],[-79.3375,46.71667],[-79.34375,46.71667]]]}},{"type":"Feature","properties":{"c":"673055","o":"","e":""},"geometry":{"type":"Polygon","coordinates":[[[-79.325,46.7125],[-79.325,46.71667],[-79.31875,46.71667],[-79.31875,46.7125],[-79.325,46.7125]]]}},{"type":"Feature","properties":{"c":"673056","o":"","e":""},"geometry":{"type":"Polygon","coordinates":[[[-79.325,46.71667],[-79.325,46.72083],[-79.31875,46.72083],[-79.31875,46.71667],[-79.325,46.71667]]]}},{"type":"Feature","properties":{"c":"863562","o":"","e":""},"geometry":{"type":"Polygon","coordinates":[[[-79.1875,46.66667],[-79.1875,46.67083],[-79.18125,46.67083],[-79.18125,46.66667],[-79.1875,46.66667]]]}},{"type":"Feature","properties":{"c":"863314","o":"","e":""},"geometry":{"type":"Polygon","coordinates":[[[-79.1875,46.6625],[-79.1875,46.66667],[-79.18125,46.66667],[-79.18125,46.6625],[-79.1875,46.6625]]]}},{"type":"Feature","properties":{"c":"863315","o":"","e":""},"geometry":{"type":"Polygon","coordinates":[[[-79.18125,46.6625],[-79.18125,46.66667],[-79.175,46.66667],[-79.175,46.6625],[-79.18125,46.6625]]]}},{"type":"Feature","properties":{"c":"863316","o":"","e":""},"geometry":{"type":"Polygon","coordinates":[[[-79.175,46.6625],[-79.175,46.66667],[-79.16875,46.66667],[-79.16875,46.6625],[-79.175,46.6625]]]}},{"type":"Feature","properties":{"c":"943872","o":"","e":""},"geometry":{"type":"Polygon","coordinates":[[[-79.375,46.69167],[-79.36875,46.69167],[-79.3625,46.69167],[-79.35625,46.69167],[-79.35,46.69167],[-79.34375,46.69167],[-79.34375,46.6875],[-79.3375,46.6875],[-79.3375,46.69167],[-79.3375,46.69583],[-79.3375,46.7],[-79.33125,46.7],[-79.33125,46.70417],[-79.325,46.70417],[-79.31875,46.70417],[-79.31875,46.7],[-79.31875,46.69583],[-79.31875,46.69167],[-79.31875,46.6875],[-79.31875,46.68333],[-79.325,46.68333],[-79.33125,46.68333],[-79.3375,46.68333],[-79.34375,46.68333],[-79.35,46.68333],[-79.35625,46.68333],[-79.3625,46.68333],[-79.36875,46.68333],[-79.375,46.68333],[-79.375,46.6875],[-79.375,46.69167]]]}},{"type":"Feature","properties":{"c":"683085","o":"","e":""},"geometry":{"type":"Polygon","coordinates":[[[-79.35,46.725],[-79.35,46.72917],[-79.34375,46.72917],[-79.34375,46.725],[-79.35,46.725]]]}},{"type":"Feature","properties":{"c":"778088","o":"","e":""},"geometry":{"type":"Polygon","coordinates":[[[-79.50625,46.8625],[-79.5,46.8625],[-79.49375,46.8625],[-79.49375,46.85833],[-79.5,46.85833],[-79.5,46.85417],[-79.50625,46.85417],[-79.50625,46.85833],[-79.50625,46.8625]]]}},{"type":"Feature","properties":{"c":"777846","o":"","e":""},"geometry":{"type":"Polygon","coordinates":[[[-79.49375,46.84167],[-79.49375,46.84583],[-79.49375,46.85],[-79.4875,46.85],[-79.4875,46.85417],[-79.4875,46.85833],[-79.4875,46.8625],[-79.48125,46.8625],[-79.475,46.8625],[-79.475,46.85833],[-79.475,46.85417],[-79.475,46.85],[-79.475,46.84583],[-79.475,46.84167],[-79.475,46.8375],[-79.475,46.83333],[-79.48125,46.83333],[-79.4875,46.83333],[-79.49375,46.83333],[-79.49375,46.8375],[-79.49375,46.84167]]]}},{"type":"Feature","properties":{"c":"943873","o":"","e":""},"geometry":{"type":"Polygon","coordinates":[[[-79.31875,46.69167],[-79.31875,46.69583],[-79.31875,46.7],[-79.31875,46.70417],[-79.3125,46.70417],[-79.30625,46.70417],[-79.30625,46.7],[-79.3,46.7],[-79.29375,46.7],[-79.29375,46.69583],[-79.29375,46.69167],[-79.2875,46.69167],[-79.2875,46.6875],[-79.2875,46.68333],[-79.2875,46.67917],[-79.29375,46.67917],[-79.3,46.67917],[-79.30625,46.67917],[-79.3125,46.67917],[-79.3125,46.68333],[-79.31875,46.68333],[-79.31875,46.6875],[-79.31875,46.69167]]]}},{"type":"Feature","properties":{"c":"943875","o":"","e":""},"geometry":{"type":"Polygon","coordinates":[[[-79.28125,46.66667],[-79.28125,46.67083],[-79.28125,46.675],[-79.28125,46.67917],[-79.275,46.67917],[-79.26875,46.67917],[-79.2625,46.67917],[-79.25625,46.67917],[-79.25625,46.675],[-79.25625,46.67083],[-79.25625,46.66667],[-79.25625,46.6625],[-79.25625,46.65833],[-79.2625,46.65833],[-79.26875,46.65833],[-79.275,46.65833],[-79.28125,46.65833],[-79.28125,46.6625],[-79.28125,46.66667]]]}},{"type":"Feature","properties":{"c":"931733","o":"","e":""},"geometry":{"type":"Polygon","coordinates":[[[-79.29375,46.85417],[-79.29375,46.85833],[-79.2875,46.85833],[-79.2875,46.85417],[-79.29375,46.85417]]]}},{"type":"Feature","properties":{"c":"931734","o":"","e":""},"geometry":{"type":"Polygon","coordinates":[[[-79.2875,46.85417],[-79.2875,46.85833],[-79.28125,46.85833],[-79.28125,46.85417],[-79.2875,46.85417]]]}},{"type":"Feature","properties":{"c":"931735","o":"","e":""},"geometry":{"type":"Polygon","coordinates":[[[-79.30625,46.85],[-79.30625,46.85417],[-79.3,46.85417],[-79.3,46.85],[-79.30625,46.85]]]}},{"type":"Feature","properties":{"c":"931736","o":"","e":""},"geometry":{"type":"Polygon","coordinates":[[[-79.3,46.85],[-79.3,46.85417],[-79.29375,46.85417],[-79.29375,46.85],[-79.3,46.85]]]}},{"type":"Feature","properties":{"c":"931737","o":"","e":""},"geometry":{"type":"Polygon","coordinates":[[[-79.29375,46.85],[-79.29375,46.85417],[-79.2875,46.85417],[-79.2875,46.85],[-79.29375,46.85]]]}},{"type":"Feature","properties":{"c":"931738","o":"","e":""},"geometry":{"type":"Polygon","coordinates":[[[-79.2875,46.85],[-79.2875,46.85417],[-79.28125,46.85417],[-79.28125,46.85],[-79.2875,46.85]]]}},{"type":"Feature","properties":{"c":"931739","o":"","e":""},"geometry":{"type":"Polygon","coordinates":[[[-79.29375,46.84583],[-79.29375,46.85],[-79.2875,46.85],[-79.2875,46.84583],[-79.29375,46.84583]]]}},{"type":"Feature","properties":{"c":"943871","o":"","e":""},"geometry":{"type":"Polygon","coordinates":[[[-79.375,46.7],[-79.375,46.70417],[-79.375,46.70833],[-79.375,46.7125],[-79.36875,46.7125],[-79.3625,46.7125],[-79.35625,46.7125],[-79.35,46.7125],[-79.34375,46.7125],[-79.34375,46.70833],[-79.34375,46.70417],[-79.34375,46.7],[-79.34375,46.69583],[-79.34375,46.69167],[-79.35,46.69167],[-79.35625,46.69167],[-79.3625,46.69167],[-79.36875,46.69167],[-79.375,46.69167],[-79.375,46.69583],[-79.375,46.7]]]}},{"type":"Feature","properties":{"c":"1039460","o":"","e":""},"geometry":{"type":"Polygon","coordinates":[[[-79.425,46.59167],[-79.425,46.59583],[-79.41875,46.59583],[-79.41875,46.59167],[-79.425,46.59167]]]}},{"type":"Feature","properties":{"c":"1039461","o":"","e":""},"geometry":{"type":"Polygon","coordinates":[[[-79.41875,46.59167],[-79.41875,46.59583],[-79.4125,46.59583],[-79.4125,46.59167],[-79.41875,46.59167]]]}},{"type":"Feature","properties":{"c":"1039462","o":"","e":""},"geometry":{"type":"Polygon","coordinates":[[[-79.4125,46.59167],[-79.4125,46.59583],[-79.40625,46.59583],[-79.40625,46.59167],[-79.4125,46.59167]]]}},{"type":"Feature","properties":{"c":"1039463","o":"","e":""},"geometry":{"type":"Polygon","coordinates":[[[-79.40625,46.59167],[-79.40625,46.59583],[-79.4,46.59583],[-79.4,46.59167],[-79.40625,46.59167]]]}},{"type":"Feature","properties":{"c":"1039464","o":"","e":""},"geometry":{"type":"Polygon","coordinates":[[[-79.4,46.59167],[-79.4,46.59583],[-79.39375,46.59583],[-79.39375,46.59167],[-79.4,46.59167]]]}},{"type":"Feature","properties":{"c":"1039465","o":"","e":""},"geometry":{"type":"Polygon","coordinates":[[[-79.39375,46.59167],[-79.39375,46.59583],[-79.3875,46.59583],[-79.3875,46.59167],[-79.39375,46.59167]]]}},{"type":"Feature","properties":{"c":"1039466","o":"","e":""},"geometry":{"type":"Polygon","coordinates":[[[-79.40625,46.5875],[-79.40625,46.59167],[-79.4,46.59167],[-79.4,46.5875],[-79.40625,46.5875]]]}},{"type":"Feature","properties":{"c":"1039467","o":"","e":""},"geometry":{"type":"Polygon","coordinates":[[[-79.4,46.5875],[-79.4,46.59167],[-79.39375,46.59167],[-79.39375,46.5875],[-79.4,46.5875]]]}},{"type":"Feature","properties":{"c":"1039468","o":"","e":""},"geometry":{"type":"Polygon","coordinates":[[[-79.39375,46.5875],[-79.39375,46.59167],[-79.3875,46.59167],[-79.3875,46.5875],[-79.39375,46.5875]]]}},{"type":"Feature","properties":{"c":"925204","o":"","e":""},"geometry":{"type":"Polygon","coordinates":[[[-79.275,46.82917],[-79.275,46.83333],[-79.26875,46.83333],[-79.26875,46.82917],[-79.275,46.82917]]]}},{"type":"Feature","properties":{"c":"925205","o":"","e":""},"geometry":{"type":"Polygon","coordinates":[[[-79.26875,46.82917],[-79.26875,46.83333],[-79.2625,46.83333],[-79.2625,46.82917],[-79.26875,46.82917]]]}},{"type":"Feature","properties":{"c":"925206","o":"","e":""},"geometry":{"type":"Polygon","coordinates":[[[-79.275,46.825],[-79.275,46.82917],[-79.26875,46.82917],[-79.26875,46.825],[-79.275,46.825]]]}},{"type":"Feature","properties":{"c":"925207","o":"","e":""},"geometry":{"type":"Polygon","coordinates":[[[-79.26875,46.825],[-79.26875,46.82917],[-79.2625,46.82917],[-79.2625,46.825],[-79.26875,46.825]]]}},{"type":"Feature","properties":{"c":"925208","o":"","e":""},"geometry":{"type":"Polygon","coordinates":[[[-79.275,46.84167],[-79.275,46.84583],[-79.26875,46.84583],[-79.26875,46.84167],[-79.275,46.84167]]]}},{"type":"Feature","properties":{"c":"925209","o":"","e":""},"geometry":{"type":"Polygon","coordinates":[[[-79.28125,46.8375],[-79.28125,46.84167],[-79.275,46.84167],[-79.275,46.8375],[-79.28125,46.8375]]]}},{"type":"Feature","properties":{"c":"925210","o":"","e":""},"geometry":{"type":"Polygon","coordinates":[[[-79.275,46.8375],[-79.275,46.84167],[-79.26875,46.84167],[-79.26875,46.8375],[-79.275,46.8375]]]}},{"type":"Feature","properties":{"c":"925211","o":"","e":""},"geometry":{"type":"Polygon","coordinates":[[[-79.28125,46.83333],[-79.28125,46.8375],[-79.275,46.8375],[-79.275,46.83333],[-79.28125,46.83333]]]}},{"type":"Feature","properties":{"c":"925212","o":"","e":""},"geometry":{"type":"Polygon","coordinates":[[[-79.275,46.83333],[-79.275,46.8375],[-79.26875,46.8375],[-79.26875,46.83333],[-79.275,46.83333]]]}},{"type":"Feature","properties":{"c":"993388","o":"","e":""},"geometry":{"type":"Polygon","coordinates":[[[-79.2,46.6625],[-79.2,46.66667],[-79.19375,46.66667],[-79.19375,46.6625],[-79.2,46.6625]]]}},{"type":"Feature","properties":{"c":"993389","o":"","e":""},"geometry":{"type":"Polygon","coordinates":[[[-79.2,46.65833],[-79.2,46.6625],[-79.19375,46.6625],[-79.19375,46.65833],[-79.2,46.65833]]]}},{"type":"Feature","properties":{"c":"993390","o":"","e":""},"geometry":{"type":"Polygon","coordinates":[[[-79.2,46.66667],[-79.2,46.67083],[-79.19375,46.67083],[-79.19375,46.66667],[-79.2,46.66667]]]}},{"type":"Feature","properties":{"c":"993391","o":"","e":""},"geometry":{"type":"Polygon","coordinates":[[[-79.2,46.67083],[-79.2,46.675],[-79.19375,46.675],[-79.19375,46.67083],[-79.2,46.67083]]]}},{"type":"Feature","properties":{"c":"993370","o":"","e":""},"geometry":{"type":"Polygon","coordinates":[[[-79.18125,46.675],[-79.18125,46.67917],[-79.175,46.67917],[-79.175,46.675],[-79.18125,46.675]]]}},{"type":"Feature","properties":{"c":"993371","o":"","e":""},"geometry":{"type":"Polygon","coordinates":[[[-79.175,46.675],[-79.175,46.67917],[-79.16875,46.67917],[-79.16875,46.675],[-79.175,46.675]]]}},{"type":"Feature","properties":{"c":"993372","o":"","e":""},"geometry":{"type":"Polygon","coordinates":[[[-79.16875,46.675],[-79.16875,46.67917],[-79.1625,46.67917],[-79.1625,46.675],[-79.16875,46.675]]]}},{"type":"Feature","properties":{"c":"993373","o":"","e":""},"geometry":{"type":"Polygon","coordinates":[[[-79.225,46.67083],[-79.225,46.675],[-79.21875,46.675],[-79.21875,46.67083],[-79.225,46.67083]]]}},{"type":"Feature","properties":{"c":"993374","o":"","e":""},"geometry":{"type":"Polygon","coordinates":[[[-79.21875,46.67083],[-79.21875,46.675],[-79.2125,46.675],[-79.2125,46.67083],[-79.21875,46.67083]]]}},{"type":"Feature","properties":{"c":"993375","o":"","e":""},"geometry":{"type":"Polygon","coordinates":[[[-79.2125,46.67083],[-79.2125,46.675],[-79.20625,46.675],[-79.20625,46.67083],[-79.2125,46.67083]]]}},{"type":"Feature","properties":{"c":"993376","o":"","e":""},"geometry":{"type":"Polygon","coordinates":[[[-79.20625,46.67083],[-79.20625,46.675],[-79.2,46.675],[-79.2,46.67083],[-79.20625,46.67083]]]}},{"type":"Feature","properties":{"c":"993377","o":"","e":""},"geometry":{"type":"Polygon","coordinates":[[[-79.175,46.67083],[-79.175,46.675],[-79.16875,46.675],[-79.16875,46.67083],[-79.175,46.67083]]]}},{"type":"Feature","properties":{"c":"993378","o":"","e":""},"geometry":{"type":"Polygon","coordinates":[[[-79.16875,46.67083],[-79.16875,46.675],[-79.1625,46.675],[-79.1625,46.67083],[-79.16875,46.67083]]]}},{"type":"Feature","properties":{"c":"993379","o":"","e":""},"geometry":{"type":"Polygon","coordinates":[[[-79.1625,46.67083],[-79.1625,46.675],[-79.15625,46.675],[-79.15625,46.67083],[-79.1625,46.67083]]]}},{"type":"Feature","properties":{"c":"993380","o":"","e":""},"geometry":{"type":"Polygon","coordinates":[[[-79.21875,46.66667],[-79.21875,46.67083],[-79.2125,46.67083],[-79.2125,46.66667],[-79.21875,46.66667]]]}},{"type":"Feature","properties":{"c":"993381","o":"","e":""},"geometry":{"type":"Polygon","coordinates":[[[-79.2125,46.66667],[-79.2125,46.67083],[-79.20625,46.67083],[-79.20625,46.66667],[-79.2125,46.66667]]]}},{"type":"Feature","properties":{"c":"993382","o":"","e":""},"geometry":{"type":"Polygon","coordinates":[[[-79.20625,46.66667],[-79.20625,46.67083],[-79.2,46.67083],[-79.2,46.66667],[-79.20625,46.66667]]]}},{"type":"Feature","properties":{"c":"993383","o":"","e":""},"geometry":{"type":"Polygon","coordinates":[[[-79.1625,46.66667],[-79.1625,46.67083],[-79.15625,46.67083],[-79.15625,46.66667],[-79.1625,46.66667]]]}},{"type":"Feature","properties":{"c":"993384","o":"","e":""},"geometry":{"type":"Polygon","coordinates":[[[-79.26875,46.7],[-79.26875,46.70417],[-79.2625,46.70417],[-79.2625,46.7],[-79.26875,46.7]]]}},{"type":"Feature","properties":{"c":"993385","o":"","e":""},"geometry":{"type":"Polygon","coordinates":[[[-79.2625,46.7],[-79.2625,46.70417],[-79.25625,46.70417],[-79.25625,46.7],[-79.2625,46.7]]]}},{"type":"Feature","properties":{"c":"993386","o":"","e":""},"geometry":{"type":"Polygon","coordinates":[[[-79.25625,46.7],[-79.25625,46.70417],[-79.25,46.70417],[-79.25,46.7],[-79.25625,46.7]]]}},{"type":"Feature","properties":{"c":"994146","o":"","e":""},"geometry":{"type":"Polygon","coordinates":[[[-79.18125,46.65417],[-79.18125,46.65833],[-79.175,46.65833],[-79.175,46.65417],[-79.18125,46.65417]]]}},{"type":"Feature","properties":{"c":"994147","o":"","e":""},"geometry":{"type":"Polygon","coordinates":[[[-79.225,46.65417],[-79.225,46.65833],[-79.21875,46.65833],[-79.21875,46.65417],[-79.225,46.65417]]]}},{"type":"Feature","properties":{"c":"994148","o":"","e":""},"geometry":{"type":"Polygon","coordinates":[[[-79.225,46.65833],[-79.225,46.6625],[-79.21875,46.6625],[-79.21875,46.65833],[-79.225,46.65833]]]}},{"type":"Feature","properties":{"c":"994149","o":"","e":""},"geometry":{"type":"Polygon","coordinates":[[[-79.1875,46.65417],[-79.1875,46.65833],[-79.18125,46.65833],[-79.18125,46.65417],[-79.1875,46.65417]]]}},{"type":"Feature","properties":{"c":"994150","o":"","e":""},"geometry":{"type":"Polygon","coordinates":[[[-79.175,46.65417],[-79.175,46.65833],[-79.16875,46.65833],[-79.16875,46.65417],[-79.175,46.65417]]]}},{"type":"Feature","properties":{"c":"994151","o":"","e":""},"geometry":{"type":"Polygon","coordinates":[[[-79.21875,46.65833],[-79.21875,46.6625],[-79.2125,46.6625],[-79.2125,46.65833],[-79.21875,46.65833]]]}},{"type":"Feature","properties":{"c":"994152","o":"","e":""},"geometry":{"type":"Polygon","coordinates":[[[-79.20625,46.65417],[-79.20625,46.65833],[-79.2,46.65833],[-79.2,46.65417],[-79.20625,46.65417]]]}},{"type":"Feature","properties":{"c":"994153","o":"","e":""},"geometry":{"type":"Polygon","coordinates":[[[-79.19375,46.65417],[-79.19375,46.65833],[-79.1875,46.65833],[-79.1875,46.65417],[-79.19375,46.65417]]]}},{"type":"Feature","properties":{"c":"994154","o":"","e":""},"geometry":{"type":"Polygon","coordinates":[[[-79.21875,46.65417],[-79.21875,46.65833],[-79.2125,46.65833],[-79.2125,46.65417],[-79.21875,46.65417]]]}},{"type":"Feature","properties":{"c":"994155","o":"","e":""},"geometry":{"type":"Polygon","coordinates":[[[-79.2125,46.65417],[-79.2125,46.65833],[-79.20625,46.65833],[-79.20625,46.65417],[-79.2125,46.65417]]]}},{"type":"Feature","properties":{"c":"994156","o":"","e":""},"geometry":{"type":"Polygon","coordinates":[[[-79.2,46.65417],[-79.2,46.65833],[-79.19375,46.65833],[-79.19375,46.65417],[-79.2,46.65417]]]}},{"type":"Feature","properties":{"c":"994157","o":"","e":""},"geometry":{"type":"Polygon","coordinates":[[[-79.16875,46.65417],[-79.16875,46.65833],[-79.1625,46.65833],[-79.1625,46.65417],[-79.16875,46.65417]]]}},{"type":"Feature","properties":{"c":"994158","o":"","e":""},"geometry":{"type":"Polygon","coordinates":[[[-79.1625,46.65417],[-79.1625,46.65833],[-79.15625,46.65833],[-79.15625,46.65417],[-79.1625,46.65417]]]}},{"type":"Feature","properties":{"c":"1024744","o":"","e":""},"geometry":{"type":"Polygon","coordinates":[[[-79.075,46.5125],[-79.075,46.51667],[-79.06875,46.51667],[-79.06875,46.5125],[-79.075,46.5125]]]}},{"type":"Feature","properties":{"c":"1024745","o":"","e":""},"geometry":{"type":"Polygon","coordinates":[[[-79.075,46.51667],[-79.075,46.52083],[-79.06875,46.52083],[-79.06875,46.51667],[-79.075,46.51667]]]}},{"type":"Feature","properties":{"c":"1024746","o":"","e":""},"geometry":{"type":"Polygon","coordinates":[[[-79.075,46.52083],[-79.075,46.525],[-79.06875,46.525],[-79.06875,46.52083],[-79.075,46.52083]]]}},{"type":"Feature","properties":{"c":"CDC-2857524","o":"9081-0557 Qu\u00e9bec inc. (Les Pierres du Nord) 100%","e":""},"geometry":{"type":"Polygon","coordinates":[[[-79.05,46.7],[-79.04167,46.7],[-79.04167,46.69358],[-79.04168,46.69355],[-79.04172,46.6933],[-79.04174,46.69322],[-79.04186,46.69305],[-79.04178,46.69292],[-79.04177,46.69289],[-79.04173,46.69276],[-79.04173,46.69259],[-79.04176,46.69244],[-79.04187,46.69218],[-79.04187,46.692],[-79.04184,46.69192],[-79.04168,46.69167],[-79.05,46.69167],[-79.05,46.7]]]}},{"type":"Feature","properties":{"c":"CDC-2839377","o":"Quebec Innovative Materials Corp. 100%","e":""},"geometry":{"type":"Polygon","coordinates":[[[-79.1,46.95833],[-79.09167,46.95833],[-79.09167,46.95],[-79.1,46.95],[-79.1,46.95833]]]}},{"type":"Feature","properties":{"c":"CDC-2839376","o":"Quebec Innovative Materials Corp. 100%","e":""},"geometry":{"type":"Polygon","coordinates":[[[-79.10833,46.95833],[-79.1,46.95833],[-79.1,46.95],[-79.10833,46.95],[-79.10833,46.95833]]]}},{"type":"Feature","properties":{"c":"CDC-2839375","o":"Quebec Innovative Materials Corp. 100%","e":""},"geometry":{"type":"Polygon","coordinates":[[[-79.11667,46.95833],[-79.10833,46.95833],[-79.10833,46.95],[-79.11667,46.95],[-79.11667,46.95833]]]}},{"type":"Feature","properties":{"c":"CDC-2839374","o":"Quebec Innovative Materials Corp. 100%","e":""},"geometry":{"type":"Polygon","coordinates":[[[-79.125,46.95833],[-79.11667,46.95833],[-79.11667,46.95],[-79.125,46.95],[-79.125,46.95833]]]}},{"type":"Feature","properties":{"c":"CDC-2839379","o":"Quebec Innovative Materials Corp. 100%","e":""},"geometry":{"type":"Polygon","coordinates":[[[-79.125,46.96667],[-79.11667,46.96667],[-79.11667,46.95833],[-79.125,46.95833],[-79.125,46.96667]]]}},{"type":"Feature","properties":{"c":"CDC-2839378","o":"Quebec Innovative Materials Corp. 100%","e":""},"geometry":{"type":"Polygon","coordinates":[[[-79.13333,46.96667],[-79.125,46.96667],[-79.125,46.95833],[-79.13333,46.95833],[-79.13333,46.96667]]]}},{"type":"Feature","properties":{"c":"CDC-2839381","o":"Quebec Innovative Materials Corp. 100%","e":""},"geometry":{"type":"Polygon","coordinates":[[[-79.14167,46.98333],[-79.13333,46.98333],[-79.13333,46.975],[-79.14167,46.975],[-79.14167,46.98333]]]}},{"type":"Feature","properties":{"c":"CDC-2839380","o":"Quebec Innovative Materials Corp. 100%","e":""},"geometry":{"type":"Polygon","coordinates":[[[-79.15,46.98333],[-79.14167,46.98333],[-79.14167,46.975],[-79.15,46.975],[-79.15,46.98333]]]}},{"type":"Feature","properties":{"c":"CDC-2839383","o":"Quebec Innovative Materials Corp. 100%","e":""},"geometry":{"type":"Polygon","coordinates":[[[-79.15833,46.99167],[-79.15,46.99167],[-79.15,46.98333],[-79.15833,46.98333],[-79.15833,46.99167]]]}},{"type":"Feature","properties":{"c":"CDC-2839382","o":"Quebec Innovative Materials Corp. 100%","e":""},"geometry":{"type":"Polygon","coordinates":[[[-79.16667,46.99167],[-79.15833,46.99167],[-79.15833,46.98333],[-79.16667,46.98333],[-79.16667,46.99167]]]}}]}