{"type":"FeatureCollection","features":[{"type":"Feature","properties":{"c":"233393","o":"","e":""},"geometry":{"type":"Polygon","coordinates":[[[-80.00625,49.49583],[-80.00625,49.5],[-80.0,49.5],[-80.0,49.49583],[-80.00625,49.49583]]]}},{"type":"Feature","properties":{"c":"237513","o":"","e":""},"geometry":{"type":"Polygon","coordinates":[[[-80.01875,49.49583],[-80.01875,49.5],[-80.0125,49.5],[-80.0125,49.49583],[-80.01875,49.49583]]]}},{"type":"Feature","properties":{"c":"284681","o":"","e":""},"geometry":{"type":"Polygon","coordinates":[[[-80.03125,49.49583],[-80.03125,49.5],[-80.025,49.5],[-80.025,49.49583],[-80.03125,49.49583]]]}},{"type":"Feature","properties":{"c":"299973","o":"","e":""},"geometry":{"type":"Polygon","coordinates":[[[-80.0125,49.49583],[-80.0125,49.5],[-80.00625,49.5],[-80.00625,49.49583],[-80.0125,49.49583]]]}},{"type":"Feature","properties":{"c":"304866","o":"","e":""},"geometry":{"type":"Polygon","coordinates":[[[-80.0375,49.49583],[-80.0375,49.5],[-80.03125,49.5],[-80.03125,49.49583],[-80.0375,49.49583]]]}},{"type":"Feature","properties":{"c":"343615","o":"","e":""},"geometry":{"type":"Polygon","coordinates":[[[-80.025,49.49583],[-80.025,49.5],[-80.01875,49.5],[-80.01875,49.49583],[-80.025,49.49583]]]}},{"type":"Feature","properties":{"c":"618586","o":"","e":""},"geometry":{"type":"Polygon","coordinates":[[[-80.2875,49.49583],[-80.2875,49.5],[-80.28125,49.5],[-80.28125,49.49583],[-80.2875,49.49583]]]}},{"type":"Feature","properties":{"c":"618588","o":"","e":""},"geometry":{"type":"Polygon","coordinates":[[[-80.29375,49.49583],[-80.29375,49.5],[-80.2875,49.5],[-80.2875,49.49583],[-80.29375,49.49583]]]}},{"type":"Feature","properties":{"c":"1009018","o":"","e":""},"geometry":{"type":"Polygon","coordinates":[[[-80.34375,49.49583],[-80.34375,49.5],[-80.3375,49.5],[-80.3375,49.49583],[-80.34375,49.49583]]]}},{"type":"Feature","properties":{"c":"1009019","o":"","e":""},"geometry":{"type":"Polygon","coordinates":[[[-80.31875,49.49583],[-80.31875,49.5],[-80.3125,49.5],[-80.3125,49.49583],[-80.31875,49.49583]]]}},{"type":"Feature","properties":{"c":"1009020","o":"","e":""},"geometry":{"type":"Polygon","coordinates":[[[-80.35,49.49583],[-80.35,49.5],[-80.34375,49.5],[-80.34375,49.49583],[-80.35,49.49583]]]}},{"type":"Feature","properties":{"c":"1009023","o":"","e":""},"geometry":{"type":"Polygon","coordinates":[[[-80.3375,49.49583],[-80.3375,49.5],[-80.33125,49.5],[-80.33125,49.49583],[-80.3375,49.49583]]]}},{"type":"Feature","properties":{"c":"1009024","o":"","e":""},"geometry":{"type":"Polygon","coordinates":[[[-80.33125,49.49583],[-80.33125,49.5],[-80.325,49.5],[-80.325,49.49583],[-80.33125,49.49583]]]}},{"type":"Feature","properties":{"c":"1009034","o":"","e":""},"geometry":{"type":"Polygon","coordinates":[[[-80.325,49.49583],[-80.325,49.5],[-80.31875,49.5],[-80.31875,49.49583],[-80.325,49.49583]]]}},{"type":"Feature","properties":{"c":"1009053","o":"","e":""},"geometry":{"type":"Polygon","coordinates":[[[-80.3,49.49583],[-80.3,49.5],[-80.29375,49.5],[-80.29375,49.49583],[-80.3,49.49583]]]}},{"type":"Feature","properties":{"c":"1009054","o":"","e":""},"geometry":{"type":"Polygon","coordinates":[[[-80.3125,49.49583],[-80.3125,49.5],[-80.30625,49.5],[-80.30625,49.49583],[-80.3125,49.49583]]]}},{"type":"Feature","properties":{"c":"1009055","o":"","e":""},"geometry":{"type":"Polygon","coordinates":[[[-80.30625,49.49583],[-80.30625,49.5],[-80.3,49.5],[-80.3,49.49583],[-80.30625,49.49583]]]}},{"type":"Feature","properties":{"c":"339585","o":"","e":""},"geometry":{"type":"Polygon","coordinates":[[[-80.00625,49.9875],[-80.00625,49.99167],[-80.0,49.99167],[-80.0,49.9875],[-80.00625,49.9875]]]}},{"type":"Feature","properties":{"c":"339586","o":"","e":""},"geometry":{"type":"Polygon","coordinates":[[[-80.00625,49.98333],[-80.00625,49.9875],[-80.0,49.9875],[-80.0,49.98333],[-80.00625,49.98333]]]}},{"type":"Feature","properties":{"c":"1064735","o":"","e":""},"geometry":{"type":"Polygon","coordinates":[[[-80.04375,49.975],[-80.04375,49.97917],[-80.0375,49.97917],[-80.0375,49.975],[-80.04375,49.975]]]}},{"type":"Feature","properties":{"c":"1064736","o":"","e":""},"geometry":{"type":"Polygon","coordinates":[[[-80.04375,49.98333],[-80.04375,49.9875],[-80.0375,49.9875],[-80.0375,49.98333],[-80.04375,49.98333]]]}},{"type":"Feature","properties":{"c":"1064737","o":"","e":""},"geometry":{"type":"Polygon","coordinates":[[[-80.05,49.98333],[-80.05,49.9875],[-80.04375,49.9875],[-80.04375,49.98333],[-80.05,49.98333]]]}},{"type":"Feature","properties":{"c":"1064738","o":"","e":""},"geometry":{"type":"Polygon","coordinates":[[[-80.04375,49.97917],[-80.04375,49.98333],[-80.0375,49.98333],[-80.0375,49.97917],[-80.04375,49.97917]]]}},{"type":"Feature","properties":{"c":"1064739","o":"","e":""},"geometry":{"type":"Polygon","coordinates":[[[-80.05,49.9875],[-80.05,49.99167],[-80.04375,49.99167],[-80.04375,49.9875],[-80.05,49.9875]]]}},{"type":"Feature","properties":{"c":"938460","o":"","e":""},"geometry":{"type":"Polygon","coordinates":[[[-80.34375,49.6375],[-80.34375,49.64167],[-80.3375,49.64167],[-80.3375,49.6375],[-80.34375,49.6375]]]}},{"type":"Feature","properties":{"c":"938461","o":"","e":""},"geometry":{"type":"Polygon","coordinates":[[[-80.34375,49.63333],[-80.34375,49.6375],[-80.3375,49.6375],[-80.3375,49.63333],[-80.34375,49.63333]]]}},{"type":"Feature","properties":{"c":"106593","o":"","e":""},"geometry":{"type":"Polygon","coordinates":[[[-80.0125,49.99167],[-80.0125,49.99583],[-80.00625,49.99583],[-80.00625,49.99167],[-80.0125,49.99167]]]}},{"type":"Feature","properties":{"c":"120801","o":"","e":""},"geometry":{"type":"Polygon","coordinates":[[[-80.00625,49.99167],[-80.00625,49.99583],[-80.0,49.99583],[-80.0,49.99167],[-80.00625,49.99167]]]}},{"type":"Feature","properties":{"c":"1024294","o":"","e":""},"geometry":{"type":"Polygon","coordinates":[[[-80.25,49.87917],[-80.25,49.88333],[-80.24375,49.88333],[-80.24375,49.87917],[-80.25,49.87917]]]}},{"type":"Feature","properties":{"c":"1024295","o":"","e":""},"geometry":{"type":"Polygon","coordinates":[[[-80.33125,49.86667],[-80.33125,49.87083],[-80.325,49.87083],[-80.325,49.86667],[-80.33125,49.86667]]]}},{"type":"Feature","properties":{"c":"138262","o":"","e":""},"geometry":{"type":"Polygon","coordinates":[[[-80.01875,49.5],[-80.01875,49.50417],[-80.0125,49.50417],[-80.0125,49.5],[-80.01875,49.5]]]}},{"type":"Feature","properties":{"c":"138263","o":"","e":""},"geometry":{"type":"Polygon","coordinates":[[[-80.03125,49.5],[-80.03125,49.50417],[-80.025,49.50417],[-80.025,49.5],[-80.03125,49.5]]]}},{"type":"Feature","properties":{"c":"148037","o":"","e":""},"geometry":{"type":"Polygon","coordinates":[[[-80.0125,49.5],[-80.0125,49.50417],[-80.00625,49.50417],[-80.00625,49.5],[-80.0125,49.5]]]}},{"type":"Feature","properties":{"c":"148747","o":"","e":""},"geometry":{"type":"Polygon","coordinates":[[[-80.0125,49.9875],[-80.0125,49.99167],[-80.00625,49.99167],[-80.00625,49.9875],[-80.0125,49.9875]]]}},{"type":"Feature","properties":{"c":"172830","o":"","e":""},"geometry":{"type":"Polygon","coordinates":[[[-80.025,49.5],[-80.025,49.50417],[-80.01875,49.50417],[-80.01875,49.5],[-80.025,49.5]]]}},{"type":"Feature","properties":{"c":"1064697","o":"","e":""},"geometry":{"type":"Polygon","coordinates":[[[-80.08125,49.99583],[-80.08125,50.0],[-80.075,50.0],[-80.075,49.99583],[-80.08125,49.99583]]]}},{"type":"Feature","properties":{"c":"185892","o":"","e":""},"geometry":{"type":"Polygon","coordinates":[[[-80.0125,49.99583],[-80.0125,50.0],[-80.00625,50.0],[-80.00625,49.99583],[-80.0125,49.99583]]]}},{"type":"Feature","properties":{"c":"1064702","o":"","e":""},"geometry":{"type":"Polygon","coordinates":[[[-80.0875,49.99583],[-80.0875,50.0],[-80.08125,50.0],[-80.08125,49.99583],[-80.0875,49.99583]]]}},{"type":"Feature","properties":{"c":"1064710","o":"","e":""},"geometry":{"type":"Polygon","coordinates":[[[-80.0875,49.99167],[-80.0875,49.99583],[-80.08125,49.99583],[-80.08125,49.99167],[-80.0875,49.99167]]]}},{"type":"Feature","properties":{"c":"1064707","o":"","e":""},"geometry":{"type":"Polygon","coordinates":[[[-80.075,49.99583],[-80.075,50.0],[-80.06875,50.0],[-80.06875,49.99583],[-80.075,49.99583]]]}},{"type":"Feature","properties":{"c":"1064709","o":"","e":""},"geometry":{"type":"Polygon","coordinates":[[[-80.06875,49.99167],[-80.06875,49.99583],[-80.0625,49.99583],[-80.0625,49.99167],[-80.06875,49.99167]]]}},{"type":"Feature","properties":{"c":"227437","o":"","e":""},"geometry":{"type":"Polygon","coordinates":[[[-80.0375,49.5],[-80.0375,49.50417],[-80.03125,49.50417],[-80.03125,49.5],[-80.0375,49.5]]]}},{"type":"Feature","properties":{"c":"233392","o":"","e":""},"geometry":{"type":"Polygon","coordinates":[[[-80.00625,49.5],[-80.00625,49.50417],[-80.0,49.50417],[-80.0,49.5],[-80.00625,49.5]]]}},{"type":"Feature","properties":{"c":"1064711","o":"","e":""},"geometry":{"type":"Polygon","coordinates":[[[-80.06875,49.99583],[-80.06875,50.0],[-80.0625,50.0],[-80.0625,49.99583],[-80.06875,49.99583]]]}},{"type":"Feature","properties":{"c":"1064712","o":"","e":""},"geometry":{"type":"Polygon","coordinates":[[[-80.08125,49.99167],[-80.08125,49.99583],[-80.075,49.99583],[-80.075,49.99167],[-80.08125,49.99167]]]}},{"type":"Feature","properties":{"c":"1064713","o":"","e":""},"geometry":{"type":"Polygon","coordinates":[[[-80.075,49.99167],[-80.075,49.99583],[-80.06875,49.99583],[-80.06875,49.99167],[-80.075,49.99167]]]}},{"type":"Feature","properties":{"c":"1064714","o":"","e":""},"geometry":{"type":"Polygon","coordinates":[[[-80.0625,49.99583],[-80.0625,50.0],[-80.05625,50.0],[-80.05625,49.99583],[-80.0625,49.99583]]]}},{"type":"Feature","properties":{"c":"1064715","o":"","e":""},"geometry":{"type":"Polygon","coordinates":[[[-80.0625,49.97917],[-80.0625,49.98333],[-80.05625,49.98333],[-80.05625,49.97917],[-80.0625,49.97917]]]}},{"type":"Feature","properties":{"c":"1064716","o":"","e":""},"geometry":{"type":"Polygon","coordinates":[[[-80.0625,49.9875],[-80.0625,49.99167],[-80.05625,49.99167],[-80.05625,49.9875],[-80.0625,49.9875]]]}},{"type":"Feature","properties":{"c":"1064717","o":"","e":""},"geometry":{"type":"Polygon","coordinates":[[[-80.05625,49.9875],[-80.05625,49.99167],[-80.05,49.99167],[-80.05,49.9875],[-80.05625,49.9875]]]}},{"type":"Feature","properties":{"c":"1064653","o":"","e":""},"geometry":{"type":"Polygon","coordinates":[[[-80.26875,49.96667],[-80.26875,49.97083],[-80.2625,49.97083],[-80.2625,49.96667],[-80.26875,49.96667]]]}},{"type":"Feature","properties":{"c":"1064654","o":"","e":""},"geometry":{"type":"Polygon","coordinates":[[[-80.25,49.97083],[-80.25,49.975],[-80.24375,49.975],[-80.24375,49.97083],[-80.25,49.97083]]]}},{"type":"Feature","properties":{"c":"1064655","o":"","e":""},"geometry":{"type":"Polygon","coordinates":[[[-80.2125,49.96667],[-80.2125,49.97083],[-80.20625,49.97083],[-80.20625,49.96667],[-80.2125,49.96667]]]}},{"type":"Feature","properties":{"c":"1064656","o":"","e":""},"geometry":{"type":"Polygon","coordinates":[[[-80.20625,49.96667],[-80.20625,49.97083],[-80.2,49.97083],[-80.2,49.96667],[-80.20625,49.96667]]]}},{"type":"Feature","properties":{"c":"1064657","o":"","e":""},"geometry":{"type":"Polygon","coordinates":[[[-80.20625,49.97083],[-80.20625,49.975],[-80.2,49.975],[-80.2,49.97083],[-80.20625,49.97083]]]}},{"type":"Feature","properties":{"c":"1064658","o":"","e":""},"geometry":{"type":"Polygon","coordinates":[[[-80.25,49.975],[-80.25,49.97917],[-80.24375,49.97917],[-80.24375,49.975],[-80.25,49.975]]]}},{"type":"Feature","properties":{"c":"1064659","o":"","e":""},"geometry":{"type":"Polygon","coordinates":[[[-80.24375,49.975],[-80.24375,49.97917],[-80.2375,49.97917],[-80.2375,49.975],[-80.24375,49.975]]]}},{"type":"Feature","properties":{"c":"1064660","o":"","e":""},"geometry":{"type":"Polygon","coordinates":[[[-80.2375,49.97083],[-80.2375,49.975],[-80.23125,49.975],[-80.23125,49.97083],[-80.2375,49.97083]]]}},{"type":"Feature","properties":{"c":"1064661","o":"","e":""},"geometry":{"type":"Polygon","coordinates":[[[-80.225,49.975],[-80.225,49.97917],[-80.21875,49.97917],[-80.21875,49.975],[-80.225,49.975]]]}},{"type":"Feature","properties":{"c":"1064662","o":"","e":""},"geometry":{"type":"Polygon","coordinates":[[[-80.21875,49.97083],[-80.21875,49.975],[-80.2125,49.975],[-80.2125,49.97083],[-80.21875,49.97083]]]}},{"type":"Feature","properties":{"c":"938377","o":"","e":""},"geometry":{"type":"Polygon","coordinates":[[[-80.33125,49.5125],[-80.33125,49.51667],[-80.325,49.51667],[-80.325,49.5125],[-80.33125,49.5125]]]}},{"type":"Feature","properties":{"c":"938378","o":"","e":""},"geometry":{"type":"Polygon","coordinates":[[[-80.3375,49.50833],[-80.3375,49.5125],[-80.33125,49.5125],[-80.33125,49.50833],[-80.3375,49.50833]]]}},{"type":"Feature","properties":{"c":"938379","o":"","e":""},"geometry":{"type":"Polygon","coordinates":[[[-80.3375,49.5125],[-80.3375,49.51667],[-80.33125,49.51667],[-80.33125,49.5125],[-80.3375,49.5125]]]}},{"type":"Feature","properties":{"c":"1064663","o":"","e":""},"geometry":{"type":"Polygon","coordinates":[[[-80.2125,49.97083],[-80.2125,49.975],[-80.20625,49.975],[-80.20625,49.97083],[-80.2125,49.97083]]]}},{"type":"Feature","properties":{"c":"1064664","o":"","e":""},"geometry":{"type":"Polygon","coordinates":[[[-80.2625,49.96667],[-80.2625,49.97083],[-80.25625,49.97083],[-80.25625,49.96667],[-80.2625,49.96667]]]}},{"type":"Feature","properties":{"c":"1064665","o":"","e":""},"geometry":{"type":"Polygon","coordinates":[[[-80.2625,49.975],[-80.2625,49.97917],[-80.25625,49.97917],[-80.25625,49.975],[-80.2625,49.975]]]}},{"type":"Feature","properties":{"c":"1064666","o":"","e":""},"geometry":{"type":"Polygon","coordinates":[[[-80.24375,49.97083],[-80.24375,49.975],[-80.2375,49.975],[-80.2375,49.97083],[-80.24375,49.97083]]]}},{"type":"Feature","properties":{"c":"1064667","o":"","e":""},"geometry":{"type":"Polygon","coordinates":[[[-80.24375,49.97917],[-80.24375,49.98333],[-80.2375,49.98333],[-80.2375,49.97917],[-80.24375,49.97917]]]}},{"type":"Feature","properties":{"c":"1064668","o":"","e":""},"geometry":{"type":"Polygon","coordinates":[[[-80.23125,49.96667],[-80.23125,49.97083],[-80.225,49.97083],[-80.225,49.96667],[-80.23125,49.96667]]]}},{"type":"Feature","properties":{"c":"1064670","o":"","e":""},"geometry":{"type":"Polygon","coordinates":[[[-80.21875,49.975],[-80.21875,49.97917],[-80.2125,49.97917],[-80.2125,49.975],[-80.21875,49.975]]]}},{"type":"Feature","properties":{"c":"1064669","o":"","e":""},"geometry":{"type":"Polygon","coordinates":[[[-80.23125,49.975],[-80.23125,49.97917],[-80.225,49.97917],[-80.225,49.975],[-80.23125,49.975]]]}},{"type":"Feature","properties":{"c":"271115","o":"","e":""},"geometry":{"type":"Polygon","coordinates":[[[-80.00625,49.99583],[-80.00625,50.0],[-80.0,50.0],[-80.0,49.99583],[-80.00625,49.99583]]]}},{"type":"Feature","properties":{"c":"1064684","o":"","e":""},"geometry":{"type":"Polygon","coordinates":[[[-80.225,49.97917],[-80.225,49.98333],[-80.21875,49.98333],[-80.21875,49.97917],[-80.225,49.97917]]]}},{"type":"Feature","properties":{"c":"1064685","o":"","e":""},"geometry":{"type":"Polygon","coordinates":[[[-80.21875,49.96667],[-80.21875,49.97083],[-80.2125,49.97083],[-80.2125,49.96667],[-80.21875,49.96667]]]}},{"type":"Feature","properties":{"c":"1064686","o":"","e":""},"geometry":{"type":"Polygon","coordinates":[[[-80.26875,49.97917],[-80.26875,49.98333],[-80.2625,49.98333],[-80.2625,49.97917],[-80.26875,49.97917]]]}},{"type":"Feature","properties":{"c":"1064693","o":"","e":""},"geometry":{"type":"Polygon","coordinates":[[[-80.20625,49.97917],[-80.20625,49.98333],[-80.2,49.98333],[-80.2,49.97917],[-80.20625,49.97917]]]}},{"type":"Feature","properties":{"c":"1064687","o":"","e":""},"geometry":{"type":"Polygon","coordinates":[[[-80.25625,49.96667],[-80.25625,49.97083],[-80.25,49.97083],[-80.25,49.96667],[-80.25625,49.96667]]]}},{"type":"Feature","properties":{"c":"1064688","o":"","e":""},"geometry":{"type":"Polygon","coordinates":[[[-80.25625,49.97083],[-80.25625,49.975],[-80.25,49.975],[-80.25,49.97083],[-80.25625,49.97083]]]}},{"type":"Feature","properties":{"c":"1064689","o":"","e":""},"geometry":{"type":"Polygon","coordinates":[[[-80.25625,49.975],[-80.25625,49.97917],[-80.25,49.97917],[-80.25,49.975],[-80.25625,49.975]]]}},{"type":"Feature","properties":{"c":"1064690","o":"","e":""},"geometry":{"type":"Polygon","coordinates":[[[-80.2375,49.97917],[-80.2375,49.98333],[-80.23125,49.98333],[-80.23125,49.97917],[-80.2375,49.97917]]]}},{"type":"Feature","properties":{"c":"1064691","o":"","e":""},"geometry":{"type":"Polygon","coordinates":[[[-80.225,49.96667],[-80.225,49.97083],[-80.21875,49.97083],[-80.21875,49.96667],[-80.225,49.96667]]]}},{"type":"Feature","properties":{"c":"1064692","o":"","e":""},"geometry":{"type":"Polygon","coordinates":[[[-80.21875,49.97917],[-80.21875,49.98333],[-80.2125,49.98333],[-80.2125,49.97917],[-80.21875,49.97917]]]}},{"type":"Feature","properties":{"c":"1064671","o":"","e":""},"geometry":{"type":"Polygon","coordinates":[[[-80.2125,49.975],[-80.2125,49.97917],[-80.20625,49.97917],[-80.20625,49.975],[-80.2125,49.975]]]}},{"type":"Feature","properties":{"c":"1064672","o":"","e":""},"geometry":{"type":"Polygon","coordinates":[[[-80.25,49.96667],[-80.25,49.97083],[-80.24375,49.97083],[-80.24375,49.96667],[-80.25,49.96667]]]}},{"type":"Feature","properties":{"c":"1064673","o":"","e":""},"geometry":{"type":"Polygon","coordinates":[[[-80.25,49.97917],[-80.25,49.98333],[-80.24375,49.98333],[-80.24375,49.97917],[-80.25,49.97917]]]}},{"type":"Feature","properties":{"c":"1064674","o":"","e":""},"geometry":{"type":"Polygon","coordinates":[[[-80.2125,49.97917],[-80.2125,49.98333],[-80.20625,49.98333],[-80.20625,49.97917],[-80.2125,49.97917]]]}},{"type":"Feature","properties":{"c":"1064675","o":"","e":""},"geometry":{"type":"Polygon","coordinates":[[[-80.2625,49.97917],[-80.2625,49.98333],[-80.25625,49.98333],[-80.25625,49.97917],[-80.2625,49.97917]]]}},{"type":"Feature","properties":{"c":"1064676","o":"","e":""},"geometry":{"type":"Polygon","coordinates":[[[-80.24375,49.96667],[-80.24375,49.97083],[-80.2375,49.97083],[-80.2375,49.96667],[-80.24375,49.96667]]]}},{"type":"Feature","properties":{"c":"1064677","o":"","e":""},"geometry":{"type":"Polygon","coordinates":[[[-80.2375,49.975],[-80.2375,49.97917],[-80.23125,49.97917],[-80.23125,49.975],[-80.2375,49.975]]]}},{"type":"Feature","properties":{"c":"1064678","o":"","e":""},"geometry":{"type":"Polygon","coordinates":[[[-80.26875,49.97083],[-80.26875,49.975],[-80.2625,49.975],[-80.2625,49.97083],[-80.26875,49.97083]]]}},{"type":"Feature","properties":{"c":"1064683","o":"","e":""},"geometry":{"type":"Polygon","coordinates":[[[-80.225,49.97083],[-80.225,49.975],[-80.21875,49.975],[-80.21875,49.97083],[-80.225,49.97083]]]}},{"type":"Feature","properties":{"c":"1064679","o":"","e":""},"geometry":{"type":"Polygon","coordinates":[[[-80.2625,49.97083],[-80.2625,49.975],[-80.25625,49.975],[-80.25625,49.97083],[-80.2625,49.97083]]]}},{"type":"Feature","properties":{"c":"1064680","o":"","e":""},"geometry":{"type":"Polygon","coordinates":[[[-80.26875,49.975],[-80.26875,49.97917],[-80.2625,49.97917],[-80.2625,49.975],[-80.26875,49.975]]]}},{"type":"Feature","properties":{"c":"1064681","o":"","e":""},"geometry":{"type":"Polygon","coordinates":[[[-80.25625,49.97917],[-80.25625,49.98333],[-80.25,49.98333],[-80.25,49.97917],[-80.25625,49.97917]]]}},{"type":"Feature","properties":{"c":"1064682","o":"","e":""},"geometry":{"type":"Polygon","coordinates":[[[-80.23125,49.97917],[-80.23125,49.98333],[-80.225,49.98333],[-80.225,49.97917],[-80.23125,49.97917]]]}},{"type":"Feature","properties":{"c":"1064694","o":"","e":""},"geometry":{"type":"Polygon","coordinates":[[[-80.2375,49.96667],[-80.2375,49.97083],[-80.23125,49.97083],[-80.23125,49.96667],[-80.2375,49.96667]]]}},{"type":"Feature","properties":{"c":"1064695","o":"","e":""},"geometry":{"type":"Polygon","coordinates":[[[-80.23125,49.97083],[-80.23125,49.975],[-80.225,49.975],[-80.225,49.97083],[-80.23125,49.97083]]]}},{"type":"Feature","properties":{"c":"1064696","o":"","e":""},"geometry":{"type":"Polygon","coordinates":[[[-80.20625,49.975],[-80.20625,49.97917],[-80.2,49.97917],[-80.2,49.975],[-80.20625,49.975]]]}},{"type":"Feature","properties":{"c":"1064728","o":"","e":""},"geometry":{"type":"Polygon","coordinates":[[[-80.06875,49.9875],[-80.06875,49.99167],[-80.0625,49.99167],[-80.0625,49.9875],[-80.06875,49.9875]]]}},{"type":"Feature","properties":{"c":"1064729","o":"","e":""},"geometry":{"type":"Polygon","coordinates":[[[-80.08125,49.9875],[-80.08125,49.99167],[-80.075,49.99167],[-80.075,49.9875],[-80.08125,49.9875]]]}},{"type":"Feature","properties":{"c":"1064730","o":"","e":""},"geometry":{"type":"Polygon","coordinates":[[[-80.05,49.975],[-80.05,49.97917],[-80.04375,49.97917],[-80.04375,49.975],[-80.05,49.975]]]}},{"type":"Feature","properties":{"c":"1064731","o":"","e":""},"geometry":{"type":"Polygon","coordinates":[[[-80.04375,49.9875],[-80.04375,49.99167],[-80.0375,49.99167],[-80.0375,49.9875],[-80.04375,49.9875]]]}},{"type":"Feature","properties":{"c":"1064732","o":"","e":""},"geometry":{"type":"Polygon","coordinates":[[[-80.05,49.97917],[-80.05,49.98333],[-80.04375,49.98333],[-80.04375,49.97917],[-80.05,49.97917]]]}},{"type":"Feature","properties":{"c":"1064733","o":"","e":""},"geometry":{"type":"Polygon","coordinates":[[[-80.05,49.99167],[-80.05,49.99583],[-80.04375,49.99583],[-80.04375,49.99167],[-80.05,49.99167]]]}},{"type":"Feature","properties":{"c":"1064734","o":"","e":""},"geometry":{"type":"Polygon","coordinates":[[[-80.04375,49.99167],[-80.04375,49.99583],[-80.0375,49.99583],[-80.0375,49.99167],[-80.04375,49.99167]]]}},{"type":"Feature","properties":{"c":"317483","o":"","e":""},"geometry":{"type":"Polygon","coordinates":[[[-80.0125,49.98333],[-80.0125,49.9875],[-80.00625,49.9875],[-80.00625,49.98333],[-80.0125,49.98333]]]}},{"type":"Feature","properties":{"c":"618577","o":"","e":""},"geometry":{"type":"Polygon","coordinates":[[[-80.3125,49.50417],[-80.3125,49.50833],[-80.30625,49.50833],[-80.30625,49.50417],[-80.3125,49.50417]]]}},{"type":"Feature","properties":{"c":"618580","o":"","e":""},"geometry":{"type":"Polygon","coordinates":[[[-80.30625,49.50417],[-80.30625,49.50833],[-80.3,49.50833],[-80.3,49.50417],[-80.30625,49.50417]]]}},{"type":"Feature","properties":{"c":"618583","o":"","e":""},"geometry":{"type":"Polygon","coordinates":[[[-80.3125,49.50833],[-80.3125,49.5125],[-80.30625,49.5125],[-80.30625,49.50833],[-80.3125,49.50833]]]}},{"type":"Feature","properties":{"c":"618584","o":"","e":""},"geometry":{"type":"Polygon","coordinates":[[[-80.3,49.5],[-80.3,49.50417],[-80.29375,49.50417],[-80.29375,49.5],[-80.3,49.5]]]}},{"type":"Feature","properties":{"c":"618585","o":"","e":""},"geometry":{"type":"Polygon","coordinates":[[[-80.29375,49.50417],[-80.29375,49.50833],[-80.2875,49.50833],[-80.2875,49.50417],[-80.29375,49.50417]]]}},{"type":"Feature","properties":{"c":"618592","o":"","e":""},"geometry":{"type":"Polygon","coordinates":[[[-80.3,49.50417],[-80.3,49.50833],[-80.29375,49.50833],[-80.29375,49.50417],[-80.3,49.50417]]]}},{"type":"Feature","properties":{"c":"618594","o":"","e":""},"geometry":{"type":"Polygon","coordinates":[[[-80.30625,49.50833],[-80.30625,49.5125],[-80.3,49.5125],[-80.3,49.50833],[-80.30625,49.50833]]]}},{"type":"Feature","properties":{"c":"618595","o":"","e":""},"geometry":{"type":"Polygon","coordinates":[[[-80.29375,49.5],[-80.29375,49.50417],[-80.2875,49.50417],[-80.2875,49.5],[-80.29375,49.5]]]}},{"type":"Feature","properties":{"c":"618599","o":"","e":""},"geometry":{"type":"Polygon","coordinates":[[[-80.2875,49.5],[-80.2875,49.50417],[-80.28125,49.50417],[-80.28125,49.5],[-80.2875,49.5]]]}},{"type":"Feature","properties":{"c":"1064718","o":"","e":""},"geometry":{"type":"Polygon","coordinates":[[[-80.05625,49.99583],[-80.05625,50.0],[-80.05,50.0],[-80.05,49.99583],[-80.05625,49.99583]]]}},{"type":"Feature","properties":{"c":"1064719","o":"","e":""},"geometry":{"type":"Polygon","coordinates":[[[-80.0625,49.99167],[-80.0625,49.99583],[-80.05625,49.99583],[-80.05625,49.99167],[-80.0625,49.99167]]]}},{"type":"Feature","properties":{"c":"1064720","o":"","e":""},"geometry":{"type":"Polygon","coordinates":[[[-80.05625,49.98333],[-80.05625,49.9875],[-80.05,49.9875],[-80.05,49.98333],[-80.05625,49.98333]]]}},{"type":"Feature","properties":{"c":"1064721","o":"","e":""},"geometry":{"type":"Polygon","coordinates":[[[-80.05625,49.99167],[-80.05625,49.99583],[-80.05,49.99583],[-80.05,49.99167],[-80.05625,49.99167]]]}},{"type":"Feature","properties":{"c":"1064722","o":"","e":""},"geometry":{"type":"Polygon","coordinates":[[[-80.0625,49.98333],[-80.0625,49.9875],[-80.05625,49.9875],[-80.05625,49.98333],[-80.0625,49.98333]]]}},{"type":"Feature","properties":{"c":"1064723","o":"","e":""},"geometry":{"type":"Polygon","coordinates":[[[-80.05625,49.97917],[-80.05625,49.98333],[-80.05,49.98333],[-80.05,49.97917],[-80.05625,49.97917]]]}},{"type":"Feature","properties":{"c":"1064724","o":"","e":""},"geometry":{"type":"Polygon","coordinates":[[[-80.06875,49.98333],[-80.06875,49.9875],[-80.0625,49.9875],[-80.0625,49.98333],[-80.06875,49.98333]]]}},{"type":"Feature","properties":{"c":"1064725","o":"","e":""},"geometry":{"type":"Polygon","coordinates":[[[-80.08125,49.98333],[-80.08125,49.9875],[-80.075,49.9875],[-80.075,49.98333],[-80.08125,49.98333]]]}},{"type":"Feature","properties":{"c":"1064726","o":"","e":""},"geometry":{"type":"Polygon","coordinates":[[[-80.075,49.9875],[-80.075,49.99167],[-80.06875,49.99167],[-80.06875,49.9875],[-80.075,49.9875]]]}},{"type":"Feature","properties":{"c":"1064727","o":"","e":""},"geometry":{"type":"Polygon","coordinates":[[[-80.075,49.98333],[-80.075,49.9875],[-80.06875,49.9875],[-80.06875,49.98333],[-80.075,49.98333]]]}},{"type":"Feature","properties":{"c":"1015586","o":"","e":""},"geometry":{"type":"Polygon","coordinates":[[[-80.34375,49.51667],[-80.34375,49.52083],[-80.3375,49.52083],[-80.3375,49.51667],[-80.34375,49.51667]]]}},{"type":"Feature","properties":{"c":"1015587","o":"","e":""},"geometry":{"type":"Polygon","coordinates":[[[-80.34375,49.5125],[-80.34375,49.51667],[-80.3375,49.51667],[-80.3375,49.5125],[-80.34375,49.5125]]]}},{"type":"Feature","properties":{"c":"1015588","o":"","e":""},"geometry":{"type":"Polygon","coordinates":[[[-80.34375,49.52083],[-80.34375,49.525],[-80.3375,49.525],[-80.3375,49.52083],[-80.34375,49.52083]]]}},{"type":"Feature","properties":{"c":"1009021","o":"","e":""},"geometry":{"type":"Polygon","coordinates":[[[-80.35,49.50417],[-80.35,49.50833],[-80.34375,49.50833],[-80.34375,49.50417],[-80.35,49.50417]]]}},{"type":"Feature","properties":{"c":"1009022","o":"","e":""},"geometry":{"type":"Polygon","coordinates":[[[-80.34375,49.5],[-80.34375,49.50417],[-80.3375,49.50417],[-80.3375,49.5],[-80.34375,49.5]]]}},{"type":"Feature","properties":{"c":"1009025","o":"","e":""},"geometry":{"type":"Polygon","coordinates":[[[-80.33125,49.5],[-80.33125,49.50417],[-80.325,49.50417],[-80.325,49.5],[-80.33125,49.5]]]}},{"type":"Feature","properties":{"c":"1009026","o":"","e":""},"geometry":{"type":"Polygon","coordinates":[[[-80.3375,49.50417],[-80.3375,49.50833],[-80.33125,49.50833],[-80.33125,49.50417],[-80.3375,49.50417]]]}},{"type":"Feature","properties":{"c":"1009027","o":"","e":""},"geometry":{"type":"Polygon","coordinates":[[[-80.325,49.50417],[-80.325,49.50833],[-80.31875,49.50833],[-80.31875,49.50417],[-80.325,49.50417]]]}},{"type":"Feature","properties":{"c":"1009028","o":"","e":""},"geometry":{"type":"Polygon","coordinates":[[[-80.3375,49.5],[-80.3375,49.50417],[-80.33125,49.50417],[-80.33125,49.5],[-80.3375,49.5]]]}},{"type":"Feature","properties":{"c":"1009029","o":"","e":""},"geometry":{"type":"Polygon","coordinates":[[[-80.31875,49.50417],[-80.31875,49.50833],[-80.3125,49.50833],[-80.3125,49.50417],[-80.31875,49.50417]]]}},{"type":"Feature","properties":{"c":"1009030","o":"","e":""},"geometry":{"type":"Polygon","coordinates":[[[-80.31875,49.5],[-80.31875,49.50417],[-80.3125,49.50417],[-80.3125,49.5],[-80.31875,49.5]]]}},{"type":"Feature","properties":{"c":"1009031","o":"","e":""},"geometry":{"type":"Polygon","coordinates":[[[-80.35,49.5],[-80.35,49.50417],[-80.34375,49.50417],[-80.34375,49.5],[-80.35,49.5]]]}},{"type":"Feature","properties":{"c":"1009032","o":"","e":""},"geometry":{"type":"Polygon","coordinates":[[[-80.34375,49.50417],[-80.34375,49.50833],[-80.3375,49.50833],[-80.3375,49.50417],[-80.34375,49.50417]]]}},{"type":"Feature","properties":{"c":"1009033","o":"","e":""},"geometry":{"type":"Polygon","coordinates":[[[-80.33125,49.50417],[-80.33125,49.50833],[-80.325,49.50833],[-80.325,49.50417],[-80.33125,49.50417]]]}},{"type":"Feature","properties":{"c":"1009035","o":"","e":""},"geometry":{"type":"Polygon","coordinates":[[[-80.325,49.5],[-80.325,49.50417],[-80.31875,49.50417],[-80.31875,49.5],[-80.325,49.5]]]}},{"type":"Feature","properties":{"c":"1009036","o":"","e":""},"geometry":{"type":"Polygon","coordinates":[[[-80.34375,49.50833],[-80.34375,49.5125],[-80.3375,49.5125],[-80.3375,49.50833],[-80.34375,49.50833]]]}},{"type":"Feature","properties":{"c":"1009037","o":"","e":""},"geometry":{"type":"Polygon","coordinates":[[[-80.35,49.50833],[-80.35,49.5125],[-80.34375,49.5125],[-80.34375,49.50833],[-80.35,49.50833]]]}},{"type":"Feature","properties":{"c":"1009038","o":"","e":""},"geometry":{"type":"Polygon","coordinates":[[[-80.31875,49.50833],[-80.31875,49.5125],[-80.3125,49.5125],[-80.3125,49.50833],[-80.31875,49.50833]]]}},{"type":"Feature","properties":{"c":"1009039","o":"","e":""},"geometry":{"type":"Polygon","coordinates":[[[-80.33125,49.50833],[-80.33125,49.5125],[-80.325,49.5125],[-80.325,49.50833],[-80.33125,49.50833]]]}},{"type":"Feature","properties":{"c":"1009040","o":"","e":""},"geometry":{"type":"Polygon","coordinates":[[[-80.325,49.50833],[-80.325,49.5125],[-80.31875,49.5125],[-80.31875,49.50833],[-80.325,49.50833]]]}},{"type":"Feature","properties":{"c":"1009041","o":"","e":""},"geometry":{"type":"Polygon","coordinates":[[[-80.3125,49.5],[-80.3125,49.50417],[-80.30625,49.50417],[-80.30625,49.5],[-80.3125,49.5]]]}},{"type":"Feature","properties":{"c":"1009042","o":"","e":""},"geometry":{"type":"Polygon","coordinates":[[[-80.30625,49.5],[-80.30625,49.50417],[-80.3,49.50417],[-80.3,49.5],[-80.30625,49.5]]]}},{"type":"Feature","properties":{"c":"1064740","o":"","e":""},"geometry":{"type":"Polygon","coordinates":[[[-80.01875,49.975],[-80.01875,49.97917],[-80.0125,49.97917],[-80.0125,49.975],[-80.01875,49.975]]]}},{"type":"Feature","properties":{"c":"1064741","o":"","e":""},"geometry":{"type":"Polygon","coordinates":[[[-80.01875,49.97917],[-80.01875,49.98333],[-80.0125,49.98333],[-80.0125,49.97917],[-80.01875,49.97917]]]}},{"type":"Feature","properties":{"c":"1064742","o":"","e":""},"geometry":{"type":"Polygon","coordinates":[[[-80.0125,49.97917],[-80.0125,49.98333],[-80.00625,49.98333],[-80.00625,49.97917],[-80.0125,49.97917]]]}},{"type":"Feature","properties":{"c":"1064743","o":"","e":""},"geometry":{"type":"Polygon","coordinates":[[[-80.00625,49.97917],[-80.00625,49.98333],[-80.0,49.98333],[-80.0,49.97917],[-80.00625,49.97917]]]}},{"type":"Feature","properties":{"c":"1064744","o":"","e":""},"geometry":{"type":"Polygon","coordinates":[[[-80.00625,49.975],[-80.00625,49.97917],[-80.0,49.97917],[-80.0,49.975],[-80.00625,49.975]]]}},{"type":"Feature","properties":{"c":"1064745","o":"","e":""},"geometry":{"type":"Polygon","coordinates":[[[-80.01875,49.96667],[-80.01875,49.97083],[-80.0125,49.97083],[-80.0125,49.96667],[-80.01875,49.96667]]]}},{"type":"Feature","properties":{"c":"1064746","o":"","e":""},"geometry":{"type":"Polygon","coordinates":[[[-80.0125,49.97083],[-80.0125,49.975],[-80.00625,49.975],[-80.00625,49.97083],[-80.0125,49.97083]]]}},{"type":"Feature","properties":{"c":"1064747","o":"","e":""},"geometry":{"type":"Polygon","coordinates":[[[-80.0125,49.975],[-80.0125,49.97917],[-80.00625,49.97917],[-80.00625,49.975],[-80.0125,49.975]]]}},{"type":"Feature","properties":{"c":"1064748","o":"","e":""},"geometry":{"type":"Polygon","coordinates":[[[-80.01875,49.97083],[-80.01875,49.975],[-80.0125,49.975],[-80.0125,49.97083],[-80.01875,49.97083]]]}},{"type":"Feature","properties":{"c":"1064749","o":"","e":""},"geometry":{"type":"Polygon","coordinates":[[[-80.00625,49.97083],[-80.00625,49.975],[-80.0,49.975],[-80.0,49.97083],[-80.00625,49.97083]]]}},{"type":"Feature","properties":{"c":"1064750","o":"","e":""},"geometry":{"type":"Polygon","coordinates":[[[-80.0125,49.96667],[-80.0125,49.97083],[-80.00625,49.97083],[-80.00625,49.96667],[-80.0125,49.96667]]]}},{"type":"Feature","properties":{"c":"1064751","o":"","e":""},"geometry":{"type":"Polygon","coordinates":[[[-80.00625,49.96667],[-80.00625,49.97083],[-80.0,49.97083],[-80.0,49.96667],[-80.00625,49.96667]]]}},{"type":"Feature","properties":{"c":"1064752","o":"","e":""},"geometry":{"type":"Polygon","coordinates":[[[-80.03125,49.9875],[-80.03125,49.99167],[-80.025,49.99167],[-80.025,49.9875],[-80.03125,49.9875]]]}},{"type":"Feature","properties":{"c":"1064753","o":"","e":""},"geometry":{"type":"Polygon","coordinates":[[[-80.025,49.97917],[-80.025,49.98333],[-80.01875,49.98333],[-80.01875,49.97917],[-80.025,49.97917]]]}},{"type":"Feature","properties":{"c":"1064754","o":"","e":""},"geometry":{"type":"Polygon","coordinates":[[[-80.03125,49.97083],[-80.03125,49.975],[-80.025,49.975],[-80.025,49.97083],[-80.03125,49.97083]]]}},{"type":"Feature","properties":{"c":"1064755","o":"","e":""},"geometry":{"type":"Polygon","coordinates":[[[-80.025,49.98333],[-80.025,49.9875],[-80.01875,49.9875],[-80.01875,49.98333],[-80.025,49.98333]]]}},{"type":"Feature","properties":{"c":"1064756","o":"","e":""},"geometry":{"type":"Polygon","coordinates":[[[-80.025,49.9875],[-80.025,49.99167],[-80.01875,49.99167],[-80.01875,49.9875],[-80.025,49.9875]]]}},{"type":"Feature","properties":{"c":"1064757","o":"","e":""},"geometry":{"type":"Polygon","coordinates":[[[-80.0375,49.9875],[-80.0375,49.99167],[-80.03125,49.99167],[-80.03125,49.9875],[-80.0375,49.9875]]]}},{"type":"Feature","properties":{"c":"1064758","o":"","e":""},"geometry":{"type":"Polygon","coordinates":[[[-80.03125,49.975],[-80.03125,49.97917],[-80.025,49.97917],[-80.025,49.975],[-80.03125,49.975]]]}},{"type":"Feature","properties":{"c":"1064759","o":"","e":""},"geometry":{"type":"Polygon","coordinates":[[[-80.0375,49.98333],[-80.0375,49.9875],[-80.03125,49.9875],[-80.03125,49.98333],[-80.0375,49.98333]]]}},{"type":"Feature","properties":{"c":"1064760","o":"","e":""},"geometry":{"type":"Polygon","coordinates":[[[-80.03125,49.97917],[-80.03125,49.98333],[-80.025,49.98333],[-80.025,49.97917],[-80.03125,49.97917]]]}},{"type":"Feature","properties":{"c":"1064761","o":"","e":""},"geometry":{"type":"Polygon","coordinates":[[[-80.03125,49.98333],[-80.03125,49.9875],[-80.025,49.9875],[-80.025,49.98333],[-80.03125,49.98333]]]}},{"type":"Feature","properties":{"c":"1064762","o":"","e":""},"geometry":{"type":"Polygon","coordinates":[[[-80.0375,49.97083],[-80.0375,49.975],[-80.03125,49.975],[-80.03125,49.97083],[-80.0375,49.97083]]]}},{"type":"Feature","properties":{"c":"1064763","o":"","e":""},"geometry":{"type":"Polygon","coordinates":[[[-80.0375,49.975],[-80.0375,49.97917],[-80.03125,49.97917],[-80.03125,49.975],[-80.0375,49.975]]]}},{"type":"Feature","properties":{"c":"1064764","o":"","e":""},"geometry":{"type":"Polygon","coordinates":[[[-80.025,49.975],[-80.025,49.97917],[-80.01875,49.97917],[-80.01875,49.975],[-80.025,49.975]]]}},{"type":"Feature","properties":{"c":"1064765","o":"","e":""},"geometry":{"type":"Polygon","coordinates":[[[-80.0375,49.97917],[-80.0375,49.98333],[-80.03125,49.98333],[-80.03125,49.97917],[-80.0375,49.97917]]]}},{"type":"Feature","properties":{"c":"1064766","o":"","e":""},"geometry":{"type":"Polygon","coordinates":[[[-80.025,49.97083],[-80.025,49.975],[-80.01875,49.975],[-80.01875,49.97083],[-80.025,49.97083]]]}},{"type":"Feature","properties":{"c":"724078","o":"","e":""},"geometry":{"type":"Polygon","coordinates":[[[-80.1125,50.00417],[-80.1125,50.00833],[-80.10625,50.00833],[-80.1,50.00833],[-80.09375,50.00833],[-80.0875,50.00833],[-80.0875,50.00417],[-80.0875,50.0],[-80.0875,49.99583],[-80.09375,49.99583],[-80.1,49.99583],[-80.10625,49.99583],[-80.1125,49.99583],[-80.1125,50.0],[-80.1125,50.00417]]]}}]}