{"type":"FeatureCollection","features":[{"type":"Feature","properties":{"c":"586016","o":"","e":""},"geometry":{"type":"Polygon","coordinates":[[[-80.35625,50.5],[-80.35625,50.50417],[-80.35625,50.50833],[-80.35625,50.5125],[-80.35625,50.51667],[-80.35,50.51667],[-80.35,50.5125],[-80.35,50.50833],[-80.35,50.50417],[-80.35,50.5],[-80.35,50.49583],[-80.34375,50.49583],[-80.3375,50.49583],[-80.33125,50.49583],[-80.325,50.49583],[-80.31875,50.49583],[-80.3125,50.49583],[-80.3125,50.49167],[-80.3125,50.4875],[-80.30625,50.4875],[-80.3,50.4875],[-80.29375,50.4875],[-80.29375,50.48333],[-80.29375,50.47917],[-80.29375,50.475],[-80.3,50.475],[-80.30625,50.475],[-80.3125,50.475],[-80.31875,50.475],[-80.31875,50.47917],[-80.31875,50.48333],[-80.31875,50.4875],[-80.31875,50.49167],[-80.325,50.49167],[-80.33125,50.49167],[-80.3375,50.49167],[-80.34375,50.49167],[-80.35,50.49167],[-80.35625,50.49167],[-80.35625,50.49583],[-80.35625,50.5]]]}},{"type":"Feature","properties":{"c":"586072","o":"","e":""},"geometry":{"type":"Polygon","coordinates":[[[-80.45625,50.64583],[-80.45625,50.65],[-80.45625,50.65417],[-80.45625,50.65833],[-80.45625,50.6625],[-80.45,50.6625],[-80.44375,50.6625],[-80.4375,50.6625],[-80.43125,50.6625],[-80.43125,50.65833],[-80.43125,50.65417],[-80.43125,50.65],[-80.425,50.65],[-80.425,50.64583],[-80.41875,50.64583],[-80.41875,50.64167],[-80.41875,50.6375],[-80.4125,50.6375],[-80.40625,50.6375],[-80.4,50.6375],[-80.39375,50.6375],[-80.39375,50.63333],[-80.4,50.63333],[-80.40625,50.63333],[-80.4125,50.63333],[-80.41875,50.63333],[-80.425,50.63333],[-80.425,50.6375],[-80.425,50.64167],[-80.43125,50.64167],[-80.43125,50.64583],[-80.4375,50.64583],[-80.4375,50.65],[-80.44375,50.65],[-80.45,50.65],[-80.45,50.64583],[-80.45,50.64167],[-80.45,50.6375],[-80.45625,50.6375],[-80.45625,50.64167],[-80.45625,50.64583]]]}},{"type":"Feature","properties":{"c":"585919","o":"","e":""},"geometry":{"type":"Polygon","coordinates":[[[-80.39375,50.6375],[-80.39375,50.64167],[-80.3875,50.64167],[-80.3875,50.64583],[-80.38125,50.64583],[-80.375,50.64583],[-80.375,50.64167],[-80.36875,50.64167],[-80.36875,50.6375],[-80.3625,50.6375],[-80.3625,50.63333],[-80.35625,50.63333],[-80.35,50.63333],[-80.35,50.62917],[-80.35,50.625],[-80.34375,50.625],[-80.3375,50.625],[-80.3375,50.62083],[-80.3375,50.61667],[-80.34375,50.61667],[-80.35,50.61667],[-80.35625,50.61667],[-80.35625,50.62083],[-80.35625,50.625],[-80.35625,50.62917],[-80.3625,50.62917],[-80.36875,50.62917],[-80.375,50.62917],[-80.38125,50.62917],[-80.3875,50.62917],[-80.39375,50.62917],[-80.39375,50.63333],[-80.39375,50.6375]]]}},{"type":"Feature","properties":{"c":"585961","o":"","e":""},"geometry":{"type":"Polygon","coordinates":[[[-80.375,50.92083],[-80.375,50.925],[-80.375,50.92917],[-80.36875,50.92917],[-80.3625,50.92917],[-80.35625,50.92917],[-80.35,50.92917],[-80.34375,50.92917],[-80.3375,50.92917],[-80.33125,50.92917],[-80.325,50.92917],[-80.31875,50.92917],[-80.3125,50.92917],[-80.30625,50.92917],[-80.3,50.92917],[-80.29375,50.92917],[-80.29375,50.925],[-80.3,50.925],[-80.30625,50.925],[-80.3125,50.925],[-80.31875,50.925],[-80.325,50.925],[-80.33125,50.925],[-80.3375,50.925],[-80.34375,50.925],[-80.35,50.925],[-80.35,50.92083],[-80.35,50.91667],[-80.35,50.9125],[-80.35625,50.9125],[-80.3625,50.9125],[-80.36875,50.9125],[-80.375,50.9125],[-80.375,50.91667],[-80.375,50.92083]]]}},{"type":"Feature","properties":{"c":"855454","o":"","e":""},"geometry":{"type":"Polygon","coordinates":[[[-80.4125,50.52917],[-80.4125,50.53333],[-80.4125,50.5375],[-80.40625,50.5375],[-80.4,50.5375],[-80.39375,50.5375],[-80.3875,50.5375],[-80.3875,50.53333],[-80.3875,50.52917],[-80.38125,50.52917],[-80.375,50.52917],[-80.36875,50.52917],[-80.3625,50.52917],[-80.35625,50.52917],[-80.35625,50.525],[-80.35625,50.52083],[-80.35,50.52083],[-80.35,50.51667],[-80.35625,50.51667],[-80.3625,50.51667],[-80.3625,50.52083],[-80.36875,50.52083],[-80.36875,50.525],[-80.375,50.525],[-80.38125,50.525],[-80.3875,50.525],[-80.3875,50.52083],[-80.39375,50.52083],[-80.4,50.52083],[-80.40625,50.52083],[-80.4125,50.52083],[-80.4125,50.525],[-80.4125,50.52917]]]}},{"type":"Feature","properties":{"c":"586022","o":"","e":""},"geometry":{"type":"Polygon","coordinates":[[[-80.125,50.57083],[-80.125,50.575],[-80.125,50.57917],[-80.13125,50.57917],[-80.13125,50.58333],[-80.125,50.58333],[-80.11875,50.58333],[-80.1125,50.58333],[-80.10625,50.58333],[-80.1,50.58333],[-80.1,50.57917],[-80.09375,50.57917],[-80.09375,50.575],[-80.0875,50.575],[-80.0875,50.57083],[-80.0875,50.56667],[-80.09375,50.56667],[-80.1,50.56667],[-80.10625,50.56667],[-80.10625,50.5625],[-80.1125,50.5625],[-80.11875,50.5625],[-80.125,50.5625],[-80.125,50.56667],[-80.125,50.57083]]]}},{"type":"Feature","properties":{"c":"586015","o":"","e":""},"geometry":{"type":"Polygon","coordinates":[[[-80.29375,50.925],[-80.29375,50.92917],[-80.2875,50.92917],[-80.28125,50.92917],[-80.275,50.92917],[-80.26875,50.92917],[-80.2625,50.92917],[-80.25625,50.92917],[-80.25,50.92917],[-80.24375,50.92917],[-80.24375,50.93333],[-80.24375,50.9375],[-80.24375,50.94167],[-80.24375,50.94583],[-80.24375,50.95],[-80.24375,50.95417],[-80.24375,50.95833],[-80.2375,50.95833],[-80.23125,50.95833],[-80.225,50.95833],[-80.21875,50.95833],[-80.2125,50.95833],[-80.20625,50.95833],[-80.20625,50.95417],[-80.2125,50.95417],[-80.21875,50.95417],[-80.225,50.95417],[-80.23125,50.95417],[-80.2375,50.95417],[-80.2375,50.95],[-80.2375,50.94583],[-80.2375,50.94167],[-80.2375,50.9375],[-80.2375,50.93333],[-80.2375,50.92917],[-80.2375,50.925],[-80.24375,50.925],[-80.25,50.925],[-80.25625,50.925],[-80.2625,50.925],[-80.26875,50.925],[-80.275,50.925],[-80.28125,50.925],[-80.2875,50.925],[-80.29375,50.925]]]}},{"type":"Feature","properties":{"c":"585952","o":"","e":""},"geometry":{"type":"Polygon","coordinates":[[[-80.53125,50.62917],[-80.53125,50.63333],[-80.53125,50.6375],[-80.525,50.6375],[-80.51875,50.6375],[-80.5125,50.6375],[-80.50625,50.6375],[-80.50625,50.63333],[-80.5,50.63333],[-80.49375,50.63333],[-80.4875,50.63333],[-80.4875,50.6375],[-80.48125,50.6375],[-80.475,50.6375],[-80.475,50.64167],[-80.46875,50.64167],[-80.4625,50.64167],[-80.45625,50.64167],[-80.45625,50.6375],[-80.4625,50.6375],[-80.46875,50.6375],[-80.46875,50.63333],[-80.475,50.63333],[-80.48125,50.63333],[-80.48125,50.62917],[-80.4875,50.62917],[-80.49375,50.62917],[-80.5,50.62917],[-80.50625,50.62917],[-80.50625,50.625],[-80.5125,50.625],[-80.5125,50.62083],[-80.51875,50.62083],[-80.525,50.62083],[-80.53125,50.62083],[-80.53125,50.625],[-80.53125,50.62917]]]}},{"type":"Feature","properties":{"c":"586012","o":"","e":""},"geometry":{"type":"Polygon","coordinates":[[[-80.20625,50.95417],[-80.20625,50.95833],[-80.2,50.95833],[-80.2,50.9625],[-80.2,50.96667],[-80.2,50.97083],[-80.19375,50.97083],[-80.1875,50.97083],[-80.18125,50.97083],[-80.175,50.97083],[-80.16875,50.97083],[-80.1625,50.97083],[-80.1625,50.96667],[-80.1625,50.9625],[-80.1625,50.95833],[-80.1625,50.95417],[-80.16875,50.95417],[-80.175,50.95417],[-80.18125,50.95417],[-80.1875,50.95417],[-80.19375,50.95417],[-80.2,50.95417],[-80.20625,50.95417]]]}},{"type":"Feature","properties":{"c":"585967","o":"","e":""},"geometry":{"type":"Polygon","coordinates":[[[-80.29375,50.72083],[-80.29375,50.725],[-80.29375,50.72917],[-80.29375,50.73333],[-80.2875,50.73333],[-80.2875,50.7375],[-80.28125,50.7375],[-80.275,50.7375],[-80.275,50.73333],[-80.26875,50.73333],[-80.26875,50.72917],[-80.26875,50.725],[-80.26875,50.72083],[-80.26875,50.71667],[-80.26875,50.7125],[-80.26875,50.70833],[-80.275,50.70833],[-80.28125,50.70833],[-80.2875,50.70833],[-80.2875,50.7125],[-80.29375,50.7125],[-80.29375,50.71667],[-80.29375,50.72083]]]}},{"type":"Feature","properties":{"c":"586019","o":"","e":""},"geometry":{"type":"Polygon","coordinates":[[[-80.1625,50.58333],[-80.15625,50.58333],[-80.15,50.58333],[-80.14375,50.58333],[-80.1375,50.58333],[-80.13125,50.58333],[-80.13125,50.57917],[-80.125,50.57917],[-80.125,50.575],[-80.125,50.57083],[-80.125,50.56667],[-80.125,50.5625],[-80.13125,50.5625],[-80.1375,50.5625],[-80.14375,50.5625],[-80.15,50.5625],[-80.15,50.56667],[-80.15625,50.56667],[-80.15625,50.57083],[-80.15625,50.575],[-80.1625,50.575],[-80.1625,50.57917],[-80.1625,50.58333]]]}},{"type":"Feature","properties":{"c":"613277","o":"","e":""},"geometry":{"type":"Polygon","coordinates":[[[-80.3625,50.63333],[-80.3625,50.6375],[-80.35625,50.6375],[-80.35625,50.64167],[-80.35,50.64167],[-80.34375,50.64167],[-80.3375,50.64167],[-80.33125,50.64167],[-80.33125,50.6375],[-80.33125,50.63333],[-80.33125,50.62917],[-80.3375,50.62917],[-80.34375,50.62917],[-80.35,50.62917],[-80.35,50.63333],[-80.35625,50.63333],[-80.3625,50.63333]]]}},{"type":"Feature","properties":{"c":"585958","o":"","e":""},"geometry":{"type":"Polygon","coordinates":[[[-80.03125,50.82083],[-80.03125,50.825],[-80.03125,50.82917],[-80.025,50.82917],[-80.01875,50.82917],[-80.0125,50.82917],[-80.00625,50.82917],[-80.0,50.82917],[-79.99375,50.82917],[-79.9875,50.82917],[-79.98125,50.82917],[-79.975,50.82917],[-79.96875,50.82917],[-79.9625,50.82917],[-79.95625,50.82917],[-79.95625,50.825],[-79.9625,50.825],[-79.96875,50.825],[-79.975,50.825],[-79.98125,50.825],[-79.9875,50.825],[-79.99375,50.825],[-80.0,50.825],[-80.0,50.82083],[-80.0,50.81667],[-80.00625,50.81667],[-80.00625,50.8125],[-80.0125,50.8125],[-80.01875,50.8125],[-80.025,50.8125],[-80.03125,50.8125],[-80.03125,50.81667],[-80.03125,50.82083]]]}}]}