{"type":"FeatureCollection","features":[{"type":"Feature","properties":{"c":"104135","o":"Baffinland Iron Mines Corporation (100%)","e":"2027-01-26"},"geometry":{"type":"Polygon","coordinates":[[[-81.0,72.0],[-81.0,72.0],[-81.0,72.0],[-81.0,72.0]]]}},{"type":"Feature","properties":{"c":"104136","o":"Baffinland Iron Mines Corporation (100%)","e":"2027-01-26"},"geometry":{"type":"Polygon","coordinates":[[[-81.0,72.0],[-81.0,72.0],[-81.0,72.0],[-81.0,72.0]]]}},{"type":"Feature","properties":{"c":"104137","o":"Baffinland Iron Mines Corporation (100%)","e":"2027-01-26"},"geometry":{"type":"Polygon","coordinates":[[[-82.0,72.0],[-81.0,72.0],[-81.0,72.0],[-82.0,72.0]]]}},{"type":"Feature","properties":{"c":"104138","o":"Baffinland Iron Mines Corporation (100%)","e":"2027-01-26"},"geometry":{"type":"Polygon","coordinates":[[[-82.0,72.0],[-82.0,72.0],[-81.0,72.0],[-82.0,72.0]]]}},{"type":"Feature","properties":{"c":"104090","o":"Baffinland Iron Mines Corporation (100%)","e":"2027-01-25"},"geometry":{"type":"Polygon","coordinates":[[[-81.0,72.0],[-81.0,72.0],[-81.0,72.0],[-81.0,72.0]]]}}]}