{"type":"FeatureCollection","features":[{"type":"Feature","properties":{"c":"535447","o":"","e":""},"geometry":{"type":"Polygon","coordinates":[[[-80.83125,50.83333],[-80.83125,50.8375],[-80.825,50.8375],[-80.81875,50.8375],[-80.8125,50.8375],[-80.80625,50.8375],[-80.80625,50.83333],[-80.80625,50.82917],[-80.80625,50.825],[-80.8125,50.825],[-80.81875,50.825],[-80.825,50.825],[-80.83125,50.825],[-80.83125,50.82917],[-80.83125,50.83333]]]}},{"type":"Feature","properties":{"c":"535448","o":"","e":""},"geometry":{"type":"Polygon","coordinates":[[[-80.825,50.80833],[-80.825,50.8125],[-80.81875,50.8125],[-80.8125,50.8125],[-80.80625,50.8125],[-80.80625,50.80833],[-80.80625,50.80417],[-80.80625,50.8],[-80.8125,50.8],[-80.81875,50.8],[-80.825,50.8],[-80.825,50.80417],[-80.825,50.80833]]]}},{"type":"Feature","properties":{"c":"535443","o":"","e":""},"geometry":{"type":"Polygon","coordinates":[[[-80.9625,50.80417],[-80.9625,50.80833],[-80.95625,50.80833],[-80.95,50.80833],[-80.94375,50.80833],[-80.9375,50.80833],[-80.9375,50.80417],[-80.9375,50.8],[-80.9375,50.79583],[-80.94375,50.79583],[-80.95,50.79583],[-80.95625,50.79583],[-80.9625,50.79583],[-80.9625,50.8],[-80.9625,50.80417]]]}},{"type":"Feature","properties":{"c":"535445","o":"","e":""},"geometry":{"type":"Polygon","coordinates":[[[-80.86875,50.85417],[-80.86875,50.85833],[-80.8625,50.85833],[-80.85625,50.85833],[-80.85,50.85833],[-80.85,50.85417],[-80.85,50.85],[-80.85,50.84583],[-80.85625,50.84583],[-80.8625,50.84583],[-80.86875,50.84583],[-80.86875,50.85],[-80.86875,50.85417]]]}},{"type":"Feature","properties":{"c":"535444","o":"","e":""},"geometry":{"type":"Polygon","coordinates":[[[-80.9125,50.81667],[-80.9125,50.82083],[-80.90625,50.82083],[-80.9,50.82083],[-80.89375,50.82083],[-80.8875,50.82083],[-80.8875,50.81667],[-80.8875,50.8125],[-80.8875,50.80833],[-80.89375,50.80833],[-80.9,50.80833],[-80.90625,50.80833],[-80.9125,50.80833],[-80.9125,50.8125],[-80.9125,50.81667]]]}},{"type":"Feature","properties":{"c":"535446","o":"","e":""},"geometry":{"type":"Polygon","coordinates":[[[-80.875,50.825],[-80.875,50.82917],[-80.86875,50.82917],[-80.8625,50.82917],[-80.85625,50.82917],[-80.85,50.82917],[-80.85,50.825],[-80.84375,50.825],[-80.8375,50.825],[-80.83125,50.825],[-80.83125,50.82083],[-80.83125,50.81667],[-80.83125,50.8125],[-80.8375,50.8125],[-80.84375,50.8125],[-80.85,50.8125],[-80.85625,50.8125],[-80.85625,50.81667],[-80.8625,50.81667],[-80.86875,50.81667],[-80.875,50.81667],[-80.875,50.82083],[-80.875,50.825]]]}},{"type":"Feature","properties":{"c":"573070","o":"","e":""},"geometry":{"type":"Polygon","coordinates":[[[-80.60625,50.79167],[-80.60625,50.79583],[-80.6,50.79583],[-80.6,50.79167],[-80.60625,50.79167]]]}},{"type":"Feature","properties":{"c":"573071","o":"","e":""},"geometry":{"type":"Polygon","coordinates":[[[-80.6375,50.79167],[-80.6375,50.79583],[-80.63125,50.79583],[-80.63125,50.79167],[-80.6375,50.79167]]]}},{"type":"Feature","properties":{"c":"573072","o":"","e":""},"geometry":{"type":"Polygon","coordinates":[[[-80.59375,50.79167],[-80.59375,50.79583],[-80.5875,50.79583],[-80.5875,50.79167],[-80.59375,50.79167]]]}},{"type":"Feature","properties":{"c":"573038","o":"","e":""},"geometry":{"type":"Polygon","coordinates":[[[-80.675,50.79583],[-80.675,50.8],[-80.66875,50.8],[-80.66875,50.79583],[-80.675,50.79583]]]}},{"type":"Feature","properties":{"c":"573039","o":"","e":""},"geometry":{"type":"Polygon","coordinates":[[[-80.65625,50.79583],[-80.65625,50.8],[-80.65,50.8],[-80.65,50.79583],[-80.65625,50.79583]]]}},{"type":"Feature","properties":{"c":"573040","o":"","e":""},"geometry":{"type":"Polygon","coordinates":[[[-80.64375,50.8],[-80.64375,50.80417],[-80.6375,50.80417],[-80.6375,50.8],[-80.64375,50.8]]]}},{"type":"Feature","properties":{"c":"573041","o":"","e":""},"geometry":{"type":"Polygon","coordinates":[[[-80.63125,50.79583],[-80.63125,50.8],[-80.625,50.8],[-80.625,50.79583],[-80.63125,50.79583]]]}},{"type":"Feature","properties":{"c":"573042","o":"","e":""},"geometry":{"type":"Polygon","coordinates":[[[-80.60625,50.79583],[-80.60625,50.8],[-80.6,50.8],[-80.6,50.79583],[-80.60625,50.79583]]]}},{"type":"Feature","properties":{"c":"573043","o":"","e":""},"geometry":{"type":"Polygon","coordinates":[[[-80.59375,50.79583],[-80.59375,50.8],[-80.5875,50.8],[-80.5875,50.79583],[-80.59375,50.79583]]]}},{"type":"Feature","properties":{"c":"573044","o":"","e":""},"geometry":{"type":"Polygon","coordinates":[[[-80.58125,50.79583],[-80.58125,50.8],[-80.575,50.8],[-80.575,50.79583],[-80.58125,50.79583]]]}},{"type":"Feature","properties":{"c":"573045","o":"","e":""},"geometry":{"type":"Polygon","coordinates":[[[-80.66875,50.79583],[-80.66875,50.8],[-80.6625,50.8],[-80.6625,50.79583],[-80.66875,50.79583]]]}},{"type":"Feature","properties":{"c":"573046","o":"","e":""},"geometry":{"type":"Polygon","coordinates":[[[-80.675,50.8],[-80.675,50.80417],[-80.66875,50.80417],[-80.66875,50.8],[-80.675,50.8]]]}},{"type":"Feature","properties":{"c":"573054","o":"","e":""},"geometry":{"type":"Polygon","coordinates":[[[-80.65,50.8],[-80.65,50.80417],[-80.64375,50.80417],[-80.64375,50.8],[-80.65,50.8]]]}},{"type":"Feature","properties":{"c":"573047","o":"","e":""},"geometry":{"type":"Polygon","coordinates":[[[-80.66875,50.8],[-80.66875,50.80417],[-80.6625,50.80417],[-80.6625,50.8],[-80.66875,50.8]]]}},{"type":"Feature","properties":{"c":"573048","o":"","e":""},"geometry":{"type":"Polygon","coordinates":[[[-80.6375,50.8],[-80.6375,50.80417],[-80.63125,50.80417],[-80.63125,50.8],[-80.6375,50.8]]]}},{"type":"Feature","properties":{"c":"573049","o":"","e":""},"geometry":{"type":"Polygon","coordinates":[[[-80.61875,50.79583],[-80.61875,50.8],[-80.6125,50.8],[-80.6125,50.79583],[-80.61875,50.79583]]]}},{"type":"Feature","properties":{"c":"573050","o":"","e":""},"geometry":{"type":"Polygon","coordinates":[[[-80.61875,50.8],[-80.61875,50.80417],[-80.6125,50.80417],[-80.6125,50.8],[-80.61875,50.8]]]}},{"type":"Feature","properties":{"c":"573051","o":"","e":""},"geometry":{"type":"Polygon","coordinates":[[[-80.6125,50.79583],[-80.6125,50.8],[-80.60625,50.8],[-80.60625,50.79583],[-80.6125,50.79583]]]}},{"type":"Feature","properties":{"c":"573052","o":"","e":""},"geometry":{"type":"Polygon","coordinates":[[[-80.58125,50.8],[-80.58125,50.80417],[-80.575,50.80417],[-80.575,50.8],[-80.58125,50.8]]]}},{"type":"Feature","properties":{"c":"573053","o":"","e":""},"geometry":{"type":"Polygon","coordinates":[[[-80.6625,50.79583],[-80.6625,50.8],[-80.65625,50.8],[-80.65625,50.79583],[-80.6625,50.79583]]]}},{"type":"Feature","properties":{"c":"573055","o":"","e":""},"geometry":{"type":"Polygon","coordinates":[[[-80.59375,50.8],[-80.59375,50.80417],[-80.5875,50.80417],[-80.5875,50.8],[-80.59375,50.8]]]}},{"type":"Feature","properties":{"c":"573056","o":"","e":""},"geometry":{"type":"Polygon","coordinates":[[[-80.6375,50.79583],[-80.6375,50.8],[-80.63125,50.8],[-80.63125,50.79583],[-80.6375,50.79583]]]}},{"type":"Feature","properties":{"c":"573057","o":"","e":""},"geometry":{"type":"Polygon","coordinates":[[[-80.6,50.8],[-80.6,50.80417],[-80.59375,50.80417],[-80.59375,50.8],[-80.6,50.8]]]}},{"type":"Feature","properties":{"c":"573058","o":"","e":""},"geometry":{"type":"Polygon","coordinates":[[[-80.65625,50.8],[-80.65625,50.80417],[-80.65,50.80417],[-80.65,50.8],[-80.65625,50.8]]]}},{"type":"Feature","properties":{"c":"573059","o":"","e":""},"geometry":{"type":"Polygon","coordinates":[[[-80.625,50.79583],[-80.625,50.8],[-80.61875,50.8],[-80.61875,50.79583],[-80.625,50.79583]]]}},{"type":"Feature","properties":{"c":"573060","o":"","e":""},"geometry":{"type":"Polygon","coordinates":[[[-80.625,50.8],[-80.625,50.80417],[-80.61875,50.80417],[-80.61875,50.8],[-80.625,50.8]]]}},{"type":"Feature","properties":{"c":"573061","o":"","e":""},"geometry":{"type":"Polygon","coordinates":[[[-80.6,50.79583],[-80.6,50.8],[-80.59375,50.8],[-80.59375,50.79583],[-80.6,50.79583]]]}},{"type":"Feature","properties":{"c":"573062","o":"","e":""},"geometry":{"type":"Polygon","coordinates":[[[-80.5875,50.8],[-80.5875,50.80417],[-80.58125,50.80417],[-80.58125,50.8],[-80.5875,50.8]]]}},{"type":"Feature","properties":{"c":"573063","o":"","e":""},"geometry":{"type":"Polygon","coordinates":[[[-80.6625,50.8],[-80.6625,50.80417],[-80.65625,50.80417],[-80.65625,50.8],[-80.6625,50.8]]]}},{"type":"Feature","properties":{"c":"573064","o":"","e":""},"geometry":{"type":"Polygon","coordinates":[[[-80.65,50.79583],[-80.65,50.8],[-80.64375,50.8],[-80.64375,50.79583],[-80.65,50.79583]]]}},{"type":"Feature","properties":{"c":"573065","o":"","e":""},"geometry":{"type":"Polygon","coordinates":[[[-80.64375,50.79583],[-80.64375,50.8],[-80.6375,50.8],[-80.6375,50.79583],[-80.64375,50.79583]]]}},{"type":"Feature","properties":{"c":"573066","o":"","e":""},"geometry":{"type":"Polygon","coordinates":[[[-80.60625,50.8],[-80.60625,50.80417],[-80.6,50.80417],[-80.6,50.8],[-80.60625,50.8]]]}},{"type":"Feature","properties":{"c":"573067","o":"","e":""},"geometry":{"type":"Polygon","coordinates":[[[-80.63125,50.8],[-80.63125,50.80417],[-80.625,50.80417],[-80.625,50.8],[-80.63125,50.8]]]}},{"type":"Feature","properties":{"c":"573068","o":"","e":""},"geometry":{"type":"Polygon","coordinates":[[[-80.6125,50.8],[-80.6125,50.80417],[-80.60625,50.80417],[-80.60625,50.8],[-80.6125,50.8]]]}},{"type":"Feature","properties":{"c":"573069","o":"","e":""},"geometry":{"type":"Polygon","coordinates":[[[-80.5875,50.79583],[-80.5875,50.8],[-80.58125,50.8],[-80.58125,50.79583],[-80.5875,50.79583]]]}},{"type":"Feature","properties":{"c":"572965","o":"","e":""},"geometry":{"type":"Polygon","coordinates":[[[-80.6375,50.77083],[-80.6375,50.775],[-80.63125,50.775],[-80.63125,50.77083],[-80.6375,50.77083]]]}},{"type":"Feature","properties":{"c":"572966","o":"","e":""},"geometry":{"type":"Polygon","coordinates":[[[-80.6125,50.77083],[-80.6125,50.775],[-80.60625,50.775],[-80.60625,50.77083],[-80.6125,50.77083]]]}},{"type":"Feature","properties":{"c":"572967","o":"","e":""},"geometry":{"type":"Polygon","coordinates":[[[-80.6125,50.775],[-80.6125,50.77917],[-80.60625,50.77917],[-80.60625,50.775],[-80.6125,50.775]]]}},{"type":"Feature","properties":{"c":"573074","o":"","e":""},"geometry":{"type":"Polygon","coordinates":[[[-80.61875,50.79167],[-80.61875,50.79583],[-80.6125,50.79583],[-80.6125,50.79167],[-80.61875,50.79167]]]}},{"type":"Feature","properties":{"c":"573073","o":"","e":""},"geometry":{"type":"Polygon","coordinates":[[[-80.65,50.79167],[-80.65,50.79583],[-80.64375,50.79583],[-80.64375,50.79167],[-80.65,50.79167]]]}},{"type":"Feature","properties":{"c":"573075","o":"","e":""},"geometry":{"type":"Polygon","coordinates":[[[-80.63125,50.79167],[-80.63125,50.79583],[-80.625,50.79583],[-80.625,50.79167],[-80.63125,50.79167]]]}},{"type":"Feature","properties":{"c":"573076","o":"","e":""},"geometry":{"type":"Polygon","coordinates":[[[-80.64375,50.79167],[-80.64375,50.79583],[-80.6375,50.79583],[-80.6375,50.79167],[-80.64375,50.79167]]]}},{"type":"Feature","properties":{"c":"573077","o":"","e":""},"geometry":{"type":"Polygon","coordinates":[[[-80.625,50.79167],[-80.625,50.79583],[-80.61875,50.79583],[-80.61875,50.79167],[-80.625,50.79167]]]}},{"type":"Feature","properties":{"c":"573083","o":"","e":""},"geometry":{"type":"Polygon","coordinates":[[[-80.64375,50.80417],[-80.64375,50.80833],[-80.6375,50.80833],[-80.6375,50.80417],[-80.64375,50.80417]]]}},{"type":"Feature","properties":{"c":"573078","o":"","e":""},"geometry":{"type":"Polygon","coordinates":[[[-80.6125,50.79167],[-80.6125,50.79583],[-80.60625,50.79583],[-80.60625,50.79167],[-80.6125,50.79167]]]}},{"type":"Feature","properties":{"c":"573079","o":"","e":""},"geometry":{"type":"Polygon","coordinates":[[[-80.5875,50.79167],[-80.5875,50.79583],[-80.58125,50.79583],[-80.58125,50.79167],[-80.5875,50.79167]]]}},{"type":"Feature","properties":{"c":"573080","o":"","e":""},"geometry":{"type":"Polygon","coordinates":[[[-80.58125,50.79167],[-80.58125,50.79583],[-80.575,50.79583],[-80.575,50.79167],[-80.58125,50.79167]]]}},{"type":"Feature","properties":{"c":"573081","o":"","e":""},"geometry":{"type":"Polygon","coordinates":[[[-80.6,50.79167],[-80.6,50.79583],[-80.59375,50.79583],[-80.59375,50.79167],[-80.6,50.79167]]]}},{"type":"Feature","properties":{"c":"573082","o":"","e":""},"geometry":{"type":"Polygon","coordinates":[[[-80.65,50.80417],[-80.65,50.80833],[-80.64375,50.80833],[-80.64375,50.80417],[-80.65,50.80417]]]}},{"type":"Feature","properties":{"c":"573084","o":"","e":""},"geometry":{"type":"Polygon","coordinates":[[[-80.675,50.80417],[-80.675,50.80833],[-80.66875,50.80833],[-80.66875,50.80417],[-80.675,50.80417]]]}},{"type":"Feature","properties":{"c":"573085","o":"","e":""},"geometry":{"type":"Polygon","coordinates":[[[-80.65625,50.80417],[-80.65625,50.80833],[-80.65,50.80833],[-80.65,50.80417],[-80.65625,50.80417]]]}},{"type":"Feature","properties":{"c":"573086","o":"","e":""},"geometry":{"type":"Polygon","coordinates":[[[-80.66875,50.80417],[-80.66875,50.80833],[-80.6625,50.80833],[-80.6625,50.80417],[-80.66875,50.80417]]]}},{"type":"Feature","properties":{"c":"573087","o":"","e":""},"geometry":{"type":"Polygon","coordinates":[[[-80.6625,50.80417],[-80.6625,50.80833],[-80.65625,50.80833],[-80.65625,50.80417],[-80.6625,50.80417]]]}},{"type":"Feature","properties":{"c":"572938","o":"","e":""},"geometry":{"type":"Polygon","coordinates":[[[-80.58125,50.76667],[-80.58125,50.77083],[-80.575,50.77083],[-80.575,50.76667],[-80.58125,50.76667]]]}},{"type":"Feature","properties":{"c":"572939","o":"","e":""},"geometry":{"type":"Polygon","coordinates":[[[-80.65625,50.76667],[-80.65625,50.77083],[-80.65,50.77083],[-80.65,50.76667],[-80.65625,50.76667]]]}},{"type":"Feature","properties":{"c":"572940","o":"","e":""},"geometry":{"type":"Polygon","coordinates":[[[-80.65,50.76667],[-80.65,50.77083],[-80.64375,50.77083],[-80.64375,50.76667],[-80.65,50.76667]]]}},{"type":"Feature","properties":{"c":"572941","o":"","e":""},"geometry":{"type":"Polygon","coordinates":[[[-80.5875,50.76667],[-80.5875,50.77083],[-80.58125,50.77083],[-80.58125,50.76667],[-80.5875,50.76667]]]}},{"type":"Feature","properties":{"c":"572942","o":"","e":""},"geometry":{"type":"Polygon","coordinates":[[[-80.6125,50.76667],[-80.6125,50.77083],[-80.60625,50.77083],[-80.60625,50.76667],[-80.6125,50.76667]]]}},{"type":"Feature","properties":{"c":"572943","o":"","e":""},"geometry":{"type":"Polygon","coordinates":[[[-80.59375,50.76667],[-80.59375,50.77083],[-80.5875,50.77083],[-80.5875,50.76667],[-80.59375,50.76667]]]}},{"type":"Feature","properties":{"c":"572944","o":"","e":""},"geometry":{"type":"Polygon","coordinates":[[[-80.66875,50.76667],[-80.66875,50.77083],[-80.6625,50.77083],[-80.6625,50.76667],[-80.66875,50.76667]]]}},{"type":"Feature","properties":{"c":"572945","o":"","e":""},"geometry":{"type":"Polygon","coordinates":[[[-80.6625,50.76667],[-80.6625,50.77083],[-80.65625,50.77083],[-80.65625,50.76667],[-80.6625,50.76667]]]}},{"type":"Feature","properties":{"c":"572946","o":"","e":""},"geometry":{"type":"Polygon","coordinates":[[[-80.625,50.76667],[-80.625,50.77083],[-80.61875,50.77083],[-80.61875,50.76667],[-80.625,50.76667]]]}},{"type":"Feature","properties":{"c":"572947","o":"","e":""},"geometry":{"type":"Polygon","coordinates":[[[-80.675,50.76667],[-80.675,50.77083],[-80.66875,50.77083],[-80.66875,50.76667],[-80.675,50.76667]]]}},{"type":"Feature","properties":{"c":"572968","o":"","e":""},"geometry":{"type":"Polygon","coordinates":[[[-80.64375,50.77083],[-80.64375,50.775],[-80.6375,50.775],[-80.6375,50.77083],[-80.64375,50.77083]]]}},{"type":"Feature","properties":{"c":"572969","o":"","e":""},"geometry":{"type":"Polygon","coordinates":[[[-80.61875,50.77083],[-80.61875,50.775],[-80.6125,50.775],[-80.6125,50.77083],[-80.61875,50.77083]]]}},{"type":"Feature","properties":{"c":"572970","o":"","e":""},"geometry":{"type":"Polygon","coordinates":[[[-80.66875,50.775],[-80.66875,50.77917],[-80.6625,50.77917],[-80.6625,50.775],[-80.66875,50.775]]]}},{"type":"Feature","properties":{"c":"572971","o":"","e":""},"geometry":{"type":"Polygon","coordinates":[[[-80.6,50.77083],[-80.6,50.775],[-80.59375,50.775],[-80.59375,50.77083],[-80.6,50.77083]]]}},{"type":"Feature","properties":{"c":"572972","o":"","e":""},"geometry":{"type":"Polygon","coordinates":[[[-80.59375,50.775],[-80.59375,50.77917],[-80.5875,50.77917],[-80.5875,50.775],[-80.59375,50.775]]]}},{"type":"Feature","properties":{"c":"572973","o":"","e":""},"geometry":{"type":"Polygon","coordinates":[[[-80.675,50.775],[-80.675,50.77917],[-80.66875,50.77917],[-80.66875,50.775],[-80.675,50.775]]]}},{"type":"Feature","properties":{"c":"572974","o":"","e":""},"geometry":{"type":"Polygon","coordinates":[[[-80.65625,50.775],[-80.65625,50.77917],[-80.65,50.77917],[-80.65,50.775],[-80.65625,50.775]]]}},{"type":"Feature","properties":{"c":"572975","o":"","e":""},"geometry":{"type":"Polygon","coordinates":[[[-80.63125,50.775],[-80.63125,50.77917],[-80.625,50.77917],[-80.625,50.775],[-80.63125,50.775]]]}},{"type":"Feature","properties":{"c":"572948","o":"","e":""},"geometry":{"type":"Polygon","coordinates":[[[-80.64375,50.76667],[-80.64375,50.77083],[-80.6375,50.77083],[-80.6375,50.76667],[-80.64375,50.76667]]]}},{"type":"Feature","properties":{"c":"572949","o":"","e":""},"geometry":{"type":"Polygon","coordinates":[[[-80.6375,50.76667],[-80.6375,50.77083],[-80.63125,50.77083],[-80.63125,50.76667],[-80.6375,50.76667]]]}},{"type":"Feature","properties":{"c":"572950","o":"","e":""},"geometry":{"type":"Polygon","coordinates":[[[-80.61875,50.76667],[-80.61875,50.77083],[-80.6125,50.77083],[-80.6125,50.76667],[-80.61875,50.76667]]]}},{"type":"Feature","properties":{"c":"572951","o":"","e":""},"geometry":{"type":"Polygon","coordinates":[[[-80.63125,50.76667],[-80.63125,50.77083],[-80.625,50.77083],[-80.625,50.76667],[-80.63125,50.76667]]]}},{"type":"Feature","properties":{"c":"572952","o":"","e":""},"geometry":{"type":"Polygon","coordinates":[[[-80.60625,50.76667],[-80.60625,50.77083],[-80.6,50.77083],[-80.6,50.76667],[-80.60625,50.76667]]]}},{"type":"Feature","properties":{"c":"572953","o":"","e":""},"geometry":{"type":"Polygon","coordinates":[[[-80.6,50.76667],[-80.6,50.77083],[-80.59375,50.77083],[-80.59375,50.76667],[-80.6,50.76667]]]}},{"type":"Feature","properties":{"c":"572954","o":"","e":""},"geometry":{"type":"Polygon","coordinates":[[[-80.65,50.775],[-80.65,50.77917],[-80.64375,50.77917],[-80.64375,50.775],[-80.65,50.775]]]}},{"type":"Feature","properties":{"c":"572955","o":"","e":""},"geometry":{"type":"Polygon","coordinates":[[[-80.63125,50.77083],[-80.63125,50.775],[-80.625,50.775],[-80.625,50.77083],[-80.63125,50.77083]]]}},{"type":"Feature","properties":{"c":"572956","o":"","e":""},"geometry":{"type":"Polygon","coordinates":[[[-80.625,50.775],[-80.625,50.77917],[-80.61875,50.77917],[-80.61875,50.775],[-80.625,50.775]]]}},{"type":"Feature","properties":{"c":"572957","o":"","e":""},"geometry":{"type":"Polygon","coordinates":[[[-80.61875,50.775],[-80.61875,50.77917],[-80.6125,50.77917],[-80.6125,50.775],[-80.61875,50.775]]]}},{"type":"Feature","properties":{"c":"572959","o":"","e":""},"geometry":{"type":"Polygon","coordinates":[[[-80.5875,50.77083],[-80.5875,50.775],[-80.58125,50.775],[-80.58125,50.77083],[-80.5875,50.77083]]]}},{"type":"Feature","properties":{"c":"572958","o":"","e":""},"geometry":{"type":"Polygon","coordinates":[[[-80.60625,50.775],[-80.60625,50.77917],[-80.6,50.77917],[-80.6,50.775],[-80.60625,50.775]]]}},{"type":"Feature","properties":{"c":"572960","o":"","e":""},"geometry":{"type":"Polygon","coordinates":[[[-80.58125,50.775],[-80.58125,50.77917],[-80.575,50.77917],[-80.575,50.775],[-80.58125,50.775]]]}},{"type":"Feature","properties":{"c":"572961","o":"","e":""},"geometry":{"type":"Polygon","coordinates":[[[-80.6625,50.77083],[-80.6625,50.775],[-80.65625,50.775],[-80.65625,50.77083],[-80.6625,50.77083]]]}},{"type":"Feature","properties":{"c":"572962","o":"","e":""},"geometry":{"type":"Polygon","coordinates":[[[-80.65625,50.77083],[-80.65625,50.775],[-80.65,50.775],[-80.65,50.77083],[-80.65625,50.77083]]]}},{"type":"Feature","properties":{"c":"572963","o":"","e":""},"geometry":{"type":"Polygon","coordinates":[[[-80.65,50.77083],[-80.65,50.775],[-80.64375,50.775],[-80.64375,50.77083],[-80.65,50.77083]]]}},{"type":"Feature","properties":{"c":"572964","o":"","e":""},"geometry":{"type":"Polygon","coordinates":[[[-80.6625,50.775],[-80.6625,50.77917],[-80.65625,50.77917],[-80.65625,50.775],[-80.6625,50.775]]]}},{"type":"Feature","properties":{"c":"572976","o":"","e":""},"geometry":{"type":"Polygon","coordinates":[[[-80.625,50.77083],[-80.625,50.775],[-80.61875,50.775],[-80.61875,50.77083],[-80.625,50.77083]]]}},{"type":"Feature","properties":{"c":"572977","o":"","e":""},"geometry":{"type":"Polygon","coordinates":[[[-80.60625,50.77083],[-80.60625,50.775],[-80.6,50.775],[-80.6,50.77083],[-80.60625,50.77083]]]}},{"type":"Feature","properties":{"c":"572978","o":"","e":""},"geometry":{"type":"Polygon","coordinates":[[[-80.6,50.775],[-80.6,50.77917],[-80.59375,50.77917],[-80.59375,50.775],[-80.6,50.775]]]}},{"type":"Feature","properties":{"c":"572979","o":"","e":""},"geometry":{"type":"Polygon","coordinates":[[[-80.59375,50.77083],[-80.59375,50.775],[-80.5875,50.775],[-80.5875,50.77083],[-80.59375,50.77083]]]}},{"type":"Feature","properties":{"c":"572980","o":"","e":""},"geometry":{"type":"Polygon","coordinates":[[[-80.58125,50.77083],[-80.58125,50.775],[-80.575,50.775],[-80.575,50.77083],[-80.58125,50.77083]]]}},{"type":"Feature","properties":{"c":"572981","o":"","e":""},"geometry":{"type":"Polygon","coordinates":[[[-80.675,50.77083],[-80.675,50.775],[-80.66875,50.775],[-80.66875,50.77083],[-80.675,50.77083]]]}},{"type":"Feature","properties":{"c":"572982","o":"","e":""},"geometry":{"type":"Polygon","coordinates":[[[-80.66875,50.77083],[-80.66875,50.775],[-80.6625,50.775],[-80.6625,50.77083],[-80.66875,50.77083]]]}},{"type":"Feature","properties":{"c":"572983","o":"","e":""},"geometry":{"type":"Polygon","coordinates":[[[-80.6375,50.775],[-80.6375,50.77917],[-80.63125,50.77917],[-80.63125,50.775],[-80.6375,50.775]]]}},{"type":"Feature","properties":{"c":"572984","o":"","e":""},"geometry":{"type":"Polygon","coordinates":[[[-80.5875,50.775],[-80.5875,50.77917],[-80.58125,50.77917],[-80.58125,50.775],[-80.5875,50.775]]]}},{"type":"Feature","properties":{"c":"572985","o":"","e":""},"geometry":{"type":"Polygon","coordinates":[[[-80.64375,50.775],[-80.64375,50.77917],[-80.6375,50.77917],[-80.6375,50.775],[-80.64375,50.775]]]}},{"type":"Feature","properties":{"c":"572986","o":"","e":""},"geometry":{"type":"Polygon","coordinates":[[[-80.66875,50.77917],[-80.66875,50.78333],[-80.6625,50.78333],[-80.6625,50.77917],[-80.66875,50.77917]]]}},{"type":"Feature","properties":{"c":"572987","o":"","e":""},"geometry":{"type":"Polygon","coordinates":[[[-80.675,50.77917],[-80.675,50.78333],[-80.66875,50.78333],[-80.66875,50.77917],[-80.675,50.77917]]]}},{"type":"Feature","properties":{"c":"573005","o":"","e":""},"geometry":{"type":"Polygon","coordinates":[[[-80.6,50.7875],[-80.6,50.79167],[-80.59375,50.79167],[-80.59375,50.7875],[-80.6,50.7875]]]}},{"type":"Feature","properties":{"c":"573006","o":"","e":""},"geometry":{"type":"Polygon","coordinates":[[[-80.5875,50.7875],[-80.5875,50.79167],[-80.58125,50.79167],[-80.58125,50.7875],[-80.5875,50.7875]]]}},{"type":"Feature","properties":{"c":"573007","o":"","e":""},"geometry":{"type":"Polygon","coordinates":[[[-80.625,50.7875],[-80.625,50.79167],[-80.61875,50.79167],[-80.61875,50.7875],[-80.625,50.7875]]]}},{"type":"Feature","properties":{"c":"573008","o":"","e":""},"geometry":{"type":"Polygon","coordinates":[[[-80.625,50.78333],[-80.625,50.7875],[-80.61875,50.7875],[-80.61875,50.78333],[-80.625,50.78333]]]}},{"type":"Feature","properties":{"c":"573009","o":"","e":""},"geometry":{"type":"Polygon","coordinates":[[[-80.61875,50.78333],[-80.61875,50.7875],[-80.6125,50.7875],[-80.6125,50.78333],[-80.61875,50.78333]]]}},{"type":"Feature","properties":{"c":"573010","o":"","e":""},"geometry":{"type":"Polygon","coordinates":[[[-80.60625,50.7875],[-80.60625,50.79167],[-80.6,50.79167],[-80.6,50.7875],[-80.60625,50.7875]]]}},{"type":"Feature","properties":{"c":"573011","o":"","e":""},"geometry":{"type":"Polygon","coordinates":[[[-80.6625,50.7875],[-80.6625,50.79167],[-80.65625,50.79167],[-80.65625,50.7875],[-80.6625,50.7875]]]}},{"type":"Feature","properties":{"c":"573012","o":"","e":""},"geometry":{"type":"Polygon","coordinates":[[[-80.63125,50.78333],[-80.63125,50.7875],[-80.625,50.7875],[-80.625,50.78333],[-80.63125,50.78333]]]}},{"type":"Feature","properties":{"c":"573013","o":"","e":""},"geometry":{"type":"Polygon","coordinates":[[[-80.6,50.78333],[-80.6,50.7875],[-80.59375,50.7875],[-80.59375,50.78333],[-80.6,50.78333]]]}},{"type":"Feature","properties":{"c":"573014","o":"","e":""},"geometry":{"type":"Polygon","coordinates":[[[-80.59375,50.78333],[-80.59375,50.7875],[-80.5875,50.7875],[-80.5875,50.78333],[-80.59375,50.78333]]]}},{"type":"Feature","properties":{"c":"573015","o":"","e":""},"geometry":{"type":"Polygon","coordinates":[[[-80.59375,50.7875],[-80.59375,50.79167],[-80.5875,50.79167],[-80.5875,50.7875],[-80.59375,50.7875]]]}},{"type":"Feature","properties":{"c":"573016","o":"","e":""},"geometry":{"type":"Polygon","coordinates":[[[-80.675,50.78333],[-80.675,50.7875],[-80.66875,50.7875],[-80.66875,50.78333],[-80.675,50.78333]]]}},{"type":"Feature","properties":{"c":"573025","o":"","e":""},"geometry":{"type":"Polygon","coordinates":[[[-80.58125,50.77917],[-80.58125,50.78333],[-80.575,50.78333],[-80.575,50.77917],[-80.58125,50.77917]]]}},{"type":"Feature","properties":{"c":"573017","o":"","e":""},"geometry":{"type":"Polygon","coordinates":[[[-80.66875,50.7875],[-80.66875,50.79167],[-80.6625,50.79167],[-80.6625,50.7875],[-80.66875,50.7875]]]}},{"type":"Feature","properties":{"c":"573018","o":"","e":""},"geometry":{"type":"Polygon","coordinates":[[[-80.6625,50.78333],[-80.6625,50.7875],[-80.65625,50.7875],[-80.65625,50.78333],[-80.6625,50.78333]]]}},{"type":"Feature","properties":{"c":"573019","o":"","e":""},"geometry":{"type":"Polygon","coordinates":[[[-80.65,50.7875],[-80.65,50.79167],[-80.64375,50.79167],[-80.64375,50.7875],[-80.65,50.7875]]]}},{"type":"Feature","properties":{"c":"573020","o":"","e":""},"geometry":{"type":"Polygon","coordinates":[[[-80.6,50.77917],[-80.6,50.78333],[-80.59375,50.78333],[-80.59375,50.77917],[-80.6,50.77917]]]}},{"type":"Feature","properties":{"c":"573021","o":"","e":""},"geometry":{"type":"Polygon","coordinates":[[[-80.6625,50.77917],[-80.6625,50.78333],[-80.65625,50.78333],[-80.65625,50.77917],[-80.6625,50.77917]]]}},{"type":"Feature","properties":{"c":"573022","o":"","e":""},"geometry":{"type":"Polygon","coordinates":[[[-80.59375,50.77917],[-80.59375,50.78333],[-80.5875,50.78333],[-80.5875,50.77917],[-80.59375,50.77917]]]}},{"type":"Feature","properties":{"c":"573023","o":"","e":""},"geometry":{"type":"Polygon","coordinates":[[[-80.6125,50.77917],[-80.6125,50.78333],[-80.60625,50.78333],[-80.60625,50.77917],[-80.6125,50.77917]]]}},{"type":"Feature","properties":{"c":"573024","o":"","e":""},"geometry":{"type":"Polygon","coordinates":[[[-80.5875,50.77917],[-80.5875,50.78333],[-80.58125,50.78333],[-80.58125,50.77917],[-80.5875,50.77917]]]}},{"type":"Feature","properties":{"c":"573026","o":"","e":""},"geometry":{"type":"Polygon","coordinates":[[[-80.65625,50.77917],[-80.65625,50.78333],[-80.65,50.78333],[-80.65,50.77917],[-80.65625,50.77917]]]}},{"type":"Feature","properties":{"c":"573027","o":"","e":""},"geometry":{"type":"Polygon","coordinates":[[[-80.64375,50.77917],[-80.64375,50.78333],[-80.6375,50.78333],[-80.6375,50.77917],[-80.64375,50.77917]]]}},{"type":"Feature","properties":{"c":"573028","o":"","e":""},"geometry":{"type":"Polygon","coordinates":[[[-80.6375,50.77917],[-80.6375,50.78333],[-80.63125,50.78333],[-80.63125,50.77917],[-80.6375,50.77917]]]}},{"type":"Feature","properties":{"c":"573029","o":"","e":""},"geometry":{"type":"Polygon","coordinates":[[[-80.60625,50.77917],[-80.60625,50.78333],[-80.6,50.78333],[-80.6,50.77917],[-80.60625,50.77917]]]}},{"type":"Feature","properties":{"c":"573030","o":"","e":""},"geometry":{"type":"Polygon","coordinates":[[[-80.61875,50.77917],[-80.61875,50.78333],[-80.6125,50.78333],[-80.6125,50.77917],[-80.61875,50.77917]]]}},{"type":"Feature","properties":{"c":"573031","o":"","e":""},"geometry":{"type":"Polygon","coordinates":[[[-80.65,50.77917],[-80.65,50.78333],[-80.64375,50.78333],[-80.64375,50.77917],[-80.65,50.77917]]]}},{"type":"Feature","properties":{"c":"573032","o":"","e":""},"geometry":{"type":"Polygon","coordinates":[[[-80.63125,50.77917],[-80.63125,50.78333],[-80.625,50.78333],[-80.625,50.77917],[-80.63125,50.77917]]]}},{"type":"Feature","properties":{"c":"573033","o":"","e":""},"geometry":{"type":"Polygon","coordinates":[[[-80.625,50.77917],[-80.625,50.78333],[-80.61875,50.78333],[-80.61875,50.77917],[-80.625,50.77917]]]}},{"type":"Feature","properties":{"c":"573034","o":"","e":""},"geometry":{"type":"Polygon","coordinates":[[[-80.66875,50.79167],[-80.66875,50.79583],[-80.6625,50.79583],[-80.6625,50.79167],[-80.66875,50.79167]]]}},{"type":"Feature","properties":{"c":"573035","o":"","e":""},"geometry":{"type":"Polygon","coordinates":[[[-80.675,50.79167],[-80.675,50.79583],[-80.66875,50.79583],[-80.66875,50.79167],[-80.675,50.79167]]]}},{"type":"Feature","properties":{"c":"573036","o":"","e":""},"geometry":{"type":"Polygon","coordinates":[[[-80.65625,50.79167],[-80.65625,50.79583],[-80.65,50.79583],[-80.65,50.79167],[-80.65625,50.79167]]]}},{"type":"Feature","properties":{"c":"573037","o":"","e":""},"geometry":{"type":"Polygon","coordinates":[[[-80.6625,50.79167],[-80.6625,50.79583],[-80.65625,50.79583],[-80.65625,50.79167],[-80.6625,50.79167]]]}},{"type":"Feature","properties":{"c":"572988","o":"","e":""},"geometry":{"type":"Polygon","coordinates":[[[-80.6375,50.7875],[-80.6375,50.79167],[-80.63125,50.79167],[-80.63125,50.7875],[-80.6375,50.7875]]]}},{"type":"Feature","properties":{"c":"572989","o":"","e":""},"geometry":{"type":"Polygon","coordinates":[[[-80.6125,50.78333],[-80.6125,50.7875],[-80.60625,50.7875],[-80.60625,50.78333],[-80.6125,50.78333]]]}},{"type":"Feature","properties":{"c":"572990","o":"","e":""},"geometry":{"type":"Polygon","coordinates":[[[-80.60625,50.78333],[-80.60625,50.7875],[-80.6,50.7875],[-80.6,50.78333],[-80.60625,50.78333]]]}},{"type":"Feature","properties":{"c":"572991","o":"","e":""},"geometry":{"type":"Polygon","coordinates":[[[-80.5875,50.78333],[-80.5875,50.7875],[-80.58125,50.7875],[-80.58125,50.78333],[-80.5875,50.78333]]]}},{"type":"Feature","properties":{"c":"572992","o":"","e":""},"geometry":{"type":"Polygon","coordinates":[[[-80.65625,50.7875],[-80.65625,50.79167],[-80.65,50.79167],[-80.65,50.7875],[-80.65625,50.7875]]]}},{"type":"Feature","properties":{"c":"572993","o":"","e":""},"geometry":{"type":"Polygon","coordinates":[[[-80.65,50.78333],[-80.65,50.7875],[-80.64375,50.7875],[-80.64375,50.78333],[-80.65,50.78333]]]}},{"type":"Feature","properties":{"c":"572995","o":"","e":""},"geometry":{"type":"Polygon","coordinates":[[[-80.58125,50.7875],[-80.58125,50.79167],[-80.575,50.79167],[-80.575,50.7875],[-80.58125,50.7875]]]}},{"type":"Feature","properties":{"c":"572994","o":"","e":""},"geometry":{"type":"Polygon","coordinates":[[[-80.64375,50.78333],[-80.64375,50.7875],[-80.6375,50.7875],[-80.6375,50.78333],[-80.64375,50.78333]]]}},{"type":"Feature","properties":{"c":"572996","o":"","e":""},"geometry":{"type":"Polygon","coordinates":[[[-80.66875,50.78333],[-80.66875,50.7875],[-80.6625,50.7875],[-80.6625,50.78333],[-80.66875,50.78333]]]}},{"type":"Feature","properties":{"c":"572997","o":"","e":""},"geometry":{"type":"Polygon","coordinates":[[[-80.65625,50.78333],[-80.65625,50.7875],[-80.65,50.7875],[-80.65,50.78333],[-80.65625,50.78333]]]}},{"type":"Feature","properties":{"c":"572998","o":"","e":""},"geometry":{"type":"Polygon","coordinates":[[[-80.64375,50.7875],[-80.64375,50.79167],[-80.6375,50.79167],[-80.6375,50.7875],[-80.64375,50.7875]]]}},{"type":"Feature","properties":{"c":"572999","o":"","e":""},"geometry":{"type":"Polygon","coordinates":[[[-80.6375,50.78333],[-80.6375,50.7875],[-80.63125,50.7875],[-80.63125,50.78333],[-80.6375,50.78333]]]}},{"type":"Feature","properties":{"c":"573000","o":"","e":""},"geometry":{"type":"Polygon","coordinates":[[[-80.61875,50.7875],[-80.61875,50.79167],[-80.6125,50.79167],[-80.6125,50.7875],[-80.61875,50.7875]]]}},{"type":"Feature","properties":{"c":"573001","o":"","e":""},"geometry":{"type":"Polygon","coordinates":[[[-80.6125,50.7875],[-80.6125,50.79167],[-80.60625,50.79167],[-80.60625,50.7875],[-80.6125,50.7875]]]}},{"type":"Feature","properties":{"c":"573002","o":"","e":""},"geometry":{"type":"Polygon","coordinates":[[[-80.58125,50.78333],[-80.58125,50.7875],[-80.575,50.7875],[-80.575,50.78333],[-80.58125,50.78333]]]}},{"type":"Feature","properties":{"c":"573003","o":"","e":""},"geometry":{"type":"Polygon","coordinates":[[[-80.675,50.7875],[-80.675,50.79167],[-80.66875,50.79167],[-80.66875,50.7875],[-80.675,50.7875]]]}},{"type":"Feature","properties":{"c":"573004","o":"","e":""},"geometry":{"type":"Polygon","coordinates":[[[-80.63125,50.7875],[-80.63125,50.79167],[-80.625,50.79167],[-80.625,50.7875],[-80.63125,50.7875]]]}},{"type":"Feature","properties":{"c":"573205","o":"","e":""},"geometry":{"type":"Polygon","coordinates":[[[-80.59375,50.85417],[-80.59375,50.85833],[-80.5875,50.85833],[-80.5875,50.85417],[-80.59375,50.85417]]]}},{"type":"Feature","properties":{"c":"573206","o":"","e":""},"geometry":{"type":"Polygon","coordinates":[[[-80.60625,50.85833],[-80.60625,50.8625],[-80.6,50.8625],[-80.6,50.85833],[-80.60625,50.85833]]]}},{"type":"Feature","properties":{"c":"573207","o":"","e":""},"geometry":{"type":"Polygon","coordinates":[[[-80.6,50.85417],[-80.6,50.85833],[-80.59375,50.85833],[-80.59375,50.85417],[-80.6,50.85417]]]}},{"type":"Feature","properties":{"c":"573208","o":"","e":""},"geometry":{"type":"Polygon","coordinates":[[[-80.60625,50.85417],[-80.60625,50.85833],[-80.6,50.85833],[-80.6,50.85417],[-80.60625,50.85417]]]}},{"type":"Feature","properties":{"c":"573209","o":"","e":""},"geometry":{"type":"Polygon","coordinates":[[[-80.5875,50.85833],[-80.5875,50.8625],[-80.58125,50.8625],[-80.58125,50.85833],[-80.5875,50.85833]]]}},{"type":"Feature","properties":{"c":"573210","o":"","e":""},"geometry":{"type":"Polygon","coordinates":[[[-80.6,50.8625],[-80.6,50.86667],[-80.59375,50.86667],[-80.59375,50.8625],[-80.6,50.8625]]]}},{"type":"Feature","properties":{"c":"573211","o":"","e":""},"geometry":{"type":"Polygon","coordinates":[[[-80.59375,50.8625],[-80.59375,50.86667],[-80.5875,50.86667],[-80.5875,50.8625],[-80.59375,50.8625]]]}},{"type":"Feature","properties":{"c":"573212","o":"","e":""},"geometry":{"type":"Polygon","coordinates":[[[-80.5875,50.8625],[-80.5875,50.86667],[-80.58125,50.86667],[-80.58125,50.8625],[-80.5875,50.8625]]]}},{"type":"Feature","properties":{"c":"573213","o":"","e":""},"geometry":{"type":"Polygon","coordinates":[[[-80.6,50.86667],[-80.6,50.87083],[-80.59375,50.87083],[-80.59375,50.86667],[-80.6,50.86667]]]}},{"type":"Feature","properties":{"c":"573214","o":"","e":""},"geometry":{"type":"Polygon","coordinates":[[[-80.59375,50.86667],[-80.59375,50.87083],[-80.5875,50.87083],[-80.5875,50.86667],[-80.59375,50.86667]]]}},{"type":"Feature","properties":{"c":"573216","o":"","e":""},"geometry":{"type":"Polygon","coordinates":[[[-80.5875,50.875],[-80.5875,50.87917],[-80.58125,50.87917],[-80.58125,50.875],[-80.5875,50.875]]]}},{"type":"Feature","properties":{"c":"573215","o":"","e":""},"geometry":{"type":"Polygon","coordinates":[[[-80.5875,50.86667],[-80.5875,50.87083],[-80.58125,50.87083],[-80.58125,50.86667],[-80.5875,50.86667]]]}},{"type":"Feature","properties":{"c":"573217","o":"","e":""},"geometry":{"type":"Polygon","coordinates":[[[-80.59375,50.87083],[-80.59375,50.875],[-80.5875,50.875],[-80.5875,50.87083],[-80.59375,50.87083]]]}},{"type":"Feature","properties":{"c":"573218","o":"","e":""},"geometry":{"type":"Polygon","coordinates":[[[-80.59375,50.87917],[-80.59375,50.88333],[-80.5875,50.88333],[-80.5875,50.87917],[-80.59375,50.87917]]]}},{"type":"Feature","properties":{"c":"573219","o":"","e":""},"geometry":{"type":"Polygon","coordinates":[[[-80.5875,50.87917],[-80.5875,50.88333],[-80.58125,50.88333],[-80.58125,50.87917],[-80.5875,50.87917]]]}},{"type":"Feature","properties":{"c":"573220","o":"","e":""},"geometry":{"type":"Polygon","coordinates":[[[-80.5875,50.87083],[-80.5875,50.875],[-80.58125,50.875],[-80.58125,50.87083],[-80.5875,50.87083]]]}},{"type":"Feature","properties":{"c":"573221","o":"","e":""},"geometry":{"type":"Polygon","coordinates":[[[-80.59375,50.875],[-80.59375,50.87917],[-80.5875,50.87917],[-80.5875,50.875],[-80.59375,50.875]]]}},{"type":"Feature","properties":{"c":"573222","o":"","e":""},"geometry":{"type":"Polygon","coordinates":[[[-80.5875,50.88333],[-80.5875,50.8875],[-80.58125,50.8875],[-80.58125,50.88333],[-80.5875,50.88333]]]}},{"type":"Feature","properties":{"c":"573223","o":"","e":""},"geometry":{"type":"Polygon","coordinates":[[[-80.59375,50.88333],[-80.59375,50.8875],[-80.5875,50.8875],[-80.5875,50.88333],[-80.59375,50.88333]]]}},{"type":"Feature","properties":{"c":"573224","o":"","e":""},"geometry":{"type":"Polygon","coordinates":[[[-80.5875,50.8875],[-80.5875,50.89167],[-80.58125,50.89167],[-80.58125,50.8875],[-80.5875,50.8875]]]}},{"type":"Feature","properties":{"c":"573225","o":"","e":""},"geometry":{"type":"Polygon","coordinates":[[[-80.6,50.89167],[-80.6,50.89583],[-80.59375,50.89583],[-80.59375,50.89167],[-80.6,50.89167]]]}},{"type":"Feature","properties":{"c":"573226","o":"","e":""},"geometry":{"type":"Polygon","coordinates":[[[-80.6,50.8875],[-80.6,50.89167],[-80.59375,50.89167],[-80.59375,50.8875],[-80.6,50.8875]]]}},{"type":"Feature","properties":{"c":"573227","o":"","e":""},"geometry":{"type":"Polygon","coordinates":[[[-80.5875,50.89167],[-80.5875,50.89583],[-80.58125,50.89583],[-80.58125,50.89167],[-80.5875,50.89167]]]}},{"type":"Feature","properties":{"c":"573228","o":"","e":""},"geometry":{"type":"Polygon","coordinates":[[[-80.59375,50.8875],[-80.59375,50.89167],[-80.5875,50.89167],[-80.5875,50.8875],[-80.59375,50.8875]]]}},{"type":"Feature","properties":{"c":"573229","o":"","e":""},"geometry":{"type":"Polygon","coordinates":[[[-80.60625,50.8875],[-80.60625,50.89167],[-80.6,50.89167],[-80.6,50.8875],[-80.60625,50.8875]]]}},{"type":"Feature","properties":{"c":"573230","o":"","e":""},"geometry":{"type":"Polygon","coordinates":[[[-80.59375,50.89167],[-80.59375,50.89583],[-80.5875,50.89583],[-80.5875,50.89167],[-80.59375,50.89167]]]}},{"type":"Feature","properties":{"c":"573231","o":"","e":""},"geometry":{"type":"Polygon","coordinates":[[[-80.60625,50.89167],[-80.60625,50.89583],[-80.6,50.89583],[-80.6,50.89167],[-80.60625,50.89167]]]}},{"type":"Feature","properties":{"c":"573232","o":"","e":""},"geometry":{"type":"Polygon","coordinates":[[[-80.61875,50.88333],[-80.61875,50.8875],[-80.6125,50.8875],[-80.6125,50.88333],[-80.61875,50.88333]]]}},{"type":"Feature","properties":{"c":"573233","o":"","e":""},"geometry":{"type":"Polygon","coordinates":[[[-80.6125,50.89167],[-80.6125,50.89583],[-80.60625,50.89583],[-80.60625,50.89167],[-80.6125,50.89167]]]}},{"type":"Feature","properties":{"c":"573234","o":"","e":""},"geometry":{"type":"Polygon","coordinates":[[[-80.61875,50.8875],[-80.61875,50.89167],[-80.6125,50.89167],[-80.6125,50.8875],[-80.61875,50.8875]]]}},{"type":"Feature","properties":{"c":"573235","o":"","e":""},"geometry":{"type":"Polygon","coordinates":[[[-80.61875,50.89167],[-80.61875,50.89583],[-80.6125,50.89583],[-80.6125,50.89167],[-80.61875,50.89167]]]}},{"type":"Feature","properties":{"c":"573236","o":"","e":""},"geometry":{"type":"Polygon","coordinates":[[[-80.6125,50.8875],[-80.6125,50.89167],[-80.60625,50.89167],[-80.60625,50.8875],[-80.6125,50.8875]]]}},{"type":"Feature","properties":{"c":"573237","o":"","e":""},"geometry":{"type":"Polygon","coordinates":[[[-80.6125,50.88333],[-80.6125,50.8875],[-80.60625,50.8875],[-80.60625,50.88333],[-80.6125,50.88333]]]}},{"type":"Feature","properties":{"c":"573238","o":"","e":""},"geometry":{"type":"Polygon","coordinates":[[[-80.625,50.88333],[-80.625,50.8875],[-80.61875,50.8875],[-80.61875,50.88333],[-80.625,50.88333]]]}},{"type":"Feature","properties":{"c":"573239","o":"","e":""},"geometry":{"type":"Polygon","coordinates":[[[-80.625,50.8875],[-80.625,50.89167],[-80.61875,50.89167],[-80.61875,50.8875],[-80.625,50.8875]]]}},{"type":"Feature","properties":{"c":"573190","o":"","e":""},"geometry":{"type":"Polygon","coordinates":[[[-80.60625,50.84167],[-80.60625,50.84583],[-80.6,50.84583],[-80.6,50.84167],[-80.60625,50.84167]]]}},{"type":"Feature","properties":{"c":"573191","o":"","e":""},"geometry":{"type":"Polygon","coordinates":[[[-80.59375,50.84167],[-80.59375,50.84583],[-80.5875,50.84583],[-80.5875,50.84167],[-80.59375,50.84167]]]}},{"type":"Feature","properties":{"c":"573192","o":"","e":""},"geometry":{"type":"Polygon","coordinates":[[[-80.5875,50.84167],[-80.5875,50.84583],[-80.58125,50.84583],[-80.58125,50.84167],[-80.5875,50.84167]]]}},{"type":"Feature","properties":{"c":"573193","o":"","e":""},"geometry":{"type":"Polygon","coordinates":[[[-80.6,50.84167],[-80.6,50.84583],[-80.59375,50.84583],[-80.59375,50.84167],[-80.6,50.84167]]]}},{"type":"Feature","properties":{"c":"573194","o":"","e":""},"geometry":{"type":"Polygon","coordinates":[[[-80.59375,50.85],[-80.59375,50.85417],[-80.5875,50.85417],[-80.5875,50.85],[-80.59375,50.85]]]}},{"type":"Feature","properties":{"c":"573195","o":"","e":""},"geometry":{"type":"Polygon","coordinates":[[[-80.5875,50.84583],[-80.5875,50.85],[-80.58125,50.85],[-80.58125,50.84583],[-80.5875,50.84583]]]}},{"type":"Feature","properties":{"c":"573196","o":"","e":""},"geometry":{"type":"Polygon","coordinates":[[[-80.5875,50.85],[-80.5875,50.85417],[-80.58125,50.85417],[-80.58125,50.85],[-80.5875,50.85]]]}},{"type":"Feature","properties":{"c":"573197","o":"","e":""},"geometry":{"type":"Polygon","coordinates":[[[-80.6,50.84583],[-80.6,50.85],[-80.59375,50.85],[-80.59375,50.84583],[-80.6,50.84583]]]}},{"type":"Feature","properties":{"c":"573198","o":"","e":""},"geometry":{"type":"Polygon","coordinates":[[[-80.59375,50.84583],[-80.59375,50.85],[-80.5875,50.85],[-80.5875,50.84583],[-80.59375,50.84583]]]}},{"type":"Feature","properties":{"c":"573199","o":"","e":""},"geometry":{"type":"Polygon","coordinates":[[[-80.60625,50.84583],[-80.60625,50.85],[-80.6,50.85],[-80.6,50.84583],[-80.60625,50.84583]]]}},{"type":"Feature","properties":{"c":"573200","o":"","e":""},"geometry":{"type":"Polygon","coordinates":[[[-80.60625,50.85],[-80.60625,50.85417],[-80.6,50.85417],[-80.6,50.85],[-80.60625,50.85]]]}},{"type":"Feature","properties":{"c":"573201","o":"","e":""},"geometry":{"type":"Polygon","coordinates":[[[-80.6,50.85],[-80.6,50.85417],[-80.59375,50.85417],[-80.59375,50.85],[-80.6,50.85]]]}},{"type":"Feature","properties":{"c":"573202","o":"","e":""},"geometry":{"type":"Polygon","coordinates":[[[-80.59375,50.85833],[-80.59375,50.8625],[-80.5875,50.8625],[-80.5875,50.85833],[-80.59375,50.85833]]]}},{"type":"Feature","properties":{"c":"573203","o":"","e":""},"geometry":{"type":"Polygon","coordinates":[[[-80.5875,50.85417],[-80.5875,50.85833],[-80.58125,50.85833],[-80.58125,50.85417],[-80.5875,50.85417]]]}},{"type":"Feature","properties":{"c":"573204","o":"","e":""},"geometry":{"type":"Polygon","coordinates":[[[-80.6,50.85833],[-80.6,50.8625],[-80.59375,50.8625],[-80.59375,50.85833],[-80.6,50.85833]]]}},{"type":"Feature","properties":{"c":"573172","o":"","e":""},"geometry":{"type":"Polygon","coordinates":[[[-80.6,50.82083],[-80.6,50.825],[-80.59375,50.825],[-80.59375,50.82083],[-80.6,50.82083]]]}},{"type":"Feature","properties":{"c":"573173","o":"","e":""},"geometry":{"type":"Polygon","coordinates":[[[-80.58125,50.82083],[-80.58125,50.825],[-80.575,50.825],[-80.575,50.82083],[-80.58125,50.82083]]]}},{"type":"Feature","properties":{"c":"573174","o":"","e":""},"geometry":{"type":"Polygon","coordinates":[[[-80.59375,50.82083],[-80.59375,50.825],[-80.5875,50.825],[-80.5875,50.82083],[-80.59375,50.82083]]]}},{"type":"Feature","properties":{"c":"573175","o":"","e":""},"geometry":{"type":"Polygon","coordinates":[[[-80.6,50.825],[-80.6,50.82917],[-80.59375,50.82917],[-80.59375,50.825],[-80.6,50.825]]]}},{"type":"Feature","properties":{"c":"573176","o":"","e":""},"geometry":{"type":"Polygon","coordinates":[[[-80.5875,50.825],[-80.5875,50.82917],[-80.58125,50.82917],[-80.58125,50.825],[-80.5875,50.825]]]}},{"type":"Feature","properties":{"c":"573177","o":"","e":""},"geometry":{"type":"Polygon","coordinates":[[[-80.59375,50.825],[-80.59375,50.82917],[-80.5875,50.82917],[-80.5875,50.825],[-80.59375,50.825]]]}},{"type":"Feature","properties":{"c":"573178","o":"","e":""},"geometry":{"type":"Polygon","coordinates":[[[-80.58125,50.825],[-80.58125,50.82917],[-80.575,50.82917],[-80.575,50.825],[-80.58125,50.825]]]}},{"type":"Feature","properties":{"c":"573179","o":"","e":""},"geometry":{"type":"Polygon","coordinates":[[[-80.6,50.82917],[-80.6,50.83333],[-80.59375,50.83333],[-80.59375,50.82917],[-80.6,50.82917]]]}},{"type":"Feature","properties":{"c":"573180","o":"","e":""},"geometry":{"type":"Polygon","coordinates":[[[-80.59375,50.82917],[-80.59375,50.83333],[-80.5875,50.83333],[-80.5875,50.82917],[-80.59375,50.82917]]]}},{"type":"Feature","properties":{"c":"573181","o":"","e":""},"geometry":{"type":"Polygon","coordinates":[[[-80.5875,50.82917],[-80.5875,50.83333],[-80.58125,50.83333],[-80.58125,50.82917],[-80.5875,50.82917]]]}},{"type":"Feature","properties":{"c":"573182","o":"","e":""},"geometry":{"type":"Polygon","coordinates":[[[-80.58125,50.82917],[-80.58125,50.83333],[-80.575,50.83333],[-80.575,50.82917],[-80.58125,50.82917]]]}},{"type":"Feature","properties":{"c":"573183","o":"","e":""},"geometry":{"type":"Polygon","coordinates":[[[-80.5875,50.83333],[-80.5875,50.8375],[-80.58125,50.8375],[-80.58125,50.83333],[-80.5875,50.83333]]]}},{"type":"Feature","properties":{"c":"573140","o":"","e":""},"geometry":{"type":"Polygon","coordinates":[[[-80.59375,50.80417],[-80.59375,50.80833],[-80.5875,50.80833],[-80.5875,50.80417],[-80.59375,50.80417]]]}},{"type":"Feature","properties":{"c":"573141","o":"","e":""},"geometry":{"type":"Polygon","coordinates":[[[-80.625,50.80417],[-80.625,50.80833],[-80.61875,50.80833],[-80.61875,50.80417],[-80.625,50.80417]]]}},{"type":"Feature","properties":{"c":"573142","o":"","e":""},"geometry":{"type":"Polygon","coordinates":[[[-80.60625,50.80417],[-80.60625,50.80833],[-80.6,50.80833],[-80.6,50.80417],[-80.60625,50.80417]]]}},{"type":"Feature","properties":{"c":"573143","o":"","e":""},"geometry":{"type":"Polygon","coordinates":[[[-80.58125,50.80417],[-80.58125,50.80833],[-80.575,50.80833],[-80.575,50.80417],[-80.58125,50.80417]]]}},{"type":"Feature","properties":{"c":"573144","o":"","e":""},"geometry":{"type":"Polygon","coordinates":[[[-80.6375,50.80417],[-80.6375,50.80833],[-80.63125,50.80833],[-80.63125,50.80417],[-80.6375,50.80417]]]}},{"type":"Feature","properties":{"c":"573145","o":"","e":""},"geometry":{"type":"Polygon","coordinates":[[[-80.6125,50.80417],[-80.6125,50.80833],[-80.60625,50.80833],[-80.60625,50.80417],[-80.6125,50.80417]]]}},{"type":"Feature","properties":{"c":"573146","o":"","e":""},"geometry":{"type":"Polygon","coordinates":[[[-80.63125,50.80417],[-80.63125,50.80833],[-80.625,50.80833],[-80.625,50.80417],[-80.63125,50.80417]]]}},{"type":"Feature","properties":{"c":"573184","o":"","e":""},"geometry":{"type":"Polygon","coordinates":[[[-80.6,50.8375],[-80.6,50.84167],[-80.59375,50.84167],[-80.59375,50.8375],[-80.6,50.8375]]]}},{"type":"Feature","properties":{"c":"573185","o":"","e":""},"geometry":{"type":"Polygon","coordinates":[[[-80.6,50.83333],[-80.6,50.8375],[-80.59375,50.8375],[-80.59375,50.83333],[-80.6,50.83333]]]}},{"type":"Feature","properties":{"c":"573186","o":"","e":""},"geometry":{"type":"Polygon","coordinates":[[[-80.59375,50.83333],[-80.59375,50.8375],[-80.5875,50.8375],[-80.5875,50.83333],[-80.59375,50.83333]]]}},{"type":"Feature","properties":{"c":"573187","o":"","e":""},"geometry":{"type":"Polygon","coordinates":[[[-80.5875,50.8375],[-80.5875,50.84167],[-80.58125,50.84167],[-80.58125,50.8375],[-80.5875,50.8375]]]}},{"type":"Feature","properties":{"c":"573188","o":"","e":""},"geometry":{"type":"Polygon","coordinates":[[[-80.59375,50.8375],[-80.59375,50.84167],[-80.5875,50.84167],[-80.5875,50.8375],[-80.59375,50.8375]]]}},{"type":"Feature","properties":{"c":"573189","o":"","e":""},"geometry":{"type":"Polygon","coordinates":[[[-80.58125,50.83333],[-80.58125,50.8375],[-80.575,50.8375],[-80.575,50.83333],[-80.58125,50.83333]]]}},{"type":"Feature","properties":{"c":"573147","o":"","e":""},"geometry":{"type":"Polygon","coordinates":[[[-80.6,50.80417],[-80.6,50.80833],[-80.59375,50.80833],[-80.59375,50.80417],[-80.6,50.80417]]]}},{"type":"Feature","properties":{"c":"573148","o":"","e":""},"geometry":{"type":"Polygon","coordinates":[[[-80.5875,50.80417],[-80.5875,50.80833],[-80.58125,50.80833],[-80.58125,50.80417],[-80.5875,50.80417]]]}},{"type":"Feature","properties":{"c":"573149","o":"","e":""},"geometry":{"type":"Polygon","coordinates":[[[-80.61875,50.80417],[-80.61875,50.80833],[-80.6125,50.80833],[-80.6125,50.80417],[-80.61875,50.80417]]]}},{"type":"Feature","properties":{"c":"573150","o":"","e":""},"geometry":{"type":"Polygon","coordinates":[[[-80.60625,50.80833],[-80.60625,50.8125],[-80.6,50.8125],[-80.6,50.80833],[-80.60625,50.80833]]]}},{"type":"Feature","properties":{"c":"573151","o":"","e":""},"geometry":{"type":"Polygon","coordinates":[[[-80.5875,50.80833],[-80.5875,50.8125],[-80.58125,50.8125],[-80.58125,50.80833],[-80.5875,50.80833]]]}},{"type":"Feature","properties":{"c":"573152","o":"","e":""},"geometry":{"type":"Polygon","coordinates":[[[-80.6,50.80833],[-80.6,50.8125],[-80.59375,50.8125],[-80.59375,50.80833],[-80.6,50.80833]]]}},{"type":"Feature","properties":{"c":"573153","o":"","e":""},"geometry":{"type":"Polygon","coordinates":[[[-80.61875,50.80833],[-80.61875,50.8125],[-80.6125,50.8125],[-80.6125,50.80833],[-80.61875,50.80833]]]}},{"type":"Feature","properties":{"c":"573154","o":"","e":""},"geometry":{"type":"Polygon","coordinates":[[[-80.59375,50.80833],[-80.59375,50.8125],[-80.5875,50.8125],[-80.5875,50.80833],[-80.59375,50.80833]]]}},{"type":"Feature","properties":{"c":"573155","o":"","e":""},"geometry":{"type":"Polygon","coordinates":[[[-80.6125,50.80833],[-80.6125,50.8125],[-80.60625,50.8125],[-80.60625,50.80833],[-80.6125,50.80833]]]}},{"type":"Feature","properties":{"c":"573156","o":"","e":""},"geometry":{"type":"Polygon","coordinates":[[[-80.58125,50.80833],[-80.58125,50.8125],[-80.575,50.8125],[-80.575,50.80833],[-80.58125,50.80833]]]}},{"type":"Feature","properties":{"c":"573157","o":"","e":""},"geometry":{"type":"Polygon","coordinates":[[[-80.5875,50.8125],[-80.5875,50.81667],[-80.58125,50.81667],[-80.58125,50.8125],[-80.5875,50.8125]]]}},{"type":"Feature","properties":{"c":"573158","o":"","e":""},"geometry":{"type":"Polygon","coordinates":[[[-80.6,50.8125],[-80.6,50.81667],[-80.59375,50.81667],[-80.59375,50.8125],[-80.6,50.8125]]]}},{"type":"Feature","properties":{"c":"573162","o":"","e":""},"geometry":{"type":"Polygon","coordinates":[[[-80.61875,50.8125],[-80.61875,50.81667],[-80.6125,50.81667],[-80.6125,50.8125],[-80.61875,50.8125]]]}},{"type":"Feature","properties":{"c":"573159","o":"","e":""},"geometry":{"type":"Polygon","coordinates":[[[-80.6125,50.8125],[-80.6125,50.81667],[-80.60625,50.81667],[-80.60625,50.8125],[-80.6125,50.8125]]]}},{"type":"Feature","properties":{"c":"573160","o":"","e":""},"geometry":{"type":"Polygon","coordinates":[[[-80.60625,50.8125],[-80.60625,50.81667],[-80.6,50.81667],[-80.6,50.8125],[-80.60625,50.8125]]]}},{"type":"Feature","properties":{"c":"573161","o":"","e":""},"geometry":{"type":"Polygon","coordinates":[[[-80.58125,50.8125],[-80.58125,50.81667],[-80.575,50.81667],[-80.575,50.8125],[-80.58125,50.8125]]]}},{"type":"Feature","properties":{"c":"573163","o":"","e":""},"geometry":{"type":"Polygon","coordinates":[[[-80.59375,50.8125],[-80.59375,50.81667],[-80.5875,50.81667],[-80.5875,50.8125],[-80.59375,50.8125]]]}},{"type":"Feature","properties":{"c":"573164","o":"","e":""},"geometry":{"type":"Polygon","coordinates":[[[-80.59375,50.81667],[-80.59375,50.82083],[-80.5875,50.82083],[-80.5875,50.81667],[-80.59375,50.81667]]]}},{"type":"Feature","properties":{"c":"573165","o":"","e":""},"geometry":{"type":"Polygon","coordinates":[[[-80.6125,50.81667],[-80.6125,50.82083],[-80.60625,50.82083],[-80.60625,50.81667],[-80.6125,50.81667]]]}},{"type":"Feature","properties":{"c":"573166","o":"","e":""},"geometry":{"type":"Polygon","coordinates":[[[-80.6,50.81667],[-80.6,50.82083],[-80.59375,50.82083],[-80.59375,50.81667],[-80.6,50.81667]]]}},{"type":"Feature","properties":{"c":"573167","o":"","e":""},"geometry":{"type":"Polygon","coordinates":[[[-80.58125,50.81667],[-80.58125,50.82083],[-80.575,50.82083],[-80.575,50.81667],[-80.58125,50.81667]]]}},{"type":"Feature","properties":{"c":"573168","o":"","e":""},"geometry":{"type":"Polygon","coordinates":[[[-80.60625,50.81667],[-80.60625,50.82083],[-80.6,50.82083],[-80.6,50.81667],[-80.60625,50.81667]]]}},{"type":"Feature","properties":{"c":"573169","o":"","e":""},"geometry":{"type":"Polygon","coordinates":[[[-80.5875,50.81667],[-80.5875,50.82083],[-80.58125,50.82083],[-80.58125,50.81667],[-80.5875,50.81667]]]}},{"type":"Feature","properties":{"c":"573170","o":"","e":""},"geometry":{"type":"Polygon","coordinates":[[[-80.5875,50.82083],[-80.5875,50.825],[-80.58125,50.825],[-80.58125,50.82083],[-80.5875,50.82083]]]}},{"type":"Feature","properties":{"c":"573171","o":"","e":""},"geometry":{"type":"Polygon","coordinates":[[[-80.60625,50.82083],[-80.60625,50.825],[-80.6,50.825],[-80.6,50.82083],[-80.60625,50.82083]]]}},{"type":"Feature","properties":{"c":"573101","o":"","e":""},"geometry":{"type":"Polygon","coordinates":[[[-80.6625,50.8125],[-80.6625,50.81667],[-80.65625,50.81667],[-80.65625,50.8125],[-80.6625,50.8125]]]}},{"type":"Feature","properties":{"c":"573102","o":"","e":""},"geometry":{"type":"Polygon","coordinates":[[[-80.65625,50.8125],[-80.65625,50.81667],[-80.65,50.81667],[-80.65,50.8125],[-80.65625,50.8125]]]}},{"type":"Feature","properties":{"c":"573103","o":"","e":""},"geometry":{"type":"Polygon","coordinates":[[[-80.675,50.80833],[-80.675,50.8125],[-80.66875,50.8125],[-80.66875,50.80833],[-80.675,50.80833]]]}},{"type":"Feature","properties":{"c":"573104","o":"","e":""},"geometry":{"type":"Polygon","coordinates":[[[-80.66875,50.80833],[-80.66875,50.8125],[-80.6625,50.8125],[-80.6625,50.80833],[-80.66875,50.80833]]]}},{"type":"Feature","properties":{"c":"573105","o":"","e":""},"geometry":{"type":"Polygon","coordinates":[[[-80.6625,50.80833],[-80.6625,50.8125],[-80.65625,50.8125],[-80.65625,50.80833],[-80.6625,50.80833]]]}},{"type":"Feature","properties":{"c":"573120","o":"","e":""},"geometry":{"type":"Polygon","coordinates":[[[-80.64375,50.85417],[-80.64375,50.85833],[-80.6375,50.85833],[-80.6375,50.85417],[-80.64375,50.85417]]]}},{"type":"Feature","properties":{"c":"573106","o":"","e":""},"geometry":{"type":"Polygon","coordinates":[[[-80.65625,50.80833],[-80.65625,50.8125],[-80.65,50.8125],[-80.65,50.80833],[-80.65625,50.80833]]]}},{"type":"Feature","properties":{"c":"573107","o":"","e":""},"geometry":{"type":"Polygon","coordinates":[[[-80.65,50.80833],[-80.65,50.8125],[-80.64375,50.8125],[-80.64375,50.80833],[-80.65,50.80833]]]}},{"type":"Feature","properties":{"c":"573108","o":"","e":""},"geometry":{"type":"Polygon","coordinates":[[[-80.64375,50.80833],[-80.64375,50.8125],[-80.6375,50.8125],[-80.6375,50.80833],[-80.64375,50.80833]]]}},{"type":"Feature","properties":{"c":"573109","o":"","e":""},"geometry":{"type":"Polygon","coordinates":[[[-80.65,50.82917],[-80.65,50.83333],[-80.64375,50.83333],[-80.64375,50.82917],[-80.65,50.82917]]]}},{"type":"Feature","properties":{"c":"573110","o":"","e":""},"geometry":{"type":"Polygon","coordinates":[[[-80.6625,50.82917],[-80.6625,50.83333],[-80.65625,50.83333],[-80.65625,50.82917],[-80.6625,50.82917]]]}},{"type":"Feature","properties":{"c":"573111","o":"","e":""},"geometry":{"type":"Polygon","coordinates":[[[-80.66875,50.82917],[-80.66875,50.83333],[-80.6625,50.83333],[-80.6625,50.82917],[-80.66875,50.82917]]]}},{"type":"Feature","properties":{"c":"573112","o":"","e":""},"geometry":{"type":"Polygon","coordinates":[[[-80.65625,50.82917],[-80.65625,50.83333],[-80.65,50.83333],[-80.65,50.82917],[-80.65625,50.82917]]]}},{"type":"Feature","properties":{"c":"573113","o":"","e":""},"geometry":{"type":"Polygon","coordinates":[[[-80.6625,50.83333],[-80.6625,50.8375],[-80.65625,50.8375],[-80.65625,50.83333],[-80.6625,50.83333]]]}},{"type":"Feature","properties":{"c":"573114","o":"","e":""},"geometry":{"type":"Polygon","coordinates":[[[-80.65625,50.83333],[-80.65625,50.8375],[-80.65,50.8375],[-80.65,50.83333],[-80.65625,50.83333]]]}},{"type":"Feature","properties":{"c":"573115","o":"","e":""},"geometry":{"type":"Polygon","coordinates":[[[-80.65,50.83333],[-80.65,50.8375],[-80.64375,50.8375],[-80.64375,50.83333],[-80.65,50.83333]]]}},{"type":"Feature","properties":{"c":"573116","o":"","e":""},"geometry":{"type":"Polygon","coordinates":[[[-80.6625,50.8375],[-80.6625,50.84167],[-80.65625,50.84167],[-80.65625,50.8375],[-80.6625,50.8375]]]}},{"type":"Feature","properties":{"c":"573117","o":"","e":""},"geometry":{"type":"Polygon","coordinates":[[[-80.65625,50.8375],[-80.65625,50.84167],[-80.65,50.84167],[-80.65,50.8375],[-80.65625,50.8375]]]}},{"type":"Feature","properties":{"c":"573118","o":"","e":""},"geometry":{"type":"Polygon","coordinates":[[[-80.65,50.8375],[-80.65,50.84167],[-80.64375,50.84167],[-80.64375,50.8375],[-80.65,50.8375]]]}},{"type":"Feature","properties":{"c":"573119","o":"","e":""},"geometry":{"type":"Polygon","coordinates":[[[-80.65625,50.85],[-80.65625,50.85417],[-80.65,50.85417],[-80.65,50.85],[-80.65625,50.85]]]}},{"type":"Feature","properties":{"c":"573121","o":"","e":""},"geometry":{"type":"Polygon","coordinates":[[[-80.65625,50.85417],[-80.65625,50.85833],[-80.65,50.85833],[-80.65,50.85417],[-80.65625,50.85417]]]}},{"type":"Feature","properties":{"c":"573122","o":"","e":""},"geometry":{"type":"Polygon","coordinates":[[[-80.64375,50.85],[-80.64375,50.85417],[-80.6375,50.85417],[-80.6375,50.85],[-80.64375,50.85]]]}},{"type":"Feature","properties":{"c":"573123","o":"","e":""},"geometry":{"type":"Polygon","coordinates":[[[-80.65625,50.84583],[-80.65625,50.85],[-80.65,50.85],[-80.65,50.84583],[-80.65625,50.84583]]]}},{"type":"Feature","properties":{"c":"573124","o":"","e":""},"geometry":{"type":"Polygon","coordinates":[[[-80.65,50.84583],[-80.65,50.85],[-80.64375,50.85],[-80.64375,50.84583],[-80.65,50.84583]]]}},{"type":"Feature","properties":{"c":"573125","o":"","e":""},"geometry":{"type":"Polygon","coordinates":[[[-80.65,50.85],[-80.65,50.85417],[-80.64375,50.85417],[-80.64375,50.85],[-80.65,50.85]]]}},{"type":"Feature","properties":{"c":"573126","o":"","e":""},"geometry":{"type":"Polygon","coordinates":[[[-80.65,50.85417],[-80.65,50.85833],[-80.64375,50.85833],[-80.64375,50.85417],[-80.65,50.85417]]]}},{"type":"Feature","properties":{"c":"573127","o":"","e":""},"geometry":{"type":"Polygon","coordinates":[[[-80.64375,50.84583],[-80.64375,50.85],[-80.6375,50.85],[-80.6375,50.84583],[-80.64375,50.84583]]]}},{"type":"Feature","properties":{"c":"573128","o":"","e":""},"geometry":{"type":"Polygon","coordinates":[[[-80.6625,50.84167],[-80.6625,50.84583],[-80.65625,50.84583],[-80.65625,50.84167],[-80.6625,50.84167]]]}},{"type":"Feature","properties":{"c":"573129","o":"","e":""},"geometry":{"type":"Polygon","coordinates":[[[-80.65,50.84167],[-80.65,50.84583],[-80.64375,50.84583],[-80.64375,50.84167],[-80.65,50.84167]]]}},{"type":"Feature","properties":{"c":"573130","o":"","e":""},"geometry":{"type":"Polygon","coordinates":[[[-80.65625,50.84167],[-80.65625,50.84583],[-80.65,50.84583],[-80.65,50.84167],[-80.65625,50.84167]]]}},{"type":"Feature","properties":{"c":"573131","o":"","e":""},"geometry":{"type":"Polygon","coordinates":[[[-80.64375,50.8625],[-80.64375,50.86667],[-80.6375,50.86667],[-80.6375,50.8625],[-80.64375,50.8625]]]}},{"type":"Feature","properties":{"c":"573132","o":"","e":""},"geometry":{"type":"Polygon","coordinates":[[[-80.65,50.85833],[-80.65,50.8625],[-80.64375,50.8625],[-80.64375,50.85833],[-80.65,50.85833]]]}},{"type":"Feature","properties":{"c":"573133","o":"","e":""},"geometry":{"type":"Polygon","coordinates":[[[-80.65,50.8625],[-80.65,50.86667],[-80.64375,50.86667],[-80.64375,50.8625],[-80.65,50.8625]]]}},{"type":"Feature","properties":{"c":"573134","o":"","e":""},"geometry":{"type":"Polygon","coordinates":[[[-80.64375,50.85833],[-80.64375,50.8625],[-80.6375,50.8625],[-80.6375,50.85833],[-80.64375,50.85833]]]}},{"type":"Feature","properties":{"c":"573135","o":"","e":""},"geometry":{"type":"Polygon","coordinates":[[[-80.6375,50.86667],[-80.6375,50.87083],[-80.63125,50.87083],[-80.63125,50.86667],[-80.6375,50.86667]]]}},{"type":"Feature","properties":{"c":"573136","o":"","e":""},"geometry":{"type":"Polygon","coordinates":[[[-80.6375,50.8625],[-80.6375,50.86667],[-80.63125,50.86667],[-80.63125,50.8625],[-80.6375,50.8625]]]}},{"type":"Feature","properties":{"c":"573137","o":"","e":""},"geometry":{"type":"Polygon","coordinates":[[[-80.64375,50.86667],[-80.64375,50.87083],[-80.6375,50.87083],[-80.6375,50.86667],[-80.64375,50.86667]]]}},{"type":"Feature","properties":{"c":"573138","o":"","e":""},"geometry":{"type":"Polygon","coordinates":[[[-80.63125,50.87083],[-80.63125,50.875],[-80.625,50.875],[-80.625,50.87083],[-80.63125,50.87083]]]}},{"type":"Feature","properties":{"c":"573139","o":"","e":""},"geometry":{"type":"Polygon","coordinates":[[[-80.6375,50.87083],[-80.6375,50.875],[-80.63125,50.875],[-80.63125,50.87083],[-80.6375,50.87083]]]}},{"type":"Feature","properties":{"c":"573240","o":"","e":""},"geometry":{"type":"Polygon","coordinates":[[[-80.6375,50.875],[-80.6375,50.87917],[-80.63125,50.87917],[-80.63125,50.875],[-80.6375,50.875]]]}},{"type":"Feature","properties":{"c":"573241","o":"","e":""},"geometry":{"type":"Polygon","coordinates":[[[-80.63125,50.875],[-80.63125,50.87917],[-80.625,50.87917],[-80.625,50.875],[-80.63125,50.875]]]}},{"type":"Feature","properties":{"c":"573242","o":"","e":""},"geometry":{"type":"Polygon","coordinates":[[[-80.625,50.875],[-80.625,50.87917],[-80.61875,50.87917],[-80.61875,50.875],[-80.625,50.875]]]}},{"type":"Feature","properties":{"c":"573243","o":"","e":""},"geometry":{"type":"Polygon","coordinates":[[[-80.63125,50.87917],[-80.63125,50.88333],[-80.625,50.88333],[-80.625,50.87917],[-80.63125,50.87917]]]}},{"type":"Feature","properties":{"c":"573244","o":"","e":""},"geometry":{"type":"Polygon","coordinates":[[[-80.61875,50.87917],[-80.61875,50.88333],[-80.6125,50.88333],[-80.6125,50.87917],[-80.61875,50.87917]]]}},{"type":"Feature","properties":{"c":"573245","o":"","e":""},"geometry":{"type":"Polygon","coordinates":[[[-80.625,50.87917],[-80.625,50.88333],[-80.61875,50.88333],[-80.61875,50.87917],[-80.625,50.87917]]]}},{"type":"Feature","properties":{"c":"573090","o":"","e":""},"geometry":{"type":"Polygon","coordinates":[[[-80.66875,50.825],[-80.66875,50.82917],[-80.6625,50.82917],[-80.6625,50.825],[-80.66875,50.825]]]}},{"type":"Feature","properties":{"c":"573091","o":"","e":""},"geometry":{"type":"Polygon","coordinates":[[[-80.6625,50.825],[-80.6625,50.82917],[-80.65625,50.82917],[-80.65625,50.825],[-80.6625,50.825]]]}},{"type":"Feature","properties":{"c":"573092","o":"","e":""},"geometry":{"type":"Polygon","coordinates":[[[-80.65625,50.825],[-80.65625,50.82917],[-80.65,50.82917],[-80.65,50.825],[-80.65625,50.825]]]}},{"type":"Feature","properties":{"c":"573093","o":"","e":""},"geometry":{"type":"Polygon","coordinates":[[[-80.66875,50.82083],[-80.66875,50.825],[-80.6625,50.825],[-80.6625,50.82083],[-80.66875,50.82083]]]}},{"type":"Feature","properties":{"c":"573094","o":"","e":""},"geometry":{"type":"Polygon","coordinates":[[[-80.6625,50.82083],[-80.6625,50.825],[-80.65625,50.825],[-80.65625,50.82083],[-80.6625,50.82083]]]}},{"type":"Feature","properties":{"c":"573095","o":"","e":""},"geometry":{"type":"Polygon","coordinates":[[[-80.65625,50.82083],[-80.65625,50.825],[-80.65,50.825],[-80.65,50.82083],[-80.65625,50.82083]]]}},{"type":"Feature","properties":{"c":"573096","o":"","e":""},"geometry":{"type":"Polygon","coordinates":[[[-80.66875,50.81667],[-80.66875,50.82083],[-80.6625,50.82083],[-80.6625,50.81667],[-80.66875,50.81667]]]}},{"type":"Feature","properties":{"c":"573097","o":"","e":""},"geometry":{"type":"Polygon","coordinates":[[[-80.6625,50.81667],[-80.6625,50.82083],[-80.65625,50.82083],[-80.65625,50.81667],[-80.6625,50.81667]]]}},{"type":"Feature","properties":{"c":"573098","o":"","e":""},"geometry":{"type":"Polygon","coordinates":[[[-80.65625,50.81667],[-80.65625,50.82083],[-80.65,50.82083],[-80.65,50.81667],[-80.65625,50.81667]]]}},{"type":"Feature","properties":{"c":"573099","o":"","e":""},"geometry":{"type":"Polygon","coordinates":[[[-80.675,50.8125],[-80.675,50.81667],[-80.66875,50.81667],[-80.66875,50.8125],[-80.675,50.8125]]]}},{"type":"Feature","properties":{"c":"573100","o":"","e":""},"geometry":{"type":"Polygon","coordinates":[[[-80.66875,50.8125],[-80.66875,50.81667],[-80.6625,50.81667],[-80.6625,50.8125],[-80.66875,50.8125]]]}},{"type":"Feature","properties":{"c":"535441","o":"","e":""},"geometry":{"type":"Polygon","coordinates":[[[-80.975,50.85],[-80.975,50.85417],[-80.96875,50.85417],[-80.9625,50.85417],[-80.95625,50.85417],[-80.95,50.85417],[-80.95,50.85],[-80.95,50.84583],[-80.94375,50.84583],[-80.9375,50.84583],[-80.9375,50.84167],[-80.9375,50.8375],[-80.9375,50.83333],[-80.94375,50.83333],[-80.95,50.83333],[-80.95625,50.83333],[-80.95625,50.8375],[-80.95625,50.84167],[-80.9625,50.84167],[-80.96875,50.84167],[-80.975,50.84167],[-80.975,50.84583],[-80.975,50.85]]]}},{"type":"Feature","properties":{"c":"535442","o":"","e":""},"geometry":{"type":"Polygon","coordinates":[[[-80.95625,50.825],[-80.95625,50.82917],[-80.95,50.82917],[-80.94375,50.82917],[-80.9375,50.82917],[-80.9375,50.825],[-80.9375,50.82083],[-80.9375,50.81667],[-80.94375,50.81667],[-80.95,50.81667],[-80.95625,50.81667],[-80.95625,50.82083],[-80.95625,50.825]]]}},{"type":"Feature","properties":{"c":"585952","o":"","e":""},"geometry":{"type":"Polygon","coordinates":[[[-80.53125,50.62917],[-80.53125,50.63333],[-80.53125,50.6375],[-80.525,50.6375],[-80.51875,50.6375],[-80.5125,50.6375],[-80.50625,50.6375],[-80.50625,50.63333],[-80.5,50.63333],[-80.49375,50.63333],[-80.4875,50.63333],[-80.4875,50.6375],[-80.48125,50.6375],[-80.475,50.6375],[-80.475,50.64167],[-80.46875,50.64167],[-80.4625,50.64167],[-80.45625,50.64167],[-80.45625,50.6375],[-80.4625,50.6375],[-80.46875,50.6375],[-80.46875,50.63333],[-80.475,50.63333],[-80.48125,50.63333],[-80.48125,50.62917],[-80.4875,50.62917],[-80.49375,50.62917],[-80.5,50.62917],[-80.50625,50.62917],[-80.50625,50.625],[-80.5125,50.625],[-80.5125,50.62083],[-80.51875,50.62083],[-80.525,50.62083],[-80.53125,50.62083],[-80.53125,50.625],[-80.53125,50.62917]]]}}]}