{"type":"FeatureCollection","features":[{"type":"Feature","properties":{"c":"561345","o":"","e":""},"geometry":{"type":"Polygon","coordinates":[[[-81.61875,45.95833],[-81.61875,45.9625],[-81.6125,45.9625],[-81.6125,45.95833],[-81.61875,45.95833]]]}},{"type":"Feature","properties":{"c":"561352","o":"","e":""},"geometry":{"type":"Polygon","coordinates":[[[-81.60625,45.96667],[-81.60625,45.97083],[-81.6,45.97083],[-81.6,45.96667],[-81.60625,45.96667]]]}},{"type":"Feature","properties":{"c":"561346","o":"","e":""},"geometry":{"type":"Polygon","coordinates":[[[-81.61875,45.96667],[-81.61875,45.97083],[-81.6125,45.97083],[-81.6125,45.96667],[-81.61875,45.96667]]]}},{"type":"Feature","properties":{"c":"561347","o":"","e":""},"geometry":{"type":"Polygon","coordinates":[[[-81.60625,45.9625],[-81.60625,45.96667],[-81.6,45.96667],[-81.6,45.9625],[-81.60625,45.9625]]]}},{"type":"Feature","properties":{"c":"561348","o":"","e":""},"geometry":{"type":"Polygon","coordinates":[[[-81.625,45.9625],[-81.625,45.96667],[-81.61875,45.96667],[-81.61875,45.9625],[-81.625,45.9625]]]}},{"type":"Feature","properties":{"c":"561349","o":"","e":""},"geometry":{"type":"Polygon","coordinates":[[[-81.6125,45.97083],[-81.6125,45.975],[-81.60625,45.975],[-81.60625,45.97083],[-81.6125,45.97083]]]}},{"type":"Feature","properties":{"c":"561350","o":"","e":""},"geometry":{"type":"Polygon","coordinates":[[[-81.6125,45.975],[-81.6125,45.97917],[-81.60625,45.97917],[-81.60625,45.975],[-81.6125,45.975]]]}},{"type":"Feature","properties":{"c":"561351","o":"","e":""},"geometry":{"type":"Polygon","coordinates":[[[-81.625,45.96667],[-81.625,45.97083],[-81.61875,45.97083],[-81.61875,45.96667],[-81.625,45.96667]]]}},{"type":"Feature","properties":{"c":"561353","o":"","e":""},"geometry":{"type":"Polygon","coordinates":[[[-81.61875,45.97083],[-81.61875,45.975],[-81.6125,45.975],[-81.6125,45.97083],[-81.61875,45.97083]]]}},{"type":"Feature","properties":{"c":"561354","o":"","e":""},"geometry":{"type":"Polygon","coordinates":[[[-81.6125,45.9625],[-81.6125,45.96667],[-81.60625,45.96667],[-81.60625,45.9625],[-81.6125,45.9625]]]}},{"type":"Feature","properties":{"c":"561355","o":"","e":""},"geometry":{"type":"Polygon","coordinates":[[[-81.625,45.97083],[-81.625,45.975],[-81.61875,45.975],[-81.61875,45.97083],[-81.625,45.97083]]]}},{"type":"Feature","properties":{"c":"561356","o":"","e":""},"geometry":{"type":"Polygon","coordinates":[[[-81.61875,45.9625],[-81.61875,45.96667],[-81.6125,45.96667],[-81.6125,45.9625],[-81.61875,45.9625]]]}},{"type":"Feature","properties":{"c":"561357","o":"","e":""},"geometry":{"type":"Polygon","coordinates":[[[-81.6125,45.95833],[-81.6125,45.9625],[-81.60625,45.9625],[-81.60625,45.95833],[-81.6125,45.95833]]]}},{"type":"Feature","properties":{"c":"561358","o":"","e":""},"geometry":{"type":"Polygon","coordinates":[[[-81.6125,45.96667],[-81.6125,45.97083],[-81.60625,45.97083],[-81.60625,45.96667],[-81.6125,45.96667]]]}},{"type":"Feature","properties":{"c":"561449","o":"","e":""},"geometry":{"type":"Polygon","coordinates":[[[-81.63125,45.97083],[-81.63125,45.975],[-81.625,45.975],[-81.625,45.97083],[-81.63125,45.97083]]]}},{"type":"Feature","properties":{"c":"561450","o":"","e":""},"geometry":{"type":"Polygon","coordinates":[[[-81.63125,45.96667],[-81.63125,45.97083],[-81.625,45.97083],[-81.625,45.96667],[-81.63125,45.96667]]]}},{"type":"Feature","properties":{"c":"561452","o":"","e":""},"geometry":{"type":"Polygon","coordinates":[[[-81.60625,45.97083],[-81.60625,45.975],[-81.6,45.975],[-81.6,45.97083],[-81.60625,45.97083]]]}},{"type":"Feature","properties":{"c":"561453","o":"","e":""},"geometry":{"type":"Polygon","coordinates":[[[-81.6,45.9625],[-81.6,45.96667],[-81.59375,45.96667],[-81.59375,45.9625],[-81.6,45.9625]]]}},{"type":"Feature","properties":{"c":"561451","o":"","e":""},"geometry":{"type":"Polygon","coordinates":[[[-81.61875,45.975],[-81.61875,45.97917],[-81.6125,45.97917],[-81.6125,45.975],[-81.61875,45.975]]]}}]}