{"type":"FeatureCollection","features":[{"type":"Feature","properties":{"c":"102484","o":"10X Minerals Corp. (100%)","e":"2033-01-30"},"geometry":{"type":"Polygon","coordinates":[[[-83.31208,69.26724],[-83.30167,69.26724],[-83.29125,69.26723],[-83.29125,69.26307],[-83.28083,69.26306],[-83.28083,69.25889],[-83.28083,69.25473],[-83.29125,69.25473],[-83.30166,69.25474],[-83.30167,69.2589],[-83.30167,69.26307],[-83.31208,69.26307],[-83.31208,69.26724]]]}},{"type":"Feature","properties":{"c":"102488","o":"10X Minerals Corp. (100%)","e":"2042-01-30"},"geometry":{"type":"Polygon","coordinates":[[[-83.41626,69.28808],[-83.40585,69.28808],[-83.40584,69.28392],[-83.39543,69.28392],[-83.39543,69.27975],[-83.40584,69.27975],[-83.41626,69.27975],[-83.41626,69.28391],[-83.41626,69.28808]]]}},{"type":"Feature","properties":{"c":"102489","o":"10X Minerals Corp. (100%)","e":"2034-01-30"},"geometry":{"type":"Polygon","coordinates":[[[-83.33292,69.26725],[-83.33292,69.27141],[-83.3225,69.27141],[-83.3225,69.26724],[-83.33292,69.26725]]]}},{"type":"Feature","properties":{"c":"102503","o":"10X Minerals Corp. (100%)","e":"2034-02-01"},"geometry":{"type":"Polygon","coordinates":[[[-83.24958,69.26304],[-83.23916,69.26305],[-83.23916,69.25888],[-83.23916,69.25471],[-83.24958,69.25471],[-83.24958,69.25887],[-83.24958,69.26304]]]}},{"type":"Feature","properties":{"c":"102486","o":"10X Minerals Corp. (100%)","e":"2033-01-30"},"geometry":{"type":"Polygon","coordinates":[[[-83.31208,69.26724],[-83.31208,69.26307],[-83.3225,69.26308],[-83.33292,69.26308],[-83.33292,69.26725],[-83.3225,69.26724],[-83.31208,69.26724]]]}},{"type":"Feature","properties":{"c":"102494","o":"10X Minerals Corp. (100%)","e":"2034-01-31"},"geometry":{"type":"Polygon","coordinates":[[[-83.3225,69.26724],[-83.3225,69.27141],[-83.31208,69.27141],[-83.31208,69.26724],[-83.3225,69.26724]]]}},{"type":"Feature","properties":{"c":"102495","o":"10X Minerals Corp. (100%)","e":"2033-01-31"},"geometry":{"type":"Polygon","coordinates":[[[-83.29125,69.2714],[-83.28083,69.27139],[-83.28083,69.26723],[-83.29125,69.26723],[-83.30167,69.26724],[-83.31208,69.26724],[-83.31208,69.27141],[-83.30167,69.2714],[-83.29125,69.2714]]]}},{"type":"Feature","properties":{"c":"102481","o":"10X Minerals Corp. (100%)","e":"2033-01-30"},"geometry":{"type":"Polygon","coordinates":[[[-83.29125,69.26307],[-83.29125,69.26723],[-83.28083,69.26723],[-83.28083,69.26306],[-83.29125,69.26307]]]}},{"type":"Feature","properties":{"c":"102482","o":"10X Minerals Corp. (100%)","e":"2034-01-30"},"geometry":{"type":"Polygon","coordinates":[[[-83.29125,69.2464],[-83.29125,69.25057],[-83.28083,69.25056],[-83.28083,69.24639],[-83.29125,69.2464]]]}},{"type":"Feature","properties":{"c":"102483","o":"10X Minerals Corp. (100%)","e":"2033-01-30"},"geometry":{"type":"Polygon","coordinates":[[[-83.28083,69.26723],[-83.27041,69.26722],[-83.26,69.26721],[-83.25999,69.26305],[-83.24958,69.26304],[-83.24958,69.25887],[-83.24958,69.25471],[-83.24958,69.25054],[-83.25999,69.25055],[-83.25999,69.24638],[-83.27041,69.24639],[-83.27041,69.25055],[-83.28083,69.25056],[-83.29125,69.25057],[-83.29125,69.25473],[-83.28083,69.25473],[-83.28083,69.25889],[-83.28083,69.26306],[-83.28083,69.26723]]]}},{"type":"Feature","properties":{"c":"102485","o":"10X Minerals Corp. (100%)","e":"2042-01-30"},"geometry":{"type":"Polygon","coordinates":[[[-83.38501,69.28809],[-83.37459,69.28809],[-83.37459,69.28392],[-83.37459,69.27975],[-83.38501,69.27975],[-83.39543,69.27975],[-83.39543,69.28392],[-83.40584,69.28392],[-83.40585,69.28808],[-83.39543,69.28809],[-83.38501,69.28809]]]}},{"type":"Feature","properties":{"c":"102487","o":"10X Minerals Corp. (100%)","e":"2034-01-30"},"geometry":{"type":"Polygon","coordinates":[[[-83.31208,69.25891],[-83.31208,69.26307],[-83.30167,69.26307],[-83.30167,69.2589],[-83.31208,69.25891]]]}},{"type":"Feature","properties":{"c":"102493","o":"10X Minerals Corp. (100%)","e":"2033-01-31"},"geometry":{"type":"Polygon","coordinates":[[[-83.3225,69.27141],[-83.3225,69.27558],[-83.31208,69.27558],[-83.31208,69.27141],[-83.3225,69.27141]]]}},{"type":"Feature","properties":{"c":"102496","o":"10X Minerals Corp. (100%)","e":"2034-01-31"},"geometry":{"type":"Polygon","coordinates":[[[-83.31208,69.27141],[-83.31208,69.27558],[-83.30167,69.27557],[-83.30167,69.2714],[-83.31208,69.27141]]]}},{"type":"Feature","properties":{"c":"102497","o":"10X Minerals Corp. (100%)","e":"2034-01-31"},"geometry":{"type":"Polygon","coordinates":[[[-83.26,69.27138],[-83.26,69.26721],[-83.27041,69.26722],[-83.28083,69.26723],[-83.28083,69.27139],[-83.27041,69.27139],[-83.26,69.27138]]]}},{"type":"Feature","properties":{"c":"102492","o":"10X Minerals Corp. (100%)","e":"2034-01-31"},"geometry":{"type":"Polygon","coordinates":[[[-83.33292,69.27141],[-83.33292,69.27558],[-83.3225,69.27558],[-83.3225,69.27141],[-83.33292,69.27141]]]}},{"type":"Feature","properties":{"c":"102509","o":"10X Minerals Corp. (100%)","e":"2034-02-01"},"geometry":{"type":"Polygon","coordinates":[[[-83.28083,69.27556],[-83.27041,69.27556],[-83.26,69.27555],[-83.26,69.27138],[-83.27041,69.27139],[-83.28083,69.27139],[-83.29125,69.2714],[-83.30167,69.2714],[-83.30167,69.27557],[-83.29125,69.27557],[-83.28083,69.27556]]]}}]}