{"type":"FeatureCollection","features":[{"type":"Feature","properties":{"c":"919548","o":"","e":""},"geometry":{"type":"Polygon","coordinates":[[[-83.50625,46.60833],[-83.50625,46.6125],[-83.5,46.6125],[-83.5,46.60833],[-83.50625,46.60833]]]}},{"type":"Feature","properties":{"c":"981054","o":"","e":""},"geometry":{"type":"Polygon","coordinates":[[[-83.08125,46.49583],[-83.08125,46.5],[-83.075,46.5],[-83.075,46.49583],[-83.08125,46.49583]]]}},{"type":"Feature","properties":{"c":"981055","o":"","e":""},"geometry":{"type":"Polygon","coordinates":[[[-83.075,46.49583],[-83.075,46.5],[-83.06875,46.5],[-83.06875,46.49583],[-83.075,46.49583]]]}},{"type":"Feature","properties":{"c":"981056","o":"","e":""},"geometry":{"type":"Polygon","coordinates":[[[-83.06875,46.49583],[-83.06875,46.5],[-83.0625,46.5],[-83.0625,46.49583],[-83.06875,46.49583]]]}},{"type":"Feature","properties":{"c":"981057","o":"","e":""},"geometry":{"type":"Polygon","coordinates":[[[-83.0625,46.49583],[-83.0625,46.5],[-83.05625,46.5],[-83.05625,46.49583],[-83.0625,46.49583]]]}},{"type":"Feature","properties":{"c":"726975","o":"","e":""},"geometry":{"type":"Polygon","coordinates":[[[-83.00625,46.49583],[-83.00625,46.5],[-83.0,46.5],[-83.0,46.49583],[-83.00625,46.49583]]]}},{"type":"Feature","properties":{"c":"1012660","o":"","e":""},"geometry":{"type":"Polygon","coordinates":[[[-83.0375,46.49583],[-83.0375,46.5],[-83.03125,46.5],[-83.03125,46.49583],[-83.0375,46.49583]]]}},{"type":"Feature","properties":{"c":"1012664","o":"","e":""},"geometry":{"type":"Polygon","coordinates":[[[-83.01875,46.49583],[-83.01875,46.5],[-83.0125,46.5],[-83.0125,46.49583],[-83.01875,46.49583]]]}},{"type":"Feature","properties":{"c":"1012666","o":"","e":""},"geometry":{"type":"Polygon","coordinates":[[[-83.03125,46.49583],[-83.03125,46.5],[-83.025,46.5],[-83.025,46.49583],[-83.03125,46.49583]]]}},{"type":"Feature","properties":{"c":"1012667","o":"","e":""},"geometry":{"type":"Polygon","coordinates":[[[-83.025,46.49583],[-83.025,46.5],[-83.01875,46.5],[-83.01875,46.49583],[-83.025,46.49583]]]}},{"type":"Feature","properties":{"c":"1012661","o":"","e":""},"geometry":{"type":"Polygon","coordinates":[[[-83.0875,46.49583],[-83.0875,46.5],[-83.08125,46.5],[-83.08125,46.49583],[-83.0875,46.49583]]]}},{"type":"Feature","properties":{"c":"683918","o":"","e":""},"geometry":{"type":"Polygon","coordinates":[[[-83.09375,46.49583],[-83.09375,46.5],[-83.0875,46.5],[-83.0875,46.49583],[-83.09375,46.49583]]]}},{"type":"Feature","properties":{"c":"1052998","o":"","e":""},"geometry":{"type":"Polygon","coordinates":[[[-83.05625,46.49583],[-83.05625,46.5],[-83.05,46.5],[-83.05,46.49583],[-83.05625,46.49583]]]}},{"type":"Feature","properties":{"c":"1052999","o":"","e":""},"geometry":{"type":"Polygon","coordinates":[[[-83.05,46.49583],[-83.05,46.5],[-83.04375,46.5],[-83.04375,46.49583],[-83.05,46.49583]]]}},{"type":"Feature","properties":{"c":"1053000","o":"","e":""},"geometry":{"type":"Polygon","coordinates":[[[-83.04375,46.49583],[-83.04375,46.5],[-83.0375,46.5],[-83.0375,46.49583],[-83.04375,46.49583]]]}},{"type":"Feature","properties":{"c":"890433","o":"","e":""},"geometry":{"type":"Polygon","coordinates":[[[-83.44375,46.51667],[-83.44375,46.52083],[-83.4375,46.52083],[-83.4375,46.51667],[-83.44375,46.51667]]]}},{"type":"Feature","properties":{"c":"618569","o":"","e":""},"geometry":{"type":"Polygon","coordinates":[[[-83.0125,46.5625],[-83.0125,46.56667],[-83.00625,46.56667],[-83.00625,46.5625],[-83.0125,46.5625]]]}},{"type":"Feature","properties":{"c":"618573","o":"","e":""},"geometry":{"type":"Polygon","coordinates":[[[-83.0125,46.55833],[-83.0125,46.5625],[-83.00625,46.5625],[-83.00625,46.55833],[-83.0125,46.55833]]]}},{"type":"Feature","properties":{"c":"618574","o":"","e":""},"geometry":{"type":"Polygon","coordinates":[[[-83.00625,46.55833],[-83.00625,46.5625],[-83.0,46.5625],[-83.0,46.55833],[-83.00625,46.55833]]]}},{"type":"Feature","properties":{"c":"618575","o":"","e":""},"geometry":{"type":"Polygon","coordinates":[[[-83.00625,46.5625],[-83.00625,46.56667],[-83.0,46.56667],[-83.0,46.5625],[-83.00625,46.5625]]]}},{"type":"Feature","properties":{"c":"912724","o":"","e":""},"geometry":{"type":"Polygon","coordinates":[[[-83.04375,46.5125],[-83.04375,46.51667],[-83.0375,46.51667],[-83.0375,46.5125],[-83.04375,46.5125]]]}},{"type":"Feature","properties":{"c":"912725","o":"","e":""},"geometry":{"type":"Polygon","coordinates":[[[-83.05,46.50833],[-83.05,46.5125],[-83.04375,46.5125],[-83.04375,46.50833],[-83.05,46.50833]]]}},{"type":"Feature","properties":{"c":"912726","o":"","e":""},"geometry":{"type":"Polygon","coordinates":[[[-83.0375,46.50833],[-83.0375,46.5125],[-83.03125,46.5125],[-83.03125,46.50833],[-83.0375,46.50833]]]}},{"type":"Feature","properties":{"c":"912727","o":"","e":""},"geometry":{"type":"Polygon","coordinates":[[[-83.05,46.5125],[-83.05,46.51667],[-83.04375,46.51667],[-83.04375,46.5125],[-83.05,46.5125]]]}},{"type":"Feature","properties":{"c":"912728","o":"","e":""},"geometry":{"type":"Polygon","coordinates":[[[-83.0375,46.5125],[-83.0375,46.51667],[-83.03125,46.51667],[-83.03125,46.5125],[-83.0375,46.5125]]]}},{"type":"Feature","properties":{"c":"1053857","o":"","e":""},"geometry":{"type":"Polygon","coordinates":[[[-83.44375,46.52083],[-83.44375,46.525],[-83.4375,46.525],[-83.4375,46.52083],[-83.44375,46.52083]]]}},{"type":"Feature","properties":{"c":"1046780","o":"","e":""},"geometry":{"type":"Polygon","coordinates":[[[-83.4375,46.52083],[-83.4375,46.525],[-83.43125,46.525],[-83.43125,46.52083],[-83.4375,46.52083]]]}},{"type":"Feature","properties":{"c":"1046775","o":"","e":""},"geometry":{"type":"Polygon","coordinates":[[[-83.4625,46.525],[-83.4625,46.52917],[-83.45625,46.52917],[-83.45625,46.525],[-83.4625,46.525]]]}},{"type":"Feature","properties":{"c":"1046776","o":"","e":""},"geometry":{"type":"Polygon","coordinates":[[[-83.45625,46.525],[-83.45625,46.52917],[-83.45,46.52917],[-83.45,46.525],[-83.45625,46.525]]]}},{"type":"Feature","properties":{"c":"1046777","o":"","e":""},"geometry":{"type":"Polygon","coordinates":[[[-83.45,46.525],[-83.45,46.52917],[-83.44375,46.52917],[-83.44375,46.525],[-83.45,46.525]]]}},{"type":"Feature","properties":{"c":"1046778","o":"","e":""},"geometry":{"type":"Polygon","coordinates":[[[-83.44375,46.525],[-83.44375,46.52917],[-83.4375,46.52917],[-83.4375,46.525],[-83.44375,46.525]]]}},{"type":"Feature","properties":{"c":"1046779","o":"","e":""},"geometry":{"type":"Polygon","coordinates":[[[-83.4375,46.525],[-83.4375,46.52917],[-83.43125,46.52917],[-83.43125,46.525],[-83.4375,46.525]]]}},{"type":"Feature","properties":{"c":"1035566","o":"","e":""},"geometry":{"type":"Polygon","coordinates":[[[-83.43125,46.57083],[-83.43125,46.575],[-83.425,46.575],[-83.425,46.57083],[-83.43125,46.57083]]]}},{"type":"Feature","properties":{"c":"1035567","o":"","e":""},"geometry":{"type":"Polygon","coordinates":[[[-83.43125,46.56667],[-83.43125,46.57083],[-83.425,46.57083],[-83.425,46.56667],[-83.43125,46.56667]]]}},{"type":"Feature","properties":{"c":"1015191","o":"","e":""},"geometry":{"type":"Polygon","coordinates":[[[-83.14375,46.54167],[-83.14375,46.54583],[-83.1375,46.54583],[-83.1375,46.54167],[-83.14375,46.54167]]]}},{"type":"Feature","properties":{"c":"683910","o":"","e":""},"geometry":{"type":"Polygon","coordinates":[[[-83.05625,46.525],[-83.05625,46.52917],[-83.05,46.52917],[-83.05,46.525],[-83.05625,46.525]]]}},{"type":"Feature","properties":{"c":"683911","o":"","e":""},"geometry":{"type":"Polygon","coordinates":[[[-83.05625,46.52083],[-83.05625,46.525],[-83.05,46.525],[-83.05,46.52083],[-83.05625,46.52083]]]}},{"type":"Feature","properties":{"c":"726307","o":"","e":""},"geometry":{"type":"Polygon","coordinates":[[[-83.01875,46.575],[-83.01875,46.57917],[-83.0125,46.57917],[-83.0125,46.575],[-83.01875,46.575]]]}},{"type":"Feature","properties":{"c":"726308","o":"","e":""},"geometry":{"type":"Polygon","coordinates":[[[-83.0125,46.575],[-83.0125,46.57917],[-83.00625,46.57917],[-83.00625,46.575],[-83.0125,46.575]]]}},{"type":"Feature","properties":{"c":"726309","o":"","e":""},"geometry":{"type":"Polygon","coordinates":[[[-83.03125,46.57917],[-83.03125,46.58333],[-83.025,46.58333],[-83.025,46.57917],[-83.03125,46.57917]]]}},{"type":"Feature","properties":{"c":"726310","o":"","e":""},"geometry":{"type":"Polygon","coordinates":[[[-83.03125,46.575],[-83.03125,46.57917],[-83.025,46.57917],[-83.025,46.575],[-83.03125,46.575]]]}},{"type":"Feature","properties":{"c":"726311","o":"","e":""},"geometry":{"type":"Polygon","coordinates":[[[-83.01875,46.57917],[-83.01875,46.58333],[-83.0125,46.58333],[-83.0125,46.57917],[-83.01875,46.57917]]]}},{"type":"Feature","properties":{"c":"726312","o":"","e":""},"geometry":{"type":"Polygon","coordinates":[[[-83.0125,46.57917],[-83.0125,46.58333],[-83.00625,46.58333],[-83.00625,46.57917],[-83.0125,46.57917]]]}},{"type":"Feature","properties":{"c":"726313","o":"","e":""},"geometry":{"type":"Polygon","coordinates":[[[-83.025,46.575],[-83.025,46.57917],[-83.01875,46.57917],[-83.01875,46.575],[-83.025,46.575]]]}},{"type":"Feature","properties":{"c":"726315","o":"","e":""},"geometry":{"type":"Polygon","coordinates":[[[-83.025,46.57917],[-83.025,46.58333],[-83.01875,46.58333],[-83.01875,46.57917],[-83.025,46.57917]]]}},{"type":"Feature","properties":{"c":"726316","o":"","e":""},"geometry":{"type":"Polygon","coordinates":[[[-83.00625,46.57917],[-83.00625,46.58333],[-83.0,46.58333],[-83.0,46.57917],[-83.00625,46.57917]]]}},{"type":"Feature","properties":{"c":"1029358","o":"","e":""},"geometry":{"type":"Polygon","coordinates":[[[-83.45,46.51667],[-83.45,46.52083],[-83.44375,46.52083],[-83.44375,46.51667],[-83.45,46.51667]]]}},{"type":"Feature","properties":{"c":"1029359","o":"","e":""},"geometry":{"type":"Polygon","coordinates":[[[-83.45,46.52083],[-83.45,46.525],[-83.44375,46.525],[-83.44375,46.52083],[-83.45,46.52083]]]}},{"type":"Feature","properties":{"c":"1029360","o":"","e":""},"geometry":{"type":"Polygon","coordinates":[[[-83.45625,46.51667],[-83.45625,46.52083],[-83.45,46.52083],[-83.45,46.51667],[-83.45625,46.51667]]]}},{"type":"Feature","properties":{"c":"1029361","o":"","e":""},"geometry":{"type":"Polygon","coordinates":[[[-83.4625,46.51667],[-83.4625,46.52083],[-83.45625,46.52083],[-83.45625,46.51667],[-83.4625,46.51667]]]}},{"type":"Feature","properties":{"c":"1029362","o":"","e":""},"geometry":{"type":"Polygon","coordinates":[[[-83.4625,46.52083],[-83.4625,46.525],[-83.45625,46.525],[-83.45625,46.52083],[-83.4625,46.52083]]]}},{"type":"Feature","properties":{"c":"1029363","o":"","e":""},"geometry":{"type":"Polygon","coordinates":[[[-83.45625,46.52083],[-83.45625,46.525],[-83.45,46.525],[-83.45,46.52083],[-83.45625,46.52083]]]}},{"type":"Feature","properties":{"c":"684082","o":"","e":""},"geometry":{"type":"Polygon","coordinates":[[[-83.0375,46.50417],[-83.0375,46.50833],[-83.03125,46.50833],[-83.03125,46.50417],[-83.0375,46.50417]]]}},{"type":"Feature","properties":{"c":"941146","o":"","e":""},"geometry":{"type":"Polygon","coordinates":[[[-83.4625,46.575],[-83.4625,46.57917],[-83.45625,46.57917],[-83.45625,46.575],[-83.4625,46.575]]]}},{"type":"Feature","properties":{"c":"1047529","o":"","e":""},"geometry":{"type":"Polygon","coordinates":[[[-83.46875,46.52917],[-83.46875,46.53333],[-83.4625,46.53333],[-83.4625,46.52917],[-83.46875,46.52917]]]}},{"type":"Feature","properties":{"c":"1047530","o":"","e":""},"geometry":{"type":"Polygon","coordinates":[[[-83.4625,46.52917],[-83.4625,46.53333],[-83.45625,46.53333],[-83.45625,46.52917],[-83.4625,46.52917]]]}},{"type":"Feature","properties":{"c":"1047531","o":"","e":""},"geometry":{"type":"Polygon","coordinates":[[[-83.45625,46.52917],[-83.45625,46.53333],[-83.45,46.53333],[-83.45,46.52917],[-83.45625,46.52917]]]}},{"type":"Feature","properties":{"c":"1047532","o":"","e":""},"geometry":{"type":"Polygon","coordinates":[[[-83.45,46.52917],[-83.45,46.53333],[-83.44375,46.53333],[-83.44375,46.52917],[-83.45,46.52917]]]}},{"type":"Feature","properties":{"c":"1047533","o":"","e":""},"geometry":{"type":"Polygon","coordinates":[[[-83.44375,46.52917],[-83.44375,46.53333],[-83.4375,46.53333],[-83.4375,46.52917],[-83.44375,46.52917]]]}},{"type":"Feature","properties":{"c":"1047534","o":"","e":""},"geometry":{"type":"Polygon","coordinates":[[[-83.4375,46.52917],[-83.4375,46.53333],[-83.43125,46.53333],[-83.43125,46.52917],[-83.4375,46.52917]]]}},{"type":"Feature","properties":{"c":"1026358","o":"","e":""},"geometry":{"type":"Polygon","coordinates":[[[-83.40625,46.55417],[-83.40625,46.55833],[-83.4,46.55833],[-83.4,46.55417],[-83.40625,46.55417]]]}},{"type":"Feature","properties":{"c":"1026359","o":"","e":""},"geometry":{"type":"Polygon","coordinates":[[[-83.4,46.55417],[-83.4,46.55833],[-83.39375,46.55833],[-83.39375,46.55417],[-83.4,46.55417]]]}},{"type":"Feature","properties":{"c":"1026360","o":"","e":""},"geometry":{"type":"Polygon","coordinates":[[[-83.43125,46.575],[-83.43125,46.57917],[-83.425,46.57917],[-83.425,46.575],[-83.43125,46.575]]]}},{"type":"Feature","properties":{"c":"1026361","o":"","e":""},"geometry":{"type":"Polygon","coordinates":[[[-83.4375,46.575],[-83.4375,46.57917],[-83.43125,46.57917],[-83.43125,46.575],[-83.4375,46.575]]]}},{"type":"Feature","properties":{"c":"1026362","o":"","e":""},"geometry":{"type":"Polygon","coordinates":[[[-83.4375,46.57917],[-83.4375,46.58333],[-83.43125,46.58333],[-83.43125,46.57917],[-83.4375,46.57917]]]}},{"type":"Feature","properties":{"c":"1026363","o":"","e":""},"geometry":{"type":"Polygon","coordinates":[[[-83.43125,46.57917],[-83.43125,46.58333],[-83.425,46.58333],[-83.425,46.57917],[-83.43125,46.57917]]]}},{"type":"Feature","properties":{"c":"1026364","o":"","e":""},"geometry":{"type":"Polygon","coordinates":[[[-83.425,46.57917],[-83.425,46.58333],[-83.41875,46.58333],[-83.41875,46.57917],[-83.425,46.57917]]]}},{"type":"Feature","properties":{"c":"1070568","o":"","e":""},"geometry":{"type":"Polygon","coordinates":[[[-83.3,46.775],[-83.3,46.77917],[-83.29375,46.77917],[-83.29375,46.775],[-83.3,46.775]]]}},{"type":"Feature","properties":{"c":"1070569","o":"","e":""},"geometry":{"type":"Polygon","coordinates":[[[-83.29375,46.775],[-83.29375,46.77917],[-83.2875,46.77917],[-83.2875,46.775],[-83.29375,46.775]]]}},{"type":"Feature","properties":{"c":"1070570","o":"","e":""},"geometry":{"type":"Polygon","coordinates":[[[-83.3,46.77083],[-83.3,46.775],[-83.29375,46.775],[-83.29375,46.77083],[-83.3,46.77083]]]}},{"type":"Feature","properties":{"c":"1070571","o":"","e":""},"geometry":{"type":"Polygon","coordinates":[[[-83.29375,46.77083],[-83.29375,46.775],[-83.2875,46.775],[-83.2875,46.77083],[-83.29375,46.77083]]]}},{"type":"Feature","properties":{"c":"1070572","o":"","e":""},"geometry":{"type":"Polygon","coordinates":[[[-83.31875,46.76667],[-83.31875,46.77083],[-83.3125,46.77083],[-83.3125,46.76667],[-83.31875,46.76667]]]}},{"type":"Feature","properties":{"c":"1070573","o":"","e":""},"geometry":{"type":"Polygon","coordinates":[[[-83.3125,46.76667],[-83.3125,46.77083],[-83.30625,46.77083],[-83.30625,46.76667],[-83.3125,46.76667]]]}},{"type":"Feature","properties":{"c":"1070574","o":"","e":""},"geometry":{"type":"Polygon","coordinates":[[[-83.30625,46.76667],[-83.30625,46.77083],[-83.3,46.77083],[-83.3,46.76667],[-83.30625,46.76667]]]}},{"type":"Feature","properties":{"c":"1070575","o":"","e":""},"geometry":{"type":"Polygon","coordinates":[[[-83.3,46.76667],[-83.3,46.77083],[-83.29375,46.77083],[-83.29375,46.76667],[-83.3,46.76667]]]}},{"type":"Feature","properties":{"c":"1070576","o":"","e":""},"geometry":{"type":"Polygon","coordinates":[[[-83.325,46.7625],[-83.325,46.76667],[-83.31875,46.76667],[-83.31875,46.7625],[-83.325,46.7625]]]}},{"type":"Feature","properties":{"c":"1070577","o":"","e":""},"geometry":{"type":"Polygon","coordinates":[[[-83.31875,46.7625],[-83.31875,46.76667],[-83.3125,46.76667],[-83.3125,46.7625],[-83.31875,46.7625]]]}},{"type":"Feature","properties":{"c":"1070578","o":"","e":""},"geometry":{"type":"Polygon","coordinates":[[[-83.3125,46.7625],[-83.3125,46.76667],[-83.30625,46.76667],[-83.30625,46.7625],[-83.3125,46.7625]]]}},{"type":"Feature","properties":{"c":"1070579","o":"","e":""},"geometry":{"type":"Polygon","coordinates":[[[-83.325,46.75833],[-83.325,46.7625],[-83.31875,46.7625],[-83.31875,46.75833],[-83.325,46.75833]]]}},{"type":"Feature","properties":{"c":"659261","o":"","e":""},"geometry":{"type":"Polygon","coordinates":[[[-83.00625,46.54167],[-83.00625,46.54583],[-83.0,46.54583],[-83.0,46.54167],[-83.00625,46.54167]]]}},{"type":"Feature","properties":{"c":"659266","o":"","e":""},"geometry":{"type":"Polygon","coordinates":[[[-83.0125,46.54583],[-83.0125,46.55],[-83.00625,46.55],[-83.00625,46.54583],[-83.0125,46.54583]]]}},{"type":"Feature","properties":{"c":"659267","o":"","e":""},"geometry":{"type":"Polygon","coordinates":[[[-83.00625,46.5375],[-83.00625,46.54167],[-83.0,46.54167],[-83.0,46.5375],[-83.00625,46.5375]]]}},{"type":"Feature","properties":{"c":"659272","o":"","e":""},"geometry":{"type":"Polygon","coordinates":[[[-83.0125,46.5375],[-83.0125,46.54167],[-83.00625,46.54167],[-83.00625,46.5375],[-83.0125,46.5375]]]}},{"type":"Feature","properties":{"c":"659275","o":"","e":""},"geometry":{"type":"Polygon","coordinates":[[[-83.00625,46.54583],[-83.00625,46.55],[-83.0,46.55],[-83.0,46.54583],[-83.00625,46.54583]]]}},{"type":"Feature","properties":{"c":"752931","o":"","e":""},"geometry":{"type":"Polygon","coordinates":[[[-83.29375,46.77917],[-83.29375,46.78333],[-83.2875,46.78333],[-83.2875,46.77917],[-83.29375,46.77917]]]}},{"type":"Feature","properties":{"c":"752932","o":"","e":""},"geometry":{"type":"Polygon","coordinates":[[[-83.29375,46.78333],[-83.29375,46.7875],[-83.2875,46.7875],[-83.2875,46.78333],[-83.29375,46.78333]]]}},{"type":"Feature","properties":{"c":"752933","o":"","e":""},"geometry":{"type":"Polygon","coordinates":[[[-83.29375,46.7875],[-83.29375,46.79167],[-83.2875,46.79167],[-83.2875,46.7875],[-83.29375,46.7875]]]}},{"type":"Feature","properties":{"c":"752934","o":"","e":""},"geometry":{"type":"Polygon","coordinates":[[[-83.2875,46.77917],[-83.2875,46.78333],[-83.28125,46.78333],[-83.28125,46.77917],[-83.2875,46.77917]]]}},{"type":"Feature","properties":{"c":"752935","o":"","e":""},"geometry":{"type":"Polygon","coordinates":[[[-83.3,46.78333],[-83.3,46.7875],[-83.29375,46.7875],[-83.29375,46.78333],[-83.3,46.78333]]]}},{"type":"Feature","properties":{"c":"752936","o":"","e":""},"geometry":{"type":"Polygon","coordinates":[[[-83.3,46.77917],[-83.3,46.78333],[-83.29375,46.78333],[-83.29375,46.77917],[-83.3,46.77917]]]}},{"type":"Feature","properties":{"c":"752938","o":"","e":""},"geometry":{"type":"Polygon","coordinates":[[[-83.2875,46.78333],[-83.2875,46.7875],[-83.28125,46.7875],[-83.28125,46.78333],[-83.2875,46.78333]]]}},{"type":"Feature","properties":{"c":"659282","o":"","e":""},"geometry":{"type":"Polygon","coordinates":[[[-83.0125,46.54167],[-83.0125,46.54583],[-83.00625,46.54583],[-83.00625,46.54167],[-83.0125,46.54167]]]}},{"type":"Feature","properties":{"c":"931607","o":"","e":""},"geometry":{"type":"Polygon","coordinates":[[[-83.325,46.9875],[-83.325,46.99167],[-83.31875,46.99167],[-83.31875,46.9875],[-83.325,46.9875]]]}},{"type":"Feature","properties":{"c":"726256","o":"","e":""},"geometry":{"type":"Polygon","coordinates":[[[-83.0875,46.59167],[-83.0875,46.59583],[-83.08125,46.59583],[-83.08125,46.59167],[-83.0875,46.59167]]]}},{"type":"Feature","properties":{"c":"726257","o":"","e":""},"geometry":{"type":"Polygon","coordinates":[[[-83.0625,46.59583],[-83.0625,46.6],[-83.05625,46.6],[-83.05625,46.59583],[-83.0625,46.59583]]]}},{"type":"Feature","properties":{"c":"726258","o":"","e":""},"geometry":{"type":"Polygon","coordinates":[[[-83.05,46.59583],[-83.05,46.6],[-83.04375,46.6],[-83.04375,46.59583],[-83.05,46.59583]]]}},{"type":"Feature","properties":{"c":"726259","o":"","e":""},"geometry":{"type":"Polygon","coordinates":[[[-83.05,46.60417],[-83.05,46.60833],[-83.04375,46.60833],[-83.04375,46.60417],[-83.05,46.60417]]]}},{"type":"Feature","properties":{"c":"726260","o":"","e":""},"geometry":{"type":"Polygon","coordinates":[[[-83.0875,46.60417],[-83.0875,46.60833],[-83.08125,46.60833],[-83.08125,46.60417],[-83.0875,46.60417]]]}},{"type":"Feature","properties":{"c":"726261","o":"","e":""},"geometry":{"type":"Polygon","coordinates":[[[-83.075,46.6],[-83.075,46.60417],[-83.06875,46.60417],[-83.06875,46.6],[-83.075,46.6]]]}},{"type":"Feature","properties":{"c":"1070422","o":"","e":""},"geometry":{"type":"Polygon","coordinates":[[[-83.45,46.50833],[-83.45,46.5125],[-83.44375,46.5125],[-83.44375,46.50833],[-83.45,46.50833]]]}},{"type":"Feature","properties":{"c":"1070423","o":"","e":""},"geometry":{"type":"Polygon","coordinates":[[[-83.44375,46.50833],[-83.44375,46.5125],[-83.4375,46.5125],[-83.4375,46.50833],[-83.44375,46.50833]]]}},{"type":"Feature","properties":{"c":"1070424","o":"","e":""},"geometry":{"type":"Polygon","coordinates":[[[-83.4375,46.50833],[-83.4375,46.5125],[-83.43125,46.5125],[-83.43125,46.50833],[-83.4375,46.50833]]]}},{"type":"Feature","properties":{"c":"1070425","o":"","e":""},"geometry":{"type":"Polygon","coordinates":[[[-83.43125,46.50833],[-83.43125,46.5125],[-83.425,46.5125],[-83.425,46.50833],[-83.43125,46.50833]]]}},{"type":"Feature","properties":{"c":"1070426","o":"","e":""},"geometry":{"type":"Polygon","coordinates":[[[-83.425,46.50833],[-83.425,46.5125],[-83.41875,46.5125],[-83.41875,46.50833],[-83.425,46.50833]]]}},{"type":"Feature","properties":{"c":"1039751","o":"","e":""},"geometry":{"type":"Polygon","coordinates":[[[-83.4,46.5],[-83.4,46.50417],[-83.39375,46.50417],[-83.39375,46.5],[-83.4,46.5]]]}},{"type":"Feature","properties":{"c":"910886","o":"","e":""},"geometry":{"type":"Polygon","coordinates":[[[-83.2625,46.60833],[-83.2625,46.6125],[-83.25625,46.6125],[-83.25625,46.60833],[-83.2625,46.60833]]]}},{"type":"Feature","properties":{"c":"1070415","o":"","e":""},"geometry":{"type":"Polygon","coordinates":[[[-83.45,46.50417],[-83.45,46.50833],[-83.44375,46.50833],[-83.44375,46.50417],[-83.45,46.50417]]]}},{"type":"Feature","properties":{"c":"1070416","o":"","e":""},"geometry":{"type":"Polygon","coordinates":[[[-83.44375,46.50417],[-83.44375,46.50833],[-83.4375,46.50833],[-83.4375,46.50417],[-83.44375,46.50417]]]}},{"type":"Feature","properties":{"c":"1070417","o":"","e":""},"geometry":{"type":"Polygon","coordinates":[[[-83.4375,46.50417],[-83.4375,46.50833],[-83.43125,46.50833],[-83.43125,46.50417],[-83.4375,46.50417]]]}},{"type":"Feature","properties":{"c":"1070418","o":"","e":""},"geometry":{"type":"Polygon","coordinates":[[[-83.43125,46.50417],[-83.43125,46.50833],[-83.425,46.50833],[-83.425,46.50417],[-83.43125,46.50417]]]}},{"type":"Feature","properties":{"c":"1070419","o":"","e":""},"geometry":{"type":"Polygon","coordinates":[[[-83.425,46.50417],[-83.425,46.50833],[-83.41875,46.50833],[-83.41875,46.50417],[-83.425,46.50417]]]}},{"type":"Feature","properties":{"c":"1016369","o":"","e":""},"geometry":{"type":"Polygon","coordinates":[[[-83.03125,46.51667],[-83.03125,46.52083],[-83.025,46.52083],[-83.025,46.51667],[-83.03125,46.51667]]]}},{"type":"Feature","properties":{"c":"683912","o":"","e":""},"geometry":{"type":"Polygon","coordinates":[[[-83.05625,46.51667],[-83.05625,46.52083],[-83.05,46.52083],[-83.05,46.51667],[-83.05625,46.51667]]]}},{"type":"Feature","properties":{"c":"866676","o":"","e":""},"geometry":{"type":"Polygon","coordinates":[[[-83.13125,46.60417],[-83.13125,46.60833],[-83.125,46.60833],[-83.125,46.60417],[-83.13125,46.60417]]]}},{"type":"Feature","properties":{"c":"866677","o":"","e":""},"geometry":{"type":"Polygon","coordinates":[[[-83.10625,46.6],[-83.10625,46.60417],[-83.1,46.60417],[-83.1,46.6],[-83.10625,46.6]]]}},{"type":"Feature","properties":{"c":"866678","o":"","e":""},"geometry":{"type":"Polygon","coordinates":[[[-83.1,46.59167],[-83.1,46.59583],[-83.09375,46.59583],[-83.09375,46.59167],[-83.1,46.59167]]]}},{"type":"Feature","properties":{"c":"866682","o":"","e":""},"geometry":{"type":"Polygon","coordinates":[[[-83.1,46.60417],[-83.1,46.60833],[-83.09375,46.60833],[-83.09375,46.60417],[-83.1,46.60417]]]}},{"type":"Feature","properties":{"c":"866679","o":"","e":""},"geometry":{"type":"Polygon","coordinates":[[[-83.11875,46.59167],[-83.11875,46.59583],[-83.1125,46.59583],[-83.1125,46.59167],[-83.11875,46.59167]]]}},{"type":"Feature","properties":{"c":"866680","o":"","e":""},"geometry":{"type":"Polygon","coordinates":[[[-83.10625,46.59583],[-83.10625,46.6],[-83.1,46.6],[-83.1,46.59583],[-83.10625,46.59583]]]}},{"type":"Feature","properties":{"c":"866681","o":"","e":""},"geometry":{"type":"Polygon","coordinates":[[[-83.1125,46.59167],[-83.1125,46.59583],[-83.10625,46.59583],[-83.10625,46.59167],[-83.1125,46.59167]]]}},{"type":"Feature","properties":{"c":"866695","o":"","e":""},"geometry":{"type":"Polygon","coordinates":[[[-83.125,46.59583],[-83.125,46.6],[-83.11875,46.6],[-83.11875,46.59583],[-83.125,46.59583]]]}},{"type":"Feature","properties":{"c":"726262","o":"","e":""},"geometry":{"type":"Polygon","coordinates":[[[-83.05,46.6],[-83.05,46.60417],[-83.04375,46.60417],[-83.04375,46.6],[-83.05,46.6]]]}},{"type":"Feature","properties":{"c":"866692","o":"","e":""},"geometry":{"type":"Polygon","coordinates":[[[-83.13125,46.59167],[-83.13125,46.59583],[-83.125,46.59583],[-83.125,46.59167],[-83.13125,46.59167]]]}},{"type":"Feature","properties":{"c":"866693","o":"","e":""},"geometry":{"type":"Polygon","coordinates":[[[-83.1375,46.59583],[-83.1375,46.6],[-83.13125,46.6],[-83.13125,46.59583],[-83.1375,46.59583]]]}},{"type":"Feature","properties":{"c":"866696","o":"","e":""},"geometry":{"type":"Polygon","coordinates":[[[-83.13125,46.6],[-83.13125,46.60417],[-83.125,46.60417],[-83.125,46.6],[-83.13125,46.6]]]}},{"type":"Feature","properties":{"c":"726263","o":"","e":""},"geometry":{"type":"Polygon","coordinates":[[[-83.04375,46.59583],[-83.04375,46.6],[-83.0375,46.6],[-83.0375,46.59583],[-83.04375,46.59583]]]}},{"type":"Feature","properties":{"c":"866697","o":"","e":""},"geometry":{"type":"Polygon","coordinates":[[[-83.1125,46.60417],[-83.1125,46.60833],[-83.10625,46.60833],[-83.10625,46.60417],[-83.1125,46.60417]]]}},{"type":"Feature","properties":{"c":"866698","o":"","e":""},"geometry":{"type":"Polygon","coordinates":[[[-83.10625,46.60417],[-83.10625,46.60833],[-83.1,46.60833],[-83.1,46.60417],[-83.10625,46.60417]]]}},{"type":"Feature","properties":{"c":"866694","o":"","e":""},"geometry":{"type":"Polygon","coordinates":[[[-83.125,46.59167],[-83.125,46.59583],[-83.11875,46.59583],[-83.11875,46.59167],[-83.125,46.59167]]]}},{"type":"Feature","properties":{"c":"726264","o":"","e":""},"geometry":{"type":"Polygon","coordinates":[[[-83.04375,46.6],[-83.04375,46.60417],[-83.0375,46.60417],[-83.0375,46.6],[-83.04375,46.6]]]}},{"type":"Feature","properties":{"c":"726265","o":"","e":""},"geometry":{"type":"Polygon","coordinates":[[[-83.0875,46.6],[-83.0875,46.60417],[-83.08125,46.60417],[-83.08125,46.6],[-83.0875,46.6]]]}},{"type":"Feature","properties":{"c":"726266","o":"","e":""},"geometry":{"type":"Polygon","coordinates":[[[-83.08125,46.59167],[-83.08125,46.59583],[-83.075,46.59583],[-83.075,46.59167],[-83.08125,46.59167]]]}},{"type":"Feature","properties":{"c":"726267","o":"","e":""},"geometry":{"type":"Polygon","coordinates":[[[-83.075,46.60417],[-83.075,46.60833],[-83.06875,46.60833],[-83.06875,46.60417],[-83.075,46.60417]]]}},{"type":"Feature","properties":{"c":"726268","o":"","e":""},"geometry":{"type":"Polygon","coordinates":[[[-83.05625,46.59583],[-83.05625,46.6],[-83.05,46.6],[-83.05,46.59583],[-83.05625,46.59583]]]}},{"type":"Feature","properties":{"c":"726269","o":"","e":""},"geometry":{"type":"Polygon","coordinates":[[[-83.08125,46.60417],[-83.08125,46.60833],[-83.075,46.60833],[-83.075,46.60417],[-83.08125,46.60417]]]}},{"type":"Feature","properties":{"c":"866689","o":"","e":""},"geometry":{"type":"Polygon","coordinates":[[[-83.1375,46.60417],[-83.1375,46.60833],[-83.13125,46.60833],[-83.13125,46.60417],[-83.1375,46.60417]]]}},{"type":"Feature","properties":{"c":"866690","o":"","e":""},"geometry":{"type":"Polygon","coordinates":[[[-83.1125,46.59583],[-83.1125,46.6],[-83.10625,46.6],[-83.10625,46.59583],[-83.1125,46.59583]]]}},{"type":"Feature","properties":{"c":"866691","o":"","e":""},"geometry":{"type":"Polygon","coordinates":[[[-83.1,46.6],[-83.1,46.60417],[-83.09375,46.60417],[-83.09375,46.6],[-83.1,46.6]]]}},{"type":"Feature","properties":{"c":"866683","o":"","e":""},"geometry":{"type":"Polygon","coordinates":[[[-83.09375,46.59583],[-83.09375,46.6],[-83.0875,46.6],[-83.0875,46.59583],[-83.09375,46.59583]]]}},{"type":"Feature","properties":{"c":"866684","o":"","e":""},"geometry":{"type":"Polygon","coordinates":[[[-83.1375,46.6],[-83.1375,46.60417],[-83.13125,46.60417],[-83.13125,46.6],[-83.1375,46.6]]]}},{"type":"Feature","properties":{"c":"866685","o":"","e":""},"geometry":{"type":"Polygon","coordinates":[[[-83.125,46.6],[-83.125,46.60417],[-83.11875,46.60417],[-83.11875,46.6],[-83.125,46.6]]]}},{"type":"Feature","properties":{"c":"866686","o":"","e":""},"geometry":{"type":"Polygon","coordinates":[[[-83.125,46.60417],[-83.125,46.60833],[-83.11875,46.60833],[-83.11875,46.60417],[-83.125,46.60417]]]}},{"type":"Feature","properties":{"c":"866687","o":"","e":""},"geometry":{"type":"Polygon","coordinates":[[[-83.1,46.59583],[-83.1,46.6],[-83.09375,46.6],[-83.09375,46.59583],[-83.1,46.59583]]]}},{"type":"Feature","properties":{"c":"866688","o":"","e":""},"geometry":{"type":"Polygon","coordinates":[[[-83.09375,46.60417],[-83.09375,46.60833],[-83.0875,46.60833],[-83.0875,46.60417],[-83.09375,46.60417]]]}},{"type":"Feature","properties":{"c":"866669","o":"","e":""},"geometry":{"type":"Polygon","coordinates":[[[-83.11875,46.59583],[-83.11875,46.6],[-83.1125,46.6],[-83.1125,46.59583],[-83.11875,46.59583]]]}},{"type":"Feature","properties":{"c":"866670","o":"","e":""},"geometry":{"type":"Polygon","coordinates":[[[-83.11875,46.6],[-83.11875,46.60417],[-83.1125,46.60417],[-83.1125,46.6],[-83.11875,46.6]]]}},{"type":"Feature","properties":{"c":"866675","o":"","e":""},"geometry":{"type":"Polygon","coordinates":[[[-83.13125,46.59583],[-83.13125,46.6],[-83.125,46.6],[-83.125,46.59583],[-83.13125,46.59583]]]}},{"type":"Feature","properties":{"c":"866671","o":"","e":""},"geometry":{"type":"Polygon","coordinates":[[[-83.11875,46.60417],[-83.11875,46.60833],[-83.1125,46.60833],[-83.1125,46.60417],[-83.11875,46.60417]]]}},{"type":"Feature","properties":{"c":"866672","o":"","e":""},"geometry":{"type":"Polygon","coordinates":[[[-83.1125,46.6],[-83.1125,46.60417],[-83.10625,46.60417],[-83.10625,46.6],[-83.1125,46.6]]]}},{"type":"Feature","properties":{"c":"866673","o":"","e":""},"geometry":{"type":"Polygon","coordinates":[[[-83.10625,46.59167],[-83.10625,46.59583],[-83.1,46.59583],[-83.1,46.59167],[-83.10625,46.59167]]]}},{"type":"Feature","properties":{"c":"866674","o":"","e":""},"geometry":{"type":"Polygon","coordinates":[[[-83.09375,46.6],[-83.09375,46.60417],[-83.0875,46.60417],[-83.0875,46.6],[-83.09375,46.6]]]}},{"type":"Feature","properties":{"c":"1035568","o":"","e":""},"geometry":{"type":"Polygon","coordinates":[[[-83.4375,46.55417],[-83.4375,46.55833],[-83.43125,46.55833],[-83.43125,46.55417],[-83.4375,46.55417]]]}},{"type":"Feature","properties":{"c":"617574","o":"","e":""},"geometry":{"type":"Polygon","coordinates":[[[-83.0375,46.53333],[-83.0375,46.5375],[-83.03125,46.5375],[-83.03125,46.53333],[-83.0375,46.53333]]]}},{"type":"Feature","properties":{"c":"617575","o":"","e":""},"geometry":{"type":"Polygon","coordinates":[[[-83.03125,46.5375],[-83.03125,46.54167],[-83.025,46.54167],[-83.025,46.5375],[-83.03125,46.5375]]]}},{"type":"Feature","properties":{"c":"617576","o":"","e":""},"geometry":{"type":"Polygon","coordinates":[[[-83.04375,46.53333],[-83.04375,46.5375],[-83.0375,46.5375],[-83.0375,46.53333],[-83.04375,46.53333]]]}},{"type":"Feature","properties":{"c":"617577","o":"","e":""},"geometry":{"type":"Polygon","coordinates":[[[-83.04375,46.5375],[-83.04375,46.54167],[-83.0375,46.54167],[-83.0375,46.5375],[-83.04375,46.5375]]]}},{"type":"Feature","properties":{"c":"617578","o":"","e":""},"geometry":{"type":"Polygon","coordinates":[[[-83.0375,46.5375],[-83.0375,46.54167],[-83.03125,46.54167],[-83.03125,46.5375],[-83.0375,46.5375]]]}},{"type":"Feature","properties":{"c":"617579","o":"","e":""},"geometry":{"type":"Polygon","coordinates":[[[-83.04375,46.54167],[-83.04375,46.54583],[-83.0375,46.54583],[-83.0375,46.54167],[-83.04375,46.54167]]]}},{"type":"Feature","properties":{"c":"617580","o":"","e":""},"geometry":{"type":"Polygon","coordinates":[[[-83.0375,46.54167],[-83.0375,46.54583],[-83.03125,46.54583],[-83.03125,46.54167],[-83.0375,46.54167]]]}},{"type":"Feature","properties":{"c":"617581","o":"","e":""},"geometry":{"type":"Polygon","coordinates":[[[-83.03125,46.54167],[-83.03125,46.54583],[-83.025,46.54583],[-83.025,46.54167],[-83.03125,46.54167]]]}},{"type":"Feature","properties":{"c":"726280","o":"","e":""},"geometry":{"type":"Polygon","coordinates":[[[-83.06875,46.60417],[-83.06875,46.60833],[-83.0625,46.60833],[-83.0625,46.60417],[-83.06875,46.60417]]]}},{"type":"Feature","properties":{"c":"726281","o":"","e":""},"geometry":{"type":"Polygon","coordinates":[[[-83.0625,46.60417],[-83.0625,46.60833],[-83.05625,46.60833],[-83.05625,46.60417],[-83.0625,46.60417]]]}},{"type":"Feature","properties":{"c":"726282","o":"","e":""},"geometry":{"type":"Polygon","coordinates":[[[-83.08125,46.59583],[-83.08125,46.6],[-83.075,46.6],[-83.075,46.59583],[-83.08125,46.59583]]]}},{"type":"Feature","properties":{"c":"726283","o":"","e":""},"geometry":{"type":"Polygon","coordinates":[[[-83.08125,46.6],[-83.08125,46.60417],[-83.075,46.60417],[-83.075,46.6],[-83.08125,46.6]]]}},{"type":"Feature","properties":{"c":"726284","o":"","e":""},"geometry":{"type":"Polygon","coordinates":[[[-83.075,46.59583],[-83.075,46.6],[-83.06875,46.6],[-83.06875,46.59583],[-83.075,46.59583]]]}},{"type":"Feature","properties":{"c":"726285","o":"","e":""},"geometry":{"type":"Polygon","coordinates":[[[-83.0625,46.6],[-83.0625,46.60417],[-83.05625,46.60417],[-83.05625,46.6],[-83.0625,46.6]]]}},{"type":"Feature","properties":{"c":"726286","o":"","e":""},"geometry":{"type":"Polygon","coordinates":[[[-83.05625,46.60417],[-83.05625,46.60833],[-83.05,46.60833],[-83.05,46.60417],[-83.05625,46.60417]]]}},{"type":"Feature","properties":{"c":"726287","o":"","e":""},"geometry":{"type":"Polygon","coordinates":[[[-83.05,46.59167],[-83.05,46.59583],[-83.04375,46.59583],[-83.04375,46.59167],[-83.05,46.59167]]]}},{"type":"Feature","properties":{"c":"726270","o":"","e":""},"geometry":{"type":"Polygon","coordinates":[[[-83.05625,46.6],[-83.05625,46.60417],[-83.05,46.60417],[-83.05,46.6],[-83.05625,46.6]]]}},{"type":"Feature","properties":{"c":"726271","o":"","e":""},"geometry":{"type":"Polygon","coordinates":[[[-83.04375,46.60417],[-83.04375,46.60833],[-83.0375,46.60833],[-83.0375,46.60417],[-83.04375,46.60417]]]}},{"type":"Feature","properties":{"c":"726272","o":"","e":""},"geometry":{"type":"Polygon","coordinates":[[[-83.0875,46.59583],[-83.0875,46.6],[-83.08125,46.6],[-83.08125,46.59583],[-83.0875,46.59583]]]}},{"type":"Feature","properties":{"c":"726273","o":"","e":""},"geometry":{"type":"Polygon","coordinates":[[[-83.06875,46.59167],[-83.06875,46.59583],[-83.0625,46.59583],[-83.0625,46.59167],[-83.06875,46.59167]]]}},{"type":"Feature","properties":{"c":"726274","o":"","e":""},"geometry":{"type":"Polygon","coordinates":[[[-83.06875,46.6],[-83.06875,46.60417],[-83.0625,46.60417],[-83.0625,46.6],[-83.06875,46.6]]]}},{"type":"Feature","properties":{"c":"726275","o":"","e":""},"geometry":{"type":"Polygon","coordinates":[[[-83.0625,46.59167],[-83.0625,46.59583],[-83.05625,46.59583],[-83.05625,46.59167],[-83.0625,46.59167]]]}},{"type":"Feature","properties":{"c":"726276","o":"","e":""},"geometry":{"type":"Polygon","coordinates":[[[-83.05625,46.59167],[-83.05625,46.59583],[-83.05,46.59583],[-83.05,46.59167],[-83.05625,46.59167]]]}},{"type":"Feature","properties":{"c":"726277","o":"","e":""},"geometry":{"type":"Polygon","coordinates":[[[-83.09375,46.59167],[-83.09375,46.59583],[-83.0875,46.59583],[-83.0875,46.59167],[-83.09375,46.59167]]]}},{"type":"Feature","properties":{"c":"726278","o":"","e":""},"geometry":{"type":"Polygon","coordinates":[[[-83.075,46.59167],[-83.075,46.59583],[-83.06875,46.59583],[-83.06875,46.59167],[-83.075,46.59167]]]}},{"type":"Feature","properties":{"c":"726279","o":"","e":""},"geometry":{"type":"Polygon","coordinates":[[[-83.06875,46.59583],[-83.06875,46.6],[-83.0625,46.6],[-83.0625,46.59583],[-83.06875,46.59583]]]}},{"type":"Feature","properties":{"c":"726288","o":"","e":""},"geometry":{"type":"Polygon","coordinates":[[[-83.01875,46.5875],[-83.01875,46.59167],[-83.0125,46.59167],[-83.0125,46.5875],[-83.01875,46.5875]]]}},{"type":"Feature","properties":{"c":"726289","o":"","e":""},"geometry":{"type":"Polygon","coordinates":[[[-83.01875,46.6],[-83.01875,46.60417],[-83.0125,46.60417],[-83.0125,46.6],[-83.01875,46.6]]]}},{"type":"Feature","properties":{"c":"726290","o":"","e":""},"geometry":{"type":"Polygon","coordinates":[[[-83.01875,46.60417],[-83.01875,46.60833],[-83.0125,46.60833],[-83.0125,46.60417],[-83.01875,46.60417]]]}},{"type":"Feature","properties":{"c":"726291","o":"","e":""},"geometry":{"type":"Polygon","coordinates":[[[-83.01875,46.58333],[-83.01875,46.5875],[-83.0125,46.5875],[-83.0125,46.58333],[-83.01875,46.58333]]]}},{"type":"Feature","properties":{"c":"726292","o":"","e":""},"geometry":{"type":"Polygon","coordinates":[[[-83.01875,46.59167],[-83.01875,46.59583],[-83.0125,46.59583],[-83.0125,46.59167],[-83.01875,46.59167]]]}},{"type":"Feature","properties":{"c":"726293","o":"","e":""},"geometry":{"type":"Polygon","coordinates":[[[-83.01875,46.59583],[-83.01875,46.6],[-83.0125,46.6],[-83.0125,46.59583],[-83.01875,46.59583]]]}},{"type":"Feature","properties":{"c":"726294","o":"","e":""},"geometry":{"type":"Polygon","coordinates":[[[-83.05,46.6125],[-83.05,46.61667],[-83.04375,46.61667],[-83.04375,46.6125],[-83.05,46.6125]]]}},{"type":"Feature","properties":{"c":"726295","o":"","e":""},"geometry":{"type":"Polygon","coordinates":[[[-83.0375,46.6125],[-83.0375,46.61667],[-83.03125,46.61667],[-83.03125,46.6125],[-83.0375,46.6125]]]}},{"type":"Feature","properties":{"c":"726296","o":"","e":""},"geometry":{"type":"Polygon","coordinates":[[[-83.01875,46.6125],[-83.01875,46.61667],[-83.0125,46.61667],[-83.0125,46.6125],[-83.01875,46.6125]]]}},{"type":"Feature","properties":{"c":"726297","o":"","e":""},"geometry":{"type":"Polygon","coordinates":[[[-83.05,46.60833],[-83.05,46.6125],[-83.04375,46.6125],[-83.04375,46.60833],[-83.05,46.60833]]]}},{"type":"Feature","properties":{"c":"726298","o":"","e":""},"geometry":{"type":"Polygon","coordinates":[[[-83.025,46.6125],[-83.025,46.61667],[-83.01875,46.61667],[-83.01875,46.6125],[-83.025,46.6125]]]}},{"type":"Feature","properties":{"c":"726299","o":"","e":""},"geometry":{"type":"Polygon","coordinates":[[[-83.04375,46.60833],[-83.04375,46.6125],[-83.0375,46.6125],[-83.0375,46.60833],[-83.04375,46.60833]]]}},{"type":"Feature","properties":{"c":"726300","o":"","e":""},"geometry":{"type":"Polygon","coordinates":[[[-83.0375,46.60833],[-83.0375,46.6125],[-83.03125,46.6125],[-83.03125,46.60833],[-83.0375,46.60833]]]}},{"type":"Feature","properties":{"c":"726301","o":"","e":""},"geometry":{"type":"Polygon","coordinates":[[[-83.03125,46.6125],[-83.03125,46.61667],[-83.025,46.61667],[-83.025,46.6125],[-83.03125,46.6125]]]}},{"type":"Feature","properties":{"c":"726302","o":"","e":""},"geometry":{"type":"Polygon","coordinates":[[[-83.04375,46.6125],[-83.04375,46.61667],[-83.0375,46.61667],[-83.0375,46.6125],[-83.04375,46.6125]]]}},{"type":"Feature","properties":{"c":"726303","o":"","e":""},"geometry":{"type":"Polygon","coordinates":[[[-83.03125,46.60833],[-83.03125,46.6125],[-83.025,46.6125],[-83.025,46.60833],[-83.03125,46.60833]]]}},{"type":"Feature","properties":{"c":"726304","o":"","e":""},"geometry":{"type":"Polygon","coordinates":[[[-83.0125,46.60417],[-83.0125,46.60833],[-83.00625,46.60833],[-83.00625,46.60417],[-83.0125,46.60417]]]}},{"type":"Feature","properties":{"c":"726305","o":"","e":""},"geometry":{"type":"Polygon","coordinates":[[[-83.0125,46.6125],[-83.0125,46.61667],[-83.00625,46.61667],[-83.00625,46.6125],[-83.0125,46.6125]]]}},{"type":"Feature","properties":{"c":"726306","o":"","e":""},"geometry":{"type":"Polygon","coordinates":[[[-83.0125,46.60833],[-83.0125,46.6125],[-83.00625,46.6125],[-83.00625,46.60833],[-83.0125,46.60833]]]}},{"type":"Feature","properties":{"c":"793174","o":"","e":""},"geometry":{"type":"Polygon","coordinates":[[[-83.31875,46.99167],[-83.31875,46.99583],[-83.3125,46.99583],[-83.3125,46.99167],[-83.31875,46.99167]]]}},{"type":"Feature","properties":{"c":"726318","o":"","e":""},"geometry":{"type":"Polygon","coordinates":[[[-83.00625,46.60417],[-83.00625,46.60833],[-83.0,46.60833],[-83.0,46.60417],[-83.00625,46.60417]]]}},{"type":"Feature","properties":{"c":"726319","o":"","e":""},"geometry":{"type":"Polygon","coordinates":[[[-83.00625,46.6125],[-83.00625,46.61667],[-83.0,46.61667],[-83.0,46.6125],[-83.00625,46.6125]]]}},{"type":"Feature","properties":{"c":"726320","o":"","e":""},"geometry":{"type":"Polygon","coordinates":[[[-83.00625,46.60833],[-83.00625,46.6125],[-83.0,46.6125],[-83.0,46.60833],[-83.00625,46.60833]]]}},{"type":"Feature","properties":{"c":"726234","o":"","e":""},"geometry":{"type":"Polygon","coordinates":[[[-83.0125,46.5875],[-83.0125,46.59167],[-83.00625,46.59167],[-83.00625,46.5875],[-83.0125,46.5875]]]}},{"type":"Feature","properties":{"c":"726235","o":"","e":""},"geometry":{"type":"Polygon","coordinates":[[[-83.0125,46.59583],[-83.0125,46.6],[-83.00625,46.6],[-83.00625,46.59583],[-83.0125,46.59583]]]}},{"type":"Feature","properties":{"c":"726241","o":"","e":""},"geometry":{"type":"Polygon","coordinates":[[[-83.00625,46.58333],[-83.00625,46.5875],[-83.0,46.5875],[-83.0,46.58333],[-83.00625,46.58333]]]}},{"type":"Feature","properties":{"c":"726243","o":"","e":""},"geometry":{"type":"Polygon","coordinates":[[[-83.00625,46.59167],[-83.00625,46.59583],[-83.0,46.59583],[-83.0,46.59167],[-83.00625,46.59167]]]}},{"type":"Feature","properties":{"c":"726244","o":"","e":""},"geometry":{"type":"Polygon","coordinates":[[[-83.0125,46.6],[-83.0125,46.60417],[-83.00625,46.60417],[-83.00625,46.6],[-83.0125,46.6]]]}},{"type":"Feature","properties":{"c":"726249","o":"","e":""},"geometry":{"type":"Polygon","coordinates":[[[-83.00625,46.6],[-83.00625,46.60417],[-83.0,46.60417],[-83.0,46.6],[-83.00625,46.6]]]}},{"type":"Feature","properties":{"c":"726252","o":"","e":""},"geometry":{"type":"Polygon","coordinates":[[[-83.0125,46.59167],[-83.0125,46.59583],[-83.00625,46.59583],[-83.00625,46.59167],[-83.0125,46.59167]]]}},{"type":"Feature","properties":{"c":"726253","o":"","e":""},"geometry":{"type":"Polygon","coordinates":[[[-83.00625,46.5875],[-83.00625,46.59167],[-83.0,46.59167],[-83.0,46.5875],[-83.00625,46.5875]]]}},{"type":"Feature","properties":{"c":"726254","o":"","e":""},"geometry":{"type":"Polygon","coordinates":[[[-83.0125,46.58333],[-83.0125,46.5875],[-83.00625,46.5875],[-83.00625,46.58333],[-83.0125,46.58333]]]}},{"type":"Feature","properties":{"c":"726255","o":"","e":""},"geometry":{"type":"Polygon","coordinates":[[[-83.00625,46.59583],[-83.00625,46.6],[-83.0,46.6],[-83.0,46.59583],[-83.00625,46.59583]]]}},{"type":"Feature","properties":{"c":"793175","o":"","e":""},"geometry":{"type":"Polygon","coordinates":[[[-83.3125,46.99167],[-83.3125,46.99583],[-83.30625,46.99583],[-83.30625,46.99167],[-83.3125,46.99167]]]}},{"type":"Feature","properties":{"c":"793176","o":"","e":""},"geometry":{"type":"Polygon","coordinates":[[[-83.31875,46.9875],[-83.31875,46.99167],[-83.3125,46.99167],[-83.3125,46.9875],[-83.31875,46.9875]]]}},{"type":"Feature","properties":{"c":"793177","o":"","e":""},"geometry":{"type":"Polygon","coordinates":[[[-83.3125,46.9875],[-83.3125,46.99167],[-83.30625,46.99167],[-83.30625,46.9875],[-83.3125,46.9875]]]}},{"type":"Feature","properties":{"c":"726962","o":"","e":""},"geometry":{"type":"Polygon","coordinates":[[[-83.0125,46.50833],[-83.0125,46.5125],[-83.00625,46.5125],[-83.00625,46.50833],[-83.0125,46.50833]]]}},{"type":"Feature","properties":{"c":"726963","o":"","e":""},"geometry":{"type":"Polygon","coordinates":[[[-83.00625,46.50417],[-83.00625,46.50833],[-83.0,46.50833],[-83.0,46.50417],[-83.00625,46.50417]]]}},{"type":"Feature","properties":{"c":"726964","o":"","e":""},"geometry":{"type":"Polygon","coordinates":[[[-83.025,46.50833],[-83.025,46.5125],[-83.01875,46.5125],[-83.01875,46.50833],[-83.025,46.50833]]]}},{"type":"Feature","properties":{"c":"726966","o":"","e":""},"geometry":{"type":"Polygon","coordinates":[[[-83.00625,46.50833],[-83.00625,46.5125],[-83.0,46.5125],[-83.0,46.50833],[-83.00625,46.50833]]]}},{"type":"Feature","properties":{"c":"726970","o":"","e":""},"geometry":{"type":"Polygon","coordinates":[[[-83.025,46.50417],[-83.025,46.50833],[-83.01875,46.50833],[-83.01875,46.50417],[-83.025,46.50417]]]}},{"type":"Feature","properties":{"c":"726971","o":"","e":""},"geometry":{"type":"Polygon","coordinates":[[[-83.00625,46.5],[-83.00625,46.50417],[-83.0,46.50417],[-83.0,46.5],[-83.00625,46.5]]]}},{"type":"Feature","properties":{"c":"726958","o":"","e":""},"geometry":{"type":"Polygon","coordinates":[[[-83.01875,46.50417],[-83.01875,46.50833],[-83.0125,46.50833],[-83.0125,46.50417],[-83.01875,46.50417]]]}},{"type":"Feature","properties":{"c":"726977","o":"","e":""},"geometry":{"type":"Polygon","coordinates":[[[-83.03125,46.50417],[-83.03125,46.50833],[-83.025,46.50833],[-83.025,46.50417],[-83.03125,46.50417]]]}},{"type":"Feature","properties":{"c":"726978","o":"","e":""},"geometry":{"type":"Polygon","coordinates":[[[-83.03125,46.50833],[-83.03125,46.5125],[-83.025,46.5125],[-83.025,46.50833],[-83.03125,46.50833]]]}},{"type":"Feature","properties":{"c":"726979","o":"","e":""},"geometry":{"type":"Polygon","coordinates":[[[-83.01875,46.50833],[-83.01875,46.5125],[-83.0125,46.5125],[-83.0125,46.50833],[-83.01875,46.50833]]]}},{"type":"Feature","properties":{"c":"726980","o":"","e":""},"geometry":{"type":"Polygon","coordinates":[[[-83.0125,46.50417],[-83.0125,46.50833],[-83.00625,46.50833],[-83.00625,46.50417],[-83.0125,46.50417]]]}},{"type":"Feature","properties":{"c":"947994","o":"","e":""},"geometry":{"type":"Polygon","coordinates":[[[-83.325,46.99583],[-83.325,47.0],[-83.31875,47.0],[-83.31875,46.99583],[-83.325,46.99583]]]}},{"type":"Feature","properties":{"c":"617512","o":"","e":""},"geometry":{"type":"Polygon","coordinates":[[[-83.0625,46.50833],[-83.0625,46.5125],[-83.05625,46.5125],[-83.05625,46.50833],[-83.0625,46.50833]]]}},{"type":"Feature","properties":{"c":"617513","o":"","e":""},"geometry":{"type":"Polygon","coordinates":[[[-83.05625,46.50833],[-83.05625,46.5125],[-83.05,46.5125],[-83.05,46.50833],[-83.05625,46.50833]]]}},{"type":"Feature","properties":{"c":"617514","o":"","e":""},"geometry":{"type":"Polygon","coordinates":[[[-83.0625,46.50417],[-83.0625,46.50833],[-83.05625,46.50833],[-83.05625,46.50417],[-83.0625,46.50417]]]}},{"type":"Feature","properties":{"c":"617515","o":"","e":""},"geometry":{"type":"Polygon","coordinates":[[[-83.05625,46.50417],[-83.05625,46.50833],[-83.05,46.50833],[-83.05,46.50417],[-83.05625,46.50417]]]}},{"type":"Feature","properties":{"c":"617516","o":"","e":""},"geometry":{"type":"Polygon","coordinates":[[[-83.075,46.50833],[-83.075,46.5125],[-83.06875,46.5125],[-83.06875,46.50833],[-83.075,46.50833]]]}},{"type":"Feature","properties":{"c":"617517","o":"","e":""},"geometry":{"type":"Polygon","coordinates":[[[-83.075,46.50417],[-83.075,46.50833],[-83.06875,46.50833],[-83.06875,46.50417],[-83.075,46.50417]]]}},{"type":"Feature","properties":{"c":"617518","o":"","e":""},"geometry":{"type":"Polygon","coordinates":[[[-83.06875,46.50417],[-83.06875,46.50833],[-83.0625,46.50833],[-83.0625,46.50417],[-83.06875,46.50417]]]}},{"type":"Feature","properties":{"c":"617519","o":"","e":""},"geometry":{"type":"Polygon","coordinates":[[[-83.06875,46.50833],[-83.06875,46.5125],[-83.0625,46.5125],[-83.0625,46.50833],[-83.06875,46.50833]]]}},{"type":"Feature","properties":{"c":"947995","o":"","e":""},"geometry":{"type":"Polygon","coordinates":[[[-83.31875,46.99583],[-83.31875,47.0],[-83.3125,47.0],[-83.3125,46.99583],[-83.31875,46.99583]]]}},{"type":"Feature","properties":{"c":"947996","o":"","e":""},"geometry":{"type":"Polygon","coordinates":[[[-83.3125,46.99583],[-83.3125,47.0],[-83.30625,47.0],[-83.30625,46.99583],[-83.3125,46.99583]]]}},{"type":"Feature","properties":{"c":"701046","o":"","e":""},"geometry":{"type":"Polygon","coordinates":[[[-83.03125,46.5125],[-83.03125,46.51667],[-83.025,46.51667],[-83.025,46.5125],[-83.03125,46.5125]]]}},{"type":"Feature","properties":{"c":"701049","o":"","e":""},"geometry":{"type":"Polygon","coordinates":[[[-83.025,46.5125],[-83.025,46.51667],[-83.01875,46.51667],[-83.01875,46.5125],[-83.025,46.5125]]]}},{"type":"Feature","properties":{"c":"617520","o":"","e":""},"geometry":{"type":"Polygon","coordinates":[[[-83.05,46.54583],[-83.05,46.55],[-83.04375,46.55],[-83.04375,46.54583],[-83.05,46.54583]]]}},{"type":"Feature","properties":{"c":"617521","o":"","e":""},"geometry":{"type":"Polygon","coordinates":[[[-83.03125,46.55],[-83.03125,46.55417],[-83.025,46.55417],[-83.025,46.55],[-83.03125,46.55]]]}},{"type":"Feature","properties":{"c":"617522","o":"","e":""},"geometry":{"type":"Polygon","coordinates":[[[-83.0125,46.55],[-83.0125,46.55417],[-83.00625,46.55417],[-83.00625,46.55],[-83.0125,46.55]]]}},{"type":"Feature","properties":{"c":"617523","o":"","e":""},"geometry":{"type":"Polygon","coordinates":[[[-83.04375,46.54583],[-83.04375,46.55],[-83.0375,46.55],[-83.0375,46.54583],[-83.04375,46.54583]]]}},{"type":"Feature","properties":{"c":"617524","o":"","e":""},"geometry":{"type":"Polygon","coordinates":[[[-83.0375,46.54583],[-83.0375,46.55],[-83.03125,46.55],[-83.03125,46.54583],[-83.0375,46.54583]]]}},{"type":"Feature","properties":{"c":"617525","o":"","e":""},"geometry":{"type":"Polygon","coordinates":[[[-83.01875,46.54583],[-83.01875,46.55],[-83.0125,46.55],[-83.0125,46.54583],[-83.01875,46.54583]]]}},{"type":"Feature","properties":{"c":"617526","o":"","e":""},"geometry":{"type":"Polygon","coordinates":[[[-83.025,46.54583],[-83.025,46.55],[-83.01875,46.55],[-83.01875,46.54583],[-83.025,46.54583]]]}},{"type":"Feature","properties":{"c":"617527","o":"","e":""},"geometry":{"type":"Polygon","coordinates":[[[-83.025,46.55417],[-83.025,46.55833],[-83.01875,46.55833],[-83.01875,46.55417],[-83.025,46.55417]]]}},{"type":"Feature","properties":{"c":"617528","o":"","e":""},"geometry":{"type":"Polygon","coordinates":[[[-83.00625,46.55],[-83.00625,46.55417],[-83.0,46.55417],[-83.0,46.55],[-83.00625,46.55]]]}},{"type":"Feature","properties":{"c":"617529","o":"","e":""},"geometry":{"type":"Polygon","coordinates":[[[-83.00625,46.55417],[-83.00625,46.55833],[-83.0,46.55833],[-83.0,46.55417],[-83.00625,46.55417]]]}},{"type":"Feature","properties":{"c":"617530","o":"","e":""},"geometry":{"type":"Polygon","coordinates":[[[-83.03125,46.54583],[-83.03125,46.55],[-83.025,46.55],[-83.025,46.54583],[-83.03125,46.54583]]]}},{"type":"Feature","properties":{"c":"617531","o":"","e":""},"geometry":{"type":"Polygon","coordinates":[[[-83.01875,46.55417],[-83.01875,46.55833],[-83.0125,46.55833],[-83.0125,46.55417],[-83.01875,46.55417]]]}},{"type":"Feature","properties":{"c":"617533","o":"","e":""},"geometry":{"type":"Polygon","coordinates":[[[-83.01875,46.55],[-83.01875,46.55417],[-83.0125,46.55417],[-83.0125,46.55],[-83.01875,46.55]]]}},{"type":"Feature","properties":{"c":"617532","o":"","e":""},"geometry":{"type":"Polygon","coordinates":[[[-83.025,46.55],[-83.025,46.55417],[-83.01875,46.55417],[-83.01875,46.55],[-83.025,46.55]]]}},{"type":"Feature","properties":{"c":"617534","o":"","e":""},"geometry":{"type":"Polygon","coordinates":[[[-83.0125,46.55417],[-83.0125,46.55833],[-83.00625,46.55833],[-83.00625,46.55417],[-83.0125,46.55417]]]}},{"type":"Feature","properties":{"c":"1052205","o":"","e":""},"geometry":{"type":"Polygon","coordinates":[[[-83.01875,46.7],[-83.01875,46.70417],[-83.0125,46.70417],[-83.00625,46.70417],[-83.0,46.70417],[-82.99375,46.70417],[-82.99375,46.7],[-82.99375,46.69583],[-82.99375,46.69167],[-83.0,46.69167],[-83.00625,46.69167],[-83.0125,46.69167],[-83.01875,46.69167],[-83.01875,46.69583],[-83.01875,46.7]]]}},{"type":"Feature","properties":{"c":"1029293","o":"","e":""},"geometry":{"type":"Polygon","coordinates":[[[-83.4375,46.51667],[-83.4375,46.52083],[-83.43125,46.52083],[-83.43125,46.51667],[-83.4375,46.51667]]]}},{"type":"Feature","properties":{"c":"1029294","o":"","e":""},"geometry":{"type":"Polygon","coordinates":[[[-83.4375,46.5125],[-83.4375,46.51667],[-83.43125,46.51667],[-83.43125,46.5125],[-83.4375,46.5125]]]}},{"type":"Feature","properties":{"c":"1029295","o":"","e":""},"geometry":{"type":"Polygon","coordinates":[[[-83.44375,46.5125],[-83.44375,46.51667],[-83.4375,46.51667],[-83.4375,46.5125],[-83.44375,46.5125]]]}},{"type":"Feature","properties":{"c":"920200","o":"","e":""},"geometry":{"type":"Polygon","coordinates":[[[-83.04375,46.52083],[-83.04375,46.525],[-83.0375,46.525],[-83.0375,46.52083],[-83.04375,46.52083]]]}},{"type":"Feature","properties":{"c":"920201","o":"","e":""},"geometry":{"type":"Polygon","coordinates":[[[-83.0375,46.52083],[-83.0375,46.525],[-83.03125,46.525],[-83.03125,46.52083],[-83.0375,46.52083]]]}},{"type":"Feature","properties":{"c":"920202","o":"","e":""},"geometry":{"type":"Polygon","coordinates":[[[-83.03125,46.52083],[-83.03125,46.525],[-83.025,46.525],[-83.025,46.52083],[-83.03125,46.52083]]]}},{"type":"Feature","properties":{"c":"920203","o":"","e":""},"geometry":{"type":"Polygon","coordinates":[[[-83.025,46.52083],[-83.025,46.525],[-83.01875,46.525],[-83.01875,46.52083],[-83.025,46.52083]]]}},{"type":"Feature","properties":{"c":"920204","o":"","e":""},"geometry":{"type":"Polygon","coordinates":[[[-83.04375,46.51667],[-83.04375,46.52083],[-83.0375,46.52083],[-83.0375,46.51667],[-83.04375,46.51667]]]}},{"type":"Feature","properties":{"c":"920205","o":"","e":""},"geometry":{"type":"Polygon","coordinates":[[[-83.0375,46.51667],[-83.0375,46.52083],[-83.03125,46.52083],[-83.03125,46.51667],[-83.0375,46.51667]]]}},{"type":"Feature","properties":{"c":"920206","o":"","e":""},"geometry":{"type":"Polygon","coordinates":[[[-83.025,46.51667],[-83.025,46.52083],[-83.01875,46.52083],[-83.01875,46.51667],[-83.025,46.51667]]]}},{"type":"Feature","properties":{"c":"516884","o":"","e":""},"geometry":{"type":"Polygon","coordinates":[[[-83.04375,46.50833],[-83.04375,46.5125],[-83.0375,46.5125],[-83.0375,46.50833],[-83.04375,46.50833]]]}},{"type":"Feature","properties":{"c":"683913","o":"","e":""},"geometry":{"type":"Polygon","coordinates":[[[-83.05625,46.5125],[-83.05625,46.51667],[-83.05,46.51667],[-83.05,46.5125],[-83.05625,46.5125]]]}},{"type":"Feature","properties":{"c":"931488","o":"","e":""},"geometry":{"type":"Polygon","coordinates":[[[-83.31875,46.98333],[-83.31875,46.9875],[-83.3125,46.9875],[-83.30625,46.9875],[-83.30625,46.99167],[-83.30625,46.99583],[-83.30625,47.0],[-83.3,47.0],[-83.3,46.99583],[-83.3,46.99167],[-83.3,46.9875],[-83.3,46.98333],[-83.30625,46.98333],[-83.3125,46.98333],[-83.31875,46.98333]]]}},{"type":"Feature","properties":{"c":"643569","o":"","e":""},"geometry":{"type":"Polygon","coordinates":[[[-83.0375,46.55],[-83.0375,46.55417],[-83.03125,46.55417],[-83.03125,46.55],[-83.0375,46.55]]]}},{"type":"Feature","properties":{"c":"643570","o":"","e":""},"geometry":{"type":"Polygon","coordinates":[[[-83.05625,46.53333],[-83.05625,46.5375],[-83.05,46.5375],[-83.05,46.53333],[-83.05625,46.53333]]]}},{"type":"Feature","properties":{"c":"643571","o":"","e":""},"geometry":{"type":"Polygon","coordinates":[[[-83.05625,46.54583],[-83.05625,46.55],[-83.05,46.55],[-83.05,46.54583],[-83.05625,46.54583]]]}},{"type":"Feature","properties":{"c":"643572","o":"","e":""},"geometry":{"type":"Polygon","coordinates":[[[-83.0375,46.52917],[-83.0375,46.53333],[-83.03125,46.53333],[-83.03125,46.52917],[-83.0375,46.52917]]]}},{"type":"Feature","properties":{"c":"643573","o":"","e":""},"geometry":{"type":"Polygon","coordinates":[[[-83.04375,46.52917],[-83.04375,46.53333],[-83.0375,46.53333],[-83.0375,46.52917],[-83.04375,46.52917]]]}},{"type":"Feature","properties":{"c":"643574","o":"","e":""},"geometry":{"type":"Polygon","coordinates":[[[-83.04375,46.55],[-83.04375,46.55417],[-83.0375,46.55417],[-83.0375,46.55],[-83.04375,46.55]]]}},{"type":"Feature","properties":{"c":"643575","o":"","e":""},"geometry":{"type":"Polygon","coordinates":[[[-83.05625,46.5375],[-83.05625,46.54167],[-83.05,46.54167],[-83.05,46.5375],[-83.05625,46.5375]]]}},{"type":"Feature","properties":{"c":"643576","o":"","e":""},"geometry":{"type":"Polygon","coordinates":[[[-83.05625,46.55],[-83.05625,46.55417],[-83.05,46.55417],[-83.05,46.55],[-83.05625,46.55]]]}},{"type":"Feature","properties":{"c":"643577","o":"","e":""},"geometry":{"type":"Polygon","coordinates":[[[-83.05625,46.52917],[-83.05625,46.53333],[-83.05,46.53333],[-83.05,46.52917],[-83.05625,46.52917]]]}},{"type":"Feature","properties":{"c":"643578","o":"","e":""},"geometry":{"type":"Polygon","coordinates":[[[-83.0625,46.54583],[-83.0625,46.55],[-83.05625,46.55],[-83.05625,46.54583],[-83.0625,46.54583]]]}},{"type":"Feature","properties":{"c":"643579","o":"","e":""},"geometry":{"type":"Polygon","coordinates":[[[-83.0625,46.55],[-83.0625,46.55417],[-83.05625,46.55417],[-83.05625,46.55],[-83.0625,46.55]]]}},{"type":"Feature","properties":{"c":"643580","o":"","e":""},"geometry":{"type":"Polygon","coordinates":[[[-83.05625,46.54167],[-83.05625,46.54583],[-83.05,46.54583],[-83.05,46.54167],[-83.05625,46.54167]]]}},{"type":"Feature","properties":{"c":"643581","o":"","e":""},"geometry":{"type":"Polygon","coordinates":[[[-83.05,46.55],[-83.05,46.55417],[-83.04375,46.55417],[-83.04375,46.55],[-83.05,46.55]]]}},{"type":"Feature","properties":{"c":"643582","o":"","e":""},"geometry":{"type":"Polygon","coordinates":[[[-83.05,46.52917],[-83.05,46.53333],[-83.04375,46.53333],[-83.04375,46.52917],[-83.05,46.52917]]]}},{"type":"Feature","properties":{"c":"643583","o":"","e":""},"geometry":{"type":"Polygon","coordinates":[[[-83.05,46.5375],[-83.05,46.54167],[-83.04375,46.54167],[-83.04375,46.5375],[-83.05,46.5375]]]}},{"type":"Feature","properties":{"c":"643584","o":"","e":""},"geometry":{"type":"Polygon","coordinates":[[[-83.05,46.54167],[-83.05,46.54583],[-83.04375,46.54583],[-83.04375,46.54167],[-83.05,46.54167]]]}},{"type":"Feature","properties":{"c":"643585","o":"","e":""},"geometry":{"type":"Polygon","coordinates":[[[-83.05,46.53333],[-83.05,46.5375],[-83.04375,46.5375],[-83.04375,46.53333],[-83.05,46.53333]]]}},{"type":"Feature","properties":{"c":"643586","o":"","e":""},"geometry":{"type":"Polygon","coordinates":[[[-83.03125,46.52917],[-83.03125,46.53333],[-83.025,46.53333],[-83.025,46.52917],[-83.03125,46.52917]]]}},{"type":"Feature","properties":{"c":"643587","o":"","e":""},"geometry":{"type":"Polygon","coordinates":[[[-83.025,46.5375],[-83.025,46.54167],[-83.01875,46.54167],[-83.01875,46.5375],[-83.025,46.5375]]]}},{"type":"Feature","properties":{"c":"643588","o":"","e":""},"geometry":{"type":"Polygon","coordinates":[[[-83.01875,46.53333],[-83.01875,46.5375],[-83.0125,46.5375],[-83.0125,46.53333],[-83.01875,46.53333]]]}},{"type":"Feature","properties":{"c":"643589","o":"","e":""},"geometry":{"type":"Polygon","coordinates":[[[-83.025,46.53333],[-83.025,46.5375],[-83.01875,46.5375],[-83.01875,46.53333],[-83.025,46.53333]]]}},{"type":"Feature","properties":{"c":"643590","o":"","e":""},"geometry":{"type":"Polygon","coordinates":[[[-83.025,46.54167],[-83.025,46.54583],[-83.01875,46.54583],[-83.01875,46.54167],[-83.025,46.54167]]]}},{"type":"Feature","properties":{"c":"643591","o":"","e":""},"geometry":{"type":"Polygon","coordinates":[[[-83.01875,46.52917],[-83.01875,46.53333],[-83.0125,46.53333],[-83.0125,46.52917],[-83.01875,46.52917]]]}},{"type":"Feature","properties":{"c":"643592","o":"","e":""},"geometry":{"type":"Polygon","coordinates":[[[-83.01875,46.5375],[-83.01875,46.54167],[-83.0125,46.54167],[-83.0125,46.5375],[-83.01875,46.5375]]]}},{"type":"Feature","properties":{"c":"643593","o":"","e":""},"geometry":{"type":"Polygon","coordinates":[[[-83.025,46.52917],[-83.025,46.53333],[-83.01875,46.53333],[-83.01875,46.52917],[-83.025,46.52917]]]}},{"type":"Feature","properties":{"c":"643594","o":"","e":""},"geometry":{"type":"Polygon","coordinates":[[[-83.03125,46.53333],[-83.03125,46.5375],[-83.025,46.5375],[-83.025,46.53333],[-83.03125,46.53333]]]}},{"type":"Feature","properties":{"c":"643595","o":"","e":""},"geometry":{"type":"Polygon","coordinates":[[[-83.01875,46.54167],[-83.01875,46.54583],[-83.0125,46.54583],[-83.0125,46.54167],[-83.01875,46.54167]]]}},{"type":"Feature","properties":{"c":"1039559","o":"","e":""},"geometry":{"type":"Polygon","coordinates":[[[-83.40625,46.50417],[-83.40625,46.50833],[-83.4,46.50833],[-83.4,46.50417],[-83.40625,46.50417]]]}},{"type":"Feature","properties":{"c":"1039560","o":"","e":""},"geometry":{"type":"Polygon","coordinates":[[[-83.4125,46.50417],[-83.4125,46.50833],[-83.40625,46.50833],[-83.40625,46.50417],[-83.4125,46.50417]]]}},{"type":"Feature","properties":{"c":"1039561","o":"","e":""},"geometry":{"type":"Polygon","coordinates":[[[-83.41875,46.50417],[-83.41875,46.50833],[-83.4125,46.50833],[-83.4125,46.50417],[-83.41875,46.50417]]]}},{"type":"Feature","properties":{"c":"1039562","o":"","e":""},"geometry":{"type":"Polygon","coordinates":[[[-83.41875,46.5],[-83.41875,46.50417],[-83.4125,46.50417],[-83.4125,46.5],[-83.41875,46.5]]]}},{"type":"Feature","properties":{"c":"1039563","o":"","e":""},"geometry":{"type":"Polygon","coordinates":[[[-83.4125,46.5],[-83.4125,46.50417],[-83.40625,46.50417],[-83.40625,46.5],[-83.4125,46.5]]]}},{"type":"Feature","properties":{"c":"911581","o":"","e":""},"geometry":{"type":"Polygon","coordinates":[[[-83.39375,46.5],[-83.39375,46.50417],[-83.3875,46.50417],[-83.3875,46.5],[-83.39375,46.5]]]}},{"type":"Feature","properties":{"c":"1039280","o":"","e":""},"geometry":{"type":"Polygon","coordinates":[[[-83.025,46.68333],[-83.025,46.6875],[-83.01875,46.6875],[-83.01875,46.68333],[-83.025,46.68333]]]}},{"type":"Feature","properties":{"c":"1039281","o":"","e":""},"geometry":{"type":"Polygon","coordinates":[[[-83.025,46.6875],[-83.025,46.69167],[-83.01875,46.69167],[-83.01875,46.6875],[-83.025,46.6875]]]}},{"type":"Feature","properties":{"c":"1039282","o":"","e":""},"geometry":{"type":"Polygon","coordinates":[[[-83.01875,46.6875],[-83.01875,46.69167],[-83.0125,46.69167],[-83.0125,46.6875],[-83.01875,46.6875]]]}},{"type":"Feature","properties":{"c":"1039283","o":"","e":""},"geometry":{"type":"Polygon","coordinates":[[[-83.025,46.67917],[-83.025,46.68333],[-83.01875,46.68333],[-83.01875,46.67917],[-83.025,46.67917]]]}},{"type":"Feature","properties":{"c":"1039284","o":"","e":""},"geometry":{"type":"Polygon","coordinates":[[[-83.01875,46.67917],[-83.01875,46.68333],[-83.0125,46.68333],[-83.0125,46.67917],[-83.01875,46.67917]]]}},{"type":"Feature","properties":{"c":"1039285","o":"","e":""},"geometry":{"type":"Polygon","coordinates":[[[-83.01875,46.68333],[-83.01875,46.6875],[-83.0125,46.6875],[-83.0125,46.68333],[-83.01875,46.68333]]]}},{"type":"Feature","properties":{"c":"1039286","o":"","e":""},"geometry":{"type":"Polygon","coordinates":[[[-83.03125,46.67917],[-83.03125,46.68333],[-83.025,46.68333],[-83.025,46.67917],[-83.03125,46.67917]]]}},{"type":"Feature","properties":{"c":"1039287","o":"","e":""},"geometry":{"type":"Polygon","coordinates":[[[-83.03125,46.68333],[-83.03125,46.6875],[-83.025,46.6875],[-83.025,46.68333],[-83.03125,46.68333]]]}},{"type":"Feature","properties":{"c":"1039288","o":"","e":""},"geometry":{"type":"Polygon","coordinates":[[[-83.03125,46.6875],[-83.03125,46.69167],[-83.025,46.69167],[-83.025,46.6875],[-83.03125,46.6875]]]}},{"type":"Feature","properties":{"c":"683915","o":"","e":""},"geometry":{"type":"Polygon","coordinates":[[[-83.09375,46.5],[-83.09375,46.50417],[-83.0875,46.50417],[-83.0875,46.5],[-83.09375,46.5]]]}},{"type":"Feature","properties":{"c":"683916","o":"","e":""},"geometry":{"type":"Polygon","coordinates":[[[-83.09375,46.50833],[-83.09375,46.5125],[-83.0875,46.5125],[-83.0875,46.50833],[-83.09375,46.50833]]]}},{"type":"Feature","properties":{"c":"683917","o":"","e":""},"geometry":{"type":"Polygon","coordinates":[[[-83.0875,46.50417],[-83.0875,46.50833],[-83.08125,46.50833],[-83.08125,46.50417],[-83.0875,46.50417]]]}},{"type":"Feature","properties":{"c":"683919","o":"","e":""},"geometry":{"type":"Polygon","coordinates":[[[-83.09375,46.50417],[-83.09375,46.50833],[-83.0875,46.50833],[-83.0875,46.50417],[-83.09375,46.50417]]]}},{"type":"Feature","properties":{"c":"683920","o":"","e":""},"geometry":{"type":"Polygon","coordinates":[[[-83.08125,46.50417],[-83.08125,46.50833],[-83.075,46.50833],[-83.075,46.50417],[-83.08125,46.50417]]]}},{"type":"Feature","properties":{"c":"683922","o":"","e":""},"geometry":{"type":"Polygon","coordinates":[[[-83.0875,46.50833],[-83.0875,46.5125],[-83.08125,46.5125],[-83.08125,46.50833],[-83.0875,46.50833]]]}},{"type":"Feature","properties":{"c":"683923","o":"","e":""},"geometry":{"type":"Polygon","coordinates":[[[-83.08125,46.50833],[-83.08125,46.5125],[-83.075,46.5125],[-83.075,46.50833],[-83.08125,46.50833]]]}},{"type":"Feature","properties":{"c":"702597","o":"","e":""},"geometry":{"type":"Polygon","coordinates":[[[-83.05,46.50417],[-83.05,46.50833],[-83.04375,46.50833],[-83.04375,46.50417],[-83.05,46.50417]]]}},{"type":"Feature","properties":{"c":"702598","o":"","e":""},"geometry":{"type":"Polygon","coordinates":[[[-83.04375,46.50417],[-83.04375,46.50833],[-83.0375,46.50833],[-83.0375,46.50417],[-83.04375,46.50417]]]}},{"type":"Feature","properties":{"c":"944296","o":"","e":""},"geometry":{"type":"Polygon","coordinates":[[[-83.475,46.55833],[-83.475,46.5625],[-83.475,46.56667],[-83.475,46.57083],[-83.475,46.575],[-83.475,46.57917],[-83.46875,46.57917],[-83.4625,46.57917],[-83.4625,46.575],[-83.45625,46.575],[-83.45625,46.57083],[-83.45625,46.56667],[-83.45,46.56667],[-83.45,46.5625],[-83.45625,46.5625],[-83.45625,46.55833],[-83.4625,46.55833],[-83.4625,46.55417],[-83.45625,46.55417],[-83.45625,46.55],[-83.4625,46.55],[-83.46875,46.55],[-83.475,46.55],[-83.475,46.55417],[-83.475,46.55833]]]}},{"type":"Feature","properties":{"c":"1006120","o":"","e":""},"geometry":{"type":"Polygon","coordinates":[[[-83.2875,46.7875],[-83.2875,46.79167],[-83.28125,46.79167],[-83.28125,46.7875],[-83.2875,46.7875]]]}},{"type":"Feature","properties":{"c":"1006121","o":"","e":""},"geometry":{"type":"Polygon","coordinates":[[[-83.28125,46.7875],[-83.28125,46.79167],[-83.275,46.79167],[-83.275,46.7875],[-83.28125,46.7875]]]}},{"type":"Feature","properties":{"c":"1006122","o":"","e":""},"geometry":{"type":"Polygon","coordinates":[[[-83.28125,46.78333],[-83.28125,46.7875],[-83.275,46.7875],[-83.275,46.78333],[-83.28125,46.78333]]]}},{"type":"Feature","properties":{"c":"1006123","o":"","e":""},"geometry":{"type":"Polygon","coordinates":[[[-83.28125,46.77917],[-83.28125,46.78333],[-83.275,46.78333],[-83.275,46.77917],[-83.28125,46.77917]]]}},{"type":"Feature","properties":{"c":"1025192","o":"","e":""},"geometry":{"type":"Polygon","coordinates":[[[-83.43125,46.56667],[-83.425,46.56667],[-83.41875,46.56667],[-83.4125,46.56667],[-83.4125,46.5625],[-83.40625,46.5625],[-83.40625,46.55833],[-83.4125,46.55833],[-83.41875,46.55833],[-83.425,46.55833],[-83.43125,46.55833],[-83.43125,46.5625],[-83.43125,46.56667]]]}},{"type":"Feature","properties":{"c":"1025194","o":"","e":""},"geometry":{"type":"Polygon","coordinates":[[[-83.44375,46.55],[-83.44375,46.55417],[-83.4375,46.55417],[-83.4375,46.55],[-83.44375,46.55]]]}},{"type":"Feature","properties":{"c":"1025195","o":"","e":""},"geometry":{"type":"Polygon","coordinates":[[[-83.4375,46.55],[-83.4375,46.55417],[-83.43125,46.55417],[-83.43125,46.55],[-83.4375,46.55]]]}},{"type":"Feature","properties":{"c":"931620","o":"","e":""},"geometry":{"type":"Polygon","coordinates":[[[-83.325,46.99167],[-83.325,46.99583],[-83.31875,46.99583],[-83.31875,46.99167],[-83.325,46.99167]]]}},{"type":"Feature","properties":{"c":"1028726","o":"","e":""},"geometry":{"type":"Polygon","coordinates":[[[-83.00625,46.56667],[-83.00625,46.57083],[-83.0,46.57083],[-83.0,46.56667],[-83.00625,46.56667]]]}},{"type":"Feature","properties":{"c":"1028725","o":"","e":""},"geometry":{"type":"Polygon","coordinates":[[[-83.00625,46.57083],[-83.00625,46.575],[-83.0,46.575],[-83.0,46.57083],[-83.00625,46.57083]]]}},{"type":"Feature","properties":{"c":"1039739","o":"","e":""},"geometry":{"type":"Polygon","coordinates":[[[-83.40625,46.5],[-83.40625,46.50417],[-83.4,46.50417],[-83.4,46.5],[-83.40625,46.5]]]}},{"type":"Feature","properties":{"c":"1039734","o":"","e":""},"geometry":{"type":"Polygon","coordinates":[[[-83.425,46.5],[-83.425,46.50417],[-83.41875,46.50417],[-83.41875,46.5],[-83.425,46.5]]]}},{"type":"Feature","properties":{"c":"987601","o":"","e":""},"geometry":{"type":"Polygon","coordinates":[[[-83.325,46.9875],[-83.31875,46.9875],[-83.31875,46.98333],[-83.3125,46.98333],[-83.30625,46.98333],[-83.3,46.98333],[-83.3,46.9875],[-83.3,46.99167],[-83.3,46.99583],[-83.3,47.0],[-83.30625,47.0],[-83.3125,47.0],[-83.31875,47.0],[-83.325,47.0],[-83.325,47.00417],[-83.31875,47.00417],[-83.3125,47.00417],[-83.30625,47.00417],[-83.3,47.00417],[-83.29375,47.00417],[-83.29375,47.0],[-83.29375,46.99583],[-83.29375,46.99167],[-83.29375,46.9875],[-83.29375,46.98333],[-83.29375,46.97917],[-83.3,46.97917],[-83.30625,46.97917],[-83.3125,46.97917],[-83.31875,46.97917],[-83.325,46.97917],[-83.325,46.98333],[-83.325,46.9875]]]}},{"type":"Feature","properties":{"c":"987604","o":"","e":""},"geometry":{"type":"Polygon","coordinates":[[[-83.31875,46.975],[-83.31875,46.97917],[-83.3125,46.97917],[-83.30625,46.97917],[-83.3,46.97917],[-83.29375,46.97917],[-83.29375,46.975],[-83.3,46.975],[-83.3,46.97083],[-83.30625,46.97083],[-83.3125,46.97083],[-83.3125,46.975],[-83.31875,46.975]]]}},{"type":"Feature","properties":{"c":"1009615","o":"","e":""},"geometry":{"type":"Polygon","coordinates":[[[-83.31875,46.96667],[-83.31875,46.97083],[-83.3125,46.97083],[-83.30625,46.97083],[-83.3,46.97083],[-83.3,46.975],[-83.29375,46.975],[-83.29375,46.97917],[-83.29375,46.98333],[-83.29375,46.9875],[-83.29375,46.99167],[-83.29375,46.99583],[-83.29375,47.0],[-83.2875,47.0],[-83.2875,46.99583],[-83.2875,46.99167],[-83.2875,46.9875],[-83.2875,46.98333],[-83.2875,46.97917],[-83.2875,46.975],[-83.2875,46.97083],[-83.2875,46.96667],[-83.29375,46.96667],[-83.3,46.96667],[-83.30625,46.96667],[-83.3125,46.96667],[-83.31875,46.96667]]]}},{"type":"Feature","properties":{"c":"1009614","o":"","e":""},"geometry":{"type":"Polygon","coordinates":[[[-83.33125,46.98333],[-83.33125,46.9875],[-83.33125,46.99167],[-83.33125,46.99583],[-83.33125,47.0],[-83.33125,47.00417],[-83.33125,47.00833],[-83.325,47.00833],[-83.31875,47.00833],[-83.3125,47.00833],[-83.30625,47.00833],[-83.3,47.00833],[-83.29375,47.00833],[-83.29375,47.00417],[-83.3,47.00417],[-83.30625,47.00417],[-83.3125,47.00417],[-83.31875,47.00417],[-83.325,47.00417],[-83.325,47.0],[-83.325,46.99583],[-83.325,46.99167],[-83.325,46.9875],[-83.325,46.98333],[-83.325,46.97917],[-83.31875,46.97917],[-83.31875,46.975],[-83.3125,46.975],[-83.3125,46.97083],[-83.31875,46.97083],[-83.325,46.97083],[-83.325,46.975],[-83.33125,46.975],[-83.33125,46.97917],[-83.33125,46.98333]]]}},{"type":"Feature","properties":{"c":"1047517","o":"","e":""},"geometry":{"type":"Polygon","coordinates":[[[-83.45,46.5125],[-83.45,46.51667],[-83.44375,46.51667],[-83.44375,46.5125],[-83.45,46.5125]]]}},{"type":"Feature","properties":{"c":"1047519","o":"","e":""},"geometry":{"type":"Polygon","coordinates":[[[-83.46875,46.525],[-83.46875,46.52917],[-83.4625,46.52917],[-83.4625,46.525],[-83.46875,46.525]]]}},{"type":"Feature","properties":{"c":"1054650","o":"","e":""},"geometry":{"type":"Polygon","coordinates":[[[-83.5,46.5875],[-83.5,46.59167],[-83.49375,46.59167],[-83.49375,46.5875],[-83.5,46.5875]]]}},{"type":"Feature","properties":{"c":"1054651","o":"","e":""},"geometry":{"type":"Polygon","coordinates":[[[-83.49375,46.5875],[-83.49375,46.59167],[-83.4875,46.59167],[-83.4875,46.5875],[-83.49375,46.5875]]]}},{"type":"Feature","properties":{"c":"1054652","o":"","e":""},"geometry":{"type":"Polygon","coordinates":[[[-83.4875,46.5875],[-83.4875,46.59167],[-83.48125,46.59167],[-83.48125,46.5875],[-83.4875,46.5875]]]}},{"type":"Feature","properties":{"c":"1054653","o":"","e":""},"geometry":{"type":"Polygon","coordinates":[[[-83.5,46.58333],[-83.5,46.5875],[-83.49375,46.5875],[-83.49375,46.58333],[-83.5,46.58333]]]}},{"type":"Feature","properties":{"c":"1054654","o":"","e":""},"geometry":{"type":"Polygon","coordinates":[[[-83.49375,46.58333],[-83.49375,46.5875],[-83.4875,46.5875],[-83.4875,46.58333],[-83.49375,46.58333]]]}},{"type":"Feature","properties":{"c":"1054655","o":"","e":""},"geometry":{"type":"Polygon","coordinates":[[[-83.4875,46.58333],[-83.4875,46.5875],[-83.48125,46.5875],[-83.48125,46.58333],[-83.4875,46.58333]]]}}]}