{"type":"FeatureCollection","features":[{"type":"Feature","properties":{"c":"772484","o":"","e":""},"geometry":{"type":"Polygon","coordinates":[[[-85.50625,49.125],[-85.50625,49.12917],[-85.5,49.12917],[-85.5,49.125],[-85.50625,49.125]]]}},{"type":"Feature","properties":{"c":"772495","o":"","e":""},"geometry":{"type":"Polygon","coordinates":[[[-85.50625,49.12083],[-85.50625,49.125],[-85.5,49.125],[-85.5,49.12083],[-85.50625,49.12083]]]}},{"type":"Feature","properties":{"c":"772477","o":"","e":""},"geometry":{"type":"Polygon","coordinates":[[[-85.50625,49.11667],[-85.50625,49.12083],[-85.5,49.12083],[-85.5,49.11667],[-85.50625,49.11667]]]}},{"type":"Feature","properties":{"c":"772478","o":"","e":""},"geometry":{"type":"Polygon","coordinates":[[[-85.50625,49.12917],[-85.50625,49.13333],[-85.5,49.13333],[-85.5,49.12917],[-85.50625,49.12917]]]}},{"type":"Feature","properties":{"c":"725627","o":"","e":""},"geometry":{"type":"Polygon","coordinates":[[[-85.50625,49.17917],[-85.50625,49.18333],[-85.5,49.18333],[-85.5,49.17917],[-85.50625,49.17917]]]}},{"type":"Feature","properties":{"c":"725616","o":"","e":""},"geometry":{"type":"Polygon","coordinates":[[[-85.50625,49.18333],[-85.50625,49.1875],[-85.5,49.1875],[-85.5,49.18333],[-85.50625,49.18333]]]}},{"type":"Feature","properties":{"c":"621813","o":"","e":""},"geometry":{"type":"Polygon","coordinates":[[[-85.50625,49.13333],[-85.50625,49.1375],[-85.5,49.1375],[-85.5,49.13333],[-85.50625,49.13333]]]}},{"type":"Feature","properties":{"c":"621801","o":"","e":""},"geometry":{"type":"Polygon","coordinates":[[[-85.50625,49.1375],[-85.50625,49.14167],[-85.5,49.14167],[-85.5,49.1375],[-85.50625,49.1375]]]}},{"type":"Feature","properties":{"c":"621851","o":"","e":""},"geometry":{"type":"Polygon","coordinates":[[[-85.50625,49.14167],[-85.50625,49.14583],[-85.5,49.14583],[-85.5,49.14167],[-85.50625,49.14167]]]}},{"type":"Feature","properties":{"c":"621856","o":"","e":""},"geometry":{"type":"Polygon","coordinates":[[[-85.50625,49.14583],[-85.50625,49.15],[-85.5,49.15],[-85.5,49.14583],[-85.50625,49.14583]]]}},{"type":"Feature","properties":{"c":"910460","o":"","e":""},"geometry":{"type":"Polygon","coordinates":[[[-85.50625,49.01667],[-85.50625,49.02083],[-85.5,49.02083],[-85.5,49.01667],[-85.50625,49.01667]]]}},{"type":"Feature","properties":{"c":"667414","o":"","e":""},"geometry":{"type":"Polygon","coordinates":[[[-85.51875,48.99583],[-85.51875,49.0],[-85.5125,49.0],[-85.5125,49.00417],[-85.50625,49.00417],[-85.50625,49.00833],[-85.5,49.00833],[-85.49375,49.00833],[-85.49375,49.00417],[-85.49375,49.0],[-85.49375,48.99583],[-85.5,48.99583],[-85.50625,48.99583],[-85.5125,48.99583],[-85.51875,48.99583]]]}},{"type":"Feature","properties":{"c":"667432","o":"","e":""},"geometry":{"type":"Polygon","coordinates":[[[-85.40625,48.9875],[-85.40625,48.99167],[-85.4,48.99167],[-85.39375,48.99167],[-85.39375,48.99583],[-85.39375,49.0],[-85.3875,49.0],[-85.3875,49.00417],[-85.38125,49.00417],[-85.375,49.00417],[-85.375,49.0],[-85.375,48.99583],[-85.38125,48.99583],[-85.38125,48.99167],[-85.38125,48.9875],[-85.3875,48.9875],[-85.39375,48.9875],[-85.4,48.9875],[-85.40625,48.9875]]]}},{"type":"Feature","properties":{"c":"772490","o":"","e":""},"geometry":{"type":"Polygon","coordinates":[[[-85.49375,49.12917],[-85.49375,49.13333],[-85.4875,49.13333],[-85.4875,49.12917],[-85.49375,49.12917]]]}},{"type":"Feature","properties":{"c":"725607","o":"","e":""},"geometry":{"type":"Polygon","coordinates":[[[-85.4875,49.18333],[-85.4875,49.1875],[-85.48125,49.1875],[-85.48125,49.18333],[-85.4875,49.18333]]]}},{"type":"Feature","properties":{"c":"725609","o":"","e":""},"geometry":{"type":"Polygon","coordinates":[[[-85.5,49.17917],[-85.5,49.18333],[-85.49375,49.18333],[-85.49375,49.17917],[-85.5,49.17917]]]}},{"type":"Feature","properties":{"c":"725610","o":"","e":""},"geometry":{"type":"Polygon","coordinates":[[[-85.475,49.19167],[-85.475,49.19583],[-85.46875,49.19583],[-85.46875,49.19167],[-85.475,49.19167]]]}},{"type":"Feature","properties":{"c":"725611","o":"","e":""},"geometry":{"type":"Polygon","coordinates":[[[-85.46875,49.17917],[-85.46875,49.18333],[-85.4625,49.18333],[-85.4625,49.17917],[-85.46875,49.17917]]]}},{"type":"Feature","properties":{"c":"667408","o":"","e":""},"geometry":{"type":"Polygon","coordinates":[[[-85.475,49.00417],[-85.475,49.00833],[-85.46875,49.00833],[-85.4625,49.00833],[-85.45625,49.00833],[-85.45625,49.00417],[-85.45625,49.0],[-85.45625,48.99583],[-85.4625,48.99583],[-85.46875,48.99583],[-85.475,48.99583],[-85.475,49.0],[-85.475,49.00417]]]}},{"type":"Feature","properties":{"c":"772504","o":"","e":""},"geometry":{"type":"Polygon","coordinates":[[[-85.5,49.12083],[-85.5,49.125],[-85.49375,49.125],[-85.49375,49.12083],[-85.5,49.12083]]]}},{"type":"Feature","properties":{"c":"772505","o":"","e":""},"geometry":{"type":"Polygon","coordinates":[[[-85.5,49.125],[-85.5,49.12917],[-85.49375,49.12917],[-85.49375,49.125],[-85.5,49.125]]]}},{"type":"Feature","properties":{"c":"772506","o":"","e":""},"geometry":{"type":"Polygon","coordinates":[[[-85.5,49.12917],[-85.5,49.13333],[-85.49375,49.13333],[-85.49375,49.12917],[-85.5,49.12917]]]}},{"type":"Feature","properties":{"c":"725612","o":"","e":""},"geometry":{"type":"Polygon","coordinates":[[[-85.4625,49.1875],[-85.4625,49.19167],[-85.45625,49.19167],[-85.45625,49.1875],[-85.4625,49.1875]]]}},{"type":"Feature","properties":{"c":"725620","o":"","e":""},"geometry":{"type":"Polygon","coordinates":[[[-85.4625,49.17917],[-85.4625,49.18333],[-85.45625,49.18333],[-85.45625,49.17917],[-85.4625,49.17917]]]}},{"type":"Feature","properties":{"c":"725621","o":"","e":""},"geometry":{"type":"Polygon","coordinates":[[[-85.475,49.17917],[-85.475,49.18333],[-85.46875,49.18333],[-85.46875,49.17917],[-85.475,49.17917]]]}},{"type":"Feature","properties":{"c":"725623","o":"","e":""},"geometry":{"type":"Polygon","coordinates":[[[-85.49375,49.17917],[-85.49375,49.18333],[-85.4875,49.18333],[-85.4875,49.17917],[-85.49375,49.17917]]]}},{"type":"Feature","properties":{"c":"725624","o":"","e":""},"geometry":{"type":"Polygon","coordinates":[[[-85.49375,49.18333],[-85.49375,49.1875],[-85.4875,49.1875],[-85.4875,49.18333],[-85.49375,49.18333]]]}},{"type":"Feature","properties":{"c":"725625","o":"","e":""},"geometry":{"type":"Polygon","coordinates":[[[-85.46875,49.19167],[-85.46875,49.19583],[-85.4625,49.19583],[-85.4625,49.19167],[-85.46875,49.19167]]]}},{"type":"Feature","properties":{"c":"725626","o":"","e":""},"geometry":{"type":"Polygon","coordinates":[[[-85.4625,49.18333],[-85.4625,49.1875],[-85.45625,49.1875],[-85.45625,49.18333],[-85.4625,49.18333]]]}},{"type":"Feature","properties":{"c":"725628","o":"","e":""},"geometry":{"type":"Polygon","coordinates":[[[-85.48125,49.17917],[-85.48125,49.18333],[-85.475,49.18333],[-85.475,49.17917],[-85.48125,49.17917]]]}},{"type":"Feature","properties":{"c":"725613","o":"","e":""},"geometry":{"type":"Polygon","coordinates":[[[-85.5,49.18333],[-85.5,49.1875],[-85.49375,49.1875],[-85.49375,49.18333],[-85.5,49.18333]]]}},{"type":"Feature","properties":{"c":"725614","o":"","e":""},"geometry":{"type":"Polygon","coordinates":[[[-85.4875,49.17917],[-85.4875,49.18333],[-85.48125,49.18333],[-85.48125,49.17917],[-85.4875,49.17917]]]}},{"type":"Feature","properties":{"c":"725615","o":"","e":""},"geometry":{"type":"Polygon","coordinates":[[[-85.46875,49.1875],[-85.46875,49.19167],[-85.4625,49.19167],[-85.4625,49.1875],[-85.46875,49.1875]]]}},{"type":"Feature","properties":{"c":"725617","o":"","e":""},"geometry":{"type":"Polygon","coordinates":[[[-85.4625,49.19167],[-85.4625,49.19583],[-85.45625,49.19583],[-85.45625,49.19167],[-85.4625,49.19167]]]}},{"type":"Feature","properties":{"c":"667402","o":"","e":""},"geometry":{"type":"Polygon","coordinates":[[[-85.4375,49.00417],[-85.4375,49.00833],[-85.43125,49.00833],[-85.425,49.00833],[-85.41875,49.00833],[-85.41875,49.00417],[-85.41875,49.0],[-85.41875,48.99583],[-85.425,48.99583],[-85.43125,48.99583],[-85.4375,48.99583],[-85.4375,49.0],[-85.4375,49.00417]]]}},{"type":"Feature","properties":{"c":"667404","o":"","e":""},"geometry":{"type":"Polygon","coordinates":[[[-85.45625,49.00417],[-85.45625,49.00833],[-85.45,49.00833],[-85.44375,49.00833],[-85.4375,49.00833],[-85.4375,49.00417],[-85.4375,49.0],[-85.4375,48.99583],[-85.44375,48.99583],[-85.45,48.99583],[-85.45625,48.99583],[-85.45625,49.0],[-85.45625,49.00417]]]}},{"type":"Feature","properties":{"c":"667406","o":"","e":""},"geometry":{"type":"Polygon","coordinates":[[[-85.48125,49.02083],[-85.48125,49.025],[-85.475,49.025],[-85.46875,49.025],[-85.4625,49.025],[-85.45625,49.025],[-85.45,49.025],[-85.45,49.02083],[-85.45625,49.02083],[-85.4625,49.02083],[-85.46875,49.02083],[-85.475,49.02083],[-85.48125,49.02083]]]}},{"type":"Feature","properties":{"c":"621811","o":"","e":""},"geometry":{"type":"Polygon","coordinates":[[[-85.5,49.13333],[-85.5,49.1375],[-85.49375,49.1375],[-85.49375,49.13333],[-85.5,49.13333]]]}},{"type":"Feature","properties":{"c":"621802","o":"","e":""},"geometry":{"type":"Polygon","coordinates":[[[-85.4875,49.1375],[-85.4875,49.14167],[-85.48125,49.14167],[-85.48125,49.1375],[-85.4875,49.1375]]]}},{"type":"Feature","properties":{"c":"621816","o":"","e":""},"geometry":{"type":"Polygon","coordinates":[[[-85.49375,49.13333],[-85.49375,49.1375],[-85.4875,49.1375],[-85.4875,49.13333],[-85.49375,49.13333]]]}},{"type":"Feature","properties":{"c":"621817","o":"","e":""},"geometry":{"type":"Polygon","coordinates":[[[-85.49375,49.1375],[-85.49375,49.14167],[-85.4875,49.14167],[-85.4875,49.1375],[-85.49375,49.1375]]]}},{"type":"Feature","properties":{"c":"621804","o":"","e":""},"geometry":{"type":"Polygon","coordinates":[[[-85.5,49.1375],[-85.5,49.14167],[-85.49375,49.14167],[-85.49375,49.1375],[-85.5,49.1375]]]}},{"type":"Feature","properties":{"c":"621858","o":"","e":""},"geometry":{"type":"Polygon","coordinates":[[[-85.45625,49.14583],[-85.45625,49.15],[-85.45,49.15],[-85.45,49.14583],[-85.45625,49.14583]]]}},{"type":"Feature","properties":{"c":"621849","o":"","e":""},"geometry":{"type":"Polygon","coordinates":[[[-85.4875,49.14167],[-85.4875,49.14583],[-85.48125,49.14583],[-85.48125,49.14167],[-85.4875,49.14167]]]}},{"type":"Feature","properties":{"c":"621850","o":"","e":""},"geometry":{"type":"Polygon","coordinates":[[[-85.4875,49.14583],[-85.4875,49.15],[-85.48125,49.15],[-85.48125,49.14583],[-85.4875,49.14583]]]}},{"type":"Feature","properties":{"c":"621852","o":"","e":""},"geometry":{"type":"Polygon","coordinates":[[[-85.48125,49.14583],[-85.48125,49.15],[-85.475,49.15],[-85.475,49.14583],[-85.48125,49.14583]]]}},{"type":"Feature","properties":{"c":"621853","o":"","e":""},"geometry":{"type":"Polygon","coordinates":[[[-85.475,49.14583],[-85.475,49.15],[-85.46875,49.15],[-85.46875,49.14583],[-85.475,49.14583]]]}},{"type":"Feature","properties":{"c":"621854","o":"","e":""},"geometry":{"type":"Polygon","coordinates":[[[-85.4625,49.14167],[-85.4625,49.14583],[-85.45625,49.14583],[-85.45625,49.14167],[-85.4625,49.14167]]]}},{"type":"Feature","properties":{"c":"621857","o":"","e":""},"geometry":{"type":"Polygon","coordinates":[[[-85.49375,49.14583],[-85.49375,49.15],[-85.4875,49.15],[-85.4875,49.14583],[-85.49375,49.14583]]]}},{"type":"Feature","properties":{"c":"621840","o":"","e":""},"geometry":{"type":"Polygon","coordinates":[[[-85.5,49.14167],[-85.5,49.14583],[-85.49375,49.14583],[-85.49375,49.14167],[-85.5,49.14167]]]}},{"type":"Feature","properties":{"c":"621841","o":"","e":""},"geometry":{"type":"Polygon","coordinates":[[[-85.49375,49.14167],[-85.49375,49.14583],[-85.4875,49.14583],[-85.4875,49.14167],[-85.49375,49.14167]]]}},{"type":"Feature","properties":{"c":"621842","o":"","e":""},"geometry":{"type":"Polygon","coordinates":[[[-85.48125,49.14167],[-85.48125,49.14583],[-85.475,49.14583],[-85.475,49.14167],[-85.48125,49.14167]]]}},{"type":"Feature","properties":{"c":"621843","o":"","e":""},"geometry":{"type":"Polygon","coordinates":[[[-85.46875,49.14167],[-85.46875,49.14583],[-85.4625,49.14583],[-85.4625,49.14167],[-85.46875,49.14167]]]}},{"type":"Feature","properties":{"c":"621844","o":"","e":""},"geometry":{"type":"Polygon","coordinates":[[[-85.4625,49.14583],[-85.4625,49.15],[-85.45625,49.15],[-85.45625,49.14583],[-85.4625,49.14583]]]}},{"type":"Feature","properties":{"c":"621845","o":"","e":""},"geometry":{"type":"Polygon","coordinates":[[[-85.5,49.14583],[-85.5,49.15],[-85.49375,49.15],[-85.49375,49.14583],[-85.5,49.14583]]]}},{"type":"Feature","properties":{"c":"621846","o":"","e":""},"geometry":{"type":"Polygon","coordinates":[[[-85.475,49.14167],[-85.475,49.14583],[-85.46875,49.14583],[-85.46875,49.14167],[-85.475,49.14167]]]}},{"type":"Feature","properties":{"c":"621847","o":"","e":""},"geometry":{"type":"Polygon","coordinates":[[[-85.46875,49.14583],[-85.46875,49.15],[-85.4625,49.15],[-85.4625,49.14583],[-85.46875,49.14583]]]}},{"type":"Feature","properties":{"c":"910448","o":"","e":""},"geometry":{"type":"Polygon","coordinates":[[[-85.13125,49.00833],[-85.13125,49.0125],[-85.125,49.0125],[-85.125,49.00833],[-85.13125,49.00833]]]}},{"type":"Feature","properties":{"c":"910449","o":"","e":""},"geometry":{"type":"Polygon","coordinates":[[[-85.1375,49.00833],[-85.1375,49.0125],[-85.13125,49.0125],[-85.13125,49.00833],[-85.1375,49.00833]]]}},{"type":"Feature","properties":{"c":"629088","o":"","e":""},"geometry":{"type":"Polygon","coordinates":[[[-85.41875,49.13333],[-85.41875,49.1375],[-85.4125,49.1375],[-85.4125,49.13333],[-85.41875,49.13333]]]}},{"type":"Feature","properties":{"c":"629089","o":"","e":""},"geometry":{"type":"Polygon","coordinates":[[[-85.41875,49.1375],[-85.41875,49.14167],[-85.4125,49.14167],[-85.4125,49.1375],[-85.41875,49.1375]]]}},{"type":"Feature","properties":{"c":"629090","o":"","e":""},"geometry":{"type":"Polygon","coordinates":[[[-85.425,49.13333],[-85.425,49.1375],[-85.41875,49.1375],[-85.41875,49.13333],[-85.425,49.13333]]]}},{"type":"Feature","properties":{"c":"623950","o":"","e":""},"geometry":{"type":"Polygon","coordinates":[[[-85.425,49.1375],[-85.425,49.14167],[-85.41875,49.14167],[-85.41875,49.1375],[-85.425,49.1375]]]}},{"type":"Feature","properties":{"c":"629948","o":"","e":""},"geometry":{"type":"Polygon","coordinates":[[[-85.5,49.1875],[-85.5,49.19167],[-85.49375,49.19167],[-85.49375,49.1875],[-85.5,49.1875]]]}},{"type":"Feature","properties":{"c":"629949","o":"","e":""},"geometry":{"type":"Polygon","coordinates":[[[-85.4875,49.19167],[-85.4875,49.19583],[-85.48125,49.19583],[-85.48125,49.19167],[-85.4875,49.19167]]]}},{"type":"Feature","properties":{"c":"629950","o":"","e":""},"geometry":{"type":"Polygon","coordinates":[[[-85.4875,49.1875],[-85.4875,49.19167],[-85.48125,49.19167],[-85.48125,49.1875],[-85.4875,49.1875]]]}},{"type":"Feature","properties":{"c":"629951","o":"","e":""},"geometry":{"type":"Polygon","coordinates":[[[-85.49375,49.1875],[-85.49375,49.19167],[-85.4875,49.19167],[-85.4875,49.1875],[-85.49375,49.1875]]]}},{"type":"Feature","properties":{"c":"629952","o":"","e":""},"geometry":{"type":"Polygon","coordinates":[[[-85.48125,49.19167],[-85.48125,49.19583],[-85.475,49.19583],[-85.475,49.19167],[-85.48125,49.19167]]]}},{"type":"Feature","properties":{"c":"629953","o":"","e":""},"geometry":{"type":"Polygon","coordinates":[[[-85.475,49.18333],[-85.475,49.1875],[-85.46875,49.1875],[-85.46875,49.18333],[-85.475,49.18333]]]}},{"type":"Feature","properties":{"c":"629954","o":"","e":""},"geometry":{"type":"Polygon","coordinates":[[[-85.475,49.1875],[-85.475,49.19167],[-85.46875,49.19167],[-85.46875,49.1875],[-85.475,49.1875]]]}},{"type":"Feature","properties":{"c":"629955","o":"","e":""},"geometry":{"type":"Polygon","coordinates":[[[-85.46875,49.18333],[-85.46875,49.1875],[-85.4625,49.1875],[-85.4625,49.18333],[-85.46875,49.18333]]]}},{"type":"Feature","properties":{"c":"629956","o":"","e":""},"geometry":{"type":"Polygon","coordinates":[[[-85.49375,49.19167],[-85.49375,49.19583],[-85.4875,49.19583],[-85.4875,49.19167],[-85.49375,49.19167]]]}},{"type":"Feature","properties":{"c":"629957","o":"","e":""},"geometry":{"type":"Polygon","coordinates":[[[-85.48125,49.1875],[-85.48125,49.19167],[-85.475,49.19167],[-85.475,49.1875],[-85.48125,49.1875]]]}},{"type":"Feature","properties":{"c":"910447","o":"","e":""},"geometry":{"type":"Polygon","coordinates":[[[-85.0875,49.04167],[-85.0875,49.04583],[-85.08125,49.04583],[-85.08125,49.04167],[-85.0875,49.04167]]]}},{"type":"Feature","properties":{"c":"663188","o":"","e":""},"geometry":{"type":"Polygon","coordinates":[[[-85.48125,49.29167],[-85.475,49.29167],[-85.46875,49.29167],[-85.46875,49.2875],[-85.46875,49.28333],[-85.475,49.28333],[-85.48125,49.28333],[-85.48125,49.2875],[-85.48125,49.29167]]]}},{"type":"Feature","properties":{"c":"667412","o":"","e":""},"geometry":{"type":"Polygon","coordinates":[[[-85.4875,49.01667],[-85.4875,49.02083],[-85.48125,49.02083],[-85.475,49.02083],[-85.46875,49.02083],[-85.46875,49.01667],[-85.46875,49.0125],[-85.46875,49.00833],[-85.475,49.00833],[-85.48125,49.00833],[-85.4875,49.00833],[-85.4875,49.0125],[-85.4875,49.01667]]]}},{"type":"Feature","properties":{"c":"667413","o":"","e":""},"geometry":{"type":"Polygon","coordinates":[[[-85.50625,49.01667],[-85.5,49.01667],[-85.5,49.02083],[-85.49375,49.02083],[-85.4875,49.02083],[-85.4875,49.01667],[-85.4875,49.0125],[-85.4875,49.00833],[-85.49375,49.00833],[-85.5,49.00833],[-85.50625,49.00833],[-85.50625,49.0125],[-85.50625,49.01667]]]}},{"type":"Feature","properties":{"c":"667407","o":"","e":""},"geometry":{"type":"Polygon","coordinates":[[[-85.46875,49.01667],[-85.46875,49.02083],[-85.4625,49.02083],[-85.45625,49.02083],[-85.45,49.02083],[-85.45,49.01667],[-85.45,49.0125],[-85.45,49.00833],[-85.45625,49.00833],[-85.4625,49.00833],[-85.46875,49.00833],[-85.46875,49.0125],[-85.46875,49.01667]]]}},{"type":"Feature","properties":{"c":"667411","o":"","e":""},"geometry":{"type":"Polygon","coordinates":[[[-85.49375,49.00417],[-85.49375,49.00833],[-85.4875,49.00833],[-85.48125,49.00833],[-85.475,49.00833],[-85.475,49.00417],[-85.475,49.0],[-85.475,48.99583],[-85.48125,48.99583],[-85.4875,48.99583],[-85.49375,48.99583],[-85.49375,49.0],[-85.49375,49.00417]]]}},{"type":"Feature","properties":{"c":"667405","o":"","e":""},"geometry":{"type":"Polygon","coordinates":[[[-85.45,49.01667],[-85.45,49.02083],[-85.44375,49.02083],[-85.44375,49.01667],[-85.4375,49.01667],[-85.4375,49.0125],[-85.43125,49.0125],[-85.43125,49.00833],[-85.4375,49.00833],[-85.44375,49.00833],[-85.45,49.00833],[-85.45,49.0125],[-85.45,49.01667]]]}},{"type":"Feature","properties":{"c":"668392","o":"","e":""},"geometry":{"type":"Polygon","coordinates":[[[-85.225,49.43333],[-85.225,49.4375],[-85.21875,49.4375],[-85.21875,49.43333],[-85.225,49.43333]]]}},{"type":"Feature","properties":{"c":"668393","o":"","e":""},"geometry":{"type":"Polygon","coordinates":[[[-85.21875,49.43333],[-85.21875,49.4375],[-85.2125,49.4375],[-85.2125,49.43333],[-85.21875,49.43333]]]}},{"type":"Feature","properties":{"c":"668394","o":"","e":""},"geometry":{"type":"Polygon","coordinates":[[[-85.2125,49.43333],[-85.2125,49.4375],[-85.20625,49.4375],[-85.20625,49.43333],[-85.2125,49.43333]]]}},{"type":"Feature","properties":{"c":"668396","o":"","e":""},"geometry":{"type":"Polygon","coordinates":[[[-85.225,49.42917],[-85.225,49.43333],[-85.21875,49.43333],[-85.21875,49.42917],[-85.225,49.42917]]]}},{"type":"Feature","properties":{"c":"668397","o":"","e":""},"geometry":{"type":"Polygon","coordinates":[[[-85.21875,49.42917],[-85.21875,49.43333],[-85.2125,49.43333],[-85.2125,49.42917],[-85.21875,49.42917]]]}},{"type":"Feature","properties":{"c":"668398","o":"","e":""},"geometry":{"type":"Polygon","coordinates":[[[-85.2125,49.42917],[-85.2125,49.43333],[-85.20625,49.43333],[-85.20625,49.42917],[-85.2125,49.42917]]]}},{"type":"Feature","properties":{"c":"668400","o":"","e":""},"geometry":{"type":"Polygon","coordinates":[[[-85.225,49.425],[-85.225,49.42917],[-85.21875,49.42917],[-85.21875,49.425],[-85.225,49.425]]]}},{"type":"Feature","properties":{"c":"668401","o":"","e":""},"geometry":{"type":"Polygon","coordinates":[[[-85.21875,49.425],[-85.21875,49.42917],[-85.2125,49.42917],[-85.2125,49.425],[-85.21875,49.425]]]}},{"type":"Feature","properties":{"c":"668402","o":"","e":""},"geometry":{"type":"Polygon","coordinates":[[[-85.2125,49.425],[-85.2125,49.42917],[-85.20625,49.42917],[-85.20625,49.425],[-85.2125,49.425]]]}},{"type":"Feature","properties":{"c":"668452","o":"","e":""},"geometry":{"type":"Polygon","coordinates":[[[-85.11875,49.44583],[-85.11875,49.45],[-85.1125,49.45],[-85.1125,49.44583],[-85.11875,49.44583]]]}},{"type":"Feature","properties":{"c":"668453","o":"","e":""},"geometry":{"type":"Polygon","coordinates":[[[-85.125,49.44583],[-85.125,49.45],[-85.11875,49.45],[-85.11875,49.44583],[-85.125,49.44583]]]}},{"type":"Feature","properties":{"c":"668454","o":"","e":""},"geometry":{"type":"Polygon","coordinates":[[[-85.125,49.45],[-85.125,49.45417],[-85.11875,49.45417],[-85.11875,49.45],[-85.125,49.45]]]}},{"type":"Feature","properties":{"c":"668455","o":"","e":""},"geometry":{"type":"Polygon","coordinates":[[[-85.11875,49.45],[-85.11875,49.45417],[-85.1125,49.45417],[-85.1125,49.45],[-85.11875,49.45]]]}},{"type":"Feature","properties":{"c":"668456","o":"","e":""},"geometry":{"type":"Polygon","coordinates":[[[-85.1125,49.44583],[-85.1125,49.45],[-85.10625,49.45],[-85.10625,49.44583],[-85.1125,49.44583]]]}},{"type":"Feature","properties":{"c":"668457","o":"","e":""},"geometry":{"type":"Polygon","coordinates":[[[-85.1125,49.45],[-85.1125,49.45417],[-85.10625,49.45417],[-85.10625,49.45],[-85.1125,49.45]]]}},{"type":"Feature","properties":{"c":"668458","o":"","e":""},"geometry":{"type":"Polygon","coordinates":[[[-85.1125,49.45417],[-85.1125,49.45833],[-85.10625,49.45833],[-85.10625,49.45417],[-85.1125,49.45417]]]}},{"type":"Feature","properties":{"c":"668459","o":"","e":""},"geometry":{"type":"Polygon","coordinates":[[[-85.125,49.45417],[-85.125,49.45833],[-85.11875,49.45833],[-85.11875,49.45417],[-85.125,49.45417]]]}},{"type":"Feature","properties":{"c":"668460","o":"","e":""},"geometry":{"type":"Polygon","coordinates":[[[-85.11875,49.45417],[-85.11875,49.45833],[-85.1125,49.45833],[-85.1125,49.45417],[-85.11875,49.45417]]]}},{"type":"Feature","properties":{"c":"846467","o":"","e":""},"geometry":{"type":"Polygon","coordinates":[[[-85.1,49.04167],[-85.1,49.04583],[-85.09375,49.04583],[-85.09375,49.04167],[-85.1,49.04167]]]}},{"type":"Feature","properties":{"c":"846468","o":"","e":""},"geometry":{"type":"Polygon","coordinates":[[[-85.0875,49.04583],[-85.0875,49.05],[-85.08125,49.05],[-85.08125,49.04583],[-85.0875,49.04583]]]}},{"type":"Feature","properties":{"c":"846469","o":"","e":""},"geometry":{"type":"Polygon","coordinates":[[[-85.09375,49.04583],[-85.09375,49.05],[-85.0875,49.05],[-85.0875,49.04583],[-85.09375,49.04583]]]}},{"type":"Feature","properties":{"c":"846470","o":"","e":""},"geometry":{"type":"Polygon","coordinates":[[[-85.0875,49.05],[-85.0875,49.05417],[-85.08125,49.05417],[-85.08125,49.05],[-85.0875,49.05]]]}},{"type":"Feature","properties":{"c":"846471","o":"","e":""},"geometry":{"type":"Polygon","coordinates":[[[-85.09375,49.04167],[-85.09375,49.04583],[-85.0875,49.04583],[-85.0875,49.04167],[-85.09375,49.04167]]]}},{"type":"Feature","properties":{"c":"725619","o":"","e":""},"geometry":{"type":"Polygon","coordinates":[[[-85.48125,49.18333],[-85.48125,49.1875],[-85.475,49.1875],[-85.475,49.18333],[-85.48125,49.18333]]]}},{"type":"Feature","properties":{"c":"1044205","o":"","e":""},"geometry":{"type":"Polygon","coordinates":[[[-85.1,49.2875],[-85.1,49.29167],[-85.09375,49.29167],[-85.09375,49.2875],[-85.1,49.2875]]]}}]}