{"type":"FeatureCollection","features":[{"type":"Feature","properties":{"c":"333513","o":"","e":""},"geometry":{"type":"Polygon","coordinates":[[[-85.3875,52.4625],[-85.3875,52.46667],[-85.38125,52.46667],[-85.38125,52.4625],[-85.3875,52.4625]]]}},{"type":"Feature","properties":{"c":"334614","o":"","e":""},"geometry":{"type":"Polygon","coordinates":[[[-85.40625,52.46667],[-85.40625,52.47083],[-85.4,52.47083],[-85.4,52.46667],[-85.40625,52.46667]]]}},{"type":"Feature","properties":{"c":"150029","o":"","e":""},"geometry":{"type":"Polygon","coordinates":[[[-85.3875,52.45833],[-85.3875,52.4625],[-85.38125,52.4625],[-85.38125,52.45833],[-85.3875,52.45833]]]}},{"type":"Feature","properties":{"c":"168863","o":"","e":""},"geometry":{"type":"Polygon","coordinates":[[[-85.4,52.46667],[-85.4,52.47083],[-85.39375,52.47083],[-85.39375,52.46667],[-85.4,52.46667]]]}},{"type":"Feature","properties":{"c":"168864","o":"","e":""},"geometry":{"type":"Polygon","coordinates":[[[-85.3875,52.45417],[-85.3875,52.45833],[-85.38125,52.45833],[-85.38125,52.45417],[-85.3875,52.45417]]]}},{"type":"Feature","properties":{"c":"171890","o":"","e":""},"geometry":{"type":"Polygon","coordinates":[[[-85.43125,52.4625],[-85.43125,52.46667],[-85.425,52.46667],[-85.425,52.4625],[-85.43125,52.4625]]]}},{"type":"Feature","properties":{"c":"201883","o":"","e":""},"geometry":{"type":"Polygon","coordinates":[[[-85.4125,52.45417],[-85.4125,52.45833],[-85.40625,52.45833],[-85.40625,52.45417],[-85.4125,52.45417]]]}},{"type":"Feature","properties":{"c":"206117","o":"","e":""},"geometry":{"type":"Polygon","coordinates":[[[-85.3875,52.46667],[-85.3875,52.47083],[-85.38125,52.47083],[-85.38125,52.46667],[-85.3875,52.46667]]]}},{"type":"Feature","properties":{"c":"206118","o":"","e":""},"geometry":{"type":"Polygon","coordinates":[[[-85.39375,52.45417],[-85.39375,52.45833],[-85.3875,52.45833],[-85.3875,52.45417],[-85.39375,52.45417]]]}},{"type":"Feature","properties":{"c":"209387","o":"","e":""},"geometry":{"type":"Polygon","coordinates":[[[-85.425,52.46667],[-85.425,52.47083],[-85.41875,52.47083],[-85.41875,52.46667],[-85.425,52.46667]]]}},{"type":"Feature","properties":{"c":"209388","o":"","e":""},"geometry":{"type":"Polygon","coordinates":[[[-85.40625,52.4625],[-85.40625,52.46667],[-85.4,52.46667],[-85.4,52.4625],[-85.40625,52.4625]]]}},{"type":"Feature","properties":{"c":"209389","o":"","e":""},"geometry":{"type":"Polygon","coordinates":[[[-85.4125,52.4625],[-85.4125,52.46667],[-85.40625,52.46667],[-85.40625,52.4625],[-85.4125,52.4625]]]}},{"type":"Feature","properties":{"c":"209390","o":"","e":""},"geometry":{"type":"Polygon","coordinates":[[[-85.425,52.45833],[-85.425,52.4625],[-85.41875,52.4625],[-85.41875,52.45833],[-85.425,52.45833]]]}},{"type":"Feature","properties":{"c":"209391","o":"","e":""},"geometry":{"type":"Polygon","coordinates":[[[-85.41875,52.45417],[-85.41875,52.45833],[-85.4125,52.45833],[-85.4125,52.45417],[-85.41875,52.45417]]]}},{"type":"Feature","properties":{"c":"221434","o":"","e":""},"geometry":{"type":"Polygon","coordinates":[[[-85.41875,52.4625],[-85.41875,52.46667],[-85.4125,52.46667],[-85.4125,52.4625],[-85.41875,52.4625]]]}},{"type":"Feature","properties":{"c":"235408","o":"","e":""},"geometry":{"type":"Polygon","coordinates":[[[-85.39375,52.45833],[-85.39375,52.4625],[-85.3875,52.4625],[-85.3875,52.45833],[-85.39375,52.45833]]]}},{"type":"Feature","properties":{"c":"238505","o":"","e":""},"geometry":{"type":"Polygon","coordinates":[[[-85.43125,52.45833],[-85.43125,52.4625],[-85.425,52.4625],[-85.425,52.45833],[-85.43125,52.45833]]]}},{"type":"Feature","properties":{"c":"256518","o":"","e":""},"geometry":{"type":"Polygon","coordinates":[[[-85.41875,52.45833],[-85.41875,52.4625],[-85.4125,52.4625],[-85.4125,52.45833],[-85.41875,52.45833]]]}},{"type":"Feature","properties":{"c":"264689","o":"","e":""},"geometry":{"type":"Polygon","coordinates":[[[-85.39375,52.4625],[-85.39375,52.46667],[-85.3875,52.46667],[-85.3875,52.4625],[-85.39375,52.4625]]]}},{"type":"Feature","properties":{"c":"264690","o":"","e":""},"geometry":{"type":"Polygon","coordinates":[[[-85.4,52.45833],[-85.4,52.4625],[-85.39375,52.4625],[-85.39375,52.45833],[-85.4,52.45833]]]}},{"type":"Feature","properties":{"c":"264691","o":"","e":""},"geometry":{"type":"Polygon","coordinates":[[[-85.4,52.45417],[-85.4,52.45833],[-85.39375,52.45833],[-85.39375,52.45417],[-85.4,52.45417]]]}},{"type":"Feature","properties":{"c":"275352","o":"","e":""},"geometry":{"type":"Polygon","coordinates":[[[-85.4125,52.45833],[-85.4125,52.4625],[-85.40625,52.4625],[-85.40625,52.45833],[-85.4125,52.45833]]]}},{"type":"Feature","properties":{"c":"275353","o":"","e":""},"geometry":{"type":"Polygon","coordinates":[[[-85.43125,52.45417],[-85.43125,52.45833],[-85.425,52.45833],[-85.425,52.45417],[-85.43125,52.45417]]]}},{"type":"Feature","properties":{"c":"284766","o":"","e":""},"geometry":{"type":"Polygon","coordinates":[[[-85.39375,52.46667],[-85.39375,52.47083],[-85.3875,52.47083],[-85.3875,52.46667],[-85.39375,52.46667]]]}},{"type":"Feature","properties":{"c":"305182","o":"","e":""},"geometry":{"type":"Polygon","coordinates":[[[-85.425,52.4625],[-85.425,52.46667],[-85.41875,52.46667],[-85.41875,52.4625],[-85.425,52.4625]]]}},{"type":"Feature","properties":{"c":"305183","o":"","e":""},"geometry":{"type":"Polygon","coordinates":[[[-85.40625,52.45833],[-85.40625,52.4625],[-85.4,52.4625],[-85.4,52.45833],[-85.40625,52.45833]]]}},{"type":"Feature","properties":{"c":"312481","o":"","e":""},"geometry":{"type":"Polygon","coordinates":[[[-85.4125,52.46667],[-85.4125,52.47083],[-85.40625,52.47083],[-85.40625,52.46667],[-85.4125,52.46667]]]}},{"type":"Feature","properties":{"c":"312482","o":"","e":""},"geometry":{"type":"Polygon","coordinates":[[[-85.41875,52.46667],[-85.41875,52.47083],[-85.4125,52.47083],[-85.4125,52.46667],[-85.41875,52.46667]]]}},{"type":"Feature","properties":{"c":"312483","o":"","e":""},"geometry":{"type":"Polygon","coordinates":[[[-85.40625,52.45417],[-85.40625,52.45833],[-85.4,52.45833],[-85.4,52.45417],[-85.40625,52.45417]]]}},{"type":"Feature","properties":{"c":"320855","o":"","e":""},"geometry":{"type":"Polygon","coordinates":[[[-85.4,52.4625],[-85.4,52.46667],[-85.39375,52.46667],[-85.39375,52.4625],[-85.4,52.4625]]]}},{"type":"Feature","properties":{"c":"324703","o":"","e":""},"geometry":{"type":"Polygon","coordinates":[[[-85.43125,52.46667],[-85.43125,52.47083],[-85.425,52.47083],[-85.425,52.46667],[-85.43125,52.46667]]]}},{"type":"Feature","properties":{"c":"324704","o":"","e":""},"geometry":{"type":"Polygon","coordinates":[[[-85.425,52.45417],[-85.425,52.45833],[-85.41875,52.45833],[-85.41875,52.45417],[-85.425,52.45417]]]}}]}