{"type":"FeatureCollection","features":[{"type":"Feature","properties":{"c":"105605","o":"Baffinland Iron Mines Corporation (100%)","e":"2028-08-20"},"geometry":{"type":"Polygon","coordinates":[[[-85.41236,72.7633],[-85.41236,72.76747],[-85.41236,72.77163],[-85.41236,72.7758],[-85.39986,72.77581],[-85.38736,72.77582],[-85.37486,72.77583],[-85.36236,72.77583],[-85.36236,72.77167],[-85.34986,72.77167],[-85.33736,72.77168],[-85.33736,72.76751],[-85.32486,72.76752],[-85.31235,72.76752],[-85.29985,72.76753],[-85.28735,72.76753],[-85.27485,72.76753],[-85.26235,72.76753],[-85.24985,72.76753],[-85.23735,72.76753],[-85.23735,72.76336],[-85.22485,72.76336],[-85.21235,72.76336],[-85.19985,72.76336],[-85.18734,72.76336],[-85.17484,72.76335],[-85.17484,72.75918],[-85.17484,72.75502],[-85.18735,72.75502],[-85.18735,72.75085],[-85.19985,72.75086],[-85.21235,72.75086],[-85.22485,72.75086],[-85.23735,72.75086],[-85.24985,72.75086],[-85.26235,72.75086],[-85.27485,72.75086],[-85.28736,72.75086],[-85.29986,72.75086],[-85.29986,72.75503],[-85.31236,72.75502],[-85.32486,72.75502],[-85.33736,72.75501],[-85.34986,72.75501],[-85.36236,72.755],[-85.37486,72.75499],[-85.38736,72.75499],[-85.39986,72.75498],[-85.41237,72.75497],[-85.41236,72.75913],[-85.41236,72.7633]]]}},{"type":"Feature","properties":{"c":"105598","o":"Baffinland Iron Mines Corporation (100%)","e":"2028-08-20"},"geometry":{"type":"Polygon","coordinates":[[[-85.6874,72.68836],[-85.6874,72.69252],[-85.6874,72.69669],[-85.6749,72.69668],[-85.6624,72.69668],[-85.6624,72.70085],[-85.64989,72.70084],[-85.64989,72.70501],[-85.63739,72.705],[-85.62489,72.70499],[-85.61239,72.70499],[-85.59989,72.70498],[-85.58739,72.70497],[-85.57489,72.70496],[-85.56239,72.70494],[-85.54989,72.70493],[-85.53739,72.70492],[-85.52489,72.70491],[-85.51239,72.70489],[-85.49989,72.70488],[-85.48738,72.70489],[-85.47488,72.70491],[-85.46238,72.70492],[-85.46238,72.70075],[-85.46238,72.69659],[-85.46239,72.69242],[-85.46239,72.68825],[-85.46239,72.68409],[-85.46239,72.67992],[-85.46239,72.67575],[-85.47489,72.67574],[-85.48739,72.67572],[-85.49989,72.67571],[-85.49989,72.67988],[-85.49989,72.68404],[-85.51239,72.68406],[-85.52489,72.68407],[-85.53739,72.68409],[-85.54989,72.6841],[-85.56239,72.68411],[-85.57489,72.68412],[-85.57489,72.67996],[-85.5874,72.67997],[-85.5999,72.67998],[-85.6124,72.67998],[-85.6249,72.67999],[-85.6374,72.68],[-85.6499,72.68001],[-85.6624,72.68001],[-85.6749,72.68002],[-85.6874,72.68002],[-85.6874,72.68419],[-85.6874,72.68836]]]}},{"type":"Feature","properties":{"c":"105599","o":"Baffinland Iron Mines Corporation (100%)","e":"2028-08-20"},"geometry":{"type":"Polygon","coordinates":[[[-85.46239,72.68825],[-85.46239,72.69242],[-85.46238,72.69659],[-85.46238,72.70075],[-85.46238,72.70492],[-85.46238,72.70909],[-85.46238,72.71325],[-85.46238,72.71742],[-85.44988,72.71743],[-85.43738,72.71744],[-85.42488,72.71746],[-85.41237,72.71747],[-85.39987,72.71748],[-85.38737,72.71748],[-85.37487,72.71749],[-85.36237,72.7175],[-85.34987,72.71751],[-85.33737,72.71751],[-85.32487,72.71752],[-85.31237,72.71752],[-85.29986,72.71752],[-85.29987,72.71336],[-85.29987,72.70919],[-85.29987,72.70502],[-85.29987,72.70086],[-85.29987,72.69669],[-85.29987,72.69252],[-85.31237,72.69252],[-85.32487,72.69252],[-85.32487,72.68835],[-85.33737,72.68834],[-85.34988,72.68834],[-85.36238,72.68833],[-85.37488,72.68833],[-85.37488,72.68416],[-85.38738,72.68415],[-85.39988,72.68414],[-85.41238,72.68413],[-85.41238,72.67996],[-85.42488,72.67995],[-85.43739,72.67994],[-85.44989,72.67993],[-85.46239,72.67992],[-85.46239,72.68409],[-85.46239,72.68825]]]}},{"type":"Feature","properties":{"c":"105600","o":"Baffinland Iron Mines Corporation (100%)","e":"2028-08-20"},"geometry":{"type":"Polygon","coordinates":[[[-85.64989,72.72167],[-85.64989,72.72584],[-85.64989,72.73001],[-85.64989,72.73417],[-85.63739,72.73417],[-85.62489,72.73416],[-85.61239,72.73415],[-85.59988,72.73414],[-85.58738,72.73413],[-85.57488,72.73412],[-85.56238,72.73411],[-85.54988,72.7341],[-85.53738,72.73409],[-85.52488,72.73407],[-85.51238,72.73406],[-85.49988,72.73404],[-85.48738,72.73406],[-85.47488,72.73407],[-85.46237,72.73409],[-85.46238,72.72992],[-85.46238,72.72575],[-85.46238,72.72159],[-85.46238,72.71742],[-85.46238,72.71325],[-85.46238,72.70909],[-85.46238,72.70492],[-85.47488,72.70491],[-85.48738,72.70489],[-85.49989,72.70488],[-85.51239,72.70489],[-85.52489,72.70491],[-85.53739,72.70492],[-85.54989,72.70493],[-85.56239,72.70494],[-85.57489,72.70496],[-85.58739,72.70497],[-85.59989,72.70498],[-85.61239,72.70499],[-85.61239,72.70915],[-85.59989,72.70914],[-85.58739,72.70913],[-85.58739,72.7133],[-85.59989,72.71331],[-85.61239,72.71332],[-85.62489,72.71333],[-85.63739,72.71333],[-85.64989,72.71334],[-85.64989,72.71751],[-85.64989,72.72167]]]}},{"type":"Feature","properties":{"c":"105601","o":"Baffinland Iron Mines Corporation (100%)","e":"2028-08-20"},"geometry":{"type":"Polygon","coordinates":[[[-85.64988,72.76751],[-85.64988,72.77168],[-85.64988,72.77584],[-85.63738,72.77584],[-85.62488,72.77583],[-85.61238,72.77582],[-85.59987,72.77581],[-85.58737,72.7758],[-85.57487,72.77579],[-85.56237,72.77578],[-85.54987,72.77577],[-85.53737,72.77575],[-85.52487,72.77574],[-85.51237,72.77573],[-85.49987,72.77571],[-85.48737,72.77573],[-85.48737,72.77156],[-85.48737,72.76739],[-85.48737,72.76323],[-85.48737,72.75906],[-85.48737,72.75489],[-85.48737,72.75073],[-85.48737,72.74656],[-85.49987,72.74654],[-85.51238,72.74656],[-85.52488,72.74657],[-85.53738,72.74659],[-85.54988,72.7466],[-85.56238,72.74661],[-85.57488,72.74662],[-85.58738,72.74663],[-85.59988,72.74664],[-85.61238,72.74665],[-85.61238,72.75082],[-85.62488,72.75083],[-85.62488,72.75499],[-85.63738,72.755],[-85.63738,72.75917],[-85.63738,72.76334],[-85.64988,72.76334],[-85.64988,72.76751]]]}},{"type":"Feature","properties":{"c":"105602","o":"Baffinland Iron Mines Corporation (100%)","e":"2028-08-20"},"geometry":{"type":"Polygon","coordinates":[[[-85.29987,72.70086],[-85.29987,72.70502],[-85.29987,72.70919],[-85.29987,72.71336],[-85.29986,72.71752],[-85.29986,72.72169],[-85.29986,72.72586],[-85.29986,72.73003],[-85.29986,72.73419],[-85.29986,72.73836],[-85.29986,72.74253],[-85.29986,72.74669],[-85.29986,72.75086],[-85.28736,72.75086],[-85.27485,72.75086],[-85.26235,72.75086],[-85.24985,72.75086],[-85.23735,72.75086],[-85.22485,72.75086],[-85.21235,72.75086],[-85.21235,72.74669],[-85.21235,72.74253],[-85.21235,72.73836],[-85.21235,72.73419],[-85.21235,72.73003],[-85.21235,72.72586],[-85.21236,72.72169],[-85.21236,72.71753],[-85.21236,72.71336],[-85.21236,72.70919],[-85.21236,72.70503],[-85.21236,72.70086],[-85.22486,72.70086],[-85.22486,72.6967],[-85.23736,72.6967],[-85.24986,72.6967],[-85.26237,72.6967],[-85.27487,72.6967],[-85.28737,72.69669],[-85.28737,72.69253],[-85.29987,72.69252],[-85.29987,72.69669],[-85.29987,72.70086]]]}},{"type":"Feature","properties":{"c":"105603","o":"Baffinland Iron Mines Corporation (100%)","e":"2028-08-20"},"geometry":{"type":"Polygon","coordinates":[[[-85.64989,72.74251],[-85.63739,72.7425],[-85.63738,72.74667],[-85.62488,72.74666],[-85.61238,72.74665],[-85.59988,72.74664],[-85.58738,72.74663],[-85.57488,72.74662],[-85.56238,72.74661],[-85.54988,72.7466],[-85.53738,72.74659],[-85.52488,72.74657],[-85.51238,72.74656],[-85.49987,72.74654],[-85.48737,72.74656],[-85.48737,72.75073],[-85.48737,72.75489],[-85.48737,72.75906],[-85.48737,72.76323],[-85.48737,72.76739],[-85.48737,72.77156],[-85.48737,72.77573],[-85.47487,72.77574],[-85.46236,72.77575],[-85.44986,72.77577],[-85.43736,72.77578],[-85.42486,72.77579],[-85.41236,72.7758],[-85.41236,72.77163],[-85.41236,72.76747],[-85.41236,72.7633],[-85.41236,72.75913],[-85.41237,72.75497],[-85.41237,72.7508],[-85.41237,72.74663],[-85.41237,72.74247],[-85.41237,72.7383],[-85.41237,72.73413],[-85.42487,72.73412],[-85.43737,72.73411],[-85.44987,72.7341],[-85.46237,72.73409],[-85.47488,72.73407],[-85.48738,72.73406],[-85.49988,72.73404],[-85.51238,72.73406],[-85.52488,72.73407],[-85.53738,72.73409],[-85.54988,72.7341],[-85.56238,72.73411],[-85.57488,72.73412],[-85.58738,72.73413],[-85.59988,72.73414],[-85.61239,72.73415],[-85.62489,72.73416],[-85.63739,72.73417],[-85.64989,72.73417],[-85.64989,72.73834],[-85.64989,72.74251]]]}},{"type":"Feature","properties":{"c":"105604","o":"Baffinland Iron Mines Corporation (100%)","e":"2028-08-20"},"geometry":{"type":"Polygon","coordinates":[[[-85.46238,72.72575],[-85.46238,72.72992],[-85.46237,72.73409],[-85.44987,72.7341],[-85.43737,72.73411],[-85.42487,72.73412],[-85.41237,72.73413],[-85.41237,72.7383],[-85.41237,72.74247],[-85.41237,72.74663],[-85.41237,72.7508],[-85.41237,72.75497],[-85.39986,72.75498],[-85.38736,72.75499],[-85.37486,72.75499],[-85.36236,72.755],[-85.34986,72.75501],[-85.33736,72.75501],[-85.32486,72.75502],[-85.31236,72.75502],[-85.29986,72.75503],[-85.29986,72.75086],[-85.29986,72.74669],[-85.29986,72.74253],[-85.29986,72.73836],[-85.29986,72.73419],[-85.29986,72.73003],[-85.29986,72.72586],[-85.29986,72.72169],[-85.29986,72.71752],[-85.31237,72.71752],[-85.32487,72.71752],[-85.33737,72.71751],[-85.34987,72.71751],[-85.36237,72.7175],[-85.37487,72.71749],[-85.38737,72.71748],[-85.39987,72.71748],[-85.41237,72.71747],[-85.42488,72.71746],[-85.43738,72.71744],[-85.44988,72.71743],[-85.46238,72.71742],[-85.46238,72.72159],[-85.46238,72.72575]]]}}]}