{"type":"FeatureCollection","features":[{"type":"Feature","properties":{"c":"884679","o":"","e":""},"geometry":{"type":"Polygon","coordinates":[[[-85.95,53.99583],[-85.95,54.0],[-85.94375,54.0],[-85.9375,54.0],[-85.93125,54.0],[-85.93125,53.99583],[-85.93125,53.99167],[-85.93125,53.9875],[-85.9375,53.9875],[-85.94375,53.9875],[-85.95,53.9875],[-85.95,53.99167],[-85.95,53.99583]]]}},{"type":"Feature","properties":{"c":"884662","o":"","e":""},"geometry":{"type":"Polygon","coordinates":[[[-85.625,54.39167],[-85.61875,54.39167],[-85.6125,54.39167],[-85.60625,54.39167],[-85.6,54.39167],[-85.59375,54.39167],[-85.5875,54.39167],[-85.58125,54.39167],[-85.58125,54.3875],[-85.58125,54.38333],[-85.5875,54.38333],[-85.59375,54.38333],[-85.6,54.38333],[-85.60625,54.38333],[-85.6125,54.38333],[-85.61875,54.38333],[-85.625,54.38333],[-85.625,54.3875],[-85.625,54.39167]]]}},{"type":"Feature","properties":{"c":"884816","o":"","e":""},"geometry":{"type":"Polygon","coordinates":[[[-85.625,54.38333],[-85.61875,54.38333],[-85.6125,54.38333],[-85.60625,54.38333],[-85.6,54.38333],[-85.59375,54.38333],[-85.5875,54.38333],[-85.58125,54.38333],[-85.58125,54.37917],[-85.58125,54.375],[-85.5875,54.375],[-85.59375,54.375],[-85.6,54.375],[-85.60625,54.375],[-85.6125,54.375],[-85.61875,54.375],[-85.625,54.375],[-85.625,54.37917],[-85.625,54.38333]]]}},{"type":"Feature","properties":{"c":"884657","o":"","e":""},"geometry":{"type":"Polygon","coordinates":[[[-85.95625,54.25],[-85.95625,54.25417],[-85.95,54.25417],[-85.94375,54.25417],[-85.9375,54.25417],[-85.93125,54.25417],[-85.925,54.25417],[-85.91875,54.25417],[-85.9125,54.25417],[-85.90625,54.25417],[-85.90625,54.25],[-85.90625,54.24583],[-85.90625,54.24167],[-85.9125,54.24167],[-85.91875,54.24167],[-85.925,54.24167],[-85.93125,54.24167],[-85.9375,54.24167],[-85.94375,54.24167],[-85.95,54.24167],[-85.95625,54.24167],[-85.95625,54.24583],[-85.95625,54.25]]]}}]}