{"type":"FeatureCollection","features":[{"type":"Feature","properties":{"c":"F72483","o":"North Arrow Minerals Inc. (100%)","e":"2033-07-05"},"geometry":{"type":"Polygon","coordinates":[[[-85.91355,66.52855],[-85.96498,66.52889],[-85.96327,66.5699],[-85.91176,66.56955],[-85.91355,66.52855]]]}},{"type":"Feature","properties":{"c":"F72482","o":"North Arrow Minerals Inc. (100%)","e":"2033-07-05"},"geometry":{"type":"Polygon","coordinates":[[[-85.96498,66.52889],[-86.01641,66.52923],[-86.01478,66.57023],[-85.96327,66.5699],[-85.96498,66.52889]]]}},{"type":"Feature","properties":{"c":"F72573","o":"North Arrow Minerals Inc. (100%)","e":"2033-06-11"},"geometry":{"type":"Polygon","coordinates":[[[-85.86212,66.52818],[-85.91355,66.52855],[-85.91176,66.56955],[-85.86025,66.56919],[-85.86212,66.52818]]]}}]}