{"type":"FeatureCollection","features":[{"type":"Feature","properties":{"c":"102987","o":"Aurora Geosciences Ltd. (100%)","e":"2025-03-22"},"geometry":{"type":"Polygon","coordinates":[[[-85.97501,70.47983],[-85.95001,70.47986],[-85.95,70.47152],[-85.97501,70.4715],[-85.97501,70.47566],[-85.97501,70.47983]]]}},{"type":"Feature","properties":{"c":"102986","o":"Aurora Geosciences Ltd. (100%)","e":"2025-03-22"},"geometry":{"type":"Polygon","coordinates":[[[-85.95,70.47152],[-85.9125,70.47156],[-85.91249,70.45906],[-85.95,70.45902],[-85.95,70.46736],[-85.95,70.47152]]]}}]}