{"type":"FeatureCollection","features":[{"type":"Feature","properties":{"c":"681171","o":"","e":""},"geometry":{"type":"Polygon","coordinates":[[[-88.50625,50.49583],[-88.50625,50.5],[-88.5,50.5],[-88.5,50.49583],[-88.50625,50.49583]]]}},{"type":"Feature","properties":{"c":"681214","o":"","e":""},"geometry":{"type":"Polygon","coordinates":[[[-88.50625,50.5],[-88.50625,50.50417],[-88.5,50.50417],[-88.5,50.5],[-88.50625,50.5]]]}},{"type":"Feature","properties":{"c":"727348","o":"","e":""},"geometry":{"type":"Polygon","coordinates":[[[-88.01875,50.49583],[-88.01875,50.5],[-88.0125,50.5],[-88.0125,50.49583],[-88.01875,50.49583]]]}},{"type":"Feature","properties":{"c":"727349","o":"","e":""},"geometry":{"type":"Polygon","coordinates":[[[-88.0125,50.49583],[-88.0125,50.5],[-88.00625,50.5],[-88.00625,50.49583],[-88.0125,50.49583]]]}},{"type":"Feature","properties":{"c":"727350","o":"","e":""},"geometry":{"type":"Polygon","coordinates":[[[-88.00625,50.49583],[-88.00625,50.5],[-88.0,50.5],[-88.0,50.49583],[-88.00625,50.49583]]]}},{"type":"Feature","properties":{"c":"888265","o":"","e":""},"geometry":{"type":"Polygon","coordinates":[[[-88.19375,50.49167],[-88.19375,50.49583],[-88.1875,50.49583],[-88.1875,50.5],[-88.18125,50.5],[-88.18125,50.49583],[-88.175,50.49583],[-88.175,50.49167],[-88.175,50.4875],[-88.175,50.48333],[-88.18125,50.48333],[-88.1875,50.48333],[-88.19375,50.48333],[-88.19375,50.4875],[-88.19375,50.49167]]]}},{"type":"Feature","properties":{"c":"727291","o":"","e":""},"geometry":{"type":"Polygon","coordinates":[[[-88.1,50.49583],[-88.1,50.5],[-88.09375,50.5],[-88.09375,50.49583],[-88.1,50.49583]]]}},{"type":"Feature","properties":{"c":"727292","o":"","e":""},"geometry":{"type":"Polygon","coordinates":[[[-88.09375,50.49583],[-88.09375,50.5],[-88.0875,50.5],[-88.0875,50.49583],[-88.09375,50.49583]]]}},{"type":"Feature","properties":{"c":"727287","o":"","e":""},"geometry":{"type":"Polygon","coordinates":[[[-88.125,50.49583],[-88.125,50.5],[-88.11875,50.5],[-88.11875,50.49583],[-88.125,50.49583]]]}},{"type":"Feature","properties":{"c":"727288","o":"","e":""},"geometry":{"type":"Polygon","coordinates":[[[-88.11875,50.49583],[-88.11875,50.5],[-88.1125,50.5],[-88.1125,50.49583],[-88.11875,50.49583]]]}},{"type":"Feature","properties":{"c":"727289","o":"","e":""},"geometry":{"type":"Polygon","coordinates":[[[-88.1125,50.49583],[-88.1125,50.5],[-88.10625,50.5],[-88.10625,50.49583],[-88.1125,50.49583]]]}},{"type":"Feature","properties":{"c":"727290","o":"","e":""},"geometry":{"type":"Polygon","coordinates":[[[-88.10625,50.49583],[-88.10625,50.5],[-88.1,50.5],[-88.1,50.49583],[-88.10625,50.49583]]]}},{"type":"Feature","properties":{"c":"727337","o":"","e":""},"geometry":{"type":"Polygon","coordinates":[[[-88.0875,50.49583],[-88.0875,50.5],[-88.08125,50.5],[-88.08125,50.49583],[-88.0875,50.49583]]]}},{"type":"Feature","properties":{"c":"727338","o":"","e":""},"geometry":{"type":"Polygon","coordinates":[[[-88.08125,50.49583],[-88.08125,50.5],[-88.075,50.5],[-88.075,50.49583],[-88.08125,50.49583]]]}},{"type":"Feature","properties":{"c":"727339","o":"","e":""},"geometry":{"type":"Polygon","coordinates":[[[-88.075,50.49583],[-88.075,50.5],[-88.06875,50.5],[-88.06875,50.49583],[-88.075,50.49583]]]}},{"type":"Feature","properties":{"c":"727340","o":"","e":""},"geometry":{"type":"Polygon","coordinates":[[[-88.06875,50.49583],[-88.06875,50.5],[-88.0625,50.5],[-88.0625,50.49583],[-88.06875,50.49583]]]}},{"type":"Feature","properties":{"c":"727341","o":"","e":""},"geometry":{"type":"Polygon","coordinates":[[[-88.0625,50.49583],[-88.0625,50.5],[-88.05625,50.5],[-88.05625,50.49583],[-88.0625,50.49583]]]}},{"type":"Feature","properties":{"c":"727342","o":"","e":""},"geometry":{"type":"Polygon","coordinates":[[[-88.05625,50.49583],[-88.05625,50.5],[-88.05,50.5],[-88.05,50.49583],[-88.05625,50.49583]]]}},{"type":"Feature","properties":{"c":"727343","o":"","e":""},"geometry":{"type":"Polygon","coordinates":[[[-88.05,50.49583],[-88.05,50.5],[-88.04375,50.5],[-88.04375,50.49583],[-88.05,50.49583]]]}},{"type":"Feature","properties":{"c":"727344","o":"","e":""},"geometry":{"type":"Polygon","coordinates":[[[-88.04375,50.49583],[-88.04375,50.5],[-88.0375,50.5],[-88.0375,50.49583],[-88.04375,50.49583]]]}},{"type":"Feature","properties":{"c":"727345","o":"","e":""},"geometry":{"type":"Polygon","coordinates":[[[-88.0375,50.49583],[-88.0375,50.5],[-88.03125,50.5],[-88.03125,50.49583],[-88.0375,50.49583]]]}},{"type":"Feature","properties":{"c":"727346","o":"","e":""},"geometry":{"type":"Polygon","coordinates":[[[-88.03125,50.49583],[-88.03125,50.5],[-88.025,50.5],[-88.025,50.49583],[-88.03125,50.49583]]]}},{"type":"Feature","properties":{"c":"912326","o":"","e":""},"geometry":{"type":"Polygon","coordinates":[[[-88.3125,50.49583],[-88.3125,50.5],[-88.30625,50.5],[-88.30625,50.49583],[-88.3125,50.49583]]]}},{"type":"Feature","properties":{"c":"912337","o":"","e":""},"geometry":{"type":"Polygon","coordinates":[[[-88.29375,50.49583],[-88.29375,50.5],[-88.2875,50.5],[-88.2875,50.49583],[-88.29375,50.49583]]]}},{"type":"Feature","properties":{"c":"912338","o":"","e":""},"geometry":{"type":"Polygon","coordinates":[[[-88.2875,50.49583],[-88.2875,50.5],[-88.28125,50.5],[-88.28125,50.49583],[-88.2875,50.49583]]]}},{"type":"Feature","properties":{"c":"912341","o":"","e":""},"geometry":{"type":"Polygon","coordinates":[[[-88.25625,50.49583],[-88.25625,50.5],[-88.25,50.5],[-88.25,50.49583],[-88.25625,50.49583]]]}},{"type":"Feature","properties":{"c":"912344","o":"","e":""},"geometry":{"type":"Polygon","coordinates":[[[-88.2125,50.49583],[-88.2125,50.5],[-88.20625,50.5],[-88.20625,50.49583],[-88.2125,50.49583]]]}},{"type":"Feature","properties":{"c":"912345","o":"","e":""},"geometry":{"type":"Polygon","coordinates":[[[-88.30625,50.49583],[-88.30625,50.5],[-88.3,50.5],[-88.3,50.49583],[-88.30625,50.49583]]]}},{"type":"Feature","properties":{"c":"912348","o":"","e":""},"geometry":{"type":"Polygon","coordinates":[[[-88.28125,50.49583],[-88.28125,50.5],[-88.275,50.5],[-88.275,50.49583],[-88.28125,50.49583]]]}},{"type":"Feature","properties":{"c":"912349","o":"","e":""},"geometry":{"type":"Polygon","coordinates":[[[-88.275,50.49583],[-88.275,50.5],[-88.26875,50.5],[-88.26875,50.49583],[-88.275,50.49583]]]}},{"type":"Feature","properties":{"c":"912352","o":"","e":""},"geometry":{"type":"Polygon","coordinates":[[[-88.24375,50.49583],[-88.24375,50.5],[-88.2375,50.5],[-88.2375,50.49583],[-88.24375,50.49583]]]}},{"type":"Feature","properties":{"c":"912353","o":"","e":""},"geometry":{"type":"Polygon","coordinates":[[[-88.2375,50.49583],[-88.2375,50.5],[-88.23125,50.5],[-88.23125,50.49583],[-88.2375,50.49583]]]}},{"type":"Feature","properties":{"c":"912355","o":"","e":""},"geometry":{"type":"Polygon","coordinates":[[[-88.23125,50.49583],[-88.23125,50.5],[-88.225,50.5],[-88.225,50.49583],[-88.23125,50.49583]]]}},{"type":"Feature","properties":{"c":"912356","o":"","e":""},"geometry":{"type":"Polygon","coordinates":[[[-88.225,50.49583],[-88.225,50.5],[-88.21875,50.5],[-88.21875,50.49583],[-88.225,50.49583]]]}},{"type":"Feature","properties":{"c":"912359","o":"","e":""},"geometry":{"type":"Polygon","coordinates":[[[-88.2625,50.49583],[-88.2625,50.5],[-88.25625,50.5],[-88.25625,50.49583],[-88.2625,50.49583]]]}},{"type":"Feature","properties":{"c":"912361","o":"","e":""},"geometry":{"type":"Polygon","coordinates":[[[-88.20625,50.49583],[-88.20625,50.5],[-88.2,50.5],[-88.2,50.49583],[-88.20625,50.49583]]]}},{"type":"Feature","properties":{"c":"912362","o":"","e":""},"geometry":{"type":"Polygon","coordinates":[[[-88.3,50.49583],[-88.3,50.5],[-88.29375,50.5],[-88.29375,50.49583],[-88.3,50.49583]]]}},{"type":"Feature","properties":{"c":"912363","o":"","e":""},"geometry":{"type":"Polygon","coordinates":[[[-88.26875,50.49583],[-88.26875,50.5],[-88.2625,50.5],[-88.2625,50.49583],[-88.26875,50.49583]]]}},{"type":"Feature","properties":{"c":"912364","o":"","e":""},"geometry":{"type":"Polygon","coordinates":[[[-88.25,50.49583],[-88.25,50.5],[-88.24375,50.5],[-88.24375,50.49583],[-88.25,50.49583]]]}},{"type":"Feature","properties":{"c":"912366","o":"","e":""},"geometry":{"type":"Polygon","coordinates":[[[-88.21875,50.49583],[-88.21875,50.5],[-88.2125,50.5],[-88.2125,50.49583],[-88.21875,50.49583]]]}},{"type":"Feature","properties":{"c":"912367","o":"","e":""},"geometry":{"type":"Polygon","coordinates":[[[-88.2,50.49583],[-88.2,50.5],[-88.19375,50.5],[-88.19375,50.49583],[-88.2,50.49583]]]}},{"type":"Feature","properties":{"c":"681089","o":"","e":""},"geometry":{"type":"Polygon","coordinates":[[[-88.40625,50.49583],[-88.40625,50.5],[-88.4,50.5],[-88.4,50.49583],[-88.40625,50.49583]]]}},{"type":"Feature","properties":{"c":"681090","o":"","e":""},"geometry":{"type":"Polygon","coordinates":[[[-88.4,50.49583],[-88.4,50.5],[-88.39375,50.5],[-88.39375,50.49583],[-88.4,50.49583]]]}},{"type":"Feature","properties":{"c":"681091","o":"","e":""},"geometry":{"type":"Polygon","coordinates":[[[-88.39375,50.49583],[-88.39375,50.5],[-88.3875,50.5],[-88.3875,50.49583],[-88.39375,50.49583]]]}},{"type":"Feature","properties":{"c":"681122","o":"","e":""},"geometry":{"type":"Polygon","coordinates":[[[-88.4625,50.49583],[-88.4625,50.5],[-88.45625,50.5],[-88.45625,50.49583],[-88.4625,50.49583]]]}},{"type":"Feature","properties":{"c":"681123","o":"","e":""},"geometry":{"type":"Polygon","coordinates":[[[-88.45,50.49583],[-88.45,50.5],[-88.44375,50.5],[-88.44375,50.49583],[-88.45,50.49583]]]}},{"type":"Feature","properties":{"c":"681124","o":"","e":""},"geometry":{"type":"Polygon","coordinates":[[[-88.4375,50.49583],[-88.4375,50.5],[-88.43125,50.5],[-88.43125,50.49583],[-88.4375,50.49583]]]}},{"type":"Feature","properties":{"c":"681125","o":"","e":""},"geometry":{"type":"Polygon","coordinates":[[[-88.425,50.49583],[-88.425,50.5],[-88.41875,50.5],[-88.41875,50.49583],[-88.425,50.49583]]]}},{"type":"Feature","properties":{"c":"681126","o":"","e":""},"geometry":{"type":"Polygon","coordinates":[[[-88.4125,50.49583],[-88.4125,50.5],[-88.40625,50.5],[-88.40625,50.49583],[-88.4125,50.49583]]]}},{"type":"Feature","properties":{"c":"681132","o":"","e":""},"geometry":{"type":"Polygon","coordinates":[[[-88.46875,50.49583],[-88.46875,50.5],[-88.4625,50.5],[-88.4625,50.49583],[-88.46875,50.49583]]]}},{"type":"Feature","properties":{"c":"681133","o":"","e":""},"geometry":{"type":"Polygon","coordinates":[[[-88.45625,50.49583],[-88.45625,50.5],[-88.45,50.5],[-88.45,50.49583],[-88.45625,50.49583]]]}},{"type":"Feature","properties":{"c":"681134","o":"","e":""},"geometry":{"type":"Polygon","coordinates":[[[-88.44375,50.49583],[-88.44375,50.5],[-88.4375,50.5],[-88.4375,50.49583],[-88.44375,50.49583]]]}},{"type":"Feature","properties":{"c":"681135","o":"","e":""},"geometry":{"type":"Polygon","coordinates":[[[-88.43125,50.49583],[-88.43125,50.5],[-88.425,50.5],[-88.425,50.49583],[-88.43125,50.49583]]]}},{"type":"Feature","properties":{"c":"681136","o":"","e":""},"geometry":{"type":"Polygon","coordinates":[[[-88.41875,50.49583],[-88.41875,50.5],[-88.4125,50.5],[-88.4125,50.49583],[-88.41875,50.49583]]]}},{"type":"Feature","properties":{"c":"681195","o":"","e":""},"geometry":{"type":"Polygon","coordinates":[[[-88.5,50.49583],[-88.5,50.5],[-88.49375,50.5],[-88.49375,50.49583],[-88.5,50.49583]]]}},{"type":"Feature","properties":{"c":"681196","o":"","e":""},"geometry":{"type":"Polygon","coordinates":[[[-88.49375,50.49583],[-88.49375,50.5],[-88.4875,50.5],[-88.4875,50.49583],[-88.49375,50.49583]]]}},{"type":"Feature","properties":{"c":"681197","o":"","e":""},"geometry":{"type":"Polygon","coordinates":[[[-88.4875,50.49583],[-88.4875,50.5],[-88.48125,50.5],[-88.48125,50.49583],[-88.4875,50.49583]]]}},{"type":"Feature","properties":{"c":"681198","o":"","e":""},"geometry":{"type":"Polygon","coordinates":[[[-88.48125,50.49583],[-88.48125,50.5],[-88.475,50.5],[-88.475,50.49583],[-88.48125,50.49583]]]}},{"type":"Feature","properties":{"c":"681199","o":"","e":""},"geometry":{"type":"Polygon","coordinates":[[[-88.475,50.49583],[-88.475,50.5],[-88.46875,50.5],[-88.46875,50.49583],[-88.475,50.49583]]]}},{"type":"Feature","properties":{"c":"727347","o":"","e":""},"geometry":{"type":"Polygon","coordinates":[[[-88.025,50.49583],[-88.025,50.5],[-88.01875,50.5],[-88.01875,50.49583],[-88.025,50.49583]]]}},{"type":"Feature","properties":{"c":"727325","o":"","e":""},"geometry":{"type":"Polygon","coordinates":[[[-88.125,50.50417],[-88.125,50.50833],[-88.11875,50.50833],[-88.11875,50.50417],[-88.125,50.50417]]]}},{"type":"Feature","properties":{"c":"727326","o":"","e":""},"geometry":{"type":"Polygon","coordinates":[[[-88.11875,50.50417],[-88.11875,50.50833],[-88.1125,50.50833],[-88.1125,50.50417],[-88.11875,50.50417]]]}},{"type":"Feature","properties":{"c":"727327","o":"","e":""},"geometry":{"type":"Polygon","coordinates":[[[-88.1125,50.50417],[-88.1125,50.50833],[-88.10625,50.50833],[-88.10625,50.50417],[-88.1125,50.50417]]]}},{"type":"Feature","properties":{"c":"727328","o":"","e":""},"geometry":{"type":"Polygon","coordinates":[[[-88.10625,50.50417],[-88.10625,50.50833],[-88.1,50.50833],[-88.1,50.50417],[-88.10625,50.50417]]]}},{"type":"Feature","properties":{"c":"727329","o":"","e":""},"geometry":{"type":"Polygon","coordinates":[[[-88.1,50.50417],[-88.1,50.50833],[-88.09375,50.50833],[-88.09375,50.50417],[-88.1,50.50417]]]}},{"type":"Feature","properties":{"c":"727330","o":"","e":""},"geometry":{"type":"Polygon","coordinates":[[[-88.09375,50.50417],[-88.09375,50.50833],[-88.0875,50.50833],[-88.0875,50.50417],[-88.09375,50.50417]]]}},{"type":"Feature","properties":{"c":"727331","o":"","e":""},"geometry":{"type":"Polygon","coordinates":[[[-88.125,50.5],[-88.125,50.50417],[-88.11875,50.50417],[-88.11875,50.5],[-88.125,50.5]]]}},{"type":"Feature","properties":{"c":"727332","o":"","e":""},"geometry":{"type":"Polygon","coordinates":[[[-88.11875,50.5],[-88.11875,50.50417],[-88.1125,50.50417],[-88.1125,50.5],[-88.11875,50.5]]]}},{"type":"Feature","properties":{"c":"727333","o":"","e":""},"geometry":{"type":"Polygon","coordinates":[[[-88.1125,50.5],[-88.1125,50.50417],[-88.10625,50.50417],[-88.10625,50.5],[-88.1125,50.5]]]}},{"type":"Feature","properties":{"c":"727334","o":"","e":""},"geometry":{"type":"Polygon","coordinates":[[[-88.10625,50.5],[-88.10625,50.50417],[-88.1,50.50417],[-88.1,50.5],[-88.10625,50.5]]]}},{"type":"Feature","properties":{"c":"727335","o":"","e":""},"geometry":{"type":"Polygon","coordinates":[[[-88.1,50.5],[-88.1,50.50417],[-88.09375,50.50417],[-88.09375,50.5],[-88.1,50.5]]]}},{"type":"Feature","properties":{"c":"727336","o":"","e":""},"geometry":{"type":"Polygon","coordinates":[[[-88.09375,50.5],[-88.09375,50.50417],[-88.0875,50.50417],[-88.0875,50.5],[-88.09375,50.5]]]}},{"type":"Feature","properties":{"c":"727377","o":"","e":""},"geometry":{"type":"Polygon","coordinates":[[[-88.05,50.5],[-88.05,50.50417],[-88.04375,50.50417],[-88.04375,50.5],[-88.05,50.5]]]}},{"type":"Feature","properties":{"c":"727378","o":"","e":""},"geometry":{"type":"Polygon","coordinates":[[[-88.04375,50.5],[-88.04375,50.50417],[-88.0375,50.50417],[-88.0375,50.5],[-88.04375,50.5]]]}},{"type":"Feature","properties":{"c":"727379","o":"","e":""},"geometry":{"type":"Polygon","coordinates":[[[-88.0375,50.5],[-88.0375,50.50417],[-88.03125,50.50417],[-88.03125,50.5],[-88.0375,50.5]]]}},{"type":"Feature","properties":{"c":"727380","o":"","e":""},"geometry":{"type":"Polygon","coordinates":[[[-88.03125,50.5],[-88.03125,50.50417],[-88.025,50.50417],[-88.025,50.5],[-88.03125,50.5]]]}},{"type":"Feature","properties":{"c":"727381","o":"","e":""},"geometry":{"type":"Polygon","coordinates":[[[-88.025,50.5],[-88.025,50.50417],[-88.01875,50.50417],[-88.01875,50.5],[-88.025,50.5]]]}},{"type":"Feature","properties":{"c":"727382","o":"","e":""},"geometry":{"type":"Polygon","coordinates":[[[-88.01875,50.5],[-88.01875,50.50417],[-88.0125,50.50417],[-88.0125,50.5],[-88.01875,50.5]]]}},{"type":"Feature","properties":{"c":"727383","o":"","e":""},"geometry":{"type":"Polygon","coordinates":[[[-88.0125,50.5],[-88.0125,50.50417],[-88.00625,50.50417],[-88.00625,50.5],[-88.0125,50.5]]]}},{"type":"Feature","properties":{"c":"727384","o":"","e":""},"geometry":{"type":"Polygon","coordinates":[[[-88.00625,50.5],[-88.00625,50.50417],[-88.0,50.50417],[-88.0,50.5],[-88.00625,50.5]]]}},{"type":"Feature","properties":{"c":"727357","o":"","e":""},"geometry":{"type":"Polygon","coordinates":[[[-88.0875,50.50417],[-88.0875,50.50833],[-88.08125,50.50833],[-88.08125,50.50417],[-88.0875,50.50417]]]}},{"type":"Feature","properties":{"c":"727358","o":"","e":""},"geometry":{"type":"Polygon","coordinates":[[[-88.08125,50.50417],[-88.08125,50.50833],[-88.075,50.50833],[-88.075,50.50417],[-88.08125,50.50417]]]}},{"type":"Feature","properties":{"c":"727359","o":"","e":""},"geometry":{"type":"Polygon","coordinates":[[[-88.075,50.50417],[-88.075,50.50833],[-88.06875,50.50833],[-88.06875,50.50417],[-88.075,50.50417]]]}},{"type":"Feature","properties":{"c":"727360","o":"","e":""},"geometry":{"type":"Polygon","coordinates":[[[-88.06875,50.50417],[-88.06875,50.50833],[-88.0625,50.50833],[-88.0625,50.50417],[-88.06875,50.50417]]]}},{"type":"Feature","properties":{"c":"727361","o":"","e":""},"geometry":{"type":"Polygon","coordinates":[[[-88.0625,50.50417],[-88.0625,50.50833],[-88.05625,50.50833],[-88.05625,50.50417],[-88.0625,50.50417]]]}},{"type":"Feature","properties":{"c":"727362","o":"","e":""},"geometry":{"type":"Polygon","coordinates":[[[-88.05625,50.50417],[-88.05625,50.50833],[-88.05,50.50833],[-88.05,50.50417],[-88.05625,50.50417]]]}},{"type":"Feature","properties":{"c":"727363","o":"","e":""},"geometry":{"type":"Polygon","coordinates":[[[-88.05,50.50417],[-88.05,50.50833],[-88.04375,50.50833],[-88.04375,50.50417],[-88.05,50.50417]]]}},{"type":"Feature","properties":{"c":"727364","o":"","e":""},"geometry":{"type":"Polygon","coordinates":[[[-88.04375,50.50417],[-88.04375,50.50833],[-88.0375,50.50833],[-88.0375,50.50417],[-88.04375,50.50417]]]}},{"type":"Feature","properties":{"c":"727365","o":"","e":""},"geometry":{"type":"Polygon","coordinates":[[[-88.0375,50.50417],[-88.0375,50.50833],[-88.03125,50.50833],[-88.03125,50.50417],[-88.0375,50.50417]]]}},{"type":"Feature","properties":{"c":"727366","o":"","e":""},"geometry":{"type":"Polygon","coordinates":[[[-88.03125,50.50417],[-88.03125,50.50833],[-88.025,50.50833],[-88.025,50.50417],[-88.03125,50.50417]]]}},{"type":"Feature","properties":{"c":"727367","o":"","e":""},"geometry":{"type":"Polygon","coordinates":[[[-88.025,50.50417],[-88.025,50.50833],[-88.01875,50.50833],[-88.01875,50.50417],[-88.025,50.50417]]]}},{"type":"Feature","properties":{"c":"727368","o":"","e":""},"geometry":{"type":"Polygon","coordinates":[[[-88.01875,50.50417],[-88.01875,50.50833],[-88.0125,50.50833],[-88.0125,50.50417],[-88.01875,50.50417]]]}},{"type":"Feature","properties":{"c":"727369","o":"","e":""},"geometry":{"type":"Polygon","coordinates":[[[-88.0125,50.50417],[-88.0125,50.50833],[-88.00625,50.50833],[-88.00625,50.50417],[-88.0125,50.50417]]]}},{"type":"Feature","properties":{"c":"727370","o":"","e":""},"geometry":{"type":"Polygon","coordinates":[[[-88.00625,50.50417],[-88.00625,50.50833],[-88.0,50.50833],[-88.0,50.50417],[-88.00625,50.50417]]]}},{"type":"Feature","properties":{"c":"727371","o":"","e":""},"geometry":{"type":"Polygon","coordinates":[[[-88.0875,50.5],[-88.0875,50.50417],[-88.08125,50.50417],[-88.08125,50.5],[-88.0875,50.5]]]}},{"type":"Feature","properties":{"c":"727372","o":"","e":""},"geometry":{"type":"Polygon","coordinates":[[[-88.08125,50.5],[-88.08125,50.50417],[-88.075,50.50417],[-88.075,50.5],[-88.08125,50.5]]]}},{"type":"Feature","properties":{"c":"727373","o":"","e":""},"geometry":{"type":"Polygon","coordinates":[[[-88.075,50.5],[-88.075,50.50417],[-88.06875,50.50417],[-88.06875,50.5],[-88.075,50.5]]]}},{"type":"Feature","properties":{"c":"727374","o":"","e":""},"geometry":{"type":"Polygon","coordinates":[[[-88.06875,50.5],[-88.06875,50.50417],[-88.0625,50.50417],[-88.0625,50.5],[-88.06875,50.5]]]}},{"type":"Feature","properties":{"c":"727376","o":"","e":""},"geometry":{"type":"Polygon","coordinates":[[[-88.05625,50.5],[-88.05625,50.50417],[-88.05,50.50417],[-88.05,50.5],[-88.05625,50.5]]]}},{"type":"Feature","properties":{"c":"727375","o":"","e":""},"geometry":{"type":"Polygon","coordinates":[[[-88.0625,50.5],[-88.0625,50.50417],[-88.05625,50.50417],[-88.05625,50.5],[-88.0625,50.5]]]}},{"type":"Feature","properties":{"c":"754668","o":"","e":""},"geometry":{"type":"Polygon","coordinates":[[[-88.1625,50.50417],[-88.1625,50.50833],[-88.15625,50.50833],[-88.15625,50.5125],[-88.15,50.5125],[-88.14375,50.5125],[-88.1375,50.5125],[-88.13125,50.5125],[-88.125,50.5125],[-88.125,50.50833],[-88.125,50.50417],[-88.125,50.5],[-88.125,50.49583],[-88.13125,50.49583],[-88.13125,50.49167],[-88.1375,50.49167],[-88.14375,50.49167],[-88.14375,50.49583],[-88.15,50.49583],[-88.15625,50.49583],[-88.1625,50.49583],[-88.1625,50.5],[-88.1625,50.50417]]]}},{"type":"Feature","properties":{"c":"681145","o":"","e":""},"geometry":{"type":"Polygon","coordinates":[[[-88.46875,50.5],[-88.46875,50.50417],[-88.4625,50.50417],[-88.4625,50.5],[-88.46875,50.5]]]}},{"type":"Feature","properties":{"c":"681146","o":"","e":""},"geometry":{"type":"Polygon","coordinates":[[[-88.45625,50.5],[-88.45625,50.50417],[-88.45,50.50417],[-88.45,50.5],[-88.45625,50.5]]]}},{"type":"Feature","properties":{"c":"681147","o":"","e":""},"geometry":{"type":"Polygon","coordinates":[[[-88.44375,50.5],[-88.44375,50.50417],[-88.4375,50.50417],[-88.4375,50.5],[-88.44375,50.5]]]}},{"type":"Feature","properties":{"c":"681163","o":"","e":""},"geometry":{"type":"Polygon","coordinates":[[[-88.4625,50.5],[-88.4625,50.50417],[-88.45625,50.50417],[-88.45625,50.5],[-88.4625,50.5]]]}},{"type":"Feature","properties":{"c":"681164","o":"","e":""},"geometry":{"type":"Polygon","coordinates":[[[-88.45,50.5],[-88.45,50.50417],[-88.44375,50.50417],[-88.44375,50.5],[-88.45,50.5]]]}},{"type":"Feature","properties":{"c":"681209","o":"","e":""},"geometry":{"type":"Polygon","coordinates":[[[-88.5,50.5],[-88.5,50.50417],[-88.49375,50.50417],[-88.49375,50.5],[-88.5,50.5]]]}},{"type":"Feature","properties":{"c":"681210","o":"","e":""},"geometry":{"type":"Polygon","coordinates":[[[-88.49375,50.5],[-88.49375,50.50417],[-88.4875,50.50417],[-88.4875,50.5],[-88.49375,50.5]]]}},{"type":"Feature","properties":{"c":"681211","o":"","e":""},"geometry":{"type":"Polygon","coordinates":[[[-88.4875,50.5],[-88.4875,50.50417],[-88.48125,50.50417],[-88.48125,50.5],[-88.4875,50.5]]]}},{"type":"Feature","properties":{"c":"681212","o":"","e":""},"geometry":{"type":"Polygon","coordinates":[[[-88.48125,50.5],[-88.48125,50.50417],[-88.475,50.50417],[-88.475,50.5],[-88.48125,50.5]]]}},{"type":"Feature","properties":{"c":"681213","o":"","e":""},"geometry":{"type":"Polygon","coordinates":[[[-88.475,50.5],[-88.475,50.50417],[-88.46875,50.50417],[-88.46875,50.5],[-88.475,50.5]]]}}]}