{"type":"FeatureCollection","features":[{"type":"Feature","properties":{"c":"F70466","o":"North Country Gold Corp. (100%)","e":"2012-08-30"},"geometry":{"type":"Polygon","coordinates":[[[-88.73374,67.46036],[-88.72479,67.45986],[-88.71425,67.45984],[-88.70869,67.4598],[-88.69803,67.45932],[-88.69519,67.45921],[-88.69509,67.45382],[-88.69526,67.44947],[-88.69503,67.44507],[-88.69527,67.44093],[-88.694,67.43696],[-88.69394,67.43276],[-88.6943,67.42854],[-88.69203,67.42498],[-88.69279,67.42107],[-88.69427,67.41818],[-88.70507,67.41794],[-88.71428,67.41805],[-88.72542,67.41823],[-88.73558,67.41814],[-88.74603,67.41845],[-88.74607,67.42052],[-88.74621,67.42327],[-88.74567,67.42634],[-88.7454,67.42915],[-88.74732,67.43416],[-88.74724,67.4382],[-88.74703,67.44086],[-88.74706,67.44207],[-88.74655,67.44709],[-88.74639,67.45054],[-88.74668,67.45471],[-88.74694,67.45842],[-88.74694,67.45978],[-88.73374,67.46036]]]}},{"type":"Feature","properties":{"c":"F70465","o":"North Country Gold Corp. (100%)","e":"2012-08-30"},"geometry":{"type":"Polygon","coordinates":[[[-88.74615,67.4141],[-88.74658,67.40969],[-88.74614,67.40538],[-88.74615,67.401],[-88.74595,67.39713],[-88.74566,67.39304],[-88.74591,67.38882],[-88.74637,67.38738],[-88.74645,67.38108],[-88.7471,67.37789],[-88.75203,67.37786],[-88.76413,67.37768],[-88.77523,67.3776],[-88.77978,67.37756],[-88.78617,67.37744],[-88.79724,67.37743],[-88.80164,67.37701],[-88.80265,67.38176],[-88.80248,67.38577],[-88.80159,67.38837],[-88.80056,67.39098],[-88.79896,67.3952],[-88.7989,67.39912],[-88.79887,67.40319],[-88.79946,67.4072],[-88.8001,67.41098],[-88.79976,67.41519],[-88.80008,67.41845],[-88.79135,67.4183],[-88.78629,67.41845],[-88.77652,67.41825],[-88.76451,67.41851],[-88.75619,67.41863],[-88.74603,67.41845],[-88.74615,67.4141]]]}},{"type":"Feature","properties":{"c":"F70464","o":"North Country Gold Corp. (100%)","e":"2012-08-30"},"geometry":{"type":"Polygon","coordinates":[[[-88.82279,67.37717],[-88.81193,67.37701],[-88.80164,67.37701],[-88.80119,67.37231],[-88.80108,67.36866],[-88.80081,67.3643],[-88.8003,67.35954],[-88.8007,67.3563],[-88.80121,67.35218],[-88.8007,67.34866],[-88.80042,67.34376],[-88.80018,67.33886],[-88.7998,67.33584],[-88.81168,67.33599],[-88.82231,67.336],[-88.83083,67.33613],[-88.8433,67.33629],[-88.85645,67.33459],[-88.85648,67.33946],[-88.85654,67.34359],[-88.85635,67.34721],[-88.8562,67.35126],[-88.85626,67.35514],[-88.85616,67.3593],[-88.85629,67.36342],[-88.85695,67.36767],[-88.85578,67.37124],[-88.85625,67.37594],[-88.84538,67.37809],[-88.83575,67.37748],[-88.82279,67.37717]]]}},{"type":"Feature","properties":{"c":"F70463","o":"North Country Gold Corp. (100%)","e":"2012-08-30"},"geometry":{"type":"Polygon","coordinates":[[[-88.79976,67.41519],[-88.8001,67.41098],[-88.79946,67.4072],[-88.79887,67.40319],[-88.7989,67.39912],[-88.79896,67.3952],[-88.80056,67.39098],[-88.80159,67.38837],[-88.80248,67.38577],[-88.80265,67.38176],[-88.80164,67.37701],[-88.81193,67.37701],[-88.82279,67.37717],[-88.83575,67.37748],[-88.84538,67.37809],[-88.85625,67.37594],[-88.85648,67.38047],[-88.85802,67.38377],[-88.85785,67.38824],[-88.85714,67.3921],[-88.85641,67.39635],[-88.85647,67.40031],[-88.85715,67.40423],[-88.85783,67.40863],[-88.85887,67.41297],[-88.85515,67.41629],[-88.8535,67.41763],[-88.84095,67.41793],[-88.83005,67.41813],[-88.81993,67.41804],[-88.80684,67.41809],[-88.80008,67.41845],[-88.79976,67.41519]]]}},{"type":"Feature","properties":{"c":"F60365","o":"North Country Gold Corp. (100%)","e":"2027-07-20"},"geometry":{"type":"Polygon","coordinates":[[[-88.95136,67.32028],[-88.95535,67.36925],[-88.90342,67.36988],[-88.89782,67.3206],[-88.89863,67.3206],[-88.95048,67.32028],[-88.95136,67.32028]]]}},{"type":"Feature","properties":{"c":"F60379","o":"North Country Gold Corp. (100%)","e":"2027-07-20"},"geometry":{"type":"Polygon","coordinates":[[[-88.66434,67.42853],[-88.69543,67.4282],[-88.69657,67.45966],[-88.69831,67.45964],[-88.69835,67.46751],[-88.66212,67.46819],[-88.66434,67.42853]]]}},{"type":"Feature","properties":{"c":"F60367","o":"North Country Gold Corp. (100%)","e":"2027-07-20"},"geometry":{"type":"Polygon","coordinates":[[[-88.90347,67.36986],[-88.90737,67.41884],[-88.85533,67.41944],[-88.85331,67.40135],[-88.85264,67.3763],[-88.85051,67.37632],[-88.8505,67.37626],[-88.85282,67.37624],[-88.85239,67.37015],[-88.90347,67.36986]]]}},{"type":"Feature","properties":{"c":"F60368","o":"North Country Gold Corp. (100%)","e":"2027-07-20"},"geometry":{"type":"Polygon","coordinates":[[[-88.84518,67.32121],[-88.89872,67.32091],[-88.9026,67.36989],[-88.85241,67.37047],[-88.84993,67.3356],[-88.84678,67.33565],[-88.84518,67.32121]]]}},{"type":"Feature","properties":{"c":"101971","o":"North Country Gold Corp. (100%)","e":"2035-07-17"},"geometry":{"type":"Polygon","coordinates":[[[-88.74979,67.38383],[-88.74979,67.388],[-88.74979,67.39217],[-88.74979,67.39633],[-88.74198,67.39634],[-88.73416,67.39634],[-88.72635,67.39635],[-88.71854,67.39635],[-88.71072,67.39636],[-88.70291,67.39636],[-88.6951,67.39637],[-88.68728,67.39637],[-88.67947,67.39637],[-88.67166,67.39637],[-88.66384,67.39638],[-88.66384,67.39221],[-88.66384,67.38804],[-88.66384,67.38388],[-88.66384,67.37971],[-88.66384,67.37554],[-88.67166,67.37554],[-88.67947,67.37554],[-88.68728,67.37553],[-88.6951,67.37553],[-88.70291,67.37553],[-88.71072,67.37552],[-88.71854,67.37552],[-88.72635,67.37551],[-88.73416,67.37551],[-88.74198,67.3755],[-88.74198,67.37967],[-88.74979,67.37967],[-88.74979,67.38383]]]}},{"type":"Feature","properties":{"c":"101968","o":"North Country Gold Corp. (100%)","e":"2035-07-17"},"geometry":{"type":"Polygon","coordinates":[[[-88.74979,67.39633],[-88.74979,67.4005],[-88.74979,67.40467],[-88.74979,67.40883],[-88.74979,67.413],[-88.74979,67.41717],[-88.74979,67.42133],[-88.74198,67.42134],[-88.73416,67.42134],[-88.72635,67.42135],[-88.71854,67.42135],[-88.71072,67.42136],[-88.70291,67.42136],[-88.6951,67.42137],[-88.6951,67.42553],[-88.6951,67.4297],[-88.68728,67.4297],[-88.67947,67.42971],[-88.67166,67.42971],[-88.66384,67.42971],[-88.66384,67.42554],[-88.66384,67.42138],[-88.66384,67.41721],[-88.66384,67.41304],[-88.66384,67.40888],[-88.66384,67.40471],[-88.66384,67.40054],[-88.66384,67.39638],[-88.67166,67.39637],[-88.67947,67.39637],[-88.68728,67.39637],[-88.6951,67.39637],[-88.70291,67.39636],[-88.71072,67.39636],[-88.71854,67.39635],[-88.72635,67.39635],[-88.73416,67.39634],[-88.74198,67.39634],[-88.74979,67.39633]]]}},{"type":"Feature","properties":{"c":"101969","o":"North Country Gold Corp. (100%)","e":"2035-07-17"},"geometry":{"type":"Polygon","coordinates":[[[-88.74979,67.46717],[-88.74198,67.46717],[-88.74198,67.46301],[-88.74198,67.45884],[-88.74198,67.45467],[-88.74198,67.45051],[-88.74198,67.44634],[-88.74198,67.44217],[-88.74198,67.43801],[-88.74198,67.43384],[-88.74198,67.42967],[-88.74198,67.42551],[-88.74198,67.42134],[-88.74979,67.42133],[-88.74979,67.41717],[-88.7576,67.41717],[-88.76541,67.41718],[-88.77323,67.41718],[-88.78104,67.41719],[-88.78885,67.41719],[-88.79667,67.4172],[-88.80448,67.4172],[-88.80448,67.42137],[-88.80448,67.42553],[-88.80448,67.4297],[-88.80448,67.43387],[-88.80448,67.43803],[-88.80448,67.4422],[-88.80448,67.44637],[-88.80448,67.45053],[-88.80448,67.4547],[-88.80448,67.45887],[-88.80448,67.46303],[-88.80448,67.4672],[-88.79667,67.4672],[-88.78885,67.46719],[-88.78104,67.46719],[-88.77323,67.46718],[-88.76542,67.46718],[-88.7576,67.46717],[-88.74979,67.46717]]]}},{"type":"Feature","properties":{"c":"101563","o":"North Country Gold Corp. (100%)","e":"2030-07-17"},"geometry":{"type":"Polygon","coordinates":[[[-89.04668,67.30053],[-89.03887,67.30052],[-89.03106,67.30052],[-89.02324,67.30052],[-89.01543,67.30051],[-89.00762,67.3005],[-88.99981,67.3005],[-88.99199,67.3005],[-88.98418,67.30051],[-88.97637,67.30051],[-88.96855,67.30052],[-88.96074,67.30052],[-88.95293,67.30053],[-88.94511,67.30053],[-88.9373,67.30053],[-88.92949,67.30054],[-88.92949,67.29637],[-88.92949,67.2922],[-88.92949,67.28804],[-88.92949,67.28387],[-88.92949,67.2797],[-88.92949,67.27554],[-88.9373,67.27553],[-88.94511,67.27553],[-88.95293,67.27553],[-88.96074,67.27552],[-88.96855,67.27552],[-88.97637,67.27551],[-88.98418,67.27551],[-88.99199,67.2755],[-88.99981,67.2755],[-89.00762,67.2755],[-89.01543,67.27551],[-89.02324,67.27551],[-89.03106,67.27552],[-89.03887,67.27552],[-89.04668,67.27553],[-89.0545,67.27553],[-89.0545,67.2797],[-89.0545,67.28387],[-89.0545,67.28803],[-89.0545,67.2922],[-89.0545,67.29637],[-89.0545,67.30053],[-89.04668,67.30053]]]}},{"type":"Feature","properties":{"c":"100776","o":"North Country Gold Corp. (100%)","e":"2031-06-02"},"geometry":{"type":"Polygon","coordinates":[[[-88.92949,67.32137],[-88.92949,67.3172],[-88.92949,67.31304],[-88.92949,67.30887],[-88.92949,67.3047],[-88.92949,67.30054],[-88.9373,67.30053],[-88.94511,67.30053],[-88.95293,67.30053],[-88.96074,67.30052],[-88.96855,67.30052],[-88.97637,67.30051],[-88.98418,67.30051],[-88.99199,67.3005],[-88.99981,67.3005],[-89.00762,67.3005],[-89.01543,67.30051],[-89.02324,67.30052],[-89.03106,67.30052],[-89.03887,67.30052],[-89.04668,67.30053],[-89.0545,67.30053],[-89.0545,67.3047],[-89.0545,67.30887],[-89.0545,67.31303],[-89.0545,67.3172],[-89.0545,67.32137],[-89.0545,67.32553],[-89.04668,67.32553],[-89.03887,67.32552],[-89.03106,67.32552],[-89.02325,67.32552],[-89.01543,67.32551],[-89.00762,67.3255],[-88.99981,67.3255],[-88.99199,67.3255],[-88.98418,67.32551],[-88.97637,67.32552],[-88.96855,67.32552],[-88.96074,67.32552],[-88.95293,67.32553],[-88.94511,67.32553],[-88.9373,67.32553],[-88.92949,67.32554],[-88.92949,67.32137]]]}},{"type":"Feature","properties":{"c":"100775","o":"North Country Gold Corp. (100%)","e":"2029-06-02"},"geometry":{"type":"Polygon","coordinates":[[[-89.0545,67.32553],[-89.0545,67.3297],[-89.0545,67.33387],[-89.0545,67.33803],[-89.0545,67.3422],[-89.0545,67.34637],[-89.0545,67.35053],[-89.04668,67.35053],[-89.03887,67.35053],[-89.03106,67.35052],[-89.02325,67.35052],[-89.01543,67.35051],[-89.00762,67.35051],[-88.99981,67.3505],[-88.99199,67.35051],[-88.98418,67.35051],[-88.97637,67.35052],[-88.96855,67.35052],[-88.96074,67.35052],[-88.96074,67.34636],[-88.96074,67.34219],[-88.96074,67.33802],[-88.96074,67.33386],[-88.95293,67.33386],[-88.94511,67.33387],[-88.9373,67.33387],[-88.92949,67.33387],[-88.92949,67.3297],[-88.92949,67.32554],[-88.9373,67.32553],[-88.94511,67.32553],[-88.95293,67.32553],[-88.96074,67.32552],[-88.96855,67.32552],[-88.97637,67.32552],[-88.98418,67.32551],[-88.99199,67.3255],[-88.99981,67.3255],[-89.00762,67.3255],[-89.01543,67.32551],[-89.02325,67.32552],[-89.03106,67.32552],[-89.03887,67.32552],[-89.04668,67.32553],[-89.0545,67.32553]]]}},{"type":"Feature","properties":{"c":"100774","o":"North Country Gold Corp. (100%)","e":"2029-06-02"},"geometry":{"type":"Polygon","coordinates":[[[-89.04668,67.37136],[-89.03887,67.37136],[-89.03106,67.37135],[-89.02325,67.37135],[-89.01543,67.37135],[-89.00762,67.37134],[-88.99981,67.37133],[-88.99199,67.37134],[-88.98418,67.37134],[-88.97637,67.37135],[-88.96855,67.37135],[-88.96074,67.37136],[-88.96074,67.36719],[-88.96074,67.36303],[-88.96074,67.35886],[-88.96074,67.35469],[-88.96074,67.35052],[-88.96855,67.35052],[-88.97637,67.35052],[-88.98418,67.35051],[-88.99199,67.35051],[-88.99981,67.3505],[-89.00762,67.35051],[-89.01543,67.35051],[-89.02325,67.35052],[-89.03106,67.35052],[-89.03887,67.35053],[-89.04668,67.35053],[-89.0545,67.35053],[-89.0545,67.3547],[-89.0545,67.35887],[-89.0545,67.36303],[-89.0545,67.3672],[-89.0545,67.37137],[-89.04668,67.37136]]]}},{"type":"Feature","properties":{"c":"101956","o":"North Country Gold Corp. (100%)","e":"2036-07-17"},"geometry":{"type":"Polygon","coordinates":[[[-88.74979,67.37967],[-88.74198,67.37967],[-88.74198,67.3755],[-88.74198,67.37134],[-88.74198,67.36717],[-88.74198,67.363],[-88.74198,67.35884],[-88.74197,67.35467],[-88.74197,67.3505],[-88.74197,67.34634],[-88.74197,67.34217],[-88.74197,67.338],[-88.74197,67.33384],[-88.74197,67.32967],[-88.74979,67.32966],[-88.7576,67.32967],[-88.76541,67.32968],[-88.77323,67.32968],[-88.78104,67.32969],[-88.78885,67.32969],[-88.79667,67.32969],[-88.80448,67.3297],[-88.80448,67.33386],[-88.80448,67.33803],[-88.80448,67.3422],[-88.80448,67.34636],[-88.80448,67.35053],[-88.80448,67.3547],[-88.80448,67.35886],[-88.80448,67.36303],[-88.80448,67.3672],[-88.80448,67.37137],[-88.80448,67.37553],[-88.80448,67.3797],[-88.79667,67.3797],[-88.78885,67.37969],[-88.78104,67.37969],[-88.77323,67.37968],[-88.76541,67.37968],[-88.7576,67.37967],[-88.74979,67.37967]]]}},{"type":"Feature","properties":{"c":"101957","o":"North Country Gold Corp. (100%)","e":"2027-07-17"},"geometry":{"type":"Polygon","coordinates":[[[-88.74197,67.33384],[-88.74197,67.338],[-88.74197,67.34217],[-88.74197,67.34634],[-88.74197,67.3505],[-88.74197,67.35467],[-88.73416,67.35468],[-88.72635,67.35468],[-88.71854,67.35469],[-88.71072,67.35469],[-88.70291,67.35469],[-88.6951,67.3547],[-88.68728,67.3547],[-88.67947,67.3547],[-88.67166,67.35471],[-88.66384,67.35471],[-88.66384,67.35054],[-88.66384,67.34637],[-88.66384,67.34221],[-88.66384,67.33804],[-88.66384,67.33387],[-88.66384,67.32971],[-88.67166,67.3297],[-88.67947,67.3297],[-88.68728,67.3297],[-88.6951,67.3297],[-88.70291,67.32969],[-88.71072,67.32969],[-88.71854,67.32968],[-88.72635,67.32968],[-88.73416,67.32967],[-88.74197,67.32967],[-88.74197,67.33384]]]}},{"type":"Feature","properties":{"c":"101970","o":"North Country Gold Corp. (100%)","e":"2029-07-17"},"geometry":{"type":"Polygon","coordinates":[[[-88.74198,67.35884],[-88.74198,67.363],[-88.74198,67.36717],[-88.74198,67.37134],[-88.74198,67.3755],[-88.73416,67.37551],[-88.72635,67.37551],[-88.71854,67.37552],[-88.71072,67.37552],[-88.70291,67.37553],[-88.6951,67.37553],[-88.68728,67.37553],[-88.67947,67.37554],[-88.67166,67.37554],[-88.66384,67.37554],[-88.66384,67.37137],[-88.66384,67.36721],[-88.66384,67.36304],[-88.66384,67.35887],[-88.66384,67.35471],[-88.67166,67.35471],[-88.67947,67.3547],[-88.68728,67.3547],[-88.6951,67.3547],[-88.70291,67.35469],[-88.71072,67.35469],[-88.71854,67.35469],[-88.72635,67.35468],[-88.73416,67.35468],[-88.74197,67.35467],[-88.74198,67.35884]]]}}]}