{"type":"FeatureCollection","features":[{"type":"Feature","properties":{"c":"778286","o":"","e":""},"geometry":{"type":"Polygon","coordinates":[[[-89.50625,48.08333],[-89.50625,48.0875],[-89.5,48.0875],[-89.5,48.08333],[-89.50625,48.08333]]]}},{"type":"Feature","properties":{"c":"778293","o":"","e":""},"geometry":{"type":"Polygon","coordinates":[[[-89.50625,48.09167],[-89.50625,48.09583],[-89.5,48.09583],[-89.5,48.09167],[-89.50625,48.09167]]]}},{"type":"Feature","properties":{"c":"778277","o":"","e":""},"geometry":{"type":"Polygon","coordinates":[[[-89.50625,48.0875],[-89.50625,48.09167],[-89.5,48.09167],[-89.5,48.0875],[-89.50625,48.0875]]]}},{"type":"Feature","properties":{"c":"778278","o":"","e":""},"geometry":{"type":"Polygon","coordinates":[[[-89.50625,48.07917],[-89.50625,48.08333],[-89.5,48.08333],[-89.5,48.07917],[-89.50625,48.07917]]]}},{"type":"Feature","properties":{"c":"778263","o":"","e":""},"geometry":{"type":"Polygon","coordinates":[[[-89.50625,48.05833],[-89.50625,48.0625],[-89.5,48.0625],[-89.5,48.05833],[-89.50625,48.05833]]]}},{"type":"Feature","properties":{"c":"778264","o":"","e":""},"geometry":{"type":"Polygon","coordinates":[[[-89.50625,48.05417],[-89.50625,48.05833],[-89.5,48.05833],[-89.5,48.05417],[-89.50625,48.05417]]]}},{"type":"Feature","properties":{"c":"1067595","o":"","e":""},"geometry":{"type":"Polygon","coordinates":[[[-89.49375,48.32917],[-89.49375,48.33333],[-89.4875,48.33333],[-89.4875,48.32917],[-89.49375,48.32917]]]}},{"type":"Feature","properties":{"c":"1067596","o":"","e":""},"geometry":{"type":"Polygon","coordinates":[[[-89.4875,48.32917],[-89.4875,48.33333],[-89.48125,48.33333],[-89.48125,48.32917],[-89.4875,48.32917]]]}},{"type":"Feature","properties":{"c":"1016186","o":"","e":""},"geometry":{"type":"Polygon","coordinates":[[[-89.0875,48.49167],[-89.0875,48.49583],[-89.08125,48.49583],[-89.08125,48.49167],[-89.0875,48.49167]]]}},{"type":"Feature","properties":{"c":"1016180","o":"","e":""},"geometry":{"type":"Polygon","coordinates":[[[-89.125,48.49167],[-89.125,48.49583],[-89.11875,48.49583],[-89.11875,48.49167],[-89.125,48.49167]]]}},{"type":"Feature","properties":{"c":"1016181","o":"","e":""},"geometry":{"type":"Polygon","coordinates":[[[-89.11875,48.49167],[-89.11875,48.49583],[-89.1125,48.49583],[-89.1125,48.49167],[-89.11875,48.49167]]]}},{"type":"Feature","properties":{"c":"1016182","o":"","e":""},"geometry":{"type":"Polygon","coordinates":[[[-89.1125,48.49167],[-89.1125,48.49583],[-89.10625,48.49583],[-89.10625,48.49167],[-89.1125,48.49167]]]}},{"type":"Feature","properties":{"c":"1016183","o":"","e":""},"geometry":{"type":"Polygon","coordinates":[[[-89.10625,48.49167],[-89.10625,48.49583],[-89.1,48.49583],[-89.1,48.49167],[-89.10625,48.49167]]]}},{"type":"Feature","properties":{"c":"1016184","o":"","e":""},"geometry":{"type":"Polygon","coordinates":[[[-89.1,48.49167],[-89.1,48.49583],[-89.09375,48.49583],[-89.09375,48.49167],[-89.1,48.49167]]]}},{"type":"Feature","properties":{"c":"1016185","o":"","e":""},"geometry":{"type":"Polygon","coordinates":[[[-89.09375,48.49167],[-89.09375,48.49583],[-89.0875,48.49583],[-89.0875,48.49167],[-89.09375,48.49167]]]}},{"type":"Feature","properties":{"c":"1026388","o":"","e":""},"geometry":{"type":"Polygon","coordinates":[[[-89.15,48.47917],[-89.15,48.48333],[-89.14375,48.48333],[-89.14375,48.47917],[-89.15,48.47917]]]}},{"type":"Feature","properties":{"c":"1033166","o":"","e":""},"geometry":{"type":"Polygon","coordinates":[[[-89.0625,48.49583],[-89.0625,48.5],[-89.05625,48.5],[-89.05625,48.49583],[-89.0625,48.49583]]]}},{"type":"Feature","properties":{"c":"1033167","o":"","e":""},"geometry":{"type":"Polygon","coordinates":[[[-89.05625,48.49583],[-89.05625,48.5],[-89.05,48.5],[-89.05,48.49583],[-89.05625,48.49583]]]}},{"type":"Feature","properties":{"c":"1033168","o":"","e":""},"geometry":{"type":"Polygon","coordinates":[[[-89.075,48.49167],[-89.075,48.49583],[-89.06875,48.49583],[-89.06875,48.49167],[-89.075,48.49167]]]}},{"type":"Feature","properties":{"c":"1033169","o":"","e":""},"geometry":{"type":"Polygon","coordinates":[[[-89.06875,48.49167],[-89.06875,48.49583],[-89.0625,48.49583],[-89.0625,48.49167],[-89.06875,48.49167]]]}},{"type":"Feature","properties":{"c":"1033170","o":"","e":""},"geometry":{"type":"Polygon","coordinates":[[[-89.0625,48.49167],[-89.0625,48.49583],[-89.05625,48.49583],[-89.05625,48.49167],[-89.0625,48.49167]]]}},{"type":"Feature","properties":{"c":"1033171","o":"","e":""},"geometry":{"type":"Polygon","coordinates":[[[-89.08125,48.49167],[-89.08125,48.49583],[-89.075,48.49583],[-89.075,48.49167],[-89.08125,48.49167]]]}},{"type":"Feature","properties":{"c":"940409","o":"","e":""},"geometry":{"type":"Polygon","coordinates":[[[-89.225,48.425],[-89.225,48.42917],[-89.21875,48.42917],[-89.21875,48.425],[-89.225,48.425]]]}},{"type":"Feature","properties":{"c":"940487","o":"","e":""},"geometry":{"type":"Polygon","coordinates":[[[-89.21875,48.42917],[-89.21875,48.43333],[-89.2125,48.43333],[-89.2125,48.42917],[-89.21875,48.42917]]]}},{"type":"Feature","properties":{"c":"771396","o":"","e":""},"geometry":{"type":"Polygon","coordinates":[[[-89.15,48.49583],[-89.15,48.5],[-89.14375,48.5],[-89.14375,48.49583],[-89.15,48.49583]]]}},{"type":"Feature","properties":{"c":"1026386","o":"","e":""},"geometry":{"type":"Polygon","coordinates":[[[-89.15625,48.47917],[-89.15625,48.48333],[-89.15,48.48333],[-89.15,48.47917],[-89.15625,48.47917]]]}},{"type":"Feature","properties":{"c":"1026387","o":"","e":""},"geometry":{"type":"Polygon","coordinates":[[[-89.15,48.475],[-89.15,48.47917],[-89.14375,48.47917],[-89.14375,48.475],[-89.15,48.475]]]}},{"type":"Feature","properties":{"c":"1026385","o":"","e":""},"geometry":{"type":"Polygon","coordinates":[[[-89.15625,48.475],[-89.15625,48.47917],[-89.15,48.47917],[-89.15,48.475],[-89.15625,48.475]]]}},{"type":"Feature","properties":{"c":"945414","o":"","e":""},"geometry":{"type":"Polygon","coordinates":[[[-89.1625,48.49583],[-89.1625,48.5],[-89.15625,48.5],[-89.15625,48.49583],[-89.1625,48.49583]]]}},{"type":"Feature","properties":{"c":"778280","o":"","e":""},"geometry":{"type":"Polygon","coordinates":[[[-89.5,48.07917],[-89.5,48.08333],[-89.49375,48.08333],[-89.49375,48.07917],[-89.5,48.07917]]]}},{"type":"Feature","properties":{"c":"778285","o":"","e":""},"geometry":{"type":"Polygon","coordinates":[[[-89.4875,48.07917],[-89.4875,48.08333],[-89.48125,48.08333],[-89.48125,48.07917],[-89.4875,48.07917]]]}},{"type":"Feature","properties":{"c":"778294","o":"","e":""},"geometry":{"type":"Polygon","coordinates":[[[-89.4875,48.08333],[-89.4875,48.0875],[-89.48125,48.0875],[-89.48125,48.08333],[-89.4875,48.08333]]]}},{"type":"Feature","properties":{"c":"778297","o":"","e":""},"geometry":{"type":"Polygon","coordinates":[[[-89.49375,48.0875],[-89.49375,48.09167],[-89.4875,48.09167],[-89.4875,48.0875],[-89.49375,48.0875]]]}},{"type":"Feature","properties":{"c":"778298","o":"","e":""},"geometry":{"type":"Polygon","coordinates":[[[-89.48125,48.0875],[-89.48125,48.09167],[-89.475,48.09167],[-89.475,48.0875],[-89.48125,48.0875]]]}},{"type":"Feature","properties":{"c":"778299","o":"","e":""},"geometry":{"type":"Polygon","coordinates":[[[-89.4875,48.0875],[-89.4875,48.09167],[-89.48125,48.09167],[-89.48125,48.0875],[-89.4875,48.0875]]]}},{"type":"Feature","properties":{"c":"778301","o":"","e":""},"geometry":{"type":"Polygon","coordinates":[[[-89.49375,48.08333],[-89.49375,48.0875],[-89.4875,48.0875],[-89.4875,48.08333],[-89.49375,48.08333]]]}},{"type":"Feature","properties":{"c":"778302","o":"","e":""},"geometry":{"type":"Polygon","coordinates":[[[-89.48125,48.08333],[-89.48125,48.0875],[-89.475,48.0875],[-89.475,48.08333],[-89.48125,48.08333]]]}},{"type":"Feature","properties":{"c":"778304","o":"","e":""},"geometry":{"type":"Polygon","coordinates":[[[-89.475,48.0875],[-89.475,48.09167],[-89.46875,48.09167],[-89.46875,48.0875],[-89.475,48.0875]]]}},{"type":"Feature","properties":{"c":"778306","o":"","e":""},"geometry":{"type":"Polygon","coordinates":[[[-89.475,48.08333],[-89.475,48.0875],[-89.46875,48.0875],[-89.46875,48.08333],[-89.475,48.08333]]]}},{"type":"Feature","properties":{"c":"778307","o":"","e":""},"geometry":{"type":"Polygon","coordinates":[[[-89.4625,48.07917],[-89.4625,48.08333],[-89.45625,48.08333],[-89.45625,48.07917],[-89.4625,48.07917]]]}},{"type":"Feature","properties":{"c":"778308","o":"","e":""},"geometry":{"type":"Polygon","coordinates":[[[-89.45625,48.07917],[-89.45625,48.08333],[-89.45,48.08333],[-89.45,48.07917],[-89.45625,48.07917]]]}},{"type":"Feature","properties":{"c":"778309","o":"","e":""},"geometry":{"type":"Polygon","coordinates":[[[-89.45625,48.08333],[-89.45625,48.0875],[-89.45,48.0875],[-89.45,48.08333],[-89.45625,48.08333]]]}},{"type":"Feature","properties":{"c":"778310","o":"","e":""},"geometry":{"type":"Polygon","coordinates":[[[-89.46875,48.08333],[-89.46875,48.0875],[-89.4625,48.0875],[-89.4625,48.08333],[-89.46875,48.08333]]]}},{"type":"Feature","properties":{"c":"778267","o":"","e":""},"geometry":{"type":"Polygon","coordinates":[[[-89.48125,48.075],[-89.48125,48.07917],[-89.475,48.07917],[-89.475,48.075],[-89.48125,48.075]]]}},{"type":"Feature","properties":{"c":"778268","o":"","e":""},"geometry":{"type":"Polygon","coordinates":[[[-89.475,48.07917],[-89.475,48.08333],[-89.46875,48.08333],[-89.46875,48.07917],[-89.475,48.07917]]]}},{"type":"Feature","properties":{"c":"778270","o":"","e":""},"geometry":{"type":"Polygon","coordinates":[[[-89.46875,48.07917],[-89.46875,48.08333],[-89.4625,48.08333],[-89.4625,48.07917],[-89.46875,48.07917]]]}},{"type":"Feature","properties":{"c":"778272","o":"","e":""},"geometry":{"type":"Polygon","coordinates":[[[-89.49375,48.075],[-89.49375,48.07917],[-89.4875,48.07917],[-89.4875,48.075],[-89.49375,48.075]]]}},{"type":"Feature","properties":{"c":"778273","o":"","e":""},"geometry":{"type":"Polygon","coordinates":[[[-89.46875,48.075],[-89.46875,48.07917],[-89.4625,48.07917],[-89.4625,48.075],[-89.46875,48.075]]]}},{"type":"Feature","properties":{"c":"778274","o":"","e":""},"geometry":{"type":"Polygon","coordinates":[[[-89.4875,48.075],[-89.4875,48.07917],[-89.48125,48.07917],[-89.48125,48.075],[-89.4875,48.075]]]}},{"type":"Feature","properties":{"c":"778275","o":"","e":""},"geometry":{"type":"Polygon","coordinates":[[[-89.475,48.075],[-89.475,48.07917],[-89.46875,48.07917],[-89.46875,48.075],[-89.475,48.075]]]}},{"type":"Feature","properties":{"c":"778276","o":"","e":""},"geometry":{"type":"Polygon","coordinates":[[[-89.49375,48.07917],[-89.49375,48.08333],[-89.4875,48.08333],[-89.4875,48.07917],[-89.49375,48.07917]]]}},{"type":"Feature","properties":{"c":"779646","o":"","e":""},"geometry":{"type":"Polygon","coordinates":[[[-89.45,48.08333],[-89.45,48.0875],[-89.44375,48.0875],[-89.44375,48.08333],[-89.45,48.08333]]]}},{"type":"Feature","properties":{"c":"779647","o":"","e":""},"geometry":{"type":"Polygon","coordinates":[[[-89.44375,48.08333],[-89.44375,48.0875],[-89.4375,48.0875],[-89.4375,48.08333],[-89.44375,48.08333]]]}},{"type":"Feature","properties":{"c":"779649","o":"","e":""},"geometry":{"type":"Polygon","coordinates":[[[-89.4375,48.07917],[-89.4375,48.08333],[-89.43125,48.08333],[-89.43125,48.07917],[-89.4375,48.07917]]]}},{"type":"Feature","properties":{"c":"778244","o":"","e":""},"geometry":{"type":"Polygon","coordinates":[[[-89.48125,48.05833],[-89.48125,48.0625],[-89.475,48.0625],[-89.475,48.05833],[-89.48125,48.05833]]]}},{"type":"Feature","properties":{"c":"778246","o":"","e":""},"geometry":{"type":"Polygon","coordinates":[[[-89.5,48.05417],[-89.5,48.05833],[-89.49375,48.05833],[-89.49375,48.05417],[-89.5,48.05417]]]}},{"type":"Feature","properties":{"c":"778219","o":"","e":""},"geometry":{"type":"Polygon","coordinates":[[[-89.4625,48.075],[-89.4625,48.07917],[-89.45625,48.07917],[-89.45625,48.075],[-89.4625,48.075]]]}},{"type":"Feature","properties":{"c":"778220","o":"","e":""},"geometry":{"type":"Polygon","coordinates":[[[-89.45625,48.075],[-89.45625,48.07917],[-89.45,48.07917],[-89.45,48.075],[-89.45625,48.075]]]}},{"type":"Feature","properties":{"c":"778222","o":"","e":""},"geometry":{"type":"Polygon","coordinates":[[[-89.49375,48.07083],[-89.49375,48.075],[-89.4875,48.075],[-89.4875,48.07083],[-89.49375,48.07083]]]}},{"type":"Feature","properties":{"c":"778223","o":"","e":""},"geometry":{"type":"Polygon","coordinates":[[[-89.4875,48.07083],[-89.4875,48.075],[-89.48125,48.075],[-89.48125,48.07083],[-89.4875,48.07083]]]}},{"type":"Feature","properties":{"c":"778224","o":"","e":""},"geometry":{"type":"Polygon","coordinates":[[[-89.48125,48.07083],[-89.48125,48.075],[-89.475,48.075],[-89.475,48.07083],[-89.48125,48.07083]]]}},{"type":"Feature","properties":{"c":"778225","o":"","e":""},"geometry":{"type":"Polygon","coordinates":[[[-89.475,48.07083],[-89.475,48.075],[-89.46875,48.075],[-89.46875,48.07083],[-89.475,48.07083]]]}},{"type":"Feature","properties":{"c":"778226","o":"","e":""},"geometry":{"type":"Polygon","coordinates":[[[-89.46875,48.07083],[-89.46875,48.075],[-89.4625,48.075],[-89.4625,48.07083],[-89.46875,48.07083]]]}},{"type":"Feature","properties":{"c":"778230","o":"","e":""},"geometry":{"type":"Polygon","coordinates":[[[-89.49375,48.06667],[-89.49375,48.07083],[-89.4875,48.07083],[-89.4875,48.06667],[-89.49375,48.06667]]]}},{"type":"Feature","properties":{"c":"778231","o":"","e":""},"geometry":{"type":"Polygon","coordinates":[[[-89.4875,48.06667],[-89.4875,48.07083],[-89.48125,48.07083],[-89.48125,48.06667],[-89.4875,48.06667]]]}},{"type":"Feature","properties":{"c":"778237","o":"","e":""},"geometry":{"type":"Polygon","coordinates":[[[-89.49375,48.0625],[-89.49375,48.06667],[-89.4875,48.06667],[-89.4875,48.0625],[-89.49375,48.0625]]]}},{"type":"Feature","properties":{"c":"778238","o":"","e":""},"geometry":{"type":"Polygon","coordinates":[[[-89.4875,48.0625],[-89.4875,48.06667],[-89.48125,48.06667],[-89.48125,48.0625],[-89.4875,48.0625]]]}},{"type":"Feature","properties":{"c":"778239","o":"","e":""},"geometry":{"type":"Polygon","coordinates":[[[-89.48125,48.0625],[-89.48125,48.06667],[-89.475,48.06667],[-89.475,48.0625],[-89.48125,48.0625]]]}},{"type":"Feature","properties":{"c":"778240","o":"","e":""},"geometry":{"type":"Polygon","coordinates":[[[-89.475,48.0625],[-89.475,48.06667],[-89.46875,48.06667],[-89.46875,48.0625],[-89.475,48.0625]]]}},{"type":"Feature","properties":{"c":"778241","o":"","e":""},"geometry":{"type":"Polygon","coordinates":[[[-89.5,48.05833],[-89.5,48.0625],[-89.49375,48.0625],[-89.49375,48.05833],[-89.5,48.05833]]]}},{"type":"Feature","properties":{"c":"778242","o":"","e":""},"geometry":{"type":"Polygon","coordinates":[[[-89.49375,48.05833],[-89.49375,48.0625],[-89.4875,48.0625],[-89.4875,48.05833],[-89.49375,48.05833]]]}},{"type":"Feature","properties":{"c":"778243","o":"","e":""},"geometry":{"type":"Polygon","coordinates":[[[-89.4875,48.05833],[-89.4875,48.0625],[-89.48125,48.0625],[-89.48125,48.05833],[-89.4875,48.05833]]]}},{"type":"Feature","properties":{"c":"919223","o":"","e":""},"geometry":{"type":"Polygon","coordinates":[[[-89.15,48.49167],[-89.15,48.49583],[-89.14375,48.49583],[-89.14375,48.49167],[-89.15,48.49167]]]}},{"type":"Feature","properties":{"c":"920457","o":"","e":""},"geometry":{"type":"Polygon","coordinates":[[[-89.48125,48.07917],[-89.48125,48.08333],[-89.475,48.08333],[-89.475,48.07917],[-89.48125,48.07917]]]}},{"type":"Feature","properties":{"c":"778320","o":"","e":""},"geometry":{"type":"Polygon","coordinates":[[[-89.45,48.075],[-89.45,48.07917],[-89.44375,48.07917],[-89.44375,48.075],[-89.45,48.075]]]}},{"type":"Feature","properties":{"c":"778321","o":"","e":""},"geometry":{"type":"Polygon","coordinates":[[[-89.44375,48.075],[-89.44375,48.07917],[-89.4375,48.07917],[-89.4375,48.075],[-89.44375,48.075]]]}},{"type":"Feature","properties":{"c":"778322","o":"","e":""},"geometry":{"type":"Polygon","coordinates":[[[-89.4375,48.075],[-89.4375,48.07917],[-89.43125,48.07917],[-89.43125,48.075],[-89.4375,48.075]]]}},{"type":"Feature","properties":{"c":"945416","o":"","e":""},"geometry":{"type":"Polygon","coordinates":[[[-89.15625,48.49583],[-89.15625,48.5],[-89.15,48.5],[-89.15,48.49583],[-89.15625,48.49583]]]}},{"type":"Feature","properties":{"c":"1026186","o":"","e":""},"geometry":{"type":"Polygon","coordinates":[[[-89.14375,48.49583],[-89.14375,48.5],[-89.1375,48.5],[-89.1375,48.49583],[-89.14375,48.49583]]]}},{"type":"Feature","properties":{"c":"945460","o":"","e":""},"geometry":{"type":"Polygon","coordinates":[[[-89.1,48.49583],[-89.1,48.5],[-89.09375,48.5],[-89.09375,48.49583],[-89.1,48.49583]]]}},{"type":"Feature","properties":{"c":"945475","o":"","e":""},"geometry":{"type":"Polygon","coordinates":[[[-89.0875,48.49583],[-89.0875,48.5],[-89.08125,48.5],[-89.08125,48.49583],[-89.0875,48.49583]]]}},{"type":"Feature","properties":{"c":"945480","o":"","e":""},"geometry":{"type":"Polygon","coordinates":[[[-89.10625,48.49583],[-89.10625,48.5],[-89.1,48.5],[-89.1,48.49583],[-89.10625,48.49583]]]}},{"type":"Feature","properties":{"c":"945481","o":"","e":""},"geometry":{"type":"Polygon","coordinates":[[[-89.09375,48.49583],[-89.09375,48.5],[-89.0875,48.5],[-89.0875,48.49583],[-89.09375,48.49583]]]}},{"type":"Feature","properties":{"c":"976102","o":"","e":""},"geometry":{"type":"Polygon","coordinates":[[[-89.13125,48.49583],[-89.13125,48.5],[-89.125,48.5],[-89.125,48.49583],[-89.13125,48.49583]]]}},{"type":"Feature","properties":{"c":"976103","o":"","e":""},"geometry":{"type":"Polygon","coordinates":[[[-89.125,48.49583],[-89.125,48.5],[-89.11875,48.5],[-89.11875,48.49583],[-89.125,48.49583]]]}},{"type":"Feature","properties":{"c":"976104","o":"","e":""},"geometry":{"type":"Polygon","coordinates":[[[-89.1125,48.49583],[-89.1125,48.5],[-89.10625,48.5],[-89.10625,48.49583],[-89.1125,48.49583]]]}},{"type":"Feature","properties":{"c":"976105","o":"","e":""},"geometry":{"type":"Polygon","coordinates":[[[-89.1375,48.49583],[-89.1375,48.5],[-89.13125,48.5],[-89.13125,48.49583],[-89.1375,48.49583]]]}},{"type":"Feature","properties":{"c":"976106","o":"","e":""},"geometry":{"type":"Polygon","coordinates":[[[-89.11875,48.49583],[-89.11875,48.5],[-89.1125,48.5],[-89.1125,48.49583],[-89.11875,48.49583]]]}},{"type":"Feature","properties":{"c":"1016279","o":"","e":""},"geometry":{"type":"Polygon","coordinates":[[[-89.08125,48.49583],[-89.08125,48.5],[-89.075,48.5],[-89.075,48.49583],[-89.08125,48.49583]]]}},{"type":"Feature","properties":{"c":"1016280","o":"","e":""},"geometry":{"type":"Polygon","coordinates":[[[-89.075,48.49583],[-89.075,48.5],[-89.06875,48.5],[-89.06875,48.49583],[-89.075,48.49583]]]}},{"type":"Feature","properties":{"c":"1016281","o":"","e":""},"geometry":{"type":"Polygon","coordinates":[[[-89.06875,48.49583],[-89.06875,48.5],[-89.0625,48.5],[-89.0625,48.49583],[-89.06875,48.49583]]]}},{"type":"Feature","properties":{"c":"1016187","o":"","e":""},"geometry":{"type":"Polygon","coordinates":[[[-89.14375,48.49167],[-89.14375,48.49583],[-89.1375,48.49583],[-89.1375,48.49167],[-89.14375,48.49167]]]}},{"type":"Feature","properties":{"c":"1016188","o":"","e":""},"geometry":{"type":"Polygon","coordinates":[[[-89.1375,48.49167],[-89.1375,48.49583],[-89.13125,48.49583],[-89.13125,48.49167],[-89.1375,48.49167]]]}},{"type":"Feature","properties":{"c":"1016189","o":"","e":""},"geometry":{"type":"Polygon","coordinates":[[[-89.13125,48.49167],[-89.13125,48.49583],[-89.125,48.49583],[-89.125,48.49167],[-89.13125,48.49167]]]}},{"type":"Feature","properties":{"c":"1016190","o":"","e":""},"geometry":{"type":"Polygon","coordinates":[[[-89.15,48.4875],[-89.15,48.49167],[-89.14375,48.49167],[-89.14375,48.4875],[-89.15,48.4875]]]}},{"type":"Feature","properties":{"c":"1016191","o":"","e":""},"geometry":{"type":"Polygon","coordinates":[[[-89.14375,48.4875],[-89.14375,48.49167],[-89.1375,48.49167],[-89.1375,48.4875],[-89.14375,48.4875]]]}},{"type":"Feature","properties":{"c":"1016192","o":"","e":""},"geometry":{"type":"Polygon","coordinates":[[[-89.1375,48.4875],[-89.1375,48.49167],[-89.13125,48.49167],[-89.13125,48.4875],[-89.1375,48.4875]]]}},{"type":"Feature","properties":{"c":"1016193","o":"","e":""},"geometry":{"type":"Polygon","coordinates":[[[-89.13125,48.4875],[-89.13125,48.49167],[-89.125,48.49167],[-89.125,48.4875],[-89.13125,48.4875]]]}},{"type":"Feature","properties":{"c":"1016194","o":"","e":""},"geometry":{"type":"Polygon","coordinates":[[[-89.15625,48.48333],[-89.15625,48.4875],[-89.15,48.4875],[-89.15,48.48333],[-89.15625,48.48333]]]}},{"type":"Feature","properties":{"c":"1016195","o":"","e":""},"geometry":{"type":"Polygon","coordinates":[[[-89.15,48.48333],[-89.15,48.4875],[-89.14375,48.4875],[-89.14375,48.48333],[-89.15,48.48333]]]}},{"type":"Feature","properties":{"c":"1016196","o":"","e":""},"geometry":{"type":"Polygon","coordinates":[[[-89.14375,48.48333],[-89.14375,48.4875],[-89.1375,48.4875],[-89.1375,48.48333],[-89.14375,48.48333]]]}}]}