{"type":"FeatureCollection","features":[{"type":"Feature","properties":{"c":"845427","o":"","e":""},"geometry":{"type":"Polygon","coordinates":[[[-89.68125,49.99167],[-89.68125,49.99583],[-89.675,49.99583],[-89.675,50.0],[-89.66875,50.0],[-89.66875,50.00417],[-89.6625,50.00417],[-89.65625,50.00417],[-89.65,50.00417],[-89.64375,50.00417],[-89.6375,50.00417],[-89.63125,50.00417],[-89.63125,50.0],[-89.625,50.0],[-89.625,49.99583],[-89.61875,49.99583],[-89.6125,49.99583],[-89.6125,49.99167],[-89.61875,49.99167],[-89.625,49.99167],[-89.63125,49.99167],[-89.6375,49.99167],[-89.64375,49.99167],[-89.65,49.99167],[-89.65625,49.99167],[-89.6625,49.99167],[-89.66875,49.99167],[-89.675,49.99167],[-89.68125,49.99167]]]}}]}