{"type":"FeatureCollection","features":[{"type":"Feature","properties":{"c":"101595","o":"Kodiak Copper Corp. (50%), Solstice Gold Corp. (50%)","e":"2029-12-14"},"geometry":{"type":"Polygon","coordinates":[[[-91.03117,63.00868],[-91.02336,63.00868],[-91.01555,63.00867],[-91.00773,63.00867],[-90.99992,63.00866],[-90.99211,63.00867],[-90.98429,63.00867],[-90.97648,63.00868],[-90.96867,63.00868],[-90.96086,63.00869],[-90.95304,63.00869],[-90.94523,63.0087],[-90.94523,63.00453],[-90.94523,63.00036],[-90.94523,62.9962],[-90.95304,62.99619],[-90.96086,62.99619],[-90.96867,62.99618],[-90.97648,62.99618],[-90.98429,62.99617],[-90.99211,62.99617],[-90.99992,62.99616],[-91.00773,62.99617],[-91.01555,62.99617],[-91.02336,62.99618],[-91.03117,62.99618],[-91.03898,62.99619],[-91.03898,63.00036],[-91.03898,63.00452],[-91.03898,63.00869],[-91.03117,63.00868]]]}}]}