{"type":"FeatureCollection","features":[{"type":"Feature","properties":{"c":"F64734","o":"Agnico Eagle Mines Limited (100%)","e":"2030-09-23"},"geometry":{"type":"Polygon","coordinates":[[[-92.0,63.0],[-91.0,63.0],[-91.0,63.0],[-92.0,63.0]]]}},{"type":"Feature","properties":{"c":"F29196","o":"Agnico Eagle Mines Limited (100%)","e":"2023-10-25"},"geometry":{"type":"Polygon","coordinates":[[[-92.0,63.0],[-91.0,63.0],[-91.0,63.0],[-92.0,63.0]]]}},{"type":"Feature","properties":{"c":"101854","o":"Solstice Gold Corp. (100%)","e":"2028-08-30"},"geometry":{"type":"Polygon","coordinates":[[[-92.0,63.0],[-92.0,63.0],[-91.0,63.0],[-92.0,63.0]]]}},{"type":"Feature","properties":{"c":"101581","o":"Solstice Gold Corp. (100%)","e":"2028-12-14"},"geometry":{"type":"Polygon","coordinates":[[[-92.0,63.0],[-92.0,63.0],[-91.0,63.0],[-92.0,63.0]]]}},{"type":"Feature","properties":{"c":"101629","o":"Kodiak Copper Corp. (100%)","e":"2030-12-14"},"geometry":{"type":"Polygon","coordinates":[[[-92.0,63.0],[-91.0,63.0],[-92.0,63.0],[-92.0,63.0]]]}},{"type":"Feature","properties":{"c":"101871","o":"Solstice Gold Corp. (100%)","e":"2028-08-30"},"geometry":{"type":"Polygon","coordinates":[[[-92.0,63.0],[-92.0,63.0],[-91.0,63.0],[-92.0,63.0]]]}},{"type":"Feature","properties":{"c":"101887","o":"Solstice Gold Corp. (100%)","e":"2028-08-30"},"geometry":{"type":"Polygon","coordinates":[[[-92.0,63.0],[-92.0,63.0],[-91.0,63.0],[-92.0,63.0]]]}}]}