{"type":"FeatureCollection","features":[{"type":"Feature","properties":{"c":"1030099","o":"","e":""},"geometry":{"type":"Polygon","coordinates":[[[-91.50625,52.49583],[-91.50625,52.5],[-91.5,52.5],[-91.5,52.49583],[-91.50625,52.49583]]]}},{"type":"Feature","properties":{"c":"1030079","o":"","e":""},"geometry":{"type":"Polygon","coordinates":[[[-91.50625,52.50833],[-91.50625,52.5125],[-91.5,52.5125],[-91.5,52.50833],[-91.50625,52.50833]]]}},{"type":"Feature","properties":{"c":"1030082","o":"","e":""},"geometry":{"type":"Polygon","coordinates":[[[-91.50625,52.5125],[-91.50625,52.51667],[-91.5,52.51667],[-91.5,52.5125],[-91.50625,52.5125]]]}},{"type":"Feature","properties":{"c":"1030087","o":"","e":""},"geometry":{"type":"Polygon","coordinates":[[[-91.50625,52.50417],[-91.50625,52.50833],[-91.5,52.50833],[-91.5,52.50417],[-91.50625,52.50417]]]}},{"type":"Feature","properties":{"c":"1030095","o":"","e":""},"geometry":{"type":"Polygon","coordinates":[[[-91.50625,52.5],[-91.50625,52.50417],[-91.5,52.50417],[-91.5,52.5],[-91.50625,52.5]]]}},{"type":"Feature","properties":{"c":"1030154","o":"","e":""},"geometry":{"type":"Polygon","coordinates":[[[-91.50625,52.51667],[-91.50625,52.52083],[-91.5,52.52083],[-91.5,52.51667],[-91.50625,52.51667]]]}},{"type":"Feature","properties":{"c":"1029997","o":"","e":""},"geometry":{"type":"Polygon","coordinates":[[[-91.48125,52.49583],[-91.48125,52.5],[-91.475,52.5],[-91.475,52.49583],[-91.48125,52.49583]]]}},{"type":"Feature","properties":{"c":"1030021","o":"","e":""},"geometry":{"type":"Polygon","coordinates":[[[-91.4875,52.49583],[-91.4875,52.5],[-91.48125,52.5],[-91.48125,52.49583],[-91.4875,52.49583]]]}},{"type":"Feature","properties":{"c":"758762","o":"","e":""},"geometry":{"type":"Polygon","coordinates":[[[-91.475,52.49583],[-91.475,52.5],[-91.46875,52.5],[-91.46875,52.49583],[-91.475,52.49583]]]}},{"type":"Feature","properties":{"c":"758788","o":"","e":""},"geometry":{"type":"Polygon","coordinates":[[[-91.44375,52.49583],[-91.44375,52.5],[-91.4375,52.5],[-91.4375,52.49583],[-91.44375,52.49583]]]}},{"type":"Feature","properties":{"c":"758789","o":"","e":""},"geometry":{"type":"Polygon","coordinates":[[[-91.45,52.49583],[-91.45,52.5],[-91.44375,52.5],[-91.44375,52.49583],[-91.45,52.49583]]]}},{"type":"Feature","properties":{"c":"758791","o":"","e":""},"geometry":{"type":"Polygon","coordinates":[[[-91.4375,52.49583],[-91.4375,52.5],[-91.43125,52.5],[-91.43125,52.49583],[-91.4375,52.49583]]]}},{"type":"Feature","properties":{"c":"1030223","o":"","e":""},"geometry":{"type":"Polygon","coordinates":[[[-91.40625,52.49583],[-91.40625,52.5],[-91.4,52.5],[-91.4,52.49583],[-91.40625,52.49583]]]}},{"type":"Feature","properties":{"c":"1030227","o":"","e":""},"geometry":{"type":"Polygon","coordinates":[[[-91.36875,52.49583],[-91.36875,52.5],[-91.3625,52.5],[-91.3625,52.49583],[-91.36875,52.49583]]]}},{"type":"Feature","properties":{"c":"1030213","o":"","e":""},"geometry":{"type":"Polygon","coordinates":[[[-91.4625,52.49583],[-91.4625,52.5],[-91.45625,52.5],[-91.45625,52.49583],[-91.4625,52.49583]]]}},{"type":"Feature","properties":{"c":"1030122","o":"","e":""},"geometry":{"type":"Polygon","coordinates":[[[-91.43125,52.49583],[-91.43125,52.5],[-91.425,52.5],[-91.425,52.49583],[-91.43125,52.49583]]]}},{"type":"Feature","properties":{"c":"1030242","o":"","e":""},"geometry":{"type":"Polygon","coordinates":[[[-91.4,52.49583],[-91.4,52.5],[-91.39375,52.5],[-91.39375,52.49583],[-91.4,52.49583]]]}},{"type":"Feature","properties":{"c":"1030130","o":"","e":""},"geometry":{"type":"Polygon","coordinates":[[[-91.425,52.49583],[-91.425,52.5],[-91.41875,52.5],[-91.41875,52.49583],[-91.425,52.49583]]]}},{"type":"Feature","properties":{"c":"1030149","o":"","e":""},"geometry":{"type":"Polygon","coordinates":[[[-91.4125,52.49583],[-91.4125,52.5],[-91.40625,52.5],[-91.40625,52.49583],[-91.4125,52.49583]]]}},{"type":"Feature","properties":{"c":"1030090","o":"","e":""},"geometry":{"type":"Polygon","coordinates":[[[-91.5,52.49583],[-91.5,52.5],[-91.49375,52.5],[-91.49375,52.49583],[-91.5,52.49583]]]}},{"type":"Feature","properties":{"c":"1030101","o":"","e":""},"geometry":{"type":"Polygon","coordinates":[[[-91.49375,52.49583],[-91.49375,52.5],[-91.4875,52.5],[-91.4875,52.49583],[-91.49375,52.49583]]]}},{"type":"Feature","properties":{"c":"1030163","o":"","e":""},"geometry":{"type":"Polygon","coordinates":[[[-91.41875,52.49583],[-91.41875,52.5],[-91.4125,52.5],[-91.4125,52.49583],[-91.41875,52.49583]]]}},{"type":"Feature","properties":{"c":"1030254","o":"","e":""},"geometry":{"type":"Polygon","coordinates":[[[-91.39375,52.49583],[-91.39375,52.5],[-91.3875,52.5],[-91.3875,52.49583],[-91.39375,52.49583]]]}},{"type":"Feature","properties":{"c":"1030257","o":"","e":""},"geometry":{"type":"Polygon","coordinates":[[[-91.3875,52.49583],[-91.3875,52.5],[-91.38125,52.5],[-91.38125,52.49583],[-91.3875,52.49583]]]}},{"type":"Feature","properties":{"c":"1030264","o":"","e":""},"geometry":{"type":"Polygon","coordinates":[[[-91.375,52.49583],[-91.375,52.5],[-91.36875,52.5],[-91.36875,52.49583],[-91.375,52.49583]]]}},{"type":"Feature","properties":{"c":"1030268","o":"","e":""},"geometry":{"type":"Polygon","coordinates":[[[-91.38125,52.49583],[-91.38125,52.5],[-91.375,52.5],[-91.375,52.49583],[-91.38125,52.49583]]]}},{"type":"Feature","properties":{"c":"1030185","o":"","e":""},"geometry":{"type":"Polygon","coordinates":[[[-91.46875,52.49583],[-91.46875,52.5],[-91.4625,52.5],[-91.4625,52.49583],[-91.46875,52.49583]]]}},{"type":"Feature","properties":{"c":"1030206","o":"","e":""},"geometry":{"type":"Polygon","coordinates":[[[-91.45625,52.49583],[-91.45625,52.5],[-91.45,52.5],[-91.45,52.49583],[-91.45625,52.49583]]]}},{"type":"Feature","properties":{"c":"588024","o":"","e":""},"geometry":{"type":"Polygon","coordinates":[[[-91.1875,52.82917],[-91.1875,52.83333],[-91.1875,52.8375],[-91.18125,52.8375],[-91.175,52.8375],[-91.175,52.83333],[-91.175,52.82917],[-91.175,52.825],[-91.175,52.82083],[-91.18125,52.82083],[-91.1875,52.82083],[-91.1875,52.825],[-91.1875,52.82917]]]}},{"type":"Feature","properties":{"c":"588005","o":"","e":""},"geometry":{"type":"Polygon","coordinates":[[[-91.2625,52.82917],[-91.25625,52.82917],[-91.25,52.82917],[-91.24375,52.82917],[-91.2375,52.82917],[-91.2375,52.825],[-91.2375,52.82083],[-91.24375,52.82083],[-91.25,52.82083],[-91.25625,52.82083],[-91.2625,52.82083],[-91.2625,52.825],[-91.2625,52.82917]]]}},{"type":"Feature","properties":{"c":"588043","o":"","e":""},"geometry":{"type":"Polygon","coordinates":[[[-91.125,52.85417],[-91.125,52.85833],[-91.11875,52.85833],[-91.1125,52.85833],[-91.10625,52.85833],[-91.10625,52.85417],[-91.10625,52.85],[-91.10625,52.84583],[-91.1125,52.84583],[-91.11875,52.84583],[-91.125,52.84583],[-91.125,52.85],[-91.125,52.85417]]]}},{"type":"Feature","properties":{"c":"588065","o":"","e":""},"geometry":{"type":"Polygon","coordinates":[[[-91.01875,52.875],[-91.01875,52.87917],[-91.0125,52.87917],[-91.0125,52.88333],[-91.00625,52.88333],[-91.0,52.88333],[-90.99375,52.88333],[-90.99375,52.87917],[-90.99375,52.875],[-91.0,52.875],[-91.00625,52.875],[-91.0125,52.875],[-91.01875,52.875]]]}},{"type":"Feature","properties":{"c":"920245","o":"","e":""},"geometry":{"type":"Polygon","coordinates":[[[-91.175,52.8875],[-91.175,52.89167],[-91.16875,52.89167],[-91.16875,52.8875],[-91.175,52.8875]]]}},{"type":"Feature","properties":{"c":"920246","o":"","e":""},"geometry":{"type":"Polygon","coordinates":[[[-91.16875,52.8875],[-91.16875,52.89167],[-91.1625,52.89167],[-91.1625,52.8875],[-91.16875,52.8875]]]}},{"type":"Feature","properties":{"c":"920247","o":"","e":""},"geometry":{"type":"Polygon","coordinates":[[[-91.175,52.88333],[-91.175,52.8875],[-91.16875,52.8875],[-91.16875,52.88333],[-91.175,52.88333]]]}},{"type":"Feature","properties":{"c":"920248","o":"","e":""},"geometry":{"type":"Polygon","coordinates":[[[-91.16875,52.88333],[-91.16875,52.8875],[-91.1625,52.8875],[-91.1625,52.88333],[-91.16875,52.88333]]]}},{"type":"Feature","properties":{"c":"588022","o":"","e":""},"geometry":{"type":"Polygon","coordinates":[[[-91.21875,52.80417],[-91.21875,52.80833],[-91.2125,52.80833],[-91.20625,52.80833],[-91.2,52.80833],[-91.2,52.80417],[-91.2,52.8],[-91.2,52.79583],[-91.20625,52.79583],[-91.2125,52.79583],[-91.21875,52.79583],[-91.21875,52.8],[-91.21875,52.80417]]]}},{"type":"Feature","properties":{"c":"588030","o":"","e":""},"geometry":{"type":"Polygon","coordinates":[[[-91.125,52.89167],[-91.125,52.89583],[-91.11875,52.89583],[-91.1125,52.89583],[-91.10625,52.89583],[-91.1,52.89583],[-91.1,52.89167],[-91.10625,52.89167],[-91.1125,52.89167],[-91.1125,52.8875],[-91.1125,52.88333],[-91.11875,52.88333],[-91.125,52.88333],[-91.125,52.8875],[-91.125,52.89167]]]}},{"type":"Feature","properties":{"c":"588050","o":"","e":""},"geometry":{"type":"Polygon","coordinates":[[[-91.0875,52.88333],[-91.0875,52.8875],[-91.08125,52.8875],[-91.08125,52.89167],[-91.08125,52.89583],[-91.075,52.89583],[-91.06875,52.89583],[-91.0625,52.89583],[-91.0625,52.89167],[-91.06875,52.89167],[-91.06875,52.8875],[-91.06875,52.88333],[-91.075,52.88333],[-91.08125,52.88333],[-91.0875,52.88333]]]}},{"type":"Feature","properties":{"c":"588051","o":"","e":""},"geometry":{"type":"Polygon","coordinates":[[[-91.0625,52.9],[-91.05625,52.9],[-91.05,52.9],[-91.04375,52.9],[-91.04375,52.90417],[-91.0375,52.90417],[-91.03125,52.90417],[-91.03125,52.9],[-91.03125,52.89583],[-91.0375,52.89583],[-91.04375,52.89583],[-91.05,52.89583],[-91.05,52.89167],[-91.05625,52.89167],[-91.0625,52.89167],[-91.0625,52.89583],[-91.0625,52.9]]]}},{"type":"Feature","properties":{"c":"588028","o":"","e":""},"geometry":{"type":"Polygon","coordinates":[[[-91.15,52.89167],[-91.15,52.89583],[-91.14375,52.89583],[-91.1375,52.89583],[-91.1375,52.89167],[-91.1375,52.8875],[-91.1375,52.88333],[-91.14375,52.88333],[-91.15,52.88333],[-91.15,52.8875],[-91.15,52.89167]]]}},{"type":"Feature","properties":{"c":"588008","o":"","e":""},"geometry":{"type":"Polygon","coordinates":[[[-91.25625,52.80417],[-91.25625,52.80833],[-91.25,52.80833],[-91.24375,52.80833],[-91.2375,52.80833],[-91.2375,52.80417],[-91.2375,52.8],[-91.2375,52.79583],[-91.24375,52.79583],[-91.25,52.79583],[-91.25625,52.79583],[-91.25625,52.8],[-91.25625,52.80417]]]}},{"type":"Feature","properties":{"c":"588009","o":"","e":""},"geometry":{"type":"Polygon","coordinates":[[[-91.2375,52.8375],[-91.2375,52.84167],[-91.23125,52.84167],[-91.225,52.84167],[-91.225,52.8375],[-91.225,52.83333],[-91.225,52.82917],[-91.23125,52.82917],[-91.2375,52.82917],[-91.2375,52.83333],[-91.2375,52.8375]]]}},{"type":"Feature","properties":{"c":"588029","o":"","e":""},"geometry":{"type":"Polygon","coordinates":[[[-91.1375,52.89167],[-91.1375,52.89583],[-91.13125,52.89583],[-91.125,52.89583],[-91.125,52.89167],[-91.125,52.8875],[-91.125,52.88333],[-91.13125,52.88333],[-91.1375,52.88333],[-91.1375,52.8875],[-91.1375,52.89167]]]}},{"type":"Feature","properties":{"c":"869658","o":"","e":""},"geometry":{"type":"Polygon","coordinates":[[[-91.13125,52.97083],[-91.13125,52.975],[-91.125,52.975],[-91.125,52.97083],[-91.13125,52.97083]]]}},{"type":"Feature","properties":{"c":"869659","o":"","e":""},"geometry":{"type":"Polygon","coordinates":[[[-91.125,52.97083],[-91.125,52.975],[-91.11875,52.975],[-91.11875,52.97083],[-91.125,52.97083]]]}},{"type":"Feature","properties":{"c":"869660","o":"","e":""},"geometry":{"type":"Polygon","coordinates":[[[-91.11875,52.97083],[-91.11875,52.975],[-91.1125,52.975],[-91.1125,52.97083],[-91.11875,52.97083]]]}},{"type":"Feature","properties":{"c":"588015","o":"","e":""},"geometry":{"type":"Polygon","coordinates":[[[-91.20625,52.84583],[-91.2,52.84583],[-91.2,52.85],[-91.19375,52.85],[-91.19375,52.84583],[-91.19375,52.84167],[-91.19375,52.8375],[-91.2,52.8375],[-91.20625,52.8375],[-91.20625,52.84167],[-91.20625,52.84583]]]}},{"type":"Feature","properties":{"c":"588035","o":"","e":""},"geometry":{"type":"Polygon","coordinates":[[[-91.13125,52.87917],[-91.13125,52.88333],[-91.125,52.88333],[-91.11875,52.88333],[-91.1125,52.88333],[-91.1125,52.87917],[-91.1125,52.875],[-91.1125,52.87083],[-91.11875,52.87083],[-91.125,52.87083],[-91.13125,52.87083],[-91.13125,52.875],[-91.13125,52.87917]]]}},{"type":"Feature","properties":{"c":"916866","o":"","e":""},"geometry":{"type":"Polygon","coordinates":[[[-91.0375,52.97917],[-91.0375,52.98333],[-91.03125,52.98333],[-91.03125,52.97917],[-91.0375,52.97917]]]}},{"type":"Feature","properties":{"c":"916867","o":"","e":""},"geometry":{"type":"Polygon","coordinates":[[[-91.03125,52.97917],[-91.03125,52.98333],[-91.025,52.98333],[-91.025,52.97917],[-91.03125,52.97917]]]}},{"type":"Feature","properties":{"c":"916868","o":"","e":""},"geometry":{"type":"Polygon","coordinates":[[[-91.025,52.97917],[-91.025,52.98333],[-91.01875,52.98333],[-91.01875,52.97917],[-91.025,52.97917]]]}},{"type":"Feature","properties":{"c":"916869","o":"","e":""},"geometry":{"type":"Polygon","coordinates":[[[-91.0375,52.975],[-91.0375,52.97917],[-91.03125,52.97917],[-91.03125,52.975],[-91.0375,52.975]]]}},{"type":"Feature","properties":{"c":"916870","o":"","e":""},"geometry":{"type":"Polygon","coordinates":[[[-91.03125,52.975],[-91.03125,52.97917],[-91.025,52.97917],[-91.025,52.975],[-91.03125,52.975]]]}},{"type":"Feature","properties":{"c":"916871","o":"","e":""},"geometry":{"type":"Polygon","coordinates":[[[-91.025,52.975],[-91.025,52.97917],[-91.01875,52.97917],[-91.01875,52.975],[-91.025,52.975]]]}},{"type":"Feature","properties":{"c":"594488","o":"","e":""},"geometry":{"type":"Polygon","coordinates":[[[-91.05,52.97917],[-91.05,52.98333],[-91.05,52.9875],[-91.04375,52.9875],[-91.0375,52.9875],[-91.0375,52.98333],[-91.0375,52.97917],[-91.0375,52.975],[-91.0375,52.97083],[-91.04375,52.97083],[-91.05,52.97083],[-91.05,52.975],[-91.05,52.97917]]]}},{"type":"Feature","properties":{"c":"594489","o":"","e":""},"geometry":{"type":"Polygon","coordinates":[[[-91.0625,52.97917],[-91.0625,52.98333],[-91.0625,52.9875],[-91.05625,52.9875],[-91.05,52.9875],[-91.05,52.98333],[-91.05,52.97917],[-91.05,52.975],[-91.05,52.97083],[-91.05625,52.97083],[-91.0625,52.97083],[-91.0625,52.975],[-91.0625,52.97917]]]}},{"type":"Feature","properties":{"c":"916872","o":"","e":""},"geometry":{"type":"Polygon","coordinates":[[[-91.01875,52.975],[-91.01875,52.97917],[-91.0125,52.97917],[-91.0125,52.975],[-91.01875,52.975]]]}},{"type":"Feature","properties":{"c":"594490","o":"","e":""},"geometry":{"type":"Polygon","coordinates":[[[-91.075,52.97917],[-91.075,52.98333],[-91.075,52.9875],[-91.06875,52.9875],[-91.0625,52.9875],[-91.0625,52.98333],[-91.0625,52.97917],[-91.0625,52.975],[-91.0625,52.97083],[-91.06875,52.97083],[-91.075,52.97083],[-91.075,52.975],[-91.075,52.97917]]]}},{"type":"Feature","properties":{"c":"594492","o":"","e":""},"geometry":{"type":"Polygon","coordinates":[[[-91.1,52.97917],[-91.1,52.98333],[-91.1,52.9875],[-91.09375,52.9875],[-91.0875,52.9875],[-91.0875,52.98333],[-91.0875,52.97917],[-91.0875,52.975],[-91.0875,52.97083],[-91.09375,52.97083],[-91.1,52.97083],[-91.1,52.975],[-91.1,52.97917]]]}},{"type":"Feature","properties":{"c":"588004","o":"","e":""},"geometry":{"type":"Polygon","coordinates":[[[-91.2875,52.79583],[-91.28125,52.79583],[-91.275,52.79583],[-91.26875,52.79583],[-91.26875,52.79167],[-91.26875,52.7875],[-91.275,52.7875],[-91.28125,52.7875],[-91.2875,52.7875],[-91.2875,52.79167],[-91.2875,52.79583]]]}},{"type":"Feature","properties":{"c":"588019","o":"","e":""},"geometry":{"type":"Polygon","coordinates":[[[-91.20625,52.825],[-91.20625,52.82917],[-91.2,52.82917],[-91.19375,52.82917],[-91.1875,52.82917],[-91.1875,52.825],[-91.1875,52.82083],[-91.1875,52.81667],[-91.19375,52.81667],[-91.2,52.81667],[-91.20625,52.81667],[-91.20625,52.82083],[-91.20625,52.825]]]}},{"type":"Feature","properties":{"c":"588026","o":"","e":""},"geometry":{"type":"Polygon","coordinates":[[[-91.18125,52.89167],[-91.18125,52.89583],[-91.175,52.89583],[-91.16875,52.89583],[-91.1625,52.89583],[-91.1625,52.89167],[-91.16875,52.89167],[-91.175,52.89167],[-91.175,52.8875],[-91.175,52.88333],[-91.18125,52.88333],[-91.18125,52.8875],[-91.18125,52.89167]]]}},{"type":"Feature","properties":{"c":"588027","o":"","e":""},"geometry":{"type":"Polygon","coordinates":[[[-91.1625,52.89167],[-91.1625,52.89583],[-91.15625,52.89583],[-91.15,52.89583],[-91.15,52.89167],[-91.15,52.8875],[-91.15,52.88333],[-91.15625,52.88333],[-91.1625,52.88333],[-91.1625,52.8875],[-91.1625,52.89167]]]}},{"type":"Feature","properties":{"c":"588001","o":"","e":""},"geometry":{"type":"Polygon","coordinates":[[[-91.2875,52.82917],[-91.28125,52.82917],[-91.275,52.82917],[-91.26875,52.82917],[-91.2625,52.82917],[-91.2625,52.825],[-91.2625,52.82083],[-91.26875,52.82083],[-91.275,52.82083],[-91.28125,52.82083],[-91.2875,52.82083],[-91.2875,52.825],[-91.2875,52.82917]]]}},{"type":"Feature","properties":{"c":"588013","o":"","e":""},"geometry":{"type":"Polygon","coordinates":[[[-91.2125,52.85417],[-91.2125,52.85833],[-91.20625,52.85833],[-91.2,52.85833],[-91.2,52.85417],[-91.2,52.85],[-91.2,52.84583],[-91.20625,52.84583],[-91.2125,52.84583],[-91.2125,52.85],[-91.2125,52.85417]]]}},{"type":"Feature","properties":{"c":"588014","o":"","e":""},"geometry":{"type":"Polygon","coordinates":[[[-91.225,52.84583],[-91.21875,52.84583],[-91.2125,52.84583],[-91.20625,52.84583],[-91.20625,52.84167],[-91.20625,52.8375],[-91.2125,52.8375],[-91.21875,52.8375],[-91.225,52.8375],[-91.225,52.84167],[-91.225,52.84583]]]}},{"type":"Feature","properties":{"c":"588031","o":"","e":""},"geometry":{"type":"Polygon","coordinates":[[[-91.1875,52.87917],[-91.1875,52.88333],[-91.1875,52.8875],[-91.1875,52.89167],[-91.18125,52.89167],[-91.18125,52.8875],[-91.18125,52.88333],[-91.175,52.88333],[-91.175,52.87917],[-91.175,52.875],[-91.175,52.87083],[-91.18125,52.87083],[-91.1875,52.87083],[-91.1875,52.875],[-91.1875,52.87917]]]}},{"type":"Feature","properties":{"c":"588040","o":"","e":""},"geometry":{"type":"Polygon","coordinates":[[[-91.18125,52.85833],[-91.175,52.85833],[-91.16875,52.85833],[-91.1625,52.85833],[-91.1625,52.85417],[-91.1625,52.85],[-91.16875,52.85],[-91.175,52.85],[-91.18125,52.85],[-91.18125,52.85417],[-91.18125,52.85833]]]}},{"type":"Feature","properties":{"c":"594491","o":"","e":""},"geometry":{"type":"Polygon","coordinates":[[[-91.0875,52.97917],[-91.0875,52.98333],[-91.0875,52.9875],[-91.08125,52.9875],[-91.075,52.9875],[-91.075,52.98333],[-91.075,52.97917],[-91.075,52.975],[-91.075,52.97083],[-91.08125,52.97083],[-91.0875,52.97083],[-91.0875,52.975],[-91.0875,52.97917]]]}},{"type":"Feature","properties":{"c":"594493","o":"","e":""},"geometry":{"type":"Polygon","coordinates":[[[-91.1125,52.97917],[-91.1125,52.98333],[-91.1125,52.9875],[-91.10625,52.9875],[-91.1,52.9875],[-91.1,52.98333],[-91.1,52.97917],[-91.1,52.975],[-91.1,52.97083],[-91.10625,52.97083],[-91.1125,52.97083],[-91.1125,52.975],[-91.1125,52.97917]]]}},{"type":"Feature","properties":{"c":"588023","o":"","e":""},"geometry":{"type":"Polygon","coordinates":[[[-91.2,52.85833],[-91.19375,52.85833],[-91.1875,52.85833],[-91.18125,52.85833],[-91.18125,52.85417],[-91.18125,52.85],[-91.1875,52.85],[-91.19375,52.85],[-91.2,52.85],[-91.2,52.85417],[-91.2,52.85833]]]}},{"type":"Feature","properties":{"c":"588032","o":"","e":""},"geometry":{"type":"Polygon","coordinates":[[[-91.175,52.87917],[-91.175,52.88333],[-91.16875,52.88333],[-91.1625,52.88333],[-91.1625,52.87917],[-91.1625,52.875],[-91.1625,52.87083],[-91.16875,52.87083],[-91.175,52.87083],[-91.175,52.875],[-91.175,52.87917]]]}},{"type":"Feature","properties":{"c":"588037","o":"","e":""},"geometry":{"type":"Polygon","coordinates":[[[-91.175,52.86667],[-91.175,52.87083],[-91.16875,52.87083],[-91.1625,52.87083],[-91.15625,52.87083],[-91.15625,52.86667],[-91.15625,52.8625],[-91.15625,52.85833],[-91.1625,52.85833],[-91.16875,52.85833],[-91.175,52.85833],[-91.175,52.8625],[-91.175,52.86667]]]}},{"type":"Feature","properties":{"c":"588039","o":"","e":""},"geometry":{"type":"Polygon","coordinates":[[[-91.1375,52.86667],[-91.1375,52.87083],[-91.13125,52.87083],[-91.125,52.87083],[-91.11875,52.87083],[-91.1125,52.87083],[-91.1125,52.86667],[-91.11875,52.86667],[-91.125,52.86667],[-91.125,52.8625],[-91.125,52.85833],[-91.13125,52.85833],[-91.1375,52.85833],[-91.1375,52.8625],[-91.1375,52.86667]]]}},{"type":"Feature","properties":{"c":"588042","o":"","e":""},"geometry":{"type":"Polygon","coordinates":[[[-91.14375,52.85417],[-91.14375,52.85833],[-91.1375,52.85833],[-91.13125,52.85833],[-91.125,52.85833],[-91.125,52.85417],[-91.125,52.85],[-91.125,52.84583],[-91.13125,52.84583],[-91.1375,52.84583],[-91.14375,52.84583],[-91.14375,52.85],[-91.14375,52.85417]]]}},{"type":"Feature","properties":{"c":"869648","o":"","e":""},"geometry":{"type":"Polygon","coordinates":[[[-91.0375,52.97083],[-91.0375,52.975],[-91.03125,52.975],[-91.03125,52.97083],[-91.0375,52.97083]]]}},{"type":"Feature","properties":{"c":"869649","o":"","e":""},"geometry":{"type":"Polygon","coordinates":[[[-91.01875,52.97083],[-91.01875,52.975],[-91.0125,52.975],[-91.0125,52.97083],[-91.01875,52.97083]]]}},{"type":"Feature","properties":{"c":"869650","o":"","e":""},"geometry":{"type":"Polygon","coordinates":[[[-91.03125,52.97083],[-91.03125,52.975],[-91.025,52.975],[-91.025,52.97083],[-91.03125,52.97083]]]}},{"type":"Feature","properties":{"c":"869651","o":"","e":""},"geometry":{"type":"Polygon","coordinates":[[[-91.025,52.97083],[-91.025,52.975],[-91.01875,52.975],[-91.01875,52.97083],[-91.025,52.97083]]]}},{"type":"Feature","properties":{"c":"588041","o":"","e":""},"geometry":{"type":"Polygon","coordinates":[[[-91.1625,52.85833],[-91.15625,52.85833],[-91.15,52.85833],[-91.14375,52.85833],[-91.14375,52.85417],[-91.14375,52.85],[-91.15,52.85],[-91.15625,52.85],[-91.1625,52.85],[-91.1625,52.85417],[-91.1625,52.85833]]]}},{"type":"Feature","properties":{"c":"588049","o":"","e":""},"geometry":{"type":"Polygon","coordinates":[[[-91.1,52.89583],[-91.09375,52.89583],[-91.0875,52.89583],[-91.08125,52.89583],[-91.08125,52.89167],[-91.08125,52.8875],[-91.0875,52.8875],[-91.09375,52.8875],[-91.1,52.8875],[-91.1,52.89167],[-91.1,52.89583]]]}},{"type":"Feature","properties":{"c":"588055","o":"","e":""},"geometry":{"type":"Polygon","coordinates":[[[-91.08125,52.8625],[-91.075,52.8625],[-91.06875,52.8625],[-91.0625,52.8625],[-91.0625,52.85833],[-91.0625,52.85417],[-91.06875,52.85417],[-91.075,52.85417],[-91.08125,52.85417],[-91.08125,52.85833],[-91.08125,52.8625]]]}},{"type":"Feature","properties":{"c":"588003","o":"","e":""},"geometry":{"type":"Polygon","coordinates":[[[-91.2875,52.80417],[-91.2875,52.80833],[-91.28125,52.80833],[-91.275,52.80833],[-91.26875,52.80833],[-91.26875,52.80417],[-91.26875,52.8],[-91.26875,52.79583],[-91.275,52.79583],[-91.28125,52.79583],[-91.2875,52.79583],[-91.2875,52.8],[-91.2875,52.80417]]]}},{"type":"Feature","properties":{"c":"588016","o":"","e":""},"geometry":{"type":"Polygon","coordinates":[[[-91.225,52.83333],[-91.225,52.8375],[-91.21875,52.8375],[-91.2125,52.8375],[-91.20625,52.8375],[-91.20625,52.83333],[-91.20625,52.82917],[-91.20625,52.825],[-91.2125,52.825],[-91.21875,52.825],[-91.225,52.825],[-91.225,52.82917],[-91.225,52.83333]]]}},{"type":"Feature","properties":{"c":"588033","o":"","e":""},"geometry":{"type":"Polygon","coordinates":[[[-91.1625,52.87917],[-91.1625,52.88333],[-91.15625,52.88333],[-91.15,52.88333],[-91.15,52.87917],[-91.15,52.875],[-91.15,52.87083],[-91.15625,52.87083],[-91.1625,52.87083],[-91.1625,52.875],[-91.1625,52.87917]]]}},{"type":"Feature","properties":{"c":"588034","o":"","e":""},"geometry":{"type":"Polygon","coordinates":[[[-91.15,52.87917],[-91.15,52.88333],[-91.14375,52.88333],[-91.1375,52.88333],[-91.13125,52.88333],[-91.13125,52.87917],[-91.13125,52.875],[-91.13125,52.87083],[-91.1375,52.87083],[-91.14375,52.87083],[-91.15,52.87083],[-91.15,52.875],[-91.15,52.87917]]]}},{"type":"Feature","properties":{"c":"588036","o":"","e":""},"geometry":{"type":"Polygon","coordinates":[[[-91.1875,52.86667],[-91.1875,52.87083],[-91.18125,52.87083],[-91.175,52.87083],[-91.175,52.86667],[-91.175,52.8625],[-91.175,52.85833],[-91.18125,52.85833],[-91.1875,52.85833],[-91.1875,52.8625],[-91.1875,52.86667]]]}},{"type":"Feature","properties":{"c":"588061","o":"","e":""},"geometry":{"type":"Polygon","coordinates":[[[-91.0375,52.875],[-91.0375,52.87917],[-91.0375,52.88333],[-91.03125,52.88333],[-91.03125,52.87917],[-91.025,52.87917],[-91.01875,52.87917],[-91.01875,52.875],[-91.01875,52.87083],[-91.01875,52.86667],[-91.025,52.86667],[-91.03125,52.86667],[-91.0375,52.86667],[-91.0375,52.87083],[-91.0375,52.875]]]}},{"type":"Feature","properties":{"c":"588052","o":"","e":""},"geometry":{"type":"Polygon","coordinates":[[[-91.06875,52.89167],[-91.0625,52.89167],[-91.05625,52.89167],[-91.05,52.89167],[-91.05,52.8875],[-91.05,52.88333],[-91.05625,52.88333],[-91.0625,52.88333],[-91.06875,52.88333],[-91.06875,52.8875],[-91.06875,52.89167]]]}},{"type":"Feature","properties":{"c":"588053","o":"","e":""},"geometry":{"type":"Polygon","coordinates":[[[-91.05,52.89167],[-91.05,52.89583],[-91.04375,52.89583],[-91.0375,52.89583],[-91.03125,52.89583],[-91.03125,52.89167],[-91.03125,52.8875],[-91.03125,52.88333],[-91.0375,52.88333],[-91.04375,52.88333],[-91.05,52.88333],[-91.05,52.8875],[-91.05,52.89167]]]}},{"type":"Feature","properties":{"c":"588058","o":"","e":""},"geometry":{"type":"Polygon","coordinates":[[[-91.05,52.87917],[-91.04375,52.87917],[-91.04375,52.88333],[-91.0375,52.88333],[-91.0375,52.87917],[-91.0375,52.875],[-91.0375,52.87083],[-91.04375,52.87083],[-91.05,52.87083],[-91.05,52.875],[-91.05,52.87917]]]}},{"type":"Feature","properties":{"c":"588059","o":"","e":""},"geometry":{"type":"Polygon","coordinates":[[[-91.03125,52.9],[-91.03125,52.90417],[-91.025,52.90417],[-91.025,52.9],[-91.01875,52.9],[-91.01875,52.90417],[-91.0125,52.90417],[-91.0125,52.9],[-91.0125,52.89583],[-91.0125,52.89167],[-91.01875,52.89167],[-91.025,52.89167],[-91.03125,52.89167],[-91.03125,52.89583],[-91.03125,52.9]]]}},{"type":"Feature","properties":{"c":"588060","o":"","e":""},"geometry":{"type":"Polygon","coordinates":[[[-91.03125,52.8875],[-91.03125,52.89167],[-91.025,52.89167],[-91.01875,52.89167],[-91.0125,52.89167],[-91.0125,52.8875],[-91.0125,52.88333],[-91.0125,52.87917],[-91.01875,52.87917],[-91.025,52.87917],[-91.03125,52.87917],[-91.03125,52.88333],[-91.03125,52.8875]]]}},{"type":"Feature","properties":{"c":"588054","o":"","e":""},"geometry":{"type":"Polygon","coordinates":[[[-91.0875,52.8625],[-91.0875,52.86667],[-91.08125,52.86667],[-91.08125,52.87083],[-91.075,52.87083],[-91.06875,52.87083],[-91.0625,52.87083],[-91.0625,52.86667],[-91.0625,52.8625],[-91.06875,52.8625],[-91.075,52.8625],[-91.08125,52.8625],[-91.0875,52.8625]]]}},{"type":"Feature","properties":{"c":"588057","o":"","e":""},"geometry":{"type":"Polygon","coordinates":[[[-91.0625,52.8625],[-91.05625,52.8625],[-91.05,52.8625],[-91.04375,52.8625],[-91.0375,52.8625],[-91.0375,52.85833],[-91.0375,52.85417],[-91.04375,52.85417],[-91.05,52.85417],[-91.05625,52.85417],[-91.0625,52.85417],[-91.0625,52.85833],[-91.0625,52.8625]]]}},{"type":"Feature","properties":{"c":"588010","o":"","e":""},"geometry":{"type":"Polygon","coordinates":[[[-91.2375,52.82917],[-91.23125,52.82917],[-91.225,52.82917],[-91.225,52.825],[-91.225,52.82083],[-91.225,52.81667],[-91.23125,52.81667],[-91.23125,52.82083],[-91.2375,52.82083],[-91.2375,52.825],[-91.2375,52.82917]]]}},{"type":"Feature","properties":{"c":"588011","o":"","e":""},"geometry":{"type":"Polygon","coordinates":[[[-91.25,52.81667],[-91.25,52.82083],[-91.24375,52.82083],[-91.2375,52.82083],[-91.23125,52.82083],[-91.23125,52.81667],[-91.23125,52.8125],[-91.23125,52.80833],[-91.2375,52.80833],[-91.24375,52.80833],[-91.25,52.80833],[-91.25,52.8125],[-91.25,52.81667]]]}},{"type":"Feature","properties":{"c":"588038","o":"","e":""},"geometry":{"type":"Polygon","coordinates":[[[-91.15625,52.86667],[-91.15625,52.87083],[-91.15,52.87083],[-91.14375,52.87083],[-91.1375,52.87083],[-91.1375,52.86667],[-91.1375,52.8625],[-91.1375,52.85833],[-91.14375,52.85833],[-91.15,52.85833],[-91.15625,52.85833],[-91.15625,52.8625],[-91.15625,52.86667]]]}},{"type":"Feature","properties":{"c":"594472","o":"","e":""},"geometry":{"type":"Polygon","coordinates":[[[-91.19375,52.84583],[-91.19375,52.85],[-91.1875,52.85],[-91.18125,52.85],[-91.175,52.85],[-91.175,52.84583],[-91.175,52.84167],[-91.175,52.8375],[-91.18125,52.8375],[-91.1875,52.8375],[-91.19375,52.8375],[-91.19375,52.84167],[-91.19375,52.84583]]]}},{"type":"Feature","properties":{"c":"588002","o":"","e":""},"geometry":{"type":"Polygon","coordinates":[[[-91.2875,52.81667],[-91.2875,52.82083],[-91.28125,52.82083],[-91.275,52.82083],[-91.26875,52.82083],[-91.26875,52.81667],[-91.26875,52.8125],[-91.26875,52.80833],[-91.275,52.80833],[-91.28125,52.80833],[-91.2875,52.80833],[-91.2875,52.8125],[-91.2875,52.81667]]]}},{"type":"Feature","properties":{"c":"588006","o":"","e":""},"geometry":{"type":"Polygon","coordinates":[[[-91.26875,52.81667],[-91.26875,52.82083],[-91.2625,52.82083],[-91.25625,52.82083],[-91.25,52.82083],[-91.25,52.81667],[-91.25,52.8125],[-91.25,52.80833],[-91.25625,52.80833],[-91.2625,52.80833],[-91.26875,52.80833],[-91.26875,52.8125],[-91.26875,52.81667]]]}},{"type":"Feature","properties":{"c":"588007","o":"","e":""},"geometry":{"type":"Polygon","coordinates":[[[-91.26875,52.8],[-91.26875,52.80417],[-91.26875,52.80833],[-91.2625,52.80833],[-91.25625,52.80833],[-91.25625,52.80417],[-91.25625,52.8],[-91.25625,52.79583],[-91.2625,52.79583],[-91.2625,52.79167],[-91.26875,52.79167],[-91.26875,52.79583],[-91.26875,52.8]]]}},{"type":"Feature","properties":{"c":"588012","o":"","e":""},"geometry":{"type":"Polygon","coordinates":[[[-91.2375,52.80417],[-91.2375,52.80833],[-91.23125,52.80833],[-91.225,52.80833],[-91.21875,52.80833],[-91.21875,52.80417],[-91.21875,52.8],[-91.21875,52.79583],[-91.225,52.79583],[-91.23125,52.79583],[-91.2375,52.79583],[-91.2375,52.8],[-91.2375,52.80417]]]}},{"type":"Feature","properties":{"c":"588017","o":"","e":""},"geometry":{"type":"Polygon","coordinates":[[[-91.20625,52.8375],[-91.2,52.8375],[-91.19375,52.8375],[-91.1875,52.8375],[-91.1875,52.83333],[-91.1875,52.82917],[-91.19375,52.82917],[-91.2,52.82917],[-91.20625,52.82917],[-91.20625,52.83333],[-91.20625,52.8375]]]}},{"type":"Feature","properties":{"c":"588018","o":"","e":""},"geometry":{"type":"Polygon","coordinates":[[[-91.225,52.825],[-91.21875,52.825],[-91.2125,52.825],[-91.20625,52.825],[-91.20625,52.82083],[-91.20625,52.81667],[-91.2125,52.81667],[-91.21875,52.81667],[-91.225,52.81667],[-91.225,52.82083],[-91.225,52.825]]]}},{"type":"Feature","properties":{"c":"588056","o":"","e":""},"geometry":{"type":"Polygon","coordinates":[[[-91.0625,52.87083],[-91.0625,52.875],[-91.05625,52.875],[-91.05,52.875],[-91.05,52.87083],[-91.04375,52.87083],[-91.0375,52.87083],[-91.0375,52.86667],[-91.0375,52.8625],[-91.04375,52.8625],[-91.05,52.8625],[-91.05625,52.8625],[-91.0625,52.8625],[-91.0625,52.86667],[-91.0625,52.87083]]]}},{"type":"Feature","properties":{"c":"588045","o":"","e":""},"geometry":{"type":"Polygon","coordinates":[[[-91.15625,52.85],[-91.15,52.85],[-91.14375,52.85],[-91.14375,52.84583],[-91.1375,52.84583],[-91.13125,52.84583],[-91.13125,52.84167],[-91.1375,52.84167],[-91.14375,52.84167],[-91.15,52.84167],[-91.15625,52.84167],[-91.15625,52.84583],[-91.15625,52.85]]]}},{"type":"Feature","properties":{"c":"588046","o":"","e":""},"geometry":{"type":"Polygon","coordinates":[[[-91.175,52.8375],[-91.175,52.84167],[-91.16875,52.84167],[-91.1625,52.84167],[-91.15625,52.84167],[-91.15625,52.8375],[-91.15625,52.83333],[-91.15625,52.82917],[-91.1625,52.82917],[-91.16875,52.82917],[-91.175,52.82917],[-91.175,52.83333],[-91.175,52.8375]]]}},{"type":"Feature","properties":{"c":"588047","o":"","e":""},"geometry":{"type":"Polygon","coordinates":[[[-91.15625,52.83333],[-91.15625,52.8375],[-91.15625,52.84167],[-91.15,52.84167],[-91.14375,52.84167],[-91.1375,52.84167],[-91.13125,52.84167],[-91.125,52.84167],[-91.125,52.8375],[-91.13125,52.8375],[-91.1375,52.8375],[-91.1375,52.83333],[-91.14375,52.83333],[-91.14375,52.82917],[-91.15,52.82917],[-91.15,52.825],[-91.15625,52.825],[-91.15625,52.82917],[-91.15625,52.83333]]]}},{"type":"Feature","properties":{"c":"588048","o":"","e":""},"geometry":{"type":"Polygon","coordinates":[[[-91.175,52.82917],[-91.16875,52.82917],[-91.1625,52.82917],[-91.15625,52.82917],[-91.15625,52.825],[-91.15625,52.82083],[-91.1625,52.82083],[-91.16875,52.82083],[-91.175,52.82083],[-91.175,52.825],[-91.175,52.82917]]]}},{"type":"Feature","properties":{"c":"588020","o":"","e":""},"geometry":{"type":"Polygon","coordinates":[[[-91.23125,52.81667],[-91.225,52.81667],[-91.21875,52.81667],[-91.2125,52.81667],[-91.20625,52.81667],[-91.20625,52.8125],[-91.20625,52.80833],[-91.2125,52.80833],[-91.21875,52.80833],[-91.225,52.80833],[-91.23125,52.80833],[-91.23125,52.8125],[-91.23125,52.81667]]]}},{"type":"Feature","properties":{"c":"588025","o":"","e":""},"geometry":{"type":"Polygon","coordinates":[[[-91.1875,52.82083],[-91.18125,52.82083],[-91.175,52.82083],[-91.16875,52.82083],[-91.16875,52.81667],[-91.16875,52.8125],[-91.175,52.8125],[-91.18125,52.8125],[-91.1875,52.8125],[-91.1875,52.81667],[-91.1875,52.82083]]]}},{"type":"Feature","properties":{"c":"588044","o":"","e":""},"geometry":{"type":"Polygon","coordinates":[[[-91.10625,52.85417],[-91.10625,52.85833],[-91.10625,52.8625],[-91.1,52.8625],[-91.09375,52.8625],[-91.0875,52.8625],[-91.0875,52.85833],[-91.0875,52.85417],[-91.09375,52.85417],[-91.1,52.85417],[-91.1,52.85],[-91.1,52.84583],[-91.10625,52.84583],[-91.10625,52.85],[-91.10625,52.85417]]]}},{"type":"Feature","properties":{"c":"588063","o":"","e":""},"geometry":{"type":"Polygon","coordinates":[[[-91.0125,52.90417],[-91.00625,52.90417],[-91.00625,52.90833],[-91.0,52.90833],[-90.99375,52.90833],[-90.99375,52.90417],[-90.99375,52.9],[-90.99375,52.89583],[-91.0,52.89583],[-91.00625,52.89583],[-91.0125,52.89583],[-91.0125,52.9],[-91.0125,52.90417]]]}},{"type":"Feature","properties":{"c":"588064","o":"","e":""},"geometry":{"type":"Polygon","coordinates":[[[-91.0125,52.89167],[-91.0125,52.89583],[-91.00625,52.89583],[-91.0,52.89583],[-90.99375,52.89583],[-90.99375,52.89167],[-90.99375,52.8875],[-90.99375,52.88333],[-91.0,52.88333],[-91.00625,52.88333],[-91.0125,52.88333],[-91.0125,52.8875],[-91.0125,52.89167]]]}},{"type":"Feature","properties":{"c":"1026619","o":"","e":""},"geometry":{"type":"Polygon","coordinates":[[[-91.3,52.80833],[-91.3,52.8125],[-91.29375,52.8125],[-91.29375,52.80833],[-91.3,52.80833]]]}},{"type":"Feature","properties":{"c":"1026620","o":"","e":""},"geometry":{"type":"Polygon","coordinates":[[[-91.29375,52.8125],[-91.29375,52.81667],[-91.2875,52.81667],[-91.2875,52.8125],[-91.29375,52.8125]]]}},{"type":"Feature","properties":{"c":"1026621","o":"","e":""},"geometry":{"type":"Polygon","coordinates":[[[-91.29375,52.80833],[-91.29375,52.8125],[-91.2875,52.8125],[-91.2875,52.80833],[-91.29375,52.80833]]]}},{"type":"Feature","properties":{"c":"1026622","o":"","e":""},"geometry":{"type":"Polygon","coordinates":[[[-91.2125,52.875],[-91.2125,52.87917],[-91.20625,52.87917],[-91.20625,52.875],[-91.2125,52.875]]]}},{"type":"Feature","properties":{"c":"588021","o":"","e":""},"geometry":{"type":"Polygon","coordinates":[[[-91.20625,52.81667],[-91.2,52.81667],[-91.19375,52.81667],[-91.1875,52.81667],[-91.1875,52.8125],[-91.1875,52.80833],[-91.19375,52.80833],[-91.2,52.80833],[-91.20625,52.80833],[-91.20625,52.8125],[-91.20625,52.81667]]]}},{"type":"Feature","properties":{"c":"592635","o":"","e":""},"geometry":{"type":"Polygon","coordinates":[[[-91.0375,52.96667],[-91.0375,52.97083],[-91.03125,52.97083],[-91.025,52.97083],[-91.01875,52.97083],[-91.0125,52.97083],[-91.00625,52.97083],[-91.00625,52.96667],[-91.0125,52.96667],[-91.01875,52.96667],[-91.025,52.96667],[-91.03125,52.96667],[-91.0375,52.96667]]]}},{"type":"Feature","properties":{"c":"592638","o":"","e":""},"geometry":{"type":"Polygon","coordinates":[[[-91.1375,52.975],[-91.13125,52.975],[-91.13125,52.97083],[-91.125,52.97083],[-91.11875,52.97083],[-91.1125,52.97083],[-91.1125,52.96667],[-91.11875,52.96667],[-91.125,52.96667],[-91.13125,52.96667],[-91.1375,52.96667],[-91.1375,52.97083],[-91.1375,52.975]]]}},{"type":"Feature","properties":{"c":"592637","o":"","e":""},"geometry":{"type":"Polygon","coordinates":[[[-91.1125,52.96667],[-91.1125,52.97083],[-91.10625,52.97083],[-91.1,52.97083],[-91.09375,52.97083],[-91.0875,52.97083],[-91.08125,52.97083],[-91.075,52.97083],[-91.075,52.96667],[-91.08125,52.96667],[-91.0875,52.96667],[-91.09375,52.96667],[-91.1,52.96667],[-91.10625,52.96667],[-91.1125,52.96667]]]}},{"type":"Feature","properties":{"c":"592639","o":"","e":""},"geometry":{"type":"Polygon","coordinates":[[[-91.15,52.975],[-91.15,52.97917],[-91.14375,52.97917],[-91.1375,52.97917],[-91.1375,52.975],[-91.1375,52.97083],[-91.1375,52.96667],[-91.14375,52.96667],[-91.15,52.96667],[-91.15,52.97083],[-91.15,52.975]]]}},{"type":"Feature","properties":{"c":"592640","o":"","e":""},"geometry":{"type":"Polygon","coordinates":[[[-91.15,52.9875],[-91.15,52.99167],[-91.14375,52.99167],[-91.1375,52.99167],[-91.1375,52.9875],[-91.1375,52.98333],[-91.1375,52.97917],[-91.14375,52.97917],[-91.15,52.97917],[-91.15,52.98333],[-91.15,52.9875]]]}},{"type":"Feature","properties":{"c":"592632","o":"","e":""},"geometry":{"type":"Polygon","coordinates":[[[-91.0125,52.97917],[-91.0125,52.98333],[-91.0125,52.9875],[-91.0125,52.99167],[-91.00625,52.99167],[-91.0,52.99167],[-91.0,52.9875],[-91.0,52.98333],[-91.0,52.97917],[-91.0,52.975],[-91.0,52.97083],[-91.00625,52.97083],[-91.0125,52.97083],[-91.0125,52.975],[-91.0125,52.97917]]]}},{"type":"Feature","properties":{"c":"592636","o":"","e":""},"geometry":{"type":"Polygon","coordinates":[[[-91.075,52.96667],[-91.075,52.97083],[-91.06875,52.97083],[-91.0625,52.97083],[-91.05625,52.97083],[-91.05,52.97083],[-91.04375,52.97083],[-91.0375,52.97083],[-91.0375,52.96667],[-91.04375,52.96667],[-91.05,52.96667],[-91.05625,52.96667],[-91.0625,52.96667],[-91.06875,52.96667],[-91.075,52.96667]]]}},{"type":"Feature","properties":{"c":"502320","o":"","e":""},"geometry":{"type":"Polygon","coordinates":[[[-91.10625,52.8625],[-91.10625,52.86667],[-91.1,52.86667],[-91.1,52.8625],[-91.10625,52.8625]]]}},{"type":"Feature","properties":{"c":"502321","o":"","e":""},"geometry":{"type":"Polygon","coordinates":[[[-91.1,52.8625],[-91.1,52.86667],[-91.09375,52.86667],[-91.09375,52.8625],[-91.1,52.8625]]]}},{"type":"Feature","properties":{"c":"502322","o":"","e":""},"geometry":{"type":"Polygon","coordinates":[[[-91.09375,52.8625],[-91.09375,52.86667],[-91.0875,52.86667],[-91.0875,52.8625],[-91.09375,52.8625]]]}},{"type":"Feature","properties":{"c":"502323","o":"","e":""},"geometry":{"type":"Polygon","coordinates":[[[-91.10625,52.86667],[-91.10625,52.87083],[-91.1,52.87083],[-91.1,52.86667],[-91.10625,52.86667]]]}},{"type":"Feature","properties":{"c":"502324","o":"","e":""},"geometry":{"type":"Polygon","coordinates":[[[-91.1,52.86667],[-91.1,52.87083],[-91.09375,52.87083],[-91.09375,52.86667],[-91.1,52.86667]]]}},{"type":"Feature","properties":{"c":"502325","o":"","e":""},"geometry":{"type":"Polygon","coordinates":[[[-91.09375,52.86667],[-91.09375,52.87083],[-91.0875,52.87083],[-91.0875,52.86667],[-91.09375,52.86667]]]}},{"type":"Feature","properties":{"c":"502326","o":"","e":""},"geometry":{"type":"Polygon","coordinates":[[[-91.10625,52.87083],[-91.10625,52.875],[-91.1,52.875],[-91.1,52.87083],[-91.10625,52.87083]]]}},{"type":"Feature","properties":{"c":"502327","o":"","e":""},"geometry":{"type":"Polygon","coordinates":[[[-91.1,52.87083],[-91.1,52.875],[-91.09375,52.875],[-91.09375,52.87083],[-91.1,52.87083]]]}},{"type":"Feature","properties":{"c":"502328","o":"","e":""},"geometry":{"type":"Polygon","coordinates":[[[-91.09375,52.87083],[-91.09375,52.875],[-91.0875,52.875],[-91.0875,52.87083],[-91.09375,52.87083]]]}},{"type":"Feature","properties":{"c":"502329","o":"","e":""},"geometry":{"type":"Polygon","coordinates":[[[-91.0875,52.87083],[-91.0875,52.875],[-91.08125,52.875],[-91.08125,52.87083],[-91.0875,52.87083]]]}},{"type":"Feature","properties":{"c":"502330","o":"","e":""},"geometry":{"type":"Polygon","coordinates":[[[-91.08125,52.87083],[-91.08125,52.875],[-91.075,52.875],[-91.075,52.87083],[-91.08125,52.87083]]]}},{"type":"Feature","properties":{"c":"502331","o":"","e":""},"geometry":{"type":"Polygon","coordinates":[[[-91.075,52.87083],[-91.075,52.875],[-91.06875,52.875],[-91.06875,52.87083],[-91.075,52.87083]]]}},{"type":"Feature","properties":{"c":"502332","o":"","e":""},"geometry":{"type":"Polygon","coordinates":[[[-91.06875,52.87083],[-91.06875,52.875],[-91.0625,52.875],[-91.0625,52.87083],[-91.06875,52.87083]]]}},{"type":"Feature","properties":{"c":"502333","o":"","e":""},"geometry":{"type":"Polygon","coordinates":[[[-91.10625,52.875],[-91.10625,52.87917],[-91.1,52.87917],[-91.1,52.875],[-91.10625,52.875]]]}},{"type":"Feature","properties":{"c":"502334","o":"","e":""},"geometry":{"type":"Polygon","coordinates":[[[-91.1,52.875],[-91.1,52.87917],[-91.09375,52.87917],[-91.09375,52.875],[-91.1,52.875]]]}},{"type":"Feature","properties":{"c":"502335","o":"","e":""},"geometry":{"type":"Polygon","coordinates":[[[-91.09375,52.875],[-91.09375,52.87917],[-91.0875,52.87917],[-91.0875,52.875],[-91.09375,52.875]]]}},{"type":"Feature","properties":{"c":"502336","o":"","e":""},"geometry":{"type":"Polygon","coordinates":[[[-91.0875,52.875],[-91.0875,52.87917],[-91.08125,52.87917],[-91.08125,52.875],[-91.0875,52.875]]]}},{"type":"Feature","properties":{"c":"502337","o":"","e":""},"geometry":{"type":"Polygon","coordinates":[[[-91.08125,52.875],[-91.08125,52.87917],[-91.075,52.87917],[-91.075,52.875],[-91.08125,52.875]]]}},{"type":"Feature","properties":{"c":"502338","o":"","e":""},"geometry":{"type":"Polygon","coordinates":[[[-91.075,52.875],[-91.075,52.87917],[-91.06875,52.87917],[-91.06875,52.875],[-91.075,52.875]]]}},{"type":"Feature","properties":{"c":"502339","o":"","e":""},"geometry":{"type":"Polygon","coordinates":[[[-91.06875,52.875],[-91.06875,52.87917],[-91.0625,52.87917],[-91.0625,52.875],[-91.06875,52.875]]]}},{"type":"Feature","properties":{"c":"502340","o":"","e":""},"geometry":{"type":"Polygon","coordinates":[[[-91.0625,52.875],[-91.0625,52.87917],[-91.05625,52.87917],[-91.05625,52.875],[-91.0625,52.875]]]}},{"type":"Feature","properties":{"c":"502341","o":"","e":""},"geometry":{"type":"Polygon","coordinates":[[[-91.05625,52.875],[-91.05625,52.87917],[-91.05,52.87917],[-91.05,52.875],[-91.05625,52.875]]]}},{"type":"Feature","properties":{"c":"502342","o":"","e":""},"geometry":{"type":"Polygon","coordinates":[[[-91.10625,52.87917],[-91.10625,52.88333],[-91.1,52.88333],[-91.1,52.87917],[-91.10625,52.87917]]]}},{"type":"Feature","properties":{"c":"502343","o":"","e":""},"geometry":{"type":"Polygon","coordinates":[[[-91.1,52.87917],[-91.1,52.88333],[-91.09375,52.88333],[-91.09375,52.87917],[-91.1,52.87917]]]}},{"type":"Feature","properties":{"c":"502344","o":"","e":""},"geometry":{"type":"Polygon","coordinates":[[[-91.09375,52.87917],[-91.09375,52.88333],[-91.0875,52.88333],[-91.0875,52.87917],[-91.09375,52.87917]]]}},{"type":"Feature","properties":{"c":"502345","o":"","e":""},"geometry":{"type":"Polygon","coordinates":[[[-91.0875,52.87917],[-91.0875,52.88333],[-91.08125,52.88333],[-91.08125,52.87917],[-91.0875,52.87917]]]}},{"type":"Feature","properties":{"c":"502346","o":"","e":""},"geometry":{"type":"Polygon","coordinates":[[[-91.08125,52.87917],[-91.08125,52.88333],[-91.075,52.88333],[-91.075,52.87917],[-91.08125,52.87917]]]}},{"type":"Feature","properties":{"c":"502347","o":"","e":""},"geometry":{"type":"Polygon","coordinates":[[[-91.075,52.87917],[-91.075,52.88333],[-91.06875,52.88333],[-91.06875,52.87917],[-91.075,52.87917]]]}},{"type":"Feature","properties":{"c":"502348","o":"","e":""},"geometry":{"type":"Polygon","coordinates":[[[-91.06875,52.87917],[-91.06875,52.88333],[-91.0625,52.88333],[-91.0625,52.87917],[-91.06875,52.87917]]]}},{"type":"Feature","properties":{"c":"502349","o":"","e":""},"geometry":{"type":"Polygon","coordinates":[[[-91.0625,52.87917],[-91.0625,52.88333],[-91.05625,52.88333],[-91.05625,52.87917],[-91.0625,52.87917]]]}},{"type":"Feature","properties":{"c":"502350","o":"","e":""},"geometry":{"type":"Polygon","coordinates":[[[-91.05625,52.87917],[-91.05625,52.88333],[-91.05,52.88333],[-91.05,52.87917],[-91.05625,52.87917]]]}},{"type":"Feature","properties":{"c":"502351","o":"","e":""},"geometry":{"type":"Polygon","coordinates":[[[-91.05,52.87917],[-91.05,52.88333],[-91.04375,52.88333],[-91.04375,52.87917],[-91.05,52.87917]]]}},{"type":"Feature","properties":{"c":"502352","o":"","e":""},"geometry":{"type":"Polygon","coordinates":[[[-91.10625,52.88333],[-91.10625,52.8875],[-91.1,52.8875],[-91.1,52.88333],[-91.10625,52.88333]]]}},{"type":"Feature","properties":{"c":"502353","o":"","e":""},"geometry":{"type":"Polygon","coordinates":[[[-91.1,52.88333],[-91.1,52.8875],[-91.09375,52.8875],[-91.09375,52.88333],[-91.1,52.88333]]]}},{"type":"Feature","properties":{"c":"502354","o":"","e":""},"geometry":{"type":"Polygon","coordinates":[[[-91.09375,52.88333],[-91.09375,52.8875],[-91.0875,52.8875],[-91.0875,52.88333],[-91.09375,52.88333]]]}},{"type":"Feature","properties":{"c":"502355","o":"","e":""},"geometry":{"type":"Polygon","coordinates":[[[-91.1125,52.875],[-91.1125,52.87917],[-91.10625,52.87917],[-91.10625,52.875],[-91.1125,52.875]]]}},{"type":"Feature","properties":{"c":"502356","o":"","e":""},"geometry":{"type":"Polygon","coordinates":[[[-91.1125,52.87917],[-91.1125,52.88333],[-91.10625,52.88333],[-91.10625,52.87917],[-91.1125,52.87917]]]}},{"type":"Feature","properties":{"c":"502357","o":"","e":""},"geometry":{"type":"Polygon","coordinates":[[[-91.1125,52.88333],[-91.1125,52.8875],[-91.10625,52.8875],[-91.10625,52.88333],[-91.1125,52.88333]]]}},{"type":"Feature","properties":{"c":"502358","o":"","e":""},"geometry":{"type":"Polygon","coordinates":[[[-91.1125,52.8875],[-91.1125,52.89167],[-91.10625,52.89167],[-91.10625,52.8875],[-91.1125,52.8875]]]}},{"type":"Feature","properties":{"c":"502359","o":"","e":""},"geometry":{"type":"Polygon","coordinates":[[[-91.10625,52.8875],[-91.10625,52.89167],[-91.1,52.89167],[-91.1,52.8875],[-91.10625,52.8875]]]}},{"type":"Feature","properties":{"c":"502360","o":"","e":""},"geometry":{"type":"Polygon","coordinates":[[[-91.1125,52.8625],[-91.1125,52.86667],[-91.10625,52.86667],[-91.10625,52.8625],[-91.1125,52.8625]]]}},{"type":"Feature","properties":{"c":"502361","o":"","e":""},"geometry":{"type":"Polygon","coordinates":[[[-91.1125,52.86667],[-91.1125,52.87083],[-91.10625,52.87083],[-91.10625,52.86667],[-91.1125,52.86667]]]}},{"type":"Feature","properties":{"c":"502362","o":"","e":""},"geometry":{"type":"Polygon","coordinates":[[[-91.1125,52.87083],[-91.1125,52.875],[-91.10625,52.875],[-91.10625,52.87083],[-91.1125,52.87083]]]}},{"type":"Feature","properties":{"c":"502363","o":"","e":""},"geometry":{"type":"Polygon","coordinates":[[[-91.125,52.85833],[-91.125,52.8625],[-91.11875,52.8625],[-91.11875,52.85833],[-91.125,52.85833]]]}},{"type":"Feature","properties":{"c":"502364","o":"","e":""},"geometry":{"type":"Polygon","coordinates":[[[-91.11875,52.85833],[-91.11875,52.8625],[-91.1125,52.8625],[-91.1125,52.85833],[-91.11875,52.85833]]]}},{"type":"Feature","properties":{"c":"502365","o":"","e":""},"geometry":{"type":"Polygon","coordinates":[[[-91.1125,52.85833],[-91.1125,52.8625],[-91.10625,52.8625],[-91.10625,52.85833],[-91.1125,52.85833]]]}},{"type":"Feature","properties":{"c":"502366","o":"","e":""},"geometry":{"type":"Polygon","coordinates":[[[-91.125,52.8625],[-91.125,52.86667],[-91.11875,52.86667],[-91.11875,52.8625],[-91.125,52.8625]]]}},{"type":"Feature","properties":{"c":"502367","o":"","e":""},"geometry":{"type":"Polygon","coordinates":[[[-91.11875,52.8625],[-91.11875,52.86667],[-91.1125,52.86667],[-91.1125,52.8625],[-91.11875,52.8625]]]}},{"type":"Feature","properties":{"c":"502368","o":"","e":""},"geometry":{"type":"Polygon","coordinates":[[[-91.0875,52.86667],[-91.0875,52.87083],[-91.08125,52.87083],[-91.08125,52.86667],[-91.0875,52.86667]]]}},{"type":"Feature","properties":{"c":"1030019","o":"","e":""},"geometry":{"type":"Polygon","coordinates":[[[-91.4875,52.5],[-91.4875,52.50417],[-91.48125,52.50417],[-91.48125,52.5],[-91.4875,52.5]]]}},{"type":"Feature","properties":{"c":"1029990","o":"","e":""},"geometry":{"type":"Polygon","coordinates":[[[-91.48125,52.5],[-91.48125,52.50417],[-91.475,52.50417],[-91.475,52.5],[-91.48125,52.5]]]}},{"type":"Feature","properties":{"c":"758764","o":"","e":""},"geometry":{"type":"Polygon","coordinates":[[[-91.475,52.5],[-91.475,52.50417],[-91.46875,52.50417],[-91.46875,52.5],[-91.475,52.5]]]}},{"type":"Feature","properties":{"c":"758765","o":"","e":""},"geometry":{"type":"Polygon","coordinates":[[[-91.475,52.50417],[-91.475,52.50833],[-91.46875,52.50833],[-91.46875,52.50417],[-91.475,52.50417]]]}},{"type":"Feature","properties":{"c":"758768","o":"","e":""},"geometry":{"type":"Polygon","coordinates":[[[-91.4625,52.50417],[-91.4625,52.50833],[-91.45625,52.50833],[-91.45625,52.50417],[-91.4625,52.50417]]]}},{"type":"Feature","properties":{"c":"758769","o":"","e":""},"geometry":{"type":"Polygon","coordinates":[[[-91.45,52.5],[-91.45,52.50417],[-91.44375,52.50417],[-91.44375,52.5],[-91.45,52.5]]]}},{"type":"Feature","properties":{"c":"758770","o":"","e":""},"geometry":{"type":"Polygon","coordinates":[[[-91.46875,52.50417],[-91.46875,52.50833],[-91.4625,52.50833],[-91.4625,52.50417],[-91.46875,52.50417]]]}},{"type":"Feature","properties":{"c":"758771","o":"","e":""},"geometry":{"type":"Polygon","coordinates":[[[-91.46875,52.5],[-91.46875,52.50417],[-91.4625,52.50417],[-91.4625,52.5],[-91.46875,52.5]]]}},{"type":"Feature","properties":{"c":"758772","o":"","e":""},"geometry":{"type":"Polygon","coordinates":[[[-91.45,52.50417],[-91.45,52.50833],[-91.44375,52.50833],[-91.44375,52.50417],[-91.45,52.50417]]]}},{"type":"Feature","properties":{"c":"758773","o":"","e":""},"geometry":{"type":"Polygon","coordinates":[[[-91.45625,52.5],[-91.45625,52.50417],[-91.45,52.50417],[-91.45,52.5],[-91.45625,52.5]]]}},{"type":"Feature","properties":{"c":"758774","o":"","e":""},"geometry":{"type":"Polygon","coordinates":[[[-91.4625,52.5],[-91.4625,52.50417],[-91.45625,52.50417],[-91.45625,52.5],[-91.4625,52.5]]]}},{"type":"Feature","properties":{"c":"758775","o":"","e":""},"geometry":{"type":"Polygon","coordinates":[[[-91.45625,52.50417],[-91.45625,52.50833],[-91.45,52.50833],[-91.45,52.50417],[-91.45625,52.50417]]]}},{"type":"Feature","properties":{"c":"758776","o":"","e":""},"geometry":{"type":"Polygon","coordinates":[[[-91.44375,52.5],[-91.44375,52.50417],[-91.4375,52.50417],[-91.4375,52.5],[-91.44375,52.5]]]}},{"type":"Feature","properties":{"c":"758777","o":"","e":""},"geometry":{"type":"Polygon","coordinates":[[[-91.44375,52.50417],[-91.44375,52.50833],[-91.4375,52.50833],[-91.4375,52.50417],[-91.44375,52.50417]]]}},{"type":"Feature","properties":{"c":"758778","o":"","e":""},"geometry":{"type":"Polygon","coordinates":[[[-91.49375,52.50417],[-91.49375,52.50833],[-91.4875,52.50833],[-91.4875,52.50417],[-91.49375,52.50417]]]}},{"type":"Feature","properties":{"c":"758779","o":"","e":""},"geometry":{"type":"Polygon","coordinates":[[[-91.4875,52.50833],[-91.4875,52.5125],[-91.48125,52.5125],[-91.48125,52.50833],[-91.4875,52.50833]]]}},{"type":"Feature","properties":{"c":"758780","o":"","e":""},"geometry":{"type":"Polygon","coordinates":[[[-91.4875,52.50417],[-91.4875,52.50833],[-91.48125,52.50833],[-91.48125,52.50417],[-91.4875,52.50417]]]}},{"type":"Feature","properties":{"c":"758781","o":"","e":""},"geometry":{"type":"Polygon","coordinates":[[[-91.49375,52.50833],[-91.49375,52.5125],[-91.4875,52.5125],[-91.4875,52.50833],[-91.49375,52.50833]]]}},{"type":"Feature","properties":{"c":"758782","o":"","e":""},"geometry":{"type":"Polygon","coordinates":[[[-91.48125,52.50833],[-91.48125,52.5125],[-91.475,52.5125],[-91.475,52.50833],[-91.48125,52.50833]]]}},{"type":"Feature","properties":{"c":"758783","o":"","e":""},"geometry":{"type":"Polygon","coordinates":[[[-91.48125,52.50417],[-91.48125,52.50833],[-91.475,52.50833],[-91.475,52.50417],[-91.48125,52.50417]]]}},{"type":"Feature","properties":{"c":"1030228","o":"","e":""},"geometry":{"type":"Polygon","coordinates":[[[-91.3875,52.5],[-91.3875,52.50417],[-91.38125,52.50417],[-91.38125,52.5],[-91.3875,52.5]]]}},{"type":"Feature","properties":{"c":"1030233","o":"","e":""},"geometry":{"type":"Polygon","coordinates":[[[-91.36875,52.5],[-91.36875,52.50417],[-91.3625,52.50417],[-91.3625,52.5],[-91.36875,52.5]]]}},{"type":"Feature","properties":{"c":"1030235","o":"","e":""},"geometry":{"type":"Polygon","coordinates":[[[-91.38125,52.5],[-91.38125,52.50417],[-91.375,52.50417],[-91.375,52.5],[-91.38125,52.5]]]}},{"type":"Feature","properties":{"c":"1030238","o":"","e":""},"geometry":{"type":"Polygon","coordinates":[[[-91.4,52.5],[-91.4,52.50417],[-91.39375,52.50417],[-91.39375,52.5],[-91.4,52.5]]]}},{"type":"Feature","properties":{"c":"1030121","o":"","e":""},"geometry":{"type":"Polygon","coordinates":[[[-91.43125,52.5],[-91.43125,52.50417],[-91.425,52.50417],[-91.425,52.5],[-91.43125,52.5]]]}},{"type":"Feature","properties":{"c":"1030123","o":"","e":""},"geometry":{"type":"Polygon","coordinates":[[[-91.41875,52.50833],[-91.41875,52.5125],[-91.4125,52.5125],[-91.4125,52.50833],[-91.41875,52.50833]]]}},{"type":"Feature","properties":{"c":"1030124","o":"","e":""},"geometry":{"type":"Polygon","coordinates":[[[-91.4625,52.50833],[-91.4625,52.5125],[-91.45625,52.5125],[-91.45625,52.50833],[-91.4625,52.50833]]]}},{"type":"Feature","properties":{"c":"1030125","o":"","e":""},"geometry":{"type":"Polygon","coordinates":[[[-91.425,52.50417],[-91.425,52.50833],[-91.41875,52.50833],[-91.41875,52.50417],[-91.425,52.50417]]]}},{"type":"Feature","properties":{"c":"1030126","o":"","e":""},"geometry":{"type":"Polygon","coordinates":[[[-91.45625,52.5125],[-91.45625,52.51667],[-91.45,52.51667],[-91.45,52.5125],[-91.45625,52.5125]]]}},{"type":"Feature","properties":{"c":"1030127","o":"","e":""},"geometry":{"type":"Polygon","coordinates":[[[-91.40625,52.5],[-91.40625,52.50417],[-91.4,52.50417],[-91.4,52.5],[-91.40625,52.5]]]}},{"type":"Feature","properties":{"c":"1030128","o":"","e":""},"geometry":{"type":"Polygon","coordinates":[[[-91.5,52.51667],[-91.5,52.52083],[-91.49375,52.52083],[-91.49375,52.51667],[-91.5,52.51667]]]}},{"type":"Feature","properties":{"c":"1030129","o":"","e":""},"geometry":{"type":"Polygon","coordinates":[[[-91.46875,52.50833],[-91.46875,52.5125],[-91.4625,52.5125],[-91.4625,52.50833],[-91.46875,52.50833]]]}},{"type":"Feature","properties":{"c":"1030240","o":"","e":""},"geometry":{"type":"Polygon","coordinates":[[[-91.39375,52.5],[-91.39375,52.50417],[-91.3875,52.50417],[-91.3875,52.5],[-91.39375,52.5]]]}},{"type":"Feature","properties":{"c":"1030245","o":"","e":""},"geometry":{"type":"Polygon","coordinates":[[[-91.375,52.5],[-91.375,52.50417],[-91.36875,52.50417],[-91.36875,52.5],[-91.375,52.5]]]}},{"type":"Feature","properties":{"c":"1030085","o":"","e":""},"geometry":{"type":"Polygon","coordinates":[[[-91.5,52.5],[-91.5,52.50417],[-91.49375,52.50417],[-91.49375,52.5],[-91.5,52.5]]]}},{"type":"Feature","properties":{"c":"1030086","o":"","e":""},"geometry":{"type":"Polygon","coordinates":[[[-91.49375,52.5],[-91.49375,52.50417],[-91.4875,52.50417],[-91.4875,52.5],[-91.49375,52.5]]]}},{"type":"Feature","properties":{"c":"1030131","o":"","e":""},"geometry":{"type":"Polygon","coordinates":[[[-91.41875,52.5],[-91.41875,52.50417],[-91.4125,52.50417],[-91.4125,52.5],[-91.41875,52.5]]]}},{"type":"Feature","properties":{"c":"1030133","o":"","e":""},"geometry":{"type":"Polygon","coordinates":[[[-91.5,52.5125],[-91.5,52.51667],[-91.49375,52.51667],[-91.49375,52.5125],[-91.5,52.5125]]]}},{"type":"Feature","properties":{"c":"1030135","o":"","e":""},"geometry":{"type":"Polygon","coordinates":[[[-91.45,52.50833],[-91.45,52.5125],[-91.44375,52.5125],[-91.44375,52.50833],[-91.45,52.50833]]]}},{"type":"Feature","properties":{"c":"1030136","o":"","e":""},"geometry":{"type":"Polygon","coordinates":[[[-91.4125,52.5],[-91.4125,52.50417],[-91.40625,52.50417],[-91.40625,52.5],[-91.4125,52.5]]]}},{"type":"Feature","properties":{"c":"1030137","o":"","e":""},"geometry":{"type":"Polygon","coordinates":[[[-91.43125,52.50833],[-91.43125,52.5125],[-91.425,52.5125],[-91.425,52.50833],[-91.43125,52.50833]]]}},{"type":"Feature","properties":{"c":"1030138","o":"","e":""},"geometry":{"type":"Polygon","coordinates":[[[-91.44375,52.50833],[-91.44375,52.5125],[-91.4375,52.5125],[-91.4375,52.50833],[-91.44375,52.50833]]]}},{"type":"Feature","properties":{"c":"1030139","o":"","e":""},"geometry":{"type":"Polygon","coordinates":[[[-91.425,52.5],[-91.425,52.50417],[-91.41875,52.50417],[-91.41875,52.5],[-91.425,52.5]]]}},{"type":"Feature","properties":{"c":"1030140","o":"","e":""},"geometry":{"type":"Polygon","coordinates":[[[-91.45,52.5125],[-91.45,52.51667],[-91.44375,52.51667],[-91.44375,52.5125],[-91.45,52.5125]]]}},{"type":"Feature","properties":{"c":"1030141","o":"","e":""},"geometry":{"type":"Polygon","coordinates":[[[-91.46875,52.5125],[-91.46875,52.51667],[-91.4625,52.51667],[-91.4625,52.5125],[-91.46875,52.5125]]]}},{"type":"Feature","properties":{"c":"1030142","o":"","e":""},"geometry":{"type":"Polygon","coordinates":[[[-91.43125,52.50417],[-91.43125,52.50833],[-91.425,52.50833],[-91.425,52.50417],[-91.43125,52.50417]]]}},{"type":"Feature","properties":{"c":"1030143","o":"","e":""},"geometry":{"type":"Polygon","coordinates":[[[-91.4625,52.5125],[-91.4625,52.51667],[-91.45625,52.51667],[-91.45625,52.5125],[-91.4625,52.5125]]]}},{"type":"Feature","properties":{"c":"1030152","o":"","e":""},"geometry":{"type":"Polygon","coordinates":[[[-91.4625,52.51667],[-91.4625,52.52083],[-91.45625,52.52083],[-91.45625,52.51667],[-91.4625,52.51667]]]}},{"type":"Feature","properties":{"c":"1030144","o":"","e":""},"geometry":{"type":"Polygon","coordinates":[[[-91.48125,52.5125],[-91.48125,52.51667],[-91.475,52.51667],[-91.475,52.5125],[-91.48125,52.5125]]]}},{"type":"Feature","properties":{"c":"1030145","o":"","e":""},"geometry":{"type":"Polygon","coordinates":[[[-91.45625,52.51667],[-91.45625,52.52083],[-91.45,52.52083],[-91.45,52.51667],[-91.45625,52.51667]]]}},{"type":"Feature","properties":{"c":"1030146","o":"","e":""},"geometry":{"type":"Polygon","coordinates":[[[-91.4125,52.50833],[-91.4125,52.5125],[-91.40625,52.5125],[-91.40625,52.50833],[-91.4125,52.50833]]]}},{"type":"Feature","properties":{"c":"1030147","o":"","e":""},"geometry":{"type":"Polygon","coordinates":[[[-91.4125,52.50417],[-91.4125,52.50833],[-91.40625,52.50833],[-91.40625,52.50417],[-91.4125,52.50417]]]}},{"type":"Feature","properties":{"c":"1030148","o":"","e":""},"geometry":{"type":"Polygon","coordinates":[[[-91.49375,52.5125],[-91.49375,52.51667],[-91.4875,52.51667],[-91.4875,52.5125],[-91.49375,52.5125]]]}},{"type":"Feature","properties":{"c":"1030150","o":"","e":""},"geometry":{"type":"Polygon","coordinates":[[[-91.475,52.51667],[-91.475,52.52083],[-91.46875,52.52083],[-91.46875,52.51667],[-91.475,52.51667]]]}},{"type":"Feature","properties":{"c":"1030151","o":"","e":""},"geometry":{"type":"Polygon","coordinates":[[[-91.4375,52.5],[-91.4375,52.50417],[-91.43125,52.50417],[-91.43125,52.5],[-91.4375,52.5]]]}},{"type":"Feature","properties":{"c":"1030110","o":"","e":""},"geometry":{"type":"Polygon","coordinates":[[[-91.5,52.50417],[-91.5,52.50833],[-91.49375,52.50833],[-91.49375,52.50417],[-91.5,52.50417]]]}},{"type":"Feature","properties":{"c":"1030113","o":"","e":""},"geometry":{"type":"Polygon","coordinates":[[[-91.5,52.50833],[-91.5,52.5125],[-91.49375,52.5125],[-91.49375,52.50833],[-91.5,52.50833]]]}},{"type":"Feature","properties":{"c":"1030153","o":"","e":""},"geometry":{"type":"Polygon","coordinates":[[[-91.45,52.51667],[-91.45,52.52083],[-91.44375,52.52083],[-91.44375,52.51667],[-91.45,52.51667]]]}},{"type":"Feature","properties":{"c":"1030155","o":"","e":""},"geometry":{"type":"Polygon","coordinates":[[[-91.4875,52.5125],[-91.4875,52.51667],[-91.48125,52.51667],[-91.48125,52.5125],[-91.4875,52.5125]]]}},{"type":"Feature","properties":{"c":"1030156","o":"","e":""},"geometry":{"type":"Polygon","coordinates":[[[-91.425,52.50833],[-91.425,52.5125],[-91.41875,52.5125],[-91.41875,52.50833],[-91.425,52.50833]]]}},{"type":"Feature","properties":{"c":"1030157","o":"","e":""},"geometry":{"type":"Polygon","coordinates":[[[-91.45625,52.50833],[-91.45625,52.5125],[-91.45,52.5125],[-91.45,52.50833],[-91.45625,52.50833]]]}},{"type":"Feature","properties":{"c":"1030158","o":"","e":""},"geometry":{"type":"Polygon","coordinates":[[[-91.4875,52.51667],[-91.4875,52.52083],[-91.48125,52.52083],[-91.48125,52.51667],[-91.4875,52.51667]]]}},{"type":"Feature","properties":{"c":"1030159","o":"","e":""},"geometry":{"type":"Polygon","coordinates":[[[-91.46875,52.51667],[-91.46875,52.52083],[-91.4625,52.52083],[-91.4625,52.51667],[-91.46875,52.51667]]]}},{"type":"Feature","properties":{"c":"1030160","o":"","e":""},"geometry":{"type":"Polygon","coordinates":[[[-91.49375,52.51667],[-91.49375,52.52083],[-91.4875,52.52083],[-91.4875,52.51667],[-91.49375,52.51667]]]}},{"type":"Feature","properties":{"c":"1030161","o":"","e":""},"geometry":{"type":"Polygon","coordinates":[[[-91.48125,52.51667],[-91.48125,52.52083],[-91.475,52.52083],[-91.475,52.51667],[-91.48125,52.51667]]]}},{"type":"Feature","properties":{"c":"1030170","o":"","e":""},"geometry":{"type":"Polygon","coordinates":[[[-91.475,52.50833],[-91.475,52.5125],[-91.46875,52.5125],[-91.46875,52.50833],[-91.475,52.50833]]]}},{"type":"Feature","properties":{"c":"1030162","o":"","e":""},"geometry":{"type":"Polygon","coordinates":[[[-91.4375,52.50417],[-91.4375,52.50833],[-91.43125,52.50833],[-91.43125,52.50417],[-91.4375,52.50417]]]}},{"type":"Feature","properties":{"c":"1030164","o":"","e":""},"geometry":{"type":"Polygon","coordinates":[[[-91.4375,52.50833],[-91.4375,52.5125],[-91.43125,52.5125],[-91.43125,52.50833],[-91.4375,52.50833]]]}},{"type":"Feature","properties":{"c":"1030167","o":"","e":""},"geometry":{"type":"Polygon","coordinates":[[[-91.475,52.5125],[-91.475,52.51667],[-91.46875,52.51667],[-91.46875,52.5125],[-91.475,52.5125]]]}},{"type":"Feature","properties":{"c":"1030168","o":"","e":""},"geometry":{"type":"Polygon","coordinates":[[[-91.41875,52.50417],[-91.41875,52.50833],[-91.4125,52.50833],[-91.4125,52.50417],[-91.41875,52.50417]]]}},{"type":"Feature","properties":{"c":"997296","o":"","e":""},"geometry":{"type":"Polygon","coordinates":[[[-91.125,52.98333],[-91.125,52.9875],[-91.11875,52.9875],[-91.11875,52.98333],[-91.125,52.98333]]]}},{"type":"Feature","properties":{"c":"997297","o":"","e":""},"geometry":{"type":"Polygon","coordinates":[[[-91.11875,52.98333],[-91.11875,52.9875],[-91.1125,52.9875],[-91.1125,52.98333],[-91.11875,52.98333]]]}},{"type":"Feature","properties":{"c":"997298","o":"","e":""},"geometry":{"type":"Polygon","coordinates":[[[-91.125,52.97917],[-91.125,52.98333],[-91.11875,52.98333],[-91.11875,52.97917],[-91.125,52.97917]]]}},{"type":"Feature","properties":{"c":"997299","o":"","e":""},"geometry":{"type":"Polygon","coordinates":[[[-91.11875,52.97917],[-91.11875,52.98333],[-91.1125,52.98333],[-91.1125,52.97917],[-91.11875,52.97917]]]}},{"type":"Feature","properties":{"c":"997300","o":"","e":""},"geometry":{"type":"Polygon","coordinates":[[[-91.1375,52.98333],[-91.1375,52.9875],[-91.13125,52.9875],[-91.13125,52.98333],[-91.1375,52.98333]]]}},{"type":"Feature","properties":{"c":"997301","o":"","e":""},"geometry":{"type":"Polygon","coordinates":[[[-91.13125,52.98333],[-91.13125,52.9875],[-91.125,52.9875],[-91.125,52.98333],[-91.13125,52.98333]]]}},{"type":"Feature","properties":{"c":"997302","o":"","e":""},"geometry":{"type":"Polygon","coordinates":[[[-91.1375,52.97917],[-91.1375,52.98333],[-91.13125,52.98333],[-91.13125,52.97917],[-91.1375,52.97917]]]}},{"type":"Feature","properties":{"c":"997303","o":"","e":""},"geometry":{"type":"Polygon","coordinates":[[[-91.13125,52.97917],[-91.13125,52.98333],[-91.125,52.98333],[-91.125,52.97917],[-91.13125,52.97917]]]}},{"type":"Feature","properties":{"c":"997483","o":"","e":""},"geometry":{"type":"Polygon","coordinates":[[[-91.175,52.84583],[-91.175,52.85],[-91.16875,52.85],[-91.16875,52.84583],[-91.175,52.84583]]]}},{"type":"Feature","properties":{"c":"997484","o":"","e":""},"geometry":{"type":"Polygon","coordinates":[[[-91.16875,52.84583],[-91.16875,52.85],[-91.1625,52.85],[-91.1625,52.84583],[-91.16875,52.84583]]]}},{"type":"Feature","properties":{"c":"997485","o":"","e":""},"geometry":{"type":"Polygon","coordinates":[[[-91.1625,52.84583],[-91.1625,52.85],[-91.15625,52.85],[-91.15625,52.84583],[-91.1625,52.84583]]]}},{"type":"Feature","properties":{"c":"997486","o":"","e":""},"geometry":{"type":"Polygon","coordinates":[[[-91.175,52.84167],[-91.175,52.84583],[-91.16875,52.84583],[-91.16875,52.84167],[-91.175,52.84167]]]}},{"type":"Feature","properties":{"c":"997487","o":"","e":""},"geometry":{"type":"Polygon","coordinates":[[[-91.16875,52.84167],[-91.16875,52.84583],[-91.1625,52.84583],[-91.1625,52.84167],[-91.16875,52.84167]]]}},{"type":"Feature","properties":{"c":"997488","o":"","e":""},"geometry":{"type":"Polygon","coordinates":[[[-91.1625,52.84167],[-91.1625,52.84583],[-91.15625,52.84583],[-91.15625,52.84167],[-91.1625,52.84167]]]}},{"type":"Feature","properties":{"c":"588062","o":"","e":""},"geometry":{"type":"Polygon","coordinates":[[[-91.00625,52.91667],[-91.0,52.91667],[-90.99375,52.91667],[-90.9875,52.91667],[-90.98125,52.91667],[-90.975,52.91667],[-90.975,52.9125],[-90.975,52.90833],[-90.98125,52.90833],[-90.9875,52.90833],[-90.99375,52.90833],[-91.0,52.90833],[-91.00625,52.90833],[-91.00625,52.9125],[-91.00625,52.91667]]]}},{"type":"Feature","properties":{"c":"592634","o":"","e":""},"geometry":{"type":"Polygon","coordinates":[[[-91.00625,52.96667],[-91.00625,52.97083],[-91.0,52.97083],[-90.99375,52.97083],[-90.9875,52.97083],[-90.98125,52.97083],[-90.98125,52.96667],[-90.9875,52.96667],[-90.99375,52.96667],[-91.0,52.96667],[-91.00625,52.96667]]]}}]}