{"type":"FeatureCollection","features":[{"type":"Feature","properties":{"c":"100527","o":"Peregrine Diamonds Ltd. (100%)","e":"2024-11-04"},"geometry":{"type":"Polygon","coordinates":[[[-91.10935,65.62133],[-91.11716,65.62133],[-91.12498,65.62133],[-91.13279,65.62133],[-91.1406,65.62133],[-91.14842,65.62132],[-91.15623,65.62132],[-91.16404,65.62132],[-91.16404,65.62549],[-91.16404,65.62965],[-91.15623,65.62966],[-91.14842,65.62966],[-91.1406,65.62966],[-91.13279,65.62966],[-91.12498,65.62966],[-91.11716,65.62966],[-91.10935,65.62966],[-91.10935,65.62549],[-91.10935,65.62133]]]}},{"type":"Feature","properties":{"c":"100528","o":"Peregrine Diamonds Ltd. (100%)","e":"2024-11-04"},"geometry":{"type":"Polygon","coordinates":[[[-91.05466,65.62131],[-91.06247,65.62131],[-91.07029,65.62132],[-91.0781,65.62132],[-91.08591,65.62132],[-91.09373,65.62132],[-91.10154,65.62132],[-91.10935,65.62133],[-91.11716,65.62133],[-91.11716,65.62549],[-91.11716,65.62966],[-91.10935,65.62966],[-91.10154,65.62966],[-91.09373,65.62966],[-91.08591,65.62965],[-91.0781,65.62965],[-91.07029,65.62965],[-91.06247,65.62965],[-91.05466,65.62964],[-91.05466,65.62548],[-91.05466,65.62131]]]}},{"type":"Feature","properties":{"c":"100361","o":"Peregrine Diamonds Ltd. (100%)","e":"2024-11-04"},"geometry":{"type":"Polygon","coordinates":[[[-90.99997,65.63794],[-90.99216,65.63795],[-90.99216,65.63378],[-90.99216,65.62962],[-90.99216,65.62545],[-90.99216,65.62128],[-90.99216,65.61711],[-90.99216,65.61295],[-90.99216,65.60878],[-90.99216,65.60461],[-90.99997,65.60461],[-91.00778,65.60461],[-91.00778,65.60878],[-91.0156,65.60879],[-91.02341,65.60879],[-91.02341,65.61296],[-91.03122,65.61296],[-91.03903,65.61297],[-91.03903,65.61714],[-91.04685,65.61714],[-91.05466,65.61714],[-91.05466,65.62131],[-91.06247,65.62131],[-91.06247,65.62548],[-91.06247,65.62965],[-91.06247,65.63381],[-91.06247,65.63798],[-91.05466,65.63798],[-91.04685,65.63797],[-91.03903,65.63797],[-91.03122,65.63796],[-91.02341,65.63796],[-91.0156,65.63795],[-91.00778,65.63795],[-90.99997,65.63794]]]}},{"type":"Feature","properties":{"c":"100362","o":"Peregrine Diamonds Ltd. (100%)","e":"2024-11-04"},"geometry":{"type":"Polygon","coordinates":[[[-90.99997,65.65878],[-90.99216,65.65878],[-90.99216,65.65462],[-90.99216,65.65045],[-90.99216,65.64628],[-90.99216,65.64212],[-90.99216,65.63795],[-90.99216,65.63378],[-90.99997,65.63378],[-91.00778,65.63378],[-91.0156,65.63379],[-91.02341,65.63379],[-91.03122,65.6338],[-91.03903,65.6338],[-91.04685,65.63381],[-91.05466,65.63381],[-91.06247,65.63381],[-91.06247,65.63798],[-91.06247,65.64215],[-91.06247,65.64631],[-91.06247,65.65048],[-91.06247,65.65465],[-91.06247,65.65881],[-91.05466,65.65881],[-91.04685,65.65881],[-91.03903,65.6588],[-91.03122,65.6588],[-91.02341,65.65879],[-91.0156,65.65879],[-91.00778,65.65878],[-90.99997,65.65878]]]}},{"type":"Feature","properties":{"c":"100382","o":"Peregrine Diamonds Ltd. (100%)","e":"2024-09-13"},"geometry":{"type":"Polygon","coordinates":[[[-90.96091,65.51296],[-90.96091,65.5088],[-90.96091,65.50463],[-90.96091,65.50046],[-90.96091,65.4963],[-90.96091,65.49213],[-90.96091,65.48796],[-90.96091,65.4838],[-90.96091,65.47963],[-90.96091,65.47546],[-90.96091,65.4713],[-90.96872,65.47129],[-90.97653,65.47129],[-90.98434,65.47128],[-90.99216,65.47127],[-90.99997,65.47127],[-91.00778,65.47127],[-91.0156,65.47128],[-91.0156,65.47545],[-91.0156,65.47961],[-91.0156,65.48378],[-91.0156,65.48795],[-91.0156,65.49211],[-91.0156,65.49628],[-91.0156,65.50045],[-91.0156,65.50461],[-91.0156,65.50878],[-91.0156,65.51295],[-91.0156,65.51712],[-91.00778,65.51711],[-90.99997,65.5171],[-90.99216,65.51711],[-90.98434,65.51712],[-90.97653,65.51712],[-90.96872,65.51713],[-90.96091,65.51713],[-90.96091,65.51296]]]}},{"type":"Feature","properties":{"c":"100383","o":"Peregrine Diamonds Ltd. (100%)","e":"2024-09-13"},"geometry":{"type":"Polygon","coordinates":[[[-91.00778,65.47127],[-91.0156,65.47128],[-91.02341,65.47129],[-91.03122,65.47129],[-91.03904,65.4713],[-91.04685,65.4713],[-91.05466,65.4713],[-91.06247,65.47131],[-91.06247,65.47547],[-91.06247,65.47964],[-91.06247,65.48381],[-91.06247,65.48797],[-91.06247,65.49214],[-91.06247,65.49631],[-91.06247,65.50047],[-91.06247,65.50464],[-91.06247,65.50881],[-91.06247,65.51298],[-91.06247,65.51714],[-91.05466,65.51714],[-91.04685,65.51713],[-91.03903,65.51713],[-91.03122,65.51713],[-91.02341,65.51712],[-91.0156,65.51712],[-91.00778,65.51711],[-91.00778,65.51294],[-91.00778,65.50878],[-91.00778,65.50461],[-91.00778,65.50044],[-91.00778,65.49628],[-91.00778,65.49211],[-91.00778,65.48794],[-91.00778,65.48377],[-91.00778,65.47961],[-91.00778,65.47544],[-91.00778,65.47127]]]}},{"type":"Feature","properties":{"c":"100384","o":"Peregrine Diamonds Ltd. (100%)","e":"2024-09-13"},"geometry":{"type":"Polygon","coordinates":[[[-91.05466,65.4713],[-91.06247,65.47131],[-91.07029,65.47131],[-91.0781,65.47131],[-91.08591,65.47131],[-91.09373,65.47132],[-91.10154,65.47132],[-91.10154,65.47548],[-91.10935,65.47549],[-91.11716,65.47549],[-91.11716,65.47965],[-91.11716,65.48382],[-91.11716,65.48799],[-91.11716,65.49215],[-91.11716,65.49632],[-91.11716,65.50049],[-91.11716,65.50465],[-91.11716,65.50882],[-91.11716,65.51299],[-91.11716,65.51715],[-91.10935,65.51715],[-91.10154,65.51715],[-91.09373,65.51715],[-91.08591,65.51715],[-91.0781,65.51715],[-91.07029,65.51714],[-91.06247,65.51714],[-91.05466,65.51714],[-91.05466,65.51297],[-91.05466,65.5088],[-91.05466,65.50464],[-91.05466,65.50047],[-91.05466,65.4963],[-91.05466,65.49214],[-91.05466,65.48797],[-91.05466,65.4838],[-91.05466,65.47964],[-91.05466,65.47547],[-91.05466,65.4713]]]}},{"type":"Feature","properties":{"c":"100385","o":"Peregrine Diamonds Ltd. (100%)","e":"2024-09-13"},"geometry":{"type":"Polygon","coordinates":[[[-91.10935,65.47549],[-91.11716,65.47549],[-91.12498,65.47549],[-91.13279,65.47549],[-91.1406,65.47548],[-91.14842,65.47548],[-91.15623,65.47548],[-91.16404,65.47548],[-91.16404,65.47965],[-91.16404,65.48381],[-91.16404,65.48798],[-91.16404,65.49215],[-91.16404,65.49631],[-91.16404,65.50048],[-91.16404,65.50465],[-91.16404,65.50882],[-91.16404,65.51298],[-91.16404,65.51715],[-91.15623,65.51715],[-91.14842,65.51715],[-91.1406,65.51715],[-91.13279,65.51715],[-91.12498,65.51715],[-91.11716,65.51715],[-91.10935,65.51715],[-91.10935,65.51299],[-91.10935,65.50882],[-91.10935,65.50465],[-91.10935,65.50049],[-91.10935,65.49632],[-91.10935,65.49215],[-91.10935,65.48799],[-91.10935,65.48382],[-91.10935,65.47965],[-91.10935,65.47549]]]}},{"type":"Feature","properties":{"c":"100386","o":"Peregrine Diamonds Ltd. (100%)","e":"2024-09-13"},"geometry":{"type":"Polygon","coordinates":[[[-91.21873,65.47546],[-91.21873,65.47962],[-91.21873,65.48379],[-91.21873,65.48796],[-91.21873,65.49212],[-91.21873,65.49629],[-91.21873,65.50046],[-91.21092,65.50046],[-91.21092,65.50463],[-91.21092,65.5088],[-91.21092,65.51296],[-91.21092,65.51713],[-91.20311,65.51713],[-91.19529,65.51714],[-91.18748,65.51714],[-91.17967,65.51714],[-91.17186,65.51715],[-91.16404,65.51715],[-91.15623,65.51715],[-91.15623,65.51298],[-91.15623,65.50882],[-91.15623,65.50465],[-91.15623,65.50048],[-91.15623,65.49632],[-91.15623,65.49215],[-91.15623,65.48798],[-91.15623,65.48382],[-91.15623,65.47965],[-91.15623,65.47548],[-91.16404,65.47548],[-91.17186,65.47548],[-91.17967,65.47548],[-91.18748,65.47547],[-91.19529,65.47547],[-91.20311,65.47547],[-91.21092,65.47546],[-91.21873,65.47546]]]}},{"type":"Feature","properties":{"c":"100363","o":"Peregrine Diamonds Ltd. (100%)","e":"2024-11-04"},"geometry":{"type":"Polygon","coordinates":[[[-90.99997,65.66711],[-90.99216,65.66712],[-90.99216,65.66295],[-90.99216,65.65878],[-90.99216,65.65462],[-90.99997,65.65461],[-91.00778,65.65462],[-91.0156,65.65462],[-91.02341,65.65463],[-91.03122,65.65463],[-91.03903,65.65464],[-91.04685,65.65464],[-91.05466,65.65464],[-91.06247,65.65465],[-91.06247,65.65881],[-91.06247,65.66298],[-91.06247,65.66715],[-91.06247,65.67132],[-91.05466,65.67131],[-91.04685,65.67131],[-91.03903,65.6713],[-91.03122,65.6713],[-91.02341,65.67129],[-91.0156,65.67129],[-91.00778,65.67128],[-90.99997,65.67128],[-90.99997,65.66711]]]}},{"type":"Feature","properties":{"c":"100516","o":"Peregrine Diamonds Ltd. (100%)","e":"2024-11-04"},"geometry":{"type":"Polygon","coordinates":[[[-91.05466,65.62548],[-91.06247,65.62548],[-91.07029,65.62548],[-91.0781,65.62549],[-91.08591,65.62549],[-91.09373,65.62549],[-91.10154,65.62549],[-91.10935,65.62549],[-91.11716,65.62549],[-91.11716,65.62966],[-91.11716,65.63383],[-91.11716,65.63799],[-91.11716,65.64216],[-91.11716,65.64633],[-91.11716,65.65049],[-91.11716,65.65466],[-91.11716,65.65883],[-91.11716,65.66299],[-91.11716,65.66716],[-91.11716,65.67133],[-91.10935,65.67133],[-91.10154,65.67133],[-91.09373,65.67132],[-91.08591,65.67132],[-91.0781,65.67132],[-91.07029,65.67132],[-91.06247,65.67132],[-91.05466,65.67131],[-91.05466,65.66715],[-91.05466,65.66298],[-91.05466,65.65881],[-91.05466,65.65464],[-91.05466,65.65048],[-91.05466,65.64631],[-91.05466,65.64214],[-91.05466,65.63798],[-91.05466,65.63381],[-91.05466,65.62964],[-91.05466,65.62548]]]}},{"type":"Feature","properties":{"c":"100517","o":"Peregrine Diamonds Ltd. (100%)","e":"2024-11-04"},"geometry":{"type":"Polygon","coordinates":[[[-91.0156,65.66712],[-91.02341,65.66713],[-91.03122,65.66713],[-91.03903,65.66714],[-91.04685,65.66714],[-91.05466,65.66715],[-91.06247,65.66715],[-91.06247,65.67132],[-91.06247,65.67548],[-91.06247,65.67965],[-91.05466,65.67965],[-91.04685,65.67964],[-91.03903,65.67964],[-91.03903,65.67547],[-91.03122,65.67547],[-91.02341,65.67546],[-91.02341,65.67129],[-91.0156,65.67129],[-91.0156,65.66712]]]}},{"type":"Feature","properties":{"c":"100518","o":"Peregrine Diamonds Ltd. (100%)","e":"2024-11-04"},"geometry":{"type":"Polygon","coordinates":[[[-91.05466,65.66715],[-91.06247,65.66715],[-91.07029,65.66715],[-91.0781,65.66715],[-91.08591,65.66716],[-91.09373,65.66716],[-91.10154,65.66716],[-91.10935,65.66716],[-91.11716,65.66716],[-91.11716,65.67133],[-91.11716,65.67549],[-91.11716,65.67966],[-91.11716,65.68383],[-91.11716,65.688],[-91.11716,65.69216],[-91.10935,65.69216],[-91.10154,65.69216],[-91.09373,65.69216],[-91.09373,65.68799],[-91.08591,65.68799],[-91.0781,65.68799],[-91.07029,65.68799],[-91.07029,65.68382],[-91.06247,65.68382],[-91.05466,65.68381],[-91.05466,65.67965],[-91.05466,65.67548],[-91.05466,65.67131],[-91.05466,65.66715]]]}},{"type":"Feature","properties":{"c":"100519","o":"Peregrine Diamonds Ltd. (100%)","e":"2024-11-04"},"geometry":{"type":"Polygon","coordinates":[[[-91.14842,65.70049],[-91.1406,65.7005],[-91.13279,65.7005],[-91.12498,65.7005],[-91.12498,65.69633],[-91.11716,65.69633],[-91.10935,65.69633],[-91.10935,65.69216],[-91.10935,65.68799],[-91.10935,65.68383],[-91.10935,65.67966],[-91.10935,65.67549],[-91.10935,65.67133],[-91.10935,65.66716],[-91.11716,65.66716],[-91.12498,65.66716],[-91.13279,65.66716],[-91.1406,65.66716],[-91.14842,65.66716],[-91.15623,65.66716],[-91.16404,65.66716],[-91.16404,65.67132],[-91.16404,65.67549],[-91.16404,65.67966],[-91.16404,65.68382],[-91.16404,65.68799],[-91.16404,65.69216],[-91.16404,65.69632],[-91.16404,65.70049],[-91.16404,65.70466],[-91.15623,65.70466],[-91.14842,65.70466],[-91.14842,65.70049]]]}},{"type":"Feature","properties":{"c":"100520","o":"Peregrine Diamonds Ltd. (100%)","e":"2024-11-04"},"geometry":{"type":"Polygon","coordinates":[[[-91.10935,65.62549],[-91.11716,65.62549],[-91.12498,65.62549],[-91.13279,65.62549],[-91.1406,65.62549],[-91.14842,65.62549],[-91.15623,65.62549],[-91.16404,65.62549],[-91.16404,65.62965],[-91.16404,65.63382],[-91.16404,65.63799],[-91.16404,65.64215],[-91.16404,65.64632],[-91.16404,65.65049],[-91.16404,65.65466],[-91.16404,65.65882],[-91.16404,65.66299],[-91.16404,65.66716],[-91.16404,65.67132],[-91.15623,65.67132],[-91.14842,65.67133],[-91.1406,65.67133],[-91.13279,65.67133],[-91.12498,65.67133],[-91.11716,65.67133],[-91.10935,65.67133],[-91.10935,65.66716],[-91.10935,65.66299],[-91.10935,65.65883],[-91.10935,65.65466],[-91.10935,65.65049],[-91.10935,65.64633],[-91.10935,65.64216],[-91.10935,65.63799],[-91.10935,65.63383],[-91.10935,65.62966],[-91.10935,65.62549]]]}},{"type":"Feature","properties":{"c":"100521","o":"Peregrine Diamonds Ltd. (100%)","e":"2024-11-04"},"geometry":{"type":"Polygon","coordinates":[[[-91.21092,65.62547],[-91.21092,65.62963],[-91.21092,65.6338],[-91.21092,65.63797],[-91.21092,65.64214],[-91.21092,65.6463],[-91.21092,65.65047],[-91.21092,65.65464],[-91.21092,65.6588],[-91.21092,65.66297],[-91.21092,65.66714],[-91.21092,65.6713],[-91.20311,65.67131],[-91.19529,65.67131],[-91.18748,65.67131],[-91.17967,65.67132],[-91.17186,65.67132],[-91.16404,65.67132],[-91.15623,65.67132],[-91.15623,65.66716],[-91.15623,65.66299],[-91.15623,65.65882],[-91.15623,65.65466],[-91.15623,65.65049],[-91.15623,65.64632],[-91.15623,65.64216],[-91.15623,65.63799],[-91.15623,65.63382],[-91.15623,65.62966],[-91.15623,65.62549],[-91.16404,65.62549],[-91.17186,65.62549],[-91.17967,65.62548],[-91.18748,65.62548],[-91.19529,65.62548],[-91.20311,65.62547],[-91.21092,65.62547]]]}},{"type":"Feature","properties":{"c":"100522","o":"Peregrine Diamonds Ltd. (100%)","e":"2024-11-04"},"geometry":{"type":"Polygon","coordinates":[[[-91.16404,65.70466],[-91.15623,65.70466],[-91.15623,65.70049],[-91.15623,65.69633],[-91.15623,65.69216],[-91.15623,65.68799],[-91.15623,65.68383],[-91.15623,65.67966],[-91.15623,65.67549],[-91.15623,65.67132],[-91.15623,65.66716],[-91.16404,65.66716],[-91.17186,65.66715],[-91.17967,65.66715],[-91.18748,65.66715],[-91.19529,65.66714],[-91.20311,65.66714],[-91.21092,65.66714],[-91.21092,65.6713],[-91.21092,65.67547],[-91.21092,65.67964],[-91.21092,65.6838],[-91.21092,65.68797],[-91.21092,65.69214],[-91.21092,65.6963],[-91.21092,65.70047],[-91.21092,65.70464],[-91.21092,65.70881],[-91.20311,65.70881],[-91.19529,65.70881],[-91.18748,65.70882],[-91.17967,65.70882],[-91.17186,65.70882],[-91.16404,65.70883],[-91.16404,65.70466]]]}},{"type":"Feature","properties":{"c":"100523","o":"Peregrine Diamonds Ltd. (100%)","e":"2024-11-04"},"geometry":{"type":"Polygon","coordinates":[[[-91.24998,65.66711],[-91.24998,65.67128],[-91.24998,65.67544],[-91.24998,65.67961],[-91.24998,65.68378],[-91.24998,65.68794],[-91.24998,65.69211],[-91.24998,65.69628],[-91.24998,65.70044],[-91.24998,65.70461],[-91.24998,65.70878],[-91.24217,65.70878],[-91.23436,65.70879],[-91.22655,65.7088],[-91.21873,65.7088],[-91.21092,65.70881],[-91.20311,65.70881],[-91.20311,65.70464],[-91.20311,65.70048],[-91.20311,65.69631],[-91.20311,65.69214],[-91.20311,65.68798],[-91.20311,65.68381],[-91.20311,65.67964],[-91.20311,65.67547],[-91.20311,65.67131],[-91.20311,65.66714],[-91.21092,65.66714],[-91.21873,65.66713],[-91.22655,65.66713],[-91.23436,65.66712],[-91.24217,65.66712],[-91.24998,65.66711]]]}},{"type":"Feature","properties":{"c":"100524","o":"Peregrine Diamonds Ltd. (100%)","e":"2024-11-04"},"geometry":{"type":"Polygon","coordinates":[[[-91.24999,65.62544],[-91.24998,65.62961],[-91.24998,65.63377],[-91.24998,65.63794],[-91.24998,65.64211],[-91.24998,65.64627],[-91.24998,65.65044],[-91.24998,65.65461],[-91.24998,65.65878],[-91.24998,65.66294],[-91.24998,65.66711],[-91.24998,65.67128],[-91.24217,65.67128],[-91.23436,65.67129],[-91.22655,65.67129],[-91.21873,65.6713],[-91.21092,65.6713],[-91.20311,65.67131],[-91.20311,65.66714],[-91.20311,65.66297],[-91.20311,65.65881],[-91.20311,65.65464],[-91.20311,65.65047],[-91.20311,65.64631],[-91.20311,65.64214],[-91.20311,65.63797],[-91.20311,65.63381],[-91.20311,65.62964],[-91.20311,65.62547],[-91.21092,65.62547],[-91.21873,65.62546],[-91.22655,65.62546],[-91.23436,65.62545],[-91.24217,65.62545],[-91.24999,65.62544]]]}},{"type":"Feature","properties":{"c":"100525","o":"Peregrine Diamonds Ltd. (100%)","e":"2024-11-04"},"geometry":{"type":"Polygon","coordinates":[[[-91.24999,65.62127],[-91.24999,65.62544],[-91.24998,65.62961],[-91.24217,65.62961],[-91.23436,65.62962],[-91.22655,65.62963],[-91.21873,65.62963],[-91.21092,65.62963],[-91.20311,65.62964],[-91.20311,65.62547],[-91.20311,65.62131],[-91.21092,65.6213],[-91.21873,65.6213],[-91.22655,65.62129],[-91.23436,65.62129],[-91.24217,65.62128],[-91.24999,65.62127]]]}},{"type":"Feature","properties":{"c":"100526","o":"Peregrine Diamonds Ltd. (100%)","e":"2024-11-04"},"geometry":{"type":"Polygon","coordinates":[[[-91.21092,65.6213],[-91.21092,65.62547],[-91.21092,65.62963],[-91.20311,65.62964],[-91.19529,65.62964],[-91.18748,65.62965],[-91.17967,65.62965],[-91.17186,65.62965],[-91.16404,65.62965],[-91.15623,65.62966],[-91.15623,65.62549],[-91.15623,65.62132],[-91.16404,65.62132],[-91.17186,65.62132],[-91.17967,65.62132],[-91.18748,65.62131],[-91.19529,65.62131],[-91.20311,65.62131],[-91.21092,65.6213]]]}},{"type":"Feature","properties":{"c":"100323","o":"Peregrine Diamonds Ltd. (100%)","e":"2024-09-13"},"geometry":{"type":"Polygon","coordinates":[[[-90.95309,65.59631],[-90.95309,65.59214],[-90.95309,65.58797],[-90.95309,65.58381],[-90.95309,65.57964],[-90.95309,65.57547],[-90.95309,65.5713],[-90.95309,65.56714],[-90.95309,65.56297],[-90.95309,65.5588],[-90.95309,65.55464],[-90.96091,65.55463],[-90.96872,65.55463],[-90.97653,65.55462],[-90.98434,65.55462],[-90.99216,65.55461],[-90.99997,65.55461],[-91.00778,65.55461],[-91.0156,65.55462],[-91.0156,65.55878],[-91.0156,65.56295],[-91.0156,65.56712],[-91.0156,65.57129],[-91.0156,65.57545],[-91.0156,65.57962],[-91.00778,65.57961],[-91.00778,65.58378],[-91.00778,65.58795],[-91.00778,65.59211],[-91.00778,65.59628],[-91.00778,65.60045],[-90.99997,65.60044],[-90.99216,65.60045],[-90.98434,65.60045],[-90.97653,65.60046],[-90.96872,65.60046],[-90.96091,65.60047],[-90.95309,65.60047],[-90.95309,65.59631]]]}},{"type":"Feature","properties":{"c":"100327","o":"Peregrine Diamonds Ltd. (100%)","e":"2024-09-13"},"geometry":{"type":"Polygon","coordinates":[[[-90.95309,65.55464],[-90.95309,65.55047],[-90.95309,65.5463],[-90.95309,65.54214],[-90.95309,65.53797],[-90.95309,65.5338],[-90.96091,65.5338],[-90.96091,65.52963],[-90.96091,65.52546],[-90.96091,65.5213],[-90.96091,65.51713],[-90.96091,65.51296],[-90.96872,65.51296],[-90.97653,65.51295],[-90.98434,65.51295],[-90.99216,65.51294],[-90.99997,65.51294],[-91.00778,65.51294],[-91.0156,65.51295],[-91.0156,65.51712],[-91.0156,65.52128],[-91.0156,65.52545],[-91.0156,65.52962],[-91.0156,65.53378],[-91.0156,65.53795],[-91.0156,65.54212],[-91.0156,65.54628],[-91.0156,65.55045],[-91.0156,65.55462],[-91.0156,65.55878],[-91.00778,65.55878],[-90.99997,65.55877],[-90.99216,65.55878],[-90.98434,65.55878],[-90.97653,65.55879],[-90.96872,65.5588],[-90.96091,65.5588],[-90.95309,65.5588],[-90.95309,65.55464]]]}},{"type":"Feature","properties":{"c":"100130","o":"Peregrine Diamonds Ltd. (100%)","e":"2024-07-30"},"geometry":{"type":"Polygon","coordinates":[[[-91.24999,65.4921],[-91.24999,65.49627],[-91.24999,65.50043],[-91.24999,65.5046],[-91.24999,65.50877],[-91.24999,65.51294],[-91.24999,65.5171],[-91.24217,65.51711],[-91.23436,65.51711],[-91.22655,65.51712],[-91.21873,65.51712],[-91.21092,65.51713],[-91.20311,65.51713],[-91.20311,65.51297],[-91.20311,65.5088],[-91.20311,65.50463],[-91.20311,65.50047],[-91.20311,65.4963],[-91.21092,65.4963],[-91.21092,65.49213],[-91.21873,65.49212],[-91.22655,65.49212],[-91.23436,65.49211],[-91.24217,65.49211],[-91.24999,65.4921]]]}},{"type":"Feature","properties":{"c":"100128","o":"Peregrine Diamonds Ltd. (100%)","e":"2024-07-30"},"geometry":{"type":"Polygon","coordinates":[[[-91.29686,65.57547],[-91.30468,65.57547],[-91.31249,65.57548],[-91.3203,65.57548],[-91.32811,65.57548],[-91.33593,65.57548],[-91.34374,65.57549],[-91.35155,65.57549],[-91.35155,65.57965],[-91.35155,65.58382],[-91.35155,65.58799],[-91.35155,65.59215],[-91.35155,65.59632],[-91.35155,65.60049],[-91.35155,65.60466],[-91.35155,65.60882],[-91.35155,65.61299],[-91.35155,65.61716],[-91.35155,65.62132],[-91.34374,65.62132],[-91.33593,65.62132],[-91.32811,65.62132],[-91.3203,65.62131],[-91.31249,65.62131],[-91.30468,65.62131],[-91.29686,65.6213],[-91.29686,65.61714],[-91.29686,65.61297],[-91.29686,65.6088],[-91.29686,65.60464],[-91.29686,65.60047],[-91.29686,65.5963],[-91.29686,65.59214],[-91.29686,65.58797],[-91.29686,65.5838],[-91.29686,65.57964],[-91.29686,65.57547]]]}}]}