{"type":"FeatureCollection","features":[{"type":"Feature","properties":{"c":"880009","o":"","e":""},"geometry":{"type":"Polygon","coordinates":[[[-91.1375,49.82083],[-91.1375,49.825],[-91.13125,49.825],[-91.125,49.825],[-91.11875,49.825],[-91.11875,49.82083],[-91.11875,49.81667],[-91.11875,49.8125],[-91.125,49.8125],[-91.13125,49.8125],[-91.1375,49.8125],[-91.1375,49.81667],[-91.1375,49.82083]]]}},{"type":"Feature","properties":{"c":"963205","o":"","e":""},"geometry":{"type":"Polygon","coordinates":[[[-91.05625,49.9125],[-91.05625,49.91667],[-91.05,49.91667],[-91.05,49.9125],[-91.05625,49.9125]]]}},{"type":"Feature","properties":{"c":"963206","o":"","e":""},"geometry":{"type":"Polygon","coordinates":[[[-91.05625,49.91667],[-91.05625,49.92083],[-91.05,49.92083],[-91.05,49.91667],[-91.05625,49.91667]]]}},{"type":"Feature","properties":{"c":"963207","o":"","e":""},"geometry":{"type":"Polygon","coordinates":[[[-91.05,49.9125],[-91.05,49.91667],[-91.04375,49.91667],[-91.04375,49.9125],[-91.05,49.9125]]]}},{"type":"Feature","properties":{"c":"963208","o":"","e":""},"geometry":{"type":"Polygon","coordinates":[[[-91.05,49.91667],[-91.05,49.92083],[-91.04375,49.92083],[-91.04375,49.91667],[-91.05,49.91667]]]}},{"type":"Feature","properties":{"c":"963209","o":"","e":""},"geometry":{"type":"Polygon","coordinates":[[[-91.0625,49.91667],[-91.0625,49.92083],[-91.05625,49.92083],[-91.05625,49.91667],[-91.0625,49.91667]]]}},{"type":"Feature","properties":{"c":"963210","o":"","e":""},"geometry":{"type":"Polygon","coordinates":[[[-91.0625,49.9125],[-91.0625,49.91667],[-91.05625,49.91667],[-91.05625,49.9125],[-91.0625,49.9125]]]}},{"type":"Feature","properties":{"c":"1021049","o":"","e":""},"geometry":{"type":"Polygon","coordinates":[[[-91.04375,49.975],[-91.04375,49.97917],[-91.0375,49.97917],[-91.0375,49.975],[-91.04375,49.975]]]}},{"type":"Feature","properties":{"c":"1021050","o":"","e":""},"geometry":{"type":"Polygon","coordinates":[[[-91.04375,49.9625],[-91.04375,49.96667],[-91.0375,49.96667],[-91.0375,49.9625],[-91.04375,49.9625]]]}},{"type":"Feature","properties":{"c":"1021051","o":"","e":""},"geometry":{"type":"Polygon","coordinates":[[[-91.0375,49.96667],[-91.0375,49.97083],[-91.03125,49.97083],[-91.03125,49.96667],[-91.0375,49.96667]]]}},{"type":"Feature","properties":{"c":"1021052","o":"","e":""},"geometry":{"type":"Polygon","coordinates":[[[-91.0375,49.97083],[-91.0375,49.975],[-91.03125,49.975],[-91.03125,49.97083],[-91.0375,49.97083]]]}},{"type":"Feature","properties":{"c":"1021053","o":"","e":""},"geometry":{"type":"Polygon","coordinates":[[[-91.0375,49.975],[-91.0375,49.97917],[-91.03125,49.97917],[-91.03125,49.975],[-91.0375,49.975]]]}},{"type":"Feature","properties":{"c":"1021058","o":"","e":""},"geometry":{"type":"Polygon","coordinates":[[[-91.01875,49.975],[-91.01875,49.97917],[-91.0125,49.97917],[-91.0125,49.975],[-91.01875,49.975]]]}},{"type":"Feature","properties":{"c":"1021054","o":"","e":""},"geometry":{"type":"Polygon","coordinates":[[[-91.025,49.96667],[-91.025,49.97083],[-91.01875,49.97083],[-91.01875,49.96667],[-91.025,49.96667]]]}},{"type":"Feature","properties":{"c":"1021055","o":"","e":""},"geometry":{"type":"Polygon","coordinates":[[[-91.025,49.97083],[-91.025,49.975],[-91.01875,49.975],[-91.01875,49.97083],[-91.025,49.97083]]]}},{"type":"Feature","properties":{"c":"1021056","o":"","e":""},"geometry":{"type":"Polygon","coordinates":[[[-91.0125,49.975],[-91.0125,49.97917],[-91.00625,49.97917],[-91.00625,49.975],[-91.0125,49.975]]]}},{"type":"Feature","properties":{"c":"1021057","o":"","e":""},"geometry":{"type":"Polygon","coordinates":[[[-91.025,49.9625],[-91.025,49.96667],[-91.01875,49.96667],[-91.01875,49.9625],[-91.025,49.9625]]]}},{"type":"Feature","properties":{"c":"887545","o":"","e":""},"geometry":{"type":"Polygon","coordinates":[[[-91.0375,49.92917],[-91.0375,49.93333],[-91.03125,49.93333],[-91.03125,49.92917],[-91.0375,49.92917]]]}},{"type":"Feature","properties":{"c":"887546","o":"","e":""},"geometry":{"type":"Polygon","coordinates":[[[-91.0375,49.925],[-91.0375,49.92917],[-91.03125,49.92917],[-91.03125,49.925],[-91.0375,49.925]]]}},{"type":"Feature","properties":{"c":"1021019","o":"","e":""},"geometry":{"type":"Polygon","coordinates":[[[-91.14375,49.9125],[-91.14375,49.91667],[-91.1375,49.91667],[-91.1375,49.9125],[-91.14375,49.9125]]]}},{"type":"Feature","properties":{"c":"1021020","o":"","e":""},"geometry":{"type":"Polygon","coordinates":[[[-91.14375,49.9],[-91.14375,49.90417],[-91.1375,49.90417],[-91.1375,49.9],[-91.14375,49.9]]]}},{"type":"Feature","properties":{"c":"1021021","o":"","e":""},"geometry":{"type":"Polygon","coordinates":[[[-91.14375,49.90417],[-91.14375,49.90833],[-91.1375,49.90833],[-91.1375,49.90417],[-91.14375,49.90417]]]}},{"type":"Feature","properties":{"c":"1021024","o":"","e":""},"geometry":{"type":"Polygon","coordinates":[[[-91.1375,49.91667],[-91.1375,49.92083],[-91.13125,49.92083],[-91.13125,49.91667],[-91.1375,49.91667]]]}},{"type":"Feature","properties":{"c":"1021022","o":"","e":""},"geometry":{"type":"Polygon","coordinates":[[[-91.14375,49.90833],[-91.14375,49.9125],[-91.1375,49.9125],[-91.1375,49.90833],[-91.14375,49.90833]]]}},{"type":"Feature","properties":{"c":"1021023","o":"","e":""},"geometry":{"type":"Polygon","coordinates":[[[-91.13125,49.91667],[-91.13125,49.92083],[-91.125,49.92083],[-91.125,49.91667],[-91.13125,49.91667]]]}},{"type":"Feature","properties":{"c":"1021025","o":"","e":""},"geometry":{"type":"Polygon","coordinates":[[[-91.125,49.91667],[-91.125,49.92083],[-91.11875,49.92083],[-91.11875,49.91667],[-91.125,49.91667]]]}},{"type":"Feature","properties":{"c":"1021040","o":"","e":""},"geometry":{"type":"Polygon","coordinates":[[[-91.0375,49.93333],[-91.0375,49.9375],[-91.03125,49.9375],[-91.03125,49.93333],[-91.0375,49.93333]]]}},{"type":"Feature","properties":{"c":"1021048","o":"","e":""},"geometry":{"type":"Polygon","coordinates":[[[-91.0375,49.9625],[-91.0375,49.96667],[-91.03125,49.96667],[-91.03125,49.9625],[-91.0375,49.9625]]]}},{"type":"Feature","properties":{"c":"583501","o":"","e":""},"geometry":{"type":"Polygon","coordinates":[[[-91.1,49.875],[-91.09375,49.875],[-91.0875,49.875],[-91.08125,49.875],[-91.08125,49.87083],[-91.08125,49.86667],[-91.0875,49.86667],[-91.09375,49.86667],[-91.1,49.86667],[-91.1,49.87083],[-91.1,49.875]]]}},{"type":"Feature","properties":{"c":"537085","o":"","e":""},"geometry":{"type":"Polygon","coordinates":[[[-91.0875,49.84583],[-91.0875,49.85],[-91.08125,49.85],[-91.08125,49.84583],[-91.0875,49.84583]]]}},{"type":"Feature","properties":{"c":"1071509","o":"","e":""},"geometry":{"type":"Polygon","coordinates":[[[-91.25,49.775],[-91.25,49.77917],[-91.25,49.78333],[-91.25,49.7875],[-91.25,49.79167],[-91.24375,49.79167],[-91.2375,49.79167],[-91.2375,49.79583],[-91.23125,49.79583],[-91.225,49.79583],[-91.21875,49.79583],[-91.2125,49.79583],[-91.2125,49.79167],[-91.2125,49.7875],[-91.2125,49.78333],[-91.21875,49.78333],[-91.225,49.78333],[-91.23125,49.78333],[-91.2375,49.78333],[-91.2375,49.77917],[-91.2375,49.775],[-91.23125,49.775],[-91.23125,49.77083],[-91.2375,49.77083],[-91.2375,49.76667],[-91.24375,49.76667],[-91.25,49.76667],[-91.25,49.77083],[-91.25,49.775]]]}},{"type":"Feature","properties":{"c":"583504","o":"","e":""},"geometry":{"type":"Polygon","coordinates":[[[-91.15,49.8625],[-91.15,49.86667],[-91.14375,49.86667],[-91.1375,49.86667],[-91.1375,49.8625],[-91.1375,49.85833],[-91.1375,49.85417],[-91.14375,49.85417],[-91.15,49.85417],[-91.15,49.85833],[-91.15,49.8625]]]}},{"type":"Feature","properties":{"c":"962357","o":"","e":""},"geometry":{"type":"Polygon","coordinates":[[[-91.03125,49.97083],[-91.03125,49.975],[-91.025,49.975],[-91.025,49.97083],[-91.03125,49.97083]]]}},{"type":"Feature","properties":{"c":"583503","o":"","e":""},"geometry":{"type":"Polygon","coordinates":[[[-91.16875,49.86667],[-91.1625,49.86667],[-91.15625,49.86667],[-91.15,49.86667],[-91.15,49.8625],[-91.15,49.85833],[-91.15625,49.85833],[-91.1625,49.85833],[-91.16875,49.85833],[-91.16875,49.8625],[-91.16875,49.86667]]]}},{"type":"Feature","properties":{"c":"583523","o":"","e":""},"geometry":{"type":"Polygon","coordinates":[[[-91.16875,49.85833],[-91.1625,49.85833],[-91.15625,49.85833],[-91.15,49.85833],[-91.15,49.85417],[-91.15625,49.85417],[-91.15625,49.85],[-91.1625,49.85],[-91.16875,49.85],[-91.16875,49.85417],[-91.16875,49.85833]]]}},{"type":"Feature","properties":{"c":"880007","o":"","e":""},"geometry":{"type":"Polygon","coordinates":[[[-91.16875,49.83333],[-91.1625,49.83333],[-91.15625,49.83333],[-91.15,49.83333],[-91.14375,49.83333],[-91.1375,49.83333],[-91.13125,49.83333],[-91.125,49.83333],[-91.125,49.82917],[-91.125,49.825],[-91.13125,49.825],[-91.1375,49.825],[-91.14375,49.825],[-91.15,49.825],[-91.15625,49.825],[-91.1625,49.825],[-91.16875,49.825],[-91.16875,49.82917],[-91.16875,49.83333]]]}},{"type":"Feature","properties":{"c":"1021047","o":"","e":""},"geometry":{"type":"Polygon","coordinates":[[[-91.03125,49.94167],[-91.03125,49.94583],[-91.025,49.94583],[-91.025,49.94167],[-91.03125,49.94167]]]}},{"type":"Feature","properties":{"c":"1021041","o":"","e":""},"geometry":{"type":"Polygon","coordinates":[[[-91.03125,49.94583],[-91.03125,49.95],[-91.025,49.95],[-91.025,49.94583],[-91.03125,49.94583]]]}},{"type":"Feature","properties":{"c":"1021042","o":"","e":""},"geometry":{"type":"Polygon","coordinates":[[[-91.03125,49.95],[-91.03125,49.95417],[-91.025,49.95417],[-91.025,49.95],[-91.03125,49.95]]]}},{"type":"Feature","properties":{"c":"1021043","o":"","e":""},"geometry":{"type":"Polygon","coordinates":[[[-91.03125,49.9375],[-91.03125,49.94167],[-91.025,49.94167],[-91.025,49.9375],[-91.03125,49.9375]]]}},{"type":"Feature","properties":{"c":"1021044","o":"","e":""},"geometry":{"type":"Polygon","coordinates":[[[-91.03125,49.95833],[-91.03125,49.9625],[-91.025,49.9625],[-91.025,49.95833],[-91.03125,49.95833]]]}},{"type":"Feature","properties":{"c":"1021045","o":"","e":""},"geometry":{"type":"Polygon","coordinates":[[[-91.03125,49.95417],[-91.03125,49.95833],[-91.025,49.95833],[-91.025,49.95417],[-91.03125,49.95417]]]}},{"type":"Feature","properties":{"c":"1021046","o":"","e":""},"geometry":{"type":"Polygon","coordinates":[[[-91.03125,49.9625],[-91.03125,49.96667],[-91.025,49.96667],[-91.025,49.9625],[-91.03125,49.9625]]]}},{"type":"Feature","properties":{"c":"880011","o":"","e":""},"geometry":{"type":"Polygon","coordinates":[[[-91.175,49.83333],[-91.175,49.8375],[-91.175,49.84167],[-91.175,49.84583],[-91.16875,49.84583],[-91.16875,49.84167],[-91.16875,49.8375],[-91.16875,49.83333],[-91.16875,49.82917],[-91.16875,49.825],[-91.175,49.825],[-91.175,49.82917],[-91.175,49.83333]]]}},{"type":"Feature","properties":{"c":"536921","o":"","e":""},"geometry":{"type":"Polygon","coordinates":[[[-91.0875,49.84167],[-91.0875,49.84583],[-91.08125,49.84583],[-91.08125,49.84167],[-91.0875,49.84167]]]}},{"type":"Feature","properties":{"c":"893253","o":"","e":""},"geometry":{"type":"Polygon","coordinates":[[[-91.125,49.83333],[-91.125,49.8375],[-91.11875,49.8375],[-91.1125,49.8375],[-91.10625,49.8375],[-91.1,49.8375],[-91.1,49.83333],[-91.10625,49.83333],[-91.1125,49.83333],[-91.11875,49.83333],[-91.125,49.83333]]]}},{"type":"Feature","properties":{"c":"583524","o":"","e":""},"geometry":{"type":"Polygon","coordinates":[[[-91.15625,49.85417],[-91.15,49.85417],[-91.14375,49.85417],[-91.1375,49.85417],[-91.1375,49.85],[-91.1375,49.84583],[-91.14375,49.84583],[-91.15,49.84583],[-91.15625,49.84583],[-91.15625,49.85],[-91.15625,49.85417]]]}},{"type":"Feature","properties":{"c":"583525","o":"","e":""},"geometry":{"type":"Polygon","coordinates":[[[-91.1375,49.85417],[-91.13125,49.85417],[-91.125,49.85417],[-91.11875,49.85417],[-91.11875,49.85],[-91.11875,49.84583],[-91.125,49.84583],[-91.13125,49.84583],[-91.1375,49.84583],[-91.1375,49.85],[-91.1375,49.85417]]]}},{"type":"Feature","properties":{"c":"880012","o":"","e":""},"geometry":{"type":"Polygon","coordinates":[[[-91.18125,49.86667],[-91.18125,49.87083],[-91.175,49.87083],[-91.175,49.875],[-91.175,49.87917],[-91.16875,49.87917],[-91.16875,49.875],[-91.16875,49.87083],[-91.16875,49.86667],[-91.175,49.86667],[-91.175,49.8625],[-91.16875,49.8625],[-91.16875,49.85833],[-91.16875,49.85417],[-91.16875,49.85],[-91.16875,49.84583],[-91.175,49.84583],[-91.175,49.85],[-91.175,49.85417],[-91.175,49.85833],[-91.18125,49.85833],[-91.18125,49.8625],[-91.18125,49.86667]]]}},{"type":"Feature","properties":{"c":"1071512","o":"","e":""},"geometry":{"type":"Polygon","coordinates":[[[-91.29375,49.76667],[-91.29375,49.77083],[-91.29375,49.775],[-91.29375,49.77917],[-91.2875,49.77917],[-91.28125,49.77917],[-91.275,49.77917],[-91.26875,49.77917],[-91.26875,49.775],[-91.26875,49.77083],[-91.26875,49.76667],[-91.26875,49.7625],[-91.26875,49.75833],[-91.275,49.75833],[-91.28125,49.75833],[-91.2875,49.75833],[-91.29375,49.75833],[-91.29375,49.7625],[-91.29375,49.76667]]]}},{"type":"Feature","properties":{"c":"1071511","o":"","e":""},"geometry":{"type":"Polygon","coordinates":[[[-91.29375,49.7875],[-91.2875,49.7875],[-91.2875,49.79167],[-91.2875,49.79583],[-91.2875,49.8],[-91.28125,49.8],[-91.275,49.8],[-91.26875,49.8],[-91.26875,49.79583],[-91.26875,49.79167],[-91.26875,49.7875],[-91.26875,49.78333],[-91.26875,49.77917],[-91.275,49.77917],[-91.28125,49.77917],[-91.2875,49.77917],[-91.29375,49.77917],[-91.29375,49.78333],[-91.29375,49.7875]]]}},{"type":"Feature","properties":{"c":"880008","o":"","e":""},"geometry":{"type":"Polygon","coordinates":[[[-91.16875,49.82083],[-91.16875,49.825],[-91.1625,49.825],[-91.15625,49.825],[-91.15,49.825],[-91.14375,49.825],[-91.1375,49.825],[-91.1375,49.82083],[-91.1375,49.81667],[-91.1375,49.8125],[-91.14375,49.8125],[-91.15,49.8125],[-91.15,49.81667],[-91.15625,49.81667],[-91.1625,49.81667],[-91.1625,49.82083],[-91.16875,49.82083]]]}},{"type":"Feature","properties":{"c":"1058933","o":"","e":""},"geometry":{"type":"Polygon","coordinates":[[[-91.11875,49.89167],[-91.11875,49.89583],[-91.1125,49.89583],[-91.1125,49.89167],[-91.11875,49.89167]]]}},{"type":"Feature","properties":{"c":"1058939","o":"","e":""},"geometry":{"type":"Polygon","coordinates":[[[-91.1375,49.89583],[-91.1375,49.9],[-91.13125,49.9],[-91.13125,49.89583],[-91.1375,49.89583]]]}},{"type":"Feature","properties":{"c":"1058934","o":"","e":""},"geometry":{"type":"Polygon","coordinates":[[[-91.1,49.9],[-91.1,49.90417],[-91.09375,49.90417],[-91.09375,49.9],[-91.1,49.9]]]}},{"type":"Feature","properties":{"c":"1058935","o":"","e":""},"geometry":{"type":"Polygon","coordinates":[[[-91.1375,49.89167],[-91.1375,49.89583],[-91.13125,49.89583],[-91.13125,49.89167],[-91.1375,49.89167]]]}},{"type":"Feature","properties":{"c":"1058936","o":"","e":""},"geometry":{"type":"Polygon","coordinates":[[[-91.125,49.89167],[-91.125,49.89583],[-91.11875,49.89583],[-91.11875,49.89167],[-91.125,49.89167]]]}},{"type":"Feature","properties":{"c":"1058937","o":"","e":""},"geometry":{"type":"Polygon","coordinates":[[[-91.1125,49.89167],[-91.1125,49.89583],[-91.10625,49.89583],[-91.10625,49.89167],[-91.1125,49.89167]]]}},{"type":"Feature","properties":{"c":"1058938","o":"","e":""},"geometry":{"type":"Polygon","coordinates":[[[-91.13125,49.89167],[-91.13125,49.89583],[-91.125,49.89583],[-91.125,49.89167],[-91.13125,49.89167]]]}},{"type":"Feature","properties":{"c":"1058927","o":"","e":""},"geometry":{"type":"Polygon","coordinates":[[[-91.13125,49.89583],[-91.13125,49.9],[-91.125,49.9],[-91.125,49.89583],[-91.13125,49.89583]]]}},{"type":"Feature","properties":{"c":"1058928","o":"","e":""},"geometry":{"type":"Polygon","coordinates":[[[-91.1125,49.89583],[-91.1125,49.9],[-91.10625,49.9],[-91.10625,49.89583],[-91.1125,49.89583]]]}},{"type":"Feature","properties":{"c":"1058929","o":"","e":""},"geometry":{"type":"Polygon","coordinates":[[[-91.1125,49.9],[-91.1125,49.90417],[-91.10625,49.90417],[-91.10625,49.9],[-91.1125,49.9]]]}},{"type":"Feature","properties":{"c":"1058930","o":"","e":""},"geometry":{"type":"Polygon","coordinates":[[[-91.10625,49.89583],[-91.10625,49.9],[-91.1,49.9],[-91.1,49.89583],[-91.10625,49.89583]]]}},{"type":"Feature","properties":{"c":"1058931","o":"","e":""},"geometry":{"type":"Polygon","coordinates":[[[-91.10625,49.9],[-91.10625,49.90417],[-91.1,49.90417],[-91.1,49.9],[-91.10625,49.9]]]}},{"type":"Feature","properties":{"c":"1058932","o":"","e":""},"geometry":{"type":"Polygon","coordinates":[[[-91.125,49.89583],[-91.125,49.9],[-91.11875,49.9],[-91.11875,49.89583],[-91.125,49.89583]]]}},{"type":"Feature","properties":{"c":"1021038","o":"","e":""},"geometry":{"type":"Polygon","coordinates":[[[-91.04375,49.92917],[-91.04375,49.93333],[-91.0375,49.93333],[-91.0375,49.92917],[-91.04375,49.92917]]]}},{"type":"Feature","properties":{"c":"1021039","o":"","e":""},"geometry":{"type":"Polygon","coordinates":[[[-91.04375,49.925],[-91.04375,49.92917],[-91.0375,49.92917],[-91.0375,49.925],[-91.04375,49.925]]]}},{"type":"Feature","properties":{"c":"1036037","o":"","e":""},"geometry":{"type":"Polygon","coordinates":[[[-91.30625,49.80833],[-91.30625,49.8125],[-91.3,49.8125],[-91.3,49.80833],[-91.30625,49.80833]]]}},{"type":"Feature","properties":{"c":"1036038","o":"","e":""},"geometry":{"type":"Polygon","coordinates":[[[-91.3,49.81667],[-91.3,49.82083],[-91.29375,49.82083],[-91.29375,49.81667],[-91.3,49.81667]]]}},{"type":"Feature","properties":{"c":"1036039","o":"","e":""},"geometry":{"type":"Polygon","coordinates":[[[-91.3125,49.8125],[-91.3125,49.81667],[-91.30625,49.81667],[-91.30625,49.8125],[-91.3125,49.8125]]]}},{"type":"Feature","properties":{"c":"1036040","o":"","e":""},"geometry":{"type":"Polygon","coordinates":[[[-91.30625,49.81667],[-91.30625,49.82083],[-91.3,49.82083],[-91.3,49.81667],[-91.30625,49.81667]]]}},{"type":"Feature","properties":{"c":"1036041","o":"","e":""},"geometry":{"type":"Polygon","coordinates":[[[-91.30625,49.8125],[-91.30625,49.81667],[-91.3,49.81667],[-91.3,49.8125],[-91.30625,49.8125]]]}},{"type":"Feature","properties":{"c":"1036042","o":"","e":""},"geometry":{"type":"Polygon","coordinates":[[[-91.3125,49.80833],[-91.3125,49.8125],[-91.30625,49.8125],[-91.30625,49.80833],[-91.3125,49.80833]]]}},{"type":"Feature","properties":{"c":"959576","o":"","e":""},"geometry":{"type":"Polygon","coordinates":[[[-91.125,49.83333],[-91.11875,49.83333],[-91.1125,49.83333],[-91.10625,49.83333],[-91.10625,49.82917],[-91.1,49.82917],[-91.09375,49.82917],[-91.09375,49.825],[-91.09375,49.82083],[-91.09375,49.81667],[-91.09375,49.8125],[-91.1,49.8125],[-91.10625,49.8125],[-91.1125,49.8125],[-91.11875,49.8125],[-91.11875,49.81667],[-91.11875,49.82083],[-91.11875,49.825],[-91.125,49.825],[-91.125,49.82917],[-91.125,49.83333]]]}},{"type":"Feature","properties":{"c":"1021032","o":"","e":""},"geometry":{"type":"Polygon","coordinates":[[[-91.06875,49.92083],[-91.06875,49.925],[-91.0625,49.925],[-91.0625,49.92083],[-91.06875,49.92083]]]}},{"type":"Feature","properties":{"c":"1021026","o":"","e":""},"geometry":{"type":"Polygon","coordinates":[[[-91.11875,49.92083],[-91.11875,49.925],[-91.1125,49.925],[-91.1125,49.92083],[-91.11875,49.92083]]]}},{"type":"Feature","properties":{"c":"1021027","o":"","e":""},"geometry":{"type":"Polygon","coordinates":[[[-91.1125,49.92083],[-91.1125,49.925],[-91.10625,49.925],[-91.10625,49.92083],[-91.1125,49.92083]]]}},{"type":"Feature","properties":{"c":"1021028","o":"","e":""},"geometry":{"type":"Polygon","coordinates":[[[-91.10625,49.92083],[-91.10625,49.925],[-91.1,49.925],[-91.1,49.92083],[-91.10625,49.92083]]]}},{"type":"Feature","properties":{"c":"1021029","o":"","e":""},"geometry":{"type":"Polygon","coordinates":[[[-91.0875,49.92083],[-91.0875,49.925],[-91.08125,49.925],[-91.08125,49.92083],[-91.0875,49.92083]]]}},{"type":"Feature","properties":{"c":"1021030","o":"","e":""},"geometry":{"type":"Polygon","coordinates":[[[-91.05,49.92083],[-91.05,49.925],[-91.04375,49.925],[-91.04375,49.92083],[-91.05,49.92083]]]}},{"type":"Feature","properties":{"c":"1021031","o":"","e":""},"geometry":{"type":"Polygon","coordinates":[[[-91.08125,49.92083],[-91.08125,49.925],[-91.075,49.925],[-91.075,49.92083],[-91.08125,49.92083]]]}},{"type":"Feature","properties":{"c":"586196","o":"","e":""},"geometry":{"type":"Polygon","coordinates":[[[-91.11875,49.85417],[-91.1125,49.85417],[-91.10625,49.85417],[-91.1,49.85417],[-91.1,49.85],[-91.1,49.84583],[-91.10625,49.84583],[-91.1125,49.84583],[-91.11875,49.84583],[-91.11875,49.85],[-91.11875,49.85417]]]}},{"type":"Feature","properties":{"c":"586194","o":"","e":""},"geometry":{"type":"Polygon","coordinates":[[[-91.075,49.8625],[-91.075,49.86667],[-91.06875,49.86667],[-91.0625,49.86667],[-91.0625,49.8625],[-91.0625,49.85833],[-91.0625,49.85417],[-91.06875,49.85417],[-91.075,49.85417],[-91.075,49.85833],[-91.075,49.8625]]]}},{"type":"Feature","properties":{"c":"586193","o":"","e":""},"geometry":{"type":"Polygon","coordinates":[[[-91.0875,49.8625],[-91.0875,49.86667],[-91.08125,49.86667],[-91.075,49.86667],[-91.075,49.8625],[-91.075,49.85833],[-91.075,49.85417],[-91.08125,49.85417],[-91.0875,49.85417],[-91.0875,49.85833],[-91.0875,49.8625]]]}},{"type":"Feature","properties":{"c":"586192","o":"","e":""},"geometry":{"type":"Polygon","coordinates":[[[-91.1,49.8625],[-91.1,49.86667],[-91.09375,49.86667],[-91.0875,49.86667],[-91.0875,49.8625],[-91.0875,49.85833],[-91.0875,49.85417],[-91.09375,49.85417],[-91.1,49.85417],[-91.1,49.85833],[-91.1,49.8625]]]}},{"type":"Feature","properties":{"c":"586191","o":"","e":""},"geometry":{"type":"Polygon","coordinates":[[[-91.1125,49.8625],[-91.1125,49.86667],[-91.10625,49.86667],[-91.1,49.86667],[-91.1,49.8625],[-91.1,49.85833],[-91.1,49.85417],[-91.10625,49.85417],[-91.1125,49.85417],[-91.1125,49.85833],[-91.1125,49.8625]]]}},{"type":"Feature","properties":{"c":"887983","o":"","e":""},"geometry":{"type":"Polygon","coordinates":[[[-91.025,49.93333],[-91.025,49.9375],[-91.01875,49.9375],[-91.01875,49.93333],[-91.025,49.93333]]]}},{"type":"Feature","properties":{"c":"583680","o":"","e":""},"geometry":{"type":"Polygon","coordinates":[[[-91.04375,49.8125],[-91.0375,49.8125],[-91.03125,49.8125],[-91.025,49.8125],[-91.025,49.80833],[-91.025,49.80417],[-91.03125,49.80417],[-91.0375,49.80417],[-91.04375,49.80417],[-91.04375,49.80833],[-91.04375,49.8125]]]}},{"type":"Feature","properties":{"c":"583679","o":"","e":""},"geometry":{"type":"Polygon","coordinates":[[[-91.0625,49.8125],[-91.05625,49.8125],[-91.05,49.8125],[-91.04375,49.8125],[-91.04375,49.80833],[-91.04375,49.80417],[-91.05,49.80417],[-91.05625,49.80417],[-91.0625,49.80417],[-91.0625,49.80833],[-91.0625,49.8125]]]}},{"type":"Feature","properties":{"c":"1058943","o":"","e":""},"geometry":{"type":"Polygon","coordinates":[[[-91.10625,49.90417],[-91.10625,49.90833],[-91.1,49.90833],[-91.1,49.90417],[-91.10625,49.90417]]]}},{"type":"Feature","properties":{"c":"1058944","o":"","e":""},"geometry":{"type":"Polygon","coordinates":[[[-91.0875,49.9125],[-91.0875,49.91667],[-91.08125,49.91667],[-91.08125,49.9125],[-91.0875,49.9125]]]}},{"type":"Feature","properties":{"c":"1058945","o":"","e":""},"geometry":{"type":"Polygon","coordinates":[[[-91.1,49.90833],[-91.1,49.9125],[-91.09375,49.9125],[-91.09375,49.90833],[-91.1,49.90833]]]}},{"type":"Feature","properties":{"c":"1058946","o":"","e":""},"geometry":{"type":"Polygon","coordinates":[[[-91.10625,49.90833],[-91.10625,49.9125],[-91.1,49.9125],[-91.1,49.90833],[-91.10625,49.90833]]]}},{"type":"Feature","properties":{"c":"1058940","o":"","e":""},"geometry":{"type":"Polygon","coordinates":[[[-91.11875,49.89583],[-91.11875,49.9],[-91.1125,49.9],[-91.1125,49.89583],[-91.11875,49.89583]]]}},{"type":"Feature","properties":{"c":"1058941","o":"","e":""},"geometry":{"type":"Polygon","coordinates":[[[-91.1,49.9125],[-91.1,49.91667],[-91.09375,49.91667],[-91.09375,49.9125],[-91.1,49.9125]]]}},{"type":"Feature","properties":{"c":"1058942","o":"","e":""},"geometry":{"type":"Polygon","coordinates":[[[-91.09375,49.9125],[-91.09375,49.91667],[-91.0875,49.91667],[-91.0875,49.9125],[-91.09375,49.9125]]]}},{"type":"Feature","properties":{"c":"1021033","o":"","e":""},"geometry":{"type":"Polygon","coordinates":[[[-91.1,49.92083],[-91.1,49.925],[-91.09375,49.925],[-91.09375,49.92083],[-91.1,49.92083]]]}},{"type":"Feature","properties":{"c":"1021034","o":"","e":""},"geometry":{"type":"Polygon","coordinates":[[[-91.0625,49.92083],[-91.0625,49.925],[-91.05625,49.925],[-91.05625,49.92083],[-91.0625,49.92083]]]}},{"type":"Feature","properties":{"c":"1021035","o":"","e":""},"geometry":{"type":"Polygon","coordinates":[[[-91.05625,49.92083],[-91.05625,49.925],[-91.05,49.925],[-91.05,49.92083],[-91.05625,49.92083]]]}},{"type":"Feature","properties":{"c":"1021036","o":"","e":""},"geometry":{"type":"Polygon","coordinates":[[[-91.09375,49.92083],[-91.09375,49.925],[-91.0875,49.925],[-91.0875,49.92083],[-91.09375,49.92083]]]}},{"type":"Feature","properties":{"c":"1021037","o":"","e":""},"geometry":{"type":"Polygon","coordinates":[[[-91.075,49.92083],[-91.075,49.925],[-91.06875,49.925],[-91.06875,49.92083],[-91.075,49.92083]]]}},{"type":"Feature","properties":{"c":"1058909","o":"","e":""},"geometry":{"type":"Polygon","coordinates":[[[-91.0875,49.9375],[-91.0875,49.94167],[-91.08125,49.94167],[-91.08125,49.9375],[-91.0875,49.9375]]]}},{"type":"Feature","properties":{"c":"1058910","o":"","e":""},"geometry":{"type":"Polygon","coordinates":[[[-91.0875,49.94167],[-91.0875,49.94583],[-91.08125,49.94583],[-91.08125,49.94167],[-91.0875,49.94167]]]}},{"type":"Feature","properties":{"c":"1058911","o":"","e":""},"geometry":{"type":"Polygon","coordinates":[[[-91.075,49.9375],[-91.075,49.94167],[-91.06875,49.94167],[-91.06875,49.9375],[-91.075,49.9375]]]}},{"type":"Feature","properties":{"c":"1058912","o":"","e":""},"geometry":{"type":"Polygon","coordinates":[[[-91.0875,49.94583],[-91.0875,49.95],[-91.08125,49.95],[-91.08125,49.94583],[-91.0875,49.94583]]]}},{"type":"Feature","properties":{"c":"1058913","o":"","e":""},"geometry":{"type":"Polygon","coordinates":[[[-91.06875,49.9375],[-91.06875,49.94167],[-91.0625,49.94167],[-91.0625,49.9375],[-91.06875,49.9375]]]}},{"type":"Feature","properties":{"c":"1058914","o":"","e":""},"geometry":{"type":"Polygon","coordinates":[[[-91.09375,49.9375],[-91.09375,49.94167],[-91.0875,49.94167],[-91.0875,49.9375],[-91.09375,49.9375]]]}},{"type":"Feature","properties":{"c":"1058915","o":"","e":""},"geometry":{"type":"Polygon","coordinates":[[[-91.09375,49.94167],[-91.09375,49.94583],[-91.0875,49.94583],[-91.0875,49.94167],[-91.09375,49.94167]]]}},{"type":"Feature","properties":{"c":"1058916","o":"","e":""},"geometry":{"type":"Polygon","coordinates":[[[-91.09375,49.94583],[-91.09375,49.95],[-91.0875,49.95],[-91.0875,49.94583],[-91.09375,49.94583]]]}},{"type":"Feature","properties":{"c":"1058917","o":"","e":""},"geometry":{"type":"Polygon","coordinates":[[[-91.06875,49.94583],[-91.06875,49.95],[-91.0625,49.95],[-91.0625,49.94583],[-91.06875,49.94583]]]}},{"type":"Feature","properties":{"c":"1058918","o":"","e":""},"geometry":{"type":"Polygon","coordinates":[[[-91.0625,49.9375],[-91.0625,49.94167],[-91.05625,49.94167],[-91.05625,49.9375],[-91.0625,49.9375]]]}},{"type":"Feature","properties":{"c":"1058919","o":"","e":""},"geometry":{"type":"Polygon","coordinates":[[[-91.0625,49.94167],[-91.0625,49.94583],[-91.05625,49.94583],[-91.05625,49.94167],[-91.0625,49.94167]]]}},{"type":"Feature","properties":{"c":"1058920","o":"","e":""},"geometry":{"type":"Polygon","coordinates":[[[-91.0625,49.94583],[-91.0625,49.95],[-91.05625,49.95],[-91.05625,49.94583],[-91.0625,49.94583]]]}},{"type":"Feature","properties":{"c":"1058921","o":"","e":""},"geometry":{"type":"Polygon","coordinates":[[[-91.08125,49.9375],[-91.08125,49.94167],[-91.075,49.94167],[-91.075,49.9375],[-91.08125,49.9375]]]}},{"type":"Feature","properties":{"c":"1058922","o":"","e":""},"geometry":{"type":"Polygon","coordinates":[[[-91.08125,49.94583],[-91.08125,49.95],[-91.075,49.95],[-91.075,49.94583],[-91.08125,49.94583]]]}},{"type":"Feature","properties":{"c":"1058923","o":"","e":""},"geometry":{"type":"Polygon","coordinates":[[[-91.075,49.94583],[-91.075,49.95],[-91.06875,49.95],[-91.06875,49.94583],[-91.075,49.94583]]]}},{"type":"Feature","properties":{"c":"1058924","o":"","e":""},"geometry":{"type":"Polygon","coordinates":[[[-91.08125,49.94167],[-91.08125,49.94583],[-91.075,49.94583],[-91.075,49.94167],[-91.08125,49.94167]]]}},{"type":"Feature","properties":{"c":"1058925","o":"","e":""},"geometry":{"type":"Polygon","coordinates":[[[-91.06875,49.94167],[-91.06875,49.94583],[-91.0625,49.94583],[-91.0625,49.94167],[-91.06875,49.94167]]]}},{"type":"Feature","properties":{"c":"1058926","o":"","e":""},"geometry":{"type":"Polygon","coordinates":[[[-91.075,49.94167],[-91.075,49.94583],[-91.06875,49.94583],[-91.06875,49.94167],[-91.075,49.94167]]]}},{"type":"Feature","properties":{"c":"887529","o":"","e":""},"geometry":{"type":"Polygon","coordinates":[[[-91.03125,49.93333],[-91.03125,49.9375],[-91.025,49.9375],[-91.025,49.93333],[-91.03125,49.93333]]]}},{"type":"Feature","properties":{"c":"887530","o":"","e":""},"geometry":{"type":"Polygon","coordinates":[[[-91.03125,49.92917],[-91.03125,49.93333],[-91.025,49.93333],[-91.025,49.92917],[-91.03125,49.92917]]]}},{"type":"Feature","properties":{"c":"583678","o":"","e":""},"geometry":{"type":"Polygon","coordinates":[[[-91.08125,49.8125],[-91.075,49.8125],[-91.06875,49.8125],[-91.0625,49.8125],[-91.0625,49.80833],[-91.0625,49.80417],[-91.06875,49.80417],[-91.075,49.80417],[-91.08125,49.80417],[-91.08125,49.80833],[-91.08125,49.8125]]]}},{"type":"Feature","properties":{"c":"583677","o":"","e":""},"geometry":{"type":"Polygon","coordinates":[[[-91.09375,49.8125],[-91.09375,49.81667],[-91.0875,49.81667],[-91.08125,49.81667],[-91.08125,49.8125],[-91.08125,49.80833],[-91.08125,49.80417],[-91.0875,49.80417],[-91.09375,49.80417],[-91.09375,49.80833],[-91.09375,49.8125]]]}},{"type":"Feature","properties":{"c":"583676","o":"","e":""},"geometry":{"type":"Polygon","coordinates":[[[-91.04375,49.82083],[-91.0375,49.82083],[-91.03125,49.82083],[-91.025,49.82083],[-91.025,49.81667],[-91.025,49.8125],[-91.03125,49.8125],[-91.0375,49.8125],[-91.04375,49.8125],[-91.04375,49.81667],[-91.04375,49.82083]]]}},{"type":"Feature","properties":{"c":"583675","o":"","e":""},"geometry":{"type":"Polygon","coordinates":[[[-91.0625,49.82083],[-91.05625,49.82083],[-91.05,49.82083],[-91.04375,49.82083],[-91.04375,49.81667],[-91.04375,49.8125],[-91.05,49.8125],[-91.05625,49.8125],[-91.0625,49.8125],[-91.0625,49.81667],[-91.0625,49.82083]]]}},{"type":"Feature","properties":{"c":"583674","o":"","e":""},"geometry":{"type":"Polygon","coordinates":[[[-91.08125,49.82083],[-91.075,49.82083],[-91.06875,49.82083],[-91.0625,49.82083],[-91.0625,49.81667],[-91.0625,49.8125],[-91.06875,49.8125],[-91.075,49.8125],[-91.08125,49.8125],[-91.08125,49.81667],[-91.08125,49.82083]]]}},{"type":"Feature","properties":{"c":"583673","o":"","e":""},"geometry":{"type":"Polygon","coordinates":[[[-91.04375,49.82917],[-91.0375,49.82917],[-91.03125,49.82917],[-91.025,49.82917],[-91.025,49.825],[-91.025,49.82083],[-91.03125,49.82083],[-91.0375,49.82083],[-91.04375,49.82083],[-91.04375,49.825],[-91.04375,49.82917]]]}},{"type":"Feature","properties":{"c":"583628","o":"","e":""},"geometry":{"type":"Polygon","coordinates":[[[-91.0625,49.82917],[-91.05625,49.82917],[-91.05,49.82917],[-91.04375,49.82917],[-91.04375,49.825],[-91.04375,49.82083],[-91.05,49.82083],[-91.05625,49.82083],[-91.0625,49.82083],[-91.0625,49.825],[-91.0625,49.82917]]]}},{"type":"Feature","properties":{"c":"583627","o":"","e":""},"geometry":{"type":"Polygon","coordinates":[[[-91.08125,49.82917],[-91.075,49.82917],[-91.06875,49.82917],[-91.0625,49.82917],[-91.0625,49.825],[-91.0625,49.82083],[-91.06875,49.82083],[-91.075,49.82083],[-91.08125,49.82083],[-91.08125,49.825],[-91.08125,49.82917]]]}},{"type":"Feature","properties":{"c":"583626","o":"","e":""},"geometry":{"type":"Polygon","coordinates":[[[-91.09375,49.825],[-91.09375,49.82917],[-91.0875,49.82917],[-91.08125,49.82917],[-91.08125,49.825],[-91.08125,49.82083],[-91.08125,49.81667],[-91.0875,49.81667],[-91.09375,49.81667],[-91.09375,49.82083],[-91.09375,49.825]]]}},{"type":"Feature","properties":{"c":"583625","o":"","e":""},"geometry":{"type":"Polygon","coordinates":[[[-91.04375,49.8375],[-91.0375,49.8375],[-91.03125,49.8375],[-91.025,49.8375],[-91.025,49.83333],[-91.025,49.82917],[-91.03125,49.82917],[-91.0375,49.82917],[-91.04375,49.82917],[-91.04375,49.83333],[-91.04375,49.8375]]]}},{"type":"Feature","properties":{"c":"583624","o":"","e":""},"geometry":{"type":"Polygon","coordinates":[[[-91.0625,49.8375],[-91.05625,49.8375],[-91.05,49.8375],[-91.04375,49.8375],[-91.04375,49.83333],[-91.04375,49.82917],[-91.05,49.82917],[-91.05625,49.82917],[-91.0625,49.82917],[-91.0625,49.83333],[-91.0625,49.8375]]]}},{"type":"Feature","properties":{"c":"583623","o":"","e":""},"geometry":{"type":"Polygon","coordinates":[[[-91.08125,49.8375],[-91.075,49.8375],[-91.06875,49.8375],[-91.0625,49.8375],[-91.0625,49.83333],[-91.0625,49.82917],[-91.06875,49.82917],[-91.075,49.82917],[-91.08125,49.82917],[-91.08125,49.83333],[-91.08125,49.8375]]]}},{"type":"Feature","properties":{"c":"583622","o":"","e":""},"geometry":{"type":"Polygon","coordinates":[[[-91.06875,49.8375],[-91.06875,49.84167],[-91.0625,49.84167],[-91.05625,49.84167],[-91.05625,49.8375],[-91.0625,49.8375],[-91.06875,49.8375]]]}},{"type":"Feature","properties":{"c":"583517","o":"","e":""},"geometry":{"type":"Polygon","coordinates":[[[-91.125,49.8625],[-91.125,49.86667],[-91.11875,49.86667],[-91.1125,49.86667],[-91.1125,49.8625],[-91.1125,49.85833],[-91.1125,49.85417],[-91.11875,49.85417],[-91.125,49.85417],[-91.125,49.85833],[-91.125,49.8625]]]}},{"type":"Feature","properties":{"c":"583499","o":"","e":""},"geometry":{"type":"Polygon","coordinates":[[[-91.1375,49.875],[-91.13125,49.875],[-91.125,49.875],[-91.11875,49.875],[-91.11875,49.87083],[-91.11875,49.86667],[-91.125,49.86667],[-91.13125,49.86667],[-91.1375,49.86667],[-91.1375,49.87083],[-91.1375,49.875]]]}},{"type":"Feature","properties":{"c":"583621","o":"","e":""},"geometry":{"type":"Polygon","coordinates":[[[-91.0375,49.84583],[-91.0375,49.85],[-91.03125,49.85],[-91.025,49.85],[-91.025,49.84583],[-91.025,49.84167],[-91.025,49.8375],[-91.03125,49.8375],[-91.0375,49.8375],[-91.0375,49.84167],[-91.0375,49.84583]]]}},{"type":"Feature","properties":{"c":"583620","o":"","e":""},"geometry":{"type":"Polygon","coordinates":[[[-91.05,49.85],[-91.05,49.85417],[-91.04375,49.85417],[-91.0375,49.85417],[-91.0375,49.85],[-91.0375,49.84583],[-91.0375,49.84167],[-91.04375,49.84167],[-91.05,49.84167],[-91.05,49.84583],[-91.05,49.85]]]}},{"type":"Feature","properties":{"c":"583619","o":"","e":""},"geometry":{"type":"Polygon","coordinates":[[[-91.0375,49.85833],[-91.0375,49.8625],[-91.03125,49.8625],[-91.025,49.8625],[-91.025,49.85833],[-91.025,49.85417],[-91.025,49.85],[-91.03125,49.85],[-91.0375,49.85],[-91.0375,49.85417],[-91.0375,49.85833]]]}},{"type":"Feature","properties":{"c":"583618","o":"","e":""},"geometry":{"type":"Polygon","coordinates":[[[-91.05,49.87917],[-91.04375,49.87917],[-91.0375,49.87917],[-91.0375,49.875],[-91.0375,49.87083],[-91.04375,49.87083],[-91.05,49.87083],[-91.05,49.875],[-91.05,49.87917]]]}},{"type":"Feature","properties":{"c":"583616","o":"","e":""},"geometry":{"type":"Polygon","coordinates":[[[-91.1375,49.84583],[-91.13125,49.84583],[-91.125,49.84583],[-91.11875,49.84583],[-91.11875,49.84167],[-91.11875,49.8375],[-91.125,49.8375],[-91.13125,49.8375],[-91.1375,49.8375],[-91.1375,49.84167],[-91.1375,49.84583]]]}},{"type":"Feature","properties":{"c":"583615","o":"","e":""},"geometry":{"type":"Polygon","coordinates":[[[-91.15625,49.84583],[-91.15,49.84583],[-91.14375,49.84583],[-91.1375,49.84583],[-91.1375,49.84167],[-91.1375,49.8375],[-91.14375,49.8375],[-91.15,49.8375],[-91.15625,49.8375],[-91.15625,49.84167],[-91.15625,49.84583]]]}},{"type":"Feature","properties":{"c":"537255","o":"","e":""},"geometry":{"type":"Polygon","coordinates":[[[-91.1,49.84167],[-91.1,49.84583],[-91.09375,49.84583],[-91.09375,49.84167],[-91.1,49.84167]]]}},{"type":"Feature","properties":{"c":"537256","o":"","e":""},"geometry":{"type":"Polygon","coordinates":[[[-91.1,49.8375],[-91.1,49.84167],[-91.09375,49.84167],[-91.09375,49.8375],[-91.1,49.8375]]]}},{"type":"Feature","properties":{"c":"583500","o":"","e":""},"geometry":{"type":"Polygon","coordinates":[[[-91.11875,49.875],[-91.1125,49.875],[-91.10625,49.875],[-91.1,49.875],[-91.1,49.87083],[-91.1,49.86667],[-91.10625,49.86667],[-91.1125,49.86667],[-91.11875,49.86667],[-91.11875,49.87083],[-91.11875,49.875]]]}},{"type":"Feature","properties":{"c":"583505","o":"","e":""},"geometry":{"type":"Polygon","coordinates":[[[-91.1375,49.8625],[-91.1375,49.86667],[-91.13125,49.86667],[-91.125,49.86667],[-91.125,49.8625],[-91.125,49.85833],[-91.125,49.85417],[-91.13125,49.85417],[-91.1375,49.85417],[-91.1375,49.85833],[-91.1375,49.8625]]]}},{"type":"Feature","properties":{"c":"583614","o":"","e":""},"geometry":{"type":"Polygon","coordinates":[[[-91.16875,49.84583],[-91.16875,49.85],[-91.1625,49.85],[-91.15625,49.85],[-91.15625,49.84583],[-91.15625,49.84167],[-91.15625,49.8375],[-91.1625,49.8375],[-91.16875,49.8375],[-91.16875,49.84167],[-91.16875,49.84583]]]}},{"type":"Feature","properties":{"c":"583502","o":"","e":""},"geometry":{"type":"Polygon","coordinates":[[[-91.08125,49.875],[-91.075,49.875],[-91.06875,49.875],[-91.0625,49.875],[-91.0625,49.87083],[-91.0625,49.86667],[-91.06875,49.86667],[-91.075,49.86667],[-91.08125,49.86667],[-91.08125,49.87083],[-91.08125,49.875]]]}},{"type":"Feature","properties":{"c":"1067358","o":"","e":""},"geometry":{"type":"Polygon","coordinates":[[[-91.06875,49.91667],[-91.06875,49.92083],[-91.0625,49.92083],[-91.0625,49.91667],[-91.06875,49.91667]]]}},{"type":"Feature","properties":{"c":"1067359","o":"","e":""},"geometry":{"type":"Polygon","coordinates":[[[-91.06875,49.9125],[-91.06875,49.91667],[-91.0625,49.91667],[-91.0625,49.9125],[-91.06875,49.9125]]]}},{"type":"Feature","properties":{"c":"583498","o":"","e":""},"geometry":{"type":"Polygon","coordinates":[[[-91.15625,49.875],[-91.15,49.875],[-91.14375,49.875],[-91.1375,49.875],[-91.1375,49.87083],[-91.1375,49.86667],[-91.14375,49.86667],[-91.15,49.86667],[-91.15625,49.86667],[-91.15625,49.87083],[-91.15625,49.875]]]}},{"type":"Feature","properties":{"c":"583497","o":"","e":""},"geometry":{"type":"Polygon","coordinates":[[[-91.16875,49.86667],[-91.16875,49.87083],[-91.1625,49.87083],[-91.15625,49.87083],[-91.15625,49.86667],[-91.1625,49.86667],[-91.16875,49.86667]]]}},{"type":"Feature","properties":{"c":"586195","o":"","e":""},"geometry":{"type":"Polygon","coordinates":[[[-91.11875,49.84583],[-91.1125,49.84583],[-91.10625,49.84583],[-91.1,49.84583],[-91.1,49.84167],[-91.1,49.8375],[-91.10625,49.8375],[-91.1125,49.8375],[-91.11875,49.8375],[-91.11875,49.84167],[-91.11875,49.84583]]]}},{"type":"Feature","properties":{"c":"949591","o":"","e":""},"geometry":{"type":"Polygon","coordinates":[[[-91.16875,49.83333],[-91.16875,49.8375],[-91.1625,49.8375],[-91.15625,49.8375],[-91.15,49.8375],[-91.14375,49.8375],[-91.1375,49.8375],[-91.13125,49.8375],[-91.125,49.8375],[-91.125,49.83333],[-91.13125,49.83333],[-91.1375,49.83333],[-91.14375,49.83333],[-91.15,49.83333],[-91.15625,49.83333],[-91.1625,49.83333],[-91.16875,49.83333]]]}},{"type":"Feature","properties":{"c":"918184","o":"","e":""},"geometry":{"type":"Polygon","coordinates":[[[-91.18125,49.78333],[-91.18125,49.7875],[-91.175,49.7875],[-91.175,49.78333],[-91.18125,49.78333]]]}},{"type":"Feature","properties":{"c":"918185","o":"","e":""},"geometry":{"type":"Polygon","coordinates":[[[-91.18125,49.7875],[-91.18125,49.79167],[-91.175,49.79167],[-91.175,49.7875],[-91.18125,49.7875]]]}},{"type":"Feature","properties":{"c":"918183","o":"","e":""},"geometry":{"type":"Polygon","coordinates":[[[-91.1875,49.8],[-91.1875,49.80417],[-91.18125,49.80417],[-91.18125,49.8],[-91.1875,49.8]]]}},{"type":"Feature","properties":{"c":"918186","o":"","e":""},"geometry":{"type":"Polygon","coordinates":[[[-91.18125,49.80417],[-91.18125,49.80833],[-91.175,49.80833],[-91.175,49.80417],[-91.18125,49.80417]]]}},{"type":"Feature","properties":{"c":"918187","o":"","e":""},"geometry":{"type":"Polygon","coordinates":[[[-91.175,49.80417],[-91.175,49.80833],[-91.16875,49.80833],[-91.16875,49.80417],[-91.175,49.80417]]]}},{"type":"Feature","properties":{"c":"918188","o":"","e":""},"geometry":{"type":"Polygon","coordinates":[[[-91.175,49.8125],[-91.175,49.81667],[-91.16875,49.81667],[-91.16875,49.8125],[-91.175,49.8125]]]}},{"type":"Feature","properties":{"c":"918189","o":"","e":""},"geometry":{"type":"Polygon","coordinates":[[[-91.1875,49.79167],[-91.1875,49.79583],[-91.18125,49.79583],[-91.18125,49.79167],[-91.1875,49.79167]]]}},{"type":"Feature","properties":{"c":"1037707","o":"","e":""},"geometry":{"type":"Polygon","coordinates":[[[-91.10625,49.92917],[-91.10625,49.93333],[-91.1,49.93333],[-91.1,49.92917],[-91.10625,49.92917]]]}},{"type":"Feature","properties":{"c":"1037708","o":"","e":""},"geometry":{"type":"Polygon","coordinates":[[[-91.0875,49.92917],[-91.0875,49.93333],[-91.08125,49.93333],[-91.08125,49.92917],[-91.0875,49.92917]]]}},{"type":"Feature","properties":{"c":"1037709","o":"","e":""},"geometry":{"type":"Polygon","coordinates":[[[-91.08125,49.93333],[-91.08125,49.9375],[-91.075,49.9375],[-91.075,49.93333],[-91.08125,49.93333]]]}},{"type":"Feature","properties":{"c":"1037710","o":"","e":""},"geometry":{"type":"Polygon","coordinates":[[[-91.1,49.925],[-91.1,49.92917],[-91.09375,49.92917],[-91.09375,49.925],[-91.1,49.925]]]}},{"type":"Feature","properties":{"c":"1037711","o":"","e":""},"geometry":{"type":"Polygon","coordinates":[[[-91.09375,49.925],[-91.09375,49.92917],[-91.0875,49.92917],[-91.0875,49.925],[-91.09375,49.925]]]}},{"type":"Feature","properties":{"c":"1037712","o":"","e":""},"geometry":{"type":"Polygon","coordinates":[[[-91.10625,49.93333],[-91.10625,49.9375],[-91.1,49.9375],[-91.1,49.93333],[-91.10625,49.93333]]]}},{"type":"Feature","properties":{"c":"1037713","o":"","e":""},"geometry":{"type":"Polygon","coordinates":[[[-91.09375,49.93333],[-91.09375,49.9375],[-91.0875,49.9375],[-91.0875,49.93333],[-91.09375,49.93333]]]}},{"type":"Feature","properties":{"c":"1037714","o":"","e":""},"geometry":{"type":"Polygon","coordinates":[[[-91.0875,49.925],[-91.0875,49.92917],[-91.08125,49.92917],[-91.08125,49.925],[-91.0875,49.925]]]}},{"type":"Feature","properties":{"c":"873003","o":"","e":""},"geometry":{"type":"Polygon","coordinates":[[[-91.1,49.85],[-91.1,49.85417],[-91.09375,49.85417],[-91.09375,49.85],[-91.1,49.85]]]}},{"type":"Feature","properties":{"c":"873004","o":"","e":""},"geometry":{"type":"Polygon","coordinates":[[[-91.09375,49.85],[-91.09375,49.85417],[-91.0875,49.85417],[-91.0875,49.85],[-91.09375,49.85]]]}},{"type":"Feature","properties":{"c":"873005","o":"","e":""},"geometry":{"type":"Polygon","coordinates":[[[-91.0875,49.85],[-91.0875,49.85417],[-91.08125,49.85417],[-91.08125,49.85],[-91.0875,49.85]]]}},{"type":"Feature","properties":{"c":"873006","o":"","e":""},"geometry":{"type":"Polygon","coordinates":[[[-91.08125,49.85],[-91.08125,49.85417],[-91.075,49.85417],[-91.075,49.85],[-91.08125,49.85]]]}},{"type":"Feature","properties":{"c":"873007","o":"","e":""},"geometry":{"type":"Polygon","coordinates":[[[-91.075,49.85],[-91.075,49.85417],[-91.06875,49.85417],[-91.06875,49.85],[-91.075,49.85]]]}},{"type":"Feature","properties":{"c":"873008","o":"","e":""},"geometry":{"type":"Polygon","coordinates":[[[-91.06875,49.85],[-91.06875,49.85417],[-91.0625,49.85417],[-91.0625,49.85],[-91.06875,49.85]]]}},{"type":"Feature","properties":{"c":"873009","o":"","e":""},"geometry":{"type":"Polygon","coordinates":[[[-91.0625,49.85],[-91.0625,49.85417],[-91.05625,49.85417],[-91.05625,49.85],[-91.0625,49.85]]]}},{"type":"Feature","properties":{"c":"873010","o":"","e":""},"geometry":{"type":"Polygon","coordinates":[[[-91.05625,49.85],[-91.05625,49.85417],[-91.05,49.85417],[-91.05,49.85],[-91.05625,49.85]]]}},{"type":"Feature","properties":{"c":"873011","o":"","e":""},"geometry":{"type":"Polygon","coordinates":[[[-91.0625,49.84583],[-91.0625,49.85],[-91.05625,49.85],[-91.05625,49.84583],[-91.0625,49.84583]]]}},{"type":"Feature","properties":{"c":"873012","o":"","e":""},"geometry":{"type":"Polygon","coordinates":[[[-91.05625,49.84583],[-91.05625,49.85],[-91.05,49.85],[-91.05,49.84583],[-91.05625,49.84583]]]}},{"type":"Feature","properties":{"c":"873013","o":"","e":""},"geometry":{"type":"Polygon","coordinates":[[[-91.0625,49.84167],[-91.0625,49.84583],[-91.05625,49.84583],[-91.05625,49.84167],[-91.0625,49.84167]]]}},{"type":"Feature","properties":{"c":"873014","o":"","e":""},"geometry":{"type":"Polygon","coordinates":[[[-91.05625,49.84167],[-91.05625,49.84583],[-91.05,49.84583],[-91.05,49.84167],[-91.05625,49.84167]]]}},{"type":"Feature","properties":{"c":"1067350","o":"","e":""},"geometry":{"type":"Polygon","coordinates":[[[-91.10625,49.9125],[-91.10625,49.91667],[-91.1,49.91667],[-91.1,49.9125],[-91.10625,49.9125]]]}},{"type":"Feature","properties":{"c":"1067351","o":"","e":""},"geometry":{"type":"Polygon","coordinates":[[[-91.10625,49.91667],[-91.10625,49.92083],[-91.1,49.92083],[-91.1,49.91667],[-91.10625,49.91667]]]}},{"type":"Feature","properties":{"c":"1067352","o":"","e":""},"geometry":{"type":"Polygon","coordinates":[[[-91.11875,49.9125],[-91.11875,49.91667],[-91.1125,49.91667],[-91.1125,49.9125],[-91.11875,49.9125]]]}},{"type":"Feature","properties":{"c":"1067353","o":"","e":""},"geometry":{"type":"Polygon","coordinates":[[[-91.1125,49.9125],[-91.1125,49.91667],[-91.10625,49.91667],[-91.10625,49.9125],[-91.1125,49.9125]]]}},{"type":"Feature","properties":{"c":"1067354","o":"","e":""},"geometry":{"type":"Polygon","coordinates":[[[-91.1,49.91667],[-91.1,49.92083],[-91.09375,49.92083],[-91.09375,49.91667],[-91.1,49.91667]]]}},{"type":"Feature","properties":{"c":"1067355","o":"","e":""},"geometry":{"type":"Polygon","coordinates":[[[-91.11875,49.91667],[-91.11875,49.92083],[-91.1125,49.92083],[-91.1125,49.91667],[-91.11875,49.91667]]]}},{"type":"Feature","properties":{"c":"1067356","o":"","e":""},"geometry":{"type":"Polygon","coordinates":[[[-91.1125,49.91667],[-91.1125,49.92083],[-91.10625,49.92083],[-91.10625,49.91667],[-91.1125,49.91667]]]}},{"type":"Feature","properties":{"c":"1067357","o":"","e":""},"geometry":{"type":"Polygon","coordinates":[[[-91.09375,49.91667],[-91.09375,49.92083],[-91.0875,49.92083],[-91.0875,49.91667],[-91.09375,49.91667]]]}},{"type":"Feature","properties":{"c":"1067344","o":"","e":""},"geometry":{"type":"Polygon","coordinates":[[[-91.05625,49.92917],[-91.05625,49.93333],[-91.05,49.93333],[-91.05,49.92917],[-91.05625,49.92917]]]}},{"type":"Feature","properties":{"c":"1067345","o":"","e":""},"geometry":{"type":"Polygon","coordinates":[[[-91.05625,49.9375],[-91.05625,49.94167],[-91.05,49.94167],[-91.05,49.9375],[-91.05625,49.9375]]]}},{"type":"Feature","properties":{"c":"1067346","o":"","e":""},"geometry":{"type":"Polygon","coordinates":[[[-91.05625,49.925],[-91.05625,49.92917],[-91.05,49.92917],[-91.05,49.925],[-91.05625,49.925]]]}},{"type":"Feature","properties":{"c":"1067347","o":"","e":""},"geometry":{"type":"Polygon","coordinates":[[[-91.05,49.925],[-91.05,49.92917],[-91.04375,49.92917],[-91.04375,49.925],[-91.05,49.925]]]}},{"type":"Feature","properties":{"c":"1067348","o":"","e":""},"geometry":{"type":"Polygon","coordinates":[[[-91.05625,49.93333],[-91.05625,49.9375],[-91.05,49.9375],[-91.05,49.93333],[-91.05625,49.93333]]]}},{"type":"Feature","properties":{"c":"1067349","o":"","e":""},"geometry":{"type":"Polygon","coordinates":[[[-91.05,49.92917],[-91.05,49.93333],[-91.04375,49.93333],[-91.04375,49.92917],[-91.05,49.92917]]]}},{"type":"Feature","properties":{"c":"1018788","o":"","e":""},"geometry":{"type":"Polygon","coordinates":[[[-91.31875,49.8],[-91.31875,49.80417],[-91.3125,49.80417],[-91.3125,49.8],[-91.31875,49.8]]]}},{"type":"Feature","properties":{"c":"1018789","o":"","e":""},"geometry":{"type":"Polygon","coordinates":[[[-91.3125,49.80417],[-91.3125,49.80833],[-91.30625,49.80833],[-91.30625,49.80417],[-91.3125,49.80417]]]}},{"type":"Feature","properties":{"c":"1018790","o":"","e":""},"geometry":{"type":"Polygon","coordinates":[[[-91.30625,49.8],[-91.30625,49.80417],[-91.3,49.80417],[-91.3,49.8],[-91.30625,49.8]]]}},{"type":"Feature","properties":{"c":"1018791","o":"","e":""},"geometry":{"type":"Polygon","coordinates":[[[-91.31875,49.80417],[-91.31875,49.80833],[-91.3125,49.80833],[-91.3125,49.80417],[-91.31875,49.80417]]]}},{"type":"Feature","properties":{"c":"1018792","o":"","e":""},"geometry":{"type":"Polygon","coordinates":[[[-91.3125,49.8],[-91.3125,49.80417],[-91.30625,49.80417],[-91.30625,49.8],[-91.3125,49.8]]]}},{"type":"Feature","properties":{"c":"1018793","o":"","e":""},"geometry":{"type":"Polygon","coordinates":[[[-91.30625,49.80417],[-91.30625,49.80833],[-91.3,49.80833],[-91.3,49.80417],[-91.30625,49.80417]]]}},{"type":"Feature","properties":{"c":"918191","o":"","e":""},"geometry":{"type":"Polygon","coordinates":[[[-91.18125,49.8125],[-91.18125,49.81667],[-91.175,49.81667],[-91.175,49.8125],[-91.18125,49.8125]]]}},{"type":"Feature","properties":{"c":"918192","o":"","e":""},"geometry":{"type":"Polygon","coordinates":[[[-91.175,49.7875],[-91.175,49.79167],[-91.16875,49.79167],[-91.16875,49.7875],[-91.175,49.7875]]]}},{"type":"Feature","properties":{"c":"918190","o":"","e":""},"geometry":{"type":"Polygon","coordinates":[[[-91.18125,49.80833],[-91.18125,49.8125],[-91.175,49.8125],[-91.175,49.80833],[-91.18125,49.80833]]]}},{"type":"Feature","properties":{"c":"918193","o":"","e":""},"geometry":{"type":"Polygon","coordinates":[[[-91.1875,49.79583],[-91.1875,49.8],[-91.18125,49.8],[-91.18125,49.79583],[-91.1875,49.79583]]]}},{"type":"Feature","properties":{"c":"918194","o":"","e":""},"geometry":{"type":"Polygon","coordinates":[[[-91.1875,49.80417],[-91.1875,49.80833],[-91.18125,49.80833],[-91.18125,49.80417],[-91.1875,49.80417]]]}},{"type":"Feature","properties":{"c":"918195","o":"","e":""},"geometry":{"type":"Polygon","coordinates":[[[-91.19375,49.8125],[-91.19375,49.81667],[-91.1875,49.81667],[-91.1875,49.8125],[-91.19375,49.8125]]]}},{"type":"Feature","properties":{"c":"918196","o":"","e":""},"geometry":{"type":"Polygon","coordinates":[[[-91.175,49.79167],[-91.175,49.79583],[-91.16875,49.79583],[-91.16875,49.79167],[-91.175,49.79167]]]}},{"type":"Feature","properties":{"c":"918199","o":"","e":""},"geometry":{"type":"Polygon","coordinates":[[[-91.18125,49.79167],[-91.18125,49.79583],[-91.175,49.79583],[-91.175,49.79167],[-91.18125,49.79167]]]}},{"type":"Feature","properties":{"c":"918197","o":"","e":""},"geometry":{"type":"Polygon","coordinates":[[[-91.175,49.79583],[-91.175,49.8],[-91.16875,49.8],[-91.16875,49.79583],[-91.175,49.79583]]]}},{"type":"Feature","properties":{"c":"918198","o":"","e":""},"geometry":{"type":"Polygon","coordinates":[[[-91.1875,49.80833],[-91.1875,49.8125],[-91.18125,49.8125],[-91.18125,49.80833],[-91.1875,49.80833]]]}},{"type":"Feature","properties":{"c":"918200","o":"","e":""},"geometry":{"type":"Polygon","coordinates":[[[-91.1875,49.7875],[-91.1875,49.79167],[-91.18125,49.79167],[-91.18125,49.7875],[-91.1875,49.7875]]]}},{"type":"Feature","properties":{"c":"1071510","o":"","e":""},"geometry":{"type":"Polygon","coordinates":[[[-91.26875,49.77083],[-91.26875,49.775],[-91.26875,49.77917],[-91.26875,49.78333],[-91.26875,49.7875],[-91.26875,49.79167],[-91.26875,49.79583],[-91.2625,49.79583],[-91.25625,49.79583],[-91.25,49.79583],[-91.24375,49.79583],[-91.2375,49.79583],[-91.2375,49.79167],[-91.24375,49.79167],[-91.25,49.79167],[-91.25,49.7875],[-91.25,49.78333],[-91.25,49.77917],[-91.25,49.775],[-91.25,49.77083],[-91.25,49.76667],[-91.25625,49.76667],[-91.2625,49.76667],[-91.2625,49.7625],[-91.26875,49.7625],[-91.26875,49.76667],[-91.26875,49.77083]]]}},{"type":"Feature","properties":{"c":"537369","o":"","e":""},"geometry":{"type":"Polygon","coordinates":[[[-91.1,49.83333],[-91.1,49.8375],[-91.09375,49.8375],[-91.09375,49.83333],[-91.1,49.83333]]]}},{"type":"Feature","properties":{"c":"537370","o":"","e":""},"geometry":{"type":"Polygon","coordinates":[[[-91.09375,49.83333],[-91.09375,49.8375],[-91.0875,49.8375],[-91.0875,49.83333],[-91.09375,49.83333]]]}},{"type":"Feature","properties":{"c":"537371","o":"","e":""},"geometry":{"type":"Polygon","coordinates":[[[-91.0875,49.83333],[-91.0875,49.8375],[-91.08125,49.8375],[-91.08125,49.83333],[-91.0875,49.83333]]]}},{"type":"Feature","properties":{"c":"537372","o":"","e":""},"geometry":{"type":"Polygon","coordinates":[[[-91.10625,49.82917],[-91.10625,49.83333],[-91.1,49.83333],[-91.1,49.82917],[-91.10625,49.82917]]]}},{"type":"Feature","properties":{"c":"537373","o":"","e":""},"geometry":{"type":"Polygon","coordinates":[[[-91.1,49.82917],[-91.1,49.83333],[-91.09375,49.83333],[-91.09375,49.82917],[-91.1,49.82917]]]}},{"type":"Feature","properties":{"c":"537374","o":"","e":""},"geometry":{"type":"Polygon","coordinates":[[[-91.09375,49.82917],[-91.09375,49.83333],[-91.0875,49.83333],[-91.0875,49.82917],[-91.09375,49.82917]]]}},{"type":"Feature","properties":{"c":"537375","o":"","e":""},"geometry":{"type":"Polygon","coordinates":[[[-91.0875,49.82917],[-91.0875,49.83333],[-91.08125,49.83333],[-91.08125,49.82917],[-91.0875,49.82917]]]}},{"type":"Feature","properties":{"c":"918201","o":"","e":""},"geometry":{"type":"Polygon","coordinates":[[[-91.175,49.8],[-91.175,49.80417],[-91.16875,49.80417],[-91.16875,49.8],[-91.175,49.8]]]}},{"type":"Feature","properties":{"c":"918202","o":"","e":""},"geometry":{"type":"Polygon","coordinates":[[[-91.1875,49.78333],[-91.1875,49.7875],[-91.18125,49.7875],[-91.18125,49.78333],[-91.1875,49.78333]]]}},{"type":"Feature","properties":{"c":"918203","o":"","e":""},"geometry":{"type":"Polygon","coordinates":[[[-91.1875,49.8125],[-91.1875,49.81667],[-91.18125,49.81667],[-91.18125,49.8125],[-91.1875,49.8125]]]}},{"type":"Feature","properties":{"c":"918204","o":"","e":""},"geometry":{"type":"Polygon","coordinates":[[[-91.19375,49.81667],[-91.19375,49.82083],[-91.1875,49.82083],[-91.1875,49.81667],[-91.19375,49.81667]]]}},{"type":"Feature","properties":{"c":"918205","o":"","e":""},"geometry":{"type":"Polygon","coordinates":[[[-91.18125,49.79583],[-91.18125,49.8],[-91.175,49.8],[-91.175,49.79583],[-91.18125,49.79583]]]}},{"type":"Feature","properties":{"c":"918206","o":"","e":""},"geometry":{"type":"Polygon","coordinates":[[[-91.175,49.80833],[-91.175,49.8125],[-91.16875,49.8125],[-91.16875,49.80833],[-91.175,49.80833]]]}},{"type":"Feature","properties":{"c":"918207","o":"","e":""},"geometry":{"type":"Polygon","coordinates":[[[-91.18125,49.8],[-91.18125,49.80417],[-91.175,49.80417],[-91.175,49.8],[-91.18125,49.8]]]}},{"type":"Feature","properties":{"c":"918442","o":"","e":""},"geometry":{"type":"Polygon","coordinates":[[[-91.2125,49.77917],[-91.2125,49.78333],[-91.20625,49.78333],[-91.20625,49.77917],[-91.2125,49.77917]]]}},{"type":"Feature","properties":{"c":"918443","o":"","e":""},"geometry":{"type":"Polygon","coordinates":[[[-91.19375,49.775],[-91.19375,49.77917],[-91.1875,49.77917],[-91.1875,49.775],[-91.19375,49.775]]]}},{"type":"Feature","properties":{"c":"918444","o":"","e":""},"geometry":{"type":"Polygon","coordinates":[[[-91.20625,49.77917],[-91.20625,49.78333],[-91.2,49.78333],[-91.2,49.77917],[-91.20625,49.77917]]]}},{"type":"Feature","properties":{"c":"918445","o":"","e":""},"geometry":{"type":"Polygon","coordinates":[[[-91.1875,49.775],[-91.1875,49.77917],[-91.18125,49.77917],[-91.18125,49.775],[-91.1875,49.775]]]}},{"type":"Feature","properties":{"c":"918446","o":"","e":""},"geometry":{"type":"Polygon","coordinates":[[[-91.23125,49.77083],[-91.23125,49.775],[-91.225,49.775],[-91.225,49.77083],[-91.23125,49.77083]]]}},{"type":"Feature","properties":{"c":"918447","o":"","e":""},"geometry":{"type":"Polygon","coordinates":[[[-91.21875,49.77083],[-91.21875,49.775],[-91.2125,49.775],[-91.2125,49.77083],[-91.21875,49.77083]]]}},{"type":"Feature","properties":{"c":"918448","o":"","e":""},"geometry":{"type":"Polygon","coordinates":[[[-91.2125,49.77083],[-91.2125,49.775],[-91.20625,49.775],[-91.20625,49.77083],[-91.2125,49.77083]]]}},{"type":"Feature","properties":{"c":"918449","o":"","e":""},"geometry":{"type":"Polygon","coordinates":[[[-91.20625,49.77083],[-91.20625,49.775],[-91.2,49.775],[-91.2,49.77083],[-91.20625,49.77083]]]}},{"type":"Feature","properties":{"c":"918450","o":"","e":""},"geometry":{"type":"Polygon","coordinates":[[[-91.225,49.77083],[-91.225,49.775],[-91.21875,49.775],[-91.21875,49.77083],[-91.225,49.77083]]]}},{"type":"Feature","properties":{"c":"918382","o":"","e":""},"geometry":{"type":"Polygon","coordinates":[[[-91.21875,49.80833],[-91.21875,49.8125],[-91.2125,49.8125],[-91.2125,49.80833],[-91.21875,49.80833]]]}},{"type":"Feature","properties":{"c":"918378","o":"","e":""},"geometry":{"type":"Polygon","coordinates":[[[-91.2,49.81667],[-91.2,49.82083],[-91.19375,49.82083],[-91.19375,49.81667],[-91.2,49.81667]]]}},{"type":"Feature","properties":{"c":"918379","o":"","e":""},"geometry":{"type":"Polygon","coordinates":[[[-91.2125,49.80833],[-91.2125,49.8125],[-91.20625,49.8125],[-91.20625,49.80833],[-91.2125,49.80833]]]}},{"type":"Feature","properties":{"c":"918383","o":"","e":""},"geometry":{"type":"Polygon","coordinates":[[[-91.20625,49.81667],[-91.20625,49.82083],[-91.2,49.82083],[-91.2,49.81667],[-91.20625,49.81667]]]}},{"type":"Feature","properties":{"c":"918380","o":"","e":""},"geometry":{"type":"Polygon","coordinates":[[[-91.2125,49.8125],[-91.2125,49.81667],[-91.20625,49.81667],[-91.20625,49.8125],[-91.2125,49.8125]]]}},{"type":"Feature","properties":{"c":"918381","o":"","e":""},"geometry":{"type":"Polygon","coordinates":[[[-91.20625,49.8125],[-91.20625,49.81667],[-91.2,49.81667],[-91.2,49.8125],[-91.20625,49.8125]]]}},{"type":"Feature","properties":{"c":"918384","o":"","e":""},"geometry":{"type":"Polygon","coordinates":[[[-91.2,49.8125],[-91.2,49.81667],[-91.19375,49.81667],[-91.19375,49.8125],[-91.2,49.8125]]]}},{"type":"Feature","properties":{"c":"918562","o":"","e":""},"geometry":{"type":"Polygon","coordinates":[[[-91.21875,49.82917],[-91.21875,49.83333],[-91.2125,49.83333],[-91.2125,49.82917],[-91.21875,49.82917]]]}},{"type":"Feature","properties":{"c":"918563","o":"","e":""},"geometry":{"type":"Polygon","coordinates":[[[-91.25,49.81667],[-91.25,49.82083],[-91.24375,49.82083],[-91.24375,49.81667],[-91.25,49.81667]]]}},{"type":"Feature","properties":{"c":"918564","o":"","e":""},"geometry":{"type":"Polygon","coordinates":[[[-91.2375,49.81667],[-91.2375,49.82083],[-91.23125,49.82083],[-91.23125,49.81667],[-91.2375,49.81667]]]}},{"type":"Feature","properties":{"c":"918565","o":"","e":""},"geometry":{"type":"Polygon","coordinates":[[[-91.23125,49.82917],[-91.23125,49.83333],[-91.225,49.83333],[-91.225,49.82917],[-91.23125,49.82917]]]}},{"type":"Feature","properties":{"c":"918566","o":"","e":""},"geometry":{"type":"Polygon","coordinates":[[[-91.25,49.8125],[-91.25,49.81667],[-91.24375,49.81667],[-91.24375,49.8125],[-91.25,49.8125]]]}},{"type":"Feature","properties":{"c":"918567","o":"","e":""},"geometry":{"type":"Polygon","coordinates":[[[-91.23125,49.82083],[-91.23125,49.825],[-91.225,49.825],[-91.225,49.82083],[-91.23125,49.82083]]]}},{"type":"Feature","properties":{"c":"918568","o":"","e":""},"geometry":{"type":"Polygon","coordinates":[[[-91.2375,49.82083],[-91.2375,49.825],[-91.23125,49.825],[-91.23125,49.82083],[-91.2375,49.82083]]]}},{"type":"Feature","properties":{"c":"918569","o":"","e":""},"geometry":{"type":"Polygon","coordinates":[[[-91.23125,49.825],[-91.23125,49.82917],[-91.225,49.82917],[-91.225,49.825],[-91.23125,49.825]]]}},{"type":"Feature","properties":{"c":"918462","o":"","e":""},"geometry":{"type":"Polygon","coordinates":[[[-91.20625,49.8],[-91.20625,49.80417],[-91.2,49.80417],[-91.2,49.8],[-91.20625,49.8]]]}},{"type":"Feature","properties":{"c":"918461","o":"","e":""},"geometry":{"type":"Polygon","coordinates":[[[-91.2,49.79583],[-91.2,49.8],[-91.19375,49.8],[-91.19375,49.79583],[-91.2,49.79583]]]}},{"type":"Feature","properties":{"c":"918463","o":"","e":""},"geometry":{"type":"Polygon","coordinates":[[[-91.19375,49.78333],[-91.19375,49.7875],[-91.1875,49.7875],[-91.1875,49.78333],[-91.19375,49.78333]]]}},{"type":"Feature","properties":{"c":"918464","o":"","e":""},"geometry":{"type":"Polygon","coordinates":[[[-91.19375,49.7875],[-91.19375,49.79167],[-91.1875,49.79167],[-91.1875,49.7875],[-91.19375,49.7875]]]}},{"type":"Feature","properties":{"c":"918465","o":"","e":""},"geometry":{"type":"Polygon","coordinates":[[[-91.21875,49.8],[-91.21875,49.80417],[-91.2125,49.80417],[-91.2125,49.8],[-91.21875,49.8]]]}},{"type":"Feature","properties":{"c":"918466","o":"","e":""},"geometry":{"type":"Polygon","coordinates":[[[-91.2125,49.78333],[-91.2125,49.7875],[-91.20625,49.7875],[-91.20625,49.78333],[-91.2125,49.78333]]]}},{"type":"Feature","properties":{"c":"918467","o":"","e":""},"geometry":{"type":"Polygon","coordinates":[[[-91.20625,49.78333],[-91.20625,49.7875],[-91.2,49.7875],[-91.2,49.78333],[-91.20625,49.78333]]]}},{"type":"Feature","properties":{"c":"918468","o":"","e":""},"geometry":{"type":"Polygon","coordinates":[[[-91.20625,49.7875],[-91.20625,49.79167],[-91.2,49.79167],[-91.2,49.7875],[-91.20625,49.7875]]]}},{"type":"Feature","properties":{"c":"918469","o":"","e":""},"geometry":{"type":"Polygon","coordinates":[[[-91.2125,49.79583],[-91.2125,49.8],[-91.20625,49.8],[-91.20625,49.79583],[-91.2125,49.79583]]]}},{"type":"Feature","properties":{"c":"918470","o":"","e":""},"geometry":{"type":"Polygon","coordinates":[[[-91.2,49.79167],[-91.2,49.79583],[-91.19375,49.79583],[-91.19375,49.79167],[-91.2,49.79167]]]}},{"type":"Feature","properties":{"c":"918471","o":"","e":""},"geometry":{"type":"Polygon","coordinates":[[[-91.19375,49.8],[-91.19375,49.80417],[-91.1875,49.80417],[-91.1875,49.8],[-91.19375,49.8]]]}},{"type":"Feature","properties":{"c":"918472","o":"","e":""},"geometry":{"type":"Polygon","coordinates":[[[-91.20625,49.79167],[-91.20625,49.79583],[-91.2,49.79583],[-91.2,49.79167],[-91.20625,49.79167]]]}},{"type":"Feature","properties":{"c":"918473","o":"","e":""},"geometry":{"type":"Polygon","coordinates":[[[-91.20625,49.79583],[-91.20625,49.8],[-91.2,49.8],[-91.2,49.79583],[-91.20625,49.79583]]]}},{"type":"Feature","properties":{"c":"918474","o":"","e":""},"geometry":{"type":"Polygon","coordinates":[[[-91.225,49.79583],[-91.225,49.8],[-91.21875,49.8],[-91.21875,49.79583],[-91.225,49.79583]]]}},{"type":"Feature","properties":{"c":"918475","o":"","e":""},"geometry":{"type":"Polygon","coordinates":[[[-91.21875,49.79583],[-91.21875,49.8],[-91.2125,49.8],[-91.2125,49.79583],[-91.21875,49.79583]]]}},{"type":"Feature","properties":{"c":"918476","o":"","e":""},"geometry":{"type":"Polygon","coordinates":[[[-91.2125,49.8],[-91.2125,49.80417],[-91.20625,49.80417],[-91.20625,49.8],[-91.2125,49.8]]]}},{"type":"Feature","properties":{"c":"918477","o":"","e":""},"geometry":{"type":"Polygon","coordinates":[[[-91.2,49.78333],[-91.2,49.7875],[-91.19375,49.7875],[-91.19375,49.78333],[-91.2,49.78333]]]}},{"type":"Feature","properties":{"c":"918478","o":"","e":""},"geometry":{"type":"Polygon","coordinates":[[[-91.2,49.7875],[-91.2,49.79167],[-91.19375,49.79167],[-91.19375,49.7875],[-91.2,49.7875]]]}},{"type":"Feature","properties":{"c":"918479","o":"","e":""},"geometry":{"type":"Polygon","coordinates":[[[-91.2,49.8],[-91.2,49.80417],[-91.19375,49.80417],[-91.19375,49.8],[-91.2,49.8]]]}},{"type":"Feature","properties":{"c":"918480","o":"","e":""},"geometry":{"type":"Polygon","coordinates":[[[-91.225,49.8],[-91.225,49.80417],[-91.21875,49.80417],[-91.21875,49.8],[-91.225,49.8]]]}},{"type":"Feature","properties":{"c":"918481","o":"","e":""},"geometry":{"type":"Polygon","coordinates":[[[-91.19375,49.79167],[-91.19375,49.79583],[-91.1875,49.79583],[-91.1875,49.79167],[-91.19375,49.79167]]]}},{"type":"Feature","properties":{"c":"918482","o":"","e":""},"geometry":{"type":"Polygon","coordinates":[[[-91.19375,49.79583],[-91.19375,49.8],[-91.1875,49.8],[-91.1875,49.79583],[-91.19375,49.79583]]]}},{"type":"Feature","properties":{"c":"918483","o":"","e":""},"geometry":{"type":"Polygon","coordinates":[[[-91.2125,49.7875],[-91.2125,49.79167],[-91.20625,49.79167],[-91.20625,49.7875],[-91.2125,49.7875]]]}},{"type":"Feature","properties":{"c":"918484","o":"","e":""},"geometry":{"type":"Polygon","coordinates":[[[-91.2125,49.79167],[-91.2125,49.79583],[-91.20625,49.79583],[-91.20625,49.79167],[-91.2125,49.79167]]]}},{"type":"Feature","properties":{"c":"918552","o":"","e":""},"geometry":{"type":"Polygon","coordinates":[[[-91.24375,49.8125],[-91.24375,49.81667],[-91.2375,49.81667],[-91.2375,49.8125],[-91.24375,49.8125]]]}},{"type":"Feature","properties":{"c":"918551","o":"","e":""},"geometry":{"type":"Polygon","coordinates":[[[-91.25625,49.81667],[-91.25625,49.82083],[-91.25,49.82083],[-91.25,49.81667],[-91.25625,49.81667]]]}},{"type":"Feature","properties":{"c":"918553","o":"","e":""},"geometry":{"type":"Polygon","coordinates":[[[-91.2375,49.8125],[-91.2375,49.81667],[-91.23125,49.81667],[-91.23125,49.8125],[-91.2375,49.8125]]]}},{"type":"Feature","properties":{"c":"918554","o":"","e":""},"geometry":{"type":"Polygon","coordinates":[[[-91.2375,49.825],[-91.2375,49.82917],[-91.23125,49.82917],[-91.23125,49.825],[-91.2375,49.825]]]}},{"type":"Feature","properties":{"c":"918555","o":"","e":""},"geometry":{"type":"Polygon","coordinates":[[[-91.225,49.82083],[-91.225,49.825],[-91.21875,49.825],[-91.21875,49.82083],[-91.225,49.82083]]]}},{"type":"Feature","properties":{"c":"918556","o":"","e":""},"geometry":{"type":"Polygon","coordinates":[[[-91.225,49.825],[-91.225,49.82917],[-91.21875,49.82917],[-91.21875,49.825],[-91.225,49.825]]]}},{"type":"Feature","properties":{"c":"918557","o":"","e":""},"geometry":{"type":"Polygon","coordinates":[[[-91.24375,49.82917],[-91.24375,49.83333],[-91.2375,49.83333],[-91.2375,49.82917],[-91.24375,49.82917]]]}},{"type":"Feature","properties":{"c":"918558","o":"","e":""},"geometry":{"type":"Polygon","coordinates":[[[-91.225,49.82917],[-91.225,49.83333],[-91.21875,49.83333],[-91.21875,49.82917],[-91.225,49.82917]]]}},{"type":"Feature","properties":{"c":"918559","o":"","e":""},"geometry":{"type":"Polygon","coordinates":[[[-91.25625,49.8125],[-91.25625,49.81667],[-91.25,49.81667],[-91.25,49.8125],[-91.25625,49.8125]]]}},{"type":"Feature","properties":{"c":"918560","o":"","e":""},"geometry":{"type":"Polygon","coordinates":[[[-91.24375,49.81667],[-91.24375,49.82083],[-91.2375,49.82083],[-91.2375,49.81667],[-91.24375,49.81667]]]}},{"type":"Feature","properties":{"c":"918561","o":"","e":""},"geometry":{"type":"Polygon","coordinates":[[[-91.2375,49.82917],[-91.2375,49.83333],[-91.23125,49.83333],[-91.23125,49.82917],[-91.2375,49.82917]]]}},{"type":"Feature","properties":{"c":"918570","o":"","e":""},"geometry":{"type":"Polygon","coordinates":[[[-91.2125,49.82917],[-91.2125,49.83333],[-91.20625,49.83333],[-91.20625,49.82917],[-91.2125,49.82917]]]}},{"type":"Feature","properties":{"c":"943981","o":"","e":""},"geometry":{"type":"Polygon","coordinates":[[[-91.24375,49.80417],[-91.24375,49.80833],[-91.2375,49.80833],[-91.23125,49.80833],[-91.23125,49.80417],[-91.2375,49.80417],[-91.24375,49.80417]]]}},{"type":"Feature","properties":{"c":"918279","o":"","e":""},"geometry":{"type":"Polygon","coordinates":[[[-91.23125,49.81667],[-91.23125,49.82083],[-91.225,49.82083],[-91.225,49.81667],[-91.23125,49.81667]]]}},{"type":"Feature","properties":{"c":"918529","o":"","e":""},"geometry":{"type":"Polygon","coordinates":[[[-91.16875,49.81667],[-91.16875,49.82083],[-91.1625,49.82083],[-91.1625,49.81667],[-91.16875,49.81667]]]}},{"type":"Feature","properties":{"c":"918530","o":"","e":""},"geometry":{"type":"Polygon","coordinates":[[[-91.15,49.80417],[-91.15,49.80833],[-91.14375,49.80833],[-91.14375,49.80417],[-91.15,49.80417]]]}},{"type":"Feature","properties":{"c":"918531","o":"","e":""},"geometry":{"type":"Polygon","coordinates":[[[-91.15,49.80833],[-91.15,49.8125],[-91.14375,49.8125],[-91.14375,49.80833],[-91.15,49.80833]]]}},{"type":"Feature","properties":{"c":"918532","o":"","e":""},"geometry":{"type":"Polygon","coordinates":[[[-91.14375,49.80417],[-91.14375,49.80833],[-91.1375,49.80833],[-91.1375,49.80417],[-91.14375,49.80417]]]}},{"type":"Feature","properties":{"c":"918533","o":"","e":""},"geometry":{"type":"Polygon","coordinates":[[[-91.125,49.80833],[-91.125,49.8125],[-91.11875,49.8125],[-91.11875,49.80833],[-91.125,49.80833]]]}},{"type":"Feature","properties":{"c":"918534","o":"","e":""},"geometry":{"type":"Polygon","coordinates":[[[-91.15625,49.80833],[-91.15625,49.8125],[-91.15,49.8125],[-91.15,49.80833],[-91.15625,49.80833]]]}},{"type":"Feature","properties":{"c":"918535","o":"","e":""},"geometry":{"type":"Polygon","coordinates":[[[-91.1375,49.80833],[-91.1375,49.8125],[-91.13125,49.8125],[-91.13125,49.80833],[-91.1375,49.80833]]]}},{"type":"Feature","properties":{"c":"918536","o":"","e":""},"geometry":{"type":"Polygon","coordinates":[[[-91.16875,49.8125],[-91.16875,49.81667],[-91.1625,49.81667],[-91.1625,49.8125],[-91.16875,49.8125]]]}},{"type":"Feature","properties":{"c":"918537","o":"","e":""},"geometry":{"type":"Polygon","coordinates":[[[-91.1625,49.8125],[-91.1625,49.81667],[-91.15625,49.81667],[-91.15625,49.8125],[-91.1625,49.8125]]]}},{"type":"Feature","properties":{"c":"918538","o":"","e":""},"geometry":{"type":"Polygon","coordinates":[[[-91.14375,49.80833],[-91.14375,49.8125],[-91.1375,49.8125],[-91.1375,49.80833],[-91.14375,49.80833]]]}},{"type":"Feature","properties":{"c":"918539","o":"","e":""},"geometry":{"type":"Polygon","coordinates":[[[-91.13125,49.80833],[-91.13125,49.8125],[-91.125,49.8125],[-91.125,49.80833],[-91.13125,49.80833]]]}},{"type":"Feature","properties":{"c":"918540","o":"","e":""},"geometry":{"type":"Polygon","coordinates":[[[-91.15625,49.80417],[-91.15625,49.80833],[-91.15,49.80833],[-91.15,49.80417],[-91.15625,49.80417]]]}},{"type":"Feature","properties":{"c":"918541","o":"","e":""},"geometry":{"type":"Polygon","coordinates":[[[-91.15625,49.8125],[-91.15625,49.81667],[-91.15,49.81667],[-91.15,49.8125],[-91.15625,49.8125]]]}},{"type":"Feature","properties":{"c":"918542","o":"","e":""},"geometry":{"type":"Polygon","coordinates":[[[-91.16875,49.80417],[-91.16875,49.80833],[-91.1625,49.80833],[-91.1625,49.80417],[-91.16875,49.80417]]]}},{"type":"Feature","properties":{"c":"918543","o":"","e":""},"geometry":{"type":"Polygon","coordinates":[[[-91.175,49.81667],[-91.175,49.82083],[-91.16875,49.82083],[-91.16875,49.81667],[-91.175,49.81667]]]}},{"type":"Feature","properties":{"c":"918544","o":"","e":""},"geometry":{"type":"Polygon","coordinates":[[[-91.16875,49.80833],[-91.16875,49.8125],[-91.1625,49.8125],[-91.1625,49.80833],[-91.16875,49.80833]]]}},{"type":"Feature","properties":{"c":"918545","o":"","e":""},"geometry":{"type":"Polygon","coordinates":[[[-91.1625,49.80417],[-91.1625,49.80833],[-91.15625,49.80833],[-91.15625,49.80417],[-91.1625,49.80417]]]}},{"type":"Feature","properties":{"c":"918546","o":"","e":""},"geometry":{"type":"Polygon","coordinates":[[[-91.1625,49.80833],[-91.1625,49.8125],[-91.15625,49.8125],[-91.15625,49.80833],[-91.1625,49.80833]]]}},{"type":"Feature","properties":{"c":"918280","o":"","e":""},"geometry":{"type":"Polygon","coordinates":[[[-91.225,49.81667],[-91.225,49.82083],[-91.21875,49.82083],[-91.21875,49.81667],[-91.225,49.81667]]]}},{"type":"Feature","properties":{"c":"918281","o":"","e":""},"geometry":{"type":"Polygon","coordinates":[[[-91.21875,49.81667],[-91.21875,49.82083],[-91.2125,49.82083],[-91.2125,49.81667],[-91.21875,49.81667]]]}},{"type":"Feature","properties":{"c":"918282","o":"","e":""},"geometry":{"type":"Polygon","coordinates":[[[-91.2125,49.81667],[-91.2125,49.82083],[-91.20625,49.82083],[-91.20625,49.81667],[-91.2125,49.81667]]]}},{"type":"Feature","properties":{"c":"918283","o":"","e":""},"geometry":{"type":"Polygon","coordinates":[[[-91.23125,49.8125],[-91.23125,49.81667],[-91.225,49.81667],[-91.225,49.8125],[-91.23125,49.8125]]]}},{"type":"Feature","properties":{"c":"918284","o":"","e":""},"geometry":{"type":"Polygon","coordinates":[[[-91.225,49.8125],[-91.225,49.81667],[-91.21875,49.81667],[-91.21875,49.8125],[-91.225,49.8125]]]}},{"type":"Feature","properties":{"c":"918285","o":"","e":""},"geometry":{"type":"Polygon","coordinates":[[[-91.21875,49.8125],[-91.21875,49.81667],[-91.2125,49.81667],[-91.2125,49.8125],[-91.21875,49.8125]]]}},{"type":"Feature","properties":{"c":"1064615","o":"","e":""},"geometry":{"type":"Polygon","coordinates":[[[-91.15,49.89583],[-91.15,49.9],[-91.14375,49.9],[-91.14375,49.89583],[-91.15,49.89583]]]}},{"type":"Feature","properties":{"c":"1064616","o":"","e":""},"geometry":{"type":"Polygon","coordinates":[[[-91.14375,49.89583],[-91.14375,49.9],[-91.1375,49.9],[-91.1375,49.89583],[-91.14375,49.89583]]]}},{"type":"Feature","properties":{"c":"1037716","o":"","e":""},"geometry":{"type":"Polygon","coordinates":[[[-91.09375,49.92917],[-91.09375,49.93333],[-91.0875,49.93333],[-91.0875,49.92917],[-91.09375,49.92917]]]}},{"type":"Feature","properties":{"c":"1037715","o":"","e":""},"geometry":{"type":"Polygon","coordinates":[[[-91.10625,49.925],[-91.10625,49.92917],[-91.1,49.92917],[-91.1,49.925],[-91.10625,49.925]]]}},{"type":"Feature","properties":{"c":"1037717","o":"","e":""},"geometry":{"type":"Polygon","coordinates":[[[-91.1,49.93333],[-91.1,49.9375],[-91.09375,49.9375],[-91.09375,49.93333],[-91.1,49.93333]]]}},{"type":"Feature","properties":{"c":"1037718","o":"","e":""},"geometry":{"type":"Polygon","coordinates":[[[-91.0875,49.93333],[-91.0875,49.9375],[-91.08125,49.9375],[-91.08125,49.93333],[-91.0875,49.93333]]]}},{"type":"Feature","properties":{"c":"1037719","o":"","e":""},"geometry":{"type":"Polygon","coordinates":[[[-91.08125,49.92917],[-91.08125,49.93333],[-91.075,49.93333],[-91.075,49.92917],[-91.08125,49.92917]]]}},{"type":"Feature","properties":{"c":"1037720","o":"","e":""},"geometry":{"type":"Polygon","coordinates":[[[-91.1,49.92917],[-91.1,49.93333],[-91.09375,49.93333],[-91.09375,49.92917],[-91.1,49.92917]]]}},{"type":"Feature","properties":{"c":"1037721","o":"","e":""},"geometry":{"type":"Polygon","coordinates":[[[-91.08125,49.925],[-91.08125,49.92917],[-91.075,49.92917],[-91.075,49.925],[-91.08125,49.925]]]}},{"type":"Feature","properties":{"c":"1037722","o":"","e":""},"geometry":{"type":"Polygon","coordinates":[[[-91.04375,49.93333],[-91.04375,49.9375],[-91.0375,49.9375],[-91.0375,49.93333],[-91.04375,49.93333]]]}},{"type":"Feature","properties":{"c":"1037723","o":"","e":""},"geometry":{"type":"Polygon","coordinates":[[[-91.05,49.94167],[-91.05,49.94583],[-91.04375,49.94583],[-91.04375,49.94167],[-91.05,49.94167]]]}},{"type":"Feature","properties":{"c":"1037724","o":"","e":""},"geometry":{"type":"Polygon","coordinates":[[[-91.05,49.9375],[-91.05,49.94167],[-91.04375,49.94167],[-91.04375,49.9375],[-91.05,49.9375]]]}},{"type":"Feature","properties":{"c":"1037725","o":"","e":""},"geometry":{"type":"Polygon","coordinates":[[[-91.05625,49.94583],[-91.05625,49.95],[-91.05,49.95],[-91.05,49.94583],[-91.05625,49.94583]]]}},{"type":"Feature","properties":{"c":"1037726","o":"","e":""},"geometry":{"type":"Polygon","coordinates":[[[-91.05625,49.94167],[-91.05625,49.94583],[-91.05,49.94583],[-91.05,49.94167],[-91.05625,49.94167]]]}},{"type":"Feature","properties":{"c":"1037727","o":"","e":""},"geometry":{"type":"Polygon","coordinates":[[[-91.05,49.93333],[-91.05,49.9375],[-91.04375,49.9375],[-91.04375,49.93333],[-91.05,49.93333]]]}},{"type":"Feature","properties":{"c":"1037728","o":"","e":""},"geometry":{"type":"Polygon","coordinates":[[[-91.04375,49.9375],[-91.04375,49.94167],[-91.0375,49.94167],[-91.0375,49.9375],[-91.04375,49.9375]]]}},{"type":"Feature","properties":{"c":"918427","o":"","e":""},"geometry":{"type":"Polygon","coordinates":[[[-91.23125,49.775],[-91.23125,49.77917],[-91.225,49.77917],[-91.225,49.775],[-91.23125,49.775]]]}},{"type":"Feature","properties":{"c":"918426","o":"","e":""},"geometry":{"type":"Polygon","coordinates":[[[-91.2375,49.775],[-91.2375,49.77917],[-91.23125,49.77917],[-91.23125,49.775],[-91.2375,49.775]]]}},{"type":"Feature","properties":{"c":"918428","o":"","e":""},"geometry":{"type":"Polygon","coordinates":[[[-91.21875,49.775],[-91.21875,49.77917],[-91.2125,49.77917],[-91.2125,49.775],[-91.21875,49.775]]]}},{"type":"Feature","properties":{"c":"918429","o":"","e":""},"geometry":{"type":"Polygon","coordinates":[[[-91.2,49.77917],[-91.2,49.78333],[-91.19375,49.78333],[-91.19375,49.77917],[-91.2,49.77917]]]}},{"type":"Feature","properties":{"c":"918430","o":"","e":""},"geometry":{"type":"Polygon","coordinates":[[[-91.19375,49.77917],[-91.19375,49.78333],[-91.1875,49.78333],[-91.1875,49.77917],[-91.19375,49.77917]]]}},{"type":"Feature","properties":{"c":"918431","o":"","e":""},"geometry":{"type":"Polygon","coordinates":[[[-91.225,49.77917],[-91.225,49.78333],[-91.21875,49.78333],[-91.21875,49.77917],[-91.225,49.77917]]]}},{"type":"Feature","properties":{"c":"918432","o":"","e":""},"geometry":{"type":"Polygon","coordinates":[[[-91.21875,49.77917],[-91.21875,49.78333],[-91.2125,49.78333],[-91.2125,49.77917],[-91.21875,49.77917]]]}},{"type":"Feature","properties":{"c":"918433","o":"","e":""},"geometry":{"type":"Polygon","coordinates":[[[-91.2125,49.775],[-91.2125,49.77917],[-91.20625,49.77917],[-91.20625,49.775],[-91.2125,49.775]]]}},{"type":"Feature","properties":{"c":"918434","o":"","e":""},"geometry":{"type":"Polygon","coordinates":[[[-91.20625,49.775],[-91.20625,49.77917],[-91.2,49.77917],[-91.2,49.775],[-91.20625,49.775]]]}},{"type":"Feature","properties":{"c":"918435","o":"","e":""},"geometry":{"type":"Polygon","coordinates":[[[-91.18125,49.77917],[-91.18125,49.78333],[-91.175,49.78333],[-91.175,49.77917],[-91.18125,49.77917]]]}},{"type":"Feature","properties":{"c":"918436","o":"","e":""},"geometry":{"type":"Polygon","coordinates":[[[-91.2375,49.77917],[-91.2375,49.78333],[-91.23125,49.78333],[-91.23125,49.77917],[-91.2375,49.77917]]]}},{"type":"Feature","properties":{"c":"918437","o":"","e":""},"geometry":{"type":"Polygon","coordinates":[[[-91.225,49.775],[-91.225,49.77917],[-91.21875,49.77917],[-91.21875,49.775],[-91.225,49.775]]]}},{"type":"Feature","properties":{"c":"918438","o":"","e":""},"geometry":{"type":"Polygon","coordinates":[[[-91.1875,49.77917],[-91.1875,49.78333],[-91.18125,49.78333],[-91.18125,49.77917],[-91.1875,49.77917]]]}},{"type":"Feature","properties":{"c":"918439","o":"","e":""},"geometry":{"type":"Polygon","coordinates":[[[-91.23125,49.77917],[-91.23125,49.78333],[-91.225,49.78333],[-91.225,49.77917],[-91.23125,49.77917]]]}},{"type":"Feature","properties":{"c":"918440","o":"","e":""},"geometry":{"type":"Polygon","coordinates":[[[-91.18125,49.775],[-91.18125,49.77917],[-91.175,49.77917],[-91.175,49.775],[-91.18125,49.775]]]}},{"type":"Feature","properties":{"c":"918441","o":"","e":""},"geometry":{"type":"Polygon","coordinates":[[[-91.2,49.775],[-91.2,49.77917],[-91.19375,49.77917],[-91.19375,49.775],[-91.2,49.775]]]}},{"type":"Feature","properties":{"c":"918491","o":"","e":""},"geometry":{"type":"Polygon","coordinates":[[[-91.15625,49.79167],[-91.15625,49.79583],[-91.15,49.79583],[-91.15,49.79167],[-91.15625,49.79167]]]}},{"type":"Feature","properties":{"c":"918492","o":"","e":""},"geometry":{"type":"Polygon","coordinates":[[[-91.1625,49.7875],[-91.1625,49.79167],[-91.15625,49.79167],[-91.15625,49.7875],[-91.1625,49.7875]]]}},{"type":"Feature","properties":{"c":"918493","o":"","e":""},"geometry":{"type":"Polygon","coordinates":[[[-91.15625,49.79583],[-91.15625,49.8],[-91.15,49.8],[-91.15,49.79583],[-91.15625,49.79583]]]}},{"type":"Feature","properties":{"c":"918494","o":"","e":""},"geometry":{"type":"Polygon","coordinates":[[[-91.14375,49.79583],[-91.14375,49.8],[-91.1375,49.8],[-91.1375,49.79583],[-91.14375,49.79583]]]}},{"type":"Feature","properties":{"c":"918495","o":"","e":""},"geometry":{"type":"Polygon","coordinates":[[[-91.1375,49.8],[-91.1375,49.80417],[-91.13125,49.80417],[-91.13125,49.8],[-91.1375,49.8]]]}},{"type":"Feature","properties":{"c":"918496","o":"","e":""},"geometry":{"type":"Polygon","coordinates":[[[-91.15,49.79583],[-91.15,49.8],[-91.14375,49.8],[-91.14375,49.79583],[-91.15,49.79583]]]}},{"type":"Feature","properties":{"c":"918497","o":"","e":""},"geometry":{"type":"Polygon","coordinates":[[[-91.14375,49.8],[-91.14375,49.80417],[-91.1375,49.80417],[-91.1375,49.8],[-91.14375,49.8]]]}},{"type":"Feature","properties":{"c":"918498","o":"","e":""},"geometry":{"type":"Polygon","coordinates":[[[-91.1625,49.79167],[-91.1625,49.79583],[-91.15625,49.79583],[-91.15625,49.79167],[-91.1625,49.79167]]]}},{"type":"Feature","properties":{"c":"918499","o":"","e":""},"geometry":{"type":"Polygon","coordinates":[[[-91.1625,49.79583],[-91.1625,49.8],[-91.15625,49.8],[-91.15625,49.79583],[-91.1625,49.79583]]]}},{"type":"Feature","properties":{"c":"918500","o":"","e":""},"geometry":{"type":"Polygon","coordinates":[[[-91.16875,49.7875],[-91.16875,49.79167],[-91.1625,49.79167],[-91.1625,49.7875],[-91.16875,49.7875]]]}},{"type":"Feature","properties":{"c":"918501","o":"","e":""},"geometry":{"type":"Polygon","coordinates":[[[-91.16875,49.79167],[-91.16875,49.79583],[-91.1625,49.79583],[-91.1625,49.79167],[-91.16875,49.79167]]]}},{"type":"Feature","properties":{"c":"918502","o":"","e":""},"geometry":{"type":"Polygon","coordinates":[[[-91.16875,49.79583],[-91.16875,49.8],[-91.1625,49.8],[-91.1625,49.79583],[-91.16875,49.79583]]]}},{"type":"Feature","properties":{"c":"918504","o":"","e":""},"geometry":{"type":"Polygon","coordinates":[[[-91.1625,49.8],[-91.1625,49.80417],[-91.15625,49.80417],[-91.15625,49.8],[-91.1625,49.8]]]}},{"type":"Feature","properties":{"c":"918503","o":"","e":""},"geometry":{"type":"Polygon","coordinates":[[[-91.16875,49.8],[-91.16875,49.80417],[-91.1625,49.80417],[-91.1625,49.8],[-91.16875,49.8]]]}},{"type":"Feature","properties":{"c":"918505","o":"","e":""},"geometry":{"type":"Polygon","coordinates":[[[-91.15625,49.7875],[-91.15625,49.79167],[-91.15,49.79167],[-91.15,49.7875],[-91.15625,49.7875]]]}},{"type":"Feature","properties":{"c":"918506","o":"","e":""},"geometry":{"type":"Polygon","coordinates":[[[-91.15625,49.8],[-91.15625,49.80417],[-91.15,49.80417],[-91.15,49.8],[-91.15625,49.8]]]}},{"type":"Feature","properties":{"c":"918507","o":"","e":""},"geometry":{"type":"Polygon","coordinates":[[[-91.15,49.8],[-91.15,49.80417],[-91.14375,49.80417],[-91.14375,49.8],[-91.15,49.8]]]}},{"type":"Feature","properties":{"c":"918508","o":"","e":""},"geometry":{"type":"Polygon","coordinates":[[[-91.11875,49.80417],[-91.11875,49.80833],[-91.1125,49.80833],[-91.1125,49.80417],[-91.11875,49.80417]]]}},{"type":"Feature","properties":{"c":"918509","o":"","e":""},"geometry":{"type":"Polygon","coordinates":[[[-91.11875,49.80833],[-91.11875,49.8125],[-91.1125,49.8125],[-91.1125,49.80833],[-91.11875,49.80833]]]}},{"type":"Feature","properties":{"c":"918510","o":"","e":""},"geometry":{"type":"Polygon","coordinates":[[[-91.13125,49.80417],[-91.13125,49.80833],[-91.125,49.80833],[-91.125,49.80417],[-91.13125,49.80417]]]}},{"type":"Feature","properties":{"c":"918511","o":"","e":""},"geometry":{"type":"Polygon","coordinates":[[[-91.1125,49.80833],[-91.1125,49.8125],[-91.10625,49.8125],[-91.10625,49.80833],[-91.1125,49.80833]]]}},{"type":"Feature","properties":{"c":"918512","o":"","e":""},"geometry":{"type":"Polygon","coordinates":[[[-91.125,49.80417],[-91.125,49.80833],[-91.11875,49.80833],[-91.11875,49.80417],[-91.125,49.80417]]]}},{"type":"Feature","properties":{"c":"918513","o":"","e":""},"geometry":{"type":"Polygon","coordinates":[[[-91.10625,49.80833],[-91.10625,49.8125],[-91.1,49.8125],[-91.1,49.80833],[-91.10625,49.80833]]]}},{"type":"Feature","properties":{"c":"918514","o":"","e":""},"geometry":{"type":"Polygon","coordinates":[[[-91.1375,49.80417],[-91.1375,49.80833],[-91.13125,49.80833],[-91.13125,49.80417],[-91.1375,49.80417]]]}},{"type":"Feature","properties":{"c":"918515","o":"","e":""},"geometry":{"type":"Polygon","coordinates":[[[-91.1,49.80833],[-91.1,49.8125],[-91.09375,49.8125],[-91.09375,49.80833],[-91.1,49.80833]]]}},{"type":"Feature","properties":{"c":"767279","o":"","e":""},"geometry":{"type":"Polygon","coordinates":[[[-91.19375,49.82917],[-91.19375,49.83333],[-91.1875,49.83333],[-91.1875,49.82917],[-91.19375,49.82917]]]}},{"type":"Feature","properties":{"c":"767239","o":"","e":""},"geometry":{"type":"Polygon","coordinates":[[[-91.19375,49.82083],[-91.19375,49.825],[-91.1875,49.825],[-91.18125,49.825],[-91.18125,49.82917],[-91.18125,49.83333],[-91.1875,49.83333],[-91.1875,49.8375],[-91.1875,49.84167],[-91.18125,49.84167],[-91.175,49.84167],[-91.175,49.8375],[-91.175,49.83333],[-91.175,49.82917],[-91.175,49.825],[-91.16875,49.825],[-91.16875,49.82083],[-91.175,49.82083],[-91.175,49.81667],[-91.18125,49.81667],[-91.1875,49.81667],[-91.1875,49.82083],[-91.19375,49.82083]]]}},{"type":"Feature","properties":{"c":"767240","o":"","e":""},"geometry":{"type":"Polygon","coordinates":[[[-91.20625,49.82917],[-91.20625,49.83333],[-91.2,49.83333],[-91.2,49.82917],[-91.20625,49.82917]]]}},{"type":"Feature","properties":{"c":"767241","o":"","e":""},"geometry":{"type":"Polygon","coordinates":[[[-91.2,49.82917],[-91.2,49.83333],[-91.19375,49.83333],[-91.19375,49.82917],[-91.2,49.82917]]]}},{"type":"Feature","properties":{"c":"767242","o":"","e":""},"geometry":{"type":"Polygon","coordinates":[[[-91.1875,49.82917],[-91.1875,49.83333],[-91.18125,49.83333],[-91.18125,49.82917],[-91.1875,49.82917]]]}},{"type":"Feature","properties":{"c":"767243","o":"","e":""},"geometry":{"type":"Polygon","coordinates":[[[-91.21875,49.825],[-91.21875,49.82917],[-91.2125,49.82917],[-91.2125,49.825],[-91.21875,49.825]]]}},{"type":"Feature","properties":{"c":"767244","o":"","e":""},"geometry":{"type":"Polygon","coordinates":[[[-91.2125,49.825],[-91.2125,49.82917],[-91.20625,49.82917],[-91.20625,49.825],[-91.2125,49.825]]]}},{"type":"Feature","properties":{"c":"767245","o":"","e":""},"geometry":{"type":"Polygon","coordinates":[[[-91.20625,49.825],[-91.20625,49.82917],[-91.2,49.82917],[-91.2,49.825],[-91.20625,49.825]]]}},{"type":"Feature","properties":{"c":"767246","o":"","e":""},"geometry":{"type":"Polygon","coordinates":[[[-91.2,49.825],[-91.2,49.82917],[-91.19375,49.82917],[-91.19375,49.825],[-91.2,49.825]]]}},{"type":"Feature","properties":{"c":"767247","o":"","e":""},"geometry":{"type":"Polygon","coordinates":[[[-91.19375,49.825],[-91.19375,49.82917],[-91.1875,49.82917],[-91.1875,49.825],[-91.19375,49.825]]]}},{"type":"Feature","properties":{"c":"767248","o":"","e":""},"geometry":{"type":"Polygon","coordinates":[[[-91.1875,49.825],[-91.1875,49.82917],[-91.18125,49.82917],[-91.18125,49.825],[-91.1875,49.825]]]}},{"type":"Feature","properties":{"c":"767249","o":"","e":""},"geometry":{"type":"Polygon","coordinates":[[[-91.21875,49.82083],[-91.21875,49.825],[-91.2125,49.825],[-91.2125,49.82083],[-91.21875,49.82083]]]}},{"type":"Feature","properties":{"c":"767250","o":"","e":""},"geometry":{"type":"Polygon","coordinates":[[[-91.2125,49.82083],[-91.2125,49.825],[-91.20625,49.825],[-91.20625,49.82083],[-91.2125,49.82083]]]}},{"type":"Feature","properties":{"c":"767251","o":"","e":""},"geometry":{"type":"Polygon","coordinates":[[[-91.20625,49.82083],[-91.20625,49.825],[-91.2,49.825],[-91.2,49.82083],[-91.20625,49.82083]]]}},{"type":"Feature","properties":{"c":"767252","o":"","e":""},"geometry":{"type":"Polygon","coordinates":[[[-91.2,49.82083],[-91.2,49.825],[-91.19375,49.825],[-91.19375,49.82083],[-91.2,49.82083]]]}},{"type":"Feature","properties":{"c":"771173","o":"","e":""},"geometry":{"type":"Polygon","coordinates":[[[-91.03125,49.96667],[-91.03125,49.97083],[-91.025,49.97083],[-91.025,49.96667],[-91.03125,49.96667]]]}},{"type":"Feature","properties":{"c":"1037729","o":"","e":""},"geometry":{"type":"Polygon","coordinates":[[[-91.0875,49.90833],[-91.0875,49.9125],[-91.08125,49.9125],[-91.08125,49.90833],[-91.0875,49.90833]]]}},{"type":"Feature","properties":{"c":"1037730","o":"","e":""},"geometry":{"type":"Polygon","coordinates":[[[-91.09375,49.90833],[-91.09375,49.9125],[-91.0875,49.9125],[-91.0875,49.90833],[-91.09375,49.90833]]]}},{"type":"Feature","properties":{"c":"1037731","o":"","e":""},"geometry":{"type":"Polygon","coordinates":[[[-91.0875,49.90417],[-91.0875,49.90833],[-91.08125,49.90833],[-91.08125,49.90417],[-91.0875,49.90417]]]}},{"type":"Feature","properties":{"c":"1037732","o":"","e":""},"geometry":{"type":"Polygon","coordinates":[[[-91.1,49.90417],[-91.1,49.90833],[-91.09375,49.90833],[-91.09375,49.90417],[-91.1,49.90417]]]}},{"type":"Feature","properties":{"c":"1037733","o":"","e":""},"geometry":{"type":"Polygon","coordinates":[[[-91.08125,49.90417],[-91.08125,49.90833],[-91.075,49.90833],[-91.075,49.90417],[-91.08125,49.90417]]]}},{"type":"Feature","properties":{"c":"1037734","o":"","e":""},"geometry":{"type":"Polygon","coordinates":[[[-91.09375,49.90417],[-91.09375,49.90833],[-91.0875,49.90833],[-91.0875,49.90417],[-91.09375,49.90417]]]}},{"type":"Feature","properties":{"c":"1037735","o":"","e":""},"geometry":{"type":"Polygon","coordinates":[[[-91.08125,49.90833],[-91.08125,49.9125],[-91.075,49.9125],[-91.075,49.90833],[-91.08125,49.90833]]]}},{"type":"Feature","properties":{"c":"1037736","o":"","e":""},"geometry":{"type":"Polygon","coordinates":[[[-91.08125,49.9125],[-91.08125,49.91667],[-91.075,49.91667],[-91.075,49.9125],[-91.08125,49.9125]]]}},{"type":"Feature","properties":{"c":"1037737","o":"","e":""},"geometry":{"type":"Polygon","coordinates":[[[-91.0875,49.91667],[-91.0875,49.92083],[-91.08125,49.92083],[-91.08125,49.91667],[-91.0875,49.91667]]]}},{"type":"Feature","properties":{"c":"1037738","o":"","e":""},"geometry":{"type":"Polygon","coordinates":[[[-91.08125,49.91667],[-91.08125,49.92083],[-91.075,49.92083],[-91.075,49.91667],[-91.08125,49.91667]]]}},{"type":"Feature","properties":{"c":"1037739","o":"","e":""},"geometry":{"type":"Polygon","coordinates":[[[-91.075,49.91667],[-91.075,49.92083],[-91.06875,49.92083],[-91.06875,49.91667],[-91.075,49.91667]]]}},{"type":"Feature","properties":{"c":"1037740","o":"","e":""},"geometry":{"type":"Polygon","coordinates":[[[-91.075,49.9125],[-91.075,49.91667],[-91.06875,49.91667],[-91.06875,49.9125],[-91.075,49.9125]]]}},{"type":"Feature","properties":{"c":"917436","o":"","e":""},"geometry":{"type":"Polygon","coordinates":[[[-91.09375,49.84583],[-91.1,49.84583],[-91.1,49.85],[-91.09375,49.85],[-91.0875,49.85],[-91.0875,49.84583],[-91.0875,49.84167],[-91.08125,49.84167],[-91.08125,49.84583],[-91.08125,49.85],[-91.075,49.85],[-91.06875,49.85],[-91.0625,49.85],[-91.0625,49.84583],[-91.0625,49.84167],[-91.06875,49.84167],[-91.06875,49.8375],[-91.075,49.8375],[-91.08125,49.8375],[-91.0875,49.8375],[-91.09375,49.8375],[-91.09375,49.84167],[-91.09375,49.84583]]]}},{"type":"Feature","properties":{"c":"1021059","o":"","e":""},"geometry":{"type":"Polygon","coordinates":[[[-91.0125,49.9625],[-91.0125,49.96667],[-91.00625,49.96667],[-91.00625,49.9625],[-91.0125,49.9625]]]}},{"type":"Feature","properties":{"c":"1021060","o":"","e":""},"geometry":{"type":"Polygon","coordinates":[[[-91.0125,49.97083],[-91.0125,49.975],[-91.00625,49.975],[-91.00625,49.97083],[-91.0125,49.97083]]]}},{"type":"Feature","properties":{"c":"1021061","o":"","e":""},"geometry":{"type":"Polygon","coordinates":[[[-91.04375,49.97083],[-91.04375,49.975],[-91.0375,49.975],[-91.0375,49.97083],[-91.04375,49.97083]]]}},{"type":"Feature","properties":{"c":"1021062","o":"","e":""},"geometry":{"type":"Polygon","coordinates":[[[-91.01875,49.9625],[-91.01875,49.96667],[-91.0125,49.96667],[-91.0125,49.9625],[-91.01875,49.9625]]]}},{"type":"Feature","properties":{"c":"1021063","o":"","e":""},"geometry":{"type":"Polygon","coordinates":[[[-91.01875,49.96667],[-91.01875,49.97083],[-91.0125,49.97083],[-91.0125,49.96667],[-91.01875,49.96667]]]}},{"type":"Feature","properties":{"c":"1021064","o":"","e":""},"geometry":{"type":"Polygon","coordinates":[[[-91.0125,49.96667],[-91.0125,49.97083],[-91.00625,49.97083],[-91.00625,49.96667],[-91.0125,49.96667]]]}},{"type":"Feature","properties":{"c":"1021065","o":"","e":""},"geometry":{"type":"Polygon","coordinates":[[[-91.04375,49.96667],[-91.04375,49.97083],[-91.0375,49.97083],[-91.0375,49.96667],[-91.04375,49.96667]]]}},{"type":"Feature","properties":{"c":"1021066","o":"","e":""},"geometry":{"type":"Polygon","coordinates":[[[-91.025,49.975],[-91.025,49.97917],[-91.01875,49.97917],[-91.01875,49.975],[-91.025,49.975]]]}},{"type":"Feature","properties":{"c":"1021067","o":"","e":""},"geometry":{"type":"Polygon","coordinates":[[[-91.01875,49.97083],[-91.01875,49.975],[-91.0125,49.975],[-91.0125,49.97083],[-91.01875,49.97083]]]}},{"type":"Feature","properties":{"c":"1021068","o":"","e":""},"geometry":{"type":"Polygon","coordinates":[[[-91.03125,49.975],[-91.03125,49.97917],[-91.025,49.97917],[-91.025,49.975],[-91.03125,49.975]]]}}]}