{"type":"FeatureCollection","features":[{"type":"Feature","properties":{"c":"MB5263","o":"W.S. FERREIRA LTD.","e":"2028-07-02"},"geometry":{"type":"Polygon","coordinates":[[[-93.0,56.0],[-93.0,56.0],[-93.0,56.0],[-93.0,56.0]]]}},{"type":"Feature","properties":{"c":"MB5264","o":"W.S. FERREIRA LTD.","e":"2031-07-02"},"geometry":{"type":"Polygon","coordinates":[[[-93.0,56.0],[-93.0,56.0],[-93.0,56.0],[-93.0,56.0]]]}},{"type":"Feature","properties":{"c":"MB5372","o":"W.S. FERREIRA LTD.","e":"2032-09-04"},"geometry":{"type":"Polygon","coordinates":[[[-93.0,56.0],[-93.0,56.0],[-93.0,56.0],[-93.0,56.0]]]}}]}