{"type":"FeatureCollection","features":[{"type":"Feature","properties":{"c":"1035358","o":"","e":""},"geometry":{"type":"Polygon","coordinates":[[[-93.18125,53.8625],[-93.175,53.8625],[-93.175,53.86667],[-93.16875,53.86667],[-93.16875,53.87083],[-93.1625,53.87083],[-93.1625,53.875],[-93.15625,53.875],[-93.15625,53.87083],[-93.15625,53.86667],[-93.15625,53.8625],[-93.15625,53.85833],[-93.15625,53.85417],[-93.1625,53.85417],[-93.16875,53.85417],[-93.175,53.85417],[-93.18125,53.85417],[-93.18125,53.85833],[-93.18125,53.8625]]]}},{"type":"Feature","properties":{"c":"1035359","o":"","e":""},"geometry":{"type":"Polygon","coordinates":[[[-93.18125,53.85],[-93.18125,53.85417],[-93.175,53.85417],[-93.16875,53.85417],[-93.1625,53.85417],[-93.15625,53.85417],[-93.15625,53.85],[-93.15625,53.84583],[-93.1625,53.84583],[-93.16875,53.84583],[-93.16875,53.84167],[-93.175,53.84167],[-93.18125,53.84167],[-93.18125,53.84583],[-93.18125,53.85]]]}},{"type":"Feature","properties":{"c":"1035361","o":"","e":""},"geometry":{"type":"Polygon","coordinates":[[[-93.15625,53.8875],[-93.15625,53.89167],[-93.15,53.89167],[-93.14375,53.89167],[-93.14375,53.8875],[-93.14375,53.88333],[-93.14375,53.87917],[-93.15,53.87917],[-93.15625,53.87917],[-93.15625,53.88333],[-93.15625,53.8875]]]}},{"type":"Feature","properties":{"c":"1035362","o":"","e":""},"geometry":{"type":"Polygon","coordinates":[[[-93.15625,53.875],[-93.15625,53.87917],[-93.15,53.87917],[-93.14375,53.87917],[-93.14375,53.875],[-93.14375,53.87083],[-93.14375,53.86667],[-93.15,53.86667],[-93.15625,53.86667],[-93.15625,53.87083],[-93.15625,53.875]]]}},{"type":"Feature","properties":{"c":"1035363","o":"","e":""},"geometry":{"type":"Polygon","coordinates":[[[-93.14375,53.9],[-93.1375,53.9],[-93.13125,53.9],[-93.13125,53.89583],[-93.13125,53.89167],[-93.1375,53.89167],[-93.14375,53.89167],[-93.14375,53.89583],[-93.14375,53.9]]]}},{"type":"Feature","properties":{"c":"1035365","o":"","e":""},"geometry":{"type":"Polygon","coordinates":[[[-93.14375,53.875],[-93.14375,53.87917],[-93.1375,53.87917],[-93.13125,53.87917],[-93.13125,53.875],[-93.13125,53.87083],[-93.13125,53.86667],[-93.1375,53.86667],[-93.14375,53.86667],[-93.14375,53.87083],[-93.14375,53.875]]]}},{"type":"Feature","properties":{"c":"1035366","o":"","e":""},"geometry":{"type":"Polygon","coordinates":[[[-93.15625,53.85833],[-93.15625,53.8625],[-93.15625,53.86667],[-93.15,53.86667],[-93.14375,53.86667],[-93.1375,53.86667],[-93.13125,53.86667],[-93.13125,53.8625],[-93.13125,53.85833],[-93.13125,53.85417],[-93.13125,53.85],[-93.1375,53.85],[-93.14375,53.85],[-93.15,53.85],[-93.15625,53.85],[-93.15625,53.85417],[-93.15625,53.85833]]]}},{"type":"Feature","properties":{"c":"1035387","o":"","e":""},"geometry":{"type":"Polygon","coordinates":[[[-93.06875,53.8875],[-93.06875,53.89167],[-93.0625,53.89167],[-93.05625,53.89167],[-93.05625,53.8875],[-93.05625,53.88333],[-93.05625,53.87917],[-93.0625,53.87917],[-93.06875,53.87917],[-93.06875,53.88333],[-93.06875,53.8875]]]}},{"type":"Feature","properties":{"c":"1035390","o":"","e":""},"geometry":{"type":"Polygon","coordinates":[[[-93.0875,53.84583],[-93.0875,53.85],[-93.08125,53.85],[-93.075,53.85],[-93.06875,53.85],[-93.06875,53.84583],[-93.06875,53.84167],[-93.075,53.84167],[-93.075,53.84583],[-93.08125,53.84583],[-93.0875,53.84583]]]}},{"type":"Feature","properties":{"c":"1035396","o":"","e":""},"geometry":{"type":"Polygon","coordinates":[[[-93.05625,53.875],[-93.05625,53.87917],[-93.05,53.87917],[-93.04375,53.87917],[-93.0375,53.87917],[-93.0375,53.875],[-93.0375,53.87083],[-93.0375,53.86667],[-93.04375,53.86667],[-93.05,53.86667],[-93.05625,53.86667],[-93.05625,53.87083],[-93.05625,53.875]]]}},{"type":"Feature","properties":{"c":"1035367","o":"","e":""},"geometry":{"type":"Polygon","coordinates":[[[-93.13125,53.9],[-93.13125,53.90417],[-93.125,53.90417],[-93.11875,53.90417],[-93.11875,53.9],[-93.11875,53.89583],[-93.11875,53.89167],[-93.125,53.89167],[-93.13125,53.89167],[-93.13125,53.89583],[-93.13125,53.9]]]}},{"type":"Feature","properties":{"c":"1035371","o":"","e":""},"geometry":{"type":"Polygon","coordinates":[[[-93.11875,53.8875],[-93.11875,53.89167],[-93.1125,53.89167],[-93.10625,53.89167],[-93.10625,53.8875],[-93.10625,53.88333],[-93.10625,53.87917],[-93.1125,53.87917],[-93.11875,53.87917],[-93.11875,53.88333],[-93.11875,53.8875]]]}},{"type":"Feature","properties":{"c":"1035375","o":"","e":""},"geometry":{"type":"Polygon","coordinates":[[[-93.10625,53.8875],[-93.10625,53.89167],[-93.1,53.89167],[-93.09375,53.89167],[-93.09375,53.8875],[-93.09375,53.88333],[-93.09375,53.87917],[-93.1,53.87917],[-93.10625,53.87917],[-93.10625,53.88333],[-93.10625,53.8875]]]}},{"type":"Feature","properties":{"c":"1035379","o":"","e":""},"geometry":{"type":"Polygon","coordinates":[[[-93.09375,53.8875],[-93.09375,53.89167],[-93.0875,53.89167],[-93.08125,53.89167],[-93.08125,53.8875],[-93.08125,53.88333],[-93.08125,53.87917],[-93.0875,53.87917],[-93.09375,53.87917],[-93.09375,53.88333],[-93.09375,53.8875]]]}},{"type":"Feature","properties":{"c":"1035400","o":"","e":""},"geometry":{"type":"Polygon","coordinates":[[[-93.03125,53.9125],[-93.025,53.9125],[-93.01875,53.9125],[-93.0125,53.9125],[-93.00625,53.9125],[-93.00625,53.90833],[-93.00625,53.90417],[-93.0125,53.90417],[-93.01875,53.90417],[-93.025,53.90417],[-93.03125,53.90417],[-93.03125,53.90833],[-93.03125,53.9125]]]}},{"type":"Feature","properties":{"c":"1035403","o":"","e":""},"geometry":{"type":"Polygon","coordinates":[[[-93.0375,53.8875],[-93.0375,53.89167],[-93.03125,53.89167],[-93.025,53.89167],[-93.01875,53.89167],[-93.01875,53.8875],[-93.01875,53.88333],[-93.01875,53.87917],[-93.025,53.87917],[-93.03125,53.87917],[-93.0375,53.87917],[-93.0375,53.88333],[-93.0375,53.8875]]]}},{"type":"Feature","properties":{"c":"1035377","o":"","e":""},"geometry":{"type":"Polygon","coordinates":[[[-93.1,53.90417],[-93.1,53.90833],[-93.09375,53.90833],[-93.0875,53.90833],[-93.0875,53.9125],[-93.08125,53.9125],[-93.08125,53.90833],[-93.08125,53.90417],[-93.0875,53.90417],[-93.09375,53.90417],[-93.1,53.90417]]]}},{"type":"Feature","properties":{"c":"1035369","o":"","e":""},"geometry":{"type":"Polygon","coordinates":[[[-93.13125,53.875],[-93.13125,53.87917],[-93.125,53.87917],[-93.11875,53.87917],[-93.11875,53.875],[-93.11875,53.87083],[-93.11875,53.86667],[-93.125,53.86667],[-93.13125,53.86667],[-93.13125,53.87083],[-93.13125,53.875]]]}},{"type":"Feature","properties":{"c":"1035372","o":"","e":""},"geometry":{"type":"Polygon","coordinates":[[[-93.11875,53.875],[-93.11875,53.87917],[-93.1125,53.87917],[-93.10625,53.87917],[-93.10625,53.875],[-93.10625,53.87083],[-93.10625,53.86667],[-93.1125,53.86667],[-93.11875,53.86667],[-93.11875,53.87083],[-93.11875,53.875]]]}},{"type":"Feature","properties":{"c":"1035380","o":"","e":""},"geometry":{"type":"Polygon","coordinates":[[[-93.09375,53.875],[-93.09375,53.87917],[-93.0875,53.87917],[-93.08125,53.87917],[-93.075,53.87917],[-93.075,53.875],[-93.08125,53.875],[-93.0875,53.875],[-93.0875,53.87083],[-93.0875,53.86667],[-93.09375,53.86667],[-93.09375,53.87083],[-93.09375,53.875]]]}},{"type":"Feature","properties":{"c":"1035404","o":"","e":""},"geometry":{"type":"Polygon","coordinates":[[[-93.0375,53.875],[-93.0375,53.87917],[-93.03125,53.87917],[-93.025,53.87917],[-93.01875,53.87917],[-93.01875,53.875],[-93.01875,53.87083],[-93.01875,53.86667],[-93.025,53.86667],[-93.03125,53.86667],[-93.0375,53.86667],[-93.0375,53.87083],[-93.0375,53.875]]]}},{"type":"Feature","properties":{"c":"1035413","o":"","e":""},"geometry":{"type":"Polygon","coordinates":[[[-93.01875,53.8875],[-93.01875,53.89167],[-93.0125,53.89167],[-93.00625,53.89167],[-93.0,53.89167],[-93.0,53.8875],[-93.0,53.88333],[-93.0,53.87917],[-93.00625,53.87917],[-93.0125,53.87917],[-93.01875,53.87917],[-93.01875,53.88333],[-93.01875,53.8875]]]}},{"type":"Feature","properties":{"c":"1035419","o":"","e":""},"geometry":{"type":"Polygon","coordinates":[[[-93.03125,53.84167],[-93.03125,53.84583],[-93.03125,53.85],[-93.025,53.85],[-93.01875,53.85],[-93.01875,53.84583],[-93.01875,53.84167],[-93.01875,53.8375],[-93.01875,53.83333],[-93.025,53.83333],[-93.03125,53.83333],[-93.03125,53.8375],[-93.03125,53.84167]]]}},{"type":"Feature","properties":{"c":"1035424","o":"","e":""},"geometry":{"type":"Polygon","coordinates":[[[-93.01875,53.84167],[-93.01875,53.84583],[-93.01875,53.85],[-93.0125,53.85],[-93.00625,53.85],[-93.00625,53.84583],[-93.00625,53.84167],[-93.00625,53.8375],[-93.00625,53.83333],[-93.0125,53.83333],[-93.01875,53.83333],[-93.01875,53.8375],[-93.01875,53.84167]]]}},{"type":"Feature","properties":{"c":"1035368","o":"","e":""},"geometry":{"type":"Polygon","coordinates":[[[-93.13125,53.8875],[-93.13125,53.89167],[-93.125,53.89167],[-93.11875,53.89167],[-93.11875,53.8875],[-93.11875,53.88333],[-93.11875,53.87917],[-93.125,53.87917],[-93.13125,53.87917],[-93.13125,53.88333],[-93.13125,53.8875]]]}},{"type":"Feature","properties":{"c":"1035389","o":"","e":""},"geometry":{"type":"Polygon","coordinates":[[[-93.08125,53.85833],[-93.08125,53.8625],[-93.08125,53.86667],[-93.075,53.86667],[-93.06875,53.86667],[-93.0625,53.86667],[-93.05625,53.86667],[-93.05625,53.8625],[-93.05625,53.85833],[-93.05625,53.85417],[-93.05625,53.85],[-93.0625,53.85],[-93.06875,53.85],[-93.075,53.85],[-93.08125,53.85],[-93.08125,53.85417],[-93.08125,53.85833]]]}},{"type":"Feature","properties":{"c":"1035370","o":"","e":""},"geometry":{"type":"Polygon","coordinates":[[[-93.11875,53.9],[-93.11875,53.90417],[-93.1125,53.90417],[-93.10625,53.90417],[-93.10625,53.9],[-93.10625,53.89583],[-93.10625,53.89167],[-93.1125,53.89167],[-93.11875,53.89167],[-93.11875,53.89583],[-93.11875,53.9]]]}},{"type":"Feature","properties":{"c":"1035376","o":"","e":""},"geometry":{"type":"Polygon","coordinates":[[[-93.10625,53.875],[-93.10625,53.87917],[-93.1,53.87917],[-93.09375,53.87917],[-93.09375,53.875],[-93.09375,53.87083],[-93.09375,53.86667],[-93.1,53.86667],[-93.10625,53.86667],[-93.10625,53.87083],[-93.10625,53.875]]]}},{"type":"Feature","properties":{"c":"1035394","o":"","e":""},"geometry":{"type":"Polygon","coordinates":[[[-93.04375,53.9],[-93.04375,53.90417],[-93.0375,53.90417],[-93.03125,53.90417],[-93.03125,53.9],[-93.03125,53.89583],[-93.03125,53.89167],[-93.0375,53.89167],[-93.04375,53.89167],[-93.04375,53.89583],[-93.04375,53.9]]]}},{"type":"Feature","properties":{"c":"1035393","o":"","e":""},"geometry":{"type":"Polygon","coordinates":[[[-93.05625,53.9],[-93.05625,53.90417],[-93.05,53.90417],[-93.04375,53.90417],[-93.04375,53.9],[-93.04375,53.89583],[-93.04375,53.89167],[-93.05,53.89167],[-93.05625,53.89167],[-93.05625,53.89583],[-93.05625,53.9]]]}},{"type":"Feature","properties":{"c":"1035406","o":"","e":""},"geometry":{"type":"Polygon","coordinates":[[[-93.04375,53.825],[-93.04375,53.82917],[-93.04375,53.83333],[-93.0375,53.83333],[-93.03125,53.83333],[-93.03125,53.82917],[-93.03125,53.825],[-93.03125,53.82083],[-93.03125,53.81667],[-93.0375,53.81667],[-93.04375,53.81667],[-93.04375,53.82083],[-93.04375,53.825]]]}},{"type":"Feature","properties":{"c":"1035408","o":"","e":""},"geometry":{"type":"Polygon","coordinates":[[[-93.04375,53.80833],[-93.0375,53.80833],[-93.03125,53.80833],[-93.025,53.80833],[-93.025,53.80417],[-93.025,53.8],[-93.03125,53.8],[-93.0375,53.8],[-93.04375,53.8],[-93.04375,53.80417],[-93.04375,53.80833]]]}},{"type":"Feature","properties":{"c":"1035415","o":"","e":""},"geometry":{"type":"Polygon","coordinates":[[[-93.01875,53.875],[-93.01875,53.87917],[-93.0125,53.87917],[-93.00625,53.87917],[-93.0,53.87917],[-93.0,53.875],[-93.0,53.87083],[-93.0,53.86667],[-93.00625,53.86667],[-93.0125,53.86667],[-93.01875,53.86667],[-93.01875,53.87083],[-93.01875,53.875]]]}},{"type":"Feature","properties":{"c":"1035417","o":"","e":""},"geometry":{"type":"Polygon","coordinates":[[[-93.03125,53.85833],[-93.03125,53.8625],[-93.03125,53.86667],[-93.025,53.86667],[-93.01875,53.86667],[-93.0125,53.86667],[-93.00625,53.86667],[-93.00625,53.8625],[-93.00625,53.85833],[-93.00625,53.85417],[-93.00625,53.85],[-93.0125,53.85],[-93.01875,53.85],[-93.025,53.85],[-93.03125,53.85],[-93.03125,53.85417],[-93.03125,53.85833]]]}},{"type":"Feature","properties":{"c":"1035420","o":"","e":""},"geometry":{"type":"Polygon","coordinates":[[[-93.03125,53.825],[-93.03125,53.82917],[-93.03125,53.83333],[-93.025,53.83333],[-93.01875,53.83333],[-93.01875,53.82917],[-93.01875,53.825],[-93.01875,53.82083],[-93.01875,53.81667],[-93.025,53.81667],[-93.03125,53.81667],[-93.03125,53.82083],[-93.03125,53.825]]]}},{"type":"Feature","properties":{"c":"1035385","o":"","e":""},"geometry":{"type":"Polygon","coordinates":[[[-93.08125,53.9125],[-93.075,53.9125],[-93.06875,53.9125],[-93.0625,53.9125],[-93.05625,53.9125],[-93.05625,53.90833],[-93.05625,53.90417],[-93.0625,53.90417],[-93.06875,53.90417],[-93.075,53.90417],[-93.08125,53.90417],[-93.08125,53.90833],[-93.08125,53.9125]]]}},{"type":"Feature","properties":{"c":"1035398","o":"","e":""},"geometry":{"type":"Polygon","coordinates":[[[-93.06875,53.84167],[-93.06875,53.84583],[-93.06875,53.85],[-93.0625,53.85],[-93.05625,53.85],[-93.05,53.85],[-93.04375,53.85],[-93.04375,53.84583],[-93.04375,53.84167],[-93.04375,53.8375],[-93.04375,53.83333],[-93.05,53.83333],[-93.05625,53.83333],[-93.0625,53.83333],[-93.06875,53.83333],[-93.06875,53.8375],[-93.06875,53.84167]]]}},{"type":"Feature","properties":{"c":"1035386","o":"","e":""},"geometry":{"type":"Polygon","coordinates":[[[-93.06875,53.9],[-93.06875,53.90417],[-93.0625,53.90417],[-93.05625,53.90417],[-93.05625,53.9],[-93.05625,53.89583],[-93.05625,53.89167],[-93.0625,53.89167],[-93.06875,53.89167],[-93.06875,53.89583],[-93.06875,53.9]]]}},{"type":"Feature","properties":{"c":"1035397","o":"","e":""},"geometry":{"type":"Polygon","coordinates":[[[-93.05625,53.85833],[-93.05625,53.8625],[-93.05625,53.86667],[-93.05,53.86667],[-93.04375,53.86667],[-93.0375,53.86667],[-93.03125,53.86667],[-93.03125,53.8625],[-93.03125,53.85833],[-93.03125,53.85417],[-93.03125,53.85],[-93.0375,53.85],[-93.04375,53.85],[-93.05,53.85],[-93.05625,53.85],[-93.05625,53.85417],[-93.05625,53.85833]]]}},{"type":"Feature","properties":{"c":"1035422","o":"","e":""},"geometry":{"type":"Polygon","coordinates":[[[-93.025,53.80833],[-93.01875,53.80833],[-93.0125,53.80833],[-93.00625,53.80833],[-93.00625,53.80417],[-93.00625,53.8],[-93.0125,53.8],[-93.01875,53.8],[-93.025,53.8],[-93.025,53.80417],[-93.025,53.80833]]]}},{"type":"Feature","properties":{"c":"1035381","o":"","e":""},"geometry":{"type":"Polygon","coordinates":[[[-93.0875,53.875],[-93.08125,53.875],[-93.075,53.875],[-93.075,53.87083],[-93.075,53.86667],[-93.08125,53.86667],[-93.0875,53.86667],[-93.0875,53.87083],[-93.0875,53.875]]]}},{"type":"Feature","properties":{"c":"1035382","o":"","e":""},"geometry":{"type":"Polygon","coordinates":[[[-93.10625,53.85833],[-93.10625,53.8625],[-93.10625,53.86667],[-93.1,53.86667],[-93.09375,53.86667],[-93.0875,53.86667],[-93.08125,53.86667],[-93.08125,53.8625],[-93.08125,53.85833],[-93.08125,53.85417],[-93.08125,53.85],[-93.0875,53.85],[-93.09375,53.85],[-93.1,53.85],[-93.10625,53.85],[-93.10625,53.85417],[-93.10625,53.85833]]]}},{"type":"Feature","properties":{"c":"1035388","o":"","e":""},"geometry":{"type":"Polygon","coordinates":[[[-93.075,53.875],[-93.075,53.87917],[-93.06875,53.87917],[-93.0625,53.87917],[-93.05625,53.87917],[-93.05625,53.875],[-93.05625,53.87083],[-93.05625,53.86667],[-93.0625,53.86667],[-93.06875,53.86667],[-93.075,53.86667],[-93.075,53.87083],[-93.075,53.875]]]}},{"type":"Feature","properties":{"c":"1035399","o":"","e":""},"geometry":{"type":"Polygon","coordinates":[[[-93.06875,53.825],[-93.06875,53.82917],[-93.06875,53.83333],[-93.0625,53.83333],[-93.05625,53.83333],[-93.05,53.83333],[-93.04375,53.83333],[-93.04375,53.82917],[-93.04375,53.825],[-93.04375,53.82083],[-93.04375,53.81667],[-93.05,53.81667],[-93.05625,53.81667],[-93.0625,53.81667],[-93.06875,53.81667],[-93.06875,53.82083],[-93.06875,53.825]]]}},{"type":"Feature","properties":{"c":"1035409","o":"","e":""},"geometry":{"type":"Polygon","coordinates":[[[-93.04375,53.79583],[-93.04375,53.8],[-93.0375,53.8],[-93.03125,53.8],[-93.025,53.8],[-93.025,53.79583],[-93.025,53.79167],[-93.025,53.7875],[-93.03125,53.7875],[-93.0375,53.7875],[-93.04375,53.7875],[-93.04375,53.79167],[-93.04375,53.79583]]]}},{"type":"Feature","properties":{"c":"1035421","o":"","e":""},"geometry":{"type":"Polygon","coordinates":[[[-93.025,53.81667],[-93.01875,53.81667],[-93.0125,53.81667],[-93.00625,53.81667],[-93.00625,53.8125],[-93.00625,53.80833],[-93.0125,53.80833],[-93.01875,53.80833],[-93.025,53.80833],[-93.025,53.8125],[-93.025,53.81667]]]}},{"type":"Feature","properties":{"c":"1035357","o":"","e":""},"geometry":{"type":"Polygon","coordinates":[[[-93.20625,53.84583],[-93.2,53.84583],[-93.2,53.85],[-93.19375,53.85],[-93.19375,53.85417],[-93.1875,53.85417],[-93.1875,53.85833],[-93.18125,53.85833],[-93.18125,53.85417],[-93.18125,53.85],[-93.18125,53.84583],[-93.18125,53.84167],[-93.18125,53.8375],[-93.1875,53.8375],[-93.19375,53.8375],[-93.2,53.8375],[-93.20625,53.8375],[-93.20625,53.84167],[-93.20625,53.84583]]]}},{"type":"Feature","properties":{"c":"1035373","o":"","e":""},"geometry":{"type":"Polygon","coordinates":[[[-93.13125,53.85833],[-93.13125,53.8625],[-93.13125,53.86667],[-93.125,53.86667],[-93.11875,53.86667],[-93.1125,53.86667],[-93.10625,53.86667],[-93.10625,53.8625],[-93.10625,53.85833],[-93.10625,53.85417],[-93.10625,53.85],[-93.1125,53.85],[-93.11875,53.85],[-93.125,53.85],[-93.13125,53.85],[-93.13125,53.85417],[-93.13125,53.85833]]]}},{"type":"Feature","properties":{"c":"1035378","o":"","e":""},"geometry":{"type":"Polygon","coordinates":[[[-93.09375,53.9],[-93.09375,53.90417],[-93.0875,53.90417],[-93.08125,53.90417],[-93.08125,53.9],[-93.08125,53.89583],[-93.08125,53.89167],[-93.0875,53.89167],[-93.09375,53.89167],[-93.09375,53.89583],[-93.09375,53.9]]]}},{"type":"Feature","properties":{"c":"1035383","o":"","e":""},"geometry":{"type":"Polygon","coordinates":[[[-93.08125,53.9],[-93.08125,53.90417],[-93.075,53.90417],[-93.06875,53.90417],[-93.06875,53.9],[-93.06875,53.89583],[-93.06875,53.89167],[-93.075,53.89167],[-93.08125,53.89167],[-93.08125,53.89583],[-93.08125,53.9]]]}},{"type":"Feature","properties":{"c":"1035402","o":"","e":""},"geometry":{"type":"Polygon","coordinates":[[[-93.01875,53.9],[-93.01875,53.90417],[-93.0125,53.90417],[-93.00625,53.90417],[-93.00625,53.9],[-93.00625,53.89583],[-93.00625,53.89167],[-93.0125,53.89167],[-93.01875,53.89167],[-93.01875,53.89583],[-93.01875,53.9]]]}},{"type":"Feature","properties":{"c":"1035425","o":"","e":""},"geometry":{"type":"Polygon","coordinates":[[[-93.01875,53.825],[-93.01875,53.82917],[-93.01875,53.83333],[-93.0125,53.83333],[-93.00625,53.83333],[-93.00625,53.82917],[-93.00625,53.825],[-93.00625,53.82083],[-93.00625,53.81667],[-93.0125,53.81667],[-93.01875,53.81667],[-93.01875,53.82083],[-93.01875,53.825]]]}},{"type":"Feature","properties":{"c":"1035407","o":"","e":""},"geometry":{"type":"Polygon","coordinates":[[[-93.05,53.8125],[-93.05,53.81667],[-93.04375,53.81667],[-93.0375,53.81667],[-93.03125,53.81667],[-93.025,53.81667],[-93.025,53.8125],[-93.025,53.80833],[-93.03125,53.80833],[-93.0375,53.80833],[-93.04375,53.80833],[-93.04375,53.8125],[-93.05,53.8125]]]}},{"type":"Feature","properties":{"c":"1035405","o":"","e":""},"geometry":{"type":"Polygon","coordinates":[[[-93.04375,53.84167],[-93.04375,53.84583],[-93.04375,53.85],[-93.0375,53.85],[-93.03125,53.85],[-93.03125,53.84583],[-93.03125,53.84167],[-93.03125,53.8375],[-93.03125,53.83333],[-93.0375,53.83333],[-93.04375,53.83333],[-93.04375,53.8375],[-93.04375,53.84167]]]}},{"type":"Feature","properties":{"c":"1035423","o":"","e":""},"geometry":{"type":"Polygon","coordinates":[[[-93.025,53.79583],[-93.025,53.8],[-93.01875,53.8],[-93.0125,53.8],[-93.00625,53.8],[-93.00625,53.79583],[-93.00625,53.79167],[-93.00625,53.7875],[-93.0125,53.7875],[-93.01875,53.7875],[-93.025,53.7875],[-93.025,53.79167],[-93.025,53.79583]]]}},{"type":"Feature","properties":{"c":"1035374","o":"","e":""},"geometry":{"type":"Polygon","coordinates":[[[-93.10625,53.9],[-93.10625,53.90417],[-93.1,53.90417],[-93.09375,53.90417],[-93.09375,53.9],[-93.09375,53.89583],[-93.09375,53.89167],[-93.1,53.89167],[-93.10625,53.89167],[-93.10625,53.89583],[-93.10625,53.9]]]}},{"type":"Feature","properties":{"c":"1035391","o":"","e":""},"geometry":{"type":"Polygon","coordinates":[[[-93.05625,53.9125],[-93.05625,53.91667],[-93.05,53.91667],[-93.04375,53.91667],[-93.0375,53.91667],[-93.03125,53.91667],[-93.03125,53.9125],[-93.0375,53.9125],[-93.04375,53.9125],[-93.05,53.9125],[-93.05625,53.9125]]]}},{"type":"Feature","properties":{"c":"1035392","o":"","e":""},"geometry":{"type":"Polygon","coordinates":[[[-93.05625,53.9125],[-93.05,53.9125],[-93.04375,53.9125],[-93.0375,53.9125],[-93.03125,53.9125],[-93.03125,53.90833],[-93.03125,53.90417],[-93.0375,53.90417],[-93.04375,53.90417],[-93.05,53.90417],[-93.05625,53.90417],[-93.05625,53.90833],[-93.05625,53.9125]]]}},{"type":"Feature","properties":{"c":"1035360","o":"","e":""},"geometry":{"type":"Polygon","coordinates":[[[-93.15625,53.9],[-93.15,53.9],[-93.14375,53.9],[-93.14375,53.89583],[-93.14375,53.89167],[-93.15,53.89167],[-93.15625,53.89167],[-93.15625,53.89583],[-93.15625,53.9]]]}},{"type":"Feature","properties":{"c":"1035384","o":"","e":""},"geometry":{"type":"Polygon","coordinates":[[[-93.08125,53.8875],[-93.08125,53.89167],[-93.075,53.89167],[-93.06875,53.89167],[-93.06875,53.8875],[-93.06875,53.88333],[-93.06875,53.87917],[-93.075,53.87917],[-93.08125,53.87917],[-93.08125,53.88333],[-93.08125,53.8875]]]}},{"type":"Feature","properties":{"c":"1035364","o":"","e":""},"geometry":{"type":"Polygon","coordinates":[[[-93.14375,53.8875],[-93.14375,53.89167],[-93.1375,53.89167],[-93.13125,53.89167],[-93.13125,53.8875],[-93.13125,53.88333],[-93.13125,53.87917],[-93.1375,53.87917],[-93.14375,53.87917],[-93.14375,53.88333],[-93.14375,53.8875]]]}},{"type":"Feature","properties":{"c":"1035395","o":"","e":""},"geometry":{"type":"Polygon","coordinates":[[[-93.05625,53.8875],[-93.05625,53.89167],[-93.05,53.89167],[-93.04375,53.89167],[-93.0375,53.89167],[-93.0375,53.8875],[-93.0375,53.88333],[-93.0375,53.87917],[-93.04375,53.87917],[-93.05,53.87917],[-93.05625,53.87917],[-93.05625,53.88333],[-93.05625,53.8875]]]}},{"type":"Feature","properties":{"c":"1035401","o":"","e":""},"geometry":{"type":"Polygon","coordinates":[[[-93.03125,53.9],[-93.03125,53.90417],[-93.025,53.90417],[-93.01875,53.90417],[-93.01875,53.9],[-93.01875,53.89583],[-93.01875,53.89167],[-93.025,53.89167],[-93.03125,53.89167],[-93.03125,53.89583],[-93.03125,53.9]]]}},{"type":"Feature","properties":{"c":"1035428","o":"","e":""},"geometry":{"type":"Polygon","coordinates":[[[-93.00625,53.81667],[-93.0,53.81667],[-92.99375,53.81667],[-92.9875,53.81667],[-92.9875,53.8125],[-92.9875,53.80833],[-92.99375,53.80833],[-93.0,53.80833],[-93.00625,53.80833],[-93.00625,53.8125],[-93.00625,53.81667]]]}},{"type":"Feature","properties":{"c":"1035410","o":"","e":""},"geometry":{"type":"Polygon","coordinates":[[[-93.00625,53.9125],[-93.0,53.9125],[-92.99375,53.9125],[-92.9875,53.9125],[-92.98125,53.9125],[-92.98125,53.90833],[-92.98125,53.90417],[-92.9875,53.90417],[-92.99375,53.90417],[-93.0,53.90417],[-93.00625,53.90417],[-93.00625,53.90833],[-93.00625,53.9125]]]}},{"type":"Feature","properties":{"c":"1035430","o":"","e":""},"geometry":{"type":"Polygon","coordinates":[[[-93.00625,53.79583],[-93.00625,53.8],[-93.0,53.8],[-92.99375,53.8],[-92.9875,53.8],[-92.9875,53.79583],[-92.9875,53.79167],[-92.9875,53.7875],[-92.99375,53.7875],[-93.0,53.7875],[-93.00625,53.7875],[-93.00625,53.79167],[-93.00625,53.79583]]]}},{"type":"Feature","properties":{"c":"1035418","o":"","e":""},"geometry":{"type":"Polygon","coordinates":[[[-93.00625,53.85833],[-93.00625,53.8625],[-93.00625,53.86667],[-93.0,53.86667],[-92.99375,53.86667],[-92.9875,53.86667],[-92.9875,53.8625],[-92.9875,53.85833],[-92.9875,53.85417],[-92.9875,53.85],[-92.99375,53.85],[-93.0,53.85],[-93.00625,53.85],[-93.00625,53.85417],[-93.00625,53.85833]]]}},{"type":"Feature","properties":{"c":"1035427","o":"","e":""},"geometry":{"type":"Polygon","coordinates":[[[-93.00625,53.825],[-93.00625,53.82917],[-93.00625,53.83333],[-93.0,53.83333],[-92.99375,53.83333],[-92.99375,53.82917],[-92.99375,53.825],[-92.99375,53.82083],[-92.99375,53.81667],[-93.0,53.81667],[-93.00625,53.81667],[-93.00625,53.82083],[-93.00625,53.825]]]}},{"type":"Feature","properties":{"c":"1035429","o":"","e":""},"geometry":{"type":"Polygon","coordinates":[[[-93.00625,53.80833],[-93.0,53.80833],[-92.99375,53.80833],[-92.9875,53.80833],[-92.9875,53.80417],[-92.9875,53.8],[-92.99375,53.8],[-93.0,53.8],[-93.00625,53.8],[-93.00625,53.80417],[-93.00625,53.80833]]]}},{"type":"Feature","properties":{"c":"1035411","o":"","e":""},"geometry":{"type":"Polygon","coordinates":[[[-93.00625,53.9],[-93.00625,53.90417],[-93.0,53.90417],[-92.99375,53.90417],[-92.99375,53.9],[-92.99375,53.89583],[-92.99375,53.89167],[-93.0,53.89167],[-93.00625,53.89167],[-93.00625,53.89583],[-93.00625,53.9]]]}},{"type":"Feature","properties":{"c":"1035426","o":"","e":""},"geometry":{"type":"Polygon","coordinates":[[[-93.00625,53.84167],[-93.00625,53.84583],[-93.00625,53.85],[-93.0,53.85],[-92.99375,53.85],[-92.99375,53.84583],[-92.99375,53.84167],[-92.99375,53.8375],[-92.99375,53.83333],[-93.0,53.83333],[-93.00625,53.83333],[-93.00625,53.8375],[-93.00625,53.84167]]]}}]}