{"type":"FeatureCollection","features":[{"type":"Feature","properties":{"c":"105542","o":"Probe Metals Ltd. (100%)","e":"2028-07-16"},"geometry":{"type":"Polygon","coordinates":[[[-94.0,63.0],[-93.0,63.0],[-93.0,63.0],[-94.0,63.0]]]}},{"type":"Feature","properties":{"c":"105500","o":"Probe Metals Ltd. (100%)","e":"2028-07-16"},"geometry":{"type":"Polygon","coordinates":[[[-94.0,63.0],[-93.0,63.0],[-93.0,63.0],[-94.0,63.0]]]}},{"type":"Feature","properties":{"c":"105509","o":"Probe Metals Ltd. (100%)","e":"2028-07-16"},"geometry":{"type":"Polygon","coordinates":[[[-94.0,63.0],[-93.0,63.0],[-93.0,63.0],[-94.0,63.0]]]}},{"type":"Feature","properties":{"c":"105518","o":"Probe Metals Ltd. (100%)","e":"2028-07-16"},"geometry":{"type":"Polygon","coordinates":[[[-94.0,63.0],[-93.0,63.0],[-93.0,63.0],[-94.0,63.0]]]}},{"type":"Feature","properties":{"c":"105527","o":"Probe Metals Ltd. (100%)","e":"2028-07-16"},"geometry":{"type":"Polygon","coordinates":[[[-94.0,63.0],[-93.0,63.0],[-93.0,63.0],[-94.0,63.0]]]}},{"type":"Feature","properties":{"c":"105536","o":"Probe Metals Ltd. (100%)","e":"2028-07-16"},"geometry":{"type":"Polygon","coordinates":[[[-94.0,63.0],[-93.0,63.0],[-93.0,63.0],[-94.0,63.0]]]}}]}