{"type":"FeatureCollection","features":[{"type":"Feature","properties":{"c":"103099","o":"Bronzite Exploration Corp. (100%)","e":"2029-08-26"},"geometry":{"type":"Polygon","coordinates":[[[-95.1253,71.98413],[-95.1253,71.98829],[-95.1253,71.99246],[-95.1128,71.99245],[-95.1128,71.99662],[-95.1003,71.99661],[-95.1003,72.00078],[-95.1003,72.00494],[-95.1003,72.00911],[-95.1003,72.01328],[-95.1003,72.01744],[-95.1003,72.02161],[-95.0878,72.0216],[-95.0878,72.02577],[-95.0878,72.02993],[-95.0878,72.0341],[-95.07529,72.03409],[-95.06279,72.03408],[-95.05029,72.03407],[-95.05029,72.0299],[-95.05029,72.02573],[-95.05029,72.02157],[-95.05029,72.0174],[-95.05029,72.01323],[-95.05029,72.00906],[-95.03779,72.00905],[-95.02529,72.00904],[-95.02529,72.0132],[-95.01279,72.01319],[-95.00029,72.01317],[-94.98779,72.01319],[-94.98779,72.00902],[-94.98779,72.00486],[-94.98779,72.00069],[-94.98779,71.99652],[-94.98779,71.99236],[-94.98779,71.98819],[-94.98779,71.98402],[-94.98779,71.97985],[-95.00029,71.97984],[-95.01279,71.97985],[-95.02529,71.97987],[-95.02529,71.9757],[-95.03779,71.97572],[-95.05029,71.97573],[-95.05029,71.9799],[-95.06279,71.97991],[-95.07529,71.97992],[-95.07529,71.97575],[-95.08779,71.97576],[-95.1003,71.97577],[-95.1128,71.97578],[-95.1253,71.97579],[-95.1253,71.97996],[-95.1253,71.98413]]]}},{"type":"Feature","properties":{"c":"104229","o":"Bronzite Exploration Corp. (100%)","e":"2029-03-04"},"geometry":{"type":"Polygon","coordinates":[[[-94.93778,72.02574],[-94.92528,72.02576],[-94.91278,72.02577],[-94.90028,72.02578],[-94.88778,72.02579],[-94.87528,72.02579],[-94.86278,72.0258],[-94.85028,72.02581],[-94.83778,72.02582],[-94.83778,72.02998],[-94.82528,72.02999],[-94.81278,72.02999],[-94.80027,72.03],[-94.78777,72.03],[-94.77527,72.03],[-94.77527,72.02583],[-94.77527,72.02167],[-94.77527,72.0175],[-94.77527,72.01333],[-94.77527,72.00917],[-94.77527,72.005],[-94.78777,72.005],[-94.78777,72.00083],[-94.80027,72.00083],[-94.81277,72.00082],[-94.82528,72.00082],[-94.83778,72.00081],[-94.83778,71.99665],[-94.85028,71.99664],[-94.86278,71.99663],[-94.86278,71.99247],[-94.87528,71.99246],[-94.88778,71.99245],[-94.90028,71.99244],[-94.90028,71.98828],[-94.91278,71.98827],[-94.92528,71.98825],[-94.93778,71.98824],[-94.93778,71.99241],[-94.93778,71.99658],[-94.93778,72.00074],[-94.93778,72.00491],[-94.93778,72.00908],[-94.93778,72.01324],[-94.93778,72.01741],[-94.93778,72.02158],[-94.93778,72.02574]]]}},{"type":"Feature","properties":{"c":"104230","o":"Bronzite Exploration Corp. (100%)","e":"2029-03-04"},"geometry":{"type":"Polygon","coordinates":[[[-94.98779,72.02569],[-94.97529,72.0257],[-94.96279,72.02572],[-94.95029,72.02573],[-94.93778,72.02574],[-94.93778,72.02158],[-94.93778,72.01741],[-94.93778,72.01324],[-94.93778,72.00908],[-94.93778,72.00491],[-94.93778,72.00074],[-94.93778,71.99658],[-94.93778,71.99241],[-94.93778,71.98824],[-94.92528,71.98825],[-94.92528,71.98409],[-94.93778,71.98408],[-94.95028,71.98406],[-94.96279,71.98405],[-94.97529,71.98404],[-94.97529,71.97987],[-94.98779,71.97985],[-94.98779,71.98402],[-94.98779,71.98819],[-94.98779,71.99236],[-94.98779,71.99652],[-94.98779,72.00069],[-94.98779,72.00486],[-94.98779,72.00902],[-94.98779,72.01319],[-94.98779,72.01736],[-94.98779,72.02152],[-94.98779,72.02569]]]}}]}