{"type":"FeatureCollection","features":[{"type":"Feature","properties":{"c":"102460","o":"Canadian North Resources Inc. (100%)","e":"2029-01-30"},"geometry":{"type":"Polygon","coordinates":[[[-96.75026,62.85448],[-96.75807,62.85449],[-96.75807,62.85865],[-96.75026,62.85865],[-96.75026,62.86281],[-96.75026,62.86698],[-96.75026,62.87115],[-96.75026,62.87531],[-96.75026,62.87948],[-96.75026,62.88365],[-96.75026,62.88781],[-96.75026,62.89198],[-96.75026,62.89615],[-96.74245,62.89615],[-96.73463,62.89616],[-96.72682,62.89617],[-96.71901,62.89617],[-96.71901,62.90034],[-96.71901,62.90451],[-96.71901,62.90867],[-96.71119,62.90868],[-96.70338,62.90868],[-96.69557,62.90869],[-96.68776,62.90869],[-96.67994,62.90869],[-96.67994,62.90453],[-96.67994,62.90036],[-96.67994,62.89619],[-96.68776,62.89619],[-96.69557,62.89619],[-96.70338,62.89618],[-96.70338,62.89202],[-96.70338,62.88785],[-96.70338,62.88368],[-96.70338,62.87951],[-96.70338,62.87535],[-96.70338,62.87118],[-96.70338,62.86701],[-96.70338,62.86285],[-96.70338,62.85868],[-96.70338,62.85451],[-96.70338,62.85035],[-96.70338,62.84618],[-96.71119,62.84618],[-96.71901,62.84617],[-96.72682,62.84617],[-96.73463,62.84616],[-96.74245,62.84615],[-96.75026,62.84615],[-96.75026,62.85031],[-96.75026,62.85448]]]}},{"type":"Feature","properties":{"c":"102456","o":"Canadian North Resources Inc. (100%)","e":"2025-01-30"},"geometry":{"type":"Polygon","coordinates":[[[-96.99246,62.90032],[-96.99246,62.90449],[-96.99246,62.90865],[-97.00027,62.90865],[-97.00027,62.91281],[-96.99246,62.91282],[-96.98465,62.91283],[-96.97683,62.91283],[-96.96902,62.91284],[-96.96121,62.91284],[-96.9534,62.91285],[-96.94558,62.91285],[-96.93777,62.91286],[-96.92996,62.91286],[-96.92214,62.91286],[-96.91433,62.91286],[-96.90652,62.91287],[-96.8987,62.91287],[-96.89089,62.91287],[-96.88308,62.91287],[-96.87527,62.91287],[-96.86745,62.91287],[-96.85964,62.91287],[-96.85183,62.91287],[-96.85183,62.9087],[-96.85183,62.90453],[-96.85183,62.90037],[-96.85183,62.8962],[-96.85964,62.8962],[-96.86745,62.8962],[-96.87527,62.8962],[-96.88308,62.8962],[-96.89089,62.8962],[-96.8987,62.8962],[-96.89871,62.89203],[-96.90652,62.89203],[-96.90652,62.8962],[-96.91433,62.8962],[-96.92214,62.89619],[-96.92996,62.89619],[-96.92996,62.89202],[-96.93777,62.89202],[-96.94558,62.89202],[-96.9534,62.89201],[-96.96121,62.89201],[-96.96121,62.89618],[-96.96902,62.89617],[-96.97683,62.89617],[-96.97683,62.892],[-96.98465,62.89199],[-96.99246,62.89199],[-96.99246,62.89615],[-96.99246,62.90032]]]}},{"type":"Feature","properties":{"c":"F47832","o":"Canadian North Resources Inc. (100%)","e":"2028-09-07"},"geometry":{"type":"Polygon","coordinates":[[[-96.98363,62.83413],[-96.98363,62.83407],[-97.07264,62.83429],[-97.07357,62.8343],[-97.07321,62.84903],[-97.07307,62.85455],[-96.98237,62.85449],[-96.98237,62.85447],[-96.98177,62.85447],[-96.98363,62.83413]]]}},{"type":"Feature","properties":{"c":"F47857","o":"Canadian North Resources Inc. (100%)","e":"2028-09-07"},"geometry":{"type":"Polygon","coordinates":[[[-97.00027,62.89543],[-96.92912,62.89558],[-96.92912,62.89548],[-96.92866,62.87492],[-96.98334,62.87475],[-96.98333,62.87457],[-97.00023,62.87477],[-97.00027,62.89543]]]}},{"type":"Feature","properties":{"c":"F47820","o":"Canadian North Resources Inc. (100%)","e":"2028-09-07"},"geometry":{"type":"Polygon","coordinates":[[[-96.92866,62.87492],[-96.89407,62.87502],[-96.89423,62.85449],[-96.98177,62.85447],[-96.98237,62.85447],[-96.98237,62.85449],[-96.98333,62.87457],[-96.98334,62.87475],[-96.92866,62.87492]]]}},{"type":"Feature","properties":{"c":"F47821","o":"Canadian North Resources Inc. (100%)","e":"2028-09-07"},"geometry":{"type":"Polygon","coordinates":[[[-96.83971,62.87517],[-96.80443,62.87526],[-96.80431,62.85444],[-96.80436,62.85444],[-96.8941,62.85449],[-96.89423,62.85449],[-96.89407,62.87502],[-96.83971,62.87517]]]}},{"type":"Feature","properties":{"c":"F47831","o":"Canadian North Resources Inc. (100%)","e":"2028-09-07"},"geometry":{"type":"Polygon","coordinates":[[[-97.07307,62.85455],[-97.07202,62.87161],[-97.07177,62.87561],[-97.07175,62.87561],[-97.0714,62.8756],[-97.00032,62.87477],[-97.00023,62.87477],[-96.98333,62.87457],[-96.98237,62.85449],[-97.07307,62.85455]]]}},{"type":"Feature","properties":{"c":"F47854","o":"Canadian North Resources Inc. (100%)","e":"2028-09-07"},"geometry":{"type":"Polygon","coordinates":[[[-96.89344,62.83416],[-96.89344,62.83412],[-96.98363,62.83413],[-96.98177,62.85447],[-96.89423,62.85449],[-96.8941,62.85449],[-96.89344,62.83416]]]}},{"type":"Feature","properties":{"c":"F47822","o":"Canadian North Resources Inc. (100%)","e":"2028-09-07"},"geometry":{"type":"Polygon","coordinates":[[[-96.75062,62.87499],[-96.75025,62.87499],[-96.75045,62.85463],[-96.75045,62.85459],[-96.75076,62.85459],[-96.80431,62.85444],[-96.80443,62.87526],[-96.75062,62.87499]]]}},{"type":"Feature","properties":{"c":"F47858","o":"Canadian North Resources Inc. (100%)","e":"2028-09-07"},"geometry":{"type":"Polygon","coordinates":[[[-96.83962,62.89565],[-96.83971,62.87517],[-96.89407,62.87502],[-96.92866,62.87492],[-96.92912,62.89548],[-96.83962,62.89565]]]}},{"type":"Feature","properties":{"c":"F47859","o":"Canadian North Resources Inc. (100%)","e":"2028-09-07"},"geometry":{"type":"Polygon","coordinates":[[[-96.7504,62.89584],[-96.7504,62.89576],[-96.75061,62.87531],[-96.75062,62.87499],[-96.80443,62.87526],[-96.83971,62.87517],[-96.83962,62.89565],[-96.7504,62.89584]]]}},{"type":"Feature","properties":{"c":"102458","o":"Canadian North Resources Inc. (100%)","e":"2029-01-30"},"geometry":{"type":"Polygon","coordinates":[[[-96.7737,62.95033],[-96.7737,62.9545],[-96.7737,62.95867],[-96.7737,62.96283],[-96.7737,62.967],[-96.7737,62.97117],[-96.76588,62.97116],[-96.75807,62.97116],[-96.75026,62.97115],[-96.74245,62.97116],[-96.73463,62.97116],[-96.72682,62.97117],[-96.71901,62.97117],[-96.71119,62.97118],[-96.70338,62.97118],[-96.69557,62.97119],[-96.68776,62.97119],[-96.67994,62.97119],[-96.67213,62.9712],[-96.66432,62.9712],[-96.66432,62.96703],[-96.66432,62.96287],[-96.66432,62.9587],[-96.66432,62.95453],[-96.66432,62.95037],[-96.66432,62.9462],[-96.66432,62.94203],[-96.67213,62.94203],[-96.67994,62.94203],[-96.68776,62.94202],[-96.69557,62.94202],[-96.70338,62.94202],[-96.71119,62.94201],[-96.71901,62.94201],[-96.72682,62.942],[-96.73463,62.942],[-96.74245,62.94199],[-96.75026,62.94198],[-96.75807,62.94199],[-96.76588,62.942],[-96.7737,62.942],[-96.7737,62.94617],[-96.7737,62.95033]]]}},{"type":"Feature","properties":{"c":"102457","o":"Canadian North Resources Inc. (100%)","e":"2025-01-30"},"geometry":{"type":"Polygon","coordinates":[[[-96.85183,62.90453],[-96.85183,62.9087],[-96.85183,62.91287],[-96.84401,62.91287],[-96.84401,62.91703],[-96.8362,62.91703],[-96.82839,62.91703],[-96.82058,62.91703],[-96.81276,62.91702],[-96.80495,62.91702],[-96.79714,62.91702],[-96.78932,62.91701],[-96.78151,62.91701],[-96.7737,62.917],[-96.76588,62.91699],[-96.75807,62.91699],[-96.75026,62.91698],[-96.74245,62.91699],[-96.73463,62.91699],[-96.72682,62.917],[-96.71901,62.91701],[-96.71901,62.91284],[-96.71901,62.90867],[-96.71901,62.90451],[-96.71901,62.90034],[-96.71901,62.89617],[-96.72682,62.89617],[-96.73463,62.89616],[-96.74245,62.89615],[-96.75026,62.89615],[-96.75807,62.89615],[-96.76588,62.89616],[-96.7737,62.89617],[-96.78151,62.89617],[-96.78932,62.89618],[-96.79714,62.89618],[-96.80495,62.89619],[-96.81276,62.89619],[-96.82058,62.89619],[-96.82839,62.8962],[-96.8362,62.8962],[-96.84401,62.8962],[-96.85183,62.8962],[-96.85183,62.90037],[-96.85183,62.90453]]]}},{"type":"Feature","properties":{"c":"102459","o":"Canadian North Resources Inc. (100%)","e":"2029-01-30"},"geometry":{"type":"Polygon","coordinates":[[[-96.78932,62.92534],[-96.78932,62.92951],[-96.78932,62.93368],[-96.78932,62.93784],[-96.78932,62.94201],[-96.78151,62.94201],[-96.7737,62.942],[-96.76588,62.942],[-96.75807,62.94199],[-96.75026,62.94198],[-96.74245,62.94199],[-96.73463,62.942],[-96.72682,62.942],[-96.71901,62.94201],[-96.71119,62.94201],[-96.70338,62.94202],[-96.69557,62.94202],[-96.68776,62.94202],[-96.67994,62.94203],[-96.67994,62.93786],[-96.67994,62.93369],[-96.67994,62.92953],[-96.67994,62.92536],[-96.67994,62.92119],[-96.67994,62.91703],[-96.67994,62.91286],[-96.67994,62.90869],[-96.68776,62.90869],[-96.69557,62.90869],[-96.70338,62.90868],[-96.71119,62.90868],[-96.71901,62.90867],[-96.71901,62.91284],[-96.71901,62.91701],[-96.72682,62.917],[-96.73463,62.91699],[-96.74245,62.91699],[-96.75026,62.91698],[-96.75807,62.91699],[-96.76588,62.91699],[-96.7737,62.917],[-96.78151,62.91701],[-96.78932,62.91701],[-96.78932,62.92118],[-96.78932,62.92534]]]}},{"type":"Feature","properties":{"c":"102461","o":"Canadian North Resources Inc. (100%)","e":"2029-01-30"},"geometry":{"type":"Polygon","coordinates":[[[-96.89871,62.84203],[-96.89871,62.8462],[-96.89871,62.85037],[-96.89871,62.85453],[-96.89871,62.8587],[-96.89089,62.8587],[-96.88308,62.8587],[-96.88308,62.85453],[-96.87527,62.85453],[-96.86745,62.85453],[-96.85964,62.85453],[-96.85183,62.85453],[-96.84401,62.85453],[-96.8362,62.85453],[-96.82839,62.85453],[-96.82058,62.85452],[-96.81276,62.85452],[-96.80495,62.85452],[-96.79714,62.85451],[-96.78932,62.85451],[-96.78151,62.8545],[-96.78151,62.85867],[-96.7737,62.85867],[-96.76588,62.85866],[-96.75807,62.85865],[-96.75807,62.85449],[-96.75026,62.85448],[-96.75026,62.85031],[-96.75026,62.84615],[-96.74245,62.84615],[-96.73463,62.84616],[-96.72682,62.84617],[-96.71901,62.84617],[-96.71119,62.84618],[-96.70338,62.84618],[-96.70338,62.84201],[-96.71119,62.84201],[-96.71901,62.842],[-96.72682,62.842],[-96.73463,62.84199],[-96.74245,62.84199],[-96.75026,62.84198],[-96.75807,62.84199],[-96.76588,62.84199],[-96.7737,62.842],[-96.78151,62.842],[-96.78932,62.84201],[-96.79714,62.84201],[-96.79714,62.83785],[-96.80495,62.83785],[-96.80495,62.83368],[-96.81276,62.83369],[-96.82058,62.83369],[-96.82839,62.83369],[-96.8362,62.8337],[-96.84401,62.8337],[-96.85183,62.8337],[-96.85964,62.8337],[-96.86745,62.8337],[-96.87527,62.8337],[-96.88308,62.8337],[-96.89089,62.8337],[-96.89871,62.8337],[-96.89871,62.83787],[-96.89871,62.84203]]]}},{"type":"Feature","properties":{"c":"102454","o":"Canadian North Resources Inc. (100%)","e":"2027-01-30"},"geometry":{"type":"Polygon","coordinates":[[[-97.07059,62.90036],[-97.07059,62.90452],[-97.07059,62.90869],[-97.06278,62.90869],[-97.05496,62.90868],[-97.04715,62.90868],[-97.03934,62.90868],[-97.03153,62.90867],[-97.02371,62.90867],[-97.0159,62.90866],[-97.00809,62.90865],[-97.00027,62.90865],[-96.99246,62.90865],[-96.99246,62.90449],[-96.99246,62.90032],[-96.99246,62.89615],[-96.99246,62.89199],[-96.99246,62.88782],[-97.00027,62.88781],[-97.00809,62.88782],[-97.0159,62.88783],[-97.02371,62.88783],[-97.02371,62.892],[-97.03153,62.892],[-97.03934,62.89201],[-97.04715,62.89201],[-97.05496,62.89202],[-97.06278,62.89202],[-97.07059,62.89202],[-97.07059,62.89619],[-97.07059,62.90036]]]}},{"type":"Feature","properties":{"c":"105088","o":"Canadian North Resources Inc. (100%)","e":"2027-03-09"},"geometry":{"type":"Polygon","coordinates":[[[-96.86745,62.9212],[-96.86745,62.92537],[-96.86745,62.92954],[-96.86745,62.9337],[-96.86745,62.93787],[-96.85964,62.93787],[-96.85183,62.93787],[-96.84401,62.93787],[-96.84401,62.94203],[-96.84401,62.9462],[-96.84401,62.95037],[-96.8362,62.95037],[-96.82839,62.95036],[-96.82058,62.95036],[-96.81276,62.95036],[-96.80495,62.95035],[-96.79714,62.95035],[-96.78932,62.95034],[-96.78932,62.95451],[-96.78932,62.95868],[-96.78151,62.95867],[-96.7737,62.95867],[-96.7737,62.9545],[-96.7737,62.95033],[-96.7737,62.94617],[-96.7737,62.942],[-96.78151,62.94201],[-96.78932,62.94201],[-96.78932,62.93784],[-96.78932,62.93368],[-96.78932,62.92951],[-96.78932,62.92534],[-96.78932,62.92118],[-96.78932,62.91701],[-96.79714,62.91702],[-96.80495,62.91702],[-96.81276,62.91702],[-96.82058,62.91703],[-96.82839,62.91703],[-96.8362,62.91703],[-96.84401,62.91703],[-96.84401,62.91287],[-96.85183,62.91287],[-96.85964,62.91287],[-96.86745,62.91287],[-96.86745,62.91704],[-96.86745,62.9212]]]}}]}