{"type":"FeatureCollection","features":[{"type":"Feature","properties":{"c":"103649","o":"ATHA Energy (NU) Corp. (100%)","e":"2026-10-10"},"geometry":{"type":"Polygon","coordinates":[[[-97.78158,63.50452],[-97.77376,63.50451],[-97.76595,63.50451],[-97.76595,63.50867],[-97.75814,63.50867],[-97.75814,63.51283],[-97.75032,63.51283],[-97.75032,63.517],[-97.74251,63.517],[-97.74251,63.52117],[-97.7347,63.52117],[-97.72689,63.52118],[-97.72689,63.52535],[-97.71907,63.52535],[-97.71907,63.52952],[-97.71126,63.52952],[-97.71126,63.53369],[-97.70345,63.5337],[-97.70345,63.53786],[-97.69563,63.53787],[-97.68782,63.53787],[-97.68782,63.54204],[-97.68001,63.54204],[-97.68001,63.54621],[-97.6722,63.54621],[-97.6722,63.55038],[-97.66438,63.55038],[-97.66438,63.55455],[-97.65657,63.55455],[-97.64876,63.55455],[-97.64876,63.55872],[-97.64094,63.55872],[-97.64094,63.56288],[-97.63313,63.56288],[-97.63313,63.56705],[-97.62532,63.56705],[-97.62532,63.56289],[-97.62532,63.55872],[-97.62532,63.55455],[-97.62532,63.55038],[-97.63313,63.55038],[-97.64094,63.55038],[-97.64876,63.55038],[-97.65657,63.55038],[-97.65657,63.54621],[-97.65657,63.54205],[-97.65657,63.53788],[-97.65657,63.53371],[-97.66438,63.53371],[-97.6722,63.53371],[-97.68001,63.53371],[-97.68782,63.5337],[-97.68782,63.52954],[-97.68782,63.52537],[-97.68782,63.5212],[-97.68782,63.51704],[-97.69563,63.51703],[-97.70345,63.51703],[-97.71126,63.51702],[-97.71907,63.51702],[-97.71907,63.51285],[-97.71907,63.50869],[-97.71907,63.50452],[-97.71907,63.50035],[-97.72689,63.50035],[-97.7347,63.50034],[-97.74251,63.50033],[-97.75032,63.50033],[-97.75032,63.49616],[-97.75032,63.49199],[-97.75032,63.48783],[-97.75032,63.48366],[-97.75814,63.48367],[-97.76595,63.48367],[-97.77376,63.48368],[-97.78158,63.48368],[-97.78158,63.48785],[-97.78158,63.49202],[-97.78158,63.49618],[-97.78158,63.50035],[-97.78158,63.50452]]]}},{"type":"Feature","properties":{"c":"103584","o":"ATHA Energy (NU) Corp. (100%)","e":"2026-10-10"},"geometry":{"type":"Polygon","coordinates":[[[-97.85189,63.47121],[-97.84408,63.47121],[-97.84408,63.47538],[-97.83627,63.47538],[-97.83627,63.47954],[-97.82845,63.47954],[-97.82845,63.48371],[-97.82064,63.4837],[-97.81283,63.4837],[-97.81283,63.48787],[-97.80501,63.48786],[-97.80502,63.49203],[-97.7972,63.49203],[-97.7972,63.49619],[-97.78939,63.49619],[-97.78158,63.49618],[-97.78158,63.49202],[-97.78158,63.48785],[-97.78158,63.48368],[-97.78158,63.47952],[-97.78158,63.47535],[-97.78157,63.47118],[-97.78157,63.46702],[-97.78157,63.46285],[-97.78157,63.45868],[-97.78157,63.45452],[-97.78157,63.45035],[-97.77376,63.45034],[-97.76595,63.45034],[-97.75813,63.45033],[-97.75032,63.45033],[-97.75032,63.44616],[-97.75032,63.44199],[-97.75032,63.43783],[-97.75032,63.43366],[-97.75032,63.42949],[-97.75032,63.42533],[-97.75032,63.42116],[-97.75813,63.42116],[-97.76595,63.42117],[-97.76595,63.42534],[-97.76595,63.4295],[-97.77376,63.42951],[-97.77376,63.43368],[-97.78157,63.43368],[-97.78157,63.43785],[-97.78939,63.43785],[-97.78939,63.44202],[-97.7972,63.44203],[-97.7972,63.44619],[-97.80501,63.4462],[-97.80501,63.45036],[-97.81283,63.45037],[-97.81283,63.45453],[-97.82064,63.45454],[-97.82845,63.45454],[-97.82845,63.45871],[-97.83627,63.45871],[-97.83627,63.46288],[-97.84408,63.46288],[-97.85189,63.46288],[-97.85189,63.46705],[-97.85189,63.47121]]]}},{"type":"Feature","properties":{"c":"103586","o":"ATHA Energy (NU) Corp. (100%)","e":"2026-10-10"},"geometry":{"type":"Polygon","coordinates":[[[-97.75032,63.43366],[-97.74251,63.43367],[-97.7347,63.43367],[-97.72688,63.43368],[-97.71907,63.43368],[-97.71126,63.43369],[-97.70344,63.43369],[-97.69563,63.4337],[-97.68782,63.4337],[-97.68,63.4337],[-97.67219,63.43371],[-97.66438,63.43371],[-97.65657,63.43371],[-97.65657,63.42954],[-97.65657,63.42538],[-97.65657,63.42121],[-97.65657,63.41704],[-97.65656,63.41288],[-97.66438,63.41287],[-97.66438,63.40871],[-97.67219,63.40871],[-97.67219,63.40454],[-97.68,63.40454],[-97.68782,63.40453],[-97.68782,63.40037],[-97.69563,63.40036],[-97.69563,63.39619],[-97.70344,63.39619],[-97.71125,63.39619],[-97.71125,63.39202],[-97.71907,63.39201],[-97.71907,63.39618],[-97.72688,63.39618],[-97.72688,63.40034],[-97.72688,63.40451],[-97.73469,63.4045],[-97.73469,63.40867],[-97.74251,63.40866],[-97.74251,63.41283],[-97.75032,63.41282],[-97.75032,63.41699],[-97.75813,63.417],[-97.75813,63.42116],[-97.75032,63.42116],[-97.75032,63.42533],[-97.75032,63.42949],[-97.75032,63.43366]]]}},{"type":"Feature","properties":{"c":"103588","o":"ATHA Energy (NU) Corp. (100%)","e":"2026-10-10"},"geometry":{"type":"Polygon","coordinates":[[[-97.65657,63.45038],[-97.64875,63.45038],[-97.64094,63.45038],[-97.63313,63.45038],[-97.62531,63.45038],[-97.6175,63.45038],[-97.60969,63.45038],[-97.60188,63.45038],[-97.59406,63.45038],[-97.59406,63.45454],[-97.59406,63.45871],[-97.59406,63.46288],[-97.59406,63.46704],[-97.58625,63.46704],[-97.57844,63.46704],[-97.57062,63.46704],[-97.56281,63.46703],[-97.555,63.46703],[-97.54719,63.46703],[-97.53937,63.46702],[-97.53156,63.46702],[-97.52375,63.46701],[-97.51593,63.46701],[-97.51593,63.46284],[-97.52375,63.46285],[-97.52375,63.45868],[-97.53156,63.45868],[-97.53937,63.45869],[-97.53937,63.45452],[-97.54719,63.45453],[-97.54719,63.45036],[-97.555,63.45036],[-97.56281,63.45037],[-97.56281,63.4462],[-97.57062,63.4462],[-97.57062,63.44204],[-97.57844,63.44204],[-97.58625,63.44204],[-97.58625,63.43788],[-97.59406,63.43788],[-97.59406,63.43371],[-97.60188,63.43371],[-97.60969,63.43371],[-97.60969,63.42955],[-97.6175,63.42955],[-97.62531,63.42955],[-97.62531,63.42538],[-97.63313,63.42538],[-97.63313,63.42121],[-97.64094,63.42121],[-97.64875,63.42121],[-97.64875,63.41704],[-97.65657,63.41704],[-97.65657,63.42121],[-97.65657,63.42538],[-97.65657,63.42954],[-97.65657,63.43371],[-97.65657,63.43788],[-97.65657,63.44204],[-97.65657,63.44621],[-97.65657,63.45038]]]}},{"type":"Feature","properties":{"c":"103590","o":"ATHA Energy (NU) Corp. (100%)","e":"2026-10-10"},"geometry":{"type":"Polygon","coordinates":[[[-97.53156,63.50035],[-97.52375,63.50035],[-97.51594,63.50034],[-97.50812,63.50033],[-97.50031,63.50033],[-97.4925,63.50033],[-97.48468,63.50034],[-97.47687,63.50035],[-97.46906,63.50035],[-97.46124,63.50036],[-97.45343,63.50036],[-97.44562,63.50037],[-97.43781,63.50037],[-97.42999,63.50037],[-97.42218,63.50038],[-97.41437,63.50038],[-97.40655,63.50038],[-97.40655,63.49621],[-97.41437,63.49621],[-97.42218,63.49621],[-97.42218,63.49204],[-97.42999,63.49204],[-97.43781,63.49204],[-97.44562,63.49203],[-97.44562,63.48787],[-97.45343,63.48786],[-97.45343,63.48369],[-97.46124,63.48369],[-97.46906,63.48369],[-97.46906,63.47952],[-97.47687,63.47951],[-97.47687,63.47535],[-97.48468,63.47534],[-97.4925,63.47533],[-97.4925,63.47117],[-97.50031,63.47116],[-97.50031,63.46699],[-97.50812,63.467],[-97.51593,63.46701],[-97.52375,63.46701],[-97.53156,63.46702],[-97.53156,63.47118],[-97.53156,63.47535],[-97.53156,63.47952],[-97.53156,63.48368],[-97.53156,63.48785],[-97.53156,63.49202],[-97.53156,63.49619],[-97.53156,63.50035]]]}},{"type":"Feature","properties":{"c":"103745","o":"ATHA Energy (NU) Corp. (100%)","e":"2026-10-10"},"geometry":{"type":"Polygon","coordinates":[[[-97.75032,63.50033],[-97.74251,63.50033],[-97.7347,63.50034],[-97.72689,63.50035],[-97.71907,63.50035],[-97.71126,63.50036],[-97.70345,63.50036],[-97.69563,63.50037],[-97.68782,63.50037],[-97.68001,63.50037],[-97.67219,63.50037],[-97.66438,63.50038],[-97.65657,63.50038],[-97.64876,63.50038],[-97.64094,63.50038],[-97.63313,63.50038],[-97.62532,63.50038],[-97.6175,63.50038],[-97.60969,63.50038],[-97.60188,63.50038],[-97.59407,63.50038],[-97.58625,63.50038],[-97.57844,63.50037],[-97.57063,63.50037],[-97.56281,63.50037],[-97.56281,63.4962],[-97.56281,63.49204],[-97.56281,63.48787],[-97.56281,63.4837],[-97.57063,63.4837],[-97.57844,63.48371],[-97.58625,63.48371],[-97.59406,63.48371],[-97.60188,63.48371],[-97.60969,63.48371],[-97.6175,63.48372],[-97.62532,63.48372],[-97.63313,63.48372],[-97.64094,63.48371],[-97.64876,63.48371],[-97.65657,63.48371],[-97.66438,63.48371],[-97.67219,63.48371],[-97.68001,63.4837],[-97.68782,63.4837],[-97.69563,63.4837],[-97.70345,63.48369],[-97.71126,63.48369],[-97.71907,63.48368],[-97.72688,63.48368],[-97.7347,63.48367],[-97.74251,63.48367],[-97.75032,63.48366],[-97.75032,63.48783],[-97.75032,63.49199],[-97.75032,63.49616],[-97.75032,63.50033]]]}},{"type":"Feature","properties":{"c":"103742","o":"ATHA Energy (NU) Corp. (100%)","e":"2026-10-10"},"geometry":{"type":"Polygon","coordinates":[[[-97.75032,63.45033],[-97.74251,63.45033],[-97.7347,63.45034],[-97.72688,63.45034],[-97.71907,63.45035],[-97.71126,63.45035],[-97.70344,63.45036],[-97.69563,63.45036],[-97.68782,63.45037],[-97.68782,63.45453],[-97.68782,63.4587],[-97.68782,63.46287],[-97.68782,63.46703],[-97.68001,63.46704],[-97.67219,63.46704],[-97.66438,63.46704],[-97.65657,63.46704],[-97.64875,63.46705],[-97.64094,63.46705],[-97.63313,63.46705],[-97.62532,63.46705],[-97.6175,63.46705],[-97.60969,63.46705],[-97.60188,63.46705],[-97.59406,63.46704],[-97.59406,63.46288],[-97.59406,63.45871],[-97.59406,63.45454],[-97.59406,63.45038],[-97.60188,63.45038],[-97.60969,63.45038],[-97.6175,63.45038],[-97.62531,63.45038],[-97.63313,63.45038],[-97.64094,63.45038],[-97.64875,63.45038],[-97.65657,63.45038],[-97.65657,63.44621],[-97.65657,63.44204],[-97.65657,63.43788],[-97.65657,63.43371],[-97.66438,63.43371],[-97.67219,63.43371],[-97.68,63.4337],[-97.68782,63.4337],[-97.69563,63.4337],[-97.70344,63.43369],[-97.71126,63.43369],[-97.71907,63.43368],[-97.72688,63.43368],[-97.7347,63.43367],[-97.74251,63.43367],[-97.75032,63.43366],[-97.75032,63.43783],[-97.75032,63.44199],[-97.75032,63.44616],[-97.75032,63.45033]]]}},{"type":"Feature","properties":{"c":"103743","o":"ATHA Energy (NU) Corp. (100%)","e":"2026-10-10"},"geometry":{"type":"Polygon","coordinates":[[[-97.78158,63.48368],[-97.77376,63.48368],[-97.76595,63.48367],[-97.75814,63.48367],[-97.75032,63.48366],[-97.74251,63.48367],[-97.7347,63.48367],[-97.72688,63.48368],[-97.71907,63.48368],[-97.71126,63.48369],[-97.70345,63.48369],[-97.69563,63.4837],[-97.68782,63.4837],[-97.68782,63.47953],[-97.68782,63.47537],[-97.68782,63.4712],[-97.68782,63.46703],[-97.68782,63.46287],[-97.68782,63.4587],[-97.68782,63.45453],[-97.68782,63.45037],[-97.69563,63.45036],[-97.70344,63.45036],[-97.71126,63.45035],[-97.71907,63.45035],[-97.72688,63.45034],[-97.7347,63.45034],[-97.74251,63.45033],[-97.75032,63.45033],[-97.75813,63.45033],[-97.76595,63.45034],[-97.77376,63.45034],[-97.78157,63.45035],[-97.78157,63.45452],[-97.78157,63.45868],[-97.78157,63.46285],[-97.78157,63.46702],[-97.78157,63.47118],[-97.78158,63.47535],[-97.78158,63.47952],[-97.78158,63.48368]]]}},{"type":"Feature","properties":{"c":"103744","o":"ATHA Energy (NU) Corp. (100%)","e":"2026-10-10"},"geometry":{"type":"Polygon","coordinates":[[[-97.68782,63.4837],[-97.68001,63.4837],[-97.67219,63.48371],[-97.66438,63.48371],[-97.65657,63.48371],[-97.64876,63.48371],[-97.64094,63.48371],[-97.63313,63.48372],[-97.62532,63.48372],[-97.6175,63.48372],[-97.60969,63.48371],[-97.60188,63.48371],[-97.59406,63.48371],[-97.58625,63.48371],[-97.57844,63.48371],[-97.57063,63.4837],[-97.56281,63.4837],[-97.56281,63.48787],[-97.56281,63.49204],[-97.56281,63.4962],[-97.56281,63.50037],[-97.555,63.50037],[-97.54719,63.50036],[-97.53937,63.50036],[-97.53156,63.50035],[-97.53156,63.49619],[-97.53156,63.49202],[-97.53156,63.48785],[-97.53156,63.48368],[-97.53156,63.47952],[-97.53156,63.47535],[-97.53156,63.47118],[-97.53156,63.46702],[-97.53937,63.46702],[-97.54719,63.46703],[-97.555,63.46703],[-97.56281,63.46703],[-97.57062,63.46704],[-97.57844,63.46704],[-97.58625,63.46704],[-97.59406,63.46704],[-97.60188,63.46705],[-97.60969,63.46705],[-97.6175,63.46705],[-97.62532,63.46705],[-97.63313,63.46705],[-97.64094,63.46705],[-97.64875,63.46705],[-97.65657,63.46704],[-97.66438,63.46704],[-97.67219,63.46704],[-97.68001,63.46704],[-97.68782,63.46703],[-97.68782,63.4712],[-97.68782,63.47537],[-97.68782,63.47953],[-97.68782,63.4837]]]}},{"type":"Feature","properties":{"c":"104800","o":"Trent Potts (100%)","e":"2026-07-03"},"geometry":{"type":"Polygon","coordinates":[[[-98.03157,62.98367],[-98.03157,62.98783],[-98.03938,62.98784],[-98.03938,62.992],[-98.03157,62.992],[-98.02376,62.99199],[-98.02376,62.99616],[-98.01594,62.99616],[-98.01594,63.00032],[-98.00813,63.00032],[-98.00813,63.00448],[-98.00032,63.00448],[-97.9925,63.00448],[-97.9925,63.00032],[-97.98469,63.00032],[-97.97688,63.00033],[-97.97688,62.99616],[-97.96907,62.99617],[-97.96907,62.992],[-97.96907,62.98783],[-97.97688,62.98783],[-97.98469,62.98782],[-97.9925,62.98782],[-98.00032,62.98781],[-98.00032,62.98364],[-98.00032,62.97948],[-98.00032,62.97531],[-98.00032,62.97114],[-98.00032,62.96698],[-98.00032,62.96281],[-98.00813,62.96281],[-98.00813,62.96698],[-98.01594,62.96699],[-98.01594,62.97115],[-98.01594,62.97532],[-98.02376,62.97533],[-98.02376,62.97949],[-98.03157,62.9795],[-98.03157,62.98367]]]}}]}