{"type":"FeatureCollection","features":[{"type":"Feature","properties":{"c":"SV15241","o":"Le L\u00e9annec, Luc","e":"2027-03-07"},"geometry":{"type":"Polygon","coordinates":[[[-98.27874,49.03722],[-98.27872,49.04448],[-98.26776,49.04453],[-98.26776,49.02994],[-98.28975,49.02998],[-98.28972,49.0372],[-98.27874,49.03722]]]}},{"type":"Feature","properties":{"c":"SV15315","o":"PFS Interpretations Ltd.","e":"2027-08-17"},"geometry":{"type":"Polygon","coordinates":[[[-98.26729,49.08874],[-98.26183,49.08877],[-98.25636,49.0888],[-98.2509,49.08883],[-98.24543,49.08887],[-98.24541,49.08523],[-98.24539,49.08159],[-98.24537,49.07795],[-98.24536,49.07432],[-98.25084,49.07431],[-98.25632,49.07431],[-98.26181,49.07431],[-98.26729,49.0743],[-98.26729,49.07791],[-98.26729,49.08152],[-98.26729,49.08513],[-98.26729,49.08874]]]}},{"type":"Feature","properties":{"c":"SV15316","o":"PFS Interpretations Ltd.","e":"2027-08-17"},"geometry":{"type":"Polygon","coordinates":[[[-98.26729,49.07403],[-98.26181,49.07404],[-98.25633,49.07404],[-98.25084,49.07404],[-98.24536,49.07405],[-98.24535,49.07043],[-98.24533,49.06681],[-98.24532,49.0632],[-98.24531,49.05958],[-98.25081,49.05956],[-98.25632,49.05954],[-98.26183,49.05951],[-98.26734,49.05949],[-98.26733,49.06313],[-98.26731,49.06676],[-98.2673,49.0704],[-98.26729,49.07403]]]}},{"type":"Feature","properties":{"c":"SV15317","o":"PFS Interpretations Ltd.","e":"2027-08-17"},"geometry":{"type":"Polygon","coordinates":[[[-98.26734,49.05922],[-98.26183,49.05924],[-98.25632,49.05926],[-98.25082,49.05929],[-98.24531,49.05931],[-98.24531,49.05569],[-98.24531,49.05208],[-98.24531,49.04846],[-98.24532,49.04484],[-98.25082,49.04483],[-98.25633,49.04482],[-98.26183,49.04481],[-98.26734,49.0448],[-98.26734,49.0484],[-98.26734,49.05201],[-98.26734,49.05561],[-98.26734,49.05922]]]}},{"type":"Feature","properties":{"c":"SV15318","o":"PFS Interpretations Ltd.","e":"2027-08-17"},"geometry":{"type":"Polygon","coordinates":[[[-98.25633,49.03725],[-98.25633,49.04455],[-98.24532,49.04457],[-98.24506,49.03001],[-98.2562,49.02997],[-98.26734,49.02993],[-98.26734,49.03723],[-98.25633,49.03725]]]}},{"type":"Feature","properties":{"c":"SV15322","o":"PFS Interpretations Ltd.","e":"2027-08-17"},"geometry":{"type":"Polygon","coordinates":[[[-98.24441,49.27013],[-98.23891,49.27012],[-98.23891,49.26832],[-98.24441,49.26832],[-98.2499,49.26832],[-98.2499,49.27015],[-98.24441,49.27013]]]}},{"type":"Feature","properties":{"c":"SV15327","o":"PFS Interpretations Ltd.","e":"2027-08-17"},"geometry":{"type":"Polygon","coordinates":[[[-98.1103,49.04452],[-98.10485,49.04454],[-98.0994,49.04456],[-98.09395,49.04459],[-98.08851,49.04461],[-98.0886,49.04101],[-98.08869,49.0374],[-98.08879,49.0338],[-98.08888,49.0302],[-98.09423,49.03019],[-98.09958,49.03018],[-98.10493,49.03017],[-98.11028,49.03016],[-98.11028,49.03375],[-98.11029,49.03734],[-98.11029,49.04093],[-98.1103,49.04452]]]}},{"type":"Feature","properties":{"c":"SV15328","o":"PFS Interpretations Ltd.","e":"2027-08-17"},"geometry":{"type":"Polygon","coordinates":[[[-98.13269,49.04431],[-98.1272,49.04437],[-98.1217,49.04442],[-98.1162,49.04447],[-98.11071,49.04452],[-98.1107,49.04093],[-98.1107,49.03734],[-98.1107,49.03375],[-98.11069,49.03016],[-98.11619,49.03015],[-98.12169,49.03015],[-98.12718,49.03014],[-98.13268,49.03014],[-98.13268,49.03368],[-98.13269,49.03723],[-98.13269,49.04077],[-98.13269,49.04431]]]}},{"type":"Feature","properties":{"c":"SV15329","o":"PFS Interpretations Ltd.","e":"2027-08-17"},"geometry":{"type":"Polygon","coordinates":[[[-98.15517,49.0594],[-98.14962,49.05942],[-98.14407,49.05943],[-98.13852,49.05944],[-98.13297,49.05945],[-98.133,49.05573],[-98.13303,49.05202],[-98.13307,49.0483],[-98.1331,49.04459],[-98.13862,49.04466],[-98.14415,49.04474],[-98.14967,49.04481],[-98.15519,49.04489],[-98.15519,49.04852],[-98.15518,49.05215],[-98.15517,49.05578],[-98.15517,49.0594]]]}},{"type":"Feature","properties":{"c":"SV15330","o":"PFS Interpretations Ltd.","e":"2027-08-17"},"geometry":{"type":"Polygon","coordinates":[[[-98.1552,49.04462],[-98.14968,49.04454],[-98.14415,49.04447],[-98.13863,49.04439],[-98.13311,49.04432],[-98.1331,49.04077],[-98.1331,49.03723],[-98.1331,49.03368],[-98.13309,49.03014],[-98.13859,49.03014],[-98.14409,49.03014],[-98.14958,49.03014],[-98.15508,49.03013],[-98.15511,49.03375],[-98.15514,49.03738],[-98.15517,49.041],[-98.1552,49.04462]]]}},{"type":"Feature","properties":{"c":"SV15331","o":"PFS Interpretations Ltd.","e":"2027-08-17"},"geometry":{"type":"Polygon","coordinates":[[[-98.36379,49.3843],[-98.35814,49.38427],[-98.3525,49.38423],[-98.34686,49.3842],[-98.34121,49.38416],[-98.34123,49.38053],[-98.34125,49.37691],[-98.34127,49.37328],[-98.34129,49.36965],[-98.34691,49.36965],[-98.35253,49.36964],[-98.35815,49.36964],[-98.36377,49.36963],[-98.36377,49.3733],[-98.36378,49.37697],[-98.36378,49.38063],[-98.36379,49.3843]]]}},{"type":"Feature","properties":{"c":"SV15332","o":"PFS Interpretations Ltd.","e":"2027-08-17"},"geometry":{"type":"MultiPolygon","coordinates":[[[[-98.39731,49.39181],[-98.39183,49.39179],[-98.38634,49.39178],[-98.38638,49.38818],[-98.38642,49.38459],[-98.3919,49.3846],[-98.39739,49.38462],[-98.39735,49.38822],[-98.39731,49.39181]]],[[[-98.38593,49.39177],[-98.38053,49.39177],[-98.37513,49.39177],[-98.37511,49.38818],[-98.3751,49.38458],[-98.38055,49.38458],[-98.386,49.38459],[-98.38596,49.38818],[-98.38593,49.39177]]]]}},{"type":"Feature","properties":{"c":"SV15333","o":"PFS Interpretations Ltd.","e":"2027-08-17"},"geometry":{"type":"Polygon","coordinates":[[[-98.38591,49.41394],[-98.3805,49.41393],[-98.37508,49.41393],[-98.36967,49.41392],[-98.36426,49.41392],[-98.36425,49.41024],[-98.36425,49.40657],[-98.36425,49.4029],[-98.36424,49.39923],[-98.36964,49.39923],[-98.37505,49.39923],[-98.38045,49.39923],[-98.38585,49.39924],[-98.38586,49.40291],[-98.38588,49.40659],[-98.3859,49.41026],[-98.38591,49.41394]]]}},{"type":"Feature","properties":{"c":"SV15334","o":"PFS Interpretations Ltd.","e":"2027-08-17"},"geometry":{"type":"Polygon","coordinates":[[[-98.34076,49.41382],[-98.33524,49.41383],[-98.32972,49.41383],[-98.32977,49.4102],[-98.32981,49.40657],[-98.32424,49.40656],[-98.31867,49.40655],[-98.31866,49.40291],[-98.31865,49.39927],[-98.32422,49.39927],[-98.32979,49.39928],[-98.33537,49.39928],[-98.34094,49.39929],[-98.34089,49.40292],[-98.34085,49.40656],[-98.34081,49.41019],[-98.34076,49.41382]]]}},{"type":"Feature","properties":{"c":"SV15335","o":"PFS Interpretations Ltd.","e":"2027-08-17"},"geometry":{"type":"Polygon","coordinates":[[[-98.36387,49.42849],[-98.35832,49.4285],[-98.35276,49.42852],[-98.3472,49.42853],[-98.34165,49.42855],[-98.34153,49.42493],[-98.34141,49.42132],[-98.34129,49.41771],[-98.34118,49.4141],[-98.34684,49.41412],[-98.35251,49.41414],[-98.35817,49.41416],[-98.36384,49.41419],[-98.36385,49.41776],[-98.36385,49.42134],[-98.36386,49.42491],[-98.36387,49.42849]]]}},{"type":"Feature","properties":{"c":"SV15336","o":"PFS Interpretations Ltd.","e":"2027-08-17"},"geometry":{"type":"Polygon","coordinates":[[[-98.35821,49.39897],[-98.3582,49.39538],[-98.35819,49.39178],[-98.36381,49.39176],[-98.36382,49.39536],[-98.36383,49.39895],[-98.35821,49.39897]]]}},{"type":"Feature","properties":{"c":"SV15602","o":"BENTHOS METALS LTD.","e":"2028-06-15"},"geometry":{"type":"Polygon","coordinates":[[[-98.17787,49.11856],[-98.17231,49.11855],[-98.16676,49.11855],[-98.1612,49.11854],[-98.15565,49.11853],[-98.15563,49.11492],[-98.15562,49.11132],[-98.15561,49.10771],[-98.1556,49.1041],[-98.16114,49.1041],[-98.16668,49.10409],[-98.17223,49.10409],[-98.17777,49.10408],[-98.17779,49.1077],[-98.17782,49.11132],[-98.17784,49.11494],[-98.17787,49.11856]]]}},{"type":"Feature","properties":{"c":"SV15603","o":"BENTHOS METALS LTD.","e":"2028-06-15"},"geometry":{"type":"Polygon","coordinates":[[[-98.24991,49.2515],[-98.24438,49.25149],[-98.23885,49.25148],[-98.23885,49.2479],[-98.23884,49.24432],[-98.23326,49.24429],[-98.22768,49.24426],[-98.22762,49.24067],[-98.22756,49.23707],[-98.23314,49.2371],[-98.23873,49.23712],[-98.24431,49.23715],[-98.24989,49.23718],[-98.2499,49.24076],[-98.2499,49.24434],[-98.2499,49.24792],[-98.24991,49.2515]]]}},{"type":"Feature","properties":{"c":"SV15604","o":"BENTHOS METALS LTD.","e":"2028-06-15"},"geometry":{"type":"Polygon","coordinates":[[[-98.29553,49.32525],[-98.28998,49.32522],[-98.28443,49.32518],[-98.28445,49.32162],[-98.28447,49.31805],[-98.2789,49.31796],[-98.27334,49.31786],[-98.27334,49.31424],[-98.27335,49.31062],[-98.27891,49.31071],[-98.28448,49.31081],[-98.29005,49.3109],[-98.29561,49.31099],[-98.29559,49.31456],[-98.29557,49.31812],[-98.29555,49.32169],[-98.29553,49.32525]]]}},{"type":"Feature","properties":{"c":"SV15605","o":"BENTHOS METALS LTD.","e":"2028-06-15"},"geometry":{"type":"MultiPolygon","coordinates":[[[[-98.31821,49.35446],[-98.31265,49.35449],[-98.30708,49.35453],[-98.30707,49.35096],[-98.30706,49.34739],[-98.30154,49.34738],[-98.29602,49.34737],[-98.29605,49.34376],[-98.29609,49.34015],[-98.30161,49.34016],[-98.30713,49.34017],[-98.31266,49.34018],[-98.31818,49.34019],[-98.31819,49.34376],[-98.3182,49.34732],[-98.31821,49.35089],[-98.31821,49.35446]]],[[[-98.31824,49.36206],[-98.31269,49.36207],[-98.30713,49.36207],[-98.3071,49.35843],[-98.30708,49.3548],[-98.31264,49.35476],[-98.31821,49.35473],[-98.31823,49.3584],[-98.31824,49.36206]]]]}},{"type":"Feature","properties":{"c":"SV15606","o":"BENTHOS METALS LTD.","e":"2028-06-15"},"geometry":{"type":"Polygon","coordinates":[[[-98.34088,49.35462],[-98.33532,49.35458],[-98.32976,49.35454],[-98.32419,49.3545],[-98.31863,49.35446],[-98.31862,49.35089],[-98.31861,49.34733],[-98.32423,49.34733],[-98.32984,49.34734],[-98.33541,49.34738],[-98.34097,49.34742],[-98.34092,49.35102],[-98.34088,49.35462]]]}},{"type":"Feature","properties":{"c":"SV15607","o":"BENTHOS METALS LTD.","e":"2028-06-15"},"geometry":{"type":"MultiPolygon","coordinates":[[[[-98.36376,49.35463],[-98.35815,49.35462],[-98.35253,49.35462],[-98.35252,49.35103],[-98.35251,49.34743],[-98.35256,49.34383],[-98.3526,49.34023],[-98.35816,49.34024],[-98.36373,49.34024],[-98.36374,49.34384],[-98.36374,49.34743],[-98.36375,49.35103],[-98.36376,49.35463]]],[[[-98.37523,49.35465],[-98.3697,49.35464],[-98.36418,49.35463],[-98.36417,49.35103],[-98.36416,49.34744],[-98.36969,49.34744],[-98.37522,49.34745],[-98.37522,49.35105],[-98.37523,49.35465]]]]}},{"type":"Feature","properties":{"c":"SV15608","o":"BENTHOS METALS LTD.","e":"2028-06-15"},"geometry":{"type":"Polygon","coordinates":[[[-98.38626,49.34],[-98.38073,49.33999],[-98.3752,49.33999],[-98.36967,49.33998],[-98.36415,49.33997],[-98.36414,49.33635],[-98.36413,49.33272],[-98.36411,49.3291],[-98.3641,49.32548],[-98.36959,49.32549],[-98.37508,49.3255],[-98.38057,49.32551],[-98.38606,49.32552],[-98.38611,49.32914],[-98.38616,49.33276],[-98.38621,49.33638],[-98.38626,49.34]]]}},{"type":"Feature","properties":{"c":"SV15609","o":"BENTHOS METALS LTD.","e":"2028-06-15"},"geometry":{"type":"Polygon","coordinates":[[[-98.2956,49.3327],[-98.29,49.33269],[-98.2844,49.33268],[-98.28441,49.32907],[-98.28443,49.32545],[-98.28998,49.32549],[-98.29553,49.32552],[-98.29557,49.32911],[-98.2956,49.3327]]]}},{"type":"Feature","properties":{"c":"SV15610","o":"BENTHOS METALS LTD.","e":"2028-06-15"},"geometry":{"type":"Polygon","coordinates":[[[-98.30714,49.3399],[-98.30162,49.33989],[-98.29609,49.33988],[-98.29606,49.33629],[-98.29602,49.3327],[-98.30166,49.33277],[-98.30731,49.33283],[-98.30722,49.33636],[-98.30714,49.3399]]]}},{"type":"Feature","properties":{"c":"SV15611","o":"BENTHOS METALS LTD.","e":"2028-06-15"},"geometry":{"type":"Polygon","coordinates":[[[-98.34088,49.36938],[-98.33533,49.36939],[-98.32978,49.36939],[-98.32424,49.3694],[-98.31869,49.3694],[-98.31868,49.36573],[-98.31866,49.36207],[-98.31864,49.3584],[-98.31863,49.35473],[-98.32419,49.35477],[-98.32975,49.35481],[-98.33531,49.35485],[-98.34088,49.35489],[-98.34088,49.35851],[-98.34088,49.36213],[-98.34088,49.36576],[-98.34088,49.36938]]]}},{"type":"Feature","properties":{"c":"SV15612","o":"BENTHOS METALS LTD.","e":"2028-06-15"},"geometry":{"type":"Polygon","coordinates":[[[-98.36377,49.36936],[-98.35815,49.36937],[-98.35253,49.36937],[-98.34691,49.36938],[-98.34129,49.36938],[-98.34129,49.36576],[-98.34129,49.36214],[-98.34691,49.36214],[-98.35253,49.36214],[-98.35253,49.35852],[-98.35253,49.35489],[-98.35814,49.3549],[-98.36376,49.3549],[-98.36376,49.35851],[-98.36377,49.36213],[-98.36377,49.36575],[-98.36377,49.36936]]]}},{"type":"Feature","properties":{"c":"SV15613","o":"BENTHOS METALS LTD.","e":"2028-06-15"},"geometry":{"type":"Polygon","coordinates":[[[-98.40899,49.36238],[-98.40892,49.36602],[-98.40886,49.36966],[-98.40328,49.36962],[-98.3977,49.36957],[-98.39212,49.36953],[-98.38655,49.36948],[-98.38658,49.36585],[-98.38662,49.36222],[-98.38665,49.35859],[-98.38669,49.35495],[-98.3923,49.35499],[-98.39791,49.35503],[-98.40351,49.35506],[-98.40912,49.3551],[-98.40906,49.35874],[-98.40899,49.36238]]]}},{"type":"Feature","properties":{"c":"SV15614","o":"BENTHOS METALS LTD.","e":"2028-06-15"},"geometry":{"type":"Polygon","coordinates":[[[-98.4086,49.37716],[-98.40848,49.38077],[-98.40835,49.38438],[-98.40287,49.38437],[-98.39739,49.38435],[-98.39191,49.38433],[-98.38642,49.38432],[-98.38645,49.38067],[-98.38648,49.37703],[-98.38651,49.37339],[-98.38654,49.36975],[-98.39212,49.3698],[-98.3977,49.36984],[-98.40328,49.36989],[-98.40885,49.36994],[-98.40873,49.37355],[-98.4086,49.37716]]]}},{"type":"Feature","properties":{"c":"SV15617","o":"BENTHOS METALS LTD.","e":"2028-06-15"},"geometry":{"type":"Polygon","coordinates":[[[-98.34079,49.38416],[-98.33527,49.38417],[-98.32975,49.38419],[-98.32977,49.38056],[-98.32979,49.37694],[-98.33531,49.37692],[-98.34083,49.37691],[-98.34081,49.38053],[-98.34079,49.38416]]]}},{"type":"Feature","properties":{"c":"SV15618","o":"BENTHOS METALS LTD.","e":"2028-06-15"},"geometry":{"type":"Polygon","coordinates":[[[-98.43042,49.44317],[-98.42506,49.4432],[-98.4197,49.44322],[-98.41434,49.44324],[-98.40899,49.44327],[-98.40892,49.43961],[-98.40886,49.43595],[-98.40879,49.43229],[-98.40873,49.42864],[-98.41411,49.42876],[-98.4195,49.42888],[-98.42489,49.42901],[-98.43027,49.42913],[-98.43031,49.43264],[-98.43034,49.43615],[-98.43038,49.43966],[-98.43042,49.44317]]]}},{"type":"Feature","properties":{"c":"SV15619","o":"BENTHOS METALS LTD.","e":"2028-06-15"},"geometry":{"type":"Polygon","coordinates":[[[-98.45328,49.44335],[-98.44767,49.44331],[-98.44206,49.44326],[-98.44197,49.43976],[-98.44189,49.43625],[-98.43632,49.4362],[-98.43076,49.43615],[-98.43072,49.43264],[-98.43069,49.42913],[-98.4362,49.42918],[-98.44172,49.42924],[-98.44723,49.42929],[-98.45275,49.42934],[-98.45288,49.43284],[-98.45301,49.43635],[-98.45314,49.43985],[-98.45328,49.44335]]]}},{"type":"Feature","properties":{"c":"SV15620","o":"BENTHOS METALS LTD.","e":"2028-06-15"},"geometry":{"type":"Polygon","coordinates":[[[-98.47595,49.42895],[-98.47026,49.42898],[-98.46456,49.42901],[-98.45886,49.42904],[-98.45317,49.42907],[-98.45322,49.4254],[-98.45327,49.42174],[-98.45332,49.41807],[-98.45337,49.4144],[-98.45904,49.41441],[-98.46471,49.41441],[-98.47039,49.41442],[-98.47606,49.41443],[-98.47603,49.41806],[-98.47601,49.42169],[-98.47598,49.42532],[-98.47595,49.42895]]]}},{"type":"Feature","properties":{"c":"SV15621","o":"BENTHOS METALS LTD.","e":"2028-06-15"},"geometry":{"type":"Polygon","coordinates":[[[-98.43044,49.41406],[-98.42496,49.41404],[-98.41947,49.41402],[-98.41398,49.41399],[-98.40849,49.41397],[-98.40847,49.41032],[-98.40844,49.40667],[-98.40841,49.40303],[-98.41397,49.40306],[-98.41953,49.4031],[-98.41951,49.40674],[-98.42505,49.40678],[-98.43058,49.40681],[-98.43051,49.41044],[-98.43044,49.41406]]]}},{"type":"Feature","properties":{"c":"SV15622","o":"BENTHOS METALS LTD.","e":"2028-06-15"},"geometry":{"type":"MultiPolygon","coordinates":[[[[-98.43093,49.39197],[-98.42534,49.39195],[-98.41975,49.39192],[-98.41417,49.3919],[-98.40858,49.39188],[-98.40867,49.38827],[-98.40877,49.38465],[-98.41436,49.38465],[-98.41995,49.38465],[-98.42554,49.38465],[-98.43114,49.38465],[-98.43104,49.38831],[-98.43093,49.39197]]],[[[-98.41995,49.38438],[-98.41436,49.38438],[-98.40877,49.38438],[-98.40889,49.38077],[-98.40902,49.37716],[-98.41461,49.37717],[-98.42019,49.37718],[-98.42007,49.38078],[-98.41995,49.38438]]]]}},{"type":"Feature","properties":{"c":"SV15623","o":"BENTHOS METALS LTD.","e":"2028-06-15"},"geometry":{"type":"Polygon","coordinates":[[[-98.45382,49.37725],[-98.45371,49.38084],[-98.4536,49.38443],[-98.44809,49.38442],[-98.44258,49.3844],[-98.43707,49.38439],[-98.43156,49.38438],[-98.43167,49.38079],[-98.43178,49.3772],[-98.43189,49.3736],[-98.43201,49.37001],[-98.43751,49.37003],[-98.44302,49.37004],[-98.44853,49.37006],[-98.45404,49.37007],[-98.45393,49.37366],[-98.45382,49.37725]]]}},{"type":"Feature","properties":{"c":"SV15624","o":"BENTHOS METALS LTD.","e":"2028-06-15"},"geometry":{"type":"Polygon","coordinates":[[[-98.23062,49.25899],[-98.23065,49.26261],[-98.23067,49.26624],[-98.22792,49.26623],[-98.22751,49.26623],[-98.22748,49.26261],[-98.22744,49.25898],[-98.22786,49.25898],[-98.23062,49.25899]]]}},{"type":"Feature","properties":{"c":"SV15625","o":"BENTHOS METALS LTD.","e":"2028-06-15"},"geometry":{"type":"Polygon","coordinates":[[[-98.2499,49.25901],[-98.24441,49.25901],[-98.23892,49.259],[-98.23888,49.25538],[-98.23885,49.25175],[-98.24437,49.25176],[-98.2499,49.25177],[-98.2499,49.25539],[-98.2499,49.25901]]]}},{"type":"Feature","properties":{"c":"SV15626","o":"BENTHOS METALS LTD.","e":"2028-06-15"},"geometry":{"type":"Polygon","coordinates":[[[-98.28862,49.26621],[-98.28862,49.26261],[-98.28861,49.259],[-98.28999,49.259],[-98.29551,49.259],[-98.29554,49.26261],[-98.29556,49.26622],[-98.28862,49.26621]]]}},{"type":"Feature","properties":{"c":"SV15627","o":"BENTHOS METALS LTD.","e":"2028-06-15"},"geometry":{"type":"Polygon","coordinates":[[[-98.38577,49.25153],[-98.38019,49.2515],[-98.37461,49.25147],[-98.36904,49.25144],[-98.36346,49.25141],[-98.36349,49.24778],[-98.36352,49.24415],[-98.36355,49.24051],[-98.36358,49.23688],[-98.36915,49.23689],[-98.37471,49.23689],[-98.38027,49.2369],[-98.38583,49.23691],[-98.38582,49.24056],[-98.3858,49.24422],[-98.38578,49.24788],[-98.38577,49.25153]]]}},{"type":"Feature","properties":{"c":"SV15630","o":"BENTHOS METALS LTD.","e":"2028-06-15"},"geometry":{"type":"Polygon","coordinates":[[[-98.40883,49.28073],[-98.40318,49.28077],[-98.39754,49.28081],[-98.39189,49.28085],[-98.38624,49.28089],[-98.38622,49.27725],[-98.3862,49.2736],[-98.39184,49.27358],[-98.39748,49.27356],[-98.40312,49.27352],[-98.40877,49.27348],[-98.4088,49.27711],[-98.40883,49.28073]]]}},{"type":"Feature","properties":{"c":"SV15631","o":"BENTHOS METALS LTD.","e":"2028-06-15"},"geometry":{"type":"Polygon","coordinates":[[[-98.39757,49.28833],[-98.39192,49.28837],[-98.38627,49.28841],[-98.38626,49.28479],[-98.38624,49.28117],[-98.39189,49.28113],[-98.39753,49.28109],[-98.39755,49.28471],[-98.39757,49.28833]]]}},{"type":"Feature","properties":{"c":"SV15632","o":"BENTHOS METALS LTD.","e":"2028-06-15"},"geometry":{"type":"Polygon","coordinates":[[[-98.31847,49.28883],[-98.31284,49.28882],[-98.3072,49.2888],[-98.30721,49.28514],[-98.30722,49.28147],[-98.31279,49.28149],[-98.31835,49.28151],[-98.31841,49.28517],[-98.31847,49.28883]]]}},{"type":"Feature","properties":{"c":"SV15633","o":"BENTHOS METALS LTD.","e":"2028-06-15"},"geometry":{"type":"Polygon","coordinates":[[[-98.2845,49.29412],[-98.27893,49.29407],[-98.27335,49.29402],[-98.27294,49.29401],[-98.27294,49.29221],[-98.27294,49.29131],[-98.27335,49.29131],[-98.27894,49.29134],[-98.28451,49.29138],[-98.28451,49.29229],[-98.2845,49.29412]]]}},{"type":"Feature","properties":{"c":"SV15634","o":"BENTHOS METALS LTD.","e":"2028-06-15"},"geometry":{"type":"Polygon","coordinates":[[[-98.28449,49.30335],[-98.27892,49.30329],[-98.27335,49.30322],[-98.27293,49.30322],[-98.27293,49.29965],[-98.27293,49.29876],[-98.27335,49.29877],[-98.27892,49.29883],[-98.28449,49.2989],[-98.28449,49.29979],[-98.28449,49.30335]]]}},{"type":"Feature","properties":{"c":"SV15636","o":"BENTHOS METALS LTD.","e":"2028-06-15"},"geometry":{"type":"Polygon","coordinates":[[[-98.4087,49.3106],[-98.40313,49.31054],[-98.39755,49.31047],[-98.39198,49.31041],[-98.3864,49.31035],[-98.38638,49.30674],[-98.38635,49.30314],[-98.39201,49.3031],[-98.39766,49.30306],[-98.40324,49.30313],[-98.40881,49.30319],[-98.40876,49.30689],[-98.4087,49.3106]]]}},{"type":"Feature","properties":{"c":"SV15637","o":"BENTHOS METALS LTD.","e":"2028-06-15"},"geometry":{"type":"Polygon","coordinates":[[[-98.40881,49.30319],[-98.40324,49.30313],[-98.39766,49.30306],[-98.39764,49.29946],[-98.39761,49.29586],[-98.40326,49.29582],[-98.40892,49.29578],[-98.40886,49.29948],[-98.40881,49.30319]]]}},{"type":"Feature","properties":{"c":"SV15638","o":"BENTHOS METALS LTD.","e":"2028-06-15"},"geometry":{"type":"Polygon","coordinates":[[[-98.34136,49.39902],[-98.34094,49.39902],[-98.3409,49.39537],[-98.34087,49.39172],[-98.34128,49.39173],[-98.34693,49.39176],[-98.34694,49.39538],[-98.34697,49.399],[-98.34136,49.39902]]]}},{"type":"Feature","properties":{"c":"SV15640","o":"BENTHOS METALS LTD.","e":"2028-06-15"},"geometry":{"type":"Polygon","coordinates":[[[-98.40832,49.42836],[-98.40283,49.42838],[-98.39735,49.42839],[-98.39186,49.42841],[-98.38638,49.42842],[-98.38637,49.42487],[-98.38635,49.42132],[-98.39179,49.42132],[-98.39723,49.42133],[-98.40271,49.42132],[-98.4082,49.4213],[-98.40826,49.42483],[-98.40832,49.42836]]]}},{"type":"Feature","properties":{"c":"SV15641","o":"BENTHOS METALS LTD.","e":"2028-06-15"},"geometry":{"type":"Polygon","coordinates":[[[-98.39723,49.42133],[-98.39179,49.42132],[-98.38635,49.42132],[-98.38594,49.42131],[-98.38592,49.41776],[-98.38592,49.41708],[-98.38634,49.41705],[-98.38634,49.41698],[-98.38679,49.41721],[-98.38677,49.4176],[-98.38675,49.41786],[-98.38696,49.41819],[-98.3872,49.41841],[-98.38722,49.41841],[-98.38766,49.4185],[-98.38771,49.41893],[-98.38795,49.41896],[-98.38847,49.419],[-98.38923,49.41888],[-98.3893,49.4189],[-98.39033,49.41918],[-98.39039,49.41935],[-98.39058,49.41982],[-98.3912,49.41984],[-98.39258,49.41988],[-98.39342,49.4199],[-98.39349,49.41956],[-98.39367,49.41867],[-98.39374,49.41834],[-98.39431,49.41791],[-98.39447,49.41778],[-98.39548,49.41811],[-98.3967,49.41852],[-98.39718,49.41868],[-98.39798,49.41887],[-98.39927,49.41918],[-98.40057,49.41948],[-98.40186,49.41979],[-98.40316,49.4201],[-98.40325,49.42012],[-98.4042,49.42068],[-98.40423,49.42069],[-98.40489,49.42079],[-98.40554,49.42071],[-98.40689,49.42053],[-98.40758,49.42044],[-98.40819,49.42073],[-98.4086,49.42073],[-98.40861,49.4213],[-98.4082,49.4213],[-98.39723,49.42133]]]}},{"type":"Feature","properties":{"c":"SV15643","o":"BENTHOS METALS LTD.","e":"2028-06-15"},"geometry":{"type":"Polygon","coordinates":[[[-98.40857,49.44326],[-98.40304,49.44326],[-98.39751,49.44326],[-98.39745,49.4396],[-98.39738,49.43595],[-98.40291,49.43595],[-98.40844,49.43595],[-98.40851,49.43961],[-98.40857,49.44326]]]}},{"type":"Feature","properties":{"c":"SV15644","o":"BENTHOS METALS LTD.","e":"2028-06-15"},"geometry":{"type":"Polygon","coordinates":[[[-98.40844,49.43595],[-98.40291,49.43595],[-98.39738,49.43595],[-98.3919,49.43596],[-98.38642,49.43597],[-98.3864,49.43233],[-98.38638,49.42869],[-98.39186,49.42868],[-98.39734,49.42866],[-98.40283,49.42865],[-98.40831,49.42863],[-98.40838,49.43229],[-98.40844,49.43595]]]}},{"type":"Feature","properties":{"c":"SV15645","o":"BENTHOS METALS LTD.","e":"2028-06-15"},"geometry":{"type":"Polygon","coordinates":[[[-98.43057,49.45754],[-98.42524,49.45764],[-98.41991,49.45775],[-98.41458,49.45785],[-98.40924,49.45796],[-98.40918,49.45435],[-98.40911,49.45075],[-98.40905,49.44714],[-98.40898,49.44354],[-98.41434,49.44352],[-98.4197,49.44349],[-98.42506,49.44347],[-98.43041,49.44345],[-98.43045,49.44697],[-98.43049,49.45049],[-98.43053,49.45401],[-98.43057,49.45754]]]}},{"type":"Feature","properties":{"c":"SV15646","o":"BENTHOS METALS LTD.","e":"2028-06-15"},"geometry":{"type":"Polygon","coordinates":[[[-98.4534,49.45721],[-98.4478,49.45729],[-98.44219,49.45737],[-98.43659,49.45746],[-98.43098,49.45754],[-98.43095,49.45402],[-98.43091,49.45049],[-98.43651,49.45047],[-98.44212,49.45045],[-98.44209,49.44699],[-98.44205,49.44354],[-98.44766,49.44358],[-98.45327,49.44362],[-98.45331,49.44702],[-98.45334,49.45041],[-98.45337,49.45381],[-98.4534,49.45721]]]}},{"type":"Feature","properties":{"c":"SV15647","o":"BENTHOS METALS LTD.","e":"2028-06-15"},"geometry":{"type":"Polygon","coordinates":[[[-98.47608,49.45831],[-98.47051,49.45803],[-98.46495,49.45776],[-98.45938,49.45748],[-98.45382,49.45721],[-98.45379,49.45381],[-98.45375,49.45042],[-98.45372,49.44702],[-98.45369,49.44362],[-98.45922,49.44367],[-98.46475,49.44372],[-98.47028,49.44377],[-98.47581,49.44382],[-98.47587,49.44744],[-98.47594,49.45106],[-98.47601,49.45469],[-98.47608,49.45831]]]}},{"type":"Feature","properties":{"c":"SV15648","o":"BENTHOS METALS LTD.","e":"2028-06-15"},"geometry":{"type":"Polygon","coordinates":[[[-98.49907,49.45884],[-98.49342,49.45871],[-98.48778,49.45857],[-98.48214,49.45844],[-98.47649,49.45831],[-98.47643,49.45469],[-98.47636,49.45107],[-98.47629,49.44744],[-98.47622,49.44382],[-98.4819,49.44385],[-98.48758,49.44387],[-98.49326,49.4439],[-98.49894,49.44393],[-98.49897,49.44766],[-98.499,49.45138],[-98.49903,49.45511],[-98.49907,49.45884]]]}},{"type":"Feature","properties":{"c":"SV15649","o":"BENTHOS METALS LTD.","e":"2028-06-15"},"geometry":{"type":"Polygon","coordinates":[[[-98.52171,49.4587],[-98.51615,49.45873],[-98.5106,49.45877],[-98.51057,49.45507],[-98.51054,49.45138],[-98.50498,49.45138],[-98.49942,49.45139],[-98.49939,49.44766],[-98.49935,49.44393],[-98.50492,49.44396],[-98.51048,49.44399],[-98.51604,49.44401],[-98.5216,49.44404],[-98.52163,49.4477],[-98.52166,49.45137],[-98.52168,49.45503],[-98.52171,49.4587]]]}},{"type":"Feature","properties":{"c":"SV15652","o":"BENTHOS METALS LTD.","e":"2028-06-15"},"geometry":{"type":"Polygon","coordinates":[[[-98.49932,49.47356],[-98.49364,49.47343],[-98.48797,49.47329],[-98.4823,49.47315],[-98.47663,49.47302],[-98.4766,49.46941],[-98.47656,49.4658],[-98.47653,49.46219],[-98.47649,49.45858],[-98.48213,49.45871],[-98.48778,49.45885],[-98.49342,49.45898],[-98.49906,49.45911],[-98.49913,49.46272],[-98.49919,49.46634],[-98.49925,49.46995],[-98.49932,49.47356]]]}},{"type":"Feature","properties":{"c":"SV15653","o":"BENTHOS METALS LTD.","e":"2028-06-15"},"geometry":{"type":"Polygon","coordinates":[[[-98.47622,49.47301],[-98.47072,49.47306],[-98.46522,49.47311],[-98.45972,49.47316],[-98.45422,49.47321],[-98.45412,49.46928],[-98.45402,49.46534],[-98.45392,49.46141],[-98.45382,49.45748],[-98.45938,49.45776],[-98.46495,49.45803],[-98.47051,49.4583],[-98.47608,49.45858],[-98.47611,49.46219],[-98.47615,49.4658],[-98.47618,49.46941],[-98.47622,49.47301]]]}},{"type":"Feature","properties":{"c":"SV15654","o":"BENTHOS METALS LTD.","e":"2028-06-15"},"geometry":{"type":"Polygon","coordinates":[[[-98.4538,49.47321],[-98.44818,49.47307],[-98.44257,49.47293],[-98.43695,49.4728],[-98.43133,49.47266],[-98.43124,49.46895],[-98.43116,49.46524],[-98.43107,49.46152],[-98.43098,49.45781],[-98.43659,49.45773],[-98.44219,49.45764],[-98.44779,49.45756],[-98.4534,49.45748],[-98.4535,49.46141],[-98.4536,49.46534],[-98.4537,49.46927],[-98.4538,49.47321]]]}},{"type":"Feature","properties":{"c":"SV15656","o":"BENTHOS METALS LTD.","e":"2028-06-15"},"geometry":{"type":"Polygon","coordinates":[[[-98.49974,49.48782],[-98.4939,49.48784],[-98.48807,49.48786],[-98.48224,49.48789],[-98.4764,49.48791],[-98.47646,49.48426],[-98.47652,49.4806],[-98.47657,49.47694],[-98.47663,49.47329],[-98.4823,49.47342],[-98.48797,49.47356],[-98.49364,49.4737],[-98.49931,49.47383],[-98.49942,49.47733],[-98.49953,49.48082],[-98.49963,49.48432],[-98.49974,49.48782]]]}},{"type":"Feature","properties":{"c":"SV15657","o":"BENTHOS METALS LTD.","e":"2028-06-15"},"geometry":{"type":"Polygon","coordinates":[[[-98.52184,49.50314],[-98.51622,49.50316],[-98.5106,49.50319],[-98.50499,49.50321],[-98.49937,49.50324],[-98.49957,49.49945],[-98.49976,49.49566],[-98.49996,49.49188],[-98.50015,49.48809],[-98.50551,49.48819],[-98.51088,49.48829],[-98.51624,49.48839],[-98.5216,49.48849],[-98.52166,49.49215],[-98.52172,49.49581],[-98.52178,49.49948],[-98.52184,49.50314]]]}},{"type":"Feature","properties":{"c":"SV15690","o":"BENTHOS METALS LTD.","e":"2028-06-15"},"geometry":{"type":"Polygon","coordinates":[[[-98.15512,49.01508],[-98.14963,49.01508],[-98.14413,49.01509],[-98.14138,49.01509],[-98.14141,49.01144],[-98.14143,49.00961],[-98.13867,49.00961],[-98.13316,49.00962],[-98.13316,49.0078],[-98.13318,49.0042],[-98.1332,49.0006],[-98.13319,49.00033],[-98.1557,49.00031],[-98.15569,49.00058],[-98.15565,49.00418],[-98.15562,49.00777],[-98.15558,49.01143],[-98.15554,49.01508],[-98.15512,49.01508]]]}},{"type":"Feature","properties":{"c":"SV15691","o":"BENTHOS METALS LTD.","e":"2028-06-15"},"geometry":{"type":"Polygon","coordinates":[[[-98.17753,49.01505],[-98.17203,49.01506],[-98.16654,49.01506],[-98.16104,49.01507],[-98.15554,49.01508],[-98.15558,49.01143],[-98.15562,49.00777],[-98.15565,49.00418],[-98.15569,49.00058],[-98.16115,49.00058],[-98.1666,49.00057],[-98.17206,49.00056],[-98.17752,49.00055],[-98.17752,49.00414],[-98.17753,49.00773],[-98.17753,49.01139],[-98.17753,49.01505]]]}},{"type":"Feature","properties":{"c":"SV15692","o":"BENTHOS METALS LTD.","e":"2028-06-15"},"geometry":{"type":"Polygon","coordinates":[[[-98.2,49.01503],[-98.19449,49.01503],[-98.18898,49.01504],[-98.18346,49.01504],[-98.17795,49.01505],[-98.17794,49.01139],[-98.17794,49.00773],[-98.17793,49.00414],[-98.17793,49.00055],[-98.18344,49.00054],[-98.18895,49.00054],[-98.19446,49.00054],[-98.19997,49.00054],[-98.19998,49.00413],[-98.19999,49.00771],[-98.2,49.01137],[-98.2,49.01503]]]}},{"type":"Feature","properties":{"c":"SV15693","o":"BENTHOS METALS LTD.","e":"2028-06-15"},"geometry":{"type":"Polygon","coordinates":[[[-98.21144,49.01502],[-98.20593,49.01502],[-98.20042,49.01503],[-98.20041,49.01137],[-98.2004,49.00772],[-98.20592,49.00772],[-98.21143,49.00772],[-98.21143,49.01137],[-98.21144,49.01502]]]}},{"type":"Feature","properties":{"c":"SV15695","o":"BENTHOS METALS LTD.","e":"2028-06-15"},"geometry":{"type":"Polygon","coordinates":[[[-98.23371,49.01497],[-98.2283,49.01499],[-98.22288,49.015],[-98.22287,49.01136],[-98.22286,49.00771],[-98.22826,49.00772],[-98.23366,49.00773],[-98.23369,49.01135],[-98.23371,49.01497]]]}},{"type":"Feature","properties":{"c":"SV15696","o":"BENTHOS METALS LTD.","e":"2028-06-15"},"geometry":{"type":"Polygon","coordinates":[[[-98.24491,49.0077],[-98.24494,49.01132],[-98.24497,49.01495],[-98.24496,49.01522],[-98.24455,49.01521],[-98.23913,49.01523],[-98.23913,49.01496],[-98.23911,49.01133],[-98.23908,49.00771],[-98.2445,49.00769],[-98.24491,49.0077]]]}},{"type":"Feature","properties":{"c":"SV15700","o":"BENTHOS METALS LTD.","e":"2028-06-15"},"geometry":{"type":"Polygon","coordinates":[[[-98.26173,49.00055],[-98.26735,49.00055],[-98.26776,49.00055],[-98.26775,49.00383],[-98.26775,49.00401],[-98.26734,49.004],[-98.26733,49.004],[-98.26724,49.00411],[-98.26686,49.00411],[-98.26453,49.00411],[-98.26453,49.00748],[-98.26446,49.00757],[-98.26437,49.00768],[-98.26428,49.00768],[-98.2641,49.00768],[-98.26174,49.00768],[-98.26173,49.00949],[-98.25615,49.0095],[-98.25616,49.00769],[-98.25616,49.00753],[-98.25614,49.00549],[-98.25614,49.00412],[-98.25615,49.00081],[-98.25615,49.00055],[-98.26173,49.00055]]]}},{"type":"Feature","properties":{"c":"SV15702","o":"BENTHOS METALS LTD.","e":"2028-06-15"},"geometry":{"type":"Polygon","coordinates":[[[-98.26735,49.02966],[-98.26178,49.02968],[-98.25621,49.0297],[-98.25063,49.02972],[-98.24506,49.02974],[-98.24504,49.02611],[-98.24501,49.02248],[-98.2506,49.02247],[-98.25618,49.02246],[-98.26175,49.02244],[-98.26732,49.02241],[-98.26733,49.02604],[-98.26735,49.02966]]]}},{"type":"Feature","properties":{"c":"SV15704","o":"BENTHOS METALS LTD.","e":"2028-06-15"},"geometry":{"type":"Polygon","coordinates":[[[-98.22243,49.02979],[-98.21693,49.0298],[-98.21142,49.02981],[-98.20592,49.02981],[-98.20042,49.02982],[-98.20042,49.02619],[-98.20042,49.02256],[-98.20041,49.01893],[-98.20041,49.0153],[-98.20592,49.01529],[-98.21144,49.01529],[-98.21695,49.01528],[-98.22246,49.01527],[-98.22245,49.0189],[-98.22244,49.02253],[-98.22244,49.02616],[-98.22243,49.02979]]]}},{"type":"Feature","properties":{"c":"SV15705","o":"BENTHOS METALS LTD.","e":"2028-06-15"},"geometry":{"type":"Polygon","coordinates":[[[-98.20001,49.02982],[-98.1945,49.02981],[-98.18899,49.02981],[-98.18348,49.0298],[-98.17798,49.02979],[-98.17797,49.02618],[-98.17796,49.02256],[-98.17795,49.01894],[-98.17794,49.01532],[-98.18346,49.01532],[-98.18897,49.01531],[-98.19449,49.0153],[-98.2,49.0153],[-98.2,49.01893],[-98.2,49.02256],[-98.2,49.02619],[-98.20001,49.02982]]]}},{"type":"Feature","properties":{"c":"SV15706","o":"BENTHOS METALS LTD.","e":"2028-06-15"},"geometry":{"type":"Polygon","coordinates":[[[-98.17756,49.02979],[-98.17205,49.02981],[-98.16653,49.02983],[-98.16102,49.02985],[-98.1555,49.02987],[-98.15551,49.02624],[-98.15552,49.02261],[-98.15552,49.01898],[-98.15553,49.01535],[-98.16103,49.01534],[-98.16653,49.01534],[-98.17203,49.01533],[-98.17753,49.01532],[-98.17754,49.01894],[-98.17755,49.02255],[-98.17756,49.02617],[-98.17756,49.02979]]]}},{"type":"Feature","properties":{"c":"SV15707","o":"BENTHOS METALS LTD.","e":"2028-06-15"},"geometry":{"type":"Polygon","coordinates":[[[-98.15509,49.02986],[-98.14959,49.02986],[-98.14409,49.02987],[-98.13859,49.02987],[-98.1331,49.02987],[-98.1331,49.02624],[-98.13311,49.02262],[-98.13312,49.019],[-98.13313,49.01537],[-98.13862,49.01537],[-98.14412,49.01536],[-98.14962,49.01536],[-98.15512,49.01535],[-98.15511,49.01898],[-98.1551,49.02261],[-98.15509,49.02623],[-98.15509,49.02986]]]}},{"type":"Feature","properties":{"c":"SV15709","o":"BENTHOS METALS LTD.","e":"2028-06-15"},"geometry":{"type":"Polygon","coordinates":[[[-98.17759,49.04456],[-98.17209,49.04457],[-98.1666,49.04459],[-98.16111,49.0446],[-98.15561,49.04462],[-98.15558,49.041],[-98.15555,49.03738],[-98.15552,49.03376],[-98.15549,49.03014],[-98.16101,49.03012],[-98.16653,49.0301],[-98.17204,49.03008],[-98.17756,49.03006],[-98.17757,49.03369],[-98.17757,49.03731],[-98.17758,49.04093],[-98.17759,49.04456]]]}},{"type":"Feature","properties":{"c":"SV15710","o":"BENTHOS METALS LTD.","e":"2028-06-15"},"geometry":{"type":"Polygon","coordinates":[[[-98.20006,49.04454],[-98.19455,49.04455],[-98.18903,49.04455],[-98.18352,49.04456],[-98.178,49.04456],[-98.17799,49.04094],[-98.17799,49.03731],[-98.17798,49.03369],[-98.17797,49.03007],[-98.18348,49.03007],[-98.18899,49.03008],[-98.19449,49.03008],[-98.2,49.03009],[-98.20002,49.0337],[-98.20003,49.03732],[-98.20005,49.04093],[-98.20006,49.04454]]]}},{"type":"Feature","properties":{"c":"SV15711","o":"BENTHOS METALS LTD.","e":"2028-06-15"},"geometry":{"type":"Polygon","coordinates":[[[-98.22243,49.03731],[-98.21694,49.03731],[-98.21145,49.03731],[-98.20595,49.03731],[-98.20045,49.03732],[-98.20043,49.03371],[-98.20041,49.03009],[-98.20592,49.03009],[-98.21142,49.03008],[-98.21692,49.03007],[-98.22242,49.03006],[-98.22243,49.03369],[-98.22243,49.03731]]]}},{"type":"Feature","properties":{"c":"SV15712","o":"BENTHOS METALS LTD.","e":"2028-06-15"},"geometry":{"type":"Polygon","coordinates":[[[-98.24491,49.04457],[-98.23939,49.04457],[-98.23388,49.04456],[-98.22837,49.04456],[-98.22285,49.04456],[-98.22285,49.04093],[-98.22284,49.03731],[-98.22284,49.03369],[-98.22284,49.03007],[-98.22829,49.03005],[-98.23374,49.03004],[-98.23919,49.03002],[-98.24465,49.03001],[-98.24471,49.03365],[-98.24478,49.03729],[-98.24484,49.04093],[-98.24491,49.04457]]]}},{"type":"Feature","properties":{"c":"SV15713","o":"BENTHOS METALS LTD.","e":"2028-06-15"},"geometry":{"type":"Polygon","coordinates":[[[-98.2449,49.05931],[-98.23938,49.05931],[-98.23387,49.05931],[-98.22836,49.05931],[-98.22285,49.05931],[-98.22285,49.05569],[-98.22285,49.05207],[-98.22285,49.04845],[-98.22285,49.04483],[-98.22836,49.04483],[-98.23387,49.04483],[-98.23939,49.04484],[-98.2449,49.04484],[-98.2449,49.04846],[-98.2449,49.05207],[-98.2449,49.05569],[-98.2449,49.05931]]]}},{"type":"Feature","properties":{"c":"SV15714","o":"BENTHOS METALS LTD.","e":"2028-06-15"},"geometry":{"type":"Polygon","coordinates":[[[-98.22243,49.05931],[-98.21694,49.05931],[-98.21145,49.05931],[-98.20596,49.05931],[-98.20047,49.0593],[-98.20047,49.05568],[-98.20047,49.05206],[-98.20047,49.04844],[-98.20047,49.04482],[-98.20596,49.04482],[-98.21145,49.04482],[-98.21694,49.04482],[-98.22243,49.04483],[-98.22243,49.04845],[-98.22243,49.05207],[-98.22243,49.05569],[-98.22243,49.05931]]]}},{"type":"Feature","properties":{"c":"SV15715","o":"BENTHOS METALS LTD.","e":"2028-06-15"},"geometry":{"type":"Polygon","coordinates":[[[-98.20005,49.0593],[-98.19454,49.0593],[-98.18903,49.0593],[-98.18903,49.05568],[-98.18904,49.05206],[-98.18903,49.04844],[-98.18903,49.04482],[-98.19454,49.04482],[-98.20006,49.04482],[-98.20006,49.04844],[-98.20006,49.05206],[-98.20005,49.05568],[-98.20005,49.0593]]]}},{"type":"Feature","properties":{"c":"SV15716","o":"BENTHOS METALS LTD.","e":"2028-06-15"},"geometry":{"type":"Polygon","coordinates":[[[-98.1776,49.05929],[-98.17209,49.05932],[-98.16659,49.05935],[-98.16108,49.05938],[-98.15558,49.05941],[-98.15559,49.05578],[-98.15559,49.05215],[-98.1556,49.04852],[-98.15561,49.04489],[-98.1611,49.04488],[-98.1666,49.04486],[-98.17209,49.04484],[-98.17758,49.04483],[-98.17759,49.04844],[-98.17759,49.05206],[-98.17759,49.05568],[-98.1776,49.05929]]]}},{"type":"Feature","properties":{"c":"SV15717","o":"BENTHOS METALS LTD.","e":"2028-06-15"},"geometry":{"type":"Polygon","coordinates":[[[-98.15514,49.07416],[-98.14961,49.07419],[-98.14409,49.07422],[-98.13856,49.07425],[-98.13304,49.07429],[-98.13302,49.07064],[-98.133,49.067],[-98.13298,49.06336],[-98.13296,49.05972],[-98.13851,49.05971],[-98.14406,49.0597],[-98.14961,49.05969],[-98.15516,49.05968],[-98.15516,49.0633],[-98.15515,49.06692],[-98.15514,49.07054],[-98.15514,49.07416]]]}},{"type":"Feature","properties":{"c":"SV15718","o":"BENTHOS METALS LTD.","e":"2028-06-15"},"geometry":{"type":"Polygon","coordinates":[[[-98.20004,49.07402],[-98.19455,49.07402],[-98.18905,49.07403],[-98.18356,49.07403],[-98.17806,49.07403],[-98.17805,49.07042],[-98.17803,49.0668],[-98.17802,49.06318],[-98.17801,49.05957],[-98.18352,49.05957],[-98.18903,49.05957],[-98.19454,49.05957],[-98.20005,49.05957],[-98.20005,49.06318],[-98.20005,49.0668],[-98.20004,49.07041],[-98.20004,49.07402]]]}},{"type":"Feature","properties":{"c":"SV15719","o":"BENTHOS METALS LTD.","e":"2028-06-15"},"geometry":{"type":"Polygon","coordinates":[[[-98.22246,49.06681],[-98.21695,49.06681],[-98.21144,49.0668],[-98.20595,49.0668],[-98.20046,49.0668],[-98.20046,49.06319],[-98.20046,49.05958],[-98.20595,49.05958],[-98.21145,49.05958],[-98.21694,49.05958],[-98.22243,49.05958],[-98.22244,49.06319],[-98.22246,49.06681]]]}},{"type":"Feature","properties":{"c":"SV15720","o":"BENTHOS METALS LTD.","e":"2028-06-15"},"geometry":{"type":"Polygon","coordinates":[[[-98.24495,49.07404],[-98.23943,49.07404],[-98.23392,49.07404],[-98.22841,49.07404],[-98.2229,49.07404],[-98.22288,49.07042],[-98.22287,49.06681],[-98.22286,49.0632],[-98.22284,49.05959],[-98.22835,49.05958],[-98.23387,49.05958],[-98.23938,49.05958],[-98.24489,49.05958],[-98.24491,49.06319],[-98.24492,49.06681],[-98.24493,49.07043],[-98.24495,49.07404]]]}},{"type":"Feature","properties":{"c":"SV15721","o":"BENTHOS METALS LTD.","e":"2028-06-15"},"geometry":{"type":"Polygon","coordinates":[[[-98.24502,49.08886],[-98.2395,49.08889],[-98.23399,49.08892],[-98.22847,49.08894],[-98.22296,49.08897],[-98.22294,49.0853],[-98.22292,49.08164],[-98.22291,49.07797],[-98.22289,49.07431],[-98.22841,49.07431],[-98.23392,49.07431],[-98.23943,49.07431],[-98.24494,49.07431],[-98.24496,49.07795],[-98.24498,49.08159],[-98.245,49.08523],[-98.24502,49.08886]]]}},{"type":"Feature","properties":{"c":"SV15722","o":"BENTHOS METALS LTD.","e":"2028-06-15"},"geometry":{"type":"Polygon","coordinates":[[[-98.22254,49.08897],[-98.21703,49.08899],[-98.21153,49.08902],[-98.20602,49.08904],[-98.20051,49.08906],[-98.2005,49.08537],[-98.20048,49.08168],[-98.20047,49.07799],[-98.20045,49.07429],[-98.20596,49.0743],[-98.21147,49.0743],[-98.21697,49.0743],[-98.22248,49.0743],[-98.2225,49.07797],[-98.22251,49.08164],[-98.22253,49.0853],[-98.22254,49.08897]]]}},{"type":"Feature","properties":{"c":"SV15723","o":"BENTHOS METALS LTD.","e":"2028-06-15"},"geometry":{"type":"Polygon","coordinates":[[[-98.18906,49.08912],[-98.18355,49.08915],[-98.17803,49.08918],[-98.17804,49.08546],[-98.17804,49.08174],[-98.18354,49.08174],[-98.18904,49.08174],[-98.18905,49.08543],[-98.18906,49.08912]]]}},{"type":"Feature","properties":{"c":"SV15724","o":"BENTHOS METALS LTD.","e":"2028-06-15"},"geometry":{"type":"Polygon","coordinates":[[[-98.14416,49.08897],[-98.13865,49.08895],[-98.13314,49.08892],[-98.13311,49.08533],[-98.13309,49.08174],[-98.13306,49.07815],[-98.13304,49.07456],[-98.13856,49.07453],[-98.14408,49.07449],[-98.14411,49.07808],[-98.14414,49.08167],[-98.14415,49.08532],[-98.14416,49.08897]]]}},{"type":"Feature","properties":{"c":"SV15725","o":"BENTHOS METALS LTD.","e":"2028-06-15"},"geometry":{"type":"Polygon","coordinates":[[[-98.06533,49.01517],[-98.05984,49.01518],[-98.05436,49.01518],[-98.04887,49.01519],[-98.04339,49.0152],[-98.0434,49.01154],[-98.04342,49.00788],[-98.04344,49.00428],[-98.04345,49.00069],[-98.04891,49.00068],[-98.05436,49.00068],[-98.05982,49.00067],[-98.06528,49.00067],[-98.06529,49.00426],[-98.0653,49.00785],[-98.06531,49.01151],[-98.06533,49.01517]]]}},{"type":"Feature","properties":{"c":"SV15726","o":"BENTHOS METALS LTD.","e":"2028-06-15"},"geometry":{"type":"Polygon","coordinates":[[[-98.11024,49.01513],[-98.10492,49.01514],[-98.0996,49.01514],[-98.09428,49.01515],[-98.08897,49.01516],[-98.089,49.0115],[-98.08903,49.00784],[-98.08906,49.00424],[-98.08909,49.00064],[-98.09436,49.00064],[-98.09963,49.00063],[-98.1049,49.00063],[-98.11018,49.00062],[-98.11019,49.00421],[-98.11021,49.00781],[-98.11022,49.01147],[-98.11024,49.01513]]]}},{"type":"Feature","properties":{"c":"SV15727","o":"BENTHOS METALS LTD.","e":"2028-06-15"},"geometry":{"type":"Polygon","coordinates":[[[-98.13272,49.0151],[-98.1272,49.01511],[-98.12168,49.01511],[-98.11617,49.01512],[-98.11065,49.01513],[-98.11064,49.01147],[-98.11062,49.00781],[-98.11061,49.00422],[-98.11059,49.00062],[-98.11614,49.00062],[-98.12169,49.00061],[-98.12724,49.00061],[-98.13279,49.0006],[-98.13277,49.0042],[-98.13275,49.00779],[-98.13274,49.01144],[-98.13272,49.0151]]]}},{"type":"Feature","properties":{"c":"SV15728","o":"BENTHOS METALS LTD.","e":"2028-06-15"},"geometry":{"type":"Polygon","coordinates":[[[-98.13268,49.02986],[-98.12719,49.02987],[-98.12169,49.02988],[-98.11619,49.02988],[-98.1107,49.02989],[-98.11068,49.02627],[-98.11067,49.02265],[-98.11066,49.01902],[-98.11065,49.0154],[-98.11616,49.01539],[-98.12168,49.01539],[-98.1272,49.01538],[-98.13271,49.01537],[-98.13271,49.01899],[-98.1327,49.02262],[-98.13269,49.02624],[-98.13268,49.02986]]]}},{"type":"Feature","properties":{"c":"SV15729","o":"BENTHOS METALS LTD.","e":"2028-06-15"},"geometry":{"type":"Polygon","coordinates":[[[-98.08847,49.02992],[-98.0828,49.02993],[-98.07712,49.02994],[-98.07145,49.02994],[-98.06577,49.02995],[-98.06576,49.02632],[-98.06575,49.02269],[-98.06574,49.01907],[-98.06573,49.01544],[-98.07144,49.01544],[-98.07714,49.01543],[-98.08284,49.01543],[-98.08855,49.01543],[-98.08853,49.01905],[-98.08851,49.02268],[-98.08849,49.0263],[-98.08847,49.02992]]]}},{"type":"Feature","properties":{"c":"SV15730","o":"BENTHOS METALS LTD.","e":"2028-06-15"},"geometry":{"type":"Polygon","coordinates":[[[-98.04299,49.02996],[-98.03749,49.02998],[-98.03198,49.03],[-98.03197,49.02637],[-98.03197,49.02275],[-98.03196,49.01911],[-98.03196,49.01547],[-98.03747,49.01547],[-98.04297,49.01547],[-98.04298,49.01909],[-98.04298,49.02272],[-98.04299,49.02634],[-98.04299,49.02996]]]}},{"type":"Feature","properties":{"c":"SV15731","o":"BENTHOS METALS LTD.","e":"2028-06-15"},"geometry":{"type":"Polygon","coordinates":[[[-98.0654,49.0447],[-98.05989,49.0447],[-98.05439,49.0447],[-98.05438,49.04107],[-98.05436,49.03745],[-98.05987,49.03745],[-98.06538,49.03746],[-98.06539,49.04108],[-98.0654,49.0447]]]}},{"type":"Feature","properties":{"c":"SV15732","o":"BENTHOS METALS LTD.","e":"2028-06-15"},"geometry":{"type":"Polygon","coordinates":[[[-98.08809,49.04461],[-98.08252,49.04463],[-98.07695,49.04466],[-98.07705,49.04105],[-98.07714,49.03745],[-98.08271,49.03743],[-98.08828,49.0374],[-98.08819,49.041],[-98.08809,49.04461]]]}},{"type":"Feature","properties":{"c":"SV15733","o":"BENTHOS METALS LTD.","e":"2028-06-15"},"geometry":{"type":"Polygon","coordinates":[[[-98.07714,49.03745],[-98.07147,49.03746],[-98.06579,49.03746],[-98.06578,49.03384],[-98.06577,49.03022],[-98.07144,49.03021],[-98.07712,49.03021],[-98.07713,49.03383],[-98.07714,49.03745]]]}},{"type":"Feature","properties":{"c":"SV15734","o":"BENTHOS METALS LTD.","e":"2028-06-15"},"geometry":{"type":"Polygon","coordinates":[[[-98.13255,49.05944],[-98.1271,49.05944],[-98.12164,49.05944],[-98.11618,49.05944],[-98.11072,49.05944],[-98.11072,49.05577],[-98.11071,49.05211],[-98.11071,49.04845],[-98.1107,49.04479],[-98.1162,49.04474],[-98.1217,49.04469],[-98.12719,49.04464],[-98.13269,49.04459],[-98.13265,49.0483],[-98.13262,49.05201],[-98.13259,49.05573],[-98.13255,49.05944]]]}},{"type":"Feature","properties":{"c":"SV15735","o":"BENTHOS METALS LTD.","e":"2028-06-15"},"geometry":{"type":"Polygon","coordinates":[[[-98.0994,49.05941],[-98.09394,49.0594],[-98.08849,49.05938],[-98.08849,49.05576],[-98.08849,49.05213],[-98.0885,49.04851],[-98.0885,49.04488],[-98.09395,49.04486],[-98.0994,49.04484],[-98.09939,49.04846],[-98.09939,49.05209],[-98.09939,49.05575],[-98.0994,49.05941]]]}},{"type":"Feature","properties":{"c":"SV15736","o":"BENTHOS METALS LTD.","e":"2028-06-15"},"geometry":{"type":"Polygon","coordinates":[[[-98.1103,49.05211],[-98.10484,49.0521],[-98.09939,49.05209],[-98.09939,49.04846],[-98.0994,49.04484],[-98.10484,49.04481],[-98.11029,49.04479],[-98.1103,49.04845],[-98.1103,49.05211]]]}},{"type":"Feature","properties":{"c":"SV15737","o":"BENTHOS METALS LTD.","e":"2028-06-15"},"geometry":{"type":"Polygon","coordinates":[[[-98.08808,49.05213],[-98.08253,49.05215],[-98.07697,49.05218],[-98.07696,49.04855],[-98.07695,49.04493],[-98.08252,49.0449],[-98.08809,49.04488],[-98.08808,49.0485],[-98.08808,49.05213]]]}},{"type":"Feature","properties":{"c":"SV15738","o":"BENTHOS METALS LTD.","e":"2028-06-15"},"geometry":{"type":"Polygon","coordinates":[[[-98.05443,49.0745],[-98.04891,49.07451],[-98.04339,49.07451],[-98.04298,49.07451],[-98.04299,49.07424],[-98.04298,49.07062],[-98.04297,49.067],[-98.04338,49.067],[-98.0489,49.067],[-98.05442,49.067],[-98.05443,49.07061],[-98.05444,49.07423],[-98.05443,49.0745]]]}},{"type":"Feature","properties":{"c":"SV15739","o":"BENTHOS METALS LTD.","e":"2028-06-15"},"geometry":{"type":"Polygon","coordinates":[[[-98.09934,49.07421],[-98.09382,49.07422],[-98.08829,49.07423],[-98.08834,49.07059],[-98.08839,49.06694],[-98.09384,49.06696],[-98.0993,49.06697],[-98.09932,49.07059],[-98.09934,49.07421]]]}},{"type":"Feature","properties":{"c":"SV15740","o":"BENTHOS METALS LTD.","e":"2028-06-15"},"geometry":{"type":"Polygon","coordinates":[[[-98.11039,49.07418],[-98.10487,49.07419],[-98.09934,49.07421],[-98.09932,49.07059],[-98.0993,49.06697],[-98.10482,49.06696],[-98.11035,49.06694],[-98.11037,49.07056],[-98.11039,49.07418]]]}},{"type":"Feature","properties":{"c":"SV15741","o":"BENTHOS METALS LTD.","e":"2028-06-15"},"geometry":{"type":"Polygon","coordinates":[[[-98.11035,49.06694],[-98.10482,49.06696],[-98.0993,49.06697],[-98.09384,49.06696],[-98.08839,49.06694],[-98.08843,49.0633],[-98.08848,49.05966],[-98.09394,49.05967],[-98.09939,49.05968],[-98.10485,49.05969],[-98.1103,49.0597],[-98.11033,49.06332],[-98.11035,49.06694]]]}},{"type":"Feature","properties":{"c":"SV15742","o":"BENTHOS METALS LTD.","e":"2028-06-15"},"geometry":{"type":"Polygon","coordinates":[[[-98.13259,49.067],[-98.12713,49.06697],[-98.12168,49.06695],[-98.11622,49.06695],[-98.11076,49.06695],[-98.11074,49.06333],[-98.11072,49.05971],[-98.11618,49.05971],[-98.12163,49.05971],[-98.12709,49.05971],[-98.13255,49.05972],[-98.13257,49.06336],[-98.13259,49.067]]]}},{"type":"Feature","properties":{"c":"SV15743","o":"BENTHOS METALS LTD.","e":"2028-06-15"},"geometry":{"type":"Polygon","coordinates":[[[-98.13273,49.08892],[-98.12726,49.08889],[-98.12179,49.08886],[-98.12177,49.08527],[-98.12174,49.08168],[-98.12721,49.08171],[-98.13267,49.08174],[-98.1327,49.08533],[-98.13273,49.08892]]]}},{"type":"Feature","properties":{"c":"SV15744","o":"BENTHOS METALS LTD.","e":"2028-06-15"},"geometry":{"type":"Polygon","coordinates":[[[-98.11045,49.08881],[-98.10495,49.0888],[-98.09945,49.08879],[-98.09944,49.0852],[-98.09943,49.08161],[-98.09938,49.07805],[-98.09934,49.07448],[-98.10486,49.07447],[-98.11039,49.07445],[-98.1104,49.07804],[-98.11042,49.08163],[-98.11043,49.08522],[-98.11045,49.08881]]]}},{"type":"Feature","properties":{"c":"SV15745","o":"BENTHOS METALS LTD.","e":"2028-06-15"},"geometry":{"type":"Polygon","coordinates":[[[-98.08805,49.08877],[-98.08251,49.08878],[-98.07698,49.08879],[-98.07694,49.08522],[-98.07689,49.08165],[-98.08243,49.08165],[-98.08796,49.08164],[-98.088,49.08521],[-98.08805,49.08877]]]}}]}