{"type":"FeatureCollection","features":[{"type":"Feature","properties":{"c":"MB12809","o":"Core Nickel","e":"2028-06-27"},"geometry":{"type":"Polygon","coordinates":[[[-99.0,55.0],[-98.0,55.0],[-99.0,55.0],[-99.0,55.0]]]}},{"type":"Feature","properties":{"c":"MB12855","o":"Core Nickel","e":"2028-06-27"},"geometry":{"type":"Polygon","coordinates":[[[-99.0,55.0],[-99.0,55.0],[-98.0,55.0],[-99.0,55.0]]]}},{"type":"Feature","properties":{"c":"MB14212","o":"KoBold TNB Holdings, Inc.","e":"2028-02-18"},"geometry":{"type":"Polygon","coordinates":[[[-99.0,55.0],[-98.0,55.0],[-99.0,55.0],[-99.0,55.0]]]}},{"type":"Feature","properties":{"c":"MB14213","o":"KoBold TNB Holdings, Inc.","e":"2028-02-18"},"geometry":{"type":"Polygon","coordinates":[[[-98.0,55.0],[-98.0,55.0],[-99.0,55.0],[-98.0,55.0]]]}},{"type":"Feature","properties":{"c":"MB14520","o":"KoBold TNB Holdings, Inc.","e":"2027-06-19"},"geometry":{"type":"Polygon","coordinates":[[[-99.0,55.0],[-99.0,55.0],[-98.0,55.0],[-99.0,55.0]]]}},{"type":"Feature","properties":{"c":"MB14522","o":"KoBold TNB Holdings, Inc.","e":"2027-06-19"},"geometry":{"type":"Polygon","coordinates":[[[-99.0,55.0],[-98.0,55.0],[-99.0,55.0],[-99.0,55.0]]]}}]}