{"type":"FeatureCollection","features":[{"type":"Feature","properties":{"c":"100124","o":"5833 Nunavut Ltd. (100%)","e":"2037-11-08"},"geometry":{"type":"Polygon","coordinates":[[[-99.0,62.0],[-99.0,63.0],[-99.0,63.0],[-99.0,62.0]]]}},{"type":"Feature","properties":{"c":"100125","o":"5833 Nunavut Ltd. (100%)","e":"2037-11-08"},"geometry":{"type":"Polygon","coordinates":[[[-99.0,62.0],[-99.0,63.0],[-99.0,63.0],[-99.0,62.0]]]}},{"type":"Feature","properties":{"c":"100121","o":"5833 Nunavut Ltd. (100%)","e":"2037-11-08"},"geometry":{"type":"Polygon","coordinates":[[[-99.0,62.0],[-99.0,62.0],[-99.0,63.0],[-99.0,62.0]]]}},{"type":"Feature","properties":{"c":"100122","o":"5833 Nunavut Ltd. (100%)","e":"2031-11-08"},"geometry":{"type":"Polygon","coordinates":[[[-99.0,62.0],[-99.0,63.0],[-99.0,62.0],[-99.0,62.0]]]}},{"type":"Feature","properties":{"c":"100123","o":"5833 Nunavut Ltd. (100%)","e":"2037-11-08"},"geometry":{"type":"Polygon","coordinates":[[[-99.0,62.0],[-99.0,63.0],[-99.0,63.0],[-99.0,62.0]]]}},{"type":"Feature","properties":{"c":"100039","o":"5833 Nunavut Ltd. (100%)","e":"2053-11-08"},"geometry":{"type":"Polygon","coordinates":[[[-99.0,63.0],[-99.0,63.0],[-99.0,62.0],[-99.0,63.0]]]}},{"type":"Feature","properties":{"c":"100040","o":"5833 Nunavut Ltd. (100%)","e":"2053-11-08"},"geometry":{"type":"Polygon","coordinates":[[[-99.0,62.0],[-99.0,63.0],[-99.0,63.0],[-99.0,62.0]]]}},{"type":"Feature","properties":{"c":"101511","o":"5833 Nunavut Ltd. (100%)","e":"2040-10-26"},"geometry":{"type":"Polygon","coordinates":[[[-99.0,62.0],[-99.0,63.0],[-99.0,63.0],[-99.0,62.0]]]}},{"type":"Feature","properties":{"c":"101513","o":"5833 Nunavut Ltd. (100%)","e":"2051-10-26"},"geometry":{"type":"Polygon","coordinates":[[[-99.0,63.0],[-99.0,62.0],[-99.0,63.0],[-99.0,63.0]]]}},{"type":"Feature","properties":{"c":"101514","o":"5833 Nunavut Ltd. (100%)","e":"2051-10-26"},"geometry":{"type":"Polygon","coordinates":[[[-99.0,63.0],[-99.0,62.0],[-99.0,63.0],[-99.0,63.0]]]}},{"type":"Feature","properties":{"c":"102733","o":"5833 Nunavut Ltd. (100%)","e":"2052-11-19"},"geometry":{"type":"Polygon","coordinates":[[[-99.0,62.0],[-99.0,62.0],[-99.0,62.0],[-99.0,62.0]]]}},{"type":"Feature","properties":{"c":"102734","o":"5833 Nunavut Ltd. (100%)","e":"2038-11-19"},"geometry":{"type":"Polygon","coordinates":[[[-99.0,62.0],[-99.0,62.0],[-99.0,62.0],[-99.0,62.0]]]}},{"type":"Feature","properties":{"c":"102735","o":"5833 Nunavut Ltd. (100%)","e":"2050-11-19"},"geometry":{"type":"Polygon","coordinates":[[[-99.0,62.0],[-99.0,62.0],[-99.0,62.0],[-99.0,62.0]]]}},{"type":"Feature","properties":{"c":"102736","o":"5833 Nunavut Ltd. (100%)","e":"2050-11-20"},"geometry":{"type":"Polygon","coordinates":[[[-99.0,62.0],[-99.0,62.0],[-99.0,63.0],[-99.0,62.0]]]}},{"type":"Feature","properties":{"c":"102737","o":"5833 Nunavut Ltd. (100%)","e":"2033-11-20"},"geometry":{"type":"Polygon","coordinates":[[[-99.0,63.0],[-99.0,62.0],[-99.0,63.0],[-99.0,63.0]]]}},{"type":"Feature","properties":{"c":"102738","o":"5833 Nunavut Ltd. (100%)","e":"2033-11-20"},"geometry":{"type":"Polygon","coordinates":[[[-99.0,63.0],[-99.0,62.0],[-99.0,63.0],[-99.0,63.0]]]}},{"type":"Feature","properties":{"c":"104876","o":"5833 Nunavut Ltd. (100%)","e":"2026-09-02"},"geometry":{"type":"Polygon","coordinates":[[[-99.0,62.0],[-99.0,62.0],[-99.0,63.0],[-99.0,62.0]]]}},{"type":"Feature","properties":{"c":"104877","o":"5833 Nunavut Ltd. (100%)","e":"2026-09-02"},"geometry":{"type":"Polygon","coordinates":[[[-99.0,62.0],[-99.0,62.0],[-99.0,62.0],[-99.0,62.0]]]}},{"type":"Feature","properties":{"c":"104902","o":"5833 Nunavut Ltd. (100%)","e":"2026-09-02"},"geometry":{"type":"Polygon","coordinates":[[[-99.0,62.0],[-99.0,62.0],[-99.0,62.0],[-99.0,62.0]]]}},{"type":"Feature","properties":{"c":"104904","o":"5833 Nunavut Ltd. (100%)","e":"2026-09-02"},"geometry":{"type":"Polygon","coordinates":[[[-99.0,62.0],[-99.0,62.0],[-99.0,62.0],[-99.0,62.0]]]}},{"type":"Feature","properties":{"c":"104905","o":"5833 Nunavut Ltd. (100%)","e":"2026-09-02"},"geometry":{"type":"Polygon","coordinates":[[[-99.0,62.0],[-99.0,62.0],[-99.0,62.0],[-99.0,62.0]]]}},{"type":"Feature","properties":{"c":"104906","o":"5833 Nunavut Ltd. (100%)","e":"2026-09-02"},"geometry":{"type":"Polygon","coordinates":[[[-99.0,62.0],[-99.0,62.0],[-99.0,62.0],[-99.0,62.0]]]}},{"type":"Feature","properties":{"c":"104908","o":"5833 Nunavut Ltd. (100%)","e":"2026-09-02"},"geometry":{"type":"Polygon","coordinates":[[[-100.0,62.0],[-100.0,62.0],[-99.0,62.0],[-100.0,62.0]]]}},{"type":"Feature","properties":{"c":"104884","o":"5833 Nunavut Ltd. (100%)","e":"2026-09-02"},"geometry":{"type":"Polygon","coordinates":[[[-99.0,62.0],[-99.0,62.0],[-99.0,62.0],[-99.0,62.0]]]}},{"type":"Feature","properties":{"c":"104887","o":"5833 Nunavut Ltd. (100%)","e":"2026-09-02"},"geometry":{"type":"Polygon","coordinates":[[[-99.0,62.0],[-99.0,62.0],[-99.0,62.0],[-99.0,62.0]]]}},{"type":"Feature","properties":{"c":"104888","o":"5833 Nunavut Ltd. (100%)","e":"2026-09-02"},"geometry":{"type":"Polygon","coordinates":[[[-99.0,62.0],[-99.0,62.0],[-99.0,62.0],[-99.0,62.0]]]}},{"type":"Feature","properties":{"c":"104909","o":"5833 Nunavut Ltd. (100%)","e":"2026-09-02"},"geometry":{"type":"Polygon","coordinates":[[[-100.0,62.0],[-99.0,62.0],[-99.0,62.0],[-100.0,62.0]]]}},{"type":"Feature","properties":{"c":"104910","o":"5833 Nunavut Ltd. (100%)","e":"2026-09-02"},"geometry":{"type":"Polygon","coordinates":[[[-100.0,62.0],[-99.0,62.0],[-99.0,62.0],[-100.0,62.0]]]}},{"type":"Feature","properties":{"c":"104891","o":"5833 Nunavut Ltd. (100%)","e":"2026-09-02"},"geometry":{"type":"Polygon","coordinates":[[[-99.0,62.0],[-99.0,62.0],[-99.0,62.0],[-99.0,62.0]]]}},{"type":"Feature","properties":{"c":"104893","o":"5833 Nunavut Ltd. (100%)","e":"2026-09-02"},"geometry":{"type":"Polygon","coordinates":[[[-99.0,62.0],[-99.0,62.0],[-99.0,62.0],[-99.0,62.0]]]}},{"type":"Feature","properties":{"c":"104898","o":"5833 Nunavut Ltd. (100%)","e":"2026-09-02"},"geometry":{"type":"Polygon","coordinates":[[[-99.0,62.0],[-99.0,62.0],[-99.0,62.0],[-99.0,62.0]]]}},{"type":"Feature","properties":{"c":"104864","o":"5833 Nunavut Ltd. (100%)","e":"2026-09-02"},"geometry":{"type":"Polygon","coordinates":[[[-99.0,63.0],[-99.0,62.0],[-99.0,63.0],[-99.0,63.0]]]}},{"type":"Feature","properties":{"c":"104865","o":"5833 Nunavut Ltd. (100%)","e":"2026-09-02"},"geometry":{"type":"Polygon","coordinates":[[[-99.0,62.0],[-99.0,62.0],[-99.0,62.0],[-99.0,62.0]]]}},{"type":"Feature","properties":{"c":"104866","o":"5833 Nunavut Ltd. (100%)","e":"2026-09-02"},"geometry":{"type":"Polygon","coordinates":[[[-99.0,62.0],[-99.0,62.0],[-99.0,62.0],[-99.0,62.0]]]}},{"type":"Feature","properties":{"c":"104886","o":"5833 Nunavut Ltd. (100%)","e":"2026-09-02"},"geometry":{"type":"Polygon","coordinates":[[[-99.0,62.0],[-99.0,62.0],[-99.0,62.0],[-99.0,62.0]]]}},{"type":"Feature","properties":{"c":"104666","o":"Trent Potts (100%)","e":"2026-06-06"},"geometry":{"type":"Polygon","coordinates":[[[-99.0,62.0],[-99.0,62.0],[-99.0,62.0],[-99.0,62.0]]]}},{"type":"Feature","properties":{"c":"104894","o":"5833 Nunavut Ltd. (100%)","e":"2026-09-02"},"geometry":{"type":"Polygon","coordinates":[[[-99.0,62.0],[-99.0,62.0],[-99.0,62.0],[-99.0,62.0]]]}},{"type":"Feature","properties":{"c":"104895","o":"5833 Nunavut Ltd. (100%)","e":"2026-09-02"},"geometry":{"type":"Polygon","coordinates":[[[-99.0,62.0],[-99.0,62.0],[-99.0,62.0],[-99.0,62.0]]]}},{"type":"Feature","properties":{"c":"104896","o":"5833 Nunavut Ltd. (100%)","e":"2026-09-02"},"geometry":{"type":"Polygon","coordinates":[[[-99.0,62.0],[-99.0,62.0],[-99.0,62.0],[-99.0,62.0]]]}},{"type":"Feature","properties":{"c":"104897","o":"5833 Nunavut Ltd. (100%)","e":"2026-09-02"},"geometry":{"type":"Polygon","coordinates":[[[-99.0,62.0],[-99.0,62.0],[-99.0,62.0],[-99.0,62.0]]]}},{"type":"Feature","properties":{"c":"104899","o":"5833 Nunavut Ltd. (100%)","e":"2026-09-02"},"geometry":{"type":"Polygon","coordinates":[[[-99.0,62.0],[-99.0,62.0],[-99.0,62.0],[-99.0,62.0]]]}},{"type":"Feature","properties":{"c":"104900","o":"5833 Nunavut Ltd. (100%)","e":"2026-09-02"},"geometry":{"type":"Polygon","coordinates":[[[-99.0,62.0],[-99.0,62.0],[-99.0,62.0],[-99.0,62.0]]]}},{"type":"Feature","properties":{"c":"104868","o":"5833 Nunavut Ltd. (100%)","e":"2026-09-02"},"geometry":{"type":"Polygon","coordinates":[[[-99.0,62.0],[-99.0,62.0],[-99.0,62.0],[-99.0,62.0]]]}},{"type":"Feature","properties":{"c":"104869","o":"5833 Nunavut Ltd. (100%)","e":"2026-09-02"},"geometry":{"type":"Polygon","coordinates":[[[-99.0,62.0],[-99.0,62.0],[-99.0,62.0],[-99.0,62.0]]]}},{"type":"Feature","properties":{"c":"104871","o":"5833 Nunavut Ltd. (100%)","e":"2026-09-02"},"geometry":{"type":"Polygon","coordinates":[[[-100.0,62.0],[-100.0,62.0],[-99.0,62.0],[-100.0,62.0]]]}},{"type":"Feature","properties":{"c":"104873","o":"5833 Nunavut Ltd. (100%)","e":"2026-09-02"},"geometry":{"type":"Polygon","coordinates":[[[-100.0,62.0],[-99.0,62.0],[-99.0,62.0],[-100.0,62.0]]]}},{"type":"Feature","properties":{"c":"105090","o":"5833 Nunavut Ltd. (100%)","e":"2027-03-14"},"geometry":{"type":"Polygon","coordinates":[[[-99.0,62.0],[-99.0,62.0],[-99.0,62.0],[-99.0,62.0]]]}},{"type":"Feature","properties":{"c":"105091","o":"5833 Nunavut Ltd. (100%)","e":"2027-03-14"},"geometry":{"type":"Polygon","coordinates":[[[-99.0,62.0],[-99.0,62.0],[-99.0,62.0],[-99.0,62.0]]]}},{"type":"Feature","properties":{"c":"105364","o":"ATHA Energy (NU) Corp. (100%)","e":"2027-09-08"},"geometry":{"type":"Polygon","coordinates":[[[-99.0,62.0],[-99.0,62.0],[-99.0,62.0],[-99.0,62.0]]]}},{"type":"Feature","properties":{"c":"105365","o":"ATHA Energy (NU) Corp. (100%)","e":"2027-09-08"},"geometry":{"type":"Polygon","coordinates":[[[-100.0,62.0],[-99.0,62.0],[-99.0,62.0],[-100.0,62.0]]]}},{"type":"Feature","properties":{"c":"105373","o":"ATHA Energy (NU) Corp. (100%)","e":"2027-09-08"},"geometry":{"type":"Polygon","coordinates":[[[-99.0,62.0],[-99.0,62.0],[-99.0,62.0],[-99.0,62.0]]]}},{"type":"Feature","properties":{"c":"105370","o":"ATHA Energy (NU) Corp. (100%)","e":"2027-09-08"},"geometry":{"type":"Polygon","coordinates":[[[-99.0,62.0],[-99.0,62.0],[-99.0,62.0],[-99.0,62.0]]]}},{"type":"Feature","properties":{"c":"105371","o":"ATHA Energy (NU) Corp. (100%)","e":"2027-09-08"},"geometry":{"type":"Polygon","coordinates":[[[-99.0,62.0],[-99.0,62.0],[-99.0,62.0],[-99.0,62.0]]]}},{"type":"Feature","properties":{"c":"105372","o":"ATHA Energy (NU) Corp. (100%)","e":"2027-09-08"},"geometry":{"type":"Polygon","coordinates":[[[-99.0,62.0],[-99.0,62.0],[-99.0,62.0],[-99.0,62.0]]]}},{"type":"Feature","properties":{"c":"105374","o":"ATHA Energy (NU) Corp. (100%)","e":"2027-09-08"},"geometry":{"type":"Polygon","coordinates":[[[-99.0,62.0],[-99.0,62.0],[-99.0,62.0],[-99.0,62.0]]]}},{"type":"Feature","properties":{"c":"105582","o":"ATHA Energy (NU) Corp. (100%)","e":"2028-08-10"},"geometry":{"type":"Polygon","coordinates":[[[-99.0,63.0],[-99.0,62.0],[-99.0,63.0],[-99.0,63.0]]]}},{"type":"Feature","properties":{"c":"105587","o":"ATHA Energy (NU) Corp. (100%)","e":"2028-08-10"},"geometry":{"type":"Polygon","coordinates":[[[-100.0,62.0],[-100.0,62.0],[-99.0,63.0],[-100.0,62.0]]]}},{"type":"Feature","properties":{"c":"105358","o":"ATHA Energy (NU) Corp. (100%)","e":"2027-09-08"},"geometry":{"type":"Polygon","coordinates":[[[-99.0,62.0],[-99.0,62.0],[-99.0,62.0],[-99.0,62.0]]]}},{"type":"Feature","properties":{"c":"105359","o":"ATHA Energy (NU) Corp. (100%)","e":"2027-09-08"},"geometry":{"type":"Polygon","coordinates":[[[-99.0,62.0],[-99.0,62.0],[-99.0,62.0],[-99.0,62.0]]]}},{"type":"Feature","properties":{"c":"105360","o":"ATHA Energy (NU) Corp. (100%)","e":"2027-09-08"},"geometry":{"type":"Polygon","coordinates":[[[-99.0,62.0],[-99.0,62.0],[-99.0,62.0],[-99.0,62.0]]]}},{"type":"Feature","properties":{"c":"105361","o":"ATHA Energy (NU) Corp. (100%)","e":"2027-09-08"},"geometry":{"type":"Polygon","coordinates":[[[-99.0,62.0],[-99.0,62.0],[-99.0,62.0],[-99.0,62.0]]]}},{"type":"Feature","properties":{"c":"105362","o":"ATHA Energy (NU) Corp. (100%)","e":"2027-09-08"},"geometry":{"type":"Polygon","coordinates":[[[-99.0,62.0],[-99.0,62.0],[-99.0,62.0],[-99.0,62.0]]]}},{"type":"Feature","properties":{"c":"105089","o":"5833 Nunavut Ltd. (100%)","e":"2027-03-14"},"geometry":{"type":"Polygon","coordinates":[[[-99.0,63.0],[-99.0,62.0],[-99.0,63.0],[-99.0,63.0]]]}},{"type":"Feature","properties":{"c":"105092","o":"5833 Nunavut Ltd. (100%)","e":"2027-03-14"},"geometry":{"type":"Polygon","coordinates":[[[-99.0,62.0],[-99.0,62.0],[-99.0,62.0],[-99.0,62.0]]]}},{"type":"Feature","properties":{"c":"105093","o":"5833 Nunavut Ltd. (100%)","e":"2027-03-14"},"geometry":{"type":"Polygon","coordinates":[[[-99.0,62.0],[-99.0,62.0],[-99.0,62.0],[-99.0,62.0]]]}},{"type":"Feature","properties":{"c":"105094","o":"5833 Nunavut Ltd. (100%)","e":"2027-03-14"},"geometry":{"type":"Polygon","coordinates":[[[-99.0,62.0],[-99.0,62.0],[-99.0,62.0],[-99.0,62.0]]]}},{"type":"Feature","properties":{"c":"105363","o":"ATHA Energy (NU) Corp. (100%)","e":"2027-09-08"},"geometry":{"type":"Polygon","coordinates":[[[-100.0,62.0],[-99.0,62.0],[-99.0,62.0],[-100.0,62.0]]]}},{"type":"Feature","properties":{"c":"105367","o":"ATHA Energy (NU) Corp. (100%)","e":"2027-09-08"},"geometry":{"type":"Polygon","coordinates":[[[-100.0,62.0],[-99.0,62.0],[-100.0,62.0],[-100.0,62.0]]]}},{"type":"Feature","properties":{"c":"105368","o":"ATHA Energy (NU) Corp. (100%)","e":"2027-09-08"},"geometry":{"type":"Polygon","coordinates":[[[-99.0,62.0],[-99.0,62.0],[-99.0,62.0],[-99.0,62.0]]]}},{"type":"Feature","properties":{"c":"105369","o":"ATHA Energy (NU) Corp. (100%)","e":"2027-09-08"},"geometry":{"type":"Polygon","coordinates":[[[-99.0,62.0],[-99.0,62.0],[-99.0,62.0],[-99.0,62.0]]]}}]}