{"type":"FeatureCollection","features":[{"type":"Feature","properties":{"c":"SV15247","o":"SHAUN SPELLISCY","e":"2027-04-07"},"geometry":{"type":"Polygon","coordinates":[[[-99.0,50.0],[-99.0,50.0],[-99.0,50.0],[-99.0,50.0]]]}},{"type":"Feature","properties":{"c":"SV15248","o":"SHAUN SPELLISCY","e":"2027-04-07"},"geometry":{"type":"Polygon","coordinates":[[[-99.0,50.0],[-99.0,50.0],[-99.0,50.0],[-99.0,50.0]]]}},{"type":"Feature","properties":{"c":"SV15249","o":"SHAUN SPELLISCY","e":"2027-04-07"},"geometry":{"type":"Polygon","coordinates":[[[-99.0,50.0],[-99.0,50.0],[-99.0,50.0],[-99.0,50.0]]]}},{"type":"Feature","properties":{"c":"SV15251","o":"SHAUN SPELLISCY","e":"2027-04-07"},"geometry":{"type":"Polygon","coordinates":[[[-99.0,50.0],[-99.0,50.0],[-99.0,50.0],[-99.0,50.0]]]}},{"type":"Feature","properties":{"c":"SV15253","o":"SHAUN SPELLISCY","e":"2027-04-07"},"geometry":{"type":"Polygon","coordinates":[[[-99.0,50.0],[-99.0,50.0],[-99.0,50.0],[-99.0,50.0]]]}},{"type":"Feature","properties":{"c":"SV15254","o":"SHAUN SPELLISCY","e":"2027-04-07"},"geometry":{"type":"Polygon","coordinates":[[[-99.0,50.0],[-99.0,50.0],[-99.0,50.0],[-99.0,50.0]]]}},{"type":"Feature","properties":{"c":"SV15255","o":"SHAUN SPELLISCY","e":"2027-04-07"},"geometry":{"type":"Polygon","coordinates":[[[-99.0,50.0],[-99.0,50.0],[-99.0,50.0],[-99.0,50.0]]]}},{"type":"Feature","properties":{"c":"SV15256","o":"SHAUN SPELLISCY","e":"2027-04-07"},"geometry":{"type":"Polygon","coordinates":[[[-99.0,50.0],[-99.0,50.0],[-99.0,50.0],[-99.0,50.0]]]}},{"type":"Feature","properties":{"c":"SV15257","o":"SHAUN SPELLISCY","e":"2027-04-07"},"geometry":{"type":"Polygon","coordinates":[[[-99.0,50.0],[-99.0,50.0],[-99.0,50.0],[-99.0,50.0]]]}},{"type":"Feature","properties":{"c":"SV15263","o":"SHAUN SPELLISCY","e":"2027-04-07"},"geometry":{"type":"Polygon","coordinates":[[[-99.0,50.0],[-99.0,50.0],[-99.0,50.0],[-99.0,50.0]]]}},{"type":"Feature","properties":{"c":"SV15268","o":"SHAUN SPELLISCY","e":"2027-04-07"},"geometry":{"type":"Polygon","coordinates":[[[-99.0,50.0],[-99.0,50.0],[-99.0,50.0],[-99.0,50.0]]]}},{"type":"Feature","properties":{"c":"SV15274","o":"SHAUN SPELLISCY","e":"2027-04-07"},"geometry":{"type":"Polygon","coordinates":[[[-99.0,50.0],[-99.0,50.0],[-99.0,50.0],[-99.0,50.0]]]}},{"type":"Feature","properties":{"c":"SV15280","o":"SHAUN SPELLISCY","e":"2027-04-11"},"geometry":{"type":"Polygon","coordinates":[[[-99.0,50.0],[-99.0,50.0],[-99.0,50.0],[-99.0,50.0]]]}},{"type":"Feature","properties":{"c":"SV15282","o":"SHAUN SPELLISCY","e":"2027-04-11"},"geometry":{"type":"Polygon","coordinates":[[[-99.0,50.0],[-99.0,50.0],[-99.0,50.0],[-99.0,50.0]]]}},{"type":"Feature","properties":{"c":"SV15287","o":"SHAUN SPELLISCY","e":"2027-04-12"},"geometry":{"type":"Polygon","coordinates":[[[-99.0,50.0],[-99.0,50.0],[-99.0,50.0],[-99.0,50.0]]]}},{"type":"Feature","properties":{"c":"SV15288","o":"SHAUN SPELLISCY","e":"2027-04-12"},"geometry":{"type":"Polygon","coordinates":[[[-99.0,50.0],[-99.0,50.0],[-99.0,50.0],[-99.0,50.0]]]}},{"type":"Feature","properties":{"c":"SV15289","o":"SHAUN SPELLISCY","e":"2027-04-12"},"geometry":{"type":"Polygon","coordinates":[[[-99.0,50.0],[-99.0,50.0],[-99.0,50.0],[-99.0,50.0]]]}},{"type":"Feature","properties":{"c":"SV15291","o":"SHAUN SPELLISCY","e":"2027-04-12"},"geometry":{"type":"Polygon","coordinates":[[[-99.0,50.0],[-99.0,50.0],[-99.0,50.0],[-99.0,50.0]]]}},{"type":"Feature","properties":{"c":"SV15298","o":"SHAUN SPELLISCY","e":"2027-05-14"},"geometry":{"type":"Polygon","coordinates":[[[-99.0,50.0],[-99.0,50.0],[-99.0,50.0],[-99.0,50.0]]]}},{"type":"Feature","properties":{"c":"SV15338","o":"PFS Interpretations Ltd.","e":"2027-08-18"},"geometry":{"type":"Polygon","coordinates":[[[-99.0,50.0],[-99.0,50.0],[-99.0,50.0],[-99.0,50.0]]]}},{"type":"Feature","properties":{"c":"SV15339","o":"PFS Interpretations Ltd.","e":"2027-08-18"},"geometry":{"type":"Polygon","coordinates":[[[-99.0,50.0],[-99.0,50.0],[-99.0,50.0],[-99.0,50.0]]]}},{"type":"Feature","properties":{"c":"SV15340","o":"PFS Interpretations Ltd.","e":"2027-08-18"},"geometry":{"type":"Polygon","coordinates":[[[-99.0,50.0],[-99.0,50.0],[-99.0,50.0],[-99.0,50.0]]]}},{"type":"Feature","properties":{"c":"SV15556","o":"PFS Interpretations Ltd.","e":"2028-04-06"},"geometry":{"type":"Polygon","coordinates":[[[-99.0,49.0],[-99.0,49.0],[-99.0,50.0],[-99.0,49.0]]]}},{"type":"Feature","properties":{"c":"SV15558","o":"PFS Interpretations Ltd.","e":"2028-04-06"},"geometry":{"type":"Polygon","coordinates":[[[-99.0,50.0],[-99.0,50.0],[-99.0,50.0],[-99.0,50.0]]]}},{"type":"Feature","properties":{"c":"SV15561","o":"PFS Interpretations Ltd.","e":"2028-04-06"},"geometry":{"type":"Polygon","coordinates":[[[-99.0,50.0],[-99.0,50.0],[-99.0,50.0],[-99.0,50.0]]]}},{"type":"Feature","properties":{"c":"SV15657","o":"BENTHOS METALS LTD.","e":"2028-06-15"},"geometry":{"type":"Polygon","coordinates":[[[-99.0,49.0],[-99.0,49.0],[-98.0,50.0],[-99.0,49.0]]]}},{"type":"Feature","properties":{"c":"SV15659","o":"BENTHOS METALS LTD.","e":"2028-06-15"},"geometry":{"type":"Polygon","coordinates":[[[-99.0,50.0],[-98.0,50.0],[-98.0,50.0],[-99.0,50.0]]]}},{"type":"Feature","properties":{"c":"SV15660","o":"BENTHOS METALS LTD.","e":"2028-06-15"},"geometry":{"type":"Polygon","coordinates":[[[-99.0,50.0],[-99.0,50.0],[-99.0,50.0],[-99.0,50.0]]]}},{"type":"Feature","properties":{"c":"SV15661","o":"BENTHOS METALS LTD.","e":"2028-06-15"},"geometry":{"type":"Polygon","coordinates":[[[-99.0,50.0],[-98.0,50.0],[-98.0,50.0],[-99.0,50.0]]]}}]}