{"type":"FeatureCollection","features":[{"type":"Feature","properties":{"c":"102827","o":"Forum Energy Metals Corp. (100%)","e":"2025-03-07"},"geometry":{"type":"Polygon","coordinates":[[[-98.50039,64.35036],[-98.49258,64.35036],[-98.48477,64.35037],[-98.47695,64.35038],[-98.46914,64.35038],[-98.46133,64.35039],[-98.45351,64.35039],[-98.4457,64.35039],[-98.4457,64.34623],[-98.4457,64.34206],[-98.43789,64.34206],[-98.43007,64.34207],[-98.42226,64.34207],[-98.41445,64.34207],[-98.40664,64.34207],[-98.39882,64.34208],[-98.39101,64.34208],[-98.3832,64.34208],[-98.37538,64.34208],[-98.37538,64.33791],[-98.3832,64.33791],[-98.39101,64.33791],[-98.39101,64.33374],[-98.39882,64.33374],[-98.39882,64.32958],[-98.40664,64.32957],[-98.40664,64.32541],[-98.41445,64.32541],[-98.41445,64.32124],[-98.42226,64.32124],[-98.43007,64.32123],[-98.43007,64.31707],[-98.43789,64.31706],[-98.43789,64.32123],[-98.43789,64.3254],[-98.4457,64.32539],[-98.45351,64.32539],[-98.46133,64.32539],[-98.46914,64.32538],[-98.46914,64.32121],[-98.47695,64.32121],[-98.48476,64.3212],[-98.49258,64.3212],[-98.50039,64.32119],[-98.50039,64.32536],[-98.50039,64.32952],[-98.50039,64.33369],[-98.50039,64.33786],[-98.50039,64.34202],[-98.50039,64.34619],[-98.50039,64.35036]]]}},{"type":"Feature","properties":{"c":"103245","o":"ATHA Energy (NU) Corp. (100%)","e":"2026-10-10"},"geometry":{"type":"Polygon","coordinates":[[[-98.71915,64.16704],[-98.71134,64.16705],[-98.70352,64.16705],[-98.69571,64.16705],[-98.6879,64.16706],[-98.68009,64.16706],[-98.67227,64.16706],[-98.66446,64.16707],[-98.65665,64.16707],[-98.64883,64.16707],[-98.64102,64.16707],[-98.63321,64.16707],[-98.62539,64.16707],[-98.61758,64.16707],[-98.60977,64.16707],[-98.60196,64.16707],[-98.59414,64.16707],[-98.58633,64.16707],[-98.57852,64.16706],[-98.5707,64.16706],[-98.56289,64.16706],[-98.55508,64.16705],[-98.54726,64.16705],[-98.53945,64.16705],[-98.53164,64.16704],[-98.53164,64.16287],[-98.53164,64.15871],[-98.53164,64.15454],[-98.53164,64.15037],[-98.53945,64.15038],[-98.54726,64.15038],[-98.55508,64.15039],[-98.56289,64.15039],[-98.5707,64.15039],[-98.57852,64.1504],[-98.58633,64.1504],[-98.59414,64.1504],[-98.60195,64.1504],[-98.60977,64.1504],[-98.61758,64.1504],[-98.62539,64.1504],[-98.63321,64.1504],[-98.64102,64.1504],[-98.64883,64.1504],[-98.65665,64.1504],[-98.66446,64.1504],[-98.67227,64.1504],[-98.68009,64.15039],[-98.6879,64.15039],[-98.69571,64.15039],[-98.70352,64.15038],[-98.71134,64.15038],[-98.71915,64.15037],[-98.71915,64.15454],[-98.71915,64.15871],[-98.71915,64.16287],[-98.71915,64.16704]]]}},{"type":"Feature","properties":{"c":"103250","o":"ATHA Energy (NU) Corp. (100%)","e":"2026-10-10"},"geometry":{"type":"Polygon","coordinates":[[[-98.53164,64.16704],[-98.52383,64.16704],[-98.51601,64.16703],[-98.5082,64.16702],[-98.50039,64.16702],[-98.49257,64.16702],[-98.48476,64.16703],[-98.47695,64.16704],[-98.46913,64.16704],[-98.46132,64.16705],[-98.45351,64.16705],[-98.4457,64.16705],[-98.43788,64.16706],[-98.43007,64.16706],[-98.42226,64.16706],[-98.41444,64.16707],[-98.40663,64.16707],[-98.39882,64.16707],[-98.391,64.16707],[-98.38319,64.16707],[-98.37538,64.16707],[-98.36757,64.16707],[-98.35975,64.16707],[-98.35194,64.16707],[-98.34413,64.16707],[-98.34413,64.1629],[-98.34413,64.15873],[-98.34413,64.15457],[-98.34413,64.1504],[-98.35194,64.1504],[-98.35975,64.1504],[-98.36757,64.1504],[-98.37538,64.1504],[-98.38319,64.1504],[-98.391,64.1504],[-98.39882,64.1504],[-98.40663,64.1504],[-98.41444,64.1504],[-98.42226,64.1504],[-98.43007,64.15039],[-98.43788,64.15039],[-98.4457,64.15039],[-98.45351,64.15038],[-98.46132,64.15038],[-98.46913,64.15037],[-98.47695,64.15037],[-98.48476,64.15036],[-98.49257,64.15036],[-98.50039,64.15035],[-98.5082,64.15036],[-98.51601,64.15036],[-98.52382,64.15037],[-98.53164,64.15037],[-98.53164,64.15454],[-98.53164,64.15871],[-98.53164,64.16287],[-98.53164,64.16704]]]}},{"type":"Feature","properties":{"c":"103180","o":"ATHA Energy (NU) Corp. (100%)","e":"2026-10-10"},"geometry":{"type":"Polygon","coordinates":[[[-98.90666,64.21707],[-98.89885,64.21707],[-98.89104,64.21707],[-98.88323,64.21707],[-98.87541,64.21707],[-98.8676,64.21707],[-98.85979,64.21707],[-98.85197,64.21707],[-98.84416,64.21707],[-98.83635,64.21707],[-98.82853,64.21707],[-98.82072,64.21706],[-98.81291,64.21706],[-98.81291,64.21289],[-98.81291,64.20873],[-98.81291,64.20456],[-98.81291,64.20039],[-98.81291,64.19623],[-98.81291,64.19206],[-98.81291,64.18789],[-98.81291,64.18372],[-98.82072,64.18373],[-98.82853,64.18373],[-98.83635,64.18373],[-98.84416,64.18373],[-98.85197,64.18374],[-98.85979,64.18374],[-98.8676,64.18374],[-98.87541,64.18374],[-98.88322,64.18374],[-98.89104,64.18374],[-98.89885,64.18374],[-98.90666,64.18373],[-98.90666,64.1879],[-98.90666,64.19207],[-98.90666,64.19624],[-98.90666,64.2004],[-98.90666,64.20457],[-98.90666,64.20874],[-98.90666,64.2129],[-98.90666,64.21707]]]}},{"type":"Feature","properties":{"c":"103185","o":"ATHA Energy (NU) Corp. (100%)","e":"2026-10-10"},"geometry":{"type":"Polygon","coordinates":[[[-99.00042,64.24619],[-98.99261,64.24619],[-98.9848,64.2462],[-98.97698,64.24621],[-98.96917,64.24621],[-98.96136,64.24622],[-98.95354,64.24622],[-98.94573,64.24622],[-98.93792,64.24623],[-98.93011,64.24623],[-98.92229,64.24623],[-98.91448,64.24624],[-98.90667,64.24624],[-98.90667,64.24207],[-98.90667,64.2379],[-98.90667,64.23374],[-98.90667,64.22957],[-98.90667,64.2254],[-98.90667,64.22124],[-98.90666,64.21707],[-98.91448,64.21707],[-98.92229,64.21707],[-98.9301,64.21706],[-98.93792,64.21706],[-98.94573,64.21706],[-98.95354,64.21705],[-98.96136,64.21705],[-98.96917,64.21704],[-98.97698,64.21704],[-98.9848,64.21703],[-98.99261,64.21703],[-99.00042,64.21702],[-99.00042,64.22119],[-99.00042,64.22535],[-99.00042,64.22952],[-99.00042,64.23369],[-99.00042,64.23785],[-99.00042,64.24202],[-99.00042,64.24619]]]}},{"type":"Feature","properties":{"c":"103195","o":"ATHA Energy (NU) Corp. (100%)","e":"2026-10-10"},"geometry":{"type":"Polygon","coordinates":[[[-98.90667,64.28374],[-98.89886,64.28374],[-98.89104,64.28374],[-98.88323,64.28374],[-98.87542,64.28374],[-98.8676,64.28374],[-98.85979,64.28374],[-98.85198,64.28374],[-98.84416,64.28374],[-98.83635,64.28374],[-98.82854,64.28373],[-98.82072,64.28373],[-98.81291,64.28373],[-98.81291,64.27956],[-98.81291,64.2754],[-98.81291,64.27123],[-98.81291,64.26706],[-98.81291,64.26289],[-98.81291,64.25873],[-98.81291,64.25456],[-98.81291,64.25039],[-98.82072,64.2504],[-98.82854,64.2504],[-98.83635,64.2504],[-98.84416,64.2504],[-98.85198,64.25041],[-98.85979,64.25041],[-98.8676,64.25041],[-98.87541,64.25041],[-98.88323,64.25041],[-98.89104,64.25041],[-98.89885,64.25041],[-98.90667,64.2504],[-98.90667,64.25457],[-98.90667,64.25874],[-98.90667,64.2629],[-98.90667,64.26707],[-98.90667,64.27124],[-98.90667,64.27541],[-98.90667,64.27957],[-98.90667,64.28374]]]}},{"type":"Feature","properties":{"c":"103198","o":"ATHA Energy (NU) Corp. (100%)","e":"2026-10-10"},"geometry":{"type":"Polygon","coordinates":[[[-99.00043,64.31702],[-98.99261,64.31703],[-98.9848,64.31704],[-98.97699,64.31704],[-98.96917,64.31705],[-98.96136,64.31705],[-98.95355,64.31706],[-98.94574,64.31706],[-98.93792,64.31706],[-98.93011,64.31707],[-98.9223,64.31707],[-98.91448,64.31707],[-98.90667,64.31707],[-98.90667,64.31291],[-98.90667,64.30874],[-98.90667,64.30457],[-98.90667,64.30041],[-98.90667,64.29624],[-98.90667,64.29207],[-98.90667,64.28791],[-98.90667,64.28374],[-98.91448,64.28374],[-98.92229,64.28373],[-98.93011,64.28373],[-98.93792,64.28373],[-98.94573,64.28373],[-98.95355,64.28372],[-98.96136,64.28372],[-98.96917,64.28371],[-98.97699,64.28371],[-98.9848,64.2837],[-98.99261,64.2837],[-99.00042,64.28369],[-99.00042,64.28786],[-99.00043,64.29202],[-99.00043,64.29619],[-99.00043,64.30036],[-99.00043,64.30452],[-99.00043,64.30869],[-99.00043,64.31286],[-99.00043,64.31702]]]}},{"type":"Feature","properties":{"c":"103141","o":"ATHA Energy (NU) Corp. (100%)","e":"2026-10-10"},"geometry":{"type":"Polygon","coordinates":[[[-98.5629,64.36707],[-98.55508,64.36706],[-98.54727,64.36706],[-98.53946,64.36705],[-98.53164,64.36705],[-98.52383,64.36704],[-98.51602,64.36704],[-98.50821,64.36703],[-98.50039,64.36703],[-98.50039,64.36286],[-98.50039,64.35869],[-98.50039,64.35453],[-98.50039,64.35036],[-98.50039,64.34619],[-98.50039,64.34202],[-98.50039,64.33786],[-98.50039,64.33369],[-98.50039,64.32952],[-98.50039,64.32536],[-98.50039,64.32119],[-98.5082,64.3212],[-98.51602,64.3212],[-98.52383,64.32121],[-98.53164,64.32121],[-98.53946,64.32122],[-98.54727,64.32122],[-98.55508,64.32123],[-98.56289,64.32123],[-98.5629,64.3254],[-98.5629,64.32956],[-98.5629,64.33373],[-98.5629,64.3379],[-98.5629,64.34206],[-98.5629,64.34623],[-98.5629,64.3504],[-98.5629,64.35457],[-98.5629,64.35873],[-98.5629,64.3629],[-98.5629,64.36707]]]}},{"type":"Feature","properties":{"c":"103143","o":"ATHA Energy (NU) Corp. (100%)","e":"2026-10-10"},"geometry":{"type":"Polygon","coordinates":[[[-98.59415,64.40041],[-98.58634,64.40041],[-98.57852,64.40041],[-98.57071,64.4004],[-98.5629,64.4004],[-98.55508,64.4004],[-98.54727,64.40039],[-98.53946,64.40039],[-98.53165,64.40038],[-98.52383,64.40038],[-98.51602,64.40037],[-98.50821,64.40037],[-98.50039,64.40036],[-98.50039,64.39619],[-98.50039,64.39203],[-98.50039,64.38786],[-98.50039,64.38369],[-98.50039,64.37953],[-98.50039,64.37536],[-98.50039,64.37119],[-98.50039,64.36703],[-98.50821,64.36703],[-98.51602,64.36704],[-98.52383,64.36704],[-98.53164,64.36705],[-98.53946,64.36705],[-98.54727,64.36706],[-98.55508,64.36706],[-98.5629,64.36707],[-98.57071,64.36707],[-98.57852,64.36707],[-98.58634,64.36707],[-98.59415,64.36708],[-98.59415,64.37124],[-98.59415,64.37541],[-98.59415,64.37958],[-98.59415,64.38374],[-98.59415,64.38791],[-98.59415,64.39208],[-98.59415,64.39624],[-98.59415,64.40041]]]}},{"type":"Feature","properties":{"c":"103144","o":"ATHA Energy (NU) Corp. (100%)","e":"2026-10-10"},"geometry":{"type":"Polygon","coordinates":[[[-98.53945,64.24622],[-98.53164,64.24621],[-98.52383,64.24621],[-98.51601,64.2462],[-98.5082,64.24619],[-98.50039,64.24619],[-98.49258,64.24619],[-98.48476,64.2462],[-98.47695,64.24621],[-98.46914,64.24621],[-98.46132,64.24622],[-98.45351,64.24622],[-98.4457,64.24622],[-98.43788,64.24623],[-98.43007,64.24623],[-98.42226,64.24623],[-98.41445,64.24624],[-98.40663,64.24624],[-98.39882,64.24624],[-98.39101,64.24624],[-98.38319,64.24624],[-98.37538,64.24624],[-98.37538,64.24207],[-98.37538,64.23791],[-98.37538,64.23374],[-98.38319,64.23374],[-98.39101,64.23374],[-98.39882,64.23374],[-98.40663,64.23374],[-98.41445,64.23374],[-98.42226,64.23373],[-98.43007,64.23373],[-98.43788,64.23373],[-98.4457,64.23372],[-98.45351,64.23372],[-98.46132,64.23372],[-98.46914,64.23371],[-98.47695,64.23371],[-98.48476,64.2337],[-98.49258,64.23369],[-98.50039,64.23369],[-98.5082,64.23369],[-98.51601,64.2337],[-98.52383,64.23371],[-98.53164,64.23371],[-98.53945,64.23372],[-98.53945,64.23788],[-98.53945,64.24205],[-98.53945,64.24622]]]}},{"type":"Feature","properties":{"c":"103145","o":"ATHA Energy (NU) Corp. (100%)","e":"2026-10-10"},"geometry":{"type":"Polygon","coordinates":[[[-98.6254,64.36708],[-98.61759,64.36708],[-98.60978,64.36708],[-98.60196,64.36708],[-98.59415,64.36708],[-98.58634,64.36707],[-98.57852,64.36707],[-98.57071,64.36707],[-98.5629,64.36707],[-98.5629,64.3629],[-98.5629,64.35873],[-98.5629,64.35457],[-98.5629,64.3504],[-98.5629,64.34623],[-98.5629,64.34206],[-98.5629,64.3379],[-98.5629,64.33373],[-98.5629,64.32956],[-98.5629,64.3254],[-98.56289,64.32123],[-98.57071,64.32123],[-98.57852,64.32124],[-98.58633,64.32124],[-98.59415,64.32124],[-98.60196,64.32124],[-98.60977,64.32124],[-98.61759,64.32124],[-98.6254,64.32124],[-98.6254,64.32541],[-98.6254,64.32958],[-98.6254,64.33374],[-98.6254,64.33791],[-98.6254,64.34208],[-98.6254,64.34624],[-98.6254,64.35041],[-98.6254,64.35458],[-98.6254,64.35875],[-98.6254,64.36291],[-98.6254,64.36708]]]}},{"type":"Feature","properties":{"c":"103156","o":"ATHA Energy (NU) Corp. (100%)","e":"2026-10-10"},"geometry":{"type":"Polygon","coordinates":[[[-98.81292,64.4004],[-98.8051,64.4004],[-98.79729,64.40039],[-98.78948,64.40039],[-98.78166,64.40038],[-98.77385,64.40038],[-98.76604,64.40037],[-98.75823,64.40037],[-98.75041,64.40036],[-98.75041,64.39619],[-98.75041,64.39203],[-98.75041,64.38786],[-98.75041,64.38369],[-98.75041,64.37953],[-98.75041,64.37536],[-98.75041,64.37119],[-98.75041,64.36703],[-98.75041,64.36286],[-98.75041,64.35869],[-98.75041,64.35453],[-98.75041,64.35036],[-98.75822,64.35036],[-98.76604,64.35037],[-98.77385,64.35038],[-98.78166,64.35038],[-98.78948,64.35039],[-98.79729,64.35039],[-98.8051,64.35039],[-98.81291,64.3504],[-98.81291,64.35457],[-98.81292,64.35873],[-98.81292,64.3629],[-98.81292,64.36707],[-98.81292,64.37123],[-98.81292,64.3754],[-98.81292,64.37957],[-98.81292,64.38373],[-98.81292,64.3879],[-98.81292,64.39207],[-98.81292,64.39623],[-98.81292,64.4004]]]}},{"type":"Feature","properties":{"c":"103163","o":"ATHA Energy (NU) Corp. (100%)","e":"2026-10-10"},"geometry":{"type":"Polygon","coordinates":[[[-98.71916,64.32121],[-98.71134,64.32122],[-98.70353,64.32122],[-98.69572,64.32123],[-98.6879,64.32123],[-98.6879,64.31706],[-98.6879,64.3129],[-98.6879,64.30873],[-98.6879,64.30456],[-98.6879,64.3004],[-98.68009,64.3004],[-98.68009,64.29623],[-98.68009,64.29207],[-98.68009,64.2879],[-98.68009,64.28373],[-98.68009,64.27957],[-98.68009,64.2754],[-98.68009,64.27123],[-98.68009,64.26706],[-98.6879,64.26706],[-98.6879,64.2629],[-98.6879,64.25873],[-98.6879,64.25456],[-98.69571,64.25456],[-98.69571,64.25039],[-98.70353,64.25039],[-98.71134,64.25038],[-98.71915,64.25038],[-98.71915,64.25454],[-98.71915,64.25871],[-98.71915,64.26288],[-98.71915,64.26705],[-98.71915,64.27121],[-98.71915,64.27538],[-98.71915,64.27955],[-98.71916,64.28371],[-98.71916,64.28788],[-98.71916,64.29205],[-98.71916,64.29621],[-98.71916,64.30038],[-98.71916,64.30455],[-98.71916,64.30871],[-98.71916,64.31288],[-98.71916,64.31705],[-98.71916,64.32121]]]}},{"type":"Feature","properties":{"c":"103177","o":"ATHA Energy (NU) Corp. (100%)","e":"2026-10-10"},"geometry":{"type":"Polygon","coordinates":[[[-98.90667,64.24624],[-98.89885,64.24624],[-98.89104,64.24624],[-98.88323,64.24624],[-98.87541,64.24624],[-98.8676,64.24624],[-98.85979,64.24624],[-98.85198,64.24624],[-98.84416,64.24624],[-98.83635,64.24624],[-98.82854,64.24623],[-98.82072,64.24623],[-98.81291,64.24623],[-98.81291,64.24206],[-98.81291,64.23789],[-98.81291,64.23373],[-98.81291,64.22956],[-98.81291,64.22539],[-98.81291,64.22123],[-98.81291,64.21706],[-98.82072,64.21706],[-98.82853,64.21707],[-98.83635,64.21707],[-98.84416,64.21707],[-98.85197,64.21707],[-98.85979,64.21707],[-98.8676,64.21707],[-98.87541,64.21707],[-98.88323,64.21707],[-98.89104,64.21707],[-98.89885,64.21707],[-98.90666,64.21707],[-98.90667,64.22124],[-98.90667,64.2254],[-98.90667,64.22957],[-98.90667,64.23374],[-98.90667,64.2379],[-98.90667,64.24207],[-98.90667,64.24624]]]}},{"type":"Feature","properties":{"c":"103182","o":"ATHA Energy (NU) Corp. (100%)","e":"2026-10-10"},"geometry":{"type":"Polygon","coordinates":[[[-98.90667,64.31707],[-98.89886,64.31707],[-98.89104,64.31708],[-98.88323,64.31708],[-98.87542,64.31708],[-98.8676,64.31708],[-98.85979,64.31708],[-98.85198,64.31707],[-98.84417,64.31707],[-98.83635,64.31707],[-98.82854,64.31707],[-98.82073,64.31707],[-98.81291,64.31706],[-98.81291,64.3129],[-98.81291,64.30873],[-98.81291,64.30456],[-98.81291,64.3004],[-98.81291,64.29623],[-98.81291,64.29206],[-98.81291,64.2879],[-98.81291,64.28373],[-98.82072,64.28373],[-98.82854,64.28373],[-98.83635,64.28374],[-98.84416,64.28374],[-98.85198,64.28374],[-98.85979,64.28374],[-98.8676,64.28374],[-98.87542,64.28374],[-98.88323,64.28374],[-98.89104,64.28374],[-98.89886,64.28374],[-98.90667,64.28374],[-98.90667,64.28791],[-98.90667,64.29207],[-98.90667,64.29624],[-98.90667,64.30041],[-98.90667,64.30457],[-98.90667,64.30874],[-98.90667,64.31291],[-98.90667,64.31707]]]}},{"type":"Feature","properties":{"c":"103183","o":"ATHA Energy (NU) Corp. (100%)","e":"2026-10-10"},"geometry":{"type":"Polygon","coordinates":[[[-98.90666,64.18373],[-98.89885,64.18374],[-98.89104,64.18374],[-98.88322,64.18374],[-98.87541,64.18374],[-98.8676,64.18374],[-98.85979,64.18374],[-98.85197,64.18374],[-98.84416,64.18373],[-98.83635,64.18373],[-98.82853,64.18373],[-98.82072,64.18373],[-98.81291,64.18372],[-98.81291,64.17956],[-98.81291,64.17539],[-98.81291,64.17122],[-98.81291,64.16706],[-98.81291,64.16289],[-98.81291,64.15872],[-98.81291,64.15456],[-98.81291,64.15039],[-98.82072,64.15039],[-98.82853,64.1504],[-98.83635,64.1504],[-98.84416,64.1504],[-98.85197,64.1504],[-98.85978,64.1504],[-98.8676,64.1504],[-98.87541,64.1504],[-98.88322,64.1504],[-98.89104,64.1504],[-98.89885,64.1504],[-98.90666,64.1504],[-98.90666,64.15457],[-98.90666,64.15873],[-98.90666,64.1629],[-98.90666,64.16707],[-98.90666,64.17123],[-98.90666,64.1754],[-98.90666,64.17957],[-98.90666,64.18373]]]}},{"type":"Feature","properties":{"c":"103187","o":"ATHA Energy (NU) Corp. (100%)","e":"2026-10-10"},"geometry":{"type":"Polygon","coordinates":[[[-99.00042,64.21702],[-98.99261,64.21703],[-98.9848,64.21703],[-98.97698,64.21704],[-98.96917,64.21704],[-98.96136,64.21705],[-98.95354,64.21705],[-98.94573,64.21706],[-98.93792,64.21706],[-98.9301,64.21706],[-98.92229,64.21707],[-98.91448,64.21707],[-98.90666,64.21707],[-98.90666,64.2129],[-98.90666,64.20874],[-98.90666,64.20457],[-98.90666,64.2004],[-98.90666,64.19624],[-98.90666,64.19207],[-98.90666,64.1879],[-98.90666,64.18373],[-98.91448,64.18373],[-98.92229,64.18373],[-98.9301,64.18373],[-98.93792,64.18372],[-98.94573,64.18372],[-98.95354,64.18372],[-98.96135,64.18371],[-98.96917,64.18371],[-98.97698,64.1837],[-98.98479,64.1837],[-98.99261,64.18369],[-99.00042,64.18368],[-99.00042,64.18785],[-99.00042,64.19202],[-99.00042,64.19618],[-99.00042,64.20035],[-99.00042,64.20452],[-99.00042,64.20869],[-99.00042,64.21285],[-99.00042,64.21702]]]}},{"type":"Feature","properties":{"c":"103225","o":"ATHA Energy (NU) Corp. (100%)","e":"2026-10-10"},"geometry":{"type":"Polygon","coordinates":[[[-98.53165,64.41705],[-98.52383,64.41705],[-98.51602,64.41704],[-98.50821,64.41703],[-98.50039,64.41703],[-98.49258,64.41703],[-98.48477,64.41704],[-98.47695,64.41705],[-98.46914,64.41705],[-98.46133,64.41706],[-98.45352,64.41706],[-98.4457,64.41706],[-98.43789,64.41707],[-98.43008,64.41707],[-98.42226,64.41707],[-98.41445,64.41708],[-98.40664,64.41708],[-98.39883,64.41708],[-98.39101,64.41708],[-98.3832,64.41708],[-98.37539,64.41708],[-98.36757,64.41708],[-98.35976,64.41708],[-98.35195,64.41708],[-98.35195,64.41291],[-98.35195,64.40875],[-98.35195,64.40458],[-98.35195,64.40041],[-98.35976,64.40041],[-98.36757,64.40041],[-98.37539,64.40041],[-98.3832,64.40041],[-98.39101,64.40041],[-98.39882,64.40041],[-98.40664,64.40041],[-98.41445,64.40041],[-98.42226,64.40041],[-98.43008,64.4004],[-98.43789,64.4004],[-98.4457,64.4004],[-98.45352,64.40039],[-98.46133,64.40039],[-98.46914,64.40038],[-98.47695,64.40038],[-98.48477,64.40037],[-98.49258,64.40037],[-98.50039,64.40036],[-98.50821,64.40037],[-98.51602,64.40037],[-98.52383,64.40038],[-98.53165,64.40038],[-98.53165,64.40455],[-98.53165,64.40872],[-98.53165,64.41288],[-98.53165,64.41705]]]}},{"type":"Feature","properties":{"c":"103149","o":"ATHA Energy (NU) Corp. (100%)","e":"2026-10-10"},"geometry":{"type":"Polygon","coordinates":[[[-98.68791,64.36707],[-98.68009,64.36707],[-98.67228,64.36707],[-98.66447,64.36707],[-98.65665,64.36708],[-98.64884,64.36708],[-98.64103,64.36708],[-98.63321,64.36708],[-98.6254,64.36708],[-98.6254,64.36291],[-98.6254,64.35875],[-98.6254,64.35458],[-98.6254,64.35041],[-98.6254,64.34624],[-98.6254,64.34208],[-98.6254,64.33791],[-98.6254,64.33374],[-98.6254,64.32958],[-98.6254,64.32541],[-98.6254,64.32124],[-98.63321,64.32124],[-98.64103,64.32124],[-98.64884,64.32124],[-98.65665,64.32124],[-98.66447,64.32124],[-98.67228,64.32124],[-98.68009,64.32123],[-98.6879,64.32123],[-98.6879,64.3254],[-98.6879,64.32956],[-98.6879,64.33373],[-98.68791,64.3379],[-98.68791,64.34206],[-98.68791,64.34623],[-98.68791,64.3504],[-98.68791,64.35457],[-98.68791,64.35873],[-98.68791,64.3629],[-98.68791,64.36707]]]}},{"type":"Feature","properties":{"c":"103150","o":"ATHA Energy (NU) Corp. (100%)","e":"2026-10-10"},"geometry":{"type":"Polygon","coordinates":[[[-98.53164,64.23371],[-98.52383,64.23371],[-98.51601,64.2337],[-98.5082,64.23369],[-98.50039,64.23369],[-98.49258,64.23369],[-98.48476,64.2337],[-98.47695,64.23371],[-98.46914,64.23371],[-98.46132,64.23372],[-98.45351,64.23372],[-98.4457,64.23372],[-98.43788,64.23373],[-98.43788,64.22956],[-98.43788,64.22539],[-98.43788,64.22123],[-98.43788,64.21706],[-98.43788,64.21289],[-98.43788,64.20873],[-98.43788,64.20456],[-98.43788,64.20039],[-98.4457,64.20039],[-98.45351,64.20039],[-98.46132,64.20038],[-98.46914,64.20038],[-98.47695,64.20037],[-98.48476,64.20037],[-98.49257,64.20036],[-98.50039,64.20035],[-98.5082,64.20036],[-98.51601,64.20036],[-98.52383,64.20037],[-98.53164,64.20038],[-98.53164,64.20454],[-98.53164,64.20871],[-98.53164,64.21288],[-98.53164,64.21704],[-98.53164,64.22121],[-98.53164,64.22538],[-98.53164,64.22954],[-98.53164,64.23371]]]}},{"type":"Feature","properties":{"c":"103154","o":"ATHA Energy (NU) Corp. (100%)","e":"2026-10-10"},"geometry":{"type":"Polygon","coordinates":[[[-98.78166,64.35038],[-98.77385,64.35038],[-98.76604,64.35037],[-98.75822,64.35036],[-98.75041,64.35036],[-98.7426,64.35036],[-98.73478,64.35037],[-98.72697,64.35038],[-98.71916,64.35038],[-98.71134,64.35039],[-98.70353,64.35039],[-98.69572,64.35039],[-98.68791,64.3504],[-98.68791,64.34623],[-98.68791,64.34206],[-98.68791,64.3379],[-98.6879,64.33373],[-98.6879,64.32956],[-98.6879,64.3254],[-98.6879,64.32123],[-98.69572,64.32123],[-98.70353,64.32122],[-98.71134,64.32122],[-98.71916,64.32121],[-98.72697,64.32121],[-98.73478,64.3212],[-98.7426,64.3212],[-98.75041,64.32119],[-98.75822,64.3212],[-98.76604,64.3212],[-98.77385,64.32121],[-98.78166,64.32121],[-98.78166,64.32538],[-98.78166,64.32955],[-98.78166,64.33371],[-98.78166,64.33788],[-98.78166,64.34205],[-98.78166,64.34621],[-98.78166,64.35038]]]}},{"type":"Feature","properties":{"c":"103157","o":"ATHA Energy (NU) Corp. (100%)","e":"2026-10-10"},"geometry":{"type":"Polygon","coordinates":[[[-98.6254,64.21707],[-98.61758,64.21707],[-98.60977,64.21707],[-98.60196,64.21707],[-98.59414,64.21707],[-98.58633,64.21707],[-98.57852,64.21707],[-98.5707,64.21706],[-98.56289,64.21706],[-98.55508,64.21706],[-98.54727,64.21705],[-98.53945,64.21705],[-98.53164,64.21704],[-98.53164,64.21288],[-98.53164,64.20871],[-98.53164,64.20454],[-98.53164,64.20038],[-98.53164,64.19621],[-98.53164,64.19204],[-98.53164,64.18788],[-98.53164,64.18371],[-98.53945,64.18371],[-98.54726,64.18372],[-98.55508,64.18372],[-98.56289,64.18373],[-98.5707,64.18373],[-98.57852,64.18373],[-98.58633,64.18373],[-98.59414,64.18374],[-98.60196,64.18374],[-98.60977,64.18374],[-98.61758,64.18374],[-98.62539,64.18374],[-98.6254,64.18791],[-98.6254,64.19207],[-98.6254,64.19624],[-98.6254,64.20041],[-98.6254,64.20457],[-98.6254,64.20874],[-98.6254,64.21291],[-98.6254,64.21707]]]}},{"type":"Feature","properties":{"c":"103161","o":"ATHA Energy (NU) Corp. (100%)","e":"2026-10-10"},"geometry":{"type":"Polygon","coordinates":[[[-98.87542,64.40041],[-98.86761,64.40041],[-98.8598,64.40041],[-98.85198,64.40041],[-98.84417,64.40041],[-98.83636,64.40041],[-98.82854,64.40041],[-98.82073,64.4004],[-98.81292,64.4004],[-98.81292,64.39623],[-98.81292,64.39207],[-98.81292,64.3879],[-98.81292,64.38373],[-98.81292,64.37957],[-98.81292,64.3754],[-98.81292,64.37123],[-98.81292,64.36707],[-98.81292,64.3629],[-98.81292,64.35873],[-98.81291,64.35457],[-98.81291,64.3504],[-98.82073,64.3504],[-98.82854,64.3504],[-98.83635,64.35041],[-98.84417,64.35041],[-98.85198,64.35041],[-98.85979,64.35041],[-98.86761,64.35041],[-98.87542,64.35041],[-98.87542,64.35458],[-98.87542,64.35875],[-98.87542,64.36291],[-98.87542,64.36708],[-98.87542,64.37125],[-98.87542,64.37541],[-98.87542,64.37958],[-98.87542,64.38375],[-98.87542,64.38791],[-98.87542,64.39208],[-98.87542,64.39625],[-98.87542,64.40041]]]}},{"type":"Feature","properties":{"c":"103164","o":"ATHA Energy (NU) Corp. (100%)","e":"2026-10-10"},"geometry":{"type":"Polygon","coordinates":[[[-98.96918,64.35038],[-98.96136,64.35039],[-98.95355,64.35039],[-98.94574,64.35039],[-98.93792,64.3504],[-98.93011,64.3504],[-98.9223,64.3504],[-98.91448,64.35041],[-98.90667,64.35041],[-98.89886,64.35041],[-98.89105,64.35041],[-98.88323,64.35041],[-98.87542,64.35041],[-98.87542,64.34624],[-98.87542,64.34208],[-98.87542,64.33791],[-98.87542,64.33374],[-98.87542,64.32958],[-98.87542,64.32541],[-98.87542,64.32124],[-98.88323,64.32124],[-98.89104,64.32124],[-98.89886,64.32124],[-98.90667,64.32124],[-98.91448,64.32124],[-98.9223,64.32124],[-98.93011,64.32123],[-98.93792,64.32123],[-98.94574,64.32123],[-98.95355,64.32122],[-98.96136,64.32122],[-98.96917,64.32121],[-98.96917,64.32538],[-98.96918,64.32955],[-98.96918,64.33371],[-98.96918,64.33788],[-98.96918,64.34205],[-98.96918,64.34621],[-98.96918,64.35038]]]}},{"type":"Feature","properties":{"c":"103165","o":"ATHA Energy (NU) Corp. (100%)","e":"2026-10-10"},"geometry":{"type":"Polygon","coordinates":[[[-98.71915,64.18371],[-98.71134,64.18371],[-98.70353,64.18372],[-98.69571,64.18372],[-98.6879,64.18372],[-98.68009,64.18373],[-98.67227,64.18373],[-98.66446,64.18373],[-98.65665,64.18373],[-98.64883,64.18374],[-98.64102,64.18374],[-98.63321,64.18374],[-98.62539,64.18374],[-98.61758,64.18374],[-98.60977,64.18374],[-98.60196,64.18374],[-98.59414,64.18374],[-98.58633,64.18373],[-98.57852,64.18373],[-98.5707,64.18373],[-98.56289,64.18373],[-98.55508,64.18372],[-98.54726,64.18372],[-98.53945,64.18371],[-98.53164,64.18371],[-98.53164,64.17954],[-98.53164,64.17537],[-98.53164,64.17121],[-98.53164,64.16704],[-98.53945,64.16705],[-98.54726,64.16705],[-98.55508,64.16705],[-98.56289,64.16706],[-98.5707,64.16706],[-98.57852,64.16706],[-98.58633,64.16707],[-98.59414,64.16707],[-98.60196,64.16707],[-98.60977,64.16707],[-98.61758,64.16707],[-98.62539,64.16707],[-98.63321,64.16707],[-98.64102,64.16707],[-98.64883,64.16707],[-98.65665,64.16707],[-98.66446,64.16707],[-98.67227,64.16706],[-98.68009,64.16706],[-98.6879,64.16706],[-98.69571,64.16705],[-98.70352,64.16705],[-98.71134,64.16705],[-98.71915,64.16704],[-98.71915,64.17121],[-98.71915,64.17537],[-98.71915,64.17954],[-98.71915,64.18371]]]}},{"type":"Feature","properties":{"c":"103237","o":"ATHA Energy (NU) Corp. (100%)","e":"2026-10-10"},"geometry":{"type":"Polygon","coordinates":[[[-98.5004,64.51703],[-98.49258,64.51704],[-98.48477,64.51704],[-98.47696,64.51705],[-98.46915,64.51706],[-98.46133,64.51706],[-98.45352,64.51706],[-98.44571,64.51707],[-98.43789,64.51707],[-98.43789,64.51291],[-98.43789,64.50874],[-98.43789,64.50457],[-98.43789,64.5004],[-98.43789,64.49624],[-98.43789,64.49207],[-98.43789,64.4879],[-98.43789,64.48374],[-98.43789,64.47957],[-98.43789,64.4754],[-98.43789,64.47124],[-98.43789,64.46707],[-98.4457,64.46707],[-98.45352,64.46706],[-98.46133,64.46706],[-98.46914,64.46705],[-98.47696,64.46705],[-98.48477,64.46704],[-98.49258,64.46704],[-98.5004,64.46703],[-98.5004,64.4712],[-98.5004,64.47536],[-98.5004,64.47953],[-98.5004,64.4837],[-98.5004,64.48786],[-98.5004,64.49203],[-98.5004,64.4962],[-98.5004,64.50036],[-98.5004,64.50453],[-98.5004,64.5087],[-98.5004,64.51287],[-98.5004,64.51703]]]}},{"type":"Feature","properties":{"c":"103166","o":"ATHA Energy (NU) Corp. (100%)","e":"2026-10-10"},"geometry":{"type":"Polygon","coordinates":[[[-98.93793,64.4004],[-98.93011,64.4004],[-98.9223,64.40041],[-98.91449,64.40041],[-98.90667,64.40041],[-98.89886,64.40041],[-98.89105,64.40041],[-98.88323,64.40041],[-98.87542,64.40041],[-98.87542,64.39625],[-98.87542,64.39208],[-98.87542,64.38791],[-98.87542,64.38375],[-98.87542,64.37958],[-98.87542,64.37541],[-98.87542,64.37125],[-98.87542,64.36708],[-98.87542,64.36291],[-98.87542,64.35875],[-98.87542,64.35458],[-98.87542,64.35041],[-98.88323,64.35041],[-98.89105,64.35041],[-98.89886,64.35041],[-98.90667,64.35041],[-98.91448,64.35041],[-98.9223,64.3504],[-98.93011,64.3504],[-98.93792,64.3504],[-98.93792,64.35456],[-98.93792,64.35873],[-98.93792,64.3629],[-98.93792,64.36707],[-98.93792,64.37123],[-98.93792,64.3754],[-98.93793,64.37957],[-98.93793,64.38373],[-98.93793,64.3879],[-98.93793,64.39207],[-98.93793,64.39623],[-98.93793,64.4004]]]}},{"type":"Feature","properties":{"c":"103170","o":"ATHA Energy (NU) Corp. (100%)","e":"2026-10-10"},"geometry":{"type":"Polygon","coordinates":[[[-98.81291,64.21706],[-98.8051,64.21706],[-98.79728,64.21705],[-98.78947,64.21705],[-98.78166,64.21704],[-98.77384,64.21704],[-98.76603,64.21703],[-98.75822,64.21703],[-98.7504,64.21702],[-98.74259,64.21703],[-98.73478,64.21703],[-98.72697,64.21704],[-98.71915,64.21704],[-98.71915,64.21288],[-98.71915,64.20871],[-98.71915,64.20454],[-98.71915,64.20038],[-98.71915,64.19621],[-98.71915,64.19204],[-98.71915,64.18787],[-98.71915,64.18371],[-98.72696,64.1837],[-98.73478,64.1837],[-98.74259,64.18369],[-98.7504,64.18368],[-98.75822,64.18369],[-98.76603,64.1837],[-98.77384,64.1837],[-98.78165,64.18371],[-98.78947,64.18371],[-98.79728,64.18372],[-98.80509,64.18372],[-98.81291,64.18372],[-98.81291,64.18789],[-98.81291,64.19206],[-98.81291,64.19623],[-98.81291,64.20039],[-98.81291,64.20456],[-98.81291,64.20873],[-98.81291,64.21289],[-98.81291,64.21706]]]}},{"type":"Feature","properties":{"c":"103171","o":"ATHA Energy (NU) Corp. (100%)","e":"2026-10-10"},"geometry":{"type":"Polygon","coordinates":[[[-99.06293,64.3504],[-99.05512,64.35039],[-99.04731,64.35039],[-99.03949,64.35039],[-99.03168,64.35038],[-99.02387,64.35038],[-99.01605,64.35037],[-99.00824,64.35036],[-99.00043,64.35036],[-98.99262,64.35036],[-98.9848,64.35037],[-98.97699,64.35038],[-98.96918,64.35038],[-98.96918,64.34621],[-98.96918,64.34205],[-98.96918,64.33788],[-98.96918,64.33371],[-98.96918,64.32955],[-98.96917,64.32538],[-98.96917,64.32121],[-98.97699,64.32121],[-98.9848,64.3212],[-98.99261,64.3212],[-99.00043,64.32119],[-99.00824,64.3212],[-99.01605,64.3212],[-99.02387,64.32121],[-99.03168,64.32121],[-99.03168,64.32538],[-99.03168,64.32955],[-99.03949,64.32955],[-99.03949,64.33372],[-99.03949,64.33789],[-99.04731,64.33789],[-99.05512,64.33789],[-99.05512,64.33373],[-99.06293,64.33373],[-99.06293,64.3379],[-99.06293,64.34206],[-99.06293,64.34623],[-99.06293,64.3504]]]}},{"type":"Feature","properties":{"c":"103201","o":"ATHA Energy (NU) Corp. (100%)","e":"2026-10-10"},"geometry":{"type":"Polygon","coordinates":[[[-99.00042,64.28369],[-98.99261,64.2837],[-98.9848,64.2837],[-98.97699,64.28371],[-98.96917,64.28371],[-98.96136,64.28372],[-98.95355,64.28372],[-98.94573,64.28373],[-98.93792,64.28373],[-98.93011,64.28373],[-98.92229,64.28373],[-98.91448,64.28374],[-98.90667,64.28374],[-98.90667,64.27957],[-98.90667,64.27541],[-98.90667,64.27124],[-98.90667,64.26707],[-98.90667,64.2629],[-98.90667,64.25874],[-98.90667,64.25457],[-98.90667,64.2504],[-98.91448,64.2504],[-98.92229,64.2504],[-98.93011,64.2504],[-98.93792,64.25039],[-98.94573,64.25039],[-98.95354,64.25039],[-98.96136,64.25038],[-98.96917,64.25038],[-98.97698,64.25037],[-98.9848,64.25037],[-98.99261,64.25036],[-99.00042,64.25035],[-99.00042,64.25452],[-99.00042,64.25869],[-99.00042,64.26285],[-99.00042,64.26702],[-99.00042,64.27119],[-99.00042,64.27536],[-99.00042,64.27952],[-99.00042,64.28369]]]}},{"type":"Feature","properties":{"c":"103139","o":"ATHA Energy (NU) Corp. (100%)","e":"2026-10-10"},"geometry":{"type":"Polygon","coordinates":[[[-98.50039,64.40036],[-98.49258,64.40037],[-98.48477,64.40037],[-98.47695,64.40038],[-98.46914,64.40038],[-98.46914,64.39622],[-98.47695,64.39621],[-98.47695,64.39205],[-98.46914,64.39205],[-98.46914,64.38788],[-98.46914,64.38372],[-98.46914,64.37955],[-98.46133,64.37955],[-98.45351,64.37956],[-98.4457,64.37956],[-98.4457,64.3754],[-98.4457,64.37123],[-98.4457,64.36706],[-98.4457,64.3629],[-98.4457,64.35873],[-98.4457,64.35456],[-98.4457,64.35039],[-98.45351,64.35039],[-98.46133,64.35039],[-98.46914,64.35038],[-98.47695,64.35038],[-98.48477,64.35037],[-98.49258,64.35036],[-98.50039,64.35036],[-98.50039,64.35453],[-98.50039,64.35869],[-98.50039,64.36286],[-98.50039,64.36703],[-98.50039,64.37119],[-98.50039,64.37536],[-98.50039,64.37953],[-98.50039,64.38369],[-98.50039,64.38786],[-98.50039,64.39203],[-98.50039,64.39619],[-98.50039,64.40036]]]}},{"type":"Feature","properties":{"c":"103147","o":"ATHA Energy (NU) Corp. (100%)","e":"2026-10-10"},"geometry":{"type":"Polygon","coordinates":[[[-98.68791,64.4004],[-98.68009,64.4004],[-98.67228,64.40041],[-98.66447,64.40041],[-98.65666,64.40041],[-98.64884,64.40041],[-98.64103,64.40041],[-98.63322,64.40041],[-98.6254,64.40041],[-98.61759,64.40041],[-98.60978,64.40041],[-98.60196,64.40041],[-98.59415,64.40041],[-98.59415,64.39624],[-98.59415,64.39208],[-98.59415,64.38791],[-98.59415,64.38374],[-98.59415,64.37958],[-98.59415,64.37541],[-98.59415,64.37124],[-98.59415,64.36708],[-98.60196,64.36708],[-98.60978,64.36708],[-98.61759,64.36708],[-98.6254,64.36708],[-98.63321,64.36708],[-98.64103,64.36708],[-98.64884,64.36708],[-98.65665,64.36708],[-98.66447,64.36707],[-98.67228,64.36707],[-98.68009,64.36707],[-98.68791,64.36707],[-98.68791,64.37123],[-98.68791,64.3754],[-98.68791,64.37957],[-98.68791,64.38373],[-98.68791,64.3879],[-98.68791,64.39207],[-98.68791,64.39623],[-98.68791,64.4004]]]}},{"type":"Feature","properties":{"c":"103159","o":"ATHA Energy (NU) Corp. (100%)","e":"2026-10-10"},"geometry":{"type":"Polygon","coordinates":[[[-98.87542,64.35041],[-98.86761,64.35041],[-98.85979,64.35041],[-98.85198,64.35041],[-98.84417,64.35041],[-98.83635,64.35041],[-98.82854,64.3504],[-98.82073,64.3504],[-98.81291,64.3504],[-98.8051,64.35039],[-98.79729,64.35039],[-98.78948,64.35039],[-98.78166,64.35038],[-98.78166,64.34621],[-98.78166,64.34205],[-98.78166,64.33788],[-98.78166,64.33371],[-98.78166,64.32955],[-98.78166,64.32538],[-98.78166,64.32121],[-98.78947,64.32122],[-98.79729,64.32122],[-98.8051,64.32123],[-98.81291,64.32123],[-98.82073,64.32123],[-98.82854,64.32124],[-98.83635,64.32124],[-98.84417,64.32124],[-98.85198,64.32124],[-98.85979,64.32124],[-98.8676,64.32124],[-98.87542,64.32124],[-98.87542,64.32541],[-98.87542,64.32958],[-98.87542,64.33374],[-98.87542,64.33791],[-98.87542,64.34208],[-98.87542,64.34624],[-98.87542,64.35041]]]}},{"type":"Feature","properties":{"c":"103160","o":"ATHA Energy (NU) Corp. (100%)","e":"2026-10-10"},"geometry":{"type":"Polygon","coordinates":[[[-98.71915,64.25038],[-98.71134,64.25038],[-98.70353,64.25039],[-98.69571,64.25039],[-98.6879,64.25039],[-98.68009,64.2504],[-98.67228,64.2504],[-98.66446,64.2504],[-98.65665,64.2504],[-98.64884,64.25041],[-98.64102,64.25041],[-98.64102,64.24624],[-98.63321,64.24624],[-98.6254,64.24624],[-98.6254,64.24207],[-98.6254,64.23791],[-98.6254,64.23374],[-98.6254,64.22957],[-98.6254,64.22541],[-98.6254,64.22124],[-98.6254,64.21707],[-98.63321,64.21707],[-98.64102,64.21707],[-98.64884,64.21707],[-98.65665,64.21707],[-98.66446,64.21707],[-98.67227,64.21707],[-98.68009,64.21706],[-98.6879,64.21706],[-98.69571,64.21706],[-98.70353,64.21705],[-98.71134,64.21705],[-98.71915,64.21704],[-98.71915,64.22121],[-98.71915,64.22538],[-98.71915,64.22954],[-98.71915,64.23371],[-98.71915,64.23788],[-98.71915,64.24204],[-98.71915,64.24621],[-98.71915,64.25038]]]}},{"type":"Feature","properties":{"c":"103179","o":"ATHA Energy (NU) Corp. (100%)","e":"2026-10-10"},"geometry":{"type":"Polygon","coordinates":[[[-99.00824,64.3212],[-99.00043,64.32119],[-98.99261,64.3212],[-98.9848,64.3212],[-98.97699,64.32121],[-98.96917,64.32121],[-98.96136,64.32122],[-98.95355,64.32122],[-98.94574,64.32123],[-98.93792,64.32123],[-98.93011,64.32123],[-98.9223,64.32124],[-98.91448,64.32124],[-98.90667,64.32124],[-98.89886,64.32124],[-98.89104,64.32124],[-98.88323,64.32124],[-98.87542,64.32124],[-98.8676,64.32124],[-98.85979,64.32124],[-98.85198,64.32124],[-98.84417,64.32124],[-98.83635,64.32124],[-98.82854,64.32124],[-98.82073,64.32123],[-98.81291,64.32123],[-98.8051,64.32123],[-98.79729,64.32122],[-98.78947,64.32122],[-98.78166,64.32121],[-98.77385,64.32121],[-98.76604,64.3212],[-98.75822,64.3212],[-98.75041,64.32119],[-98.7426,64.3212],[-98.73478,64.3212],[-98.72697,64.32121],[-98.71916,64.32121],[-98.71916,64.31705],[-98.72697,64.31704],[-98.73478,64.31704],[-98.7426,64.31703],[-98.75041,64.31702],[-98.75822,64.31703],[-98.76603,64.31704],[-98.77385,64.31704],[-98.78166,64.31705],[-98.78947,64.31705],[-98.79729,64.31706],[-98.8051,64.31706],[-98.81291,64.31706],[-98.82073,64.31707],[-98.82854,64.31707],[-98.83635,64.31707],[-98.84417,64.31707],[-98.85198,64.31707],[-98.85979,64.31708],[-98.8676,64.31708],[-98.87542,64.31708],[-98.88323,64.31708],[-98.89104,64.31708],[-98.89886,64.31707],[-98.90667,64.31707],[-98.91448,64.31707],[-98.9223,64.31707],[-98.93011,64.31707],[-98.93792,64.31706],[-98.94574,64.31706],[-98.95355,64.31706],[-98.96136,64.31705],[-98.96917,64.31705],[-98.97699,64.31704],[-98.9848,64.31704],[-98.99261,64.31703],[-99.00043,64.31702],[-99.00824,64.31703],[-99.01605,64.31704],[-99.02387,64.31704],[-99.02387,64.32121],[-99.01605,64.3212],[-99.00824,64.3212]]]}},{"type":"Feature","properties":{"c":"103228","o":"ATHA Energy (NU) Corp. (100%)","e":"2026-10-10"},"geometry":{"type":"Polygon","coordinates":[[[-98.53165,64.46705],[-98.52383,64.46705],[-98.51602,64.46704],[-98.50821,64.46704],[-98.5004,64.46703],[-98.49258,64.46704],[-98.48477,64.46704],[-98.47696,64.46705],[-98.46914,64.46705],[-98.46914,64.46289],[-98.46914,64.45872],[-98.46914,64.45455],[-98.46914,64.45039],[-98.46914,64.44622],[-98.46914,64.44205],[-98.46914,64.43789],[-98.46914,64.43372],[-98.46914,64.42955],[-98.46914,64.42539],[-98.46914,64.42122],[-98.46914,64.41705],[-98.47695,64.41705],[-98.48477,64.41704],[-98.49258,64.41703],[-98.50039,64.41703],[-98.50821,64.41703],[-98.51602,64.41704],[-98.52383,64.41705],[-98.53165,64.41705],[-98.53165,64.42122],[-98.53165,64.42539],[-98.53165,64.42955],[-98.53165,64.43372],[-98.53165,64.43789],[-98.53165,64.44205],[-98.53165,64.44622],[-98.53165,64.45039],[-98.53165,64.45455],[-98.53165,64.45872],[-98.53165,64.46289],[-98.53165,64.46705]]]}},{"type":"Feature","properties":{"c":"103155","o":"ATHA Energy (NU) Corp. (100%)","e":"2026-10-10"},"geometry":{"type":"Polygon","coordinates":[[[-98.6254,64.24624],[-98.61758,64.24624],[-98.60977,64.24624],[-98.60196,64.24624],[-98.59414,64.24624],[-98.58633,64.24624],[-98.58633,64.24207],[-98.57852,64.24207],[-98.57071,64.24206],[-98.56289,64.24206],[-98.55508,64.24206],[-98.54727,64.24205],[-98.53945,64.24205],[-98.53945,64.23788],[-98.53945,64.23372],[-98.53164,64.23371],[-98.53164,64.22954],[-98.53164,64.22538],[-98.53164,64.22121],[-98.53164,64.21704],[-98.53945,64.21705],[-98.54727,64.21705],[-98.55508,64.21706],[-98.56289,64.21706],[-98.5707,64.21706],[-98.57852,64.21707],[-98.58633,64.21707],[-98.59414,64.21707],[-98.60196,64.21707],[-98.60977,64.21707],[-98.61758,64.21707],[-98.6254,64.21707],[-98.6254,64.22124],[-98.6254,64.22541],[-98.6254,64.22957],[-98.6254,64.23374],[-98.6254,64.23791],[-98.6254,64.24207],[-98.6254,64.24624]]]}},{"type":"Feature","properties":{"c":"103162","o":"ATHA Energy (NU) Corp. (100%)","e":"2026-10-10"},"geometry":{"type":"Polygon","coordinates":[[[-98.71915,64.21704],[-98.71134,64.21705],[-98.70353,64.21705],[-98.69571,64.21706],[-98.6879,64.21706],[-98.68009,64.21706],[-98.67227,64.21707],[-98.66446,64.21707],[-98.65665,64.21707],[-98.64884,64.21707],[-98.64102,64.21707],[-98.63321,64.21707],[-98.6254,64.21707],[-98.6254,64.21291],[-98.6254,64.20874],[-98.6254,64.20457],[-98.6254,64.20041],[-98.6254,64.19624],[-98.6254,64.19207],[-98.6254,64.18791],[-98.62539,64.18374],[-98.63321,64.18374],[-98.64102,64.18374],[-98.64883,64.18374],[-98.65665,64.18373],[-98.66446,64.18373],[-98.67227,64.18373],[-98.68009,64.18373],[-98.6879,64.18372],[-98.69571,64.18372],[-98.70353,64.18372],[-98.71134,64.18371],[-98.71915,64.18371],[-98.71915,64.18787],[-98.71915,64.19204],[-98.71915,64.19621],[-98.71915,64.20038],[-98.71915,64.20454],[-98.71915,64.20871],[-98.71915,64.21288],[-98.71915,64.21704]]]}},{"type":"Feature","properties":{"c":"103167","o":"ATHA Energy (NU) Corp. (100%)","e":"2026-10-10"},"geometry":{"type":"Polygon","coordinates":[[[-98.81291,64.28373],[-98.8051,64.28373],[-98.79729,64.28372],[-98.78947,64.28372],[-98.78166,64.28371],[-98.77385,64.28371],[-98.76603,64.2837],[-98.75822,64.2837],[-98.75041,64.28369],[-98.74259,64.2837],[-98.73478,64.2837],[-98.72697,64.28371],[-98.71916,64.28371],[-98.71915,64.27955],[-98.71915,64.27538],[-98.71915,64.27121],[-98.71915,64.26705],[-98.71915,64.26288],[-98.71915,64.25871],[-98.71915,64.25454],[-98.71915,64.25038],[-98.72697,64.25037],[-98.73478,64.25037],[-98.74259,64.25036],[-98.75041,64.25035],[-98.75822,64.25036],[-98.76603,64.25037],[-98.77384,64.25037],[-98.78166,64.25038],[-98.78947,64.25038],[-98.79728,64.25039],[-98.8051,64.25039],[-98.81291,64.25039],[-98.81291,64.25456],[-98.81291,64.25873],[-98.81291,64.26289],[-98.81291,64.26706],[-98.81291,64.27123],[-98.81291,64.2754],[-98.81291,64.27956],[-98.81291,64.28373]]]}},{"type":"Feature","properties":{"c":"103168","o":"ATHA Energy (NU) Corp. (100%)","e":"2026-10-10"},"geometry":{"type":"Polygon","coordinates":[[[-98.81291,64.25039],[-98.8051,64.25039],[-98.79728,64.25039],[-98.78947,64.25038],[-98.78166,64.25038],[-98.77384,64.25037],[-98.76603,64.25037],[-98.75822,64.25036],[-98.75041,64.25035],[-98.74259,64.25036],[-98.73478,64.25037],[-98.72697,64.25037],[-98.71915,64.25038],[-98.71915,64.24621],[-98.71915,64.24204],[-98.71915,64.23788],[-98.71915,64.23371],[-98.71915,64.22954],[-98.71915,64.22538],[-98.71915,64.22121],[-98.71915,64.21704],[-98.72697,64.21704],[-98.73478,64.21703],[-98.74259,64.21703],[-98.7504,64.21702],[-98.75822,64.21703],[-98.76603,64.21703],[-98.77384,64.21704],[-98.78166,64.21704],[-98.78947,64.21705],[-98.79728,64.21705],[-98.8051,64.21706],[-98.81291,64.21706],[-98.81291,64.22123],[-98.81291,64.22539],[-98.81291,64.22956],[-98.81291,64.23373],[-98.81291,64.23789],[-98.81291,64.24206],[-98.81291,64.24623],[-98.81291,64.25039]]]}},{"type":"Feature","properties":{"c":"103169","o":"ATHA Energy (NU) Corp. (100%)","e":"2026-10-10"},"geometry":{"type":"Polygon","coordinates":[[[-99.00043,64.40036],[-98.99262,64.40037],[-98.9848,64.40037],[-98.97699,64.40038],[-98.96918,64.40038],[-98.96137,64.40039],[-98.95355,64.40039],[-98.94574,64.4004],[-98.93793,64.4004],[-98.93793,64.39623],[-98.93793,64.39207],[-98.93793,64.3879],[-98.93793,64.38373],[-98.93793,64.37957],[-98.93792,64.3754],[-98.93792,64.37123],[-98.93792,64.36707],[-98.93792,64.3629],[-98.93792,64.35873],[-98.93792,64.35456],[-98.93792,64.3504],[-98.94574,64.35039],[-98.95355,64.35039],[-98.96136,64.35039],[-98.96918,64.35038],[-98.97699,64.35038],[-98.9848,64.35037],[-98.99262,64.35036],[-99.00043,64.35036],[-99.00043,64.35452],[-99.00043,64.35869],[-99.00043,64.36286],[-99.00043,64.36703],[-99.00043,64.37119],[-99.00043,64.37536],[-99.00043,64.37953],[-99.00043,64.38369],[-99.00043,64.38786],[-99.00043,64.39203],[-99.00043,64.39619],[-99.00043,64.40036]]]}},{"type":"Feature","properties":{"c":"103172","o":"ATHA Energy (NU) Corp. (100%)","e":"2026-10-10"},"geometry":{"type":"Polygon","coordinates":[[[-99.26607,64.25037],[-99.25825,64.25036],[-99.25044,64.25035],[-99.24263,64.25036],[-99.23481,64.25037],[-99.227,64.25037],[-99.21919,64.25038],[-99.21137,64.25038],[-99.20356,64.25039],[-99.19575,64.25039],[-99.18794,64.25039],[-99.18012,64.2504],[-99.17231,64.2504],[-99.1645,64.2504],[-99.15668,64.2504],[-99.14887,64.25041],[-99.14106,64.25041],[-99.13324,64.25041],[-99.12543,64.25041],[-99.11762,64.25041],[-99.10981,64.25041],[-99.10199,64.25041],[-99.09418,64.2504],[-99.08637,64.2504],[-99.07855,64.2504],[-99.07074,64.2504],[-99.06293,64.25039],[-99.05511,64.25039],[-99.0473,64.25039],[-99.03949,64.25038],[-99.03168,64.25038],[-99.02386,64.25037],[-99.01605,64.25037],[-99.00824,64.25036],[-99.00042,64.25035],[-98.99261,64.25036],[-98.9848,64.25037],[-98.97698,64.25037],[-98.96917,64.25038],[-98.96136,64.25038],[-98.95354,64.25039],[-98.94573,64.25039],[-98.93792,64.25039],[-98.93011,64.2504],[-98.92229,64.2504],[-98.91448,64.2504],[-98.90667,64.2504],[-98.89885,64.25041],[-98.89104,64.25041],[-98.88323,64.25041],[-98.87541,64.25041],[-98.8676,64.25041],[-98.85979,64.25041],[-98.85198,64.25041],[-98.84416,64.2504],[-98.83635,64.2504],[-98.82854,64.2504],[-98.82072,64.2504],[-98.81291,64.25039],[-98.81291,64.24623],[-98.82072,64.24623],[-98.82854,64.24623],[-98.83635,64.24624],[-98.84416,64.24624],[-98.85198,64.24624],[-98.85979,64.24624],[-98.8676,64.24624],[-98.87541,64.24624],[-98.88323,64.24624],[-98.89104,64.24624],[-98.89885,64.24624],[-98.90667,64.24624],[-98.91448,64.24624],[-98.92229,64.24623],[-98.93011,64.24623],[-98.93792,64.24623],[-98.94573,64.24622],[-98.95354,64.24622],[-98.96136,64.24622],[-98.96917,64.24621],[-98.97698,64.24621],[-98.9848,64.2462],[-98.99261,64.24619],[-99.00042,64.24619],[-99.00824,64.24619],[-99.01605,64.2462],[-99.02386,64.24621],[-99.03167,64.24621],[-99.03949,64.24622],[-99.0473,64.24622],[-99.05511,64.24622],[-99.06293,64.24623],[-99.07074,64.24623],[-99.07855,64.24623],[-99.08637,64.24624],[-99.09418,64.24624],[-99.10199,64.24624],[-99.1098,64.24624],[-99.11762,64.24624],[-99.12543,64.24624],[-99.13324,64.24624],[-99.14106,64.24624],[-99.14887,64.24624],[-99.15668,64.24624],[-99.1645,64.24624],[-99.17231,64.24623],[-99.18012,64.24623],[-99.18794,64.24623],[-99.19575,64.24622],[-99.20356,64.24622],[-99.21137,64.24622],[-99.21919,64.24621],[-99.227,64.24621],[-99.23481,64.2462],[-99.24263,64.24619],[-99.25044,64.24619],[-99.25825,64.24619],[-99.26607,64.2462],[-99.27388,64.2462],[-99.28169,64.24621],[-99.28169,64.25038],[-99.27388,64.25037],[-99.26607,64.25037]]]}},{"type":"Feature","properties":{"c":"103174","o":"ATHA Energy (NU) Corp. (100%)","e":"2026-10-10"},"geometry":{"type":"Polygon","coordinates":[[[-98.81291,64.18372],[-98.80509,64.18372],[-98.79728,64.18372],[-98.78947,64.18371],[-98.78165,64.18371],[-98.77384,64.1837],[-98.76603,64.1837],[-98.75822,64.18369],[-98.7504,64.18368],[-98.74259,64.18369],[-98.73478,64.1837],[-98.72696,64.1837],[-98.71915,64.18371],[-98.71915,64.17954],[-98.71915,64.17537],[-98.71915,64.17121],[-98.71915,64.16704],[-98.71915,64.16287],[-98.71915,64.15871],[-98.71915,64.15454],[-98.71915,64.15037],[-98.72696,64.15037],[-98.73478,64.15036],[-98.74259,64.15036],[-98.7504,64.15035],[-98.75822,64.15036],[-98.76603,64.15036],[-98.77384,64.15037],[-98.78165,64.15037],[-98.78947,64.15038],[-98.79728,64.15038],[-98.80509,64.15039],[-98.81291,64.15039],[-98.81291,64.15456],[-98.81291,64.15872],[-98.81291,64.16289],[-98.81291,64.16706],[-98.81291,64.17122],[-98.81291,64.17539],[-98.81291,64.17956],[-98.81291,64.18372]]]}},{"type":"Feature","properties":{"c":"103234","o":"ATHA Energy (NU) Corp. (100%)","e":"2026-10-10"},"geometry":{"type":"Polygon","coordinates":[[[-98.5629,64.51707],[-98.55509,64.51707],[-98.54728,64.51706],[-98.53946,64.51706],[-98.53165,64.51706],[-98.52384,64.51705],[-98.51602,64.51704],[-98.50821,64.51704],[-98.5004,64.51703],[-98.5004,64.51287],[-98.5004,64.5087],[-98.5004,64.50453],[-98.5004,64.50036],[-98.5004,64.4962],[-98.5004,64.49203],[-98.5004,64.48786],[-98.5004,64.4837],[-98.5004,64.47953],[-98.5004,64.47536],[-98.5004,64.4712],[-98.5004,64.46703],[-98.50821,64.46704],[-98.51602,64.46704],[-98.52383,64.46705],[-98.53165,64.46705],[-98.53946,64.46706],[-98.54727,64.46706],[-98.55509,64.46707],[-98.5629,64.46707],[-98.5629,64.47124],[-98.5629,64.4754],[-98.5629,64.47957],[-98.5629,64.48374],[-98.5629,64.4879],[-98.5629,64.49207],[-98.5629,64.49624],[-98.5629,64.5004],[-98.5629,64.50457],[-98.5629,64.50874],[-98.5629,64.51291],[-98.5629,64.51707]]]}},{"type":"Feature","properties":{"c":"103152","o":"ATHA Energy (NU) Corp. (100%)","e":"2026-10-10"},"geometry":{"type":"Polygon","coordinates":[[[-98.53164,64.20038],[-98.52383,64.20037],[-98.51601,64.20036],[-98.5082,64.20036],[-98.50039,64.20035],[-98.49257,64.20036],[-98.48476,64.20037],[-98.47695,64.20037],[-98.46914,64.20038],[-98.46132,64.20038],[-98.45351,64.20039],[-98.4457,64.20039],[-98.43788,64.20039],[-98.43788,64.19623],[-98.43788,64.19206],[-98.43788,64.18789],[-98.43788,64.18373],[-98.43788,64.17956],[-98.43788,64.17539],[-98.43788,64.17122],[-98.43788,64.16706],[-98.4457,64.16705],[-98.45351,64.16705],[-98.46132,64.16705],[-98.46913,64.16704],[-98.47695,64.16704],[-98.48476,64.16703],[-98.49257,64.16702],[-98.50039,64.16702],[-98.5082,64.16702],[-98.51601,64.16703],[-98.52383,64.16704],[-98.53164,64.16704],[-98.53164,64.17121],[-98.53164,64.17537],[-98.53164,64.17954],[-98.53164,64.18371],[-98.53164,64.18788],[-98.53164,64.19204],[-98.53164,64.19621],[-98.53164,64.20038]]]}},{"type":"Feature","properties":{"c":"103176","o":"ATHA Energy (NU) Corp. (100%)","e":"2026-10-10"},"geometry":{"type":"Polygon","coordinates":[[[-98.81291,64.31706],[-98.8051,64.31706],[-98.79729,64.31706],[-98.78947,64.31705],[-98.78166,64.31705],[-98.77385,64.31704],[-98.76603,64.31704],[-98.75822,64.31703],[-98.75041,64.31702],[-98.7426,64.31703],[-98.73478,64.31704],[-98.72697,64.31704],[-98.71916,64.31705],[-98.71916,64.31288],[-98.71916,64.30871],[-98.71916,64.30455],[-98.71916,64.30038],[-98.71916,64.29621],[-98.71916,64.29205],[-98.71916,64.28788],[-98.71916,64.28371],[-98.72697,64.28371],[-98.73478,64.2837],[-98.74259,64.2837],[-98.75041,64.28369],[-98.75822,64.2837],[-98.76603,64.2837],[-98.77385,64.28371],[-98.78166,64.28371],[-98.78947,64.28372],[-98.79729,64.28372],[-98.8051,64.28373],[-98.81291,64.28373],[-98.81291,64.2879],[-98.81291,64.29206],[-98.81291,64.29623],[-98.81291,64.3004],[-98.81291,64.30456],[-98.81291,64.30873],[-98.81291,64.3129],[-98.81291,64.31706]]]}},{"type":"Feature","properties":{"c":"103151","o":"ATHA Energy (NU) Corp. (100%)","e":"2026-10-10"},"geometry":{"type":"Polygon","coordinates":[[[-98.75041,64.40036],[-98.7426,64.40037],[-98.73479,64.40037],[-98.72697,64.40038],[-98.71916,64.40038],[-98.71135,64.40039],[-98.70353,64.40039],[-98.69572,64.4004],[-98.68791,64.4004],[-98.68791,64.39623],[-98.68791,64.39207],[-98.68791,64.3879],[-98.68791,64.38373],[-98.68791,64.37957],[-98.68791,64.3754],[-98.68791,64.37123],[-98.68791,64.36707],[-98.68791,64.3629],[-98.68791,64.35873],[-98.68791,64.35457],[-98.68791,64.3504],[-98.69572,64.35039],[-98.70353,64.35039],[-98.71134,64.35039],[-98.71916,64.35038],[-98.72697,64.35038],[-98.73478,64.35037],[-98.7426,64.35036],[-98.75041,64.35036],[-98.75041,64.35453],[-98.75041,64.35869],[-98.75041,64.36286],[-98.75041,64.36703],[-98.75041,64.37119],[-98.75041,64.37536],[-98.75041,64.37953],[-98.75041,64.38369],[-98.75041,64.38786],[-98.75041,64.39203],[-98.75041,64.39619],[-98.75041,64.40036]]]}},{"type":"Feature","properties":{"c":"103189","o":"ATHA Energy (NU) Corp. (100%)","e":"2026-10-10"},"geometry":{"type":"Polygon","coordinates":[[[-99.00042,64.18368],[-98.99261,64.18369],[-98.98479,64.1837],[-98.97698,64.1837],[-98.96917,64.18371],[-98.96135,64.18371],[-98.95354,64.18372],[-98.94573,64.18372],[-98.93792,64.18372],[-98.9301,64.18373],[-98.92229,64.18373],[-98.91448,64.18373],[-98.90666,64.18373],[-98.90666,64.17957],[-98.90666,64.1754],[-98.90666,64.17123],[-98.90666,64.16707],[-98.90666,64.1629],[-98.90666,64.15873],[-98.90666,64.15457],[-98.90666,64.1504],[-98.91448,64.1504],[-98.92229,64.1504],[-98.9301,64.15039],[-98.93791,64.15039],[-98.94573,64.15039],[-98.95354,64.15038],[-98.96135,64.15038],[-98.96917,64.15037],[-98.97698,64.15037],[-98.98479,64.15036],[-98.99261,64.15036],[-99.00042,64.15035],[-99.00042,64.15452],[-99.00042,64.15868],[-99.00042,64.16285],[-99.00042,64.16702],[-99.00042,64.17118],[-99.00042,64.17535],[-99.00042,64.17952],[-99.00042,64.18368]]]}}]}