{"type":"FeatureCollection","features":[{"type":"Feature","properties":{"c":"SV15247","o":"SHAUN SPELLISCY","e":"2027-04-07"},"geometry":{"type":"Polygon","coordinates":[[[-99.37396,50.21843],[-99.37395,50.21123],[-99.38489,50.21092],[-99.38493,50.21814],[-99.37396,50.21843]]]}},{"type":"Feature","properties":{"c":"SV15248","o":"SHAUN SPELLISCY","e":"2027-04-07"},"geometry":{"type":"Polygon","coordinates":[[[-99.23871,50.25504],[-99.23869,50.24073],[-99.25018,50.24067],[-99.25019,50.25505],[-99.23871,50.25504]]]}},{"type":"Feature","properties":{"c":"SV15249","o":"SHAUN SPELLISCY","e":"2027-04-07"},"geometry":{"type":"Polygon","coordinates":[[[-99.36302,50.22593],[-99.36302,50.21873],[-99.37396,50.21843],[-99.37399,50.22565],[-99.36302,50.22593]]]}},{"type":"Feature","properties":{"c":"SV15251","o":"SHAUN SPELLISCY","e":"2027-04-07"},"geometry":{"type":"Polygon","coordinates":[[[-99.37406,50.18901],[-99.37409,50.19625],[-99.36313,50.19651],[-99.36293,50.18182],[-99.38499,50.18151],[-99.38502,50.18875],[-99.37406,50.18901]]]}},{"type":"Feature","properties":{"c":"SV15253","o":"SHAUN SPELLISCY","e":"2027-04-07"},"geometry":{"type":"Polygon","coordinates":[[[-99.22552,50.21098],[-99.24872,50.21063],[-99.24848,50.21816],[-99.23684,50.2183],[-99.23683,50.22571],[-99.22572,50.22571],[-99.22552,50.21098]]]}},{"type":"Feature","properties":{"c":"SV15254","o":"SHAUN SPELLISCY","e":"2027-04-07"},"geometry":{"type":"Polygon","coordinates":[[[-99.2253,50.22571],[-99.21968,50.2257],[-99.21406,50.2257],[-99.20844,50.22569],[-99.20282,50.22568],[-99.20278,50.22205],[-99.20275,50.21842],[-99.20271,50.21479],[-99.20267,50.21115],[-99.20828,50.21115],[-99.21389,50.21115],[-99.21949,50.21107],[-99.2251,50.21098],[-99.22515,50.21471],[-99.2252,50.21843],[-99.22525,50.22207],[-99.2253,50.22571]]]}},{"type":"Feature","properties":{"c":"SV15255","o":"SHAUN SPELLISCY","e":"2027-04-07"},"geometry":{"type":"Polygon","coordinates":[[[-99.19103,50.22568],[-99.19095,50.21841],[-99.191,50.21118],[-99.20225,50.21115],[-99.2024,50.22568],[-99.19103,50.22568]]]}},{"type":"Feature","properties":{"c":"SV15256","o":"SHAUN SPELLISCY","e":"2027-04-07"},"geometry":{"type":"Polygon","coordinates":[[[-99.29319,50.24051],[-99.29341,50.2334],[-99.30475,50.23334],[-99.30441,50.2405],[-99.29319,50.24051]]]}},{"type":"Feature","properties":{"c":"SV15257","o":"SHAUN SPELLISCY","e":"2027-04-07"},"geometry":{"type":"Polygon","coordinates":[[[-99.23654,50.19591],[-99.23642,50.18882],[-99.23629,50.18169],[-99.24817,50.18163],[-99.24845,50.19584],[-99.23654,50.19591]]]}},{"type":"Feature","properties":{"c":"SV15263","o":"SHAUN SPELLISCY","e":"2027-04-07"},"geometry":{"type":"Polygon","coordinates":[[[-99.22592,50.24055],[-99.22582,50.23326],[-99.22573,50.22598],[-99.23683,50.22598],[-99.23693,50.23334],[-99.24792,50.23321],[-99.24763,50.24045],[-99.22592,50.24055]]]}},{"type":"Feature","properties":{"c":"SV15268","o":"SHAUN SPELLISCY","e":"2027-04-07"},"geometry":{"type":"Polygon","coordinates":[[[-99.2383,50.26256],[-99.23831,50.26619],[-99.23832,50.26982],[-99.23267,50.26983],[-99.22702,50.26983],[-99.22138,50.26984],[-99.21573,50.26985],[-99.21573,50.26622],[-99.21573,50.2626],[-99.21572,50.25897],[-99.21572,50.25534],[-99.22136,50.25534],[-99.22701,50.25533],[-99.23265,50.25532],[-99.23829,50.25531],[-99.2383,50.25894],[-99.2383,50.26256]]]}},{"type":"Feature","properties":{"c":"SV15274","o":"SHAUN SPELLISCY","e":"2027-04-07"},"geometry":{"type":"Polygon","coordinates":[[[-99.37719,50.25491],[-99.37721,50.24781],[-99.38873,50.24781],[-99.40016,50.24782],[-99.40017,50.25505],[-99.37719,50.25491]]]}},{"type":"Feature","properties":{"c":"SV15280","o":"SHAUN SPELLISCY","e":"2027-04-11"},"geometry":{"type":"Polygon","coordinates":[[[-99.31676,50.21868],[-99.31678,50.21147],[-99.33907,50.2115],[-99.33902,50.21875],[-99.31676,50.21868]]]}},{"type":"Feature","properties":{"c":"SV15282","o":"SHAUN SPELLISCY","e":"2027-04-11"},"geometry":{"type":"Polygon","coordinates":[[[-99.2819,50.22594],[-99.28207,50.21867],[-99.27083,50.21862],[-99.27106,50.21133],[-99.29354,50.21143],[-99.2932,50.22602],[-99.2819,50.22594]]]}},{"type":"Feature","properties":{"c":"SV15287","o":"SHAUN SPELLISCY","e":"2027-04-12"},"geometry":{"type":"Polygon","coordinates":[[[-99.33949,50.21123],[-99.3397,50.20396],[-99.3511,50.20401],[-99.35104,50.21123],[-99.33949,50.21123]]]}},{"type":"Feature","properties":{"c":"SV15288","o":"SHAUN SPELLISCY","e":"2027-04-12"},"geometry":{"type":"Polygon","coordinates":[[[-99.3511,50.20401],[-99.35128,50.19674],[-99.36271,50.19678],[-99.36265,50.20402],[-99.3511,50.20401]]]}},{"type":"Feature","properties":{"c":"SV15289","o":"SHAUN SPELLISCY","e":"2027-04-12"},"geometry":{"type":"Polygon","coordinates":[[[-99.30513,50.20388],[-99.30516,50.21116],[-99.29396,50.21115],[-99.29414,50.19642],[-99.3163,50.19661],[-99.3163,50.2039],[-99.30513,50.20388]]]}},{"type":"Feature","properties":{"c":"SV15291","o":"SHAUN SPELLISCY","e":"2027-04-12"},"geometry":{"type":"Polygon","coordinates":[[[-99.2594,50.20373],[-99.25948,50.19645],[-99.27041,50.19639],[-99.27052,50.20373],[-99.2594,50.20373]]]}},{"type":"Feature","properties":{"c":"SV15298","o":"SHAUN SPELLISCY","e":"2027-05-14"},"geometry":{"type":"Polygon","coordinates":[[[-99.3394,50.226],[-99.33949,50.2115],[-99.35104,50.21153],[-99.351,50.21877],[-99.36257,50.21873],[-99.3626,50.22593],[-99.3394,50.226]]]}}]}