{"type":"FeatureCollection","features":[{"type":"Feature","properties":{"c":"100039","o":"5833 Nunavut Ltd. (100%)","e":"2053-11-08"},"geometry":{"type":"Polygon","coordinates":[[[-99.22697,62.50031],[-99.22697,62.49615],[-99.22697,62.49198],[-99.22697,62.48781],[-99.22697,62.48365],[-99.22697,62.47948],[-99.22697,62.47531],[-99.22697,62.47115],[-99.22697,62.46698],[-99.22697,62.46281],[-99.22697,62.45865],[-99.23478,62.45864],[-99.24259,62.45863],[-99.2504,62.45863],[-99.25822,62.45863],[-99.26603,62.45864],[-99.27384,62.45865],[-99.27384,62.46281],[-99.27384,62.46698],[-99.27384,62.47115],[-99.27384,62.47531],[-99.27384,62.47948],[-99.27384,62.48365],[-99.27384,62.48781],[-99.27384,62.49198],[-99.27384,62.49615],[-99.27384,62.50031],[-99.27384,62.50448],[-99.26603,62.50447],[-99.25822,62.50447],[-99.2504,62.50446],[-99.24259,62.50447],[-99.23478,62.50447],[-99.22697,62.50448],[-99.22697,62.50031]]]}},{"type":"Feature","properties":{"c":"100040","o":"5833 Nunavut Ltd. (100%)","e":"2053-11-08"},"geometry":{"type":"Polygon","coordinates":[[[-99.22697,62.45865],[-99.22697,62.46281],[-99.22697,62.46698],[-99.22697,62.47115],[-99.22697,62.47531],[-99.22697,62.47948],[-99.22697,62.48365],[-99.22697,62.48781],[-99.22697,62.49198],[-99.22697,62.49615],[-99.22697,62.50031],[-99.22697,62.50448],[-99.21915,62.50449],[-99.21134,62.50449],[-99.20353,62.5045],[-99.19571,62.5045],[-99.1879,62.5045],[-99.18009,62.50451],[-99.18009,62.50034],[-99.18009,62.49617],[-99.18009,62.49201],[-99.18009,62.48784],[-99.18009,62.48367],[-99.18009,62.47951],[-99.18009,62.47534],[-99.18009,62.47117],[-99.18009,62.46701],[-99.18009,62.46284],[-99.18009,62.45867],[-99.1879,62.45867],[-99.19571,62.45867],[-99.20353,62.45866],[-99.21134,62.45866],[-99.21915,62.45865],[-99.22697,62.45865]]]}},{"type":"Feature","properties":{"c":"101511","o":"5833 Nunavut Ltd. (100%)","e":"2040-10-26"},"geometry":{"type":"Polygon","coordinates":[[[-99.18009,62.45867],[-99.18009,62.46284],[-99.18009,62.46701],[-99.18009,62.47117],[-99.18009,62.47534],[-99.18009,62.47951],[-99.18009,62.48367],[-99.18009,62.48784],[-99.18009,62.49201],[-99.18009,62.49617],[-99.18009,62.50034],[-99.18009,62.50451],[-99.17228,62.50451],[-99.16446,62.50451],[-99.15665,62.50451],[-99.14884,62.50452],[-99.14102,62.50452],[-99.13321,62.50452],[-99.13321,62.50035],[-99.13321,62.49618],[-99.13321,62.49202],[-99.13321,62.48785],[-99.13321,62.48368],[-99.13321,62.47952],[-99.13321,62.47535],[-99.13321,62.47118],[-99.13321,62.46702],[-99.13321,62.46285],[-99.13321,62.45868],[-99.14102,62.45868],[-99.14884,62.45868],[-99.15665,62.45868],[-99.16446,62.45868],[-99.17227,62.45868],[-99.18009,62.45867]]]}},{"type":"Feature","properties":{"c":"101513","o":"5833 Nunavut Ltd. (100%)","e":"2051-10-26"},"geometry":{"type":"Polygon","coordinates":[[[-99.1254,62.50452],[-99.11758,62.50452],[-99.10977,62.50452],[-99.10196,62.50452],[-99.09415,62.50451],[-99.08633,62.50451],[-99.08633,62.50035],[-99.08633,62.49618],[-99.08633,62.49201],[-99.08633,62.48785],[-99.08633,62.48368],[-99.08633,62.47951],[-99.08633,62.47535],[-99.08633,62.47118],[-99.08633,62.46701],[-99.08633,62.46285],[-99.09415,62.46285],[-99.10196,62.46285],[-99.10977,62.46285],[-99.11758,62.46285],[-99.1254,62.46285],[-99.13321,62.46285],[-99.13321,62.46702],[-99.13321,62.47118],[-99.13321,62.47535],[-99.13321,62.47952],[-99.13321,62.48368],[-99.13321,62.48785],[-99.13321,62.49202],[-99.13321,62.49618],[-99.13321,62.50035],[-99.13321,62.50452],[-99.1254,62.50452]]]}},{"type":"Feature","properties":{"c":"101514","o":"5833 Nunavut Ltd. (100%)","e":"2051-10-26"},"geometry":{"type":"Polygon","coordinates":[[[-99.07852,62.50451],[-99.07071,62.50451],[-99.06289,62.5045],[-99.05508,62.5045],[-99.04727,62.5045],[-99.03946,62.50449],[-99.03946,62.50032],[-99.03946,62.49616],[-99.03946,62.49199],[-99.03946,62.48782],[-99.03946,62.48366],[-99.03946,62.47949],[-99.03946,62.47532],[-99.03946,62.47116],[-99.03946,62.46699],[-99.03946,62.46282],[-99.04727,62.46283],[-99.05508,62.46283],[-99.06289,62.46284],[-99.07071,62.46284],[-99.07852,62.46284],[-99.08633,62.46285],[-99.08633,62.46701],[-99.08633,62.47118],[-99.08633,62.47535],[-99.08633,62.47951],[-99.08633,62.48368],[-99.08633,62.48785],[-99.08633,62.49201],[-99.08633,62.49618],[-99.08633,62.50035],[-99.08633,62.50451],[-99.07852,62.50451]]]}},{"type":"Feature","properties":{"c":"102733","o":"5833 Nunavut Ltd. (100%)","e":"2052-11-19"},"geometry":{"type":"Polygon","coordinates":[[[-99.27384,62.45865],[-99.26603,62.45864],[-99.25822,62.45863],[-99.2504,62.45863],[-99.24259,62.45863],[-99.23478,62.45864],[-99.22697,62.45865],[-99.21915,62.45865],[-99.21134,62.45866],[-99.20353,62.45866],[-99.19571,62.45867],[-99.1879,62.45867],[-99.1879,62.4545],[-99.1879,62.45034],[-99.1879,62.44617],[-99.1879,62.442],[-99.1879,62.43784],[-99.1879,62.43367],[-99.1879,62.4295],[-99.1879,62.42534],[-99.1879,62.42117],[-99.19571,62.42117],[-99.20353,62.42116],[-99.21134,62.42116],[-99.21915,62.42115],[-99.22696,62.42115],[-99.23478,62.42114],[-99.24259,62.42113],[-99.2504,62.42113],[-99.25822,62.42113],[-99.26603,62.42114],[-99.27384,62.42115],[-99.27384,62.42531],[-99.27384,62.42948],[-99.27384,62.43365],[-99.27384,62.43781],[-99.27384,62.44198],[-99.27384,62.44615],[-99.27384,62.45031],[-99.27384,62.45448],[-99.27384,62.45865]]]}},{"type":"Feature","properties":{"c":"102734","o":"5833 Nunavut Ltd. (100%)","e":"2038-11-19"},"geometry":{"type":"Polygon","coordinates":[[[-99.1879,62.45867],[-99.18009,62.45867],[-99.17227,62.45868],[-99.16446,62.45868],[-99.15665,62.45868],[-99.14884,62.45868],[-99.14102,62.45868],[-99.13321,62.45868],[-99.13321,62.46285],[-99.1254,62.46285],[-99.11758,62.46285],[-99.10977,62.46285],[-99.10977,62.45868],[-99.10977,62.45452],[-99.10977,62.45035],[-99.10977,62.44618],[-99.10977,62.44202],[-99.10977,62.43785],[-99.10977,62.43368],[-99.10977,62.42952],[-99.10977,62.42535],[-99.10977,62.42118],[-99.11758,62.42118],[-99.1254,62.42118],[-99.13321,62.42118],[-99.14102,62.42118],[-99.14884,62.42118],[-99.15665,62.42118],[-99.16446,62.42118],[-99.17227,62.42117],[-99.18009,62.42117],[-99.1879,62.42117],[-99.1879,62.42534],[-99.1879,62.4295],[-99.1879,62.43367],[-99.1879,62.43784],[-99.1879,62.442],[-99.1879,62.44617],[-99.1879,62.45034],[-99.1879,62.4545],[-99.1879,62.45867]]]}},{"type":"Feature","properties":{"c":"102735","o":"5833 Nunavut Ltd. (100%)","e":"2050-11-19"},"geometry":{"type":"Polygon","coordinates":[[[-99.10977,62.46285],[-99.10196,62.46285],[-99.09415,62.46285],[-99.08633,62.46285],[-99.07852,62.46284],[-99.07071,62.46284],[-99.06289,62.46284],[-99.05508,62.46283],[-99.04727,62.46283],[-99.03946,62.46282],[-99.03946,62.45866],[-99.03946,62.45449],[-99.03946,62.45032],[-99.03946,62.44616],[-99.03946,62.44199],[-99.03946,62.43782],[-99.03946,62.43366],[-99.03945,62.42949],[-99.03945,62.42532],[-99.03945,62.42116],[-99.04727,62.42116],[-99.05508,62.42117],[-99.06289,62.42117],[-99.07071,62.42117],[-99.07852,62.42118],[-99.08633,62.42118],[-99.09415,62.42118],[-99.10196,62.42118],[-99.10977,62.42118],[-99.10977,62.42535],[-99.10977,62.42952],[-99.10977,62.43368],[-99.10977,62.43785],[-99.10977,62.44202],[-99.10977,62.44618],[-99.10977,62.45035],[-99.10977,62.45452],[-99.10977,62.45868],[-99.10977,62.46285]]]}},{"type":"Feature","properties":{"c":"102736","o":"5833 Nunavut Ltd. (100%)","e":"2050-11-20"},"geometry":{"type":"Polygon","coordinates":[[[-99.03946,62.50032],[-99.03164,62.50032],[-99.02383,62.50031],[-99.01602,62.50031],[-99.0082,62.5003],[-99.00039,62.5003],[-98.99258,62.5003],[-98.99258,62.49614],[-98.99258,62.49197],[-98.99258,62.4878],[-98.99258,62.48364],[-98.99258,62.47947],[-98.99258,62.4753],[-98.99258,62.47114],[-98.99258,62.46697],[-98.99258,62.4628],[-99.00039,62.46279],[-99.0082,62.4628],[-99.01602,62.46281],[-99.02383,62.46281],[-99.03164,62.46282],[-99.03946,62.46282],[-99.03946,62.46699],[-99.03946,62.47116],[-99.03946,62.47532],[-99.03946,62.47949],[-99.03946,62.48366],[-99.03946,62.48782],[-99.03946,62.49199],[-99.03946,62.49616],[-99.03946,62.50032]]]}},{"type":"Feature","properties":{"c":"104876","o":"5833 Nunavut Ltd. (100%)","e":"2026-09-02"},"geometry":{"type":"Polygon","coordinates":[[[-99.40666,62.49201],[-99.39885,62.49201],[-99.39885,62.49618],[-99.39104,62.49618],[-99.39104,62.50035],[-99.38323,62.50035],[-99.38323,62.50452],[-99.37541,62.50452],[-99.3676,62.50452],[-99.35979,62.50452],[-99.35979,62.50035],[-99.35979,62.49618],[-99.35979,62.49202],[-99.35979,62.48785],[-99.35979,62.48368],[-99.35979,62.47952],[-99.35979,62.47535],[-99.35979,62.47118],[-99.35979,62.46702],[-99.3676,62.46702],[-99.37541,62.46702],[-99.37541,62.46285],[-99.37541,62.45868],[-99.37541,62.45452],[-99.37541,62.45035],[-99.37541,62.44618],[-99.37541,62.44202],[-99.37541,62.43785],[-99.37541,62.43368],[-99.37541,62.42952],[-99.37541,62.42535],[-99.37541,62.42118],[-99.37541,62.41702],[-99.38322,62.41702],[-99.39104,62.41701],[-99.39885,62.41701],[-99.40666,62.41701],[-99.40666,62.42118],[-99.40666,62.42535],[-99.40666,62.42951],[-99.40666,62.43368],[-99.40666,62.43785],[-99.40666,62.44201],[-99.40666,62.44618],[-99.40666,62.45035],[-99.40666,62.45451],[-99.40666,62.45868],[-99.40666,62.46285],[-99.40666,62.46701],[-99.40666,62.47118],[-99.40666,62.47535],[-99.40666,62.47951],[-99.40666,62.48368],[-99.40666,62.48785],[-99.40666,62.49201]]]}},{"type":"Feature","properties":{"c":"104877","o":"5833 Nunavut Ltd. (100%)","e":"2026-09-02"},"geometry":{"type":"Polygon","coordinates":[[[-99.49261,62.45863],[-99.48479,62.45864],[-99.48479,62.46281],[-99.47698,62.46281],[-99.46917,62.46282],[-99.46917,62.46698],[-99.46135,62.46699],[-99.46135,62.47116],[-99.45354,62.47116],[-99.45354,62.46699],[-99.45354,62.46283],[-99.45354,62.45866],[-99.45354,62.45449],[-99.44573,62.4545],[-99.43792,62.4545],[-99.4301,62.45451],[-99.42229,62.45451],[-99.41448,62.45451],[-99.41448,62.45868],[-99.41448,62.46284],[-99.41448,62.46701],[-99.41448,62.47118],[-99.41448,62.47534],[-99.41448,62.47951],[-99.42229,62.47951],[-99.4301,62.47951],[-99.4301,62.48367],[-99.42229,62.48368],[-99.42229,62.48784],[-99.41448,62.48784],[-99.40666,62.48785],[-99.40666,62.48368],[-99.40666,62.47951],[-99.40666,62.47535],[-99.40666,62.47118],[-99.40666,62.46701],[-99.40666,62.46285],[-99.40666,62.45868],[-99.40666,62.45451],[-99.40666,62.45035],[-99.40666,62.44618],[-99.40666,62.44201],[-99.40666,62.43785],[-99.40666,62.43368],[-99.40666,62.42951],[-99.40666,62.42535],[-99.40666,62.42118],[-99.40666,62.41701],[-99.41448,62.41701],[-99.42229,62.41701],[-99.4301,62.417],[-99.43791,62.417],[-99.44573,62.417],[-99.45354,62.41699],[-99.46135,62.41699],[-99.46917,62.41698],[-99.46917,62.42115],[-99.46917,62.42532],[-99.46917,62.42948],[-99.46917,62.43365],[-99.46917,62.43782],[-99.46917,62.44198],[-99.46917,62.44615],[-99.46917,62.45032],[-99.47698,62.45031],[-99.48479,62.45031],[-99.49261,62.4503],[-99.50042,62.45029],[-99.50042,62.45446],[-99.49261,62.45447],[-99.49261,62.45863]]]}},{"type":"Feature","properties":{"c":"104902","o":"5833 Nunavut Ltd. (100%)","e":"2026-09-02"},"geometry":{"type":"Polygon","coordinates":[[[-99.23478,62.32947],[-99.22696,62.32948],[-99.22696,62.33364],[-99.21915,62.33365],[-99.21134,62.33365],[-99.21134,62.33782],[-99.20352,62.33783],[-99.20352,62.34199],[-99.19571,62.342],[-99.1879,62.342],[-99.1879,62.34617],[-99.18009,62.34617],[-99.18009,62.342],[-99.18009,62.33784],[-99.18009,62.33367],[-99.18009,62.3295],[-99.18009,62.32534],[-99.18009,62.32117],[-99.18009,62.317],[-99.18009,62.31284],[-99.18009,62.30867],[-99.18009,62.3045],[-99.18009,62.30034],[-99.18009,62.29617],[-99.18009,62.292],[-99.18009,62.28784],[-99.18009,62.28367],[-99.1879,62.28367],[-99.19571,62.28366],[-99.20352,62.28366],[-99.21134,62.28365],[-99.21915,62.28365],[-99.22696,62.28364],[-99.23478,62.28364],[-99.23478,62.2878],[-99.23478,62.29197],[-99.23478,62.29614],[-99.23478,62.3003],[-99.23478,62.30447],[-99.23478,62.30864],[-99.23478,62.3128],[-99.23478,62.31697],[-99.23478,62.32114],[-99.23478,62.3253],[-99.23478,62.32947]]]}},{"type":"Feature","properties":{"c":"104904","o":"5833 Nunavut Ltd. (100%)","e":"2026-09-02"},"geometry":{"type":"Polygon","coordinates":[[[-99.18009,62.35034],[-99.17227,62.35034],[-99.16446,62.35034],[-99.16446,62.35451],[-99.15665,62.35451],[-99.15665,62.35868],[-99.14883,62.35868],[-99.14884,62.36285],[-99.14102,62.36285],[-99.13321,62.36285],[-99.13321,62.36701],[-99.1254,62.36701],[-99.1254,62.36285],[-99.11758,62.36285],[-99.10977,62.36285],[-99.10196,62.36285],[-99.09414,62.36284],[-99.08633,62.36284],[-99.07852,62.36284],[-99.07071,62.36284],[-99.07071,62.35867],[-99.07071,62.3545],[-99.07071,62.35034],[-99.07071,62.34617],[-99.07071,62.342],[-99.07071,62.33784],[-99.07071,62.33367],[-99.07852,62.33367],[-99.08633,62.33368],[-99.09414,62.33368],[-99.10196,62.33368],[-99.10196,62.32951],[-99.10977,62.32951],[-99.11758,62.32951],[-99.1254,62.32951],[-99.13321,62.32951],[-99.14102,62.32951],[-99.14883,62.32951],[-99.15665,62.32951],[-99.16446,62.32951],[-99.17227,62.32951],[-99.18009,62.3295],[-99.18009,62.33367],[-99.18009,62.33784],[-99.18009,62.342],[-99.18009,62.34617],[-99.18009,62.35034]]]}},{"type":"Feature","properties":{"c":"104905","o":"5833 Nunavut Ltd. (100%)","e":"2026-09-02"},"geometry":{"type":"Polygon","coordinates":[[[-99.18009,62.3295],[-99.17227,62.32951],[-99.16446,62.32951],[-99.15665,62.32951],[-99.14883,62.32951],[-99.14102,62.32951],[-99.13321,62.32951],[-99.1254,62.32951],[-99.11758,62.32951],[-99.11758,62.32535],[-99.11758,62.32118],[-99.11758,62.31701],[-99.11758,62.31285],[-99.11758,62.30868],[-99.11758,62.30451],[-99.11758,62.30035],[-99.10977,62.30035],[-99.10196,62.30034],[-99.09414,62.30034],[-99.09414,62.29618],[-99.09414,62.29201],[-99.09414,62.28784],[-99.09414,62.28368],[-99.10196,62.28368],[-99.10977,62.28368],[-99.11758,62.28368],[-99.1254,62.28368],[-99.13321,62.28368],[-99.14102,62.28368],[-99.14883,62.28368],[-99.15665,62.28368],[-99.16446,62.28367],[-99.17227,62.28367],[-99.18009,62.28367],[-99.18009,62.28784],[-99.18009,62.292],[-99.18009,62.29617],[-99.18009,62.30034],[-99.18009,62.3045],[-99.18009,62.30867],[-99.18009,62.31284],[-99.18009,62.317],[-99.18009,62.32117],[-99.18009,62.32534],[-99.18009,62.3295]]]}},{"type":"Feature","properties":{"c":"104906","o":"5833 Nunavut Ltd. (100%)","e":"2026-09-02"},"geometry":{"type":"Polygon","coordinates":[[[-99.11758,62.32951],[-99.10977,62.32951],[-99.10196,62.32951],[-99.10196,62.33368],[-99.09414,62.33368],[-99.08633,62.33368],[-99.07852,62.33367],[-99.07071,62.33367],[-99.07071,62.3295],[-99.07071,62.32534],[-99.06289,62.32533],[-99.06289,62.32117],[-99.06289,62.317],[-99.06289,62.31283],[-99.06289,62.30867],[-99.06289,62.3045],[-99.05508,62.3045],[-99.04727,62.30449],[-99.04727,62.30033],[-99.05508,62.30033],[-99.05508,62.29616],[-99.06289,62.29617],[-99.07071,62.29617],[-99.07071,62.292],[-99.07852,62.29201],[-99.08633,62.29201],[-99.08633,62.28784],[-99.09414,62.28784],[-99.09414,62.29201],[-99.09414,62.29618],[-99.09414,62.30034],[-99.10196,62.30034],[-99.10977,62.30035],[-99.11758,62.30035],[-99.11758,62.30451],[-99.11758,62.30868],[-99.11758,62.31285],[-99.11758,62.31701],[-99.11758,62.32118],[-99.11758,62.32535],[-99.11758,62.32951]]]}},{"type":"Feature","properties":{"c":"104908","o":"5833 Nunavut Ltd. (100%)","e":"2026-09-02"},"geometry":{"type":"Polygon","coordinates":[[[-99.53167,62.38782],[-99.52386,62.38781],[-99.51604,62.3878],[-99.50823,62.3878],[-99.50042,62.38779],[-99.4926,62.3878],[-99.48479,62.3878],[-99.47698,62.38781],[-99.46917,62.38782],[-99.46135,62.38782],[-99.45354,62.38783],[-99.44573,62.38783],[-99.43791,62.38783],[-99.43791,62.38367],[-99.44573,62.38366],[-99.45354,62.38366],[-99.46135,62.38365],[-99.46917,62.38365],[-99.47698,62.38364],[-99.48479,62.38364],[-99.4926,62.38363],[-99.50042,62.38362],[-99.50823,62.38363],[-99.51604,62.38364],[-99.52386,62.38364],[-99.53167,62.38365],[-99.53948,62.38365],[-99.54729,62.38366],[-99.5473,62.38783],[-99.53948,62.38782],[-99.53167,62.38782]]]}},{"type":"Feature","properties":{"c":"104909","o":"5833 Nunavut Ltd. (100%)","e":"2026-09-02"},"geometry":{"type":"Polygon","coordinates":[[[-99.53167,62.39615],[-99.53167,62.40032],[-99.53167,62.40448],[-99.52386,62.40448],[-99.51604,62.40447],[-99.51604,62.40864],[-99.51604,62.41281],[-99.51604,62.41697],[-99.51604,62.42114],[-99.51604,62.42531],[-99.51604,62.42947],[-99.50823,62.42947],[-99.50042,62.42946],[-99.49261,62.42947],[-99.48479,62.42947],[-99.47698,62.42948],[-99.46917,62.42948],[-99.46917,62.42532],[-99.46917,62.42115],[-99.46917,62.41698],[-99.46135,62.41699],[-99.45354,62.41699],[-99.44573,62.417],[-99.43791,62.417],[-99.43791,62.41283],[-99.43791,62.40867],[-99.43791,62.4045],[-99.43791,62.40033],[-99.43791,62.39617],[-99.43791,62.392],[-99.43791,62.38783],[-99.44573,62.38783],[-99.45354,62.38783],[-99.46135,62.38782],[-99.46917,62.38782],[-99.47698,62.38781],[-99.48479,62.3878],[-99.4926,62.3878],[-99.50042,62.38779],[-99.50823,62.3878],[-99.51604,62.3878],[-99.52386,62.38781],[-99.53167,62.38782],[-99.53948,62.38782],[-99.53948,62.39199],[-99.5473,62.39199],[-99.5473,62.39616],[-99.53948,62.39615],[-99.53167,62.39615]]]}},{"type":"Feature","properties":{"c":"104910","o":"5833 Nunavut Ltd. (100%)","e":"2026-09-02"},"geometry":{"type":"Polygon","coordinates":[[[-99.5473,62.43783],[-99.53948,62.43782],[-99.53167,62.43782],[-99.53167,62.44198],[-99.52386,62.44198],[-99.52386,62.44615],[-99.51604,62.44614],[-99.51604,62.45031],[-99.50823,62.4503],[-99.50042,62.45029],[-99.49261,62.4503],[-99.48479,62.45031],[-99.47698,62.45031],[-99.46917,62.45032],[-99.46917,62.44615],[-99.46917,62.44198],[-99.46917,62.43782],[-99.46917,62.43365],[-99.46917,62.42948],[-99.47698,62.42948],[-99.48479,62.42947],[-99.49261,62.42947],[-99.50042,62.42946],[-99.50823,62.42947],[-99.51604,62.42947],[-99.52386,62.42948],[-99.53167,62.42948],[-99.53948,62.42949],[-99.5473,62.42949],[-99.55511,62.4295],[-99.55511,62.43366],[-99.5473,62.43366],[-99.5473,62.43783]]]}},{"type":"Feature","properties":{"c":"104893","o":"5833 Nunavut Ltd. (100%)","e":"2026-09-02"},"geometry":{"type":"Polygon","coordinates":[[[-99.03164,62.40448],[-99.02383,62.40448],[-99.01602,62.40447],[-99.01602,62.40864],[-99.0082,62.40863],[-99.00039,62.40863],[-99.00039,62.41279],[-98.99258,62.4128],[-98.99258,62.41697],[-98.98476,62.41697],[-98.97695,62.41698],[-98.97695,62.42115],[-98.96914,62.42115],[-98.96914,62.42532],[-98.96133,62.42532],[-98.95351,62.42533],[-98.9457,62.42533],[-98.93789,62.42534],[-98.93007,62.42534],[-98.92226,62.42534],[-98.91445,62.42535],[-98.90664,62.42535],[-98.89882,62.42535],[-98.89101,62.42535],[-98.89101,62.42118],[-98.89101,62.41702],[-98.89101,62.41285],[-98.89101,62.40868],[-98.89101,62.40452],[-98.89101,62.40035],[-98.89101,62.39618],[-98.89882,62.39618],[-98.90664,62.39618],[-98.91445,62.39618],[-98.92226,62.39618],[-98.93007,62.39617],[-98.93789,62.39617],[-98.9457,62.39617],[-98.95351,62.39616],[-98.96133,62.39616],[-98.96914,62.39615],[-98.97695,62.39615],[-98.98476,62.39614],[-98.99258,62.39613],[-99.00039,62.39613],[-99.0082,62.39613],[-99.01602,62.39614],[-99.02383,62.39615],[-99.03164,62.39615],[-99.03164,62.40032],[-99.03164,62.40448]]]}},{"type":"Feature","properties":{"c":"104898","o":"5833 Nunavut Ltd. (100%)","e":"2026-09-02"},"geometry":{"type":"Polygon","coordinates":[[[-99.30509,62.3045],[-99.29728,62.30449],[-99.29728,62.30866],[-99.28947,62.30865],[-99.28165,62.30865],[-99.28165,62.31281],[-99.27384,62.31281],[-99.27384,62.31698],[-99.26603,62.31697],[-99.26603,62.32114],[-99.25821,62.32113],[-99.2504,62.32112],[-99.2504,62.32529],[-99.24259,62.3253],[-99.23478,62.3253],[-99.23478,62.32114],[-99.23478,62.31697],[-99.23478,62.3128],[-99.23478,62.30864],[-99.23478,62.30447],[-99.23478,62.3003],[-99.23478,62.29614],[-99.23478,62.29197],[-99.23478,62.2878],[-99.23478,62.28364],[-99.23478,62.27947],[-99.23478,62.2753],[-99.23478,62.27114],[-99.23478,62.26697],[-99.23478,62.2628],[-99.23478,62.25864],[-99.23478,62.25447],[-99.23478,62.2503],[-99.24259,62.2503],[-99.2504,62.25029],[-99.25821,62.2503],[-99.26603,62.2503],[-99.26603,62.25447],[-99.26603,62.25864],[-99.26603,62.2628],[-99.26603,62.26697],[-99.26603,62.27114],[-99.26603,62.2753],[-99.26603,62.27947],[-99.27384,62.27948],[-99.27384,62.28364],[-99.28165,62.28365],[-99.28165,62.28781],[-99.28165,62.29198],[-99.28947,62.29199],[-99.29728,62.29199],[-99.29728,62.29616],[-99.30509,62.29616],[-99.31291,62.29617],[-99.31291,62.30033],[-99.30509,62.30033],[-99.30509,62.3045]]]}},{"type":"Feature","properties":{"c":"104864","o":"5833 Nunavut Ltd. (100%)","e":"2026-09-02"},"geometry":{"type":"Polygon","coordinates":[[[-99.35979,62.50452],[-99.35197,62.50452],[-99.34416,62.50451],[-99.33635,62.50451],[-99.32853,62.50451],[-99.32072,62.50451],[-99.31291,62.5045],[-99.3051,62.5045],[-99.29728,62.5045],[-99.28947,62.50449],[-99.28166,62.50449],[-99.27384,62.50448],[-99.27384,62.50031],[-99.27384,62.49615],[-99.27384,62.49198],[-99.27384,62.48781],[-99.27384,62.48365],[-99.27384,62.47948],[-99.27384,62.47531],[-99.27384,62.47115],[-99.27384,62.46698],[-99.28166,62.46699],[-99.28947,62.46699],[-99.29728,62.46699],[-99.30509,62.467],[-99.31291,62.467],[-99.32072,62.46701],[-99.32853,62.46701],[-99.33635,62.46701],[-99.34416,62.46701],[-99.35197,62.46701],[-99.35979,62.46702],[-99.35979,62.47118],[-99.35979,62.47535],[-99.35979,62.47952],[-99.35979,62.48368],[-99.35979,62.48785],[-99.35979,62.49202],[-99.35979,62.49618],[-99.35979,62.50035],[-99.35979,62.50452]]]}},{"type":"Feature","properties":{"c":"104865","o":"5833 Nunavut Ltd. (100%)","e":"2026-09-02"},"geometry":{"type":"Polygon","coordinates":[[[-99.31291,62.467],[-99.30509,62.467],[-99.29728,62.46699],[-99.28947,62.46699],[-99.28166,62.46699],[-99.27384,62.46698],[-99.27384,62.46281],[-99.27384,62.45865],[-99.27384,62.45448],[-99.27384,62.45031],[-99.27384,62.44615],[-99.27384,62.44198],[-99.27384,62.43781],[-99.27384,62.43365],[-99.27384,62.42948],[-99.27384,62.42531],[-99.27384,62.42115],[-99.26603,62.42114],[-99.25822,62.42113],[-99.2504,62.42113],[-99.24259,62.42113],[-99.23478,62.42114],[-99.22696,62.42115],[-99.21915,62.42115],[-99.21915,62.41698],[-99.22696,62.41698],[-99.23478,62.41697],[-99.23478,62.41281],[-99.24259,62.4128],[-99.24259,62.40863],[-99.2504,62.40863],[-99.25822,62.40863],[-99.25822,62.40447],[-99.26603,62.40447],[-99.27384,62.40448],[-99.27384,62.40031],[-99.28165,62.40032],[-99.28947,62.40032],[-99.29728,62.40033],[-99.30509,62.40033],[-99.31291,62.40033],[-99.31291,62.4045],[-99.31291,62.40867],[-99.31291,62.41283],[-99.31291,62.417],[-99.31291,62.42117],[-99.31291,62.42534],[-99.31291,62.4295],[-99.31291,62.43367],[-99.31291,62.43784],[-99.31291,62.442],[-99.31291,62.44617],[-99.31291,62.45034],[-99.31291,62.4545],[-99.31291,62.45867],[-99.31291,62.46284],[-99.31291,62.467]]]}},{"type":"Feature","properties":{"c":"104866","o":"5833 Nunavut Ltd. (100%)","e":"2026-09-02"},"geometry":{"type":"Polygon","coordinates":[[[-99.34416,62.46701],[-99.33635,62.46701],[-99.32853,62.46701],[-99.32072,62.46701],[-99.31291,62.467],[-99.31291,62.46284],[-99.31291,62.45867],[-99.31291,62.4545],[-99.31291,62.45034],[-99.31291,62.44617],[-99.31291,62.442],[-99.31291,62.43784],[-99.31291,62.43367],[-99.31291,62.4295],[-99.31291,62.42534],[-99.31291,62.42117],[-99.31291,62.417],[-99.31291,62.41283],[-99.31291,62.40867],[-99.31291,62.4045],[-99.31291,62.40033],[-99.30509,62.40033],[-99.29728,62.40033],[-99.28947,62.40032],[-99.28947,62.39616],[-99.29728,62.39616],[-99.29728,62.39199],[-99.30509,62.392],[-99.31291,62.392],[-99.31291,62.38783],[-99.32072,62.38784],[-99.32853,62.38784],[-99.32853,62.38367],[-99.33635,62.38368],[-99.34416,62.38368],[-99.34416,62.38784],[-99.34416,62.39201],[-99.34416,62.39618],[-99.34416,62.40035],[-99.34416,62.40451],[-99.34416,62.40868],[-99.34416,62.41285],[-99.34416,62.41701],[-99.34416,62.42118],[-99.34416,62.42535],[-99.34416,62.42951],[-99.34416,62.43368],[-99.34416,62.43785],[-99.34416,62.44201],[-99.34416,62.44618],[-99.34416,62.45035],[-99.34416,62.45451],[-99.34416,62.45868],[-99.34416,62.46285],[-99.34416,62.46701]]]}},{"type":"Feature","properties":{"c":"104666","o":"Trent Potts (100%)","e":"2026-06-06"},"geometry":{"type":"Polygon","coordinates":[[[-99.45354,62.47949],[-99.44573,62.4795],[-99.43792,62.4795],[-99.4301,62.47951],[-99.42229,62.47951],[-99.41448,62.47951],[-99.41448,62.47534],[-99.41448,62.47118],[-99.41448,62.46701],[-99.41448,62.46284],[-99.41448,62.45868],[-99.41448,62.45451],[-99.42229,62.45451],[-99.4301,62.45451],[-99.43792,62.4545],[-99.44573,62.4545],[-99.45354,62.45449],[-99.45354,62.45866],[-99.45354,62.46283],[-99.45354,62.46699],[-99.45354,62.47116],[-99.45354,62.47533],[-99.45354,62.47949]]]}},{"type":"Feature","properties":{"c":"104894","o":"5833 Nunavut Ltd. (100%)","e":"2026-09-02"},"geometry":{"type":"Polygon","coordinates":[[[-99.00039,62.39613],[-98.99258,62.39613],[-98.98476,62.39614],[-98.97695,62.39615],[-98.96914,62.39615],[-98.96133,62.39616],[-98.95351,62.39616],[-98.9457,62.39617],[-98.93789,62.39617],[-98.93007,62.39617],[-98.92226,62.39618],[-98.91445,62.39618],[-98.90664,62.39618],[-98.89882,62.39618],[-98.89101,62.39618],[-98.89101,62.39202],[-98.89101,62.38785],[-98.89101,62.38368],[-98.89101,62.37952],[-98.89101,62.37535],[-98.89101,62.37118],[-98.89101,62.36701],[-98.89882,62.36701],[-98.90664,62.36701],[-98.91445,62.36701],[-98.92226,62.36701],[-98.93007,62.367],[-98.93789,62.367],[-98.9457,62.367],[-98.95351,62.36699],[-98.96133,62.36699],[-98.96914,62.36698],[-98.97695,62.36698],[-98.98476,62.36697],[-98.99258,62.36697],[-99.00039,62.36696],[-99.00039,62.37113],[-99.00039,62.37529],[-99.00039,62.37946],[-99.00039,62.38363],[-99.00039,62.38779],[-99.00039,62.39196],[-99.00039,62.39613]]]}},{"type":"Feature","properties":{"c":"104895","o":"5833 Nunavut Ltd. (100%)","e":"2026-09-02"},"geometry":{"type":"Polygon","coordinates":[[[-99.3676,62.28368],[-99.35978,62.28368],[-99.35197,62.28368],[-99.35197,62.28784],[-99.34416,62.28784],[-99.34416,62.29201],[-99.33634,62.29201],[-99.32853,62.29201],[-99.32853,62.29617],[-99.32072,62.29617],[-99.31291,62.29617],[-99.30509,62.29616],[-99.29728,62.29616],[-99.29728,62.29199],[-99.28947,62.29199],[-99.28165,62.29198],[-99.28165,62.28781],[-99.28165,62.28365],[-99.27384,62.28364],[-99.27384,62.27948],[-99.26603,62.27947],[-99.26603,62.2753],[-99.26603,62.27114],[-99.26603,62.26697],[-99.26603,62.2628],[-99.26603,62.25864],[-99.27384,62.25864],[-99.28165,62.25865],[-99.28947,62.25865],[-99.29728,62.25866],[-99.29728,62.25449],[-99.29728,62.25032],[-99.30509,62.25033],[-99.3129,62.25033],[-99.32072,62.25033],[-99.32853,62.25034],[-99.32853,62.2545],[-99.33634,62.25451],[-99.33634,62.25867],[-99.34416,62.25868],[-99.34416,62.26284],[-99.35197,62.26284],[-99.35197,62.26701],[-99.35978,62.26701],[-99.35978,62.27118],[-99.35978,62.27535],[-99.3676,62.27535],[-99.3676,62.27951],[-99.3676,62.28368]]]}},{"type":"Feature","properties":{"c":"104896","o":"5833 Nunavut Ltd. (100%)","e":"2026-09-02"},"geometry":{"type":"Polygon","coordinates":[[[-99.1254,62.37118],[-99.11758,62.37118],[-99.10977,62.37118],[-99.10977,62.37535],[-99.10196,62.37535],[-99.10196,62.37951],[-99.09414,62.37951],[-99.08633,62.37951],[-99.08633,62.38368],[-99.07852,62.38367],[-99.07071,62.38367],[-99.07071,62.38784],[-99.06289,62.38784],[-99.06289,62.392],[-99.05508,62.392],[-99.05508,62.39616],[-99.04727,62.39616],[-99.03945,62.39616],[-99.03945,62.40032],[-99.03164,62.40032],[-99.03164,62.39615],[-99.02383,62.39615],[-99.01602,62.39614],[-99.0082,62.39613],[-99.00039,62.39613],[-99.00039,62.39196],[-99.00039,62.38779],[-99.00039,62.38363],[-99.00039,62.37946],[-99.00039,62.37529],[-99.00039,62.37113],[-99.00039,62.36696],[-99.00039,62.36279],[-99.0082,62.3628],[-99.01602,62.36281],[-99.02383,62.36281],[-99.03164,62.36282],[-99.03945,62.36282],[-99.04727,62.36283],[-99.05508,62.36283],[-99.06289,62.36283],[-99.07071,62.36284],[-99.07852,62.36284],[-99.08633,62.36284],[-99.09414,62.36284],[-99.10196,62.36285],[-99.10977,62.36285],[-99.11758,62.36285],[-99.1254,62.36285],[-99.1254,62.36701],[-99.1254,62.37118]]]}},{"type":"Feature","properties":{"c":"104897","o":"5833 Nunavut Ltd. (100%)","e":"2026-09-02"},"geometry":{"type":"Polygon","coordinates":[[[-99.0082,62.3628],[-99.00039,62.36279],[-99.00039,62.36696],[-98.99258,62.36697],[-98.98476,62.36697],[-98.97695,62.36698],[-98.96914,62.36698],[-98.96133,62.36699],[-98.95351,62.36699],[-98.9457,62.367],[-98.93789,62.367],[-98.93007,62.367],[-98.92226,62.36701],[-98.91445,62.36701],[-98.90664,62.36701],[-98.89882,62.36701],[-98.89101,62.36701],[-98.89101,62.36285],[-98.89101,62.35868],[-98.89882,62.35868],[-98.89882,62.35451],[-98.90664,62.35451],[-98.91445,62.35451],[-98.91445,62.35034],[-98.92226,62.35034],[-98.92226,62.34617],[-98.93007,62.34617],[-98.93789,62.34617],[-98.93789,62.342],[-98.9457,62.342],[-98.9457,62.33783],[-98.95351,62.33783],[-98.95351,62.33366],[-98.96133,62.33365],[-98.96914,62.33365],[-98.96914,62.32948],[-98.97695,62.32948],[-98.97695,62.32531],[-98.98476,62.3253],[-98.99258,62.3253],[-98.99258,62.32113],[-99.00039,62.32112],[-99.00039,62.32529],[-99.0082,62.3253],[-99.0082,62.32946],[-99.0082,62.33363],[-99.0082,62.3378],[-99.0082,62.34197],[-99.0082,62.34613],[-99.0082,62.3503],[-99.0082,62.35447],[-99.0082,62.35863],[-99.0082,62.3628]]]}},{"type":"Feature","properties":{"c":"104899","o":"5833 Nunavut Ltd. (100%)","e":"2026-09-02"},"geometry":{"type":"Polygon","coordinates":[[[-99.07071,62.36284],[-99.06289,62.36283],[-99.05508,62.36283],[-99.04727,62.36283],[-99.03945,62.36282],[-99.03164,62.36282],[-99.02383,62.36281],[-99.01602,62.36281],[-99.0082,62.3628],[-99.0082,62.35863],[-99.0082,62.35447],[-99.0082,62.3503],[-99.0082,62.34613],[-99.0082,62.34197],[-99.0082,62.3378],[-99.0082,62.33363],[-99.0082,62.32946],[-99.0082,62.3253],[-99.00039,62.32529],[-99.00039,62.32112],[-99.0082,62.32113],[-99.0082,62.31696],[-99.01602,62.31697],[-99.01602,62.3128],[-99.02383,62.31281],[-99.03164,62.31282],[-99.03164,62.30865],[-99.03945,62.30865],[-99.03945,62.30449],[-99.04727,62.30449],[-99.05508,62.3045],[-99.06289,62.3045],[-99.06289,62.30867],[-99.06289,62.31283],[-99.06289,62.317],[-99.06289,62.32117],[-99.06289,62.32533],[-99.07071,62.32534],[-99.07071,62.3295],[-99.07071,62.33367],[-99.07071,62.33784],[-99.07071,62.342],[-99.07071,62.34617],[-99.07071,62.35034],[-99.07071,62.3545],[-99.07071,62.35867],[-99.07071,62.36284]]]}},{"type":"Feature","properties":{"c":"104900","o":"5833 Nunavut Ltd. (100%)","e":"2026-09-02"},"geometry":{"type":"Polygon","coordinates":[[[-99.23478,62.28364],[-99.22696,62.28364],[-99.21915,62.28365],[-99.21134,62.28365],[-99.20352,62.28366],[-99.19571,62.28366],[-99.1879,62.28367],[-99.18009,62.28367],[-99.17227,62.28367],[-99.16446,62.28367],[-99.15665,62.28368],[-99.14883,62.28368],[-99.14102,62.28368],[-99.13321,62.28368],[-99.1254,62.28368],[-99.11758,62.28368],[-99.10977,62.28368],[-99.10977,62.27951],[-99.11758,62.27951],[-99.11758,62.27535],[-99.1254,62.27535],[-99.13321,62.27535],[-99.13321,62.27118],[-99.14102,62.27118],[-99.14102,62.26701],[-99.14883,62.26701],[-99.15665,62.26701],[-99.15665,62.26284],[-99.16446,62.26284],[-99.16446,62.25867],[-99.17227,62.25867],[-99.18009,62.25867],[-99.18009,62.2545],[-99.1879,62.2545],[-99.1879,62.25033],[-99.19571,62.25033],[-99.20352,62.25032],[-99.21134,62.25032],[-99.21915,62.25031],[-99.22696,62.25031],[-99.23478,62.2503],[-99.23478,62.25447],[-99.23478,62.25864],[-99.23478,62.2628],[-99.23478,62.26697],[-99.23478,62.27114],[-99.23478,62.2753],[-99.23478,62.27947],[-99.23478,62.28364]]]}},{"type":"Feature","properties":{"c":"104868","o":"5833 Nunavut Ltd. (100%)","e":"2026-09-02"},"geometry":{"type":"Polygon","coordinates":[[[-99.37541,62.46702],[-99.3676,62.46702],[-99.35979,62.46702],[-99.35197,62.46701],[-99.34416,62.46701],[-99.34416,62.46285],[-99.34416,62.45868],[-99.34416,62.45451],[-99.34416,62.45035],[-99.34416,62.44618],[-99.34416,62.44201],[-99.34416,62.43785],[-99.34416,62.43368],[-99.34416,62.42951],[-99.34416,62.42535],[-99.34416,62.42118],[-99.34416,62.41701],[-99.34416,62.41285],[-99.34416,62.40868],[-99.34416,62.40451],[-99.34416,62.40035],[-99.34416,62.39618],[-99.34416,62.39201],[-99.34416,62.38784],[-99.34416,62.38368],[-99.34416,62.37951],[-99.35197,62.37951],[-99.35197,62.37535],[-99.35978,62.37535],[-99.3676,62.37535],[-99.3676,62.37118],[-99.37541,62.37118],[-99.37541,62.37535],[-99.37541,62.37951],[-99.37541,62.38368],[-99.37541,62.38785],[-99.37541,62.39201],[-99.37541,62.39618],[-99.37541,62.40035],[-99.37541,62.40452],[-99.37541,62.40868],[-99.37541,62.41285],[-99.37541,62.41702],[-99.37541,62.42118],[-99.37541,62.42535],[-99.37541,62.42952],[-99.37541,62.43368],[-99.37541,62.43785],[-99.37541,62.44202],[-99.37541,62.44618],[-99.37541,62.45035],[-99.37541,62.45452],[-99.37541,62.45868],[-99.37541,62.46285],[-99.37541,62.46702]]]}},{"type":"Feature","properties":{"c":"104869","o":"5833 Nunavut Ltd. (100%)","e":"2026-09-02"},"geometry":{"type":"Polygon","coordinates":[[[-99.43791,62.417],[-99.4301,62.417],[-99.42229,62.41701],[-99.41448,62.41701],[-99.40666,62.41701],[-99.39885,62.41701],[-99.39104,62.41701],[-99.38322,62.41702],[-99.37541,62.41702],[-99.37541,62.41285],[-99.37541,62.40868],[-99.37541,62.40452],[-99.37541,62.40035],[-99.37541,62.39618],[-99.37541,62.39201],[-99.37541,62.38785],[-99.37541,62.38368],[-99.37541,62.37951],[-99.37541,62.37535],[-99.37541,62.37118],[-99.37541,62.36701],[-99.38322,62.36701],[-99.39104,62.36701],[-99.39885,62.36701],[-99.40666,62.36701],[-99.41447,62.36701],[-99.42229,62.36701],[-99.4301,62.367],[-99.43791,62.367],[-99.43791,62.37117],[-99.43791,62.37533],[-99.43791,62.3795],[-99.43791,62.38367],[-99.43791,62.38783],[-99.43791,62.392],[-99.43791,62.39617],[-99.43791,62.40033],[-99.43791,62.4045],[-99.43791,62.40867],[-99.43791,62.41283],[-99.43791,62.417]]]}},{"type":"Feature","properties":{"c":"104871","o":"5833 Nunavut Ltd. (100%)","e":"2026-09-02"},"geometry":{"type":"Polygon","coordinates":[[[-99.58636,62.35034],[-99.57855,62.35034],[-99.57073,62.35034],[-99.56292,62.35033],[-99.55511,62.35033],[-99.54729,62.35032],[-99.53948,62.35032],[-99.53167,62.35032],[-99.52386,62.35031],[-99.51604,62.3503],[-99.50823,62.3503],[-99.50042,62.35029],[-99.4926,62.3503],[-99.48479,62.3503],[-99.47698,62.35031],[-99.46916,62.35032],[-99.46916,62.35448],[-99.46916,62.35865],[-99.46917,62.36282],[-99.46917,62.36698],[-99.46135,62.36699],[-99.45354,62.36699],[-99.44573,62.367],[-99.43791,62.367],[-99.4301,62.367],[-99.42229,62.36701],[-99.41447,62.36701],[-99.40666,62.36701],[-99.39885,62.36701],[-99.39104,62.36701],[-99.39104,62.36285],[-99.39885,62.36285],[-99.40666,62.36284],[-99.40666,62.35868],[-99.41447,62.35868],[-99.41447,62.35451],[-99.42229,62.35451],[-99.4301,62.3545],[-99.4301,62.35034],[-99.43791,62.35033],[-99.44573,62.35033],[-99.44573,62.34616],[-99.45354,62.34616],[-99.46135,62.34615],[-99.46135,62.34199],[-99.46916,62.34198],[-99.46916,62.33781],[-99.47698,62.33781],[-99.48479,62.3378],[-99.48479,62.33364],[-99.4926,62.33363],[-99.50042,62.33362],[-99.50042,62.32946],[-99.50823,62.32946],[-99.50823,62.3253],[-99.51604,62.3253],[-99.52385,62.32531],[-99.52385,62.32114],[-99.53167,62.32115],[-99.53948,62.32115],[-99.53948,62.32532],[-99.54729,62.32532],[-99.54729,62.32949],[-99.55511,62.32949],[-99.55511,62.33366],[-99.56292,62.33367],[-99.56292,62.33783],[-99.57073,62.33784],[-99.57073,62.342],[-99.57855,62.342],[-99.57855,62.34617],[-99.58636,62.34617],[-99.58636,62.35034]]]}},{"type":"Feature","properties":{"c":"104873","o":"5833 Nunavut Ltd. (100%)","e":"2026-09-02"},"geometry":{"type":"Polygon","coordinates":[[[-99.59417,62.36701],[-99.58636,62.36701],[-99.57855,62.36701],[-99.57073,62.367],[-99.56292,62.367],[-99.55511,62.367],[-99.54729,62.36699],[-99.53948,62.36699],[-99.53167,62.36698],[-99.52386,62.36698],[-99.51604,62.36697],[-99.50823,62.36696],[-99.50042,62.36696],[-99.50042,62.37112],[-99.50042,62.37529],[-99.50042,62.37946],[-99.50042,62.38362],[-99.4926,62.38363],[-99.48479,62.38364],[-99.47698,62.38364],[-99.46917,62.38365],[-99.46135,62.38365],[-99.45354,62.38366],[-99.44573,62.38366],[-99.43791,62.38367],[-99.43791,62.3795],[-99.43791,62.37533],[-99.43791,62.37117],[-99.43791,62.367],[-99.44573,62.367],[-99.45354,62.36699],[-99.46135,62.36699],[-99.46917,62.36698],[-99.46917,62.36282],[-99.46916,62.35865],[-99.46916,62.35448],[-99.46916,62.35032],[-99.47698,62.35031],[-99.48479,62.3503],[-99.4926,62.3503],[-99.50042,62.35029],[-99.50823,62.3503],[-99.51604,62.3503],[-99.52386,62.35031],[-99.53167,62.35032],[-99.53948,62.35032],[-99.54729,62.35032],[-99.55511,62.35033],[-99.56292,62.35033],[-99.57073,62.35034],[-99.57855,62.35034],[-99.58636,62.35034],[-99.59417,62.35034],[-99.59417,62.35451],[-99.59417,62.35868],[-99.59417,62.36284],[-99.59417,62.36701]]]}},{"type":"Feature","properties":{"c":"105364","o":"ATHA Energy (NU) Corp. (100%)","e":"2027-09-08"},"geometry":{"type":"Polygon","coordinates":[[[-99.43791,62.33367],[-99.4301,62.33367],[-99.42229,62.33367],[-99.41447,62.33367],[-99.40666,62.33368],[-99.39885,62.33368],[-99.39103,62.33368],[-99.38322,62.33368],[-99.37541,62.33368],[-99.3676,62.33368],[-99.35978,62.33368],[-99.35197,62.33368],[-99.34416,62.33368],[-99.34416,62.32951],[-99.34416,62.32534],[-99.34416,62.32118],[-99.34416,62.31701],[-99.34416,62.31284],[-99.34416,62.30868],[-99.34416,62.30451],[-99.34416,62.30034],[-99.35197,62.30034],[-99.35978,62.30035],[-99.3676,62.30035],[-99.37541,62.30035],[-99.38322,62.30035],[-99.39103,62.30035],[-99.39885,62.30034],[-99.40666,62.30034],[-99.41447,62.30034],[-99.42229,62.30034],[-99.4301,62.30034],[-99.43791,62.30033],[-99.43791,62.3045],[-99.43791,62.30867],[-99.43791,62.31283],[-99.43791,62.317],[-99.43791,62.32117],[-99.43791,62.32533],[-99.43791,62.3295],[-99.43791,62.33367]]]}},{"type":"Feature","properties":{"c":"105365","o":"ATHA Energy (NU) Corp. (100%)","e":"2027-09-08"},"geometry":{"type":"Polygon","coordinates":[[[-99.53167,62.32115],[-99.52385,62.32114],[-99.52385,62.32531],[-99.51604,62.3253],[-99.50823,62.3253],[-99.50823,62.32946],[-99.50042,62.32946],[-99.50042,62.33362],[-99.4926,62.33363],[-99.48479,62.33364],[-99.47698,62.33364],[-99.46916,62.33365],[-99.46135,62.33365],[-99.45354,62.33366],[-99.44573,62.33366],[-99.43791,62.33367],[-99.43791,62.3295],[-99.43791,62.32533],[-99.43791,62.32117],[-99.43791,62.317],[-99.43791,62.31283],[-99.43791,62.30867],[-99.43791,62.3045],[-99.43791,62.30033],[-99.44573,62.30033],[-99.45354,62.30032],[-99.46135,62.30032],[-99.46916,62.30031],[-99.47698,62.30031],[-99.48479,62.3003],[-99.4926,62.3003],[-99.50042,62.30029],[-99.50823,62.3003],[-99.51604,62.3003],[-99.52385,62.30031],[-99.53167,62.30031],[-99.53167,62.30448],[-99.53167,62.30865],[-99.53167,62.31281],[-99.53167,62.31698],[-99.53167,62.32115]]]}},{"type":"Feature","properties":{"c":"105373","o":"ATHA Energy (NU) Corp. (100%)","e":"2027-09-08"},"geometry":{"type":"Polygon","coordinates":[[[-99.35197,62.37951],[-99.34416,62.37951],[-99.34416,62.38368],[-99.33635,62.38368],[-99.32853,62.38367],[-99.32853,62.38784],[-99.32072,62.38784],[-99.31291,62.38783],[-99.31291,62.38367],[-99.31291,62.3795],[-99.31291,62.37533],[-99.31291,62.37117],[-99.31291,62.367],[-99.31291,62.36283],[-99.31291,62.35867],[-99.32072,62.35867],[-99.32853,62.35867],[-99.33634,62.35868],[-99.34416,62.35868],[-99.35197,62.35868],[-99.35197,62.36285],[-99.35197,62.36701],[-99.35197,62.37118],[-99.35197,62.37535],[-99.35197,62.37951]]]}},{"type":"Feature","properties":{"c":"105370","o":"ATHA Energy (NU) Corp. (100%)","e":"2027-09-08"},"geometry":{"type":"Polygon","coordinates":[[[-99.46916,62.33781],[-99.46916,62.34198],[-99.46135,62.34199],[-99.46135,62.34615],[-99.45354,62.34616],[-99.44573,62.34616],[-99.44573,62.35033],[-99.43791,62.35033],[-99.4301,62.35034],[-99.4301,62.3545],[-99.42229,62.35451],[-99.41447,62.35451],[-99.41447,62.35868],[-99.40666,62.35868],[-99.40666,62.36284],[-99.39885,62.36285],[-99.39104,62.36285],[-99.38322,62.36285],[-99.37541,62.36285],[-99.3676,62.36285],[-99.3676,62.35868],[-99.3676,62.35451],[-99.3676,62.35035],[-99.3676,62.34618],[-99.3676,62.34201],[-99.3676,62.33785],[-99.3676,62.33368],[-99.37541,62.33368],[-99.38322,62.33368],[-99.39103,62.33368],[-99.39885,62.33368],[-99.40666,62.33368],[-99.41447,62.33367],[-99.42229,62.33367],[-99.4301,62.33367],[-99.43791,62.33367],[-99.44573,62.33366],[-99.45354,62.33366],[-99.46135,62.33365],[-99.46916,62.33365],[-99.47698,62.33364],[-99.48479,62.33364],[-99.48479,62.3378],[-99.47698,62.33781],[-99.46916,62.33781]]]}},{"type":"Feature","properties":{"c":"105371","o":"ATHA Energy (NU) Corp. (100%)","e":"2027-09-08"},"geometry":{"type":"Polygon","coordinates":[[[-99.3676,62.35868],[-99.35978,62.35868],[-99.35197,62.35868],[-99.34416,62.35868],[-99.33634,62.35868],[-99.32853,62.35867],[-99.32072,62.35867],[-99.31291,62.35867],[-99.30509,62.35866],[-99.29728,62.35866],[-99.28947,62.35865],[-99.28165,62.35865],[-99.27384,62.35864],[-99.26603,62.35864],[-99.25822,62.35863],[-99.2504,62.35862],[-99.2504,62.35446],[-99.2504,62.35029],[-99.2504,62.34612],[-99.2504,62.34196],[-99.2504,62.33779],[-99.2504,62.33362],[-99.25821,62.33363],[-99.26603,62.33364],[-99.27384,62.33364],[-99.28165,62.33365],[-99.28947,62.33365],[-99.29728,62.33366],[-99.30509,62.33366],[-99.31291,62.33367],[-99.32072,62.33367],[-99.32853,62.33367],[-99.33634,62.33367],[-99.34416,62.33368],[-99.35197,62.33368],[-99.35978,62.33368],[-99.3676,62.33368],[-99.3676,62.33785],[-99.3676,62.34201],[-99.3676,62.34618],[-99.3676,62.35035],[-99.3676,62.35451],[-99.3676,62.35868]]]}},{"type":"Feature","properties":{"c":"105372","o":"ATHA Energy (NU) Corp. (100%)","e":"2027-09-08"},"geometry":{"type":"Polygon","coordinates":[[[-99.31291,62.38783],[-99.30509,62.38783],[-99.29728,62.38783],[-99.28947,62.38782],[-99.28165,62.38782],[-99.27384,62.38781],[-99.26603,62.38781],[-99.25822,62.3878],[-99.2504,62.38779],[-99.2504,62.38363],[-99.2504,62.37946],[-99.2504,62.37529],[-99.2504,62.37113],[-99.2504,62.36696],[-99.2504,62.36279],[-99.2504,62.35862],[-99.25822,62.35863],[-99.26603,62.35864],[-99.27384,62.35864],[-99.28165,62.35865],[-99.28947,62.35865],[-99.29728,62.35866],[-99.30509,62.35866],[-99.31291,62.35867],[-99.31291,62.36283],[-99.31291,62.367],[-99.31291,62.37117],[-99.31291,62.37533],[-99.31291,62.3795],[-99.31291,62.38367],[-99.31291,62.38783]]]}},{"type":"Feature","properties":{"c":"105374","o":"ATHA Energy (NU) Corp. (100%)","e":"2027-09-08"},"geometry":{"type":"Polygon","coordinates":[[[-99.37541,62.36701],[-99.37541,62.37118],[-99.3676,62.37118],[-99.3676,62.37535],[-99.35978,62.37535],[-99.35197,62.37535],[-99.35197,62.37118],[-99.35197,62.36701],[-99.35197,62.36285],[-99.35197,62.35868],[-99.35978,62.35868],[-99.3676,62.35868],[-99.3676,62.36285],[-99.37541,62.36285],[-99.38322,62.36285],[-99.39104,62.36285],[-99.39104,62.36701],[-99.38322,62.36701],[-99.37541,62.36701]]]}},{"type":"Feature","properties":{"c":"105582","o":"ATHA Energy (NU) Corp. (100%)","e":"2028-08-10"},"geometry":{"type":"Polygon","coordinates":[[[-99.40666,62.53368],[-99.39885,62.53368],[-99.39104,62.53368],[-99.38323,62.53368],[-99.37541,62.53368],[-99.3676,62.53368],[-99.35979,62.53368],[-99.35197,62.53368],[-99.34416,62.53368],[-99.34416,62.52951],[-99.33635,62.52951],[-99.32854,62.52951],[-99.32853,62.52534],[-99.32853,62.52118],[-99.32853,62.51701],[-99.32853,62.51284],[-99.32853,62.50868],[-99.32853,62.50451],[-99.33635,62.50451],[-99.34416,62.50451],[-99.35197,62.50452],[-99.35979,62.50452],[-99.3676,62.50452],[-99.37541,62.50452],[-99.38323,62.50452],[-99.38323,62.50035],[-99.39104,62.50035],[-99.39104,62.49618],[-99.39885,62.49618],[-99.39885,62.49201],[-99.40666,62.49201],[-99.40666,62.49618],[-99.40666,62.50035],[-99.40666,62.50451],[-99.40666,62.50868],[-99.40666,62.51285],[-99.40666,62.51701],[-99.40666,62.52118],[-99.40666,62.52535],[-99.40666,62.52951],[-99.40666,62.53368]]]}},{"type":"Feature","properties":{"c":"105587","o":"ATHA Energy (NU) Corp. (100%)","e":"2028-08-10"},"geometry":{"type":"Polygon","coordinates":[[[-99.51605,62.49197],[-99.50823,62.49197],[-99.50823,62.49613],[-99.50042,62.49613],[-99.50042,62.50029],[-99.49261,62.5003],[-99.48479,62.50031],[-99.47698,62.50031],[-99.46917,62.50032],[-99.46135,62.50032],[-99.45354,62.50033],[-99.44573,62.50033],[-99.43792,62.50034],[-99.4301,62.50034],[-99.42229,62.50034],[-99.41448,62.50034],[-99.40666,62.50035],[-99.40666,62.49618],[-99.40666,62.49201],[-99.40666,62.48785],[-99.41448,62.48784],[-99.42229,62.48784],[-99.42229,62.48368],[-99.4301,62.48367],[-99.4301,62.47951],[-99.43792,62.4795],[-99.44573,62.4795],[-99.45354,62.47949],[-99.45354,62.47533],[-99.45354,62.47116],[-99.46135,62.47116],[-99.46135,62.46699],[-99.46917,62.46698],[-99.46917,62.46282],[-99.47698,62.46281],[-99.48479,62.46281],[-99.48479,62.45864],[-99.49261,62.45863],[-99.49261,62.45447],[-99.50042,62.45446],[-99.50042,62.45029],[-99.50823,62.4503],[-99.51604,62.45031],[-99.51604,62.45447],[-99.51604,62.45864],[-99.51604,62.46281],[-99.51604,62.46697],[-99.51605,62.47114],[-99.51605,62.47531],[-99.51605,62.47947],[-99.51605,62.48364],[-99.51605,62.48781],[-99.51605,62.49197]]]}},{"type":"Feature","properties":{"c":"105590","o":"ATHA Energy (NU) Corp. (100%)","e":"2028-08-10"},"geometry":{"type":"Polygon","coordinates":[[[-99.53167,62.55032],[-99.52386,62.55031],[-99.51605,62.55031],[-99.50823,62.5503],[-99.50042,62.5503],[-99.49261,62.5503],[-99.48479,62.55031],[-99.47698,62.55031],[-99.46917,62.55032],[-99.46917,62.54615],[-99.46917,62.54199],[-99.47698,62.54198],[-99.48479,62.54198],[-99.48479,62.53781],[-99.48479,62.53364],[-99.48479,62.52947],[-99.48479,62.52531],[-99.48479,62.52114],[-99.48479,62.51697],[-99.48479,62.51281],[-99.48479,62.50864],[-99.48479,62.50447],[-99.48479,62.50031],[-99.49261,62.5003],[-99.50042,62.50029],[-99.50042,62.49613],[-99.50823,62.49613],[-99.50823,62.49197],[-99.51605,62.49197],[-99.52386,62.49198],[-99.53167,62.49198],[-99.53167,62.49615],[-99.53167,62.50032],[-99.53167,62.50449],[-99.53167,62.50865],[-99.53167,62.51282],[-99.53167,62.51699],[-99.53167,62.52115],[-99.53167,62.52532],[-99.53167,62.52949],[-99.53167,62.53365],[-99.53167,62.53782],[-99.53167,62.54199],[-99.53167,62.54615],[-99.53167,62.55032]]]}},{"type":"Feature","properties":{"c":"105358","o":"ATHA Energy (NU) Corp. (100%)","e":"2027-09-08"},"geometry":{"type":"Polygon","coordinates":[[[-99.29728,62.39199],[-99.29728,62.39616],[-99.28947,62.39616],[-99.28947,62.40032],[-99.28165,62.40032],[-99.27384,62.40031],[-99.27384,62.40448],[-99.26603,62.40447],[-99.25822,62.40447],[-99.25822,62.40863],[-99.2504,62.40863],[-99.24259,62.40863],[-99.24259,62.4128],[-99.23478,62.41281],[-99.23478,62.41697],[-99.22696,62.41698],[-99.21915,62.41698],[-99.21134,62.41699],[-99.21134,62.41282],[-99.20353,62.41283],[-99.19571,62.41283],[-99.19571,62.40866],[-99.1879,62.40867],[-99.18009,62.40867],[-99.18009,62.40451],[-99.17227,62.40451],[-99.17227,62.40034],[-99.16446,62.40034],[-99.15665,62.40035],[-99.15665,62.39618],[-99.14884,62.39618],[-99.14102,62.39618],[-99.14102,62.39201],[-99.13321,62.39202],[-99.1254,62.39202],[-99.1254,62.38785],[-99.13321,62.38785],[-99.14102,62.38785],[-99.14884,62.38785],[-99.15665,62.38785],[-99.16446,62.38784],[-99.17227,62.38784],[-99.18009,62.38784],[-99.1879,62.38783],[-99.19571,62.38783],[-99.20353,62.38783],[-99.21134,62.38782],[-99.21915,62.38782],[-99.22696,62.38781],[-99.23478,62.38781],[-99.24259,62.3878],[-99.2504,62.38779],[-99.25822,62.3878],[-99.26603,62.38781],[-99.27384,62.38781],[-99.28165,62.38782],[-99.28947,62.38782],[-99.29728,62.38783],[-99.30509,62.38783],[-99.31291,62.38783],[-99.31291,62.392],[-99.30509,62.392],[-99.29728,62.39199]]]}},{"type":"Feature","properties":{"c":"105359","o":"ATHA Energy (NU) Corp. (100%)","e":"2027-09-08"},"geometry":{"type":"Polygon","coordinates":[[[-99.20353,62.38783],[-99.19571,62.38783],[-99.1879,62.38783],[-99.18009,62.38784],[-99.17227,62.38784],[-99.16446,62.38784],[-99.15665,62.38785],[-99.14884,62.38785],[-99.14102,62.38785],[-99.13321,62.38785],[-99.1254,62.38785],[-99.11758,62.38785],[-99.10977,62.38785],[-99.10196,62.38785],[-99.10196,62.38368],[-99.09414,62.38368],[-99.08633,62.38368],[-99.08633,62.37951],[-99.09414,62.37951],[-99.10196,62.37951],[-99.10196,62.37535],[-99.10977,62.37535],[-99.10977,62.37118],[-99.11758,62.37118],[-99.1254,62.37118],[-99.1254,62.36701],[-99.13321,62.36701],[-99.13321,62.36285],[-99.14102,62.36285],[-99.14884,62.36285],[-99.14883,62.35868],[-99.15665,62.35868],[-99.15665,62.35451],[-99.16446,62.35451],[-99.16446,62.35034],[-99.17227,62.35034],[-99.18009,62.35034],[-99.18009,62.34617],[-99.1879,62.34617],[-99.1879,62.342],[-99.19571,62.342],[-99.20352,62.34199],[-99.20352,62.34616],[-99.20353,62.35033],[-99.20353,62.35449],[-99.20353,62.35866],[-99.20353,62.36283],[-99.20353,62.36699],[-99.20353,62.37116],[-99.20353,62.37533],[-99.20353,62.37949],[-99.20353,62.38366],[-99.20353,62.38783]]]}},{"type":"Feature","properties":{"c":"105360","o":"ATHA Energy (NU) Corp. (100%)","e":"2027-09-08"},"geometry":{"type":"Polygon","coordinates":[[[-99.2504,62.38779],[-99.24259,62.3878],[-99.23478,62.38781],[-99.22696,62.38781],[-99.21915,62.38782],[-99.21134,62.38782],[-99.20353,62.38783],[-99.20353,62.38366],[-99.20353,62.37949],[-99.20353,62.37533],[-99.20353,62.37116],[-99.20353,62.36699],[-99.20353,62.36283],[-99.20353,62.35866],[-99.20353,62.35449],[-99.20353,62.35033],[-99.20352,62.34616],[-99.20352,62.34199],[-99.20352,62.33783],[-99.21134,62.33782],[-99.21134,62.33365],[-99.21915,62.33365],[-99.22696,62.33364],[-99.23478,62.33364],[-99.24259,62.33363],[-99.2504,62.33362],[-99.2504,62.33779],[-99.2504,62.34196],[-99.2504,62.34612],[-99.2504,62.35029],[-99.2504,62.35446],[-99.2504,62.35862],[-99.2504,62.36279],[-99.2504,62.36696],[-99.2504,62.37113],[-99.2504,62.37529],[-99.2504,62.37946],[-99.2504,62.38363],[-99.2504,62.38779]]]}},{"type":"Feature","properties":{"c":"105361","o":"ATHA Energy (NU) Corp. (100%)","e":"2027-09-08"},"geometry":{"type":"Polygon","coordinates":[[[-99.34416,62.33368],[-99.33634,62.33367],[-99.32853,62.33367],[-99.32072,62.33367],[-99.31291,62.33367],[-99.30509,62.33366],[-99.29728,62.33366],[-99.28947,62.33365],[-99.28165,62.33365],[-99.27384,62.33364],[-99.26603,62.33364],[-99.25821,62.33363],[-99.2504,62.33362],[-99.24259,62.33363],[-99.23478,62.33364],[-99.22696,62.33364],[-99.22696,62.32948],[-99.23478,62.32947],[-99.23478,62.3253],[-99.24259,62.3253],[-99.2504,62.32529],[-99.2504,62.32112],[-99.25821,62.32113],[-99.26603,62.32114],[-99.26603,62.31697],[-99.27384,62.31698],[-99.27384,62.31281],[-99.28165,62.31281],[-99.28165,62.30865],[-99.28947,62.30865],[-99.29728,62.30866],[-99.29728,62.30449],[-99.30509,62.3045],[-99.30509,62.30033],[-99.31291,62.30033],[-99.32072,62.30034],[-99.32853,62.30034],[-99.33634,62.30034],[-99.34416,62.30034],[-99.34416,62.30451],[-99.34416,62.30868],[-99.34416,62.31284],[-99.34416,62.31701],[-99.34416,62.32118],[-99.34416,62.32534],[-99.34416,62.32951],[-99.34416,62.33368]]]}},{"type":"Feature","properties":{"c":"105362","o":"ATHA Energy (NU) Corp. (100%)","e":"2027-09-08"},"geometry":{"type":"Polygon","coordinates":[[[-99.43791,62.30033],[-99.4301,62.30034],[-99.42229,62.30034],[-99.41447,62.30034],[-99.40666,62.30034],[-99.39885,62.30034],[-99.39103,62.30035],[-99.38322,62.30035],[-99.37541,62.30035],[-99.3676,62.30035],[-99.35978,62.30035],[-99.35197,62.30034],[-99.34416,62.30034],[-99.33634,62.30034],[-99.32853,62.30034],[-99.32072,62.30034],[-99.31291,62.30033],[-99.31291,62.29617],[-99.32072,62.29617],[-99.32853,62.29617],[-99.32853,62.29201],[-99.33634,62.29201],[-99.34416,62.29201],[-99.34416,62.28784],[-99.35197,62.28784],[-99.35197,62.28368],[-99.35978,62.28368],[-99.3676,62.28368],[-99.3676,62.27951],[-99.3676,62.27535],[-99.35978,62.27535],[-99.35978,62.27118],[-99.35978,62.26701],[-99.3676,62.26701],[-99.37541,62.26701],[-99.38322,62.26701],[-99.39103,62.26701],[-99.39885,62.26701],[-99.40666,62.26701],[-99.41447,62.26701],[-99.42229,62.267],[-99.4301,62.267],[-99.43791,62.267],[-99.43791,62.27117],[-99.43791,62.27533],[-99.43791,62.2795],[-99.43791,62.28367],[-99.43791,62.28783],[-99.43791,62.292],[-99.43791,62.29617],[-99.43791,62.30033]]]}},{"type":"Feature","properties":{"c":"105092","o":"5833 Nunavut Ltd. (100%)","e":"2027-03-14"},"geometry":{"type":"Polygon","coordinates":[[[-99.03946,62.46282],[-99.03164,62.46282],[-99.02383,62.46281],[-99.01602,62.46281],[-99.0082,62.4628],[-99.00039,62.46279],[-98.99258,62.4628],[-98.99258,62.45863],[-98.99258,62.45447],[-98.99258,62.4503],[-98.98476,62.45031],[-98.97695,62.45031],[-98.96914,62.45032],[-98.96133,62.45032],[-98.95351,62.45033],[-98.9457,62.45033],[-98.93789,62.45034],[-98.93789,62.44617],[-98.93789,62.442],[-98.93789,62.43784],[-98.93789,62.43367],[-98.9457,62.43367],[-98.9457,62.4295],[-98.95351,62.4295],[-98.95351,62.42533],[-98.96133,62.42532],[-98.96914,62.42532],[-98.96914,62.42115],[-98.97695,62.42115],[-98.97695,62.41698],[-98.98476,62.41697],[-98.99258,62.41697],[-98.99258,62.4128],[-99.00039,62.41279],[-99.00039,62.41696],[-99.00039,62.42113],[-99.00039,62.42529],[-99.00039,62.42946],[-99.0082,62.42947],[-99.01602,62.42947],[-99.02383,62.42948],[-99.03164,62.42949],[-99.03945,62.42949],[-99.03946,62.43366],[-99.03946,62.43782],[-99.03946,62.44199],[-99.03946,62.44616],[-99.03946,62.45032],[-99.03946,62.45449],[-99.03946,62.45866],[-99.03946,62.46282]]]}},{"type":"Feature","properties":{"c":"105093","o":"5833 Nunavut Ltd. (100%)","e":"2027-03-14"},"geometry":{"type":"Polygon","coordinates":[[[-99.10977,62.42118],[-99.10196,62.42118],[-99.09415,62.42118],[-99.08633,62.42118],[-99.07852,62.42118],[-99.07071,62.42117],[-99.06289,62.42117],[-99.05508,62.42117],[-99.04727,62.42116],[-99.03945,62.42116],[-99.03945,62.42532],[-99.03945,62.42949],[-99.03164,62.42949],[-99.02383,62.42948],[-99.01602,62.42947],[-99.0082,62.42947],[-99.00039,62.42946],[-99.00039,62.42529],[-99.00039,62.42113],[-99.00039,62.41696],[-99.00039,62.41279],[-99.00039,62.40863],[-99.0082,62.40863],[-99.01602,62.40864],[-99.01602,62.40447],[-99.02383,62.40448],[-99.03164,62.40448],[-99.03164,62.40032],[-99.03945,62.40032],[-99.03945,62.39616],[-99.04727,62.39616],[-99.05508,62.39616],[-99.05508,62.392],[-99.06289,62.392],[-99.06289,62.38784],[-99.07071,62.38784],[-99.07071,62.38367],[-99.07852,62.38367],[-99.08633,62.38368],[-99.09414,62.38368],[-99.10196,62.38368],[-99.10196,62.38785],[-99.10977,62.38785],[-99.10977,62.39201],[-99.10977,62.39618],[-99.10977,62.40035],[-99.10977,62.40452],[-99.10977,62.40868],[-99.10977,62.41285],[-99.10977,62.41702],[-99.10977,62.42118]]]}},{"type":"Feature","properties":{"c":"105094","o":"5833 Nunavut Ltd. (100%)","e":"2027-03-14"},"geometry":{"type":"Polygon","coordinates":[[[-99.20353,62.42116],[-99.19571,62.42117],[-99.1879,62.42117],[-99.18009,62.42117],[-99.17227,62.42117],[-99.16446,62.42118],[-99.15665,62.42118],[-99.14884,62.42118],[-99.14102,62.42118],[-99.13321,62.42118],[-99.1254,62.42118],[-99.11758,62.42118],[-99.10977,62.42118],[-99.10977,62.41702],[-99.10977,62.41285],[-99.10977,62.40868],[-99.10977,62.40452],[-99.10977,62.40035],[-99.10977,62.39618],[-99.10977,62.39201],[-99.10977,62.38785],[-99.11758,62.38785],[-99.1254,62.38785],[-99.1254,62.39202],[-99.13321,62.39202],[-99.14102,62.39201],[-99.14102,62.39618],[-99.14884,62.39618],[-99.15665,62.39618],[-99.15665,62.40035],[-99.16446,62.40034],[-99.17227,62.40034],[-99.17227,62.40451],[-99.18009,62.40451],[-99.18009,62.40867],[-99.1879,62.40867],[-99.19571,62.40866],[-99.19571,62.41283],[-99.20353,62.41283],[-99.21134,62.41282],[-99.21134,62.41699],[-99.21915,62.41698],[-99.21915,62.42115],[-99.21134,62.42116],[-99.20353,62.42116]]]}},{"type":"Feature","properties":{"c":"105363","o":"ATHA Energy (NU) Corp. (100%)","e":"2027-09-08"},"geometry":{"type":"Polygon","coordinates":[[[-99.53167,62.30031],[-99.52385,62.30031],[-99.51604,62.3003],[-99.50823,62.3003],[-99.50042,62.30029],[-99.4926,62.3003],[-99.48479,62.3003],[-99.47698,62.30031],[-99.46916,62.30031],[-99.46135,62.30032],[-99.45354,62.30032],[-99.44573,62.30033],[-99.43791,62.30033],[-99.43791,62.29617],[-99.43791,62.292],[-99.43791,62.28783],[-99.43791,62.28367],[-99.43791,62.2795],[-99.43791,62.27533],[-99.43791,62.27117],[-99.43791,62.267],[-99.44572,62.26699],[-99.45354,62.26699],[-99.46135,62.26699],[-99.46916,62.26698],[-99.47698,62.26698],[-99.48479,62.26697],[-99.4926,62.26696],[-99.50041,62.26696],[-99.50823,62.26696],[-99.51604,62.26697],[-99.52385,62.26698],[-99.53167,62.26698],[-99.53167,62.27115],[-99.53167,62.27531],[-99.53167,62.27948],[-99.53167,62.28365],[-99.53167,62.28781],[-99.53167,62.29198],[-99.53167,62.29615],[-99.53167,62.30031]]]}},{"type":"Feature","properties":{"c":"105367","o":"ATHA Energy (NU) Corp. (100%)","e":"2027-09-08"},"geometry":{"type":"Polygon","coordinates":[[[-99.62542,62.28785],[-99.61761,62.28785],[-99.6098,62.28784],[-99.60198,62.28784],[-99.59417,62.28784],[-99.58636,62.28784],[-99.57854,62.28784],[-99.57073,62.28783],[-99.56292,62.28783],[-99.55511,62.28783],[-99.54729,62.28782],[-99.53948,62.28782],[-99.53167,62.28781],[-99.53167,62.28365],[-99.53167,62.27948],[-99.53167,62.27531],[-99.53167,62.27115],[-99.53167,62.26698],[-99.52385,62.26698],[-99.51604,62.26697],[-99.50823,62.26696],[-99.50041,62.26696],[-99.4926,62.26696],[-99.48479,62.26697],[-99.48479,62.2628],[-99.48479,62.25864],[-99.48479,62.25447],[-99.48479,62.2503],[-99.48479,62.24614],[-99.4926,62.24613],[-99.50041,62.24612],[-99.50823,62.24613],[-99.50823,62.2503],[-99.51604,62.2503],[-99.52385,62.25031],[-99.52385,62.25447],[-99.53167,62.25448],[-99.53167,62.25865],[-99.53948,62.25865],[-99.54729,62.25866],[-99.55511,62.25866],[-99.55511,62.26283],[-99.56292,62.26283],[-99.57073,62.26283],[-99.57073,62.267],[-99.57854,62.267],[-99.58636,62.26701],[-99.58636,62.27117],[-99.59417,62.27118],[-99.60198,62.27118],[-99.60198,62.27534],[-99.6098,62.27534],[-99.61761,62.27535],[-99.61761,62.27951],[-99.62542,62.27951],[-99.63324,62.27951],[-99.63324,62.28368],[-99.64105,62.28368],[-99.64105,62.28784],[-99.63324,62.28785],[-99.62542,62.28785]]]}},{"type":"Feature","properties":{"c":"105368","o":"ATHA Energy (NU) Corp. (100%)","e":"2027-09-08"},"geometry":{"type":"Polygon","coordinates":[[[-99.48479,62.26697],[-99.47698,62.26698],[-99.46916,62.26698],[-99.46135,62.26699],[-99.45354,62.26699],[-99.44572,62.26699],[-99.43791,62.267],[-99.4301,62.267],[-99.42229,62.267],[-99.41447,62.26701],[-99.40666,62.26701],[-99.39885,62.26701],[-99.39103,62.26701],[-99.38322,62.26701],[-99.38322,62.26285],[-99.38322,62.25868],[-99.38322,62.25451],[-99.38322,62.25035],[-99.38322,62.24618],[-99.38322,62.24201],[-99.38322,62.23785],[-99.38322,62.23368],[-99.39103,62.23368],[-99.39885,62.23368],[-99.40666,62.23367],[-99.41447,62.23367],[-99.42229,62.23367],[-99.4301,62.23367],[-99.43791,62.23366],[-99.44572,62.23366],[-99.45354,62.23366],[-99.45354,62.23782],[-99.46135,62.23782],[-99.46916,62.23781],[-99.46916,62.24198],[-99.47698,62.24197],[-99.48479,62.24197],[-99.48479,62.24614],[-99.48479,62.2503],[-99.48479,62.25447],[-99.48479,62.25864],[-99.48479,62.2628],[-99.48479,62.26697]]]}},{"type":"Feature","properties":{"c":"105369","o":"ATHA Energy (NU) Corp. (100%)","e":"2027-09-08"},"geometry":{"type":"Polygon","coordinates":[[[-99.38322,62.26701],[-99.37541,62.26701],[-99.3676,62.26701],[-99.35978,62.26701],[-99.35197,62.26701],[-99.35197,62.26284],[-99.34416,62.26284],[-99.34416,62.25868],[-99.33634,62.25867],[-99.33634,62.25451],[-99.32853,62.2545],[-99.32853,62.25034],[-99.32072,62.25033],[-99.3129,62.25033],[-99.30509,62.25033],[-99.29728,62.25032],[-99.29728,62.25449],[-99.29728,62.25866],[-99.28947,62.25865],[-99.28165,62.25865],[-99.27384,62.25864],[-99.26603,62.25864],[-99.26603,62.25447],[-99.26603,62.2503],[-99.27384,62.25031],[-99.27384,62.24614],[-99.27384,62.24198],[-99.27384,62.23781],[-99.27384,62.23364],[-99.28165,62.23365],[-99.28947,62.23365],[-99.29728,62.23366],[-99.30509,62.23366],[-99.3129,62.23366],[-99.32072,62.23367],[-99.32853,62.23367],[-99.33634,62.23367],[-99.34416,62.23368],[-99.35197,62.23368],[-99.35978,62.23368],[-99.36759,62.23368],[-99.37541,62.23368],[-99.38322,62.23368],[-99.38322,62.23785],[-99.38322,62.24201],[-99.38322,62.24618],[-99.38322,62.25035],[-99.38322,62.25451],[-99.38322,62.25868],[-99.38322,62.26285],[-99.38322,62.26701]]]}}]}