{"type":"FeatureCollection","features":[{"type":"Feature","properties":{"c":"104880","o":"5833 Nunavut Ltd. (100%)","e":"2026-09-02"},"geometry":{"type":"Polygon","coordinates":[[[-100.0,63.0],[-99.0,63.0],[-99.0,63.0],[-100.0,63.0]]]}},{"type":"Feature","properties":{"c":"104881","o":"5833 Nunavut Ltd. (100%)","e":"2026-09-02"},"geometry":{"type":"Polygon","coordinates":[[[-100.0,63.0],[-99.0,63.0],[-100.0,63.0],[-100.0,63.0]]]}},{"type":"Feature","properties":{"c":"105583","o":"ATHA Energy (NU) Corp. (100%)","e":"2028-08-10"},"geometry":{"type":"Polygon","coordinates":[[[-100.0,63.0],[-99.0,63.0],[-99.0,63.0],[-100.0,63.0]]]}},{"type":"Feature","properties":{"c":"105584","o":"ATHA Energy (NU) Corp. (100%)","e":"2028-08-10"},"geometry":{"type":"Polygon","coordinates":[[[-100.0,63.0],[-99.0,63.0],[-99.0,63.0],[-100.0,63.0]]]}},{"type":"Feature","properties":{"c":"105586","o":"ATHA Energy (NU) Corp. (100%)","e":"2028-08-10"},"geometry":{"type":"Polygon","coordinates":[[[-100.0,63.0],[-100.0,63.0],[-99.0,63.0],[-100.0,63.0]]]}},{"type":"Feature","properties":{"c":"105587","o":"ATHA Energy (NU) Corp. (100%)","e":"2028-08-10"},"geometry":{"type":"Polygon","coordinates":[[[-100.0,62.0],[-100.0,62.0],[-99.0,63.0],[-100.0,62.0]]]}},{"type":"Feature","properties":{"c":"105590","o":"ATHA Energy (NU) Corp. (100%)","e":"2028-08-10"},"geometry":{"type":"Polygon","coordinates":[[[-100.0,63.0],[-99.0,63.0],[-99.0,63.0],[-100.0,63.0]]]}}]}