{"type":"FeatureCollection","features":[{"type":"Feature","properties":{"c":"103617","o":"ATHA Energy (NU) Corp. (100%)","e":"2026-10-10"},"geometry":{"type":"Polygon","coordinates":[[[-100.00052,65.01705],[-99.99271,65.01705],[-99.98489,65.01706],[-99.97708,65.01706],[-99.96927,65.01707],[-99.96146,65.01707],[-99.95364,65.01708],[-99.94583,65.01708],[-99.93802,65.01709],[-99.9302,65.01709],[-99.92239,65.01709],[-99.91458,65.01709],[-99.90676,65.0171],[-99.90676,65.01293],[-99.90676,65.00876],[-99.90676,65.0046],[-99.90676,65.00043],[-99.90676,64.99626],[-99.90676,64.99209],[-99.90676,64.98793],[-99.90676,64.98376],[-99.91458,64.98376],[-99.92239,64.98376],[-99.9302,64.98375],[-99.93802,64.98375],[-99.94583,64.98375],[-99.95364,64.98374],[-99.96145,64.98374],[-99.96927,64.98373],[-99.97708,64.98373],[-99.98489,64.98372],[-99.99271,64.98372],[-100.00052,64.98371],[-100.00052,64.98788],[-100.00052,64.99205],[-100.00052,64.99621],[-100.00052,65.00038],[-100.00052,65.00455],[-100.00052,65.00871],[-100.00052,65.01288],[-100.00052,65.01705]]]}},{"type":"Feature","properties":{"c":"103618","o":"ATHA Energy (NU) Corp. (100%)","e":"2026-10-10"},"geometry":{"type":"Polygon","coordinates":[[[-100.00052,65.05038],[-99.99271,65.05039],[-99.9849,65.05039],[-99.97708,65.0504],[-99.96927,65.0504],[-99.96146,65.05041],[-99.95364,65.05041],[-99.94583,65.05042],[-99.93802,65.05042],[-99.9302,65.05042],[-99.92239,65.05043],[-99.91458,65.05043],[-99.90677,65.05043],[-99.90677,65.04626],[-99.90677,65.0421],[-99.90677,65.03793],[-99.90677,65.03376],[-99.90677,65.0296],[-99.90677,65.02543],[-99.90677,65.02126],[-99.90676,65.0171],[-99.91458,65.01709],[-99.92239,65.01709],[-99.9302,65.01709],[-99.93802,65.01709],[-99.94583,65.01708],[-99.95364,65.01708],[-99.96146,65.01707],[-99.96927,65.01707],[-99.97708,65.01706],[-99.98489,65.01706],[-99.99271,65.01705],[-100.00052,65.01705],[-100.00052,65.02121],[-100.00052,65.02538],[-100.00052,65.02955],[-100.00052,65.03371],[-100.00052,65.03788],[-100.00052,65.04205],[-100.00052,65.04621],[-100.00052,65.05038]]]}},{"type":"Feature","properties":{"c":"103619","o":"ATHA Energy (NU) Corp. (100%)","e":"2026-10-10"},"geometry":{"type":"Polygon","coordinates":[[[-99.90677,65.06293],[-99.89895,65.06293],[-99.89114,65.06293],[-99.88333,65.06293],[-99.87551,65.06293],[-99.8677,65.06293],[-99.85989,65.06293],[-99.85208,65.06293],[-99.84426,65.06293],[-99.84426,65.05876],[-99.84426,65.0546],[-99.84426,65.05043],[-99.84426,65.04626],[-99.84426,65.0421],[-99.84426,65.03793],[-99.84426,65.03376],[-99.84426,65.0296],[-99.84426,65.02543],[-99.84426,65.02126],[-99.84426,65.0171],[-99.84426,65.01293],[-99.85207,65.01293],[-99.85989,65.01293],[-99.8677,65.01293],[-99.87551,65.01293],[-99.88333,65.01293],[-99.89114,65.01293],[-99.89895,65.01293],[-99.90676,65.01293],[-99.90676,65.0171],[-99.90677,65.02126],[-99.90677,65.02543],[-99.90677,65.0296],[-99.90677,65.03376],[-99.90677,65.03793],[-99.90677,65.0421],[-99.90677,65.04626],[-99.90677,65.05043],[-99.90677,65.0546],[-99.90677,65.05876],[-99.90677,65.06293]]]}},{"type":"Feature","properties":{"c":"103582","o":"ATHA Energy (NU) Corp. (100%)","e":"2026-10-10"},"geometry":{"type":"Polygon","coordinates":[[[-99.90676,65.01293],[-99.89895,65.01293],[-99.89114,65.01293],[-99.88333,65.01293],[-99.87551,65.01293],[-99.8677,65.01293],[-99.85989,65.01293],[-99.85207,65.01293],[-99.84426,65.01293],[-99.83645,65.01293],[-99.82864,65.01293],[-99.82082,65.01292],[-99.81301,65.01292],[-99.8052,65.01292],[-99.79738,65.01291],[-99.78957,65.01291],[-99.78176,65.0129],[-99.78176,65.00874],[-99.78957,65.00874],[-99.78957,65.00457],[-99.79738,65.00458],[-99.8052,65.00458],[-99.8052,65.00042],[-99.81301,65.00042],[-99.81301,64.99625],[-99.82082,64.99626],[-99.82082,64.99209],[-99.82863,64.99209],[-99.82863,64.98792],[-99.83645,64.98793],[-99.83645,64.98376],[-99.84426,64.98376],[-99.85207,64.98376],[-99.85989,64.98376],[-99.8677,64.98376],[-99.87551,64.98376],[-99.88333,64.98376],[-99.89114,64.98376],[-99.89895,64.98376],[-99.90676,64.98376],[-99.90676,64.98793],[-99.90676,64.99209],[-99.90676,64.99626],[-99.90676,65.00043],[-99.90676,65.0046],[-99.90676,65.00876],[-99.90676,65.01293]]]}},{"type":"Feature","properties":{"c":"103585","o":"ATHA Energy (NU) Corp. (100%)","e":"2026-10-10"},"geometry":{"type":"Polygon","coordinates":[[[-99.84426,65.03793],[-99.83645,65.03793],[-99.82864,65.03793],[-99.82082,65.03792],[-99.81301,65.03792],[-99.8052,65.03792],[-99.79738,65.03791],[-99.78957,65.03791],[-99.78176,65.0379],[-99.77395,65.0379],[-99.76613,65.03789],[-99.75832,65.03789],[-99.75051,65.03788],[-99.74269,65.03789],[-99.73488,65.03789],[-99.72707,65.0379],[-99.71925,65.0379],[-99.71925,65.03374],[-99.71925,65.02957],[-99.71925,65.0254],[-99.71925,65.02124],[-99.71925,65.01707],[-99.71925,65.0129],[-99.72707,65.0129],[-99.73488,65.01289],[-99.74269,65.01289],[-99.75051,65.01288],[-99.75832,65.01289],[-99.76613,65.01289],[-99.77394,65.0129],[-99.78176,65.0129],[-99.78957,65.01291],[-99.79738,65.01291],[-99.8052,65.01292],[-99.81301,65.01292],[-99.82082,65.01292],[-99.82864,65.01293],[-99.83645,65.01293],[-99.84426,65.01293],[-99.84426,65.0171],[-99.84426,65.02126],[-99.84426,65.02543],[-99.84426,65.0296],[-99.84426,65.03376],[-99.84426,65.03793]]]}},{"type":"Feature","properties":{"c":"103587","o":"ATHA Energy (NU) Corp. (100%)","e":"2026-10-10"},"geometry":{"type":"Polygon","coordinates":[[[-99.78176,65.0129],[-99.77394,65.0129],[-99.76613,65.01289],[-99.75832,65.01289],[-99.75051,65.01288],[-99.74269,65.01289],[-99.73488,65.01289],[-99.72707,65.0129],[-99.71925,65.0129],[-99.71925,65.01707],[-99.71925,65.02124],[-99.71925,65.0254],[-99.71925,65.02957],[-99.71925,65.03374],[-99.71925,65.0379],[-99.71144,65.03791],[-99.70363,65.03791],[-99.69582,65.03792],[-99.688,65.03792],[-99.688,65.03375],[-99.688,65.02959],[-99.688,65.02542],[-99.688,65.02125],[-99.688,65.01709],[-99.688,65.01292],[-99.688,65.00875],[-99.688,65.00459],[-99.688,65.00042],[-99.688,64.99625],[-99.688,64.99209],[-99.688,64.98792],[-99.688,64.98375],[-99.69581,64.98375],[-99.70363,64.98375],[-99.71144,64.98374],[-99.71925,64.98374],[-99.71925,64.9879],[-99.72707,64.9879],[-99.73488,64.98789],[-99.73488,64.99206],[-99.74269,64.99205],[-99.7505,64.99205],[-99.75832,64.99205],[-99.75832,64.99622],[-99.76613,64.99623],[-99.77394,64.99623],[-99.77394,65.0004],[-99.78176,65.0004],[-99.78176,65.00457],[-99.78176,65.00874],[-99.78176,65.0129]]]}},{"type":"Feature","properties":{"c":"103676","o":"ATHA Energy (NU) Corp. (100%)","e":"2026-10-10"},"geometry":{"type":"Polygon","coordinates":[[[-100.00052,65.10038],[-99.99271,65.10039],[-99.9849,65.10039],[-99.97708,65.1004],[-99.96927,65.10041],[-99.96927,65.10457],[-99.96927,65.10874],[-99.96927,65.11291],[-99.96927,65.11707],[-99.96146,65.11708],[-99.95365,65.11708],[-99.94583,65.11709],[-99.93802,65.11709],[-99.93021,65.11709],[-99.92239,65.11709],[-99.91458,65.1171],[-99.90677,65.1171],[-99.90677,65.11293],[-99.90677,65.10877],[-99.90677,65.1046],[-99.90677,65.10043],[-99.90677,65.09627],[-99.90677,65.0921],[-99.90677,65.08793],[-99.90677,65.08376],[-99.91458,65.08376],[-99.92239,65.08376],[-99.93021,65.08376],[-99.93802,65.08375],[-99.94583,65.08375],[-99.95364,65.08375],[-99.96146,65.08374],[-99.96927,65.08374],[-99.97708,65.08373],[-99.9849,65.08373],[-99.99271,65.08372],[-100.00052,65.08372],[-100.00052,65.08788],[-100.00052,65.09205],[-100.00052,65.09622],[-100.00052,65.10038]]]}},{"type":"Feature","properties":{"c":"103677","o":"ATHA Energy (NU) Corp. (100%)","e":"2026-10-10"},"geometry":{"type":"Polygon","coordinates":[[[-100.03178,65.15041],[-100.02396,65.1504],[-100.01615,65.1504],[-100.00834,65.15039],[-100.00052,65.15038],[-99.99271,65.15039],[-99.9849,65.1504],[-99.97709,65.1504],[-99.96927,65.15041],[-99.96927,65.14624],[-99.96927,65.14207],[-99.96927,65.13791],[-99.96927,65.13374],[-99.96927,65.12957],[-99.96927,65.12541],[-99.96927,65.12124],[-99.96927,65.11707],[-99.96927,65.11291],[-99.96927,65.10874],[-99.96927,65.10457],[-99.96927,65.10041],[-99.97708,65.1004],[-99.9849,65.10039],[-99.99271,65.10039],[-100.00052,65.10038],[-100.00834,65.10039],[-100.01615,65.10039],[-100.02396,65.1004],[-100.03177,65.10041],[-100.03177,65.10457],[-100.03178,65.10874],[-100.03178,65.11291],[-100.03178,65.11707],[-100.03178,65.12124],[-100.03178,65.12541],[-100.03178,65.12957],[-100.03178,65.13374],[-100.03178,65.13791],[-100.03178,65.14207],[-100.03178,65.14624],[-100.03178,65.15041]]]}},{"type":"Feature","properties":{"c":"103687","o":"ATHA Energy (NU) Corp. (100%)","e":"2026-10-10"},"geometry":{"type":"Polygon","coordinates":[[[-100.03178,65.20041],[-100.02396,65.2004],[-100.01615,65.2004],[-100.00834,65.20039],[-100.00053,65.20039],[-99.99271,65.20039],[-99.9849,65.2004],[-99.97709,65.2004],[-99.96927,65.20041],[-99.96927,65.19624],[-99.96927,65.19208],[-99.96927,65.18791],[-99.96927,65.18374],[-99.96927,65.17957],[-99.96927,65.17541],[-99.96927,65.17124],[-99.96927,65.16707],[-99.96927,65.16291],[-99.96927,65.15874],[-99.96927,65.15457],[-99.96927,65.15041],[-99.97709,65.1504],[-99.9849,65.1504],[-99.99271,65.15039],[-100.00052,65.15038],[-100.00834,65.15039],[-100.01615,65.1504],[-100.02396,65.1504],[-100.03178,65.15041],[-100.03178,65.15457],[-100.03178,65.15874],[-100.03178,65.16291],[-100.03178,65.16707],[-100.03178,65.17124],[-100.03178,65.17541],[-100.03178,65.17957],[-100.03178,65.18374],[-100.03178,65.18791],[-100.03178,65.19207],[-100.03178,65.19624],[-100.03178,65.20041]]]}},{"type":"Feature","properties":{"c":"103688","o":"ATHA Energy (NU) Corp. (100%)","e":"2026-10-10"},"geometry":{"type":"Polygon","coordinates":[[[-99.96927,65.20041],[-99.96146,65.20041],[-99.95365,65.20042],[-99.94584,65.20042],[-99.93802,65.20043],[-99.93021,65.20043],[-99.9224,65.20043],[-99.91458,65.20043],[-99.90677,65.20044],[-99.90677,65.19627],[-99.90677,65.1921],[-99.90677,65.18793],[-99.90677,65.18377],[-99.90677,65.1796],[-99.90677,65.17543],[-99.90677,65.17127],[-99.90677,65.1671],[-99.90677,65.16293],[-99.90677,65.15877],[-99.90677,65.1546],[-99.90677,65.15043],[-99.91458,65.15043],[-99.92239,65.15043],[-99.93021,65.15043],[-99.93802,65.15042],[-99.94583,65.15042],[-99.95365,65.15042],[-99.96146,65.15041],[-99.96927,65.15041],[-99.96927,65.15457],[-99.96927,65.15874],[-99.96927,65.16291],[-99.96927,65.16707],[-99.96927,65.17124],[-99.96927,65.17541],[-99.96927,65.17957],[-99.96927,65.18374],[-99.96927,65.18791],[-99.96927,65.19208],[-99.96927,65.19624],[-99.96927,65.20041]]]}},{"type":"Feature","properties":{"c":"103697","o":"ATHA Energy (NU) Corp. (100%)","e":"2026-10-10"},"geometry":{"type":"Polygon","coordinates":[[[-99.84427,65.20044],[-99.83645,65.20043],[-99.82864,65.20043],[-99.82083,65.20043],[-99.81301,65.20043],[-99.8052,65.20042],[-99.79739,65.20042],[-99.78958,65.20041],[-99.78176,65.20041],[-99.78176,65.19624],[-99.78176,65.19208],[-99.78176,65.18791],[-99.78176,65.18374],[-99.78176,65.17958],[-99.78176,65.17541],[-99.78176,65.17124],[-99.78176,65.16708],[-99.78176,65.16291],[-99.78176,65.15874],[-99.78176,65.15457],[-99.78176,65.15041],[-99.78957,65.15041],[-99.79739,65.15042],[-99.8052,65.15042],[-99.81301,65.15042],[-99.82083,65.15043],[-99.82864,65.15043],[-99.83645,65.15043],[-99.84427,65.15043],[-99.84427,65.1546],[-99.84427,65.15877],[-99.84427,65.16293],[-99.84427,65.1671],[-99.84427,65.17127],[-99.84427,65.17543],[-99.84427,65.1796],[-99.84427,65.18377],[-99.84427,65.18793],[-99.84427,65.1921],[-99.84427,65.19627],[-99.84427,65.20044]]]}},{"type":"Feature","properties":{"c":"103699","o":"ATHA Energy (NU) Corp. (100%)","e":"2026-10-10"},"geometry":{"type":"Polygon","coordinates":[[[-99.78176,65.20041],[-99.77395,65.2004],[-99.76614,65.2004],[-99.75832,65.20039],[-99.75051,65.20039],[-99.7427,65.20039],[-99.73489,65.2004],[-99.72707,65.20041],[-99.71926,65.20041],[-99.71926,65.19624],[-99.71926,65.19208],[-99.71926,65.18791],[-99.71926,65.18374],[-99.71926,65.17958],[-99.71926,65.17541],[-99.71926,65.17124],[-99.71926,65.16708],[-99.71926,65.16291],[-99.71926,65.15874],[-99.71926,65.15458],[-99.71926,65.15041],[-99.72707,65.1504],[-99.73488,65.1504],[-99.7427,65.15039],[-99.75051,65.15039],[-99.75832,65.15039],[-99.76614,65.1504],[-99.77395,65.1504],[-99.78176,65.15041],[-99.78176,65.15457],[-99.78176,65.15874],[-99.78176,65.16291],[-99.78176,65.16708],[-99.78176,65.17124],[-99.78176,65.17541],[-99.78176,65.17958],[-99.78176,65.18374],[-99.78176,65.18791],[-99.78176,65.19208],[-99.78176,65.19624],[-99.78176,65.20041]]]}},{"type":"Feature","properties":{"c":"103715","o":"ATHA Energy (NU) Corp. (100%)","e":"2026-10-10"},"geometry":{"type":"Polygon","coordinates":[[[-100.06303,65.33376],[-100.05522,65.33376],[-100.04741,65.33376],[-100.03959,65.33375],[-100.03178,65.33375],[-100.02397,65.33374],[-100.01616,65.33374],[-100.00834,65.33373],[-100.00053,65.33372],[-99.99272,65.33373],[-99.9849,65.33374],[-99.97709,65.33374],[-99.96928,65.33375],[-99.96928,65.32958],[-99.96928,65.32541],[-99.96928,65.32125],[-99.96928,65.31708],[-99.96928,65.31291],[-99.96928,65.30875],[-99.96928,65.30458],[-99.96928,65.30041],[-99.97709,65.30041],[-99.9849,65.3004],[-99.99272,65.3004],[-100.00053,65.30039],[-100.00834,65.3004],[-100.01616,65.3004],[-100.02397,65.30041],[-100.03178,65.30041],[-100.03959,65.30042],[-100.04741,65.30042],[-100.05522,65.30042],[-100.06303,65.30043],[-100.06303,65.3046],[-100.06303,65.30876],[-100.06303,65.31293],[-100.06303,65.3171],[-100.06303,65.32126],[-100.06303,65.32543],[-100.06303,65.3296],[-100.06303,65.33376]]]}},{"type":"Feature","properties":{"c":"103716","o":"ATHA Energy (NU) Corp. (100%)","e":"2026-10-10"},"geometry":{"type":"Polygon","coordinates":[[[-99.96928,65.30041],[-99.96146,65.30042],[-99.95365,65.30042],[-99.94584,65.30043],[-99.93803,65.30043],[-99.93021,65.30043],[-99.9224,65.30043],[-99.91459,65.30044],[-99.90677,65.30044],[-99.90677,65.29627],[-99.90677,65.29211],[-99.90677,65.28794],[-99.90677,65.28377],[-99.90677,65.2796],[-99.90677,65.27544],[-99.90677,65.27127],[-99.90677,65.2671],[-99.90677,65.26294],[-99.90677,65.25877],[-99.90677,65.2546],[-99.90677,65.25044],[-99.91459,65.25044],[-99.9224,65.25043],[-99.93021,65.25043],[-99.93802,65.25043],[-99.94584,65.25042],[-99.95365,65.25042],[-99.96146,65.25042],[-99.96928,65.25041],[-99.96928,65.25458],[-99.96928,65.25874],[-99.96928,65.26291],[-99.96928,65.26708],[-99.96928,65.27125],[-99.96928,65.27541],[-99.96928,65.27958],[-99.96928,65.28375],[-99.96928,65.28791],[-99.96928,65.29208],[-99.96928,65.29625],[-99.96928,65.30041]]]}},{"type":"Feature","properties":{"c":"103678","o":"ATHA Energy (NU) Corp. (100%)","e":"2026-10-10"},"geometry":{"type":"Polygon","coordinates":[[[-99.90677,65.1171],[-99.89895,65.1171],[-99.89114,65.1171],[-99.88333,65.1171],[-99.87552,65.1171],[-99.8677,65.1171],[-99.85989,65.1171],[-99.85208,65.1171],[-99.84426,65.1171],[-99.83645,65.1171],[-99.82864,65.1171],[-99.82083,65.11709],[-99.81301,65.11709],[-99.81301,65.11292],[-99.81301,65.10876],[-99.81301,65.10459],[-99.81301,65.10042],[-99.81301,65.09626],[-99.81301,65.09209],[-99.81301,65.08792],[-99.81301,65.08376],[-99.82082,65.08376],[-99.82864,65.08376],[-99.83645,65.08376],[-99.84426,65.08377],[-99.85208,65.08377],[-99.85989,65.08377],[-99.8677,65.08377],[-99.87552,65.08377],[-99.88333,65.08377],[-99.89114,65.08377],[-99.89895,65.08377],[-99.90677,65.08376],[-99.90677,65.08793],[-99.90677,65.0921],[-99.90677,65.09627],[-99.90677,65.10043],[-99.90677,65.1046],[-99.90677,65.10877],[-99.90677,65.11293],[-99.90677,65.1171]]]}},{"type":"Feature","properties":{"c":"103679","o":"ATHA Energy (NU) Corp. (100%)","e":"2026-10-10"},"geometry":{"type":"Polygon","coordinates":[[[-99.81301,65.11709],[-99.8052,65.11709],[-99.79739,65.11708],[-99.78957,65.11708],[-99.78176,65.11707],[-99.77395,65.11707],[-99.76613,65.11706],[-99.75832,65.11706],[-99.75051,65.11705],[-99.7427,65.11706],[-99.73488,65.11706],[-99.72707,65.11707],[-99.71926,65.11707],[-99.71926,65.11291],[-99.71926,65.10874],[-99.71926,65.10457],[-99.71926,65.10041],[-99.71926,65.09624],[-99.71926,65.09207],[-99.71926,65.08791],[-99.71926,65.08374],[-99.72707,65.08373],[-99.73488,65.08373],[-99.74269,65.08372],[-99.75051,65.08372],[-99.75832,65.08372],[-99.76613,65.08373],[-99.77395,65.08373],[-99.78176,65.08374],[-99.78957,65.08374],[-99.79739,65.08375],[-99.8052,65.08375],[-99.81301,65.08376],[-99.81301,65.08792],[-99.81301,65.09209],[-99.81301,65.09626],[-99.81301,65.10042],[-99.81301,65.10459],[-99.81301,65.10876],[-99.81301,65.11292],[-99.81301,65.11709]]]}},{"type":"Feature","properties":{"c":"103741","o":"ATHA Energy (NU) Corp. (100%)","e":"2026-10-10"},"geometry":{"type":"Polygon","coordinates":[[[-99.65676,65.31711],[-99.64895,65.31711],[-99.64113,65.31711],[-99.63332,65.31711],[-99.62551,65.31711],[-99.61769,65.31711],[-99.60988,65.31711],[-99.60207,65.31711],[-99.59426,65.31711],[-99.59426,65.31294],[-99.59425,65.30877],[-99.59425,65.30461],[-99.59425,65.30044],[-99.59425,65.29627],[-99.59425,65.29211],[-99.59425,65.28794],[-99.59425,65.28377],[-99.59425,65.27961],[-99.59425,65.27544],[-99.59425,65.27127],[-99.59425,65.26711],[-99.60207,65.26711],[-99.60988,65.26711],[-99.61769,65.26711],[-99.62551,65.26711],[-99.63332,65.26711],[-99.64113,65.26711],[-99.64894,65.26711],[-99.65676,65.26711],[-99.65676,65.27127],[-99.65676,65.27544],[-99.65676,65.27961],[-99.65676,65.28377],[-99.65676,65.28794],[-99.65676,65.29211],[-99.65676,65.29627],[-99.65676,65.30044],[-99.65676,65.30461],[-99.65676,65.30877],[-99.65676,65.31294],[-99.65676,65.31711]]]}},{"type":"Feature","properties":{"c":"103698","o":"ATHA Energy (NU) Corp. (100%)","e":"2026-10-10"},"geometry":{"type":"Polygon","coordinates":[[[-100.03178,65.30041],[-100.02397,65.30041],[-100.01616,65.3004],[-100.00834,65.3004],[-100.00053,65.30039],[-99.99272,65.3004],[-99.9849,65.3004],[-99.97709,65.30041],[-99.96928,65.30041],[-99.96928,65.29625],[-99.96928,65.29208],[-99.96928,65.28791],[-99.96928,65.28375],[-99.96928,65.27958],[-99.96928,65.27541],[-99.96928,65.27125],[-99.96928,65.26708],[-99.96928,65.26291],[-99.96928,65.25874],[-99.96928,65.25458],[-99.96928,65.25041],[-99.97709,65.25041],[-99.9849,65.2504],[-99.99271,65.25039],[-100.00053,65.25039],[-100.00834,65.25039],[-100.01615,65.2504],[-100.02397,65.25041],[-100.03178,65.25041],[-100.03178,65.25458],[-100.03178,65.25874],[-100.03178,65.26291],[-100.03178,65.26708],[-100.03178,65.27124],[-100.03178,65.27541],[-100.03178,65.27958],[-100.03178,65.28375],[-100.03178,65.28791],[-100.03178,65.29208],[-100.03178,65.29625],[-100.03178,65.30041]]]}},{"type":"Feature","properties":{"c":"103739","o":"ATHA Energy (NU) Corp. (100%)","e":"2026-10-10"},"geometry":{"type":"Polygon","coordinates":[[[-99.71926,65.35042],[-99.71145,65.35042],[-99.70364,65.35042],[-99.69583,65.35043],[-99.68801,65.35043],[-99.68801,65.34626],[-99.6802,65.34627],[-99.6802,65.3421],[-99.67239,65.3421],[-99.66457,65.34211],[-99.66457,65.33794],[-99.65676,65.33794],[-99.65676,65.33377],[-99.64895,65.33378],[-99.64895,65.32961],[-99.64113,65.32961],[-99.63332,65.32961],[-99.62551,65.32961],[-99.61769,65.32961],[-99.60988,65.32961],[-99.60207,65.32961],[-99.59426,65.32961],[-99.59426,65.32544],[-99.59426,65.32127],[-99.59426,65.31711],[-99.60207,65.31711],[-99.60988,65.31711],[-99.61769,65.31711],[-99.62551,65.31711],[-99.63332,65.31711],[-99.64113,65.31711],[-99.64895,65.31711],[-99.65676,65.31711],[-99.66457,65.31711],[-99.67239,65.3171],[-99.6802,65.3171],[-99.68801,65.3171],[-99.69582,65.31709],[-99.70364,65.31709],[-99.71145,65.31709],[-99.71926,65.31708],[-99.71926,65.32125],[-99.71926,65.32541],[-99.71926,65.32958],[-99.71926,65.33375],[-99.71926,65.33791],[-99.71926,65.34208],[-99.71926,65.34625],[-99.71926,65.35042]]]}},{"type":"Feature","properties":{"c":"103829","o":"ATHA Energy (NU) Corp. (100%)","e":"2026-10-10"},"geometry":{"type":"Polygon","coordinates":[[[-99.53175,65.26708],[-99.52394,65.26708],[-99.51612,65.26707],[-99.50831,65.26706],[-99.5005,65.26706],[-99.49268,65.26706],[-99.48487,65.26707],[-99.47706,65.26708],[-99.46925,65.26708],[-99.46143,65.26709],[-99.45362,65.26709],[-99.44581,65.26709],[-99.43799,65.2671],[-99.43799,65.26293],[-99.43799,65.25876],[-99.43799,65.2546],[-99.43799,65.25043],[-99.43799,65.24626],[-99.43799,65.2421],[-99.43799,65.23793],[-99.43799,65.23376],[-99.44581,65.23376],[-99.45362,65.23375],[-99.46143,65.23375],[-99.46924,65.23375],[-99.47706,65.23374],[-99.48487,65.23374],[-99.49268,65.23373],[-99.5005,65.23372],[-99.50831,65.23373],[-99.51612,65.23374],[-99.52394,65.23374],[-99.53175,65.23375],[-99.53175,65.23791],[-99.53175,65.24208],[-99.53175,65.24625],[-99.53175,65.25041],[-99.53175,65.25458],[-99.53175,65.25875],[-99.53175,65.26291],[-99.53175,65.26708]]]}},{"type":"Feature","properties":{"c":"103834","o":"ATHA Energy (NU) Corp. (100%)","e":"2026-10-10"},"geometry":{"type":"Polygon","coordinates":[[[-99.5005,65.30039],[-99.49269,65.3004],[-99.48487,65.3004],[-99.47706,65.30041],[-99.46925,65.30041],[-99.46143,65.30042],[-99.45362,65.30042],[-99.44581,65.30043],[-99.43799,65.30043],[-99.43018,65.30043],[-99.42237,65.30044],[-99.41456,65.30044],[-99.40674,65.30044],[-99.40674,65.29627],[-99.40674,65.29211],[-99.40674,65.28794],[-99.40674,65.28377],[-99.40674,65.27961],[-99.40674,65.27544],[-99.40674,65.27127],[-99.40674,65.26711],[-99.41455,65.2671],[-99.42237,65.2671],[-99.43018,65.2671],[-99.43799,65.2671],[-99.44581,65.26709],[-99.45362,65.26709],[-99.46143,65.26709],[-99.46925,65.26708],[-99.47706,65.26708],[-99.48487,65.26707],[-99.49268,65.26706],[-99.5005,65.26706],[-99.5005,65.27122],[-99.5005,65.27539],[-99.5005,65.27956],[-99.5005,65.28372],[-99.5005,65.28789],[-99.5005,65.29206],[-99.5005,65.29623],[-99.5005,65.30039]]]}},{"type":"Feature","properties":{"c":"103835","o":"ATHA Energy (NU) Corp. (100%)","e":"2026-10-10"},"geometry":{"type":"Polygon","coordinates":[[[-99.5005,65.33373],[-99.49269,65.33373],[-99.48487,65.33374],[-99.47706,65.33374],[-99.46925,65.33375],[-99.46143,65.33375],[-99.45362,65.33376],[-99.44581,65.33376],[-99.438,65.33377],[-99.43018,65.33377],[-99.42237,65.33377],[-99.41456,65.33377],[-99.40674,65.33378],[-99.40674,65.32961],[-99.40674,65.32544],[-99.40674,65.32127],[-99.40674,65.31711],[-99.40674,65.31294],[-99.40674,65.30877],[-99.40674,65.30461],[-99.40674,65.30044],[-99.41456,65.30044],[-99.42237,65.30044],[-99.43018,65.30043],[-99.43799,65.30043],[-99.44581,65.30043],[-99.45362,65.30042],[-99.46143,65.30042],[-99.46925,65.30041],[-99.47706,65.30041],[-99.48487,65.3004],[-99.49269,65.3004],[-99.5005,65.30039],[-99.5005,65.30456],[-99.5005,65.30873],[-99.5005,65.31289],[-99.5005,65.31706],[-99.5005,65.32123],[-99.5005,65.32539],[-99.5005,65.32956],[-99.5005,65.33373]]]}},{"type":"Feature","properties":{"c":"103694","o":"ATHA Energy (NU) Corp. (100%)","e":"2026-10-10"},"geometry":{"type":"Polygon","coordinates":[[[-99.68801,65.15042],[-99.68019,65.15043],[-99.67238,65.15043],[-99.66457,65.15043],[-99.65675,65.15043],[-99.64894,65.15044],[-99.64113,65.15044],[-99.63331,65.15044],[-99.6255,65.15044],[-99.61769,65.15044],[-99.60988,65.15044],[-99.60206,65.15044],[-99.59425,65.15043],[-99.59425,65.14627],[-99.59425,65.1421],[-99.59425,65.13793],[-99.59425,65.13377],[-99.59425,65.1296],[-99.59425,65.12543],[-99.59425,65.12127],[-99.59425,65.1171],[-99.60206,65.1171],[-99.60987,65.1171],[-99.61769,65.1171],[-99.6255,65.1171],[-99.63331,65.1171],[-99.64113,65.1171],[-99.64894,65.1171],[-99.65675,65.1171],[-99.66457,65.1171],[-99.67238,65.1171],[-99.68019,65.11709],[-99.688,65.11709],[-99.688,65.12126],[-99.68801,65.12542],[-99.68801,65.12959],[-99.68801,65.13376],[-99.68801,65.13792],[-99.68801,65.14209],[-99.68801,65.14626],[-99.68801,65.15042]]]}},{"type":"Feature","properties":{"c":"103680","o":"ATHA Energy (NU) Corp. (100%)","e":"2026-10-10"},"geometry":{"type":"Polygon","coordinates":[[[-99.96927,65.15041],[-99.96146,65.15041],[-99.95365,65.15042],[-99.94583,65.15042],[-99.93802,65.15042],[-99.93021,65.15043],[-99.92239,65.15043],[-99.91458,65.15043],[-99.90677,65.15043],[-99.89896,65.15043],[-99.89114,65.15044],[-99.88333,65.15044],[-99.87552,65.15044],[-99.87552,65.14627],[-99.87552,65.1421],[-99.87552,65.13794],[-99.87552,65.13377],[-99.87552,65.1296],[-99.87552,65.12544],[-99.87552,65.12127],[-99.87552,65.1171],[-99.88333,65.1171],[-99.89114,65.1171],[-99.89895,65.1171],[-99.90677,65.1171],[-99.91458,65.1171],[-99.92239,65.11709],[-99.93021,65.11709],[-99.93802,65.11709],[-99.94583,65.11709],[-99.95365,65.11708],[-99.96146,65.11708],[-99.96927,65.11707],[-99.96927,65.12124],[-99.96927,65.12541],[-99.96927,65.12957],[-99.96927,65.13374],[-99.96927,65.13791],[-99.96927,65.14207],[-99.96927,65.14624],[-99.96927,65.15041]]]}},{"type":"Feature","properties":{"c":"103718","o":"ATHA Energy (NU) Corp. (100%)","e":"2026-10-10"},"geometry":{"type":"Polygon","coordinates":[[[-99.90677,65.30044],[-99.89896,65.30044],[-99.89115,65.30044],[-99.88333,65.30044],[-99.87552,65.30044],[-99.86771,65.30044],[-99.8599,65.30044],[-99.85208,65.30044],[-99.84427,65.30044],[-99.84427,65.29627],[-99.84427,65.29211],[-99.84427,65.28794],[-99.84427,65.28377],[-99.84427,65.27961],[-99.84427,65.27544],[-99.84427,65.27127],[-99.84427,65.2671],[-99.84427,65.26294],[-99.84427,65.25877],[-99.84427,65.2546],[-99.84427,65.25044],[-99.85208,65.25044],[-99.85989,65.25044],[-99.86771,65.25044],[-99.87552,65.25044],[-99.88333,65.25044],[-99.89115,65.25044],[-99.89896,65.25044],[-99.90677,65.25044],[-99.90677,65.2546],[-99.90677,65.25877],[-99.90677,65.26294],[-99.90677,65.2671],[-99.90677,65.27127],[-99.90677,65.27544],[-99.90677,65.2796],[-99.90677,65.28377],[-99.90677,65.28794],[-99.90677,65.29211],[-99.90677,65.29627],[-99.90677,65.30044]]]}},{"type":"Feature","properties":{"c":"103721","o":"ATHA Energy (NU) Corp. (100%)","e":"2026-10-10"},"geometry":{"type":"Polygon","coordinates":[[[-99.84427,65.30044],[-99.83646,65.30044],[-99.82864,65.30044],[-99.82083,65.30043],[-99.81302,65.30043],[-99.80521,65.30043],[-99.79739,65.30042],[-99.78958,65.30042],[-99.78177,65.30041],[-99.78177,65.29625],[-99.78177,65.29208],[-99.78177,65.28791],[-99.78177,65.28375],[-99.78177,65.27958],[-99.78177,65.27541],[-99.78177,65.27125],[-99.78177,65.26708],[-99.78177,65.26291],[-99.78177,65.25875],[-99.78176,65.25458],[-99.78176,65.25041],[-99.78958,65.25042],[-99.79739,65.25042],[-99.8052,65.25042],[-99.81302,65.25043],[-99.82083,65.25043],[-99.82864,65.25043],[-99.83646,65.25044],[-99.84427,65.25044],[-99.84427,65.2546],[-99.84427,65.25877],[-99.84427,65.26294],[-99.84427,65.2671],[-99.84427,65.27127],[-99.84427,65.27544],[-99.84427,65.27961],[-99.84427,65.28377],[-99.84427,65.28794],[-99.84427,65.29211],[-99.84427,65.29627],[-99.84427,65.30044]]]}},{"type":"Feature","properties":{"c":"103723","o":"ATHA Energy (NU) Corp. (100%)","e":"2026-10-10"},"geometry":{"type":"Polygon","coordinates":[[[-99.78177,65.30041],[-99.77395,65.30041],[-99.76614,65.3004],[-99.75833,65.3004],[-99.75051,65.30039],[-99.7427,65.3004],[-99.73489,65.3004],[-99.72708,65.30041],[-99.71926,65.30041],[-99.71926,65.29625],[-99.71926,65.29208],[-99.71926,65.28791],[-99.71926,65.28375],[-99.71926,65.27958],[-99.71926,65.27541],[-99.71926,65.27125],[-99.71926,65.26708],[-99.71926,65.26291],[-99.71926,65.25875],[-99.71926,65.25458],[-99.71926,65.25041],[-99.72707,65.25041],[-99.73489,65.2504],[-99.7427,65.2504],[-99.75051,65.25039],[-99.75833,65.2504],[-99.76614,65.2504],[-99.77395,65.25041],[-99.78176,65.25041],[-99.78176,65.25458],[-99.78177,65.25875],[-99.78177,65.26291],[-99.78177,65.26708],[-99.78177,65.27125],[-99.78177,65.27541],[-99.78177,65.27958],[-99.78177,65.28375],[-99.78177,65.28791],[-99.78177,65.29208],[-99.78177,65.29625],[-99.78177,65.30041]]]}},{"type":"Feature","properties":{"c":"103822","o":"ATHA Energy (NU) Corp. (100%)","e":"2026-10-10"},"geometry":{"type":"Polygon","coordinates":[[[-99.59425,65.30044],[-99.58644,65.30044],[-99.57863,65.30044],[-99.57082,65.30043],[-99.563,65.30043],[-99.55519,65.30043],[-99.54738,65.30042],[-99.53956,65.30042],[-99.53175,65.30041],[-99.52394,65.30041],[-99.51612,65.3004],[-99.50831,65.3004],[-99.5005,65.30039],[-99.5005,65.29623],[-99.5005,65.29206],[-99.5005,65.28789],[-99.5005,65.28372],[-99.5005,65.27956],[-99.5005,65.27539],[-99.5005,65.27122],[-99.5005,65.26706],[-99.50831,65.26706],[-99.51612,65.26707],[-99.52394,65.26708],[-99.53175,65.26708],[-99.53956,65.26708],[-99.54738,65.26709],[-99.55519,65.26709],[-99.563,65.2671],[-99.57081,65.2671],[-99.57863,65.2671],[-99.58644,65.2671],[-99.59425,65.26711],[-99.59425,65.27127],[-99.59425,65.27544],[-99.59425,65.27961],[-99.59425,65.28377],[-99.59425,65.28794],[-99.59425,65.29211],[-99.59425,65.29627],[-99.59425,65.30044]]]}},{"type":"Feature","properties":{"c":"103824","o":"ATHA Energy (NU) Corp. (100%)","e":"2026-10-10"},"geometry":{"type":"Polygon","coordinates":[[[-99.59426,65.33377],[-99.58644,65.33377],[-99.57863,65.33377],[-99.57082,65.33377],[-99.563,65.33376],[-99.55519,65.33376],[-99.54738,65.33376],[-99.53956,65.33375],[-99.53175,65.33375],[-99.52394,65.33374],[-99.51613,65.33374],[-99.50831,65.33373],[-99.5005,65.33373],[-99.5005,65.32956],[-99.5005,65.32539],[-99.5005,65.32123],[-99.5005,65.31706],[-99.5005,65.31289],[-99.5005,65.30873],[-99.5005,65.30456],[-99.5005,65.30039],[-99.50831,65.3004],[-99.51612,65.3004],[-99.52394,65.30041],[-99.53175,65.30041],[-99.53956,65.30042],[-99.54738,65.30042],[-99.55519,65.30043],[-99.563,65.30043],[-99.57082,65.30043],[-99.57863,65.30044],[-99.58644,65.30044],[-99.59425,65.30044],[-99.59425,65.30461],[-99.59425,65.30877],[-99.59426,65.31294],[-99.59426,65.31711],[-99.59426,65.32127],[-99.59426,65.32544],[-99.59426,65.32961],[-99.59426,65.33377]]]}},{"type":"Feature","properties":{"c":"103826","o":"ATHA Energy (NU) Corp. (100%)","e":"2026-10-10"},"geometry":{"type":"Polygon","coordinates":[[[-99.53175,65.23375],[-99.52394,65.23374],[-99.51612,65.23374],[-99.50831,65.23373],[-99.5005,65.23372],[-99.49268,65.23373],[-99.48487,65.23374],[-99.47706,65.23374],[-99.46924,65.23375],[-99.46143,65.23375],[-99.45362,65.23375],[-99.44581,65.23376],[-99.43799,65.23376],[-99.43799,65.2296],[-99.43799,65.22543],[-99.43799,65.22126],[-99.43799,65.2171],[-99.43799,65.21293],[-99.43799,65.20876],[-99.43799,65.20459],[-99.43799,65.20043],[-99.4458,65.20042],[-99.45362,65.20042],[-99.46143,65.20042],[-99.46924,65.20041],[-99.47706,65.20041],[-99.48487,65.2004],[-99.49268,65.20039],[-99.5005,65.20039],[-99.50831,65.20039],[-99.51612,65.2004],[-99.52393,65.20041],[-99.53175,65.20041],[-99.53175,65.20458],[-99.53175,65.20874],[-99.53175,65.21291],[-99.53175,65.21708],[-99.53175,65.22125],[-99.53175,65.22541],[-99.53175,65.22958],[-99.53175,65.23375]]]}},{"type":"Feature","properties":{"c":"103696","o":"ATHA Energy (NU) Corp. (100%)","e":"2026-10-10"},"geometry":{"type":"Polygon","coordinates":[[[-99.96928,65.25041],[-99.96146,65.25042],[-99.95365,65.25042],[-99.94584,65.25042],[-99.93802,65.25043],[-99.93021,65.25043],[-99.9224,65.25043],[-99.91459,65.25044],[-99.90677,65.25044],[-99.90677,65.24627],[-99.90677,65.2421],[-99.90677,65.23794],[-99.90677,65.23377],[-99.90677,65.2296],[-99.90677,65.22544],[-99.90677,65.22127],[-99.90677,65.2171],[-99.90677,65.21294],[-99.90677,65.20877],[-99.90677,65.2046],[-99.90677,65.20044],[-99.91458,65.20043],[-99.9224,65.20043],[-99.93021,65.20043],[-99.93802,65.20043],[-99.94584,65.20042],[-99.95365,65.20042],[-99.96146,65.20041],[-99.96927,65.20041],[-99.96927,65.20458],[-99.96927,65.20874],[-99.96927,65.21291],[-99.96927,65.21708],[-99.96927,65.22124],[-99.96927,65.22541],[-99.96928,65.22958],[-99.96928,65.23374],[-99.96928,65.23791],[-99.96928,65.24208],[-99.96928,65.24624],[-99.96928,65.25041]]]}},{"type":"Feature","properties":{"c":"103659","o":"ATHA Energy (NU) Corp. (100%)","e":"2026-10-10"},"geometry":{"type":"Polygon","coordinates":[[[-99.90677,65.08376],[-99.89895,65.08377],[-99.89114,65.08377],[-99.88333,65.08377],[-99.87552,65.08377],[-99.8677,65.08377],[-99.85989,65.08377],[-99.85208,65.08377],[-99.84426,65.08377],[-99.83645,65.08376],[-99.82864,65.08376],[-99.82082,65.08376],[-99.81301,65.08376],[-99.81301,65.07959],[-99.81301,65.07542],[-99.81301,65.07126],[-99.81301,65.06709],[-99.81301,65.06292],[-99.81301,65.05875],[-99.81301,65.05459],[-99.81301,65.05042],[-99.81301,65.04625],[-99.81301,65.04209],[-99.81301,65.03792],[-99.82082,65.03792],[-99.82864,65.03793],[-99.83645,65.03793],[-99.84426,65.03793],[-99.84426,65.0421],[-99.84426,65.04626],[-99.84426,65.05043],[-99.84426,65.0546],[-99.84426,65.05876],[-99.84426,65.06293],[-99.85208,65.06293],[-99.85989,65.06293],[-99.8677,65.06293],[-99.87551,65.06293],[-99.88333,65.06293],[-99.89114,65.06293],[-99.89895,65.06293],[-99.90677,65.06293],[-99.90677,65.0671],[-99.90677,65.07126],[-99.90677,65.07543],[-99.90677,65.0796],[-99.90677,65.08376]]]}},{"type":"Feature","properties":{"c":"103661","o":"ATHA Energy (NU) Corp. (100%)","e":"2026-10-10"},"geometry":{"type":"Polygon","coordinates":[[[-99.75051,65.08372],[-99.74269,65.08372],[-99.73488,65.08373],[-99.72707,65.08373],[-99.71926,65.08374],[-99.71144,65.08374],[-99.70363,65.08375],[-99.69582,65.08375],[-99.688,65.08376],[-99.688,65.07959],[-99.688,65.07542],[-99.688,65.07126],[-99.688,65.06709],[-99.688,65.06292],[-99.688,65.05876],[-99.688,65.05459],[-99.688,65.05042],[-99.688,65.04625],[-99.688,65.04209],[-99.688,65.03792],[-99.69582,65.03792],[-99.70363,65.03791],[-99.71144,65.03791],[-99.71925,65.0379],[-99.72707,65.0379],[-99.73488,65.03789],[-99.74269,65.03789],[-99.75051,65.03788],[-99.75051,65.04205],[-99.75051,65.04622],[-99.75051,65.05038],[-99.75051,65.05455],[-99.75051,65.05872],[-99.75051,65.06288],[-99.75051,65.06705],[-99.75051,65.07122],[-99.75051,65.07538],[-99.75051,65.07955],[-99.75051,65.08372]]]}},{"type":"Feature","properties":{"c":"103682","o":"ATHA Energy (NU) Corp. (100%)","e":"2026-10-10"},"geometry":{"type":"Polygon","coordinates":[[[-99.688,65.08376],[-99.68019,65.08376],[-99.67238,65.08376],[-99.66456,65.08376],[-99.65675,65.08377],[-99.64894,65.08377],[-99.64113,65.08377],[-99.63331,65.08377],[-99.6255,65.08377],[-99.6255,65.0796],[-99.6255,65.07544],[-99.6255,65.07127],[-99.6255,65.0671],[-99.6255,65.06294],[-99.6255,65.05877],[-99.6255,65.0546],[-99.6255,65.05044],[-99.6255,65.04627],[-99.6255,65.0421],[-99.6255,65.03793],[-99.6255,65.03377],[-99.63331,65.03377],[-99.64112,65.03377],[-99.64894,65.03377],[-99.65675,65.03376],[-99.66456,65.03376],[-99.67238,65.03376],[-99.68019,65.03376],[-99.688,65.03375],[-99.688,65.03792],[-99.688,65.04209],[-99.688,65.04625],[-99.688,65.05042],[-99.688,65.05459],[-99.688,65.05876],[-99.688,65.06292],[-99.688,65.06709],[-99.688,65.07126],[-99.688,65.07542],[-99.688,65.07959],[-99.688,65.08376]]]}},{"type":"Feature","properties":{"c":"103681","o":"ATHA Energy (NU) Corp. (100%)","e":"2026-10-10"},"geometry":{"type":"Polygon","coordinates":[[[-99.87552,65.15044],[-99.8677,65.15044],[-99.85989,65.15044],[-99.85208,65.15044],[-99.84427,65.15043],[-99.83645,65.15043],[-99.82864,65.15043],[-99.82083,65.15043],[-99.81301,65.15042],[-99.8052,65.15042],[-99.79739,65.15042],[-99.78957,65.15041],[-99.78176,65.15041],[-99.78176,65.14624],[-99.78176,65.14207],[-99.78176,65.13791],[-99.78176,65.13374],[-99.78176,65.12957],[-99.78176,65.12541],[-99.78176,65.12124],[-99.78176,65.11707],[-99.78957,65.11708],[-99.79739,65.11708],[-99.8052,65.11709],[-99.81301,65.11709],[-99.82083,65.11709],[-99.82864,65.1171],[-99.83645,65.1171],[-99.84426,65.1171],[-99.85208,65.1171],[-99.85989,65.1171],[-99.8677,65.1171],[-99.87552,65.1171],[-99.87552,65.12127],[-99.87552,65.12544],[-99.87552,65.1296],[-99.87552,65.13377],[-99.87552,65.13794],[-99.87552,65.1421],[-99.87552,65.14627],[-99.87552,65.15044]]]}},{"type":"Feature","properties":{"c":"103808","o":"Chris Brown (100%)","e":"2025-11-30"},"geometry":{"type":"Polygon","coordinates":[[[-99.6255,65.0671],[-99.61769,65.0671],[-99.60987,65.0671],[-99.60206,65.0671],[-99.59425,65.0671],[-99.58643,65.0671],[-99.57862,65.0671],[-99.57081,65.06709],[-99.563,65.06709],[-99.55518,65.06709],[-99.54737,65.06708],[-99.53956,65.06708],[-99.53174,65.06707],[-99.53174,65.06291],[-99.53174,65.05874],[-99.53174,65.05457],[-99.53174,65.05041],[-99.53174,65.04624],[-99.53174,65.04207],[-99.53174,65.03791],[-99.53174,65.03374],[-99.53956,65.03374],[-99.54737,65.03375],[-99.55518,65.03375],[-99.56299,65.03376],[-99.57081,65.03376],[-99.57862,65.03376],[-99.58643,65.03376],[-99.59425,65.03376],[-99.60206,65.03377],[-99.60987,65.03377],[-99.61769,65.03377],[-99.6255,65.03377],[-99.6255,65.03793],[-99.6255,65.0421],[-99.6255,65.04627],[-99.6255,65.05044],[-99.6255,65.0546],[-99.6255,65.05877],[-99.6255,65.06294],[-99.6255,65.0671]]]}},{"type":"Feature","properties":{"c":"103778","o":"ATHA Energy (NU) Corp. (100%)","e":"2026-10-10"},"geometry":{"type":"Polygon","coordinates":[[[-99.688,65.00042],[-99.68019,65.00042],[-99.67238,65.00043],[-99.66456,65.00043],[-99.65675,65.00043],[-99.64894,65.00043],[-99.64112,65.00043],[-99.63331,65.00043],[-99.6255,65.00043],[-99.61768,65.00043],[-99.60987,65.00043],[-99.60206,65.00043],[-99.59425,65.00043],[-99.59425,64.99626],[-99.59425,64.9921],[-99.59425,64.98793],[-99.59424,64.98376],[-99.59424,64.9796],[-99.59424,64.97543],[-99.59424,64.97126],[-99.59424,64.9671],[-99.59424,64.96293],[-99.59424,64.95876],[-99.60206,64.95876],[-99.60206,64.96293],[-99.60987,64.96293],[-99.61768,64.96293],[-99.61768,64.9671],[-99.6255,64.9671],[-99.63331,64.9671],[-99.64112,64.9671],[-99.64112,64.97126],[-99.64894,64.97126],[-99.65675,64.97126],[-99.65675,64.97543],[-99.66456,64.97543],[-99.67237,64.97542],[-99.68019,64.97542],[-99.68019,64.97959],[-99.688,64.97959],[-99.688,64.98375],[-99.688,64.98792],[-99.688,64.99209],[-99.688,64.99625],[-99.688,65.00042]]]}},{"type":"Feature","properties":{"c":"103813","o":"ATHA Energy (NU) Corp. (100%)","e":"2026-10-10"},"geometry":{"type":"Polygon","coordinates":[[[-99.71926,65.23374],[-99.71145,65.23375],[-99.70363,65.23375],[-99.69582,65.23376],[-99.68801,65.23376],[-99.6802,65.23376],[-99.67238,65.23377],[-99.66457,65.23377],[-99.65676,65.23377],[-99.64894,65.23377],[-99.64113,65.23377],[-99.63332,65.23377],[-99.6255,65.23377],[-99.6255,65.22961],[-99.6255,65.22544],[-99.6255,65.22127],[-99.6255,65.21711],[-99.6255,65.21294],[-99.6255,65.20877],[-99.6255,65.20461],[-99.6255,65.20044],[-99.63332,65.20044],[-99.64113,65.20044],[-99.64894,65.20044],[-99.65676,65.20044],[-99.66457,65.20043],[-99.67238,65.20043],[-99.68019,65.20043],[-99.68801,65.20043],[-99.69582,65.20042],[-99.70363,65.20042],[-99.71145,65.20041],[-99.71926,65.20041],[-99.71926,65.20458],[-99.71926,65.20874],[-99.71926,65.21291],[-99.71926,65.21708],[-99.71926,65.22124],[-99.71926,65.22541],[-99.71926,65.22958],[-99.71926,65.23374]]]}},{"type":"Feature","properties":{"c":"103842","o":"ATHA Energy (NU) Corp. (100%)","e":"2026-10-10"},"geometry":{"type":"Polygon","coordinates":[[[-99.563,65.11709],[-99.55518,65.11709],[-99.54737,65.11708],[-99.53956,65.11708],[-99.53174,65.11707],[-99.52393,65.11707],[-99.51612,65.11706],[-99.50831,65.11706],[-99.50049,65.11705],[-99.50049,65.11289],[-99.50049,65.10872],[-99.50049,65.10455],[-99.50049,65.10039],[-99.50049,65.09622],[-99.50049,65.09205],[-99.50049,65.08788],[-99.50049,65.08372],[-99.50049,65.07955],[-99.50049,65.07538],[-99.50049,65.07122],[-99.50049,65.06705],[-99.5083,65.06706],[-99.51612,65.06706],[-99.52393,65.06707],[-99.53174,65.06707],[-99.53956,65.06708],[-99.54737,65.06708],[-99.55518,65.06709],[-99.563,65.06709],[-99.563,65.07126],[-99.563,65.07542],[-99.563,65.07959],[-99.563,65.08376],[-99.563,65.08792],[-99.563,65.09209],[-99.563,65.09626],[-99.563,65.10042],[-99.563,65.10459],[-99.563,65.10876],[-99.563,65.11292],[-99.563,65.11709]]]}},{"type":"Feature","properties":{"c":"103843","o":"ATHA Energy (NU) Corp. (100%)","e":"2026-10-10"},"geometry":{"type":"Polygon","coordinates":[[[-99.50049,65.15039],[-99.49268,65.15039],[-99.48487,65.1504],[-99.47706,65.1504],[-99.46924,65.15041],[-99.46143,65.15041],[-99.45362,65.15042],[-99.4458,65.15042],[-99.43799,65.15043],[-99.43018,65.15043],[-99.42236,65.15043],[-99.41455,65.15043],[-99.40674,65.15044],[-99.40674,65.14627],[-99.40674,65.1421],[-99.40674,65.13794],[-99.40674,65.13377],[-99.40674,65.1296],[-99.40674,65.12544],[-99.40674,65.12127],[-99.40674,65.1171],[-99.41455,65.1171],[-99.42236,65.1171],[-99.43018,65.11709],[-99.43799,65.11709],[-99.4458,65.11709],[-99.45362,65.11708],[-99.46143,65.11708],[-99.46924,65.11708],[-99.47705,65.11707],[-99.48487,65.11706],[-99.49268,65.11706],[-99.50049,65.11705],[-99.50049,65.12122],[-99.50049,65.12539],[-99.50049,65.12955],[-99.50049,65.13372],[-99.50049,65.13789],[-99.50049,65.14205],[-99.50049,65.14622],[-99.50049,65.15039]]]}},{"type":"Feature","properties":{"c":"103877","o":"ATHA Energy (NU) Corp. (100%)","e":"2026-10-10"},"geometry":{"type":"Polygon","coordinates":[[[-99.50049,65.11705],[-99.49268,65.11706],[-99.48487,65.11706],[-99.47705,65.11707],[-99.46924,65.11708],[-99.46143,65.11708],[-99.45362,65.11708],[-99.4458,65.11709],[-99.43799,65.11709],[-99.43018,65.11709],[-99.42236,65.1171],[-99.41455,65.1171],[-99.40674,65.1171],[-99.40674,65.12127],[-99.40674,65.12544],[-99.40674,65.1296],[-99.40674,65.13377],[-99.40674,65.13794],[-99.40674,65.1421],[-99.40674,65.14627],[-99.40674,65.15044],[-99.39892,65.15044],[-99.39111,65.15044],[-99.3833,65.15044],[-99.37549,65.15044],[-99.37549,65.14627],[-99.37549,65.14211],[-99.37549,65.13794],[-99.37549,65.13377],[-99.37549,65.12961],[-99.37549,65.12544],[-99.37549,65.12127],[-99.37548,65.11711],[-99.37548,65.11294],[-99.37548,65.10877],[-99.37548,65.1046],[-99.37548,65.10044],[-99.3833,65.10044],[-99.39111,65.10044],[-99.39892,65.10044],[-99.40674,65.10043],[-99.41455,65.10043],[-99.42236,65.10043],[-99.43018,65.10043],[-99.43799,65.10042],[-99.4458,65.10042],[-99.45361,65.10042],[-99.46143,65.10041],[-99.46924,65.10041],[-99.47705,65.1004],[-99.48487,65.1004],[-99.49268,65.10039],[-99.50049,65.10039],[-99.50049,65.10455],[-99.50049,65.10872],[-99.50049,65.11289],[-99.50049,65.11705]]]}},{"type":"Feature","properties":{"c":"103878","o":"ATHA Energy (NU) Corp. (100%)","e":"2026-10-10"},"geometry":{"type":"Polygon","coordinates":[[[-99.50049,65.10039],[-99.49268,65.10039],[-99.48487,65.1004],[-99.47705,65.1004],[-99.46924,65.10041],[-99.46143,65.10041],[-99.45361,65.10042],[-99.4458,65.10042],[-99.43799,65.10042],[-99.43018,65.10043],[-99.42236,65.10043],[-99.41455,65.10043],[-99.40674,65.10043],[-99.40674,65.09627],[-99.40674,65.0921],[-99.40674,65.08793],[-99.40674,65.08377],[-99.40674,65.0796],[-99.40674,65.07543],[-99.40674,65.07127],[-99.40674,65.0671],[-99.41455,65.0671],[-99.42236,65.0671],[-99.43017,65.06709],[-99.43799,65.06709],[-99.4458,65.06709],[-99.45361,65.06708],[-99.46143,65.06708],[-99.46924,65.06707],[-99.47705,65.06707],[-99.48487,65.06706],[-99.49268,65.06706],[-99.50049,65.06705],[-99.50049,65.07122],[-99.50049,65.07538],[-99.50049,65.07955],[-99.50049,65.08372],[-99.50049,65.08788],[-99.50049,65.09205],[-99.50049,65.09622],[-99.50049,65.10039]]]}},{"type":"Feature","properties":{"c":"103728","o":"ATHA Energy (NU) Corp. (100%)","e":"2026-10-10"},"geometry":{"type":"Polygon","coordinates":[[[-100.03178,65.38375],[-100.02397,65.38374],[-100.01616,65.38374],[-100.00834,65.38373],[-100.00053,65.38373],[-99.99272,65.38373],[-99.98491,65.38374],[-99.97709,65.38374],[-99.96928,65.38375],[-99.96928,65.37958],[-99.96928,65.37542],[-99.96928,65.37125],[-99.96928,65.36708],[-99.96928,65.36291],[-99.96928,65.35875],[-99.96928,65.35458],[-99.96928,65.35041],[-99.96928,65.34625],[-99.96928,65.34208],[-99.96928,65.33791],[-99.96928,65.33375],[-99.97709,65.33374],[-99.9849,65.33374],[-99.99272,65.33373],[-100.00053,65.33372],[-100.00834,65.33373],[-100.01616,65.33374],[-100.02397,65.33374],[-100.03178,65.33375],[-100.03178,65.33791],[-100.03178,65.34208],[-100.03178,65.34625],[-100.03178,65.35041],[-100.03178,65.35458],[-100.03178,65.35875],[-100.03178,65.36291],[-100.03178,65.36708],[-100.03178,65.37125],[-100.03178,65.37542],[-100.03178,65.37958],[-100.03178,65.38375]]]}},{"type":"Feature","properties":{"c":"103729","o":"ATHA Energy (NU) Corp. (100%)","e":"2026-10-10"},"geometry":{"type":"Polygon","coordinates":[[[-99.96928,65.35041],[-99.96147,65.35042],[-99.95365,65.35042],[-99.94584,65.35043],[-99.93803,65.35043],[-99.93021,65.35043],[-99.9224,65.35044],[-99.91459,65.35044],[-99.90678,65.35044],[-99.90678,65.34627],[-99.90678,65.34211],[-99.90677,65.33794],[-99.90677,65.33377],[-99.90677,65.32961],[-99.90677,65.32544],[-99.90677,65.32127],[-99.90677,65.31711],[-99.90677,65.31294],[-99.90677,65.30877],[-99.90677,65.30461],[-99.90677,65.30044],[-99.91459,65.30044],[-99.9224,65.30043],[-99.93021,65.30043],[-99.93803,65.30043],[-99.94584,65.30043],[-99.95365,65.30042],[-99.96146,65.30042],[-99.96928,65.30041],[-99.96928,65.30458],[-99.96928,65.30875],[-99.96928,65.31291],[-99.96928,65.31708],[-99.96928,65.32125],[-99.96928,65.32541],[-99.96928,65.32958],[-99.96928,65.33375],[-99.96928,65.33791],[-99.96928,65.34208],[-99.96928,65.34625],[-99.96928,65.35041]]]}},{"type":"Feature","properties":{"c":"103730","o":"ATHA Energy (NU) Corp. (100%)","e":"2026-10-10"},"geometry":{"type":"Polygon","coordinates":[[[-100.06304,65.3921],[-100.05522,65.39209],[-100.05522,65.39626],[-100.04741,65.39626],[-100.04741,65.40042],[-100.0396,65.40042],[-100.0396,65.40459],[-100.0396,65.40875],[-100.03178,65.40875],[-100.03178,65.41292],[-100.02397,65.41291],[-100.02397,65.41708],[-100.02397,65.42125],[-100.01616,65.42124],[-100.01616,65.42541],[-100.00835,65.4254],[-100.00835,65.42957],[-100.00053,65.42956],[-100.00053,65.43373],[-99.99272,65.43373],[-99.98491,65.43374],[-99.97709,65.43375],[-99.96928,65.43375],[-99.96928,65.42958],[-99.96928,65.42542],[-99.96928,65.42125],[-99.96928,65.41708],[-99.96928,65.41292],[-99.96928,65.40875],[-99.96928,65.40458],[-99.96928,65.40042],[-99.96928,65.39625],[-99.96928,65.39208],[-99.96928,65.38792],[-99.96928,65.38375],[-99.97709,65.38374],[-99.98491,65.38374],[-99.99272,65.38373],[-100.00053,65.38373],[-100.00834,65.38373],[-100.01616,65.38374],[-100.02397,65.38374],[-100.03178,65.38375],[-100.0396,65.38375],[-100.04741,65.38376],[-100.05522,65.38376],[-100.06304,65.38376],[-100.06304,65.38793],[-100.06304,65.3921]]]}},{"type":"Feature","properties":{"c":"103731","o":"ATHA Energy (NU) Corp. (100%)","e":"2026-10-10"},"geometry":{"type":"Polygon","coordinates":[[[-99.90678,65.35044],[-99.89896,65.35044],[-99.89115,65.35044],[-99.88334,65.35044],[-99.87552,65.35044],[-99.86771,65.35044],[-99.8599,65.35044],[-99.85208,65.35044],[-99.84427,65.35044],[-99.84427,65.34627],[-99.84427,65.34211],[-99.84427,65.33794],[-99.84427,65.33377],[-99.84427,65.32961],[-99.84427,65.32544],[-99.84427,65.32127],[-99.84427,65.31711],[-99.84427,65.31294],[-99.84427,65.30877],[-99.84427,65.30461],[-99.84427,65.30044],[-99.85208,65.30044],[-99.8599,65.30044],[-99.86771,65.30044],[-99.87552,65.30044],[-99.88333,65.30044],[-99.89115,65.30044],[-99.89896,65.30044],[-99.90677,65.30044],[-99.90677,65.30461],[-99.90677,65.30877],[-99.90677,65.31294],[-99.90677,65.31711],[-99.90677,65.32127],[-99.90677,65.32544],[-99.90677,65.32961],[-99.90677,65.33377],[-99.90677,65.33794],[-99.90678,65.34211],[-99.90678,65.34627],[-99.90678,65.35044]]]}},{"type":"Feature","properties":{"c":"103732","o":"ATHA Energy (NU) Corp. (100%)","e":"2026-10-10"},"geometry":{"type":"Polygon","coordinates":[[[-99.96928,65.43375],[-99.96147,65.43376],[-99.96147,65.42959],[-99.95366,65.42959],[-99.94584,65.4296],[-99.94584,65.42543],[-99.93803,65.42543],[-99.93022,65.42544],[-99.9224,65.42544],[-99.9224,65.42127],[-99.91459,65.42127],[-99.90678,65.42128],[-99.90678,65.41711],[-99.90678,65.41294],[-99.90678,65.40878],[-99.90678,65.40461],[-99.90678,65.40044],[-99.90678,65.39628],[-99.90678,65.39211],[-99.90678,65.38794],[-99.90678,65.38378],[-99.91459,65.38377],[-99.9224,65.38377],[-99.93022,65.38377],[-99.93803,65.38377],[-99.94584,65.38376],[-99.95365,65.38376],[-99.96147,65.38375],[-99.96928,65.38375],[-99.96928,65.38792],[-99.96928,65.39208],[-99.96928,65.39625],[-99.96928,65.40042],[-99.96928,65.40458],[-99.96928,65.40875],[-99.96928,65.41292],[-99.96928,65.41708],[-99.96928,65.42125],[-99.96928,65.42542],[-99.96928,65.42958],[-99.96928,65.43375]]]}},{"type":"Feature","properties":{"c":"103689","o":"ATHA Energy (NU) Corp. (100%)","e":"2026-10-10"},"geometry":{"type":"Polygon","coordinates":[[[-100.03178,65.25041],[-100.02397,65.25041],[-100.01615,65.2504],[-100.00834,65.25039],[-100.00053,65.25039],[-99.99271,65.25039],[-99.9849,65.2504],[-99.97709,65.25041],[-99.96928,65.25041],[-99.96928,65.24624],[-99.96928,65.24208],[-99.96928,65.23791],[-99.96928,65.23374],[-99.96928,65.22958],[-99.96927,65.22541],[-99.96927,65.22124],[-99.96927,65.21708],[-99.96927,65.21291],[-99.96927,65.20874],[-99.96927,65.20458],[-99.96927,65.20041],[-99.97709,65.2004],[-99.9849,65.2004],[-99.99271,65.20039],[-100.00053,65.20039],[-100.00834,65.20039],[-100.01615,65.2004],[-100.02396,65.2004],[-100.03178,65.20041],[-100.03178,65.20458],[-100.03178,65.20874],[-100.03178,65.21291],[-100.03178,65.21708],[-100.03178,65.22124],[-100.03178,65.22541],[-100.03178,65.22958],[-100.03178,65.23374],[-100.03178,65.23791],[-100.03178,65.24208],[-100.03178,65.24624],[-100.03178,65.25041]]]}},{"type":"Feature","properties":{"c":"103691","o":"ATHA Energy (NU) Corp. (100%)","e":"2026-10-10"},"geometry":{"type":"Polygon","coordinates":[[[-99.71926,65.11707],[-99.71144,65.11708],[-99.70363,65.11708],[-99.69582,65.11709],[-99.688,65.11709],[-99.68019,65.11709],[-99.67238,65.1171],[-99.66457,65.1171],[-99.65675,65.1171],[-99.64894,65.1171],[-99.64113,65.1171],[-99.63331,65.1171],[-99.6255,65.1171],[-99.6255,65.11294],[-99.6255,65.10877],[-99.6255,65.1046],[-99.6255,65.10044],[-99.6255,65.09627],[-99.6255,65.0921],[-99.6255,65.08794],[-99.6255,65.08377],[-99.63331,65.08377],[-99.64113,65.08377],[-99.64894,65.08377],[-99.65675,65.08377],[-99.66456,65.08376],[-99.67238,65.08376],[-99.68019,65.08376],[-99.688,65.08376],[-99.69582,65.08375],[-99.70363,65.08375],[-99.71144,65.08374],[-99.71926,65.08374],[-99.71926,65.08791],[-99.71926,65.09207],[-99.71926,65.09624],[-99.71926,65.10041],[-99.71926,65.10457],[-99.71926,65.10874],[-99.71926,65.11291],[-99.71926,65.11707]]]}},{"type":"Feature","properties":{"c":"103692","o":"ATHA Energy (NU) Corp. (100%)","e":"2026-10-10"},"geometry":{"type":"Polygon","coordinates":[[[-99.6255,65.1171],[-99.61769,65.1171],[-99.60987,65.1171],[-99.60206,65.1171],[-99.59425,65.1171],[-99.58644,65.1171],[-99.57862,65.1171],[-99.57081,65.11709],[-99.563,65.11709],[-99.563,65.11292],[-99.563,65.10876],[-99.563,65.10459],[-99.563,65.10042],[-99.563,65.09626],[-99.563,65.09209],[-99.563,65.08792],[-99.563,65.08376],[-99.563,65.07959],[-99.563,65.07542],[-99.563,65.07126],[-99.563,65.06709],[-99.57081,65.06709],[-99.57862,65.0671],[-99.58643,65.0671],[-99.59425,65.0671],[-99.60206,65.0671],[-99.60987,65.0671],[-99.61769,65.0671],[-99.6255,65.0671],[-99.6255,65.07127],[-99.6255,65.07544],[-99.6255,65.0796],[-99.6255,65.08377],[-99.6255,65.08794],[-99.6255,65.0921],[-99.6255,65.09627],[-99.6255,65.10044],[-99.6255,65.1046],[-99.6255,65.10877],[-99.6255,65.11294],[-99.6255,65.1171]]]}},{"type":"Feature","properties":{"c":"103693","o":"ATHA Energy (NU) Corp. (100%)","e":"2026-10-10"},"geometry":{"type":"Polygon","coordinates":[[[-99.78176,65.15041],[-99.77395,65.1504],[-99.76614,65.1504],[-99.75832,65.15039],[-99.75051,65.15039],[-99.7427,65.15039],[-99.73488,65.1504],[-99.72707,65.1504],[-99.71926,65.15041],[-99.71144,65.15041],[-99.70363,65.15042],[-99.69582,65.15042],[-99.68801,65.15042],[-99.68801,65.14626],[-99.68801,65.14209],[-99.68801,65.13792],[-99.68801,65.13376],[-99.68801,65.12959],[-99.68801,65.12542],[-99.688,65.12126],[-99.688,65.11709],[-99.69582,65.11709],[-99.70363,65.11708],[-99.71144,65.11708],[-99.71926,65.11707],[-99.72707,65.11707],[-99.73488,65.11706],[-99.7427,65.11706],[-99.75051,65.11705],[-99.75832,65.11706],[-99.76613,65.11706],[-99.77395,65.11707],[-99.78176,65.11707],[-99.78176,65.12124],[-99.78176,65.12541],[-99.78176,65.12957],[-99.78176,65.13374],[-99.78176,65.13791],[-99.78176,65.14207],[-99.78176,65.14624],[-99.78176,65.15041]]]}},{"type":"Feature","properties":{"c":"103695","o":"ATHA Energy (NU) Corp. (100%)","e":"2026-10-10"},"geometry":{"type":"Polygon","coordinates":[[[-99.90677,65.20044],[-99.89896,65.20044],[-99.89114,65.20044],[-99.88333,65.20044],[-99.87552,65.20044],[-99.86771,65.20044],[-99.85989,65.20044],[-99.85208,65.20044],[-99.84427,65.20044],[-99.84427,65.19627],[-99.84427,65.1921],[-99.84427,65.18793],[-99.84427,65.18377],[-99.84427,65.1796],[-99.84427,65.17543],[-99.84427,65.17127],[-99.84427,65.1671],[-99.84427,65.16293],[-99.84427,65.15877],[-99.84427,65.1546],[-99.84427,65.15043],[-99.85208,65.15044],[-99.85989,65.15044],[-99.8677,65.15044],[-99.87552,65.15044],[-99.88333,65.15044],[-99.89114,65.15044],[-99.89896,65.15043],[-99.90677,65.15043],[-99.90677,65.1546],[-99.90677,65.15877],[-99.90677,65.16293],[-99.90677,65.1671],[-99.90677,65.17127],[-99.90677,65.17543],[-99.90677,65.1796],[-99.90677,65.18377],[-99.90677,65.18793],[-99.90677,65.1921],[-99.90677,65.19627],[-99.90677,65.20044]]]}},{"type":"Feature","properties":{"c":"103700","o":"ATHA Energy (NU) Corp. (100%)","e":"2026-10-10"},"geometry":{"type":"Polygon","coordinates":[[[-99.90677,65.25044],[-99.89896,65.25044],[-99.89115,65.25044],[-99.88333,65.25044],[-99.87552,65.25044],[-99.86771,65.25044],[-99.85989,65.25044],[-99.85208,65.25044],[-99.84427,65.25044],[-99.84427,65.24627],[-99.84427,65.2421],[-99.84427,65.23794],[-99.84427,65.23377],[-99.84427,65.2296],[-99.84427,65.22544],[-99.84427,65.22127],[-99.84427,65.2171],[-99.84427,65.21294],[-99.84427,65.20877],[-99.84427,65.2046],[-99.84427,65.20044],[-99.85208,65.20044],[-99.85989,65.20044],[-99.86771,65.20044],[-99.87552,65.20044],[-99.88333,65.20044],[-99.89114,65.20044],[-99.89896,65.20044],[-99.90677,65.20044],[-99.90677,65.2046],[-99.90677,65.20877],[-99.90677,65.21294],[-99.90677,65.2171],[-99.90677,65.22127],[-99.90677,65.22544],[-99.90677,65.2296],[-99.90677,65.23377],[-99.90677,65.23794],[-99.90677,65.2421],[-99.90677,65.24627],[-99.90677,65.25044]]]}},{"type":"Feature","properties":{"c":"103820","o":"ATHA Energy (NU) Corp. (100%)","e":"2026-10-10"},"geometry":{"type":"Polygon","coordinates":[[[-99.62551,65.26711],[-99.61769,65.26711],[-99.60988,65.26711],[-99.60207,65.26711],[-99.59425,65.26711],[-99.58644,65.2671],[-99.57863,65.2671],[-99.57081,65.2671],[-99.563,65.2671],[-99.55519,65.26709],[-99.54738,65.26709],[-99.53956,65.26708],[-99.53175,65.26708],[-99.53175,65.26291],[-99.53175,65.25875],[-99.53175,65.25458],[-99.53175,65.25041],[-99.53175,65.24625],[-99.53175,65.24208],[-99.53175,65.23791],[-99.53175,65.23375],[-99.53956,65.23375],[-99.54737,65.23375],[-99.55519,65.23376],[-99.563,65.23376],[-99.57081,65.23376],[-99.57863,65.23377],[-99.58644,65.23377],[-99.59425,65.23377],[-99.60207,65.23377],[-99.60988,65.23377],[-99.61769,65.23377],[-99.6255,65.23377],[-99.6255,65.23794],[-99.6255,65.24211],[-99.6255,65.24627],[-99.62551,65.25044],[-99.62551,65.25461],[-99.62551,65.25878],[-99.62551,65.26294],[-99.62551,65.26711]]]}},{"type":"Feature","properties":{"c":"103838","o":"ATHA Energy (NU) Corp. (100%)","e":"2026-10-10"},"geometry":{"type":"Polygon","coordinates":[[[-99.5005,65.34206],[-99.49269,65.34207],[-99.48487,65.34207],[-99.48487,65.34624],[-99.47706,65.34624],[-99.46925,65.34625],[-99.46925,65.35042],[-99.46143,65.35042],[-99.46143,65.35459],[-99.45362,65.35459],[-99.44581,65.3546],[-99.44581,65.35876],[-99.438,65.35877],[-99.43018,65.35877],[-99.43018,65.36294],[-99.42237,65.36294],[-99.42237,65.36711],[-99.41456,65.36711],[-99.40674,65.36711],[-99.40674,65.37128],[-99.39893,65.37128],[-99.39112,65.37128],[-99.39112,65.37545],[-99.3833,65.37545],[-99.3833,65.37961],[-99.37549,65.37961],[-99.37549,65.37545],[-99.37549,65.37128],[-99.37549,65.36711],[-99.37549,65.36295],[-99.37549,65.35878],[-99.37549,65.35461],[-99.37549,65.35045],[-99.37549,65.34628],[-99.37549,65.34211],[-99.37549,65.33795],[-99.37549,65.33378],[-99.3833,65.33378],[-99.39112,65.33378],[-99.39893,65.33378],[-99.40674,65.33378],[-99.41456,65.33377],[-99.42237,65.33377],[-99.43018,65.33377],[-99.438,65.33377],[-99.44581,65.33376],[-99.45362,65.33376],[-99.46143,65.33375],[-99.46925,65.33375],[-99.47706,65.33374],[-99.48487,65.33374],[-99.49269,65.33373],[-99.5005,65.33373],[-99.50831,65.33373],[-99.50831,65.3379],[-99.5005,65.33789],[-99.5005,65.34206]]]}},{"type":"Feature","properties":{"c":"103844","o":"ATHA Energy (NU) Corp. (100%)","e":"2026-10-10"},"geometry":{"type":"Polygon","coordinates":[[[-99.53174,65.06707],[-99.52393,65.06707],[-99.51612,65.06706],[-99.5083,65.06706],[-99.50049,65.06705],[-99.49268,65.06706],[-99.48487,65.06706],[-99.47705,65.06707],[-99.46924,65.06707],[-99.46143,65.06708],[-99.45361,65.06708],[-99.4458,65.06709],[-99.43799,65.06709],[-99.43799,65.06292],[-99.43799,65.05876],[-99.43799,65.05459],[-99.43799,65.05042],[-99.43799,65.04626],[-99.43799,65.04209],[-99.43799,65.03792],[-99.43799,65.03376],[-99.4458,65.03375],[-99.45361,65.03375],[-99.46143,65.03374],[-99.46924,65.03374],[-99.47705,65.03373],[-99.48486,65.03373],[-99.49268,65.03372],[-99.50049,65.03372],[-99.5083,65.03372],[-99.51612,65.03373],[-99.52393,65.03373],[-99.53174,65.03374],[-99.53174,65.03791],[-99.53174,65.04207],[-99.53174,65.04624],[-99.53174,65.05041],[-99.53174,65.05457],[-99.53174,65.05874],[-99.53174,65.06291],[-99.53174,65.06707]]]}},{"type":"Feature","properties":{"c":"103815","o":"ATHA Energy (NU) Corp. (100%)","e":"2026-10-10"},"geometry":{"type":"Polygon","coordinates":[[[-99.71926,65.26708],[-99.71145,65.26708],[-99.70364,65.26709],[-99.69582,65.26709],[-99.68801,65.2671],[-99.6802,65.2671],[-99.67238,65.2671],[-99.66457,65.2671],[-99.65676,65.26711],[-99.64894,65.26711],[-99.64113,65.26711],[-99.63332,65.26711],[-99.62551,65.26711],[-99.62551,65.26294],[-99.62551,65.25878],[-99.62551,65.25461],[-99.62551,65.25044],[-99.6255,65.24627],[-99.6255,65.24211],[-99.6255,65.23794],[-99.6255,65.23377],[-99.63332,65.23377],[-99.64113,65.23377],[-99.64894,65.23377],[-99.65676,65.23377],[-99.66457,65.23377],[-99.67238,65.23377],[-99.6802,65.23376],[-99.68801,65.23376],[-99.69582,65.23376],[-99.70363,65.23375],[-99.71145,65.23375],[-99.71926,65.23374],[-99.71926,65.23791],[-99.71926,65.24208],[-99.71926,65.24625],[-99.71926,65.25041],[-99.71926,65.25458],[-99.71926,65.25875],[-99.71926,65.26291],[-99.71926,65.26708]]]}},{"type":"Feature","properties":{"c":"103817","o":"ATHA Energy (NU) Corp. (100%)","e":"2026-10-10"},"geometry":{"type":"Polygon","coordinates":[[[-99.6255,65.23377],[-99.61769,65.23377],[-99.60988,65.23377],[-99.60207,65.23377],[-99.59425,65.23377],[-99.58644,65.23377],[-99.57863,65.23377],[-99.57081,65.23376],[-99.563,65.23376],[-99.55519,65.23376],[-99.54737,65.23375],[-99.53956,65.23375],[-99.53175,65.23375],[-99.53175,65.22958],[-99.53175,65.22541],[-99.53175,65.22125],[-99.53175,65.21708],[-99.53175,65.21291],[-99.53175,65.20874],[-99.53175,65.20458],[-99.53175,65.20041],[-99.53956,65.20042],[-99.54737,65.20042],[-99.55519,65.20042],[-99.563,65.20043],[-99.57081,65.20043],[-99.57863,65.20043],[-99.58644,65.20043],[-99.59425,65.20044],[-99.60206,65.20044],[-99.60988,65.20044],[-99.61769,65.20044],[-99.6255,65.20044],[-99.6255,65.20461],[-99.6255,65.20877],[-99.6255,65.21294],[-99.6255,65.21711],[-99.6255,65.22127],[-99.6255,65.22544],[-99.6255,65.22961],[-99.6255,65.23377]]]}},{"type":"Feature","properties":{"c":"103785","o":"ATHA Energy (NU) Corp. (100%)","e":"2026-10-10"},"geometry":{"type":"Polygon","coordinates":[[[-99.688,65.03375],[-99.68019,65.03376],[-99.67238,65.03376],[-99.66456,65.03376],[-99.65675,65.03376],[-99.64894,65.03377],[-99.64112,65.03377],[-99.63331,65.03377],[-99.6255,65.03377],[-99.61769,65.03377],[-99.60987,65.03377],[-99.60206,65.03377],[-99.59425,65.03376],[-99.59425,65.0296],[-99.59425,65.02543],[-99.59425,65.02126],[-99.59425,65.0171],[-99.59425,65.01293],[-99.59425,65.00876],[-99.59425,65.0046],[-99.59425,65.00043],[-99.60206,65.00043],[-99.60987,65.00043],[-99.61768,65.00043],[-99.6255,65.00043],[-99.63331,65.00043],[-99.64112,65.00043],[-99.64894,65.00043],[-99.65675,65.00043],[-99.66456,65.00043],[-99.67238,65.00043],[-99.68019,65.00042],[-99.688,65.00042],[-99.688,65.00459],[-99.688,65.00875],[-99.688,65.01292],[-99.688,65.01709],[-99.688,65.02125],[-99.688,65.02542],[-99.688,65.02959],[-99.688,65.03375]]]}},{"type":"Feature","properties":{"c":"103786","o":"ATHA Energy (NU) Corp. (100%)","e":"2026-10-10"},"geometry":{"type":"Polygon","coordinates":[[[-99.59425,65.0171],[-99.58643,65.0171],[-99.57862,65.01709],[-99.57081,65.01709],[-99.56299,65.01709],[-99.55518,65.01708],[-99.54737,65.01708],[-99.53955,65.01708],[-99.53174,65.01707],[-99.52393,65.01707],[-99.51612,65.01706],[-99.5083,65.01706],[-99.50049,65.01705],[-99.50049,65.01288],[-99.50049,65.00872],[-99.50049,65.00455],[-99.50049,65.00038],[-99.50049,64.99621],[-99.50049,64.99205],[-99.50049,64.98788],[-99.50049,64.98371],[-99.5083,64.98372],[-99.51612,64.98373],[-99.52393,64.98373],[-99.53174,64.98374],[-99.53955,64.98374],[-99.54737,64.98375],[-99.55518,64.98375],[-99.56299,64.98375],[-99.57081,64.98376],[-99.57862,64.98376],[-99.58643,64.98376],[-99.59424,64.98376],[-99.59425,64.98793],[-99.59425,64.9921],[-99.59425,64.99626],[-99.59425,65.00043],[-99.59425,65.0046],[-99.59425,65.00876],[-99.59425,65.01293],[-99.59425,65.0171]]]}},{"type":"Feature","properties":{"c":"103787","o":"ATHA Energy (NU) Corp. (100%)","e":"2026-10-10"},"geometry":{"type":"Polygon","coordinates":[[[-99.50049,65.00038],[-99.49268,65.00039],[-99.48486,65.00039],[-99.47705,65.0004],[-99.46924,65.0004],[-99.46142,65.00041],[-99.45361,65.00041],[-99.4458,65.00042],[-99.43799,65.00042],[-99.43799,64.99625],[-99.43799,64.99209],[-99.43799,64.98792],[-99.43799,64.98375],[-99.43799,64.97959],[-99.43798,64.97542],[-99.43798,64.97125],[-99.43798,64.96709],[-99.43798,64.96292],[-99.43798,64.95875],[-99.43798,64.95459],[-99.43798,64.95042],[-99.4458,64.95042],[-99.45361,64.95041],[-99.46142,64.95041],[-99.46924,64.9504],[-99.47705,64.9504],[-99.48486,64.95039],[-99.49268,64.95039],[-99.50049,64.95038],[-99.50049,64.95455],[-99.50049,64.95871],[-99.50049,64.96288],[-99.50049,64.96705],[-99.50049,64.97121],[-99.50049,64.97538],[-99.50049,64.97955],[-99.50049,64.98371],[-99.50049,64.98788],[-99.50049,64.99205],[-99.50049,64.99621],[-99.50049,65.00038]]]}},{"type":"Feature","properties":{"c":"103733","o":"ATHA Energy (NU) Corp. (100%)","e":"2026-10-10"},"geometry":{"type":"Polygon","coordinates":[[[-99.90678,65.41711],[-99.89896,65.41711],[-99.89115,65.41711],[-99.89115,65.41295],[-99.88334,65.41295],[-99.87553,65.41295],[-99.87553,65.40878],[-99.86771,65.40878],[-99.8599,65.40878],[-99.85209,65.40878],[-99.85209,65.40461],[-99.84427,65.40461],[-99.84427,65.40044],[-99.83646,65.40044],[-99.82865,65.40044],[-99.82865,65.39627],[-99.82083,65.39627],[-99.81302,65.39627],[-99.80521,65.39626],[-99.80521,65.3921],[-99.7974,65.39209],[-99.79739,65.38793],[-99.78958,65.38792],[-99.78958,65.38375],[-99.79739,65.38376],[-99.80521,65.38376],[-99.81302,65.38377],[-99.82083,65.38377],[-99.82865,65.38377],[-99.83646,65.38377],[-99.84427,65.38378],[-99.85209,65.38378],[-99.8599,65.38378],[-99.86771,65.38378],[-99.87552,65.38378],[-99.88334,65.38378],[-99.89115,65.38378],[-99.89896,65.38378],[-99.90678,65.38378],[-99.90678,65.38794],[-99.90678,65.39211],[-99.90678,65.39628],[-99.90678,65.40044],[-99.90678,65.40461],[-99.90678,65.40878],[-99.90678,65.41294],[-99.90678,65.41711]]]}},{"type":"Feature","properties":{"c":"103734","o":"ATHA Energy (NU) Corp. (100%)","e":"2026-10-10"},"geometry":{"type":"Polygon","coordinates":[[[-99.96928,65.38375],[-99.96147,65.38375],[-99.95365,65.38376],[-99.94584,65.38376],[-99.93803,65.38377],[-99.93022,65.38377],[-99.9224,65.38377],[-99.91459,65.38377],[-99.90678,65.38378],[-99.89896,65.38378],[-99.89115,65.38378],[-99.88334,65.38378],[-99.87552,65.38378],[-99.87552,65.37961],[-99.87552,65.37544],[-99.87552,65.37128],[-99.87552,65.36711],[-99.87552,65.36294],[-99.87552,65.35878],[-99.87552,65.35461],[-99.87552,65.35044],[-99.88334,65.35044],[-99.89115,65.35044],[-99.89896,65.35044],[-99.90678,65.35044],[-99.91459,65.35044],[-99.9224,65.35044],[-99.93021,65.35043],[-99.93803,65.35043],[-99.94584,65.35043],[-99.95365,65.35042],[-99.96147,65.35042],[-99.96928,65.35041],[-99.96928,65.35458],[-99.96928,65.35875],[-99.96928,65.36291],[-99.96928,65.36708],[-99.96928,65.37125],[-99.96928,65.37542],[-99.96928,65.37958],[-99.96928,65.38375]]]}},{"type":"Feature","properties":{"c":"103809","o":"ATHA Energy (NU) Corp. (100%)","e":"2026-10-10"},"geometry":{"type":"Polygon","coordinates":[[[-99.59425,65.03376],[-99.58643,65.03376],[-99.57862,65.03376],[-99.57081,65.03376],[-99.56299,65.03376],[-99.55518,65.03375],[-99.54737,65.03375],[-99.53956,65.03374],[-99.53174,65.03374],[-99.52393,65.03373],[-99.51612,65.03373],[-99.5083,65.03372],[-99.50049,65.03372],[-99.49268,65.03372],[-99.48486,65.03373],[-99.47705,65.03373],[-99.46924,65.03374],[-99.46924,65.02957],[-99.46924,65.02541],[-99.46924,65.02124],[-99.46924,65.01707],[-99.46143,65.01708],[-99.45361,65.01708],[-99.4458,65.01708],[-99.43799,65.01709],[-99.43799,65.01292],[-99.43799,65.00875],[-99.43799,65.00459],[-99.43799,65.00042],[-99.4458,65.00042],[-99.45361,65.00041],[-99.46142,65.00041],[-99.46924,65.0004],[-99.47705,65.0004],[-99.48486,65.00039],[-99.49268,65.00039],[-99.50049,65.00038],[-99.50049,65.00455],[-99.50049,65.00872],[-99.50049,65.01288],[-99.50049,65.01705],[-99.5083,65.01706],[-99.51612,65.01706],[-99.52393,65.01707],[-99.53174,65.01707],[-99.53955,65.01708],[-99.54737,65.01708],[-99.55518,65.01708],[-99.56299,65.01709],[-99.57081,65.01709],[-99.57862,65.01709],[-99.58643,65.0171],[-99.59425,65.0171],[-99.59425,65.02126],[-99.59425,65.02543],[-99.59425,65.0296],[-99.59425,65.03376]]]}},{"type":"Feature","properties":{"c":"103701","o":"ATHA Energy (NU) Corp. (100%)","e":"2026-10-10"},"geometry":{"type":"Polygon","coordinates":[[[-99.71926,65.20041],[-99.71145,65.20041],[-99.70363,65.20042],[-99.69582,65.20042],[-99.68801,65.20043],[-99.68019,65.20043],[-99.67238,65.20043],[-99.66457,65.20043],[-99.65676,65.20044],[-99.65676,65.19627],[-99.65676,65.1921],[-99.65675,65.18794],[-99.65675,65.18377],[-99.65675,65.1796],[-99.65675,65.17544],[-99.65675,65.17127],[-99.65675,65.1671],[-99.65675,65.16293],[-99.65675,65.15877],[-99.65675,65.1546],[-99.65675,65.15043],[-99.66457,65.15043],[-99.67238,65.15043],[-99.68019,65.15043],[-99.68801,65.15042],[-99.69582,65.15042],[-99.70363,65.15042],[-99.71144,65.15041],[-99.71926,65.15041],[-99.71926,65.15458],[-99.71926,65.15874],[-99.71926,65.16291],[-99.71926,65.16708],[-99.71926,65.17124],[-99.71926,65.17541],[-99.71926,65.17958],[-99.71926,65.18374],[-99.71926,65.18791],[-99.71926,65.19208],[-99.71926,65.19624],[-99.71926,65.20041]]]}},{"type":"Feature","properties":{"c":"103702","o":"ATHA Energy (NU) Corp. (100%)","e":"2026-10-10"},"geometry":{"type":"Polygon","coordinates":[[[-99.84427,65.25044],[-99.83646,65.25044],[-99.82864,65.25043],[-99.82083,65.25043],[-99.81302,65.25043],[-99.8052,65.25042],[-99.79739,65.25042],[-99.78958,65.25042],[-99.78176,65.25041],[-99.78176,65.24625],[-99.78176,65.24208],[-99.78176,65.23791],[-99.78176,65.23374],[-99.78176,65.22958],[-99.78176,65.22541],[-99.78176,65.22124],[-99.78176,65.21708],[-99.78176,65.21291],[-99.78176,65.20874],[-99.78176,65.20458],[-99.78176,65.20041],[-99.78958,65.20041],[-99.79739,65.20042],[-99.8052,65.20042],[-99.81301,65.20043],[-99.82083,65.20043],[-99.82864,65.20043],[-99.83645,65.20043],[-99.84427,65.20044],[-99.84427,65.2046],[-99.84427,65.20877],[-99.84427,65.21294],[-99.84427,65.2171],[-99.84427,65.22127],[-99.84427,65.22544],[-99.84427,65.2296],[-99.84427,65.23377],[-99.84427,65.23794],[-99.84427,65.2421],[-99.84427,65.24627],[-99.84427,65.25044]]]}},{"type":"Feature","properties":{"c":"103735","o":"ATHA Energy (NU) Corp. (100%)","e":"2026-10-10"},"geometry":{"type":"Polygon","coordinates":[[[-99.87552,65.38378],[-99.86771,65.38378],[-99.8599,65.38378],[-99.85209,65.38378],[-99.84427,65.38378],[-99.83646,65.38377],[-99.82865,65.38377],[-99.82083,65.38377],[-99.81302,65.38377],[-99.80521,65.38376],[-99.79739,65.38376],[-99.78958,65.38375],[-99.78177,65.38375],[-99.78177,65.37958],[-99.78177,65.37542],[-99.78177,65.37125],[-99.78177,65.36708],[-99.78177,65.36292],[-99.78177,65.35875],[-99.78177,65.35458],[-99.78177,65.35042],[-99.78958,65.35042],[-99.79739,65.35042],[-99.80521,65.35043],[-99.81302,65.35043],[-99.82083,65.35043],[-99.82865,65.35044],[-99.83646,65.35044],[-99.84427,65.35044],[-99.85208,65.35044],[-99.8599,65.35044],[-99.86771,65.35044],[-99.87552,65.35044],[-99.87552,65.35461],[-99.87552,65.35878],[-99.87552,65.36294],[-99.87552,65.36711],[-99.87552,65.37128],[-99.87552,65.37544],[-99.87552,65.37961],[-99.87552,65.38378]]]}},{"type":"Feature","properties":{"c":"103736","o":"ATHA Energy (NU) Corp. (100%)","e":"2026-10-10"},"geometry":{"type":"Polygon","coordinates":[[[-99.84427,65.35044],[-99.83646,65.35044],[-99.82865,65.35044],[-99.82083,65.35043],[-99.81302,65.35043],[-99.80521,65.35043],[-99.79739,65.35042],[-99.78958,65.35042],[-99.78177,65.35042],[-99.78177,65.34625],[-99.78177,65.34208],[-99.78177,65.33791],[-99.78177,65.33375],[-99.78177,65.32958],[-99.78177,65.32541],[-99.78177,65.32125],[-99.78177,65.31708],[-99.78177,65.31291],[-99.78177,65.30875],[-99.78177,65.30458],[-99.78177,65.30041],[-99.78958,65.30042],[-99.79739,65.30042],[-99.80521,65.30043],[-99.81302,65.30043],[-99.82083,65.30043],[-99.82864,65.30044],[-99.83646,65.30044],[-99.84427,65.30044],[-99.84427,65.30461],[-99.84427,65.30877],[-99.84427,65.31294],[-99.84427,65.31711],[-99.84427,65.32127],[-99.84427,65.32544],[-99.84427,65.32961],[-99.84427,65.33377],[-99.84427,65.33794],[-99.84427,65.34211],[-99.84427,65.34627],[-99.84427,65.35044]]]}},{"type":"Feature","properties":{"c":"103737","o":"ATHA Energy (NU) Corp. (100%)","e":"2026-10-10"},"geometry":{"type":"Polygon","coordinates":[[[-99.78177,65.35042],[-99.77396,65.35041],[-99.76614,65.3504],[-99.75833,65.3504],[-99.75052,65.35039],[-99.7427,65.3504],[-99.73489,65.3504],[-99.72708,65.35041],[-99.71926,65.35042],[-99.71926,65.34625],[-99.71926,65.34208],[-99.71926,65.33791],[-99.71926,65.33375],[-99.71926,65.32958],[-99.71926,65.32541],[-99.71926,65.32125],[-99.71926,65.31708],[-99.71926,65.31291],[-99.71926,65.30875],[-99.71926,65.30458],[-99.71926,65.30041],[-99.72708,65.30041],[-99.73489,65.3004],[-99.7427,65.3004],[-99.75051,65.30039],[-99.75833,65.3004],[-99.76614,65.3004],[-99.77395,65.30041],[-99.78177,65.30041],[-99.78177,65.30458],[-99.78177,65.30875],[-99.78177,65.31291],[-99.78177,65.31708],[-99.78177,65.32125],[-99.78177,65.32541],[-99.78177,65.32958],[-99.78177,65.33375],[-99.78177,65.33791],[-99.78177,65.34208],[-99.78177,65.34625],[-99.78177,65.35042]]]}},{"type":"Feature","properties":{"c":"103738","o":"ATHA Energy (NU) Corp. (100%)","e":"2026-10-10"},"geometry":{"type":"Polygon","coordinates":[[[-99.78177,65.38375],[-99.77396,65.38374],[-99.76614,65.38374],[-99.75833,65.38373],[-99.75052,65.38373],[-99.7427,65.38373],[-99.73489,65.38374],[-99.72708,65.38375],[-99.71927,65.38375],[-99.71927,65.37958],[-99.71926,65.37542],[-99.71926,65.37125],[-99.71926,65.36708],[-99.71926,65.36292],[-99.71926,65.35875],[-99.71145,65.35875],[-99.71145,65.35459],[-99.70364,65.35459],[-99.70364,65.35042],[-99.71145,65.35042],[-99.71926,65.35042],[-99.72708,65.35041],[-99.73489,65.3504],[-99.7427,65.3504],[-99.75052,65.35039],[-99.75833,65.3504],[-99.76614,65.3504],[-99.77396,65.35041],[-99.78177,65.35042],[-99.78177,65.35458],[-99.78177,65.35875],[-99.78177,65.36292],[-99.78177,65.36708],[-99.78177,65.37125],[-99.78177,65.37542],[-99.78177,65.37958],[-99.78177,65.38375]]]}},{"type":"Feature","properties":{"c":"103740","o":"ATHA Energy (NU) Corp. (100%)","e":"2026-10-10"},"geometry":{"type":"Polygon","coordinates":[[[-99.71926,65.31708],[-99.71145,65.31709],[-99.70364,65.31709],[-99.69582,65.31709],[-99.68801,65.3171],[-99.6802,65.3171],[-99.67239,65.3171],[-99.66457,65.31711],[-99.65676,65.31711],[-99.65676,65.31294],[-99.65676,65.30877],[-99.65676,65.30461],[-99.65676,65.30044],[-99.65676,65.29627],[-99.65676,65.29211],[-99.65676,65.28794],[-99.65676,65.28377],[-99.65676,65.27961],[-99.65676,65.27544],[-99.65676,65.27127],[-99.65676,65.26711],[-99.66457,65.2671],[-99.67238,65.2671],[-99.6802,65.2671],[-99.68801,65.2671],[-99.69582,65.26709],[-99.70364,65.26709],[-99.71145,65.26708],[-99.71926,65.26708],[-99.71926,65.27125],[-99.71926,65.27541],[-99.71926,65.27958],[-99.71926,65.28375],[-99.71926,65.28791],[-99.71926,65.29208],[-99.71926,65.29625],[-99.71926,65.30041],[-99.71926,65.30458],[-99.71926,65.30875],[-99.71926,65.31291],[-99.71926,65.31708]]]}},{"type":"Feature","properties":{"c":"103658","o":"ATHA Energy (NU) Corp. (100%)","e":"2026-10-10"},"geometry":{"type":"Polygon","coordinates":[[[-100.00052,65.08372],[-99.99271,65.08372],[-99.9849,65.08373],[-99.97708,65.08373],[-99.96927,65.08374],[-99.96146,65.08374],[-99.95364,65.08375],[-99.94583,65.08375],[-99.93802,65.08375],[-99.93021,65.08376],[-99.92239,65.08376],[-99.91458,65.08376],[-99.90677,65.08376],[-99.90677,65.0796],[-99.90677,65.07543],[-99.90677,65.07126],[-99.90677,65.0671],[-99.90677,65.06293],[-99.90677,65.05876],[-99.90677,65.0546],[-99.90677,65.05043],[-99.91458,65.05043],[-99.92239,65.05043],[-99.9302,65.05042],[-99.93802,65.05042],[-99.94583,65.05042],[-99.95364,65.05041],[-99.96146,65.05041],[-99.96927,65.0504],[-99.97708,65.0504],[-99.9849,65.05039],[-99.99271,65.05039],[-100.00052,65.05038],[-100.00052,65.05455],[-100.00052,65.05871],[-100.00052,65.06288],[-100.00052,65.06705],[-100.00052,65.07121],[-100.00052,65.07538],[-100.00052,65.07955],[-100.00052,65.08372]]]}},{"type":"Feature","properties":{"c":"103660","o":"ATHA Energy (NU) Corp. (100%)","e":"2026-10-10"},"geometry":{"type":"Polygon","coordinates":[[[-99.81301,65.08376],[-99.8052,65.08375],[-99.79739,65.08375],[-99.78957,65.08374],[-99.78176,65.08374],[-99.77395,65.08373],[-99.76613,65.08373],[-99.75832,65.08372],[-99.75051,65.08372],[-99.75051,65.07955],[-99.75051,65.07538],[-99.75051,65.07122],[-99.75051,65.06705],[-99.75051,65.06288],[-99.75051,65.05872],[-99.75051,65.05455],[-99.75051,65.05038],[-99.75051,65.04622],[-99.75051,65.04205],[-99.75051,65.03788],[-99.75832,65.03789],[-99.76613,65.03789],[-99.77395,65.0379],[-99.78176,65.0379],[-99.78957,65.03791],[-99.79738,65.03791],[-99.8052,65.03792],[-99.81301,65.03792],[-99.81301,65.04209],[-99.81301,65.04625],[-99.81301,65.05042],[-99.81301,65.05459],[-99.81301,65.05875],[-99.81301,65.06292],[-99.81301,65.06709],[-99.81301,65.07126],[-99.81301,65.07542],[-99.81301,65.07959],[-99.81301,65.08376]]]}},{"type":"Feature","properties":{"c":"103703","o":"ATHA Energy (NU) Corp. (100%)","e":"2026-10-10"},"geometry":{"type":"Polygon","coordinates":[[[-99.65676,65.20044],[-99.64894,65.20044],[-99.64113,65.20044],[-99.63332,65.20044],[-99.6255,65.20044],[-99.61769,65.20044],[-99.60988,65.20044],[-99.60206,65.20044],[-99.59425,65.20044],[-99.59425,65.19627],[-99.59425,65.1921],[-99.59425,65.18794],[-99.59425,65.18377],[-99.59425,65.1796],[-99.59425,65.17544],[-99.59425,65.17127],[-99.59425,65.1671],[-99.59425,65.16294],[-99.59425,65.15877],[-99.59425,65.1546],[-99.59425,65.15043],[-99.60206,65.15044],[-99.60988,65.15044],[-99.61769,65.15044],[-99.6255,65.15044],[-99.63331,65.15044],[-99.64113,65.15044],[-99.64894,65.15044],[-99.65675,65.15043],[-99.65675,65.1546],[-99.65675,65.15877],[-99.65675,65.16293],[-99.65675,65.1671],[-99.65675,65.17127],[-99.65675,65.17544],[-99.65675,65.1796],[-99.65675,65.18377],[-99.65675,65.18794],[-99.65676,65.1921],[-99.65676,65.19627],[-99.65676,65.20044]]]}},{"type":"Feature","properties":{"c":"103704","o":"ATHA Energy (NU) Corp. (100%)","e":"2026-10-10"},"geometry":{"type":"Polygon","coordinates":[[[-99.59425,65.15043],[-99.58644,65.15043],[-99.57862,65.15043],[-99.57081,65.15043],[-99.563,65.15043],[-99.55518,65.15042],[-99.54737,65.15042],[-99.53956,65.15041],[-99.53175,65.15041],[-99.52393,65.1504],[-99.51612,65.1504],[-99.50831,65.15039],[-99.50049,65.15039],[-99.50049,65.14622],[-99.50049,65.14205],[-99.50049,65.13789],[-99.50049,65.13372],[-99.50049,65.12955],[-99.50049,65.12539],[-99.50049,65.12122],[-99.50049,65.11705],[-99.50831,65.11706],[-99.51612,65.11706],[-99.52393,65.11707],[-99.53174,65.11707],[-99.53956,65.11708],[-99.54737,65.11708],[-99.55518,65.11709],[-99.563,65.11709],[-99.57081,65.11709],[-99.57862,65.1171],[-99.58644,65.1171],[-99.59425,65.1171],[-99.59425,65.12127],[-99.59425,65.12543],[-99.59425,65.1296],[-99.59425,65.13377],[-99.59425,65.13793],[-99.59425,65.1421],[-99.59425,65.14627],[-99.59425,65.15043]]]}},{"type":"Feature","properties":{"c":"103705","o":"ATHA Energy (NU) Corp. (100%)","e":"2026-10-10"},"geometry":{"type":"Polygon","coordinates":[[[-99.59425,65.20044],[-99.58644,65.20043],[-99.57863,65.20043],[-99.57081,65.20043],[-99.563,65.20043],[-99.55519,65.20042],[-99.54737,65.20042],[-99.53956,65.20042],[-99.53175,65.20041],[-99.53175,65.19624],[-99.53175,65.19208],[-99.53175,65.18791],[-99.53175,65.18374],[-99.53175,65.17958],[-99.53175,65.17541],[-99.53175,65.17124],[-99.53175,65.16708],[-99.53175,65.16291],[-99.53175,65.15874],[-99.53175,65.15458],[-99.53175,65.15041],[-99.53956,65.15041],[-99.54737,65.15042],[-99.55518,65.15042],[-99.563,65.15043],[-99.57081,65.15043],[-99.57862,65.15043],[-99.58644,65.15043],[-99.59425,65.15043],[-99.59425,65.1546],[-99.59425,65.15877],[-99.59425,65.16294],[-99.59425,65.1671],[-99.59425,65.17127],[-99.59425,65.17544],[-99.59425,65.1796],[-99.59425,65.18377],[-99.59425,65.18794],[-99.59425,65.1921],[-99.59425,65.19627],[-99.59425,65.20044]]]}},{"type":"Feature","properties":{"c":"103706","o":"ATHA Energy (NU) Corp. (100%)","e":"2026-10-10"},"geometry":{"type":"Polygon","coordinates":[[[-99.78176,65.25041],[-99.77395,65.25041],[-99.76614,65.2504],[-99.75833,65.2504],[-99.75051,65.25039],[-99.7427,65.2504],[-99.73489,65.2504],[-99.72707,65.25041],[-99.71926,65.25041],[-99.71926,65.24625],[-99.71926,65.24208],[-99.71926,65.23791],[-99.71926,65.23374],[-99.71926,65.22958],[-99.71926,65.22541],[-99.71926,65.22124],[-99.71926,65.21708],[-99.71926,65.21291],[-99.71926,65.20874],[-99.71926,65.20458],[-99.71926,65.20041],[-99.72707,65.20041],[-99.73489,65.2004],[-99.7427,65.20039],[-99.75051,65.20039],[-99.75832,65.20039],[-99.76614,65.2004],[-99.77395,65.2004],[-99.78176,65.20041],[-99.78176,65.20458],[-99.78176,65.20874],[-99.78176,65.21291],[-99.78176,65.21708],[-99.78176,65.22124],[-99.78176,65.22541],[-99.78176,65.22958],[-99.78176,65.23374],[-99.78176,65.23791],[-99.78176,65.24208],[-99.78176,65.24625],[-99.78176,65.25041]]]}},{"type":"Feature","properties":{"c":"103707","o":"ATHA Energy (NU) Corp. (100%)","e":"2026-10-10"},"geometry":{"type":"Polygon","coordinates":[[[-99.53175,65.20041],[-99.52393,65.20041],[-99.51612,65.2004],[-99.50831,65.20039],[-99.5005,65.20039],[-99.49268,65.20039],[-99.48487,65.2004],[-99.47706,65.20041],[-99.46924,65.20041],[-99.46924,65.19624],[-99.46924,65.19208],[-99.46924,65.18791],[-99.46924,65.18374],[-99.46924,65.17958],[-99.46924,65.17541],[-99.46924,65.17124],[-99.46924,65.16708],[-99.46924,65.16291],[-99.46924,65.15874],[-99.46924,65.15458],[-99.46924,65.15041],[-99.47706,65.1504],[-99.48487,65.1504],[-99.49268,65.15039],[-99.50049,65.15039],[-99.50831,65.15039],[-99.51612,65.1504],[-99.52393,65.1504],[-99.53175,65.15041],[-99.53175,65.15458],[-99.53175,65.15874],[-99.53175,65.16291],[-99.53175,65.16708],[-99.53175,65.17124],[-99.53175,65.17541],[-99.53175,65.17958],[-99.53175,65.18374],[-99.53175,65.18791],[-99.53175,65.19208],[-99.53175,65.19624],[-99.53175,65.20041]]]}}]}