{"type":"FeatureCollection","features":[{"type":"Feature","properties":{"c":"103597","o":"ATHA Energy (NU) Corp. (100%)","e":"2026-10-10"},"geometry":{"type":"Polygon","coordinates":[[[-100.06302,64.98375],[-100.05521,64.98375],[-100.0474,64.98374],[-100.03958,64.98374],[-100.03177,64.98373],[-100.02396,64.98373],[-100.01615,64.98372],[-100.00833,64.98372],[-100.00052,64.98371],[-99.99271,64.98372],[-99.98489,64.98372],[-99.97708,64.98373],[-99.96927,64.98373],[-99.96927,64.97957],[-99.96927,64.9754],[-99.96927,64.97123],[-99.96927,64.96707],[-99.96927,64.9629],[-99.96927,64.95873],[-99.96927,64.95457],[-99.96927,64.9504],[-99.97708,64.9504],[-99.98489,64.95039],[-99.99271,64.95038],[-100.00052,64.95038],[-100.00833,64.95038],[-100.01614,64.95039],[-100.02396,64.9504],[-100.03177,64.9504],[-100.03958,64.9504],[-100.0474,64.95041],[-100.05521,64.95041],[-100.06302,64.95042],[-100.06302,64.95458],[-100.06302,64.95875],[-100.06302,64.96292],[-100.06302,64.96708],[-100.06302,64.97125],[-100.06302,64.97542],[-100.06302,64.97958],[-100.06302,64.98375]]]}},{"type":"Feature","properties":{"c":"103601","o":"ATHA Energy (NU) Corp. (100%)","e":"2026-10-10"},"geometry":{"type":"Polygon","coordinates":[[[-100.18803,64.96708],[-100.18022,64.96709],[-100.1724,64.96709],[-100.16459,64.96709],[-100.15678,64.96709],[-100.14897,64.96709],[-100.14115,64.9671],[-100.13334,64.9671],[-100.12553,64.9671],[-100.12553,64.96293],[-100.12553,64.95876],[-100.12553,64.9546],[-100.12553,64.95043],[-100.12553,64.94626],[-100.12553,64.9421],[-100.12553,64.93793],[-100.12553,64.93376],[-100.12553,64.9296],[-100.12553,64.92543],[-100.12553,64.92126],[-100.12552,64.91709],[-100.13334,64.91709],[-100.14115,64.91709],[-100.14896,64.91709],[-100.15678,64.91709],[-100.16459,64.91709],[-100.1724,64.91709],[-100.18022,64.91708],[-100.18803,64.91708],[-100.18803,64.92125],[-100.18803,64.92541],[-100.18803,64.92958],[-100.18803,64.93375],[-100.18803,64.93792],[-100.18803,64.94208],[-100.18803,64.94625],[-100.18803,64.95042],[-100.18803,64.95458],[-100.18803,64.95875],[-100.18803,64.96292],[-100.18803,64.96708]]]}},{"type":"Feature","properties":{"c":"103615","o":"ATHA Energy (NU) Corp. (100%)","e":"2026-10-10"},"geometry":{"type":"Polygon","coordinates":[[[-100.12553,65.0171],[-100.11772,65.0171],[-100.1099,65.0171],[-100.10209,65.0171],[-100.09428,65.01709],[-100.08646,65.01709],[-100.07865,65.01709],[-100.07084,65.01709],[-100.06302,65.01708],[-100.06302,65.01292],[-100.06302,65.00875],[-100.06302,65.00458],[-100.06302,65.00042],[-100.06302,64.99625],[-100.06302,64.99208],[-100.06302,64.98792],[-100.06302,64.98375],[-100.06302,64.97958],[-100.06302,64.97542],[-100.06302,64.97125],[-100.06302,64.96708],[-100.07084,64.96709],[-100.07865,64.96709],[-100.08646,64.96709],[-100.09427,64.96709],[-100.10209,64.96709],[-100.1099,64.9671],[-100.11771,64.9671],[-100.12553,64.9671],[-100.12553,64.97126],[-100.12553,64.97543],[-100.12553,64.9796],[-100.12553,64.98376],[-100.12553,64.98793],[-100.12553,64.9921],[-100.12553,64.99626],[-100.12553,65.00043],[-100.12553,65.0046],[-100.12553,65.00876],[-100.12553,65.01293],[-100.12553,65.0171]]]}},{"type":"Feature","properties":{"c":"103616","o":"ATHA Energy (NU) Corp. (100%)","e":"2026-10-10"},"geometry":{"type":"Polygon","coordinates":[[[-100.06302,65.03375],[-100.05521,65.03375],[-100.0474,65.03375],[-100.03959,65.03374],[-100.03177,65.03374],[-100.02396,65.03373],[-100.01615,65.03373],[-100.00833,65.03372],[-100.00052,65.03371],[-100.00052,65.02955],[-100.00052,65.02538],[-100.00052,65.02121],[-100.00052,65.01705],[-100.00052,65.01288],[-100.00052,65.00871],[-100.00052,65.00455],[-100.00052,65.00038],[-100.00052,64.99621],[-100.00052,64.99205],[-100.00052,64.98788],[-100.00052,64.98371],[-100.00833,64.98372],[-100.01615,64.98372],[-100.02396,64.98373],[-100.03177,64.98373],[-100.03958,64.98374],[-100.0474,64.98374],[-100.05521,64.98375],[-100.06302,64.98375],[-100.06302,64.98792],[-100.06302,64.99208],[-100.06302,64.99625],[-100.06302,65.00042],[-100.06302,65.00458],[-100.06302,65.00875],[-100.06302,65.01292],[-100.06302,65.01708],[-100.06302,65.02125],[-100.06302,65.02542],[-100.06302,65.02959],[-100.06302,65.03375]]]}},{"type":"Feature","properties":{"c":"103617","o":"ATHA Energy (NU) Corp. (100%)","e":"2026-10-10"},"geometry":{"type":"Polygon","coordinates":[[[-100.00052,65.01705],[-99.99271,65.01705],[-99.98489,65.01706],[-99.97708,65.01706],[-99.96927,65.01707],[-99.96146,65.01707],[-99.95364,65.01708],[-99.94583,65.01708],[-99.93802,65.01709],[-99.9302,65.01709],[-99.92239,65.01709],[-99.91458,65.01709],[-99.90676,65.0171],[-99.90676,65.01293],[-99.90676,65.00876],[-99.90676,65.0046],[-99.90676,65.00043],[-99.90676,64.99626],[-99.90676,64.99209],[-99.90676,64.98793],[-99.90676,64.98376],[-99.91458,64.98376],[-99.92239,64.98376],[-99.9302,64.98375],[-99.93802,64.98375],[-99.94583,64.98375],[-99.95364,64.98374],[-99.96145,64.98374],[-99.96927,64.98373],[-99.97708,64.98373],[-99.98489,64.98372],[-99.99271,64.98372],[-100.00052,64.98371],[-100.00052,64.98788],[-100.00052,64.99205],[-100.00052,64.99621],[-100.00052,65.00038],[-100.00052,65.00455],[-100.00052,65.00871],[-100.00052,65.01288],[-100.00052,65.01705]]]}},{"type":"Feature","properties":{"c":"103605","o":"ATHA Energy (NU) Corp. (100%)","e":"2026-10-10"},"geometry":{"type":"Polygon","coordinates":[[[-100.4693,65.0004],[-100.46149,65.0004],[-100.45367,65.00041],[-100.44586,65.00041],[-100.43805,65.00042],[-100.43023,65.00042],[-100.42242,65.00042],[-100.41461,65.00042],[-100.4068,65.00043],[-100.4068,64.99626],[-100.4068,64.99209],[-100.4068,64.98792],[-100.4068,64.98376],[-100.4068,64.97959],[-100.40679,64.97542],[-100.40679,64.97126],[-100.40679,64.96709],[-100.40679,64.96292],[-100.40679,64.95876],[-100.40679,64.95459],[-100.41461,64.95459],[-100.42242,64.95459],[-100.43023,64.95458],[-100.43805,64.95458],[-100.44586,64.95458],[-100.45367,64.95457],[-100.46149,64.95457],[-100.4693,64.95456],[-100.4693,64.95873],[-100.4693,64.9629],[-100.4693,64.96706],[-100.4693,64.97123],[-100.4693,64.9754],[-100.4693,64.97956],[-100.4693,64.98373],[-100.4693,64.9879],[-100.4693,64.99207],[-100.4693,64.99623],[-100.4693,65.0004]]]}},{"type":"Feature","properties":{"c":"103607","o":"ATHA Energy (NU) Corp. (100%)","e":"2026-10-10"},"geometry":{"type":"Polygon","coordinates":[[[-100.4068,65.00459],[-100.39898,65.00459],[-100.39117,65.00459],[-100.38336,65.0046],[-100.37554,65.0046],[-100.36773,65.0046],[-100.35992,65.00459],[-100.3521,65.00459],[-100.34429,65.00459],[-100.34429,65.00043],[-100.34429,64.99626],[-100.34429,64.99209],[-100.34429,64.98793],[-100.34429,64.98376],[-100.34429,64.97959],[-100.34429,64.97543],[-100.34429,64.97126],[-100.34429,64.96709],[-100.34429,64.96292],[-100.34429,64.95876],[-100.34429,64.95459],[-100.3521,64.95459],[-100.35992,64.95459],[-100.36773,64.95459],[-100.37554,64.95459],[-100.38336,64.95459],[-100.39117,64.95459],[-100.39898,64.95459],[-100.40679,64.95459],[-100.40679,64.95876],[-100.40679,64.96292],[-100.40679,64.96709],[-100.40679,64.97126],[-100.40679,64.97542],[-100.4068,64.97959],[-100.4068,64.98376],[-100.4068,64.98792],[-100.4068,64.99209],[-100.4068,64.99626],[-100.4068,65.00043],[-100.4068,65.00459]]]}},{"type":"Feature","properties":{"c":"103609","o":"ATHA Energy (NU) Corp. (100%)","e":"2026-10-10"},"geometry":{"type":"Polygon","coordinates":[[[-100.34429,64.96709],[-100.33648,64.96709],[-100.32866,64.96709],[-100.32085,64.96708],[-100.31304,64.96708],[-100.30523,64.96708],[-100.29741,64.96707],[-100.2896,64.96707],[-100.28179,64.96707],[-100.27397,64.96706],[-100.26616,64.96706],[-100.25835,64.96705],[-100.25053,64.96704],[-100.25053,64.96288],[-100.25053,64.95871],[-100.25053,64.95454],[-100.25053,64.95038],[-100.25053,64.94621],[-100.25053,64.94204],[-100.25053,64.93788],[-100.25835,64.93788],[-100.26616,64.93789],[-100.27397,64.93789],[-100.28179,64.9379],[-100.2896,64.9379],[-100.29741,64.93791],[-100.30522,64.93791],[-100.31304,64.93791],[-100.31304,64.94208],[-100.31304,64.94625],[-100.31304,64.95041],[-100.32085,64.95042],[-100.32085,64.95458],[-100.32866,64.95459],[-100.33648,64.95459],[-100.34429,64.95459],[-100.34429,64.95876],[-100.34429,64.96292],[-100.34429,64.96709]]]}},{"type":"Feature","properties":{"c":"103610","o":"ATHA Energy (NU) Corp. (100%)","e":"2026-10-10"},"geometry":{"type":"Polygon","coordinates":[[[-100.25054,64.98371],[-100.24272,64.98372],[-100.23491,64.98372],[-100.2271,64.98373],[-100.21928,64.98373],[-100.21147,64.98374],[-100.20366,64.98374],[-100.19584,64.98375],[-100.18803,64.98375],[-100.18803,64.97958],[-100.18803,64.97542],[-100.18803,64.97125],[-100.18803,64.96708],[-100.18803,64.96292],[-100.18803,64.95875],[-100.18803,64.95458],[-100.18803,64.95042],[-100.18803,64.94625],[-100.18803,64.94208],[-100.18803,64.93792],[-100.19584,64.93791],[-100.20366,64.93791],[-100.21147,64.9379],[-100.21928,64.9379],[-100.22709,64.93789],[-100.23491,64.93789],[-100.24272,64.93788],[-100.25053,64.93788],[-100.25053,64.94204],[-100.25053,64.94621],[-100.25053,64.95038],[-100.25053,64.95454],[-100.25053,64.95871],[-100.25053,64.96288],[-100.25053,64.96704],[-100.25053,64.97121],[-100.25053,64.97538],[-100.25053,64.97954],[-100.25054,64.98371]]]}},{"type":"Feature","properties":{"c":"103578","o":"ATHA Energy (NU) Corp. (100%)","e":"2026-10-10"},"geometry":{"type":"Polygon","coordinates":[[[-100.12552,64.91709],[-100.11771,64.91709],[-100.1099,64.91709],[-100.10209,64.91709],[-100.09427,64.91709],[-100.08646,64.91709],[-100.07865,64.91709],[-100.07083,64.91708],[-100.06302,64.91708],[-100.05521,64.91708],[-100.0474,64.91707],[-100.03958,64.91707],[-100.03177,64.91707],[-100.03177,64.9129],[-100.03177,64.90873],[-100.03177,64.90457],[-100.03177,64.9004],[-100.03958,64.9004],[-100.03958,64.89624],[-100.04739,64.89624],[-100.04739,64.89207],[-100.05521,64.89208],[-100.06302,64.89208],[-100.06302,64.88791],[-100.07083,64.88792],[-100.07083,64.88375],[-100.07865,64.88375],[-100.07865,64.87959],[-100.08646,64.87959],[-100.09427,64.87959],[-100.09427,64.87542],[-100.10208,64.87542],[-100.10208,64.87126],[-100.1099,64.87126],[-100.1099,64.86709],[-100.11771,64.86709],[-100.12552,64.86709],[-100.12552,64.87126],[-100.12552,64.87543],[-100.12552,64.87959],[-100.12552,64.88376],[-100.12552,64.88793],[-100.12552,64.89209],[-100.12552,64.89626],[-100.12552,64.90043],[-100.12552,64.90459],[-100.12552,64.90876],[-100.12552,64.91293],[-100.12552,64.91709]]]}},{"type":"Feature","properties":{"c":"103579","o":"ATHA Energy (NU) Corp. (100%)","e":"2026-10-10"},"geometry":{"type":"Polygon","coordinates":[[[-100.06302,64.95042],[-100.05521,64.95041],[-100.0474,64.95041],[-100.03958,64.9504],[-100.03177,64.9504],[-100.02396,64.9504],[-100.01614,64.95039],[-100.00833,64.95038],[-100.00052,64.95038],[-99.99271,64.95038],[-99.98489,64.95039],[-99.97708,64.9504],[-99.96927,64.9504],[-99.96927,64.94623],[-99.96927,64.94207],[-99.96927,64.9379],[-99.96927,64.93373],[-99.96927,64.92957],[-99.97708,64.92956],[-99.97708,64.92539],[-99.98489,64.92539],[-99.98489,64.92122],[-99.9927,64.92122],[-99.9927,64.91705],[-100.00052,64.91704],[-100.00052,64.91288],[-100.00833,64.91288],[-100.01614,64.91289],[-100.01614,64.90872],[-100.02396,64.90873],[-100.03177,64.90873],[-100.03177,64.9129],[-100.03177,64.91707],[-100.03958,64.91707],[-100.0474,64.91707],[-100.05521,64.91708],[-100.06302,64.91708],[-100.06302,64.92125],[-100.06302,64.92542],[-100.06302,64.92958],[-100.06302,64.93375],[-100.06302,64.93792],[-100.06302,64.94208],[-100.06302,64.94625],[-100.06302,64.95042]]]}},{"type":"Feature","properties":{"c":"103576","o":"ATHA Energy (NU) Corp. (100%)","e":"2026-10-10"},"geometry":{"type":"Polygon","coordinates":[[[-100.18803,64.91708],[-100.18022,64.91708],[-100.1724,64.91709],[-100.16459,64.91709],[-100.15678,64.91709],[-100.14896,64.91709],[-100.14115,64.91709],[-100.13334,64.91709],[-100.12552,64.91709],[-100.12552,64.91293],[-100.12552,64.90876],[-100.12552,64.90459],[-100.12552,64.90043],[-100.12552,64.89626],[-100.12552,64.89209],[-100.12552,64.88793],[-100.12552,64.88376],[-100.12552,64.87959],[-100.12552,64.87543],[-100.12552,64.87126],[-100.12552,64.86709],[-100.13334,64.86709],[-100.14115,64.86709],[-100.14896,64.86709],[-100.15678,64.86709],[-100.16459,64.86709],[-100.1724,64.86709],[-100.18021,64.86708],[-100.18803,64.86708],[-100.18803,64.87125],[-100.18803,64.87541],[-100.18803,64.87958],[-100.18803,64.88375],[-100.18803,64.88791],[-100.18803,64.89208],[-100.18803,64.89625],[-100.18803,64.90041],[-100.18803,64.90458],[-100.18803,64.90875],[-100.18803,64.91291],[-100.18803,64.91708]]]}},{"type":"Feature","properties":{"c":"103611","o":"ATHA Energy (NU) Corp. (100%)","e":"2026-10-10"},"geometry":{"type":"Polygon","coordinates":[[[-100.34429,65.00043],[-100.33648,65.00042],[-100.32867,65.00042],[-100.32085,65.00042],[-100.31304,65.00042],[-100.30523,65.00041],[-100.29741,65.00041],[-100.2896,65.0004],[-100.28179,65.0004],[-100.27397,65.00039],[-100.26616,65.00039],[-100.25835,65.00038],[-100.25054,65.00038],[-100.25054,64.99621],[-100.25054,64.99204],[-100.25054,64.98788],[-100.25054,64.98371],[-100.25053,64.97954],[-100.25053,64.97538],[-100.25053,64.97121],[-100.25053,64.96704],[-100.25835,64.96705],[-100.26616,64.96706],[-100.27397,64.96706],[-100.28179,64.96707],[-100.2896,64.96707],[-100.29741,64.96707],[-100.30523,64.96708],[-100.31304,64.96708],[-100.32085,64.96708],[-100.32866,64.96709],[-100.33648,64.96709],[-100.34429,64.96709],[-100.34429,64.97126],[-100.34429,64.97543],[-100.34429,64.97959],[-100.34429,64.98376],[-100.34429,64.98793],[-100.34429,64.99209],[-100.34429,64.99626],[-100.34429,65.00043]]]}},{"type":"Feature","properties":{"c":"103613","o":"ATHA Energy (NU) Corp. (100%)","e":"2026-10-10"},"geometry":{"type":"Polygon","coordinates":[[[-100.25054,65.03371],[-100.24272,65.03372],[-100.23491,65.03372],[-100.2271,65.03373],[-100.21928,65.03373],[-100.21147,65.03374],[-100.20366,65.03374],[-100.19585,65.03375],[-100.18803,65.03375],[-100.18803,65.02958],[-100.18803,65.02542],[-100.18803,65.02125],[-100.18803,65.01708],[-100.18803,65.01292],[-100.18803,65.00875],[-100.18803,65.00458],[-100.18803,65.00042],[-100.18803,64.99625],[-100.18803,64.99208],[-100.18803,64.98792],[-100.18803,64.98375],[-100.19584,64.98375],[-100.20366,64.98374],[-100.21147,64.98374],[-100.21928,64.98373],[-100.2271,64.98373],[-100.23491,64.98372],[-100.24272,64.98372],[-100.25054,64.98371],[-100.25054,64.98788],[-100.25054,64.99204],[-100.25054,64.99621],[-100.25054,65.00038],[-100.25054,65.00454],[-100.25054,65.00871],[-100.25054,65.01288],[-100.25054,65.01704],[-100.25054,65.02121],[-100.25054,65.02538],[-100.25054,65.02955],[-100.25054,65.03371]]]}},{"type":"Feature","properties":{"c":"103531","o":"ATHA Energy (NU) Corp. (100%)","e":"2026-10-10"},"geometry":{"type":"Polygon","coordinates":[[[-100.28178,64.84623],[-100.27397,64.84622],[-100.26616,64.84622],[-100.25834,64.84621],[-100.25053,64.84621],[-100.24272,64.84621],[-100.2349,64.84622],[-100.22709,64.84622],[-100.21928,64.84623],[-100.21147,64.84623],[-100.20365,64.84624],[-100.19584,64.84624],[-100.18803,64.84625],[-100.18803,64.84208],[-100.18803,64.83791],[-100.18803,64.83374],[-100.19584,64.83374],[-100.19584,64.82957],[-100.20365,64.82957],[-100.20365,64.8254],[-100.21146,64.8254],[-100.21146,64.82123],[-100.21928,64.82123],[-100.22709,64.82122],[-100.22709,64.81706],[-100.2349,64.81705],[-100.2349,64.81288],[-100.24272,64.81288],[-100.24272,64.80871],[-100.25053,64.8087],[-100.25053,64.80454],[-100.25834,64.80454],[-100.26616,64.80455],[-100.26615,64.80038],[-100.27397,64.80039],[-100.27397,64.80456],[-100.28178,64.80456],[-100.28178,64.80873],[-100.28178,64.81289],[-100.28178,64.81706],[-100.28178,64.82123],[-100.28959,64.82123],[-100.28959,64.8254],[-100.28959,64.82957],[-100.2896,64.83373],[-100.2896,64.8379],[-100.2896,64.84207],[-100.29741,64.84207],[-100.29741,64.84624],[-100.2896,64.84623],[-100.28178,64.84623]]]}},{"type":"Feature","properties":{"c":"103533","o":"ATHA Energy (NU) Corp. (100%)","e":"2026-10-10"},"geometry":{"type":"Polygon","coordinates":[[[-100.29741,64.86707],[-100.2896,64.86707],[-100.28178,64.86706],[-100.27397,64.86706],[-100.26616,64.86705],[-100.25834,64.86705],[-100.25053,64.86704],[-100.24272,64.86705],[-100.23491,64.86705],[-100.22709,64.86706],[-100.21928,64.86706],[-100.21147,64.86707],[-100.20365,64.86707],[-100.19584,64.86708],[-100.18803,64.86708],[-100.18021,64.86708],[-100.1724,64.86709],[-100.16459,64.86709],[-100.15678,64.86709],[-100.14896,64.86709],[-100.14115,64.86709],[-100.13334,64.86709],[-100.12552,64.86709],[-100.12552,64.86293],[-100.13334,64.86293],[-100.13334,64.85876],[-100.14115,64.85876],[-100.14115,64.85459],[-100.14896,64.85459],[-100.14896,64.85042],[-100.15677,64.85042],[-100.15677,64.84626],[-100.16459,64.84625],[-100.1724,64.84625],[-100.18021,64.84625],[-100.18803,64.84625],[-100.19584,64.84624],[-100.20365,64.84624],[-100.21147,64.84623],[-100.21928,64.84623],[-100.22709,64.84622],[-100.2349,64.84622],[-100.24272,64.84621],[-100.25053,64.84621],[-100.25834,64.84621],[-100.26616,64.84622],[-100.27397,64.84622],[-100.28178,64.84623],[-100.2896,64.84623],[-100.2896,64.8504],[-100.29741,64.8504],[-100.29741,64.85457],[-100.29741,64.85874],[-100.29741,64.8629],[-100.29741,64.86707]]]}},{"type":"Feature","properties":{"c":"103599","o":"ATHA Energy (NU) Corp. (100%)","e":"2026-10-10"},"geometry":{"type":"Polygon","coordinates":[[[-100.12553,64.9671],[-100.11771,64.9671],[-100.1099,64.9671],[-100.10209,64.96709],[-100.09427,64.96709],[-100.08646,64.96709],[-100.07865,64.96709],[-100.07084,64.96709],[-100.06302,64.96708],[-100.06302,64.96292],[-100.06302,64.95875],[-100.06302,64.95458],[-100.06302,64.95042],[-100.06302,64.94625],[-100.06302,64.94208],[-100.06302,64.93792],[-100.06302,64.93375],[-100.06302,64.92958],[-100.06302,64.92542],[-100.06302,64.92125],[-100.06302,64.91708],[-100.07083,64.91708],[-100.07865,64.91709],[-100.08646,64.91709],[-100.09427,64.91709],[-100.10209,64.91709],[-100.1099,64.91709],[-100.11771,64.91709],[-100.12552,64.91709],[-100.12553,64.92126],[-100.12553,64.92543],[-100.12553,64.9296],[-100.12553,64.93376],[-100.12553,64.93793],[-100.12553,64.9421],[-100.12553,64.94626],[-100.12553,64.95043],[-100.12553,64.9546],[-100.12553,64.95876],[-100.12553,64.96293],[-100.12553,64.9671]]]}},{"type":"Feature","properties":{"c":"103602","o":"ATHA Energy (NU) Corp. (100%)","e":"2026-10-10"},"geometry":{"type":"Polygon","coordinates":[[[-100.5318,65.0004],[-100.52399,65.00039],[-100.51618,65.00039],[-100.50836,65.00038],[-100.50055,65.00038],[-100.49274,65.00038],[-100.48493,65.00039],[-100.47711,65.00039],[-100.4693,65.0004],[-100.4693,64.99623],[-100.4693,64.99207],[-100.4693,64.9879],[-100.4693,64.98373],[-100.4693,64.97956],[-100.4693,64.9754],[-100.4693,64.97123],[-100.4693,64.96706],[-100.4693,64.9629],[-100.4693,64.95873],[-100.4693,64.95456],[-100.47711,64.95456],[-100.48492,64.95455],[-100.49274,64.95455],[-100.50055,64.95454],[-100.50836,64.95455],[-100.51618,64.95455],[-100.52399,64.95456],[-100.5318,64.95456],[-100.5318,64.95873],[-100.5318,64.9629],[-100.5318,64.96706],[-100.5318,64.97123],[-100.5318,64.9754],[-100.5318,64.97956],[-100.5318,64.98373],[-100.5318,64.9879],[-100.5318,64.99206],[-100.5318,64.99623],[-100.5318,65.0004]]]}},{"type":"Feature","properties":{"c":"103535","o":"ATHA Energy (NU) Corp. (100%)","e":"2026-10-10"},"geometry":{"type":"Polygon","coordinates":[[[-100.31304,64.91291],[-100.30522,64.91291],[-100.29741,64.91291],[-100.2896,64.9129],[-100.28178,64.9129],[-100.27397,64.91289],[-100.26616,64.91289],[-100.25835,64.91288],[-100.25053,64.91287],[-100.25053,64.90871],[-100.25053,64.90454],[-100.25053,64.90037],[-100.25053,64.89621],[-100.25053,64.89204],[-100.25053,64.88787],[-100.25053,64.88371],[-100.25053,64.87954],[-100.25053,64.87537],[-100.25053,64.87121],[-100.25053,64.86704],[-100.25834,64.86705],[-100.26616,64.86705],[-100.27397,64.86706],[-100.28178,64.86706],[-100.2896,64.86707],[-100.29741,64.86707],[-100.29741,64.8629],[-100.30522,64.86291],[-100.30522,64.86708],[-100.30522,64.87124],[-100.30522,64.87541],[-100.31304,64.87541],[-100.31304,64.87958],[-100.31304,64.88375],[-100.31304,64.88791],[-100.31304,64.89208],[-100.31304,64.89625],[-100.31304,64.90041],[-100.31304,64.90458],[-100.31304,64.90875],[-100.31304,64.91291]]]}},{"type":"Feature","properties":{"c":"103536","o":"ATHA Energy (NU) Corp. (100%)","e":"2026-10-10"},"geometry":{"type":"Polygon","coordinates":[[[-100.40679,64.91709],[-100.39898,64.91709],[-100.39117,64.91709],[-100.38335,64.91709],[-100.37554,64.91709],[-100.36773,64.91709],[-100.36773,64.92126],[-100.35992,64.92126],[-100.3521,64.92126],[-100.34429,64.92126],[-100.33648,64.92126],[-100.32866,64.92125],[-100.32085,64.92125],[-100.31304,64.92125],[-100.31304,64.91708],[-100.31304,64.91291],[-100.31304,64.90875],[-100.31304,64.90458],[-100.31304,64.90041],[-100.31304,64.89625],[-100.31304,64.89208],[-100.31304,64.88791],[-100.31304,64.88375],[-100.31304,64.87958],[-100.31304,64.87541],[-100.32085,64.87542],[-100.32085,64.87958],[-100.32866,64.87958],[-100.33647,64.87959],[-100.33647,64.88375],[-100.34429,64.88376],[-100.3521,64.88376],[-100.35991,64.88376],[-100.36773,64.88376],[-100.37554,64.88376],[-100.37554,64.88793],[-100.38335,64.88793],[-100.38335,64.89209],[-100.39117,64.89209],[-100.39898,64.89209],[-100.40679,64.89209],[-100.40679,64.89626],[-100.40679,64.90042],[-100.40679,64.90459],[-100.40679,64.90876],[-100.40679,64.91292],[-100.40679,64.91709]]]}},{"type":"Feature","properties":{"c":"103537","o":"ATHA Energy (NU) Corp. (100%)","e":"2026-10-10"},"geometry":{"type":"Polygon","coordinates":[[[-100.50055,64.92537],[-100.49274,64.92538],[-100.48492,64.92539],[-100.47711,64.92539],[-100.4693,64.9254],[-100.46148,64.9254],[-100.45367,64.92541],[-100.44586,64.92541],[-100.43805,64.92541],[-100.43023,64.92542],[-100.42242,64.92542],[-100.41461,64.92542],[-100.40679,64.92542],[-100.40679,64.92126],[-100.40679,64.91709],[-100.40679,64.91292],[-100.40679,64.90876],[-100.40679,64.90459],[-100.40679,64.90042],[-100.40679,64.89626],[-100.40679,64.89209],[-100.41461,64.89209],[-100.41461,64.88792],[-100.4146,64.88375],[-100.42242,64.88375],[-100.42242,64.87958],[-100.42242,64.87542],[-100.43023,64.87541],[-100.43804,64.87541],[-100.43804,64.87958],[-100.43804,64.88375],[-100.44586,64.88374],[-100.44586,64.88791],[-100.45367,64.8879],[-100.45367,64.89207],[-100.46148,64.89207],[-100.46148,64.89623],[-100.46148,64.9004],[-100.4693,64.9004],[-100.4693,64.90456],[-100.47711,64.90456],[-100.47711,64.90872],[-100.47711,64.91289],[-100.48492,64.91289],[-100.48492,64.91705],[-100.49274,64.91705],[-100.49274,64.92121],[-100.50055,64.92121],[-100.50055,64.92537]]]}},{"type":"Feature","properties":{"c":"103538","o":"ATHA Energy (NU) Corp. (100%)","e":"2026-10-10"},"geometry":{"type":"Polygon","coordinates":[[[-100.51618,64.95455],[-100.50836,64.95455],[-100.50055,64.95454],[-100.49274,64.95455],[-100.48492,64.95455],[-100.47711,64.95456],[-100.4693,64.95456],[-100.46149,64.95457],[-100.45367,64.95457],[-100.44586,64.95458],[-100.43805,64.95458],[-100.43023,64.95458],[-100.42242,64.95459],[-100.41461,64.95459],[-100.40679,64.95459],[-100.40679,64.95042],[-100.40679,64.94626],[-100.40679,64.94209],[-100.40679,64.93792],[-100.40679,64.93376],[-100.40679,64.92959],[-100.40679,64.92542],[-100.41461,64.92542],[-100.42242,64.92542],[-100.43023,64.92542],[-100.43805,64.92541],[-100.44586,64.92541],[-100.45367,64.92541],[-100.46148,64.9254],[-100.4693,64.9254],[-100.47711,64.92539],[-100.48492,64.92539],[-100.49274,64.92538],[-100.50055,64.92537],[-100.50055,64.92954],[-100.50836,64.92955],[-100.50836,64.93371],[-100.51618,64.93372],[-100.51618,64.93789],[-100.52399,64.93789],[-100.52399,64.94206],[-100.52399,64.94623],[-100.52399,64.95039],[-100.5318,64.9504],[-100.5318,64.95456],[-100.52399,64.95456],[-100.51618,64.95455]]]}},{"type":"Feature","properties":{"c":"103539","o":"ATHA Energy (NU) Corp. (100%)","e":"2026-10-10"},"geometry":{"type":"Polygon","coordinates":[[[-100.25053,64.91287],[-100.24272,64.91288],[-100.23491,64.91289],[-100.22709,64.91289],[-100.21928,64.9129],[-100.21147,64.9129],[-100.20365,64.91291],[-100.19584,64.91291],[-100.18803,64.91291],[-100.18803,64.90875],[-100.18803,64.90458],[-100.18803,64.90041],[-100.18803,64.89625],[-100.18803,64.89208],[-100.18803,64.88791],[-100.18803,64.88375],[-100.18803,64.87958],[-100.18803,64.87541],[-100.18803,64.87125],[-100.18803,64.86708],[-100.19584,64.86708],[-100.20365,64.86707],[-100.21147,64.86707],[-100.21928,64.86706],[-100.22709,64.86706],[-100.23491,64.86705],[-100.24272,64.86705],[-100.25053,64.86704],[-100.25053,64.87121],[-100.25053,64.87537],[-100.25053,64.87954],[-100.25053,64.88371],[-100.25053,64.88787],[-100.25053,64.89204],[-100.25053,64.89621],[-100.25053,64.90037],[-100.25053,64.90454],[-100.25053,64.90871],[-100.25053,64.91287]]]}},{"type":"Feature","properties":{"c":"103540","o":"ATHA Energy (NU) Corp. (100%)","e":"2026-10-10"},"geometry":{"type":"Polygon","coordinates":[[[-100.40679,64.95459],[-100.39898,64.95459],[-100.39117,64.95459],[-100.38336,64.95459],[-100.37554,64.95459],[-100.36773,64.95459],[-100.35992,64.95459],[-100.3521,64.95459],[-100.34429,64.95459],[-100.33648,64.95459],[-100.32866,64.95459],[-100.32085,64.95458],[-100.32085,64.95042],[-100.31304,64.95041],[-100.31304,64.94625],[-100.31304,64.94208],[-100.31304,64.93791],[-100.31304,64.93375],[-100.31304,64.92958],[-100.31304,64.92541],[-100.31304,64.92125],[-100.32085,64.92125],[-100.32866,64.92125],[-100.33648,64.92126],[-100.34429,64.92126],[-100.3521,64.92126],[-100.35992,64.92126],[-100.36773,64.92126],[-100.36773,64.91709],[-100.37554,64.91709],[-100.38335,64.91709],[-100.39117,64.91709],[-100.39898,64.91709],[-100.40679,64.91709],[-100.40679,64.92126],[-100.40679,64.92542],[-100.40679,64.92959],[-100.40679,64.93376],[-100.40679,64.93792],[-100.40679,64.94209],[-100.40679,64.94626],[-100.40679,64.95042],[-100.40679,64.95459]]]}},{"type":"Feature","properties":{"c":"103614","o":"ATHA Energy (NU) Corp. (100%)","e":"2026-10-10"},"geometry":{"type":"Polygon","coordinates":[[[-100.18803,65.01708],[-100.18022,65.01709],[-100.17241,65.01709],[-100.16459,65.01709],[-100.15678,65.01709],[-100.14897,65.0171],[-100.14115,65.0171],[-100.13334,65.0171],[-100.12553,65.0171],[-100.12553,65.01293],[-100.12553,65.00876],[-100.12553,65.0046],[-100.12553,65.00043],[-100.12553,64.99626],[-100.12553,64.9921],[-100.12553,64.98793],[-100.12553,64.98376],[-100.12553,64.9796],[-100.12553,64.97543],[-100.12553,64.97126],[-100.12553,64.9671],[-100.13334,64.9671],[-100.14115,64.9671],[-100.14897,64.96709],[-100.15678,64.96709],[-100.16459,64.96709],[-100.1724,64.96709],[-100.18022,64.96709],[-100.18803,64.96708],[-100.18803,64.97125],[-100.18803,64.97542],[-100.18803,64.97958],[-100.18803,64.98375],[-100.18803,64.98792],[-100.18803,64.99208],[-100.18803,64.99625],[-100.18803,65.00042],[-100.18803,65.00458],[-100.18803,65.00875],[-100.18803,65.01292],[-100.18803,65.01708]]]}},{"type":"Feature","properties":{"c":"103559","o":"ATHA Energy (NU) Corp. (100%)","e":"2026-11-26"},"geometry":{"type":"Polygon","coordinates":[[[-100.31304,64.93791],[-100.30522,64.93791],[-100.29741,64.93791],[-100.2896,64.9379],[-100.28179,64.9379],[-100.27397,64.93789],[-100.26616,64.93789],[-100.25835,64.93788],[-100.25053,64.93788],[-100.24272,64.93788],[-100.23491,64.93789],[-100.22709,64.93789],[-100.21928,64.9379],[-100.21147,64.9379],[-100.20366,64.93791],[-100.19584,64.93791],[-100.18803,64.93792],[-100.18803,64.93375],[-100.18803,64.92958],[-100.18803,64.92541],[-100.18803,64.92125],[-100.18803,64.91708],[-100.18803,64.91291],[-100.19584,64.91291],[-100.20365,64.91291],[-100.21147,64.9129],[-100.21928,64.9129],[-100.22709,64.91289],[-100.23491,64.91289],[-100.24272,64.91288],[-100.25053,64.91287],[-100.25835,64.91288],[-100.26616,64.91289],[-100.27397,64.91289],[-100.28178,64.9129],[-100.2896,64.9129],[-100.29741,64.91291],[-100.30522,64.91291],[-100.31304,64.91291],[-100.31304,64.91708],[-100.31304,64.92125],[-100.31304,64.92541],[-100.31304,64.92958],[-100.31304,64.93375],[-100.31304,64.93791]]]}}]}