{"type":"FeatureCollection","features":[{"type":"Feature","properties":{"c":"CBS 3165","o":"Hudbay Minerals Inc.: 100.000%","e":"2036-07-31"},"geometry":{"type":"Polygon","coordinates":[[[-102.0,55.0],[-103.0,55.0],[-103.0,55.0],[-102.0,55.0]]]}},{"type":"Feature","properties":{"c":"S-108729","o":"Hudbay Minerals Inc.: 100.000%","e":"2027-04-05"},"geometry":{"type":"Polygon","coordinates":[[[-102.0,55.0],[-102.0,55.0],[-103.0,55.0],[-102.0,55.0]]]}},{"type":"Feature","properties":{"c":"MC00016971","o":"McIlvenna Bay Operating Ltd.: 100.000%","e":"2027-05-18"},"geometry":{"type":"Polygon","coordinates":[[[-102.0,55.0],[-102.0,55.0],[-103.0,55.0],[-102.0,55.0]]]}},{"type":"Feature","properties":{"c":"MC00022019","o":"GEM OIL INC.: 100.000%","e":"2027-03-11"},"geometry":{"type":"Polygon","coordinates":[[[-103.0,55.0],[-102.0,55.0],[-103.0,55.0],[-103.0,55.0]]]}},{"type":"Feature","properties":{"c":"MC00022032","o":"GEM OIL INC.: 100.000%","e":"2027-03-11"},"geometry":{"type":"Polygon","coordinates":[[[-103.0,55.0],[-102.0,55.0],[-103.0,55.0],[-103.0,55.0]]]}},{"type":"Feature","properties":{"c":"MC00022373","o":"GEM OIL INC.: 100.000%","e":"2027-07-22"},"geometry":{"type":"Polygon","coordinates":[[[-103.0,55.0],[-102.0,55.0],[-103.0,55.0],[-103.0,55.0]]]}},{"type":"Feature","properties":{"c":"MC00022811","o":"Stephen Soock: 100.000%","e":"2027-11-03"},"geometry":{"type":"Polygon","coordinates":[[[-103.0,55.0],[-102.0,55.0],[-103.0,55.0],[-103.0,55.0]]]}},{"type":"Feature","properties":{"c":"MC00023045","o":"GEM OIL INC.: 100.000%","e":"2026-08-26"},"geometry":{"type":"Polygon","coordinates":[[[-103.0,55.0],[-102.0,55.0],[-103.0,55.0],[-103.0,55.0]]]}},{"type":"Feature","properties":{"c":"MC00023048","o":"GEM OIL INC.: 100.000%","e":"2026-08-26"},"geometry":{"type":"Polygon","coordinates":[[[-103.0,55.0],[-102.0,55.0],[-102.0,55.0],[-103.0,55.0]]]}},{"type":"Feature","properties":{"c":"MC00023049","o":"GEM OIL INC.: 100.000%","e":"2026-08-26"},"geometry":{"type":"Polygon","coordinates":[[[-102.0,55.0],[-102.0,55.0],[-103.0,55.0],[-102.0,55.0]]]}},{"type":"Feature","properties":{"c":"MC00023212","o":"McIlvenna Bay Operating Ltd.: 100.000%","e":"2032-03-21"},"geometry":{"type":"Polygon","coordinates":[[[-103.0,55.0],[-102.0,55.0],[-103.0,55.0],[-103.0,55.0]]]}},{"type":"Feature","properties":{"c":"MC00023478","o":"Gary Clayton Dunn: 100.000%","e":"2028-06-09"},"geometry":{"type":"Polygon","coordinates":[[[-103.0,55.0],[-102.0,55.0],[-102.0,55.0],[-103.0,55.0]]]}},{"type":"Feature","properties":{"c":"MC00023494","o":"McIlvenna Bay Operating Ltd.: 100.000%","e":"2028-06-15"},"geometry":{"type":"Polygon","coordinates":[[[-103.0,55.0],[-102.0,55.0],[-102.0,55.0],[-103.0,55.0]]]}},{"type":"Feature","properties":{"c":"MC00011113","o":"McIlvenna Bay Operating Ltd.: 100.000%","e":"2028-08-20"},"geometry":{"type":"Polygon","coordinates":[[[-103.0,55.0],[-102.0,55.0],[-103.0,54.0],[-103.0,55.0]]]}}]}