{"type":"FeatureCollection","features":[{"type":"Feature","properties":{"c":"MC00023588","o":"Carey Rus Galeschuk: 100.000%","e":"2028-07-13"},"geometry":{"type":"Polygon","coordinates":[[[-103.52483,59.98939],[-103.52483,59.99301],[-103.52483,59.99662],[-103.52603,59.99662],[-103.52603,60.00002],[-103.51878,60.00001],[-103.5186,60.00001],[-103.51842,60.00001],[-103.51154,60.00001],[-103.51136,60.00001],[-103.50429,60.00001],[-103.50411,60.00001],[-103.50393,60.00001],[-103.49668,60.00001],[-103.48943,60.0],[-103.48925,60.0],[-103.48907,60.0],[-103.48218,60.0],[-103.482,60.0],[-103.47494,59.99999],[-103.47476,59.99999],[-103.47458,59.99999],[-103.46733,59.99999],[-103.46008,59.99998],[-103.4599,59.99998],[-103.45972,59.99998],[-103.45283,59.99998],[-103.45265,59.99998],[-103.44559,59.99997],[-103.44559,59.99838],[-103.44559,59.9968],[-103.44559,59.99671],[-103.44559,59.99661],[-103.44541,59.99661],[-103.44529,59.99661],[-103.44523,59.99661],[-103.44522,59.99661],[-103.44487,59.99661],[-103.44487,59.993],[-103.44487,59.98939],[-103.44487,59.98578],[-103.45204,59.98578],[-103.45921,59.98579],[-103.45957,59.98579],[-103.46674,59.98579],[-103.47391,59.98579],[-103.48108,59.98579],[-103.48826,59.98579],[-103.48861,59.98579],[-103.49579,59.98579],[-103.50296,59.98579],[-103.51013,59.98579],[-103.5173,59.98579],[-103.51766,59.98579],[-103.51768,59.98579],[-103.52483,59.98578],[-103.52483,59.98939]]]}}]}