{"type":"FeatureCollection","features":[{"type":"Feature","properties":{"c":"MP00021947","o":"T. YOUNG: 100.000%","e":"2027-01-27"},"geometry":{"type":"MultiPolygon","coordinates":[[[[-103.22172,53.36573],[-103.22173,53.36573],[-103.22185,53.36573],[-103.23376,53.36573],[-103.23394,53.36573],[-103.23394,53.3659],[-103.23396,53.37293],[-103.23396,53.38019],[-103.23396,53.38746],[-103.23396,53.39473],[-103.22175,53.39472],[-103.21806,53.39472],[-103.21743,53.39472],[-103.21475,53.39472],[-103.21391,53.39471],[-103.20955,53.39471],[-103.20955,53.39338],[-103.20955,53.39299],[-103.20955,53.38744],[-103.20958,53.38017],[-103.20964,53.3729],[-103.20967,53.3659],[-103.20967,53.36573],[-103.2097,53.36573],[-103.22143,53.36573],[-103.22172,53.36573]]],[[[-103.33203,53.6275],[-103.32597,53.62751],[-103.31991,53.62751],[-103.31384,53.62752],[-103.30778,53.62752],[-103.30778,53.62389],[-103.30778,53.62026],[-103.30779,53.61663],[-103.30779,53.613],[-103.30779,53.60937],[-103.30779,53.60574],[-103.3078,53.60211],[-103.3078,53.59848],[-103.31386,53.59848],[-103.31992,53.59848],[-103.32598,53.59848],[-103.33205,53.59848],[-103.33204,53.60211],[-103.33204,53.60329],[-103.33204,53.60331],[-103.33204,53.60574],[-103.33204,53.60778],[-103.33204,53.6078],[-103.33204,53.60937],[-103.33204,53.613],[-103.33204,53.61344],[-103.33204,53.61345],[-103.33204,53.61662],[-103.33204,53.62025],[-103.33204,53.62388],[-103.33204,53.62642],[-103.33204,53.62644],[-103.33203,53.6275]]],[[[-103.35663,53.60316],[-103.35663,53.60576],[-103.35662,53.61301],[-103.35661,53.62027],[-103.35661,53.62753],[-103.34448,53.62752],[-103.33234,53.6275],[-103.33234,53.62025],[-103.33234,53.613],[-103.33235,53.60574],[-103.33235,53.59848],[-103.3445,53.59849],[-103.35208,53.5985],[-103.35664,53.5985],[-103.35663,53.60316]]],[[[-103.28297,53.57289],[-103.28297,53.57652],[-103.28296,53.58015],[-103.28296,53.58378],[-103.28296,53.58741],[-103.28295,53.59104],[-103.27689,53.59104],[-103.27083,53.59103],[-103.27082,53.59467],[-103.26476,53.59466],[-103.26477,53.59103],[-103.26477,53.5874],[-103.26478,53.58377],[-103.27084,53.58377],[-103.27084,53.58014],[-103.27085,53.57651],[-103.27085,53.57288],[-103.27086,53.56924],[-103.27692,53.56925],[-103.28297,53.56925],[-103.28297,53.57289]]],[[[-103.30751,53.5729],[-103.30751,53.57653],[-103.30751,53.58016],[-103.30751,53.58379],[-103.3075,53.58742],[-103.3075,53.59104],[-103.3075,53.59467],[-103.30749,53.5983],[-103.30143,53.5983],[-103.29537,53.5983],[-103.29537,53.59467],[-103.28931,53.59467],[-103.28932,53.59104],[-103.28326,53.59104],[-103.28326,53.58741],[-103.28326,53.58378],[-103.28327,53.58015],[-103.28327,53.57652],[-103.28327,53.57289],[-103.28328,53.56925],[-103.28934,53.56926],[-103.2954,53.56926],[-103.30146,53.56927],[-103.30752,53.56927],[-103.30751,53.5729]]],[[[-103.33206,53.57292],[-103.33205,53.57654],[-103.33205,53.58017],[-103.33205,53.58379],[-103.33205,53.58742],[-103.33205,53.58948],[-103.33205,53.58951],[-103.33205,53.58953],[-103.33205,53.59105],[-103.33205,53.59467],[-103.33205,53.5983],[-103.32598,53.5983],[-103.31992,53.5983],[-103.31386,53.5983],[-103.3078,53.5983],[-103.3078,53.59467],[-103.3078,53.59104],[-103.30781,53.58742],[-103.30781,53.58379],[-103.30781,53.58016],[-103.30781,53.57653],[-103.30782,53.5729],[-103.30782,53.56927],[-103.31388,53.56928],[-103.31994,53.56928],[-103.326,53.56929],[-103.33206,53.56929],[-103.33206,53.57292]]],[[[-103.35667,53.5694],[-103.35666,53.57656],[-103.35665,53.58381],[-103.35664,53.59107],[-103.35664,53.59832],[-103.3519,53.59832],[-103.3445,53.59831],[-103.34461,53.59165],[-103.34462,53.59106],[-103.34474,53.5838],[-103.34463,53.57655],[-103.34452,53.5693],[-103.34498,53.5693],[-103.35667,53.56931],[-103.35667,53.5694]]],[[[-103.3691,53.5694],[-103.36909,53.57656],[-103.36909,53.57674],[-103.36907,53.58381],[-103.35696,53.58381],[-103.35696,53.57656],[-103.35697,53.5694],[-103.35697,53.56931],[-103.3691,53.56931],[-103.3691,53.5694]]],[[[-103.35668,53.55461],[-103.35667,53.56187],[-103.35667,53.56902],[-103.35667,53.56913],[-103.34498,53.56912],[-103.34452,53.56912],[-103.34452,53.56186],[-103.34452,53.5546],[-103.34498,53.5546],[-103.34698,53.5546],[-103.35668,53.55461]]],[[[-103.25677,53.53999],[-103.25847,53.54],[-103.25847,53.54363],[-103.25846,53.54726],[-103.25846,53.55089],[-103.25845,53.55452],[-103.25845,53.55816],[-103.25844,53.56179],[-103.25239,53.56178],[-103.25239,53.55815],[-103.2524,53.55452],[-103.2497,53.55451],[-103.24634,53.55451],[-103.24634,53.55088],[-103.24635,53.54724],[-103.24029,53.54724],[-103.23424,53.54723],[-103.23424,53.54359],[-103.23425,53.53996],[-103.23756,53.53996],[-103.2403,53.53997],[-103.24636,53.53998],[-103.2503,53.53998],[-103.25242,53.53999],[-103.25676,53.53999],[-103.25677,53.53999]]],[[[-103.26483,53.54],[-103.27089,53.54001],[-103.27695,53.54002],[-103.28301,53.54003],[-103.283,53.54366],[-103.283,53.54729],[-103.28299,53.55092],[-103.28299,53.55455],[-103.28299,53.55818],[-103.28298,53.56181],[-103.28298,53.56544],[-103.28297,53.56907],[-103.27692,53.56907],[-103.27086,53.56906],[-103.2648,53.56906],[-103.2648,53.56543],[-103.25874,53.56542],[-103.25875,53.56179],[-103.25875,53.55816],[-103.25876,53.55453],[-103.25876,53.55089],[-103.25877,53.54726],[-103.25877,53.54363],[-103.25878,53.54],[-103.26022,53.54],[-103.26023,53.54],[-103.26483,53.54]]],[[[-103.30148,53.54005],[-103.30754,53.54005],[-103.30753,53.54368],[-103.30753,53.54731],[-103.30753,53.55094],[-103.30753,53.55457],[-103.30752,53.5582],[-103.30752,53.56183],[-103.30752,53.56546],[-103.30752,53.56909],[-103.30146,53.56909],[-103.2954,53.56908],[-103.28934,53.56908],[-103.28328,53.56907],[-103.28328,53.56544],[-103.28329,53.56181],[-103.28329,53.55818],[-103.28329,53.55455],[-103.2833,53.55092],[-103.2833,53.54729],[-103.2833,53.54366],[-103.28331,53.54003],[-103.28937,53.54003],[-103.29243,53.54004],[-103.29245,53.54004],[-103.29542,53.54004],[-103.29701,53.54004],[-103.29702,53.54004],[-103.30148,53.54005]]],[[[-103.33206,53.55315],[-103.33206,53.55459],[-103.33206,53.55822],[-103.33206,53.56185],[-103.33206,53.56548],[-103.33206,53.56911],[-103.326,53.56911],[-103.31994,53.5691],[-103.31388,53.5691],[-103.30782,53.56909],[-103.30782,53.56546],[-103.30782,53.56183],[-103.30783,53.5582],[-103.30783,53.55457],[-103.30783,53.55094],[-103.30783,53.54731],[-103.30784,53.54368],[-103.30784,53.54005],[-103.3139,53.54006],[-103.31947,53.54006],[-103.31948,53.54006],[-103.31995,53.54007],[-103.32601,53.54007],[-103.33207,53.54007],[-103.33206,53.54371],[-103.33206,53.54734],[-103.33206,53.54814],[-103.33206,53.54818],[-103.33206,53.55097],[-103.33206,53.55314],[-103.33206,53.55315]]],[[[-103.38123,53.54735],[-103.38122,53.55461],[-103.38121,53.56186],[-103.3812,53.56912],[-103.38098,53.56912],[-103.3809,53.56912],[-103.3691,53.56913],[-103.35697,53.56913],[-103.35697,53.56903],[-103.35697,53.56548],[-103.35698,53.56187],[-103.35698,53.55461],[-103.35699,53.54735],[-103.36911,53.54735],[-103.36912,53.54009],[-103.38101,53.54009],[-103.38124,53.54009],[-103.38123,53.54735]]],[[[-103.40577,53.54736],[-103.40569,53.54736],[-103.39366,53.54736],[-103.39364,53.55461],[-103.38153,53.55461],[-103.38153,53.54735],[-103.38154,53.54009],[-103.39367,53.54011],[-103.40571,53.54011],[-103.40578,53.54011],[-103.40577,53.54736]]],[[[-103.20948,53.51451],[-103.20947,53.51811],[-103.20946,53.52171],[-103.20945,53.52532],[-103.20944,53.52892],[-103.20943,53.53253],[-103.20338,53.53251],[-103.20339,53.52891],[-103.2034,53.52531],[-103.19734,53.5253],[-103.19735,53.52169],[-103.19736,53.51809],[-103.1913,53.51808],[-103.18525,53.51806],[-103.18526,53.51446],[-103.18527,53.51085],[-103.19132,53.51087],[-103.19738,53.51088],[-103.20343,53.51089],[-103.20949,53.5109],[-103.20948,53.51451]]],[[[-103.22183,53.53976],[-103.22184,53.53615],[-103.21578,53.53614],[-103.20973,53.53613],[-103.20974,53.53253],[-103.20975,53.52892],[-103.20976,53.52532],[-103.20976,53.52171],[-103.20977,53.51811],[-103.20978,53.51451],[-103.20979,53.5109],[-103.21585,53.51091],[-103.22192,53.51092],[-103.22798,53.51093],[-103.23404,53.51094],[-103.23403,53.51455],[-103.23402,53.51815],[-103.234,53.52176],[-103.23399,53.52536],[-103.23398,53.52896],[-103.23397,53.53257],[-103.23396,53.53617],[-103.23394,53.53978],[-103.22995,53.53977],[-103.22992,53.53977],[-103.22789,53.53977],[-103.22353,53.53976],[-103.22352,53.53976],[-103.22183,53.53976]]],[[[-103.25677,53.53981],[-103.25242,53.53981],[-103.25031,53.5398],[-103.24636,53.5398],[-103.2403,53.53979],[-103.23759,53.53978],[-103.23757,53.53978],[-103.23756,53.53978],[-103.23425,53.53978],[-103.23426,53.53617],[-103.23427,53.53257],[-103.23428,53.52896],[-103.2343,53.52536],[-103.23431,53.52176],[-103.23432,53.51815],[-103.23433,53.51455],[-103.23434,53.51094],[-103.2404,53.51095],[-103.24645,53.51096],[-103.2515,53.51097],[-103.25251,53.51097],[-103.25856,53.51097],[-103.25855,53.51458],[-103.25854,53.51818],[-103.25853,53.52179],[-103.25852,53.52539],[-103.25851,53.529],[-103.2585,53.5326],[-103.25849,53.53621],[-103.25847,53.53981],[-103.25678,53.53981],[-103.25677,53.53981]]],[[[-103.25878,53.53982],[-103.25879,53.53621],[-103.2588,53.5326],[-103.25881,53.529],[-103.25882,53.52539],[-103.25883,53.52179],[-103.25884,53.51818],[-103.25885,53.51458],[-103.25886,53.51097],[-103.26492,53.51098],[-103.27097,53.51099],[-103.27703,53.51099],[-103.28309,53.511],[-103.28308,53.51461],[-103.28307,53.51821],[-103.28306,53.52182],[-103.28305,53.52542],[-103.28304,53.52903],[-103.28303,53.53263],[-103.28302,53.53624],[-103.28301,53.53985],[-103.27695,53.53984],[-103.27089,53.53983],[-103.26484,53.53982],[-103.26025,53.53982],[-103.25878,53.53982]]],[[[-103.28937,53.53985],[-103.28331,53.53985],[-103.28332,53.53624],[-103.28333,53.53264],[-103.28334,53.52903],[-103.28335,53.52542],[-103.28336,53.52182],[-103.28337,53.51821],[-103.28338,53.51461],[-103.28339,53.511],[-103.28945,53.51101],[-103.2955,53.51101],[-103.30156,53.51101],[-103.30762,53.51102],[-103.30761,53.51462],[-103.3076,53.51823],[-103.30759,53.52184],[-103.30758,53.52545],[-103.30757,53.52905],[-103.30756,53.53266],[-103.30755,53.53627],[-103.30754,53.53987],[-103.30148,53.53987],[-103.29542,53.53986],[-103.2924,53.53986],[-103.29239,53.53986],[-103.28937,53.53985]]],[[[-103.32601,53.53989],[-103.31995,53.53988],[-103.31974,53.53988],[-103.31973,53.53988],[-103.3139,53.53988],[-103.30784,53.53987],[-103.30785,53.53627],[-103.30786,53.53266],[-103.30787,53.52905],[-103.30788,53.52545],[-103.30789,53.52184],[-103.3079,53.51823],[-103.30791,53.51462],[-103.30792,53.51102],[-103.31397,53.51101],[-103.32002,53.511],[-103.32608,53.51099],[-103.33213,53.51098],[-103.33212,53.51459],[-103.33211,53.51821],[-103.3321,53.52182],[-103.3321,53.52502],[-103.3321,53.52503],[-103.3321,53.52506],[-103.3321,53.52543],[-103.33209,53.52905],[-103.33208,53.5311],[-103.33208,53.53111],[-103.33208,53.53266],[-103.33207,53.53628],[-103.33207,53.53989],[-103.33181,53.53989],[-103.3318,53.53989],[-103.32601,53.53989]]],[[[-103.35669,53.5182],[-103.35669,53.52543],[-103.35669,53.53266],[-103.35669,53.53991],[-103.34453,53.5399],[-103.33237,53.53989],[-103.33238,53.53266],[-103.3324,53.52543],[-103.33242,53.51821],[-103.33243,53.51098],[-103.34454,53.51096],[-103.35108,53.51097],[-103.35669,53.51097],[-103.35669,53.5182]]],[[[-103.38121,53.5182],[-103.3812,53.52533],[-103.3812,53.52542],[-103.3812,53.52551],[-103.38118,53.53268],[-103.38124,53.53991],[-103.38101,53.53991],[-103.36912,53.53991],[-103.36911,53.53267],[-103.3691,53.52543],[-103.35699,53.52543],[-103.35699,53.5182],[-103.35699,53.51097],[-103.36909,53.51097],[-103.38097,53.51096],[-103.3812,53.51096],[-103.38121,53.5182]]],[[[-103.4058,53.51097],[-103.40579,53.51821],[-103.4058,53.52534],[-103.4058,53.52543],[-103.4058,53.52552],[-103.40579,53.53268],[-103.40578,53.53993],[-103.40571,53.53993],[-103.39367,53.53993],[-103.38154,53.53991],[-103.38152,53.5372],[-103.38149,53.53268],[-103.38151,53.52551],[-103.38151,53.52542],[-103.38151,53.52533],[-103.38152,53.5182],[-103.3815,53.51096],[-103.39364,53.51097],[-103.40571,53.51096],[-103.4058,53.51096],[-103.4058,53.51097]]],[[[-103.41825,53.511],[-103.41825,53.5182],[-103.43024,53.5182],[-103.43039,53.5182],[-103.43039,53.52532],[-103.43039,53.52541],[-103.43039,53.5255],[-103.43037,53.53267],[-103.43021,53.53267],[-103.41823,53.53268],[-103.4182,53.53993],[-103.40616,53.53993],[-103.40608,53.53993],[-103.40609,53.53268],[-103.4061,53.52552],[-103.4061,53.52543],[-103.4061,53.52534],[-103.40609,53.51821],[-103.4061,53.511],[-103.4061,53.51099],[-103.4061,53.51096],[-103.40615,53.51096],[-103.41825,53.51096],[-103.41825,53.511]]],[[[-103.20955,53.48549],[-103.20955,53.48909],[-103.20954,53.4927],[-103.20953,53.4963],[-103.20952,53.49991],[-103.20951,53.50351],[-103.2095,53.50712],[-103.20949,53.51072],[-103.20343,53.51071],[-103.19738,53.5107],[-103.19132,53.51069],[-103.18527,53.51067],[-103.18528,53.50707],[-103.18529,53.50346],[-103.1853,53.49986],[-103.18531,53.49626],[-103.18532,53.49265],[-103.18533,53.48905],[-103.18534,53.48544],[-103.18535,53.48184],[-103.1914,53.48185],[-103.19746,53.48186],[-103.20351,53.48187],[-103.20956,53.48188],[-103.20955,53.48549]]],[[[-103.23413,53.48553],[-103.23411,53.48914],[-103.2341,53.49274],[-103.23409,53.49634],[-103.23408,53.49995],[-103.23406,53.50355],[-103.23405,53.50716],[-103.23404,53.51076],[-103.22798,53.51075],[-103.22192,53.51074],[-103.21585,53.51073],[-103.20979,53.51072],[-103.2098,53.50712],[-103.20981,53.50351],[-103.20982,53.49991],[-103.20983,53.4963],[-103.20984,53.4927],[-103.20985,53.48909],[-103.20986,53.48549],[-103.20987,53.48189],[-103.21593,53.4819],[-103.222,53.48191],[-103.22807,53.48192],[-103.23414,53.48193],[-103.23413,53.48553]]],[[[-103.25863,53.48556],[-103.25862,53.48916],[-103.25861,53.49277],[-103.2586,53.49637],[-103.25859,53.49998],[-103.25858,53.50358],[-103.25857,53.50719],[-103.25856,53.51079],[-103.25251,53.51079],[-103.2515,53.51079],[-103.24645,53.51078],[-103.2404,53.51077],[-103.23434,53.51076],[-103.23436,53.50716],[-103.23437,53.50355],[-103.23438,53.49995],[-103.23439,53.49635],[-103.2344,53.49274],[-103.23442,53.48914],[-103.23443,53.48553],[-103.23444,53.48193],[-103.24049,53.48193],[-103.24654,53.48194],[-103.25259,53.48195],[-103.25269,53.48195],[-103.25865,53.48195],[-103.25863,53.48556]]],[[[-103.28316,53.48558],[-103.28315,53.48918],[-103.28314,53.49279],[-103.28313,53.4964],[-103.28312,53.5],[-103.28311,53.50361],[-103.2831,53.50721],[-103.28309,53.51082],[-103.27703,53.51081],[-103.27097,53.51081],[-103.26492,53.5108],[-103.25886,53.51079],[-103.25887,53.50719],[-103.25888,53.50358],[-103.25889,53.49998],[-103.25891,53.49637],[-103.25892,53.49277],[-103.25893,53.48916],[-103.25894,53.48556],[-103.25895,53.48195],[-103.265,53.48196],[-103.27106,53.48196],[-103.27711,53.48197],[-103.28317,53.48197],[-103.28316,53.48558]]],[[[-103.30769,53.48559],[-103.30768,53.48919],[-103.30767,53.4928],[-103.30766,53.49641],[-103.30765,53.50001],[-103.30764,53.50362],[-103.30763,53.50723],[-103.30762,53.51084],[-103.30156,53.51083],[-103.2955,53.51083],[-103.28945,53.51082],[-103.28339,53.51082],[-103.2834,53.50721],[-103.28341,53.50361],[-103.28342,53.5],[-103.28343,53.4964],[-103.28344,53.49279],[-103.28345,53.48918],[-103.28346,53.48558],[-103.28347,53.48197],[-103.28953,53.48197],[-103.29559,53.48198],[-103.30164,53.48198],[-103.3077,53.48198],[-103.30769,53.48559]]],[[[-103.33212,53.48552],[-103.33212,53.48913],[-103.33212,53.49274],[-103.33212,53.49636],[-103.33212,53.49997],[-103.33212,53.50007],[-103.33213,53.50358],[-103.33213,53.50719],[-103.33213,53.5108],[-103.32608,53.51081],[-103.32002,53.51082],[-103.31397,53.51083],[-103.30792,53.51084],[-103.30793,53.50723],[-103.30794,53.50362],[-103.30795,53.50002],[-103.30796,53.49641],[-103.30797,53.4928],[-103.30798,53.48919],[-103.30799,53.48559],[-103.30801,53.48198],[-103.31403,53.48196],[-103.32006,53.48194],[-103.32609,53.48193],[-103.33212,53.48191],[-103.33212,53.48552]]],[[[-103.35666,53.48908],[-103.35667,53.49632],[-103.35668,53.50355],[-103.35669,53.51079],[-103.34454,53.51078],[-103.33243,53.5108],[-103.33243,53.50358],[-103.33243,53.49635],[-103.33242,53.48913],[-103.33242,53.48191],[-103.3445,53.48185],[-103.35665,53.48184],[-103.35666,53.48908]]],[[[-103.3812,53.48908],[-103.3812,53.49631],[-103.3812,53.50355],[-103.3812,53.51078],[-103.36909,53.51079],[-103.35699,53.51079],[-103.35698,53.50355],[-103.35697,53.49632],[-103.35696,53.48908],[-103.35695,53.48184],[-103.36908,53.48185],[-103.3812,53.48185],[-103.3812,53.48908]]],[[[-103.39365,53.48909],[-103.39364,53.49632],[-103.39364,53.50356],[-103.40579,53.50356],[-103.4058,53.51078],[-103.39364,53.51078],[-103.3815,53.51078],[-103.3815,53.50355],[-103.3815,53.49631],[-103.38151,53.48908],[-103.38151,53.48185],[-103.39365,53.48186],[-103.39365,53.48909]]],[[[-103.18513,53.45282],[-103.18512,53.45643],[-103.17902,53.45643],[-103.17903,53.45283],[-103.1824,53.45282],[-103.18242,53.45282],[-103.18513,53.45282]]],[[[-103.19148,53.45283],[-103.19752,53.45285],[-103.20358,53.45286],[-103.20964,53.45287],[-103.20963,53.45647],[-103.20962,53.46008],[-103.20961,53.46368],[-103.2096,53.46729],[-103.20959,53.47089],[-103.20958,53.47449],[-103.20957,53.4781],[-103.20956,53.4817],[-103.20351,53.48169],[-103.19746,53.48168],[-103.1914,53.48167],[-103.18535,53.48166],[-103.18536,53.47805],[-103.18537,53.47445],[-103.18538,53.47084],[-103.18539,53.46724],[-103.1854,53.46363],[-103.18541,53.46003],[-103.18542,53.45643],[-103.18543,53.45282],[-103.18931,53.45283],[-103.18933,53.45283],[-103.19148,53.45283]]],[[[-103.21843,53.45288],[-103.22212,53.45289],[-103.22818,53.4529],[-103.23173,53.45291],[-103.23174,53.45291],[-103.23176,53.45291],[-103.23423,53.45291],[-103.23422,53.45651],[-103.23421,53.46012],[-103.2342,53.46372],[-103.23419,53.46733],[-103.23417,53.47093],[-103.23416,53.47454],[-103.23415,53.47814],[-103.23414,53.48175],[-103.22807,53.48174],[-103.222,53.48173],[-103.21594,53.48172],[-103.20987,53.4817],[-103.20988,53.4781],[-103.20989,53.4745],[-103.2099,53.47089],[-103.20991,53.46729],[-103.20991,53.46368],[-103.20992,53.46008],[-103.20993,53.45647],[-103.20994,53.45287],[-103.21603,53.45288],[-103.21842,53.45288],[-103.21843,53.45288]]],[[[-103.25872,53.45654],[-103.25871,53.46014],[-103.2587,53.46375],[-103.25869,53.46735],[-103.25868,53.47096],[-103.25867,53.47456],[-103.25866,53.47817],[-103.25865,53.48177],[-103.2527,53.48177],[-103.25259,53.48177],[-103.24654,53.48176],[-103.24049,53.48175],[-103.23444,53.48175],[-103.23445,53.47814],[-103.23447,53.47454],[-103.23448,53.47093],[-103.23449,53.46733],[-103.2345,53.46372],[-103.23451,53.46012],[-103.23453,53.45652],[-103.23454,53.45291],[-103.24058,53.45292],[-103.24662,53.45292],[-103.25267,53.45293],[-103.25388,53.45293],[-103.25873,53.45293],[-103.25872,53.45654]]],[[[-103.26509,53.45293],[-103.27115,53.45294],[-103.2772,53.45294],[-103.28325,53.45294],[-103.28324,53.45655],[-103.28323,53.46016],[-103.28322,53.46376],[-103.28321,53.46737],[-103.2832,53.47097],[-103.28319,53.47458],[-103.28318,53.47819],[-103.28317,53.48179],[-103.27711,53.48179],[-103.27106,53.48178],[-103.265,53.48178],[-103.25895,53.48177],[-103.25896,53.47817],[-103.25897,53.47456],[-103.25898,53.47096],[-103.25899,53.46735],[-103.259,53.46375],[-103.25901,53.46014],[-103.25902,53.45654],[-103.25903,53.45293],[-103.26003,53.45293],[-103.26004,53.45293],[-103.26509,53.45293]]],[[[-103.30778,53.45655],[-103.30777,53.46015],[-103.30775,53.46376],[-103.30774,53.46737],[-103.30773,53.47098],[-103.30772,53.47458],[-103.30771,53.47819],[-103.3077,53.4818],[-103.30165,53.4818],[-103.29559,53.4818],[-103.28953,53.48179],[-103.28347,53.48179],[-103.28348,53.47819],[-103.28349,53.47458],[-103.2835,53.47097],[-103.28351,53.46737],[-103.28352,53.46376],[-103.28353,53.46016],[-103.28354,53.45655],[-103.28355,53.45294],[-103.28962,53.45294],[-103.29569,53.45294],[-103.30174,53.45294],[-103.30779,53.45294],[-103.30778,53.45655]]],[[[-103.3202,53.45295],[-103.32616,53.45287],[-103.33211,53.45279],[-103.33211,53.45641],[-103.33211,53.46004],[-103.33211,53.46122],[-103.33211,53.46123],[-103.33211,53.46125],[-103.33211,53.46366],[-103.33212,53.46728],[-103.33212,53.47016],[-103.33212,53.4702],[-103.33212,53.47089],[-103.33212,53.47451],[-103.33212,53.47567],[-103.33212,53.47569],[-103.33212,53.4757],[-103.33212,53.47812],[-103.33212,53.48173],[-103.32609,53.48175],[-103.32006,53.48176],[-103.31403,53.48178],[-103.30801,53.4818],[-103.30802,53.47819],[-103.30803,53.47458],[-103.30804,53.47098],[-103.30805,53.46737],[-103.30806,53.46376],[-103.30807,53.46015],[-103.30808,53.45655],[-103.30809,53.45294],[-103.31415,53.45294],[-103.31837,53.45295],[-103.3202,53.45295]]],[[[-103.35663,53.45995],[-103.35664,53.46719],[-103.35664,53.47443],[-103.35665,53.48166],[-103.3445,53.48167],[-103.33242,53.48173],[-103.33242,53.4745],[-103.33242,53.46728],[-103.33242,53.46003],[-103.33242,53.45279],[-103.34448,53.45271],[-103.35662,53.45272],[-103.35663,53.45995]]],[[[-103.36907,53.45996],[-103.36907,53.4672],[-103.38121,53.4672],[-103.38121,53.47444],[-103.3812,53.48167],[-103.36908,53.48167],[-103.35695,53.48166],[-103.35695,53.47443],[-103.35694,53.46719],[-103.35693,53.45995],[-103.35692,53.45272],[-103.36907,53.45273],[-103.36907,53.45996]]],[[[-103.36907,53.45255],[-103.35692,53.45254],[-103.35693,53.44531],[-103.36908,53.44532],[-103.36907,53.45255]]],[[[-103.25871,53.43831],[-103.25872,53.44553],[-103.25873,53.45275],[-103.24662,53.45274],[-103.23454,53.45273],[-103.23448,53.44555],[-103.23442,53.43835],[-103.23436,53.43117],[-103.24652,53.43113],[-103.2587,53.43109],[-103.25871,53.43831]]],[[[-103.1604,53.42739],[-103.1604,53.4278],[-103.1604,53.43101],[-103.16041,53.43823],[-103.14825,53.43823],[-103.14825,53.43305],[-103.14825,53.43256],[-103.14825,53.43101],[-103.13611,53.43102],[-103.13613,53.4238],[-103.14222,53.4238],[-103.14421,53.4238],[-103.14826,53.42379],[-103.15474,53.42379],[-103.15642,53.42379],[-103.16039,53.42379],[-103.1604,53.42739]]],[[[-103.18495,53.43105],[-103.18501,53.43825],[-103.18507,53.44545],[-103.18507,53.44576],[-103.18513,53.45264],[-103.17293,53.45265],[-103.16073,53.45267],[-103.16072,53.44545],[-103.16071,53.43823],[-103.1607,53.43101],[-103.1607,53.42773],[-103.1607,53.42732],[-103.16069,53.42379],[-103.17279,53.42382],[-103.17876,53.42384],[-103.18012,53.42384],[-103.18464,53.42385],[-103.18489,53.42385],[-103.18495,53.43105]]],[[[-103.20949,53.43109],[-103.20954,53.43829],[-103.20959,53.44549],[-103.19747,53.44547],[-103.18537,53.44545],[-103.18531,53.43825],[-103.18525,53.43106],[-103.18522,53.42658],[-103.1852,53.42386],[-103.18547,53.42386],[-103.19732,53.42387],[-103.20944,53.42389],[-103.20949,53.43109]]],[[[-103.23406,53.43117],[-103.23412,53.43835],[-103.23418,53.44555],[-103.22206,53.44552],[-103.22212,53.45271],[-103.20994,53.45269],[-103.20989,53.4455],[-103.20984,53.43829],[-103.2098,53.43109],[-103.20975,53.42389],[-103.22188,53.42394],[-103.234,53.42398],[-103.23406,53.43117]]],[[[-103.28313,53.42415],[-103.28316,53.43119],[-103.28319,53.43839],[-103.28322,53.44558],[-103.28325,53.45276],[-103.27115,53.45276],[-103.25904,53.45275],[-103.25903,53.44553],[-103.25902,53.43831],[-103.25901,53.43109],[-103.259,53.42401],[-103.259,53.42386],[-103.27106,53.42393],[-103.28313,53.424],[-103.28313,53.42415]]],[[[-103.30771,53.43119],[-103.30774,53.43838],[-103.30776,53.44556],[-103.30779,53.45276],[-103.29569,53.45276],[-103.28356,53.45276],[-103.28353,53.44558],[-103.28349,53.43839],[-103.28346,53.43119],[-103.28343,53.424],[-103.29556,53.424],[-103.30769,53.424],[-103.30771,53.43119]]],[[[-103.33205,53.43105],[-103.33207,53.43823],[-103.33209,53.44542],[-103.33211,53.45261],[-103.32021,53.45277],[-103.30809,53.45276],[-103.30807,53.44556],[-103.30804,53.43837],[-103.30802,53.43119],[-103.30799,53.424],[-103.32014,53.424],[-103.33203,53.42386],[-103.33205,53.43105]]],[[[-103.34451,53.43095],[-103.35665,53.43086],[-103.35664,53.43809],[-103.35663,53.44531],[-103.35662,53.45254],[-103.34448,53.45253],[-103.33242,53.45261],[-103.3324,53.44542],[-103.33237,53.43823],[-103.33235,53.43104],[-103.33233,53.42386],[-103.3445,53.42369],[-103.34451,53.43095]]],[[[-103.34451,53.41633],[-103.3445,53.42351],[-103.33233,53.42368],[-103.33231,53.41666],[-103.33231,53.41644],[-103.33229,53.40919],[-103.34452,53.4091],[-103.34451,53.41633]]],[[[-103.11104,53.40195],[-103.11094,53.40893],[-103.11093,53.40918],[-103.09888,53.40918],[-103.09889,53.40893],[-103.09894,53.40196],[-103.099,53.39474],[-103.11115,53.39473],[-103.11104,53.40195]]],[[[-103.1359,53.40196],[-103.13588,53.40896],[-103.13588,53.40918],[-103.13586,53.41279],[-103.13585,53.4164],[-103.13585,53.41686],[-103.13585,53.41749],[-103.13583,53.42362],[-103.12672,53.42362],[-103.12466,53.42362],[-103.12363,53.42362],[-103.12359,53.4164],[-103.11133,53.4164],[-103.11124,53.40917],[-103.11124,53.40896],[-103.11135,53.40195],[-103.11146,53.39473],[-103.12369,53.39473],[-103.13588,53.39474],[-103.13593,53.39474],[-103.1359,53.40196]]],[[[-103.16036,53.40195],[-103.16037,53.40917],[-103.16038,53.41639],[-103.16039,53.42117],[-103.16039,53.42166],[-103.16039,53.42361],[-103.15681,53.42361],[-103.15543,53.42361],[-103.14826,53.42361],[-103.14453,53.42361],[-103.14246,53.42362],[-103.13613,53.42362],[-103.13615,53.41749],[-103.13615,53.41686],[-103.13615,53.4164],[-103.13616,53.4143],[-103.13618,53.40918],[-103.1362,53.40196],[-103.13623,53.39474],[-103.1363,53.39474],[-103.13901,53.39474],[-103.14829,53.39473],[-103.16035,53.39473],[-103.16036,53.40195]]],[[[-103.18471,53.40209],[-103.18476,53.408],[-103.18477,53.40928],[-103.18483,53.41648],[-103.18487,53.4206],[-103.18489,53.42367],[-103.18464,53.42367],[-103.18068,53.42366],[-103.17934,53.42366],[-103.17279,53.42364],[-103.16069,53.42361],[-103.16069,53.42158],[-103.16069,53.42102],[-103.16069,53.42017],[-103.16068,53.41639],[-103.16067,53.40917],[-103.16066,53.40195],[-103.16065,53.39473],[-103.16075,53.39473],[-103.17265,53.39481],[-103.18466,53.39489],[-103.18471,53.40209]]],[[[-103.20929,53.4021],[-103.20934,53.4093],[-103.20939,53.41651],[-103.20298,53.4165],[-103.19726,53.41649],[-103.18513,53.41648],[-103.18508,53.40928],[-103.18502,53.40209],[-103.18498,53.39816],[-103.18496,53.39489],[-103.18503,53.39489],[-103.1971,53.39489],[-103.20924,53.39489],[-103.20929,53.4021]]],[[[-103.23397,53.40006],[-103.23397,53.40217],[-103.23399,53.40942],[-103.23399,53.41661],[-103.23375,53.41661],[-103.23249,53.4166],[-103.22185,53.41656],[-103.22185,53.41689],[-103.22188,53.42376],[-103.20974,53.42371],[-103.2097,53.41683],[-103.2097,53.41651],[-103.20965,53.4093],[-103.2096,53.4021],[-103.20955,53.39489],[-103.22175,53.3949],[-103.23396,53.39491],[-103.23397,53.40006]]],[[[-103.25867,53.40199],[-103.25868,53.40922],[-103.25868,53.40984],[-103.25869,53.41645],[-103.25844,53.41645],[-103.24649,53.41653],[-103.2343,53.41661],[-103.23429,53.40942],[-103.23428,53.40217],[-103.23426,53.39491],[-103.24646,53.39483],[-103.25866,53.39476],[-103.25867,53.40199]]],[[[-103.28312,53.4021],[-103.28312,53.40936],[-103.2831,53.41661],[-103.28313,53.42382],[-103.27106,53.42375],[-103.259,53.42368],[-103.259,53.42286],[-103.25899,53.41645],[-103.25898,53.41036],[-103.25898,53.40922],[-103.25897,53.40199],[-103.25896,53.39476],[-103.27104,53.3948],[-103.28312,53.39485],[-103.28312,53.4021]]],[[[-103.30771,53.39487],[-103.30767,53.40209],[-103.30764,53.40931],[-103.30766,53.41656],[-103.30766,53.41678],[-103.30769,53.42382],[-103.29556,53.42382],[-103.28343,53.42382],[-103.2834,53.41662],[-103.28342,53.40936],[-103.28342,53.4021],[-103.28342,53.39485],[-103.29556,53.39485],[-103.30102,53.39484],[-103.30771,53.39484],[-103.30771,53.39487]]],[[[-103.33198,53.39488],[-103.33197,53.40195],[-103.33199,53.4092],[-103.33201,53.41644],[-103.32386,53.41648],[-103.32012,53.4165],[-103.32012,53.41672],[-103.32014,53.42382],[-103.30799,53.42382],[-103.30797,53.41678],[-103.30797,53.41656],[-103.30794,53.40931],[-103.30797,53.40209],[-103.30801,53.39505],[-103.30801,53.39487],[-103.30801,53.39484],[-103.32018,53.39483],[-103.33198,53.3947],[-103.33198,53.39488]]],[[[-103.32017,53.3802],[-103.32018,53.38733],[-103.32019,53.39458],[-103.32019,53.39465],[-103.30801,53.39466],[-103.30801,53.39463],[-103.30802,53.3874],[-103.30803,53.38022],[-103.30803,53.38014],[-103.32017,53.3801],[-103.32017,53.3802]]],[[[-103.08657,53.38008],[-103.08656,53.38732],[-103.0864,53.38732],[-103.07436,53.3873],[-103.06218,53.38727],[-103.06218,53.38004],[-103.06218,53.37282],[-103.07438,53.37284],[-103.08649,53.37285],[-103.08656,53.37285],[-103.08657,53.38008]]],[[[-103.0497,53.36591],[-103.04969,53.37281],[-103.06188,53.37282],[-103.06188,53.38004],[-103.06188,53.38727],[-103.04966,53.38727],[-103.03745,53.38727],[-103.03747,53.38004],[-103.03749,53.37281],[-103.03751,53.36588],[-103.03752,53.3657],[-103.03882,53.3657],[-103.03883,53.3657],[-103.0497,53.36571],[-103.0497,53.36591]]],[[[-103.11108,53.36573],[-103.11108,53.36594],[-103.11112,53.37287],[-103.11116,53.3801],[-103.11116,53.38733],[-103.11116,53.39452],[-103.11116,53.39455],[-103.099,53.39456],[-103.099,53.39452],[-103.09901,53.38733],[-103.08686,53.38732],[-103.08687,53.38008],[-103.08686,53.37285],[-103.08685,53.36595],[-103.08685,53.36586],[-103.08685,53.36572],[-103.08712,53.36572],[-103.08744,53.36572],[-103.08745,53.36572],[-103.09896,53.36573],[-103.09949,53.36573],[-103.09979,53.36573],[-103.11108,53.36573]]],[[[-103.13587,53.36573],[-103.13587,53.36594],[-103.13592,53.37289],[-103.13597,53.38012],[-103.13595,53.38734],[-103.13593,53.39455],[-103.13593,53.39456],[-103.12369,53.39455],[-103.11146,53.39455],[-103.11146,53.39452],[-103.11146,53.38733],[-103.11146,53.38371],[-103.11146,53.3801],[-103.11142,53.37287],[-103.11138,53.36594],[-103.11138,53.36573],[-103.11183,53.36573],[-103.12362,53.36573],[-103.12363,53.36573],[-103.12388,53.36573],[-103.12419,53.36573],[-103.13587,53.36573]]],[[[-103.1604,53.36573],[-103.1604,53.36595],[-103.16039,53.37289],[-103.16038,53.38011],[-103.16036,53.38733],[-103.16035,53.39455],[-103.14829,53.39455],[-103.14829,53.39449],[-103.14831,53.38733],[-103.13632,53.38734],[-103.13625,53.38734],[-103.13627,53.38012],[-103.13622,53.37289],[-103.13617,53.36594],[-103.13617,53.36573],[-103.13623,53.36573],[-103.14828,53.36573],[-103.14858,53.36573],[-103.1604,53.36573]]],[[[-103.17268,53.36572],[-103.1727,53.36572],[-103.17271,53.36572],[-103.17298,53.36572],[-103.17319,53.36572],[-103.18471,53.36572],[-103.18473,53.36572],[-103.18473,53.36593],[-103.18472,53.37294],[-103.18467,53.3802],[-103.18466,53.38745],[-103.17266,53.38739],[-103.17265,53.3946],[-103.17265,53.39463],[-103.16065,53.39455],[-103.16067,53.38733],[-103.16068,53.38011],[-103.16069,53.37289],[-103.1607,53.36595],[-103.1607,53.36573],[-103.17268,53.36572]]],[[[-103.20937,53.3659],[-103.20934,53.3729],[-103.20928,53.38017],[-103.20925,53.38744],[-103.20924,53.39308],[-103.20924,53.39348],[-103.20924,53.39471],[-103.2087,53.39471],[-103.20809,53.39471],[-103.1971,53.39471],[-103.18503,53.39471],[-103.185,53.39471],[-103.18496,53.39471],[-103.18497,53.38746],[-103.18498,53.3802],[-103.18502,53.37294],[-103.18503,53.36593],[-103.18503,53.36572],[-103.18512,53.36572],[-103.19692,53.36572],[-103.19697,53.36572],[-103.1972,53.36572],[-103.19722,53.36572],[-103.19726,53.36572],[-103.20932,53.36573],[-103.20935,53.36573],[-103.20937,53.36573],[-103.20937,53.3659]]],[[[-103.24635,53.36573],[-103.25814,53.36573],[-103.25845,53.36573],[-103.25846,53.36586],[-103.25863,53.37288],[-103.25864,53.38012],[-103.25865,53.38735],[-103.25866,53.39458],[-103.24646,53.39465],[-103.23426,53.39473],[-103.23426,53.38746],[-103.23426,53.38019],[-103.23426,53.37293],[-103.23424,53.3659],[-103.23425,53.36573],[-103.2458,53.36573],[-103.2461,53.36573],[-103.24635,53.36573]]],[[[-103.28296,53.36589],[-103.28314,53.37291],[-103.2831,53.38017],[-103.28309,53.38741],[-103.28312,53.39467],[-103.27104,53.39462],[-103.25896,53.39458],[-103.25895,53.38735],[-103.25894,53.38299],[-103.25894,53.38011],[-103.25893,53.37288],[-103.27092,53.3729],[-103.27086,53.36586],[-103.27085,53.36573],[-103.28251,53.36572],[-103.28296,53.36572],[-103.28296,53.36589]]],[[[-103.30747,53.3659],[-103.30762,53.36931],[-103.30778,53.37291],[-103.30773,53.38],[-103.30773,53.38014],[-103.30152,53.38015],[-103.29555,53.38016],[-103.29556,53.3874],[-103.30772,53.3874],[-103.30771,53.39463],[-103.30771,53.39466],[-103.30081,53.39466],[-103.29556,53.39466],[-103.28342,53.39467],[-103.28339,53.38741],[-103.2834,53.38017],[-103.28343,53.37438],[-103.28343,53.37417],[-103.28344,53.37291],[-103.28583,53.37291],[-103.28681,53.37291],[-103.29547,53.37291],[-103.29541,53.36933],[-103.29541,53.36932],[-103.29536,53.3659],[-103.29536,53.36572],[-103.29568,53.36572],[-103.30688,53.36571],[-103.30747,53.36571],[-103.30747,53.3659]]],[[[-103.03883,53.3655],[-103.03882,53.3655],[-103.03752,53.3655],[-103.03751,53.3655],[-103.03721,53.3655],[-103.02694,53.36549],[-103.02694,53.36539],[-103.02691,53.35838],[-103.02689,53.35115],[-103.02687,53.34392],[-103.02685,53.33669],[-103.03879,53.3367],[-103.05073,53.3367],[-103.05073,53.34393],[-103.05072,53.35116],[-103.05072,53.35839],[-103.05071,53.36544],[-103.05071,53.36551],[-103.0497,53.36551],[-103.03883,53.3655]]],[[[-103.05102,53.36551],[-103.05102,53.36544],[-103.05102,53.36526],[-103.05102,53.36464],[-103.05102,53.35839],[-103.05102,53.35116],[-103.05103,53.34393],[-103.05103,53.3367],[-103.0631,53.33671],[-103.07517,53.33672],[-103.07515,53.34395],[-103.07514,53.35118],[-103.07512,53.35841],[-103.07512,53.35883],[-103.07512,53.35944],[-103.0751,53.36547],[-103.0751,53.36553],[-103.07438,53.36553],[-103.06306,53.36552],[-103.06218,53.36552],[-103.06188,53.36552],[-103.05102,53.36551]]],[[[-103.08745,53.36553],[-103.08719,53.36553],[-103.08685,53.36553],[-103.08655,53.36553],[-103.08642,53.36553],[-103.0754,53.36553],[-103.0754,53.36547],[-103.07542,53.35923],[-103.07542,53.35841],[-103.07544,53.35118],[-103.07546,53.34395],[-103.07547,53.33676],[-103.07547,53.33672],[-103.08751,53.33674],[-103.09954,53.33676],[-103.09954,53.33684],[-103.09953,53.33707],[-103.09953,53.33801],[-103.09953,53.34399],[-103.09952,53.35122],[-103.0995,53.35845],[-103.09949,53.36539],[-103.09949,53.36554],[-103.09896,53.36554],[-103.08745,53.36553]]],[[[-103.09979,53.36554],[-103.09979,53.36548],[-103.0998,53.35845],[-103.09982,53.35122],[-103.09983,53.34399],[-103.09984,53.33752],[-103.09984,53.33676],[-103.10031,53.33676],[-103.11189,53.33675],[-103.12394,53.33673],[-103.12394,53.33679],[-103.12394,53.33737],[-103.12392,53.34397],[-103.12391,53.35121],[-103.12389,53.35844],[-103.12388,53.36548],[-103.12388,53.36555],[-103.12363,53.36555],[-103.12362,53.36555],[-103.11183,53.36554],[-103.11138,53.36554],[-103.11108,53.36554],[-103.09979,53.36554]]],[[[-103.12419,53.36555],[-103.12419,53.36548],[-103.12419,53.35844],[-103.12421,53.35121],[-103.12422,53.34397],[-103.12424,53.33673],[-103.12584,53.33673],[-103.13626,53.33673],[-103.14827,53.33673],[-103.14827,53.33674],[-103.14827,53.34396],[-103.14828,53.35119],[-103.14828,53.35838],[-103.14828,53.35843],[-103.14828,53.35856],[-103.14828,53.36199],[-103.14828,53.36548],[-103.14828,53.36555],[-103.13623,53.36555],[-103.13617,53.36555],[-103.13587,53.36555],[-103.12419,53.36555]]],[[[-103.14858,53.36555],[-103.14858,53.36545],[-103.14858,53.35843],[-103.14858,53.35119],[-103.14858,53.34396],[-103.14857,53.33677],[-103.14857,53.33673],[-103.16061,53.33669],[-103.17258,53.33665],[-103.17265,53.33665],[-103.17266,53.34389],[-103.17266,53.35112],[-103.17267,53.35836],[-103.17268,53.36548],[-103.17268,53.36554],[-103.1607,53.36555],[-103.16063,53.36555],[-103.1604,53.36555],[-103.14858,53.36555]]],[[[-103.19705,53.36555],[-103.19702,53.36555],[-103.1852,53.36555],[-103.18503,53.36555],[-103.18501,53.36555],[-103.18473,53.36555],[-103.1847,53.36555],[-103.17303,53.36554],[-103.17298,53.36554],[-103.17298,53.36548],[-103.17297,53.35835],[-103.17296,53.35112],[-103.17296,53.34389],[-103.17295,53.33664],[-103.17304,53.33664],[-103.18486,53.33665],[-103.18495,53.33665],[-103.18504,53.33665],[-103.197,53.33666],[-103.197,53.34386],[-103.197,53.35097],[-103.197,53.3511],[-103.197,53.35115],[-103.19702,53.35833],[-103.19704,53.36194],[-103.19705,53.36545],[-103.19705,53.36555]]],[[[-103.22139,53.3439],[-103.22137,53.35114],[-103.2214,53.35837],[-103.22142,53.36476],[-103.22143,53.365],[-103.22143,53.36547],[-103.22143,53.36556],[-103.21631,53.36556],[-103.21228,53.36556],[-103.20975,53.36556],[-103.20973,53.36556],[-103.20944,53.36556],[-103.20943,53.36556],[-103.20939,53.36556],[-103.20938,53.36556],[-103.19736,53.36555],[-103.19736,53.36545],[-103.19733,53.35833],[-103.1973,53.3511],[-103.1973,53.35097],[-103.1973,53.34386],[-103.1973,53.33666],[-103.19873,53.33666],[-103.20935,53.33669],[-103.22141,53.33672],[-103.22139,53.3439]]],[[[-103.22173,53.36546],[-103.2217,53.35837],[-103.22167,53.35114],[-103.22169,53.3439],[-103.22171,53.33746],[-103.22171,53.33672],[-103.23375,53.33672],[-103.24579,53.33672],[-103.24576,53.34389],[-103.24574,53.35112],[-103.24577,53.35835],[-103.2458,53.36535],[-103.2458,53.36546],[-103.2458,53.36556],[-103.23425,53.36556],[-103.23424,53.36556],[-103.23394,53.36556],[-103.23376,53.36556],[-103.22185,53.36556],[-103.22173,53.36556],[-103.22173,53.36546]]],[[[-103.22137,53.32218],[-103.22139,53.3293],[-103.22141,53.33653],[-103.21999,53.33653],[-103.20935,53.33651],[-103.1973,53.33648],[-103.19729,53.32925],[-103.19728,53.32202],[-103.19732,53.32202],[-103.20933,53.32205],[-103.22137,53.32207],[-103.22137,53.32218]]],[[[-103.24575,53.32218],[-103.24577,53.3293],[-103.24579,53.33654],[-103.23375,53.33654],[-103.22171,53.33654],[-103.22169,53.3293],[-103.22168,53.32218],[-103.22167,53.32207],[-103.23371,53.32207],[-103.24575,53.32207],[-103.24575,53.32218]]],[[[-103.1239,53.32209],[-103.12392,53.32932],[-103.12394,53.33646],[-103.12394,53.33655],[-103.11189,53.33656],[-103.10461,53.33657],[-103.10042,53.33658],[-103.09988,53.33658],[-103.09984,53.33658],[-103.09984,53.33656],[-103.09982,53.32934],[-103.09981,53.3221],[-103.09989,53.3221],[-103.11177,53.3221],[-103.11186,53.3221],[-103.11184,53.31487],[-103.11212,53.31487],[-103.12389,53.31486],[-103.1239,53.32209]]],[[[-103.05074,53.30999],[-103.05073,53.31482],[-103.05073,53.32205],[-103.05073,53.32928],[-103.05073,53.33652],[-103.03879,53.33652],[-103.02685,53.33651],[-103.02682,53.32928],[-103.0268,53.32205],[-103.02677,53.31483],[-103.02676,53.31345],[-103.02676,53.3134],[-103.02676,53.31232],[-103.02674,53.30761],[-103.03278,53.3076],[-103.035,53.3076],[-103.03874,53.3076],[-103.05074,53.30759],[-103.05074,53.30999]]],[[[-103.07515,53.31483],[-103.07515,53.32207],[-103.07516,53.3293],[-103.07517,53.33654],[-103.0631,53.33653],[-103.05103,53.33652],[-103.05103,53.32928],[-103.05103,53.32205],[-103.05104,53.31482],[-103.05104,53.31023],[-103.05104,53.30759],[-103.0542,53.30759],[-103.06309,53.30759],[-103.07514,53.30759],[-103.07515,53.31483]]],[[[-103.0995,53.31487],[-103.09951,53.3221],[-103.09952,53.32934],[-103.09954,53.33656],[-103.09954,53.33658],[-103.08751,53.33656],[-103.07547,53.33654],[-103.07547,53.33649],[-103.07546,53.3293],[-103.07545,53.32207],[-103.07545,53.31483],[-103.07544,53.30759],[-103.08746,53.30762],[-103.09949,53.30764],[-103.0995,53.31487]]],[[[-103.13622,53.31485],[-103.14818,53.31484],[-103.14826,53.31484],[-103.14826,53.32207],[-103.14826,53.32931],[-103.14827,53.3365],[-103.14827,53.33654],[-103.13626,53.33655],[-103.12519,53.33655],[-103.12424,53.33655],[-103.12424,53.33646],[-103.12422,53.32932],[-103.12421,53.32209],[-103.12419,53.31486],[-103.12418,53.30763],[-103.13621,53.30762],[-103.13622,53.31485]]],[[[-103.17261,53.31478],[-103.17262,53.32201],[-103.17263,53.32924],[-103.17265,53.33646],[-103.17258,53.33646],[-103.16061,53.33651],[-103.14857,53.33654],[-103.14857,53.3365],[-103.14856,53.32931],[-103.14856,53.32207],[-103.14856,53.31484],[-103.14856,53.30761],[-103.1486,53.30761],[-103.16058,53.30758],[-103.17256,53.30756],[-103.1726,53.30756],[-103.17261,53.31478]]],[[[-103.19697,53.3148],[-103.19698,53.32202],[-103.19698,53.32925],[-103.197,53.33562],[-103.197,53.33648],[-103.18504,53.33647],[-103.18495,53.33647],[-103.17304,53.33646],[-103.17295,53.33646],[-103.17293,53.32923],[-103.17292,53.32201],[-103.17292,53.31478],[-103.17291,53.30756],[-103.17304,53.30756],[-103.18493,53.30756],[-103.19095,53.30757],[-103.1969,53.30757],[-103.19696,53.30757],[-103.19697,53.3148]]],[[[-103.22137,53.31484],[-103.20932,53.31482],[-103.20932,53.30759],[-103.22137,53.3076],[-103.22137,53.31484]]],[[[-103.24574,53.31484],[-103.23371,53.31484],[-103.22167,53.31484],[-103.22167,53.30761],[-103.23371,53.30761],[-103.24574,53.30762],[-103.24574,53.31484]]],[[[-103.02636,53.27847],[-103.02637,53.28574],[-103.02638,53.29297],[-103.02641,53.3002],[-103.01438,53.30019],[-103.00235,53.30019],[-103.00233,53.29297],[-103.00232,53.28571],[-103.0023,53.27844],[-103.01433,53.27843],[-103.02628,53.27842],[-103.02636,53.27842],[-103.02636,53.27847]]],[[[-103.05076,53.27849],[-103.05075,53.28571],[-103.05074,53.29294],[-103.05074,53.30018],[-103.05074,53.30741],[-103.03874,53.30742],[-103.03545,53.30742],[-103.03298,53.30742],[-103.02674,53.30743],[-103.02671,53.3002],[-103.02668,53.29297],[-103.02667,53.28574],[-103.02666,53.27847],[-103.02666,53.27842],[-103.02674,53.27842],[-103.03847,53.27843],[-103.03873,53.27843],[-103.03895,53.27843],[-103.0507,53.27845],[-103.05076,53.27845],[-103.05076,53.27849]]],[[[-103.0751,53.27852],[-103.07511,53.28209],[-103.07511,53.28368],[-103.07512,53.28458],[-103.07512,53.28572],[-103.07512,53.28752],[-103.07512,53.2883],[-103.07513,53.29295],[-103.07514,53.30018],[-103.07514,53.30741],[-103.06309,53.30741],[-103.05414,53.30741],[-103.05104,53.30741],[-103.05104,53.30018],[-103.05105,53.29294],[-103.05105,53.28571],[-103.05106,53.27849],[-103.05106,53.27845],[-103.05113,53.27845],[-103.06308,53.27846],[-103.0751,53.27847],[-103.0751,53.27852]]],[[[-103.09946,53.28575],[-103.09947,53.29299],[-103.09948,53.30022],[-103.09949,53.30746],[-103.08746,53.30743],[-103.07544,53.30741],[-103.07544,53.30018],[-103.07543,53.29295],[-103.07542,53.2883],[-103.07542,53.28678],[-103.07542,53.28572],[-103.07542,53.28441],[-103.07541,53.28315],[-103.07541,53.27852],[-103.07541,53.27847],[-103.08562,53.27849],[-103.08622,53.27849],[-103.08743,53.27849],[-103.09937,53.27851],[-103.09945,53.27851],[-103.09945,53.27856],[-103.09946,53.28575]]],[[[-103.12382,53.27856],[-103.12383,53.28575],[-103.12385,53.29299],[-103.12386,53.30022],[-103.12387,53.30745],[-103.11183,53.30745],[-103.09979,53.30746],[-103.09978,53.30022],[-103.09977,53.29299],[-103.09977,53.29154],[-103.09976,53.28575],[-103.09975,53.27856],[-103.09975,53.27851],[-103.09983,53.27851],[-103.11178,53.27851],[-103.12382,53.27852],[-103.12382,53.27856]]],[[[-103.14817,53.27856],[-103.14819,53.28572],[-103.1482,53.28913],[-103.1482,53.28931],[-103.14821,53.29296],[-103.14822,53.29477],[-103.14823,53.30019],[-103.13621,53.3002],[-103.13621,53.30744],[-103.12418,53.30745],[-103.12416,53.30022],[-103.12415,53.29299],[-103.1362,53.29297],[-103.13619,53.29014],[-103.13619,53.28995],[-103.13617,53.28574],[-103.12413,53.28575],[-103.12412,53.27856],[-103.12412,53.27852],[-103.13614,53.2785],[-103.14817,53.27849],[-103.14817,53.27856]]],[[[-103.17256,53.28569],[-103.17258,53.29292],[-103.17259,53.30014],[-103.1726,53.30738],[-103.17256,53.30738],[-103.16058,53.3074],[-103.14856,53.30743],[-103.14854,53.30019],[-103.14851,53.29296],[-103.1485,53.28931],[-103.1485,53.28913],[-103.14849,53.28572],[-103.14847,53.27856],[-103.14847,53.27849],[-103.1605,53.27847],[-103.17249,53.27846],[-103.17253,53.27846],[-103.17253,53.27855],[-103.17256,53.28569]]],[[[-103.17283,53.27858],[-103.17283,53.27855],[-103.17283,53.27846],[-103.17294,53.27846],[-103.18488,53.27847],[-103.19695,53.27848],[-103.19695,53.2786],[-103.19695,53.28571],[-103.19696,53.29294],[-103.19689,53.29294],[-103.18492,53.29293],[-103.18492,53.30016],[-103.18493,53.30738],[-103.17304,53.30737],[-103.173,53.30737],[-103.17291,53.30737],[-103.1729,53.30014],[-103.17289,53.29291],[-103.17286,53.28569],[-103.17283,53.27858]]],[[[-103.22137,53.27862],[-103.22137,53.28573],[-103.22137,53.29296],[-103.22137,53.30019],[-103.22137,53.30742],[-103.20932,53.30741],[-103.20932,53.30018],[-103.20931,53.29295],[-103.20931,53.28572],[-103.20328,53.28572],[-103.19725,53.28571],[-103.19725,53.2821],[-103.19725,53.27931],[-103.19725,53.2786],[-103.19725,53.27848],[-103.20931,53.27849],[-103.22137,53.2785],[-103.22137,53.27862]]],[[[-102.95323,53.25302],[-102.95324,53.25663],[-102.95325,53.26024],[-102.95325,53.26385],[-102.95326,53.26746],[-102.94724,53.26747],[-102.94122,53.26747],[-102.93521,53.26747],[-102.9352,53.26386],[-102.9352,53.26025],[-102.93519,53.25664],[-102.93519,53.25303],[-102.92917,53.25303],[-102.92917,53.24942],[-102.93518,53.24941],[-102.9412,53.24941],[-102.94721,53.24941],[-102.95323,53.24941],[-102.95323,53.25302]]],[[[-102.9776,53.25552],[-102.9776,53.25662],[-102.97761,53.26023],[-102.97761,53.26384],[-102.97762,53.26745],[-102.9716,53.26745],[-102.96559,53.26746],[-102.95957,53.26746],[-102.95356,53.26746],[-102.95355,53.26385],[-102.95355,53.26024],[-102.95354,53.25663],[-102.95354,53.25302],[-102.95353,53.24941],[-102.95955,53.24941],[-102.96556,53.24941],[-102.97158,53.24941],[-102.97759,53.2494],[-102.97759,53.25003],[-102.9776,53.25301],[-102.9776,53.2555],[-102.9776,53.25552]]],[[[-102.9779,53.25662],[-102.97789,53.2494],[-102.98993,53.24943],[-103.00171,53.24946],[-103.00196,53.24946],[-103.00196,53.25132],[-103.00197,53.25668],[-103.00198,53.26391],[-103.00198,53.26619],[-103.00198,53.2662],[-103.00198,53.26624],[-103.00198,53.2675],[-102.99597,53.26749],[-102.98995,53.26747],[-102.98393,53.26746],[-102.97792,53.26745],[-102.97791,53.26384],[-102.9779,53.25662]]],[[[-103.02649,53.25666],[-103.02644,53.26389],[-103.0264,53.27026],[-103.0264,53.27112],[-103.02636,53.27819],[-103.02636,53.27824],[-103.02628,53.27824],[-103.01433,53.27825],[-103.0023,53.27826],[-103.0023,53.27817],[-103.0023,53.27777],[-103.0023,53.27742],[-103.00229,53.27728],[-103.00229,53.27706],[-103.00229,53.27681],[-103.00229,53.27664],[-103.00229,53.27637],[-103.00229,53.27109],[-103.00228,53.26391],[-103.00227,53.25668],[-103.00226,53.24946],[-103.01439,53.24945],[-103.02653,53.24944],[-103.02649,53.25666]]],[[[-103.05076,53.27826],[-103.05075,53.27826],[-103.03884,53.27825],[-103.03873,53.27825],[-103.03838,53.27825],[-103.02674,53.27824],[-103.02666,53.27824],[-103.02666,53.27819],[-103.0267,53.27112],[-103.02671,53.27026],[-103.02674,53.26389],[-103.02678,53.25797],[-103.02678,53.25769],[-103.02679,53.25666],[-103.02683,53.24943],[-103.03864,53.24944],[-103.03888,53.24944],[-103.03909,53.24944],[-103.04856,53.24944],[-103.04893,53.24944],[-103.05092,53.24944],[-103.05091,53.25159],[-103.05091,53.25177],[-103.05091,53.25214],[-103.0509,53.25233],[-103.0509,53.25271],[-103.0509,53.25282],[-103.05088,53.25666],[-103.05084,53.26389],[-103.05083,53.26537],[-103.05083,53.26555],[-103.0508,53.27112],[-103.05076,53.27822],[-103.05076,53.27826]]],[[[-103.0752,53.24957],[-103.07519,53.25305],[-103.07518,53.25667],[-103.07515,53.2639],[-103.07513,53.27113],[-103.0751,53.27825],[-103.0751,53.27829],[-103.06308,53.27828],[-103.05108,53.27826],[-103.05106,53.27826],[-103.05106,53.27822],[-103.0511,53.27112],[-103.05113,53.26593],[-103.05113,53.26575],[-103.05114,53.26389],[-103.05118,53.25666],[-103.05121,53.25225],[-103.05121,53.252],[-103.05121,53.25179],[-103.05121,53.25161],[-103.05122,53.24944],[-103.06321,53.24944],[-103.0752,53.24944],[-103.0752,53.24957]]],[[[-103.09955,53.24956],[-103.09953,53.25668],[-103.0995,53.26391],[-103.09947,53.27114],[-103.09945,53.27829],[-103.09945,53.27833],[-103.09937,53.27833],[-103.08743,53.27831],[-103.08645,53.27831],[-103.08579,53.27831],[-103.07541,53.27829],[-103.07541,53.27825],[-103.07543,53.27113],[-103.07546,53.2639],[-103.07548,53.25667],[-103.0755,53.24957],[-103.07551,53.24944],[-103.08753,53.24944],[-103.09948,53.24945],[-103.09955,53.24945],[-103.09955,53.24956]]],[[[-103.12387,53.25667],[-103.12385,53.2639],[-103.12383,53.27113],[-103.12382,53.27829],[-103.12382,53.27833],[-103.11178,53.27833],[-103.09983,53.27833],[-103.09975,53.27833],[-103.09975,53.27829],[-103.09978,53.27115],[-103.0998,53.26391],[-103.09983,53.25668],[-103.09986,53.24947],[-103.09986,53.24945],[-103.09993,53.24945],[-103.11187,53.24944],[-103.12388,53.24944],[-103.12387,53.25667]]],[[[-103.14821,53.25665],[-103.1482,53.26387],[-103.14818,53.2711],[-103.14817,53.27828],[-103.14817,53.27831],[-103.13614,53.27832],[-103.12412,53.27833],[-103.12412,53.27829],[-103.12413,53.27113],[-103.12415,53.2639],[-103.12417,53.25667],[-103.12419,53.24944],[-103.1362,53.24944],[-103.14822,53.24943],[-103.14821,53.25665]]],[[[-103.1605,53.27829],[-103.14847,53.27831],[-103.14847,53.27828],[-103.14849,53.2711],[-103.1485,53.26387],[-103.14851,53.25665],[-103.16054,53.25662],[-103.16056,53.24943],[-103.16056,53.2494],[-103.17253,53.24937],[-103.17259,53.24937],[-103.17259,53.2494],[-103.17257,53.25659],[-103.17256,53.26382],[-103.17254,53.27105],[-103.17253,53.27827],[-103.17253,53.27828],[-103.17249,53.27828],[-103.1605,53.27829]]],[[[-103.17289,53.24938],[-103.17289,53.24937],[-103.17298,53.24937],[-103.18498,53.24938],[-103.19406,53.24939],[-103.19707,53.2494],[-103.19706,53.25301],[-103.19704,53.25662],[-103.19703,53.26024],[-103.19701,53.26386],[-103.19698,53.27109],[-103.19696,53.2747],[-103.19695,53.27677],[-103.19695,53.27819],[-103.19695,53.2783],[-103.18488,53.27829],[-103.17294,53.27827],[-103.17283,53.27827],[-103.17283,53.2782],[-103.17284,53.27122],[-103.17284,53.27104],[-103.17284,53.27098],[-103.17286,53.26396],[-103.17286,53.26382],[-103.17286,53.26378],[-103.17288,53.25659],[-103.17289,53.24938]]],[[[-103.2214,53.25663],[-103.2214,53.26387],[-103.22139,53.2711],[-103.22137,53.27821],[-103.22137,53.27832],[-103.20931,53.27831],[-103.19725,53.2783],[-103.19725,53.27819],[-103.19725,53.27728],[-103.19728,53.27109],[-103.19731,53.26386],[-103.19734,53.25663],[-103.19737,53.2494],[-103.20939,53.2494],[-103.2214,53.2494],[-103.2214,53.25663]]]]}}]}