{"type":"FeatureCollection","features":[{"type":"Feature","properties":{"c":"S-111800","o":"Geiger Energy Corporation: 100.000%","e":"2026-12-31"},"geometry":{"type":"Polygon","coordinates":[[[-103.54081,55.18343],[-103.56502,55.18728],[-103.56166,55.1942],[-103.53744,55.19036],[-103.54081,55.18343]]]}},{"type":"Feature","properties":{"c":"MC00007291","o":"SGO Mining Inc.: 100.000%","e":"2041-11-20"},"geometry":{"type":"Polygon","coordinates":[[[-103.46875,55.46046],[-103.46869,55.46046],[-103.46859,55.46046],[-103.46843,55.46046],[-103.46231,55.46046],[-103.4621,55.46046],[-103.45592,55.46046],[-103.45577,55.46046],[-103.45576,55.46046],[-103.4556,55.46046],[-103.44944,55.46045],[-103.44921,55.46045],[-103.44311,55.46045],[-103.44295,55.46045],[-103.44282,55.46045],[-103.44279,55.46045],[-103.43646,55.46045],[-103.43643,55.46045],[-103.43013,55.46045],[-103.43005,55.46045],[-103.42989,55.46045],[-103.42973,55.46045],[-103.42379,55.46045],[-103.42379,55.45692],[-103.42379,55.45338],[-103.41746,55.45338],[-103.41746,55.44977],[-103.41746,55.44615],[-103.42379,55.44616],[-103.43013,55.44616],[-103.43646,55.44616],[-103.44279,55.44616],[-103.44311,55.44616],[-103.44944,55.44616],[-103.45577,55.44616],[-103.4621,55.44616],[-103.46843,55.44617],[-103.46875,55.44617],[-103.47508,55.44616],[-103.48141,55.44616],[-103.48775,55.44616],[-103.49408,55.44616],[-103.49439,55.44616],[-103.50073,55.44616],[-103.50706,55.44616],[-103.51339,55.44616],[-103.51339,55.44977],[-103.51339,55.45338],[-103.51339,55.45692],[-103.51339,55.46045],[-103.50766,55.46045],[-103.5075,55.46045],[-103.50734,55.46045],[-103.50706,55.46045],[-103.50095,55.46045],[-103.50073,55.46045],[-103.49456,55.46045],[-103.49439,55.46045],[-103.49423,55.46045],[-103.49408,55.46045],[-103.48818,55.46045],[-103.48774,55.46045],[-103.48179,55.46046],[-103.48163,55.46046],[-103.48147,55.46046],[-103.48141,55.46046],[-103.47508,55.46046],[-103.46875,55.46046]]]}},{"type":"Feature","properties":{"c":"MC00007294","o":"SGO Mining Inc.: 100.000%","e":"2041-11-20"},"geometry":{"type":"Polygon","coordinates":[[[-103.59166,55.49678],[-103.59166,55.5004],[-103.58527,55.50039],[-103.58527,55.50401],[-103.58495,55.50401],[-103.57857,55.504],[-103.57857,55.50762],[-103.57218,55.50761],[-103.57218,55.51123],[-103.57218,55.51484],[-103.56579,55.51484],[-103.56579,55.51845],[-103.5594,55.51845],[-103.5594,55.51863],[-103.5594,55.52224],[-103.5594,55.52585],[-103.55908,55.52585],[-103.5527,55.52586],[-103.5527,55.52947],[-103.54631,55.52948],[-103.53992,55.52948],[-103.53992,55.53309],[-103.53353,55.5331],[-103.53353,55.53671],[-103.53321,55.53671],[-103.52682,55.53671],[-103.52044,55.53671],[-103.52044,55.5331],[-103.52044,55.52949],[-103.52044,55.52587],[-103.52044,55.52226],[-103.52044,55.51865],[-103.52044,55.51847],[-103.52682,55.51846],[-103.53321,55.51846],[-103.53353,55.51846],[-103.53992,55.51846],[-103.54631,55.51845],[-103.54631,55.51484],[-103.5527,55.51484],[-103.5527,55.51122],[-103.55908,55.51122],[-103.5594,55.51122],[-103.5594,55.50761],[-103.56579,55.50761],[-103.56579,55.504],[-103.57218,55.504],[-103.57218,55.50039],[-103.57857,55.50039],[-103.57857,55.49678],[-103.58495,55.49678],[-103.58527,55.49678],[-103.59166,55.49678]]]}},{"type":"Feature","properties":{"c":"MC00008324","o":"SGO Mining Inc.: 100.000%","e":"2040-11-26"},"geometry":{"type":"Polygon","coordinates":[[[-103.61115,55.46046],[-103.61099,55.46046],[-103.61083,55.46046],[-103.60963,55.46046],[-103.60963,55.45692],[-103.61596,55.45692],[-103.62261,55.45692],[-103.62894,55.45692],[-103.63528,55.45692],[-103.64161,55.45692],[-103.64826,55.45692],[-103.65459,55.45692],[-103.66092,55.45692],[-103.66725,55.45692],[-103.6739,55.45691],[-103.6739,55.45338],[-103.68023,55.45338],[-103.68656,55.45338],[-103.6929,55.45337],[-103.6929,55.4569],[-103.6929,55.46044],[-103.68876,55.46044],[-103.6886,55.46044],[-103.68844,55.46044],[-103.68656,55.46044],[-103.68205,55.46044],[-103.68205,55.46416],[-103.67566,55.46416],[-103.66928,55.46416],[-103.66289,55.46416],[-103.65618,55.46417],[-103.64979,55.46417],[-103.6434,55.46417],[-103.63702,55.46417],[-103.63031,55.46417],[-103.62392,55.46417],[-103.61753,55.46417],[-103.61115,55.46417],[-103.61115,55.46064],[-103.61115,55.46055],[-103.61115,55.46046]]]}},{"type":"Feature","properties":{"c":"MC00006013","o":"EAGLE PLAINS RESOURCES LTD.: 100.000%","e":"2032-10-11"},"geometry":{"type":"Polygon","coordinates":[[[-103.61491,55.01693],[-103.61491,55.01332],[-103.61491,55.00971],[-103.62119,55.00971],[-103.62746,55.0097],[-103.62746,55.01332],[-103.63374,55.01332],[-103.63405,55.01332],[-103.63406,55.01332],[-103.64033,55.01332],[-103.64033,55.01693],[-103.64661,55.01693],[-103.65288,55.01693],[-103.65288,55.02054],[-103.65916,55.02054],[-103.65948,55.02054],[-103.6604,55.02054],[-103.66575,55.02053],[-103.66575,55.02415],[-103.66575,55.02433],[-103.66575,55.02794],[-103.65948,55.02795],[-103.65916,55.02795],[-103.65288,55.02795],[-103.64661,55.02795],[-103.64033,55.02795],[-103.63405,55.02795],[-103.63374,55.02795],[-103.62746,55.02795],[-103.62119,55.02796],[-103.61491,55.02796],[-103.61491,55.02434],[-103.61491,55.02416],[-103.61491,55.02055],[-103.61491,55.01693]]]}},{"type":"Feature","properties":{"c":"MC00008419","o":"EAGLE PLAINS RESOURCES LTD.: 100.000%","e":"2032-12-04"},"geometry":{"type":"Polygon","coordinates":[[[-103.60204,55.02416],[-103.59577,55.02416],[-103.59577,55.02055],[-103.58949,55.02055],[-103.58321,55.02054],[-103.58321,55.01693],[-103.5829,55.01693],[-103.57662,55.01693],[-103.57034,55.01693],[-103.57034,55.01331],[-103.56407,55.01331],[-103.56407,55.0097],[-103.56407,55.00608],[-103.57034,55.00609],[-103.57662,55.00609],[-103.5829,55.00609],[-103.58321,55.00609],[-103.58949,55.00609],[-103.59577,55.00609],[-103.60204,55.00609],[-103.60832,55.00609],[-103.60863,55.00609],[-103.61491,55.00609],[-103.61491,55.00971],[-103.61491,55.01332],[-103.61491,55.01693],[-103.61491,55.02055],[-103.61491,55.02416],[-103.61491,55.02434],[-103.61491,55.02796],[-103.60954,55.02796],[-103.60863,55.02796],[-103.60832,55.02796],[-103.60204,55.02796],[-103.60204,55.02434],[-103.60204,55.02416]]]}},{"type":"Feature","properties":{"c":"MC00013130","o":"SGO Mining Inc.: 100.000%","e":"2040-10-28"},"geometry":{"type":"Polygon","coordinates":[[[-103.64826,55.44616],[-103.64826,55.44978],[-103.64794,55.44978],[-103.64161,55.44978],[-103.63528,55.44978],[-103.62894,55.44978],[-103.62261,55.44978],[-103.62261,55.45339],[-103.62245,55.45339],[-103.6223,55.45339],[-103.62229,55.45339],[-103.61596,55.45339],[-103.60963,55.45339],[-103.60963,55.45692],[-103.6033,55.45692],[-103.59697,55.45692],[-103.59032,55.45692],[-103.58399,55.45692],[-103.57766,55.45692],[-103.57133,55.45691],[-103.56468,55.45691],[-103.56468,55.45338],[-103.56468,55.44976],[-103.56468,55.44615],[-103.57101,55.44615],[-103.57133,55.44615],[-103.57766,55.44616],[-103.58399,55.44616],[-103.59032,55.44616],[-103.59665,55.44616],[-103.59697,55.44616],[-103.6033,55.44616],[-103.60963,55.44616],[-103.61596,55.44616],[-103.6223,55.44617],[-103.62261,55.44617],[-103.62894,55.44616],[-103.63528,55.44616],[-103.64161,55.44616],[-103.64794,55.44616],[-103.64826,55.44616]]]}},{"type":"Feature","properties":{"c":"MC00010610","o":"SGO Mining Inc.: 100.000%","e":"2041-05-13"},"geometry":{"type":"Polygon","coordinates":[[[-103.5594,55.46415],[-103.5594,55.46062],[-103.5594,55.46053],[-103.5594,55.46044],[-103.56468,55.46044],[-103.56468,55.45691],[-103.57133,55.45691],[-103.57766,55.45692],[-103.58399,55.45692],[-103.59032,55.45692],[-103.59697,55.45692],[-103.6033,55.45692],[-103.60963,55.45692],[-103.60963,55.46046],[-103.61083,55.46046],[-103.61099,55.46046],[-103.61115,55.46046],[-103.61115,55.46055],[-103.61115,55.46064],[-103.61115,55.46417],[-103.61115,55.4677],[-103.61753,55.4677],[-103.61753,55.47131],[-103.61753,55.47493],[-103.61115,55.47492],[-103.61115,55.47854],[-103.61083,55.47854],[-103.60444,55.47854],[-103.59805,55.47854],[-103.59166,55.47853],[-103.58528,55.47853],[-103.58527,55.47853],[-103.58495,55.47853],[-103.57857,55.47853],[-103.57218,55.47852],[-103.56579,55.47852],[-103.5594,55.47852],[-103.5594,55.4749],[-103.5594,55.4731],[-103.5594,55.47129],[-103.5594,55.46948],[-103.5594,55.46768],[-103.5594,55.46415]]]}},{"type":"Feature","properties":{"c":"MC00010615","o":"SGO Mining Inc.: 100.000%","e":"2041-05-13"},"geometry":{"type":"Polygon","coordinates":[[[-103.6739,55.44977],[-103.6739,55.45338],[-103.6739,55.45691],[-103.66725,55.45692],[-103.66092,55.45692],[-103.65459,55.45692],[-103.64826,55.45692],[-103.64161,55.45692],[-103.63528,55.45692],[-103.62894,55.45692],[-103.62261,55.45692],[-103.61596,55.45692],[-103.60963,55.45692],[-103.60963,55.45339],[-103.61596,55.45339],[-103.62229,55.45339],[-103.6223,55.45339],[-103.62245,55.45339],[-103.62261,55.45339],[-103.62261,55.44978],[-103.62894,55.44978],[-103.63528,55.44978],[-103.64161,55.44978],[-103.64794,55.44978],[-103.64826,55.44978],[-103.64827,55.44978],[-103.65459,55.44977],[-103.66092,55.44977],[-103.66725,55.44977],[-103.67358,55.44977],[-103.6739,55.44977]]]}},{"type":"Feature","properties":{"c":"MC00006026","o":"EAGLE PLAINS RESOURCES LTD.: 100.000%","e":"2039-10-11"},"geometry":{"type":"Polygon","coordinates":[[[-103.63405,54.99886],[-103.63374,54.99886],[-103.62746,54.99886],[-103.62746,54.99525],[-103.62746,54.99507],[-103.62119,54.99507],[-103.62119,54.99145],[-103.62746,54.99145],[-103.63374,54.99145],[-103.63405,54.99145],[-103.63406,54.99145],[-103.64033,54.99145],[-103.64661,54.99145],[-103.65288,54.99145],[-103.65916,54.99145],[-103.65948,54.99144],[-103.66575,54.99144],[-103.67203,54.99144],[-103.67831,54.99144],[-103.68458,54.99143],[-103.6849,54.99143],[-103.69117,54.99144],[-103.69745,54.99144],[-103.70373,54.99144],[-103.71,54.99144],[-103.71032,54.99144],[-103.71032,54.99506],[-103.71032,54.99524],[-103.71032,54.99885],[-103.71032,55.00247],[-103.71,55.00247],[-103.70373,55.00246],[-103.69745,55.00246],[-103.69117,55.00246],[-103.6849,55.00245],[-103.68458,55.00245],[-103.67831,55.00246],[-103.67203,55.00246],[-103.66575,55.00246],[-103.65948,55.00247],[-103.65916,55.00247],[-103.65288,55.00247],[-103.64661,55.00247],[-103.64033,55.00247],[-103.63405,55.00248],[-103.63405,54.99886]]]}},{"type":"Feature","properties":{"c":"MC00006008","o":"EAGLE PLAINS RESOURCES LTD.: 100.000%","e":"2040-10-11"},"geometry":{"type":"Polygon","coordinates":[[[-103.71659,54.98422],[-103.72287,54.98422],[-103.72915,54.98422],[-103.73543,54.98423],[-103.73574,54.98423],[-103.74202,54.98423],[-103.74829,54.98423],[-103.75457,54.98423],[-103.76085,54.98423],[-103.76116,54.98423],[-103.76116,54.98784],[-103.76116,54.99146],[-103.76085,54.99146],[-103.75457,54.99146],[-103.74829,54.99145],[-103.74829,54.99507],[-103.74202,54.99507],[-103.74202,54.99525],[-103.74202,54.99886],[-103.73574,54.99886],[-103.73543,54.99886],[-103.72915,54.99886],[-103.72915,55.00247],[-103.72287,55.00247],[-103.71659,55.00247],[-103.71032,55.00247],[-103.71032,54.99885],[-103.71032,54.99524],[-103.71032,54.99506],[-103.71032,54.99144],[-103.71032,54.98783],[-103.71032,54.98422],[-103.71659,54.98422]]]}},{"type":"Feature","properties":{"c":"MC00013405","o":"Michael Carl Charles Grundmann: 100.000%","e":"2027-02-24"},"geometry":{"type":"Polygon","coordinates":[[[-103.70588,55.23529],[-103.70588,55.2389],[-103.70588,55.24251],[-103.70588,55.24613],[-103.70588,55.24974],[-103.70588,55.25335],[-103.69954,55.25335],[-103.69923,55.25335],[-103.6929,55.25335],[-103.68656,55.25336],[-103.68656,55.24974],[-103.68656,55.24613],[-103.68656,55.24252],[-103.68656,55.2389],[-103.68656,55.23529],[-103.6929,55.23529],[-103.69923,55.23528],[-103.69954,55.23528],[-103.70588,55.23529]]]}},{"type":"Feature","properties":{"c":"MC00013406","o":"Michael Carl Charles Grundmann: 100.000%","e":"2027-02-24"},"geometry":{"type":"Polygon","coordinates":[[[-103.66725,55.24975],[-103.66725,55.24614],[-103.66725,55.24253],[-103.66725,55.23891],[-103.66725,55.2353],[-103.66725,55.23168],[-103.66725,55.22807],[-103.66725,55.22789],[-103.66725,55.22428],[-103.67358,55.22427],[-103.6739,55.22427],[-103.68023,55.22427],[-103.68656,55.22427],[-103.6929,55.22426],[-103.69923,55.22426],[-103.69954,55.22426],[-103.70588,55.22426],[-103.71221,55.22427],[-103.71854,55.22427],[-103.72487,55.22427],[-103.72519,55.22427],[-103.72519,55.22789],[-103.72519,55.22807],[-103.72519,55.23168],[-103.72519,55.2353],[-103.72519,55.23891],[-103.72519,55.24252],[-103.72519,55.24614],[-103.72519,55.24975],[-103.72519,55.25336],[-103.72519,55.25698],[-103.72519,55.25716],[-103.72519,55.26077],[-103.72519,55.26439],[-103.72487,55.26439],[-103.71854,55.26438],[-103.71221,55.26438],[-103.70588,55.26438],[-103.69954,55.26437],[-103.69923,55.26437],[-103.6929,55.26438],[-103.68656,55.26438],[-103.68023,55.26438],[-103.6739,55.26439],[-103.67358,55.26439],[-103.66725,55.26439],[-103.66725,55.26078],[-103.66725,55.25716],[-103.66725,55.25698],[-103.66725,55.25337],[-103.66725,55.24975]],[[-103.70588,55.23529],[-103.69954,55.23528],[-103.69923,55.23528],[-103.6929,55.23529],[-103.68656,55.23529],[-103.68656,55.2389],[-103.68656,55.24252],[-103.68656,55.24613],[-103.68656,55.24974],[-103.68656,55.25336],[-103.6929,55.25335],[-103.69923,55.25335],[-103.69954,55.25335],[-103.70588,55.25335],[-103.70588,55.24974],[-103.70588,55.24613],[-103.70588,55.24251],[-103.70588,55.2389],[-103.70588,55.23529]]]}},{"type":"Feature","properties":{"c":"MC00013407","o":"Michael Carl Charles Grundmann: 100.000%","e":"2027-02-24"},"geometry":{"type":"Polygon","coordinates":[[[-103.68023,55.21704],[-103.68656,55.21704],[-103.6929,55.21704],[-103.69923,55.21703],[-103.69954,55.21703],[-103.70588,55.21704],[-103.71221,55.21704],[-103.71854,55.21704],[-103.72487,55.21705],[-103.72519,55.21705],[-103.72519,55.22066],[-103.72519,55.22427],[-103.72487,55.22427],[-103.71854,55.22427],[-103.71221,55.22427],[-103.70588,55.22426],[-103.69954,55.22426],[-103.69923,55.22426],[-103.6929,55.22426],[-103.68656,55.22427],[-103.68023,55.22427],[-103.6739,55.22427],[-103.67358,55.22427],[-103.66725,55.22428],[-103.66725,55.22066],[-103.66725,55.21705],[-103.67358,55.21705],[-103.6739,55.21705],[-103.68023,55.21704]]]}},{"type":"Feature","properties":{"c":"MC00013758","o":"SGO Mining Inc.: 100.000%","e":"2040-07-05"},"geometry":{"type":"Polygon","coordinates":[[[-103.66928,55.46416],[-103.66928,55.4677],[-103.66928,55.47131],[-103.66928,55.47492],[-103.66928,55.47854],[-103.66928,55.48215],[-103.66928,55.48576],[-103.66928,55.48938],[-103.66928,55.48956],[-103.66928,55.49317],[-103.66928,55.49679],[-103.66928,55.5004],[-103.66928,55.50401],[-103.66289,55.50401],[-103.66257,55.50401],[-103.65618,55.50402],[-103.64979,55.50402],[-103.64979,55.5004],[-103.64979,55.49679],[-103.64979,55.49318],[-103.64979,55.48956],[-103.64979,55.48938],[-103.64979,55.48577],[-103.64979,55.48215],[-103.64979,55.47854],[-103.64979,55.47493],[-103.64979,55.47131],[-103.64979,55.4677],[-103.64979,55.46417],[-103.65618,55.46417],[-103.66289,55.46416],[-103.66928,55.46416]]]}},{"type":"Feature","properties":{"c":"MC00013771","o":"SGO Mining Inc.: 100.000%","e":"2041-07-06"},"geometry":{"type":"Polygon","coordinates":[[[-103.70792,55.504],[-103.70154,55.504],[-103.69515,55.504],[-103.68876,55.50401],[-103.68876,55.50039],[-103.68844,55.50039],[-103.68205,55.5004],[-103.67566,55.5004],[-103.66928,55.5004],[-103.66928,55.49679],[-103.66928,55.49317],[-103.66928,55.48956],[-103.66928,55.48938],[-103.67566,55.48938],[-103.68205,55.48937],[-103.68844,55.48937],[-103.68876,55.48937],[-103.69515,55.48937],[-103.69515,55.48955],[-103.69515,55.49316],[-103.70154,55.49316],[-103.70792,55.49316],[-103.71431,55.49315],[-103.71463,55.49315],[-103.71463,55.49677],[-103.72102,55.49677],[-103.72741,55.49677],[-103.73379,55.49678],[-103.73379,55.50039],[-103.74018,55.50039],[-103.7405,55.50039],[-103.74051,55.50039],[-103.74689,55.5004],[-103.74689,55.50401],[-103.74689,55.50762],[-103.7405,55.50762],[-103.74018,55.50762],[-103.73379,55.50762],[-103.72741,55.50761],[-103.72102,55.50761],[-103.71463,55.50761],[-103.71431,55.50761],[-103.70792,55.50761],[-103.70792,55.504]]]}},{"type":"Feature","properties":{"c":"MC00014311","o":"EAGLE PLAINS RESOURCES LTD.: 100.000%","e":"2041-12-16"},"geometry":{"type":"Polygon","coordinates":[[[-103.78658,54.98423],[-103.78658,54.98784],[-103.78658,54.99145],[-103.78627,54.99145],[-103.77999,54.99145],[-103.77999,54.99507],[-103.77999,54.99525],[-103.77999,54.99886],[-103.77999,55.00248],[-103.77999,55.00609],[-103.77999,55.0097],[-103.77371,55.00971],[-103.76744,55.00971],[-103.76116,55.00971],[-103.76085,55.00971],[-103.75457,55.00971],[-103.74829,55.00971],[-103.74202,55.0097],[-103.73574,55.0097],[-103.73543,55.0097],[-103.72915,55.0097],[-103.72915,55.00609],[-103.72915,55.00247],[-103.72915,54.99886],[-103.73543,54.99886],[-103.73574,54.99886],[-103.74202,54.99886],[-103.74202,54.99525],[-103.74202,54.99507],[-103.74829,54.99507],[-103.74829,54.99145],[-103.75457,54.99146],[-103.76085,54.99146],[-103.76116,54.99146],[-103.76116,54.98784],[-103.76744,54.98784],[-103.77371,54.98784],[-103.77371,54.98423],[-103.77999,54.98423],[-103.78627,54.98423],[-103.78658,54.98423]]]}},{"type":"Feature","properties":{"c":"MC00014313","o":"EAGLE PLAINS RESOURCES LTD.: 100.000%","e":"2036-12-16"},"geometry":{"type":"Polygon","coordinates":[[[-103.94539,55.00609],[-103.94539,55.0097],[-103.94539,55.01332],[-103.94539,55.01693],[-103.94539,55.02054],[-103.94539,55.02416],[-103.94539,55.02434],[-103.94539,55.02795],[-103.94539,55.03157],[-103.95166,55.03156],[-103.95794,55.03156],[-103.96422,55.03156],[-103.96453,55.03156],[-103.97081,55.03156],[-103.97708,55.03155],[-103.98336,55.03155],[-103.98964,55.03155],[-103.98995,55.03155],[-103.98995,55.02793],[-103.98995,55.02432],[-103.98995,55.02414],[-103.98995,55.02052],[-103.98995,55.01691],[-103.98995,55.0133],[-103.98995,55.00968],[-103.99623,55.00969],[-104.0025,55.00969],[-104.00878,55.00969],[-104.01506,55.00969],[-104.01537,55.0097],[-104.02165,55.0097],[-104.02793,55.0097],[-104.0342,55.0097],[-104.04048,55.0097],[-104.04079,55.0097],[-104.04079,55.01332],[-104.04079,55.01693],[-104.04079,55.02054],[-104.04079,55.02416],[-104.04079,55.02434],[-104.04079,55.02795],[-104.04048,55.02795],[-104.0342,55.02795],[-104.02793,55.02795],[-104.02165,55.02795],[-104.01537,55.02795],[-104.01537,55.03156],[-104.01537,55.03517],[-104.01537,55.03879],[-104.01537,55.0424],[-104.01537,55.04601],[-104.01506,55.04601],[-104.00878,55.04601],[-104.0025,55.04601],[-104.0025,55.04239],[-103.99623,55.04239],[-103.98995,55.04239],[-103.98964,55.04239],[-103.98336,55.04239],[-103.97708,55.04239],[-103.97081,55.0424],[-103.96454,55.0424],[-103.96453,55.0424],[-103.96422,55.0424],[-103.95794,55.0424],[-103.95166,55.04241],[-103.94539,55.04241],[-103.93911,55.04241],[-103.93879,55.04241],[-103.93252,55.04241],[-103.92624,55.04241],[-103.91996,55.04241],[-103.91369,55.04241],[-103.91337,55.04241],[-103.9071,55.04241],[-103.90082,55.04241],[-103.89454,55.04241],[-103.88827,55.04241],[-103.88827,55.03879],[-103.88827,55.03518],[-103.88827,55.03157],[-103.88827,55.02795],[-103.88827,55.02434],[-103.88827,55.02416],[-103.88827,55.02054],[-103.88827,55.01693],[-103.88827,55.01332],[-103.88827,55.0097],[-103.88827,55.00609],[-103.89454,55.00609],[-103.90082,55.00609],[-103.9071,55.00609],[-103.91337,55.00609],[-103.91369,55.00609],[-103.91996,55.00609],[-103.92624,55.00609],[-103.93252,55.00609],[-103.93879,55.00609],[-103.93911,55.00609],[-103.94539,55.00609]]]}},{"type":"Feature","properties":{"c":"MC00014316","o":"EAGLE PLAINS RESOURCES LTD.: 100.000%","e":"2036-12-16"},"geometry":{"type":"Polygon","coordinates":[[[-103.69117,55.02053],[-103.6849,55.02052],[-103.68458,55.02052],[-103.67831,55.02053],[-103.67203,55.02053],[-103.66575,55.02053],[-103.6604,55.02054],[-103.65948,55.02054],[-103.65916,55.02054],[-103.65288,55.02054],[-103.65288,55.01693],[-103.64661,55.01693],[-103.64033,55.01693],[-103.64033,55.01332],[-103.63406,55.01332],[-103.63405,55.01332],[-103.63374,55.01332],[-103.62746,55.01332],[-103.62746,55.0097],[-103.62119,55.00971],[-103.61491,55.00971],[-103.61491,55.00609],[-103.61491,55.00248],[-103.61491,54.99886],[-103.61491,54.99525],[-103.61491,54.99507],[-103.61491,54.99146],[-103.62119,54.99145],[-103.62119,54.99507],[-103.62746,54.99507],[-103.62746,54.99525],[-103.62746,54.99886],[-103.63374,54.99886],[-103.63405,54.99886],[-103.63405,55.00248],[-103.64033,55.00247],[-103.64661,55.00247],[-103.65288,55.00247],[-103.65916,55.00247],[-103.65948,55.00247],[-103.66575,55.00246],[-103.67203,55.00246],[-103.67831,55.00246],[-103.68458,55.00245],[-103.6849,55.00245],[-103.69117,55.00246],[-103.69745,55.00246],[-103.70373,55.00246],[-103.71,55.00247],[-103.71032,55.00247],[-103.71659,55.00247],[-103.72287,55.00247],[-103.72915,55.00247],[-103.72915,55.00609],[-103.72915,55.0097],[-103.72915,55.01332],[-103.72915,55.01693],[-103.72915,55.02054],[-103.72915,55.02416],[-103.72287,55.02416],[-103.71659,55.02415],[-103.71032,55.02415],[-103.71,55.02415],[-103.70373,55.02415],[-103.69745,55.02414],[-103.69117,55.02414],[-103.69117,55.02053]]]}},{"type":"Feature","properties":{"c":"MC00014323","o":"EAGLE PLAINS RESOURCES LTD.: 100.000%","e":"2036-12-16"},"geometry":{"type":"Polygon","coordinates":[[[-103.88827,55.00609],[-103.88827,55.0097],[-103.88827,55.01332],[-103.88827,55.01693],[-103.88827,55.02054],[-103.88795,55.02054],[-103.88168,55.02054],[-103.8754,55.02054],[-103.86912,55.02054],[-103.86284,55.02054],[-103.86253,55.02054],[-103.85625,55.02053],[-103.84998,55.02053],[-103.8437,55.02053],[-103.83742,55.02052],[-103.83711,55.02052],[-103.83083,55.02053],[-103.82456,55.02053],[-103.81828,55.02053],[-103.812,55.02054],[-103.812,55.01692],[-103.812,55.01331],[-103.812,55.0097],[-103.81828,55.00969],[-103.82456,55.00969],[-103.83083,55.00969],[-103.83711,55.00968],[-103.83742,55.00968],[-103.8437,55.00969],[-103.84998,55.00969],[-103.85625,55.00969],[-103.86253,55.00969],[-103.86285,55.0097],[-103.86912,55.0097],[-103.8754,55.0097],[-103.8754,55.00609],[-103.88168,55.00609],[-103.88795,55.00609],[-103.88827,55.00609]]]}},{"type":"Feature","properties":{"c":"MC00015873","o":"EAGLE PLAINS RESOURCES LTD.: 100.000%","e":"2034-06-21"},"geometry":{"type":"Polygon","coordinates":[[[-103.812,55.01331],[-103.812,55.01692],[-103.812,55.02054],[-103.81169,55.02054],[-103.80541,55.02054],[-103.79913,55.02054],[-103.79286,55.02054],[-103.78658,55.02054],[-103.78627,55.02054],[-103.77999,55.02055],[-103.77371,55.02055],[-103.76744,55.02055],[-103.76116,55.02055],[-103.76085,55.02055],[-103.75457,55.02055],[-103.74829,55.02055],[-103.74202,55.02055],[-103.73574,55.02054],[-103.73542,55.02054],[-103.72915,55.02054],[-103.72915,55.01693],[-103.72915,55.01332],[-103.72915,55.0097],[-103.73543,55.0097],[-103.73574,55.0097],[-103.74202,55.0097],[-103.74829,55.00971],[-103.75457,55.00971],[-103.76085,55.00971],[-103.76116,55.00971],[-103.76744,55.00971],[-103.77371,55.00971],[-103.77999,55.0097],[-103.78627,55.0097],[-103.78658,55.0097],[-103.79286,55.0097],[-103.79914,55.0097],[-103.80541,55.0097],[-103.81169,55.0097],[-103.812,55.0097],[-103.812,55.01331]]]}},{"type":"Feature","properties":{"c":"MC00017782","o":"SGO Mining Inc.: 100.000%","e":"2041-01-24"},"geometry":{"type":"Polygon","coordinates":[[[-103.60444,55.48215],[-103.60444,55.48576],[-103.60444,55.48938],[-103.59805,55.48938],[-103.59805,55.48956],[-103.59805,55.49317],[-103.59166,55.49317],[-103.59166,55.49678],[-103.58527,55.49678],[-103.58495,55.49678],[-103.57857,55.49678],[-103.57857,55.50039],[-103.57218,55.50039],[-103.57218,55.49677],[-103.57218,55.49316],[-103.57218,55.48955],[-103.57218,55.48936],[-103.57218,55.48575],[-103.57218,55.48214],[-103.57218,55.47852],[-103.57857,55.47853],[-103.58495,55.47853],[-103.58527,55.47853],[-103.58528,55.47853],[-103.59166,55.47853],[-103.59805,55.47854],[-103.60444,55.47854],[-103.60444,55.48215]]]}},{"type":"Feature","properties":{"c":"MC00017783","o":"SGO Mining Inc.: 100.000%","e":"2041-01-24"},"geometry":{"type":"Polygon","coordinates":[[[-103.56468,55.44976],[-103.56468,55.45338],[-103.56468,55.45691],[-103.56468,55.46044],[-103.5594,55.46044],[-103.55924,55.46044],[-103.55908,55.46044],[-103.55835,55.46044],[-103.5527,55.46044],[-103.55201,55.46044],[-103.54631,55.46043],[-103.54568,55.46043],[-103.54536,55.46043],[-103.53992,55.46044],[-103.53903,55.46044],[-103.53353,55.46044],[-103.53337,55.46044],[-103.53321,55.46044],[-103.5327,55.46044],[-103.52682,55.46044],[-103.52637,55.46044],[-103.52044,55.46044],[-103.52004,55.46045],[-103.51988,55.46045],[-103.51972,55.46045],[-103.51405,55.46045],[-103.51339,55.46045],[-103.51339,55.45692],[-103.51339,55.45338],[-103.51339,55.44977],[-103.51339,55.44616],[-103.51972,55.44615],[-103.52004,55.44615],[-103.52637,55.44615],[-103.5327,55.44615],[-103.53903,55.44614],[-103.54537,55.44614],[-103.54568,55.44614],[-103.55201,55.44614],[-103.55835,55.44615],[-103.56468,55.44615],[-103.56468,55.44976]]]}},{"type":"Feature","properties":{"c":"MC00018898","o":"EAGLE PLAINS RESOURCES LTD.: 100.000%","e":"2032-06-08"},"geometry":{"type":"Polygon","coordinates":[[[-103.56407,55.00608],[-103.56407,55.0097],[-103.56407,55.01331],[-103.57034,55.01331],[-103.57034,55.01693],[-103.57662,55.01693],[-103.5829,55.01693],[-103.58321,55.01693],[-103.58321,55.02054],[-103.58949,55.02055],[-103.59577,55.02055],[-103.59577,55.02416],[-103.60204,55.02416],[-103.60204,55.02434],[-103.60204,55.02796],[-103.59577,55.02796],[-103.58949,55.02795],[-103.58321,55.02795],[-103.5829,55.02795],[-103.57662,55.02795],[-103.57034,55.02795],[-103.56407,55.02795],[-103.56407,55.02433],[-103.56407,55.02415],[-103.56407,55.02054],[-103.55779,55.02054],[-103.55748,55.02054],[-103.5512,55.02053],[-103.54492,55.02053],[-103.53865,55.02053],[-103.53865,55.01691],[-103.53865,55.0133],[-103.53865,55.00969],[-103.53865,55.00607],[-103.53865,55.00246],[-103.54492,55.00246],[-103.5512,55.00246],[-103.55748,55.00247],[-103.55779,55.00247],[-103.55779,55.00608],[-103.56407,55.00608]]]}},{"type":"Feature","properties":{"c":"MC00021988","o":"GEM OIL INC.: 100.000%","e":"2027-11-21"},"geometry":{"type":"Polygon","coordinates":[[[-103.69923,55.34803],[-103.69954,55.34803],[-103.69954,55.35164],[-103.69923,55.35164],[-103.6929,55.35165],[-103.6929,55.34803],[-103.69923,55.34803]]]}},{"type":"Feature","properties":{"c":"MC00021989","o":"GEM OIL INC.: 100.000%","e":"2027-11-21"},"geometry":{"type":"Polygon","coordinates":[[[-103.6929,55.34803],[-103.6929,55.35165],[-103.68656,55.35165],[-103.68656,55.34804],[-103.6929,55.34803]]]}},{"type":"Feature","properties":{"c":"MC00021990","o":"GEM OIL INC.: 100.000%","e":"2027-11-21"},"geometry":{"type":"Polygon","coordinates":[[[-103.68656,55.34804],[-103.68656,55.35165],[-103.68023,55.35165],[-103.68023,55.34804],[-103.68656,55.34804]]]}},{"type":"Feature","properties":{"c":"MC00021991","o":"GEM OIL INC.: 100.000%","e":"2027-11-21"},"geometry":{"type":"Polygon","coordinates":[[[-103.68023,55.34804],[-103.68023,55.35165],[-103.6739,55.35166],[-103.6739,55.34804],[-103.68023,55.34804]]]}},{"type":"Feature","properties":{"c":"MC00021992","o":"GEM OIL INC.: 100.000%","e":"2027-11-21"},"geometry":{"type":"Polygon","coordinates":[[[-103.69923,55.34424],[-103.69954,55.34424],[-103.69954,55.34442],[-103.69954,55.34803],[-103.69923,55.34803],[-103.6929,55.34803],[-103.6929,55.34442],[-103.6929,55.34424],[-103.69923,55.34424]]]}},{"type":"Feature","properties":{"c":"MC00021993","o":"GEM OIL INC.: 100.000%","e":"2027-11-21"},"geometry":{"type":"Polygon","coordinates":[[[-103.6929,55.34424],[-103.6929,55.34442],[-103.6929,55.34803],[-103.68656,55.34804],[-103.68656,55.34442],[-103.68656,55.34424],[-103.6929,55.34424]]]}},{"type":"Feature","properties":{"c":"MC00021994","o":"GEM OIL INC.: 100.000%","e":"2027-11-21"},"geometry":{"type":"Polygon","coordinates":[[[-103.68656,55.34424],[-103.68656,55.34442],[-103.68656,55.34804],[-103.68023,55.34804],[-103.68023,55.34443],[-103.68023,55.34425],[-103.68656,55.34424]]]}},{"type":"Feature","properties":{"c":"MC00021995","o":"GEM OIL INC.: 100.000%","e":"2027-11-21"},"geometry":{"type":"Polygon","coordinates":[[[-103.68023,55.34425],[-103.68023,55.34443],[-103.68023,55.34804],[-103.6739,55.34804],[-103.6739,55.34443],[-103.6739,55.34425],[-103.68023,55.34425]]]}},{"type":"Feature","properties":{"c":"MC00021996","o":"GEM OIL INC.: 100.000%","e":"2027-11-21"},"geometry":{"type":"Polygon","coordinates":[[[-103.67392,55.34064],[-103.68023,55.34063],[-103.68023,55.34425],[-103.6739,55.34425],[-103.6739,55.34064],[-103.67392,55.34064]]]}},{"type":"Feature","properties":{"c":"MC00021997","o":"GEM OIL INC.: 100.000%","e":"2027-11-21"},"geometry":{"type":"Polygon","coordinates":[[[-103.68023,55.33702],[-103.68023,55.34063],[-103.67392,55.34064],[-103.6739,55.34064],[-103.6739,55.33702],[-103.68023,55.33702]]]}},{"type":"Feature","properties":{"c":"MC00021998","o":"GEM OIL INC.: 100.000%","e":"2027-11-21"},"geometry":{"type":"Polygon","coordinates":[[[-103.68656,55.33702],[-103.68656,55.34063],[-103.68023,55.34063],[-103.68023,55.33702],[-103.68656,55.33702]]]}},{"type":"Feature","properties":{"c":"MC00021999","o":"GEM OIL INC.: 100.000%","e":"2027-11-21"},"geometry":{"type":"Polygon","coordinates":[[[-103.68656,55.34063],[-103.68656,55.34424],[-103.68023,55.34425],[-103.68023,55.34063],[-103.68656,55.34063]]]}},{"type":"Feature","properties":{"c":"MC00022000","o":"GEM OIL INC.: 100.000%","e":"2027-11-21"},"geometry":{"type":"Polygon","coordinates":[[[-103.6929,55.34063],[-103.6929,55.34424],[-103.68656,55.34424],[-103.68656,55.34063],[-103.6929,55.34063]]]}},{"type":"Feature","properties":{"c":"MC00022001","o":"GEM OIL INC.: 100.000%","e":"2027-11-21"},"geometry":{"type":"Polygon","coordinates":[[[-103.6929,55.33701],[-103.6929,55.34063],[-103.68656,55.34063],[-103.68656,55.33702],[-103.6929,55.33701]]]}},{"type":"Feature","properties":{"c":"MC00022002","o":"GEM OIL INC.: 100.000%","e":"2027-11-21"},"geometry":{"type":"Polygon","coordinates":[[[-103.69923,55.34062],[-103.69954,55.34062],[-103.69954,55.34424],[-103.69923,55.34424],[-103.6929,55.34424],[-103.6929,55.34063],[-103.69923,55.34062]]]}},{"type":"Feature","properties":{"c":"MC00022003","o":"GEM OIL INC.: 100.000%","e":"2027-11-21"},"geometry":{"type":"Polygon","coordinates":[[[-103.69923,55.33701],[-103.69954,55.33701],[-103.69954,55.34062],[-103.69923,55.34062],[-103.6929,55.34063],[-103.6929,55.33701],[-103.69923,55.33701]]]}},{"type":"Feature","properties":{"c":"MC00022777","o":"Michael Carl Charles Grundmann: 50.000%;  SHAUN SPELLISCY: 50.000%","e":"2027-10-15"},"geometry":{"type":"Polygon","coordinates":[[[-103.66725,55.22066],[-103.66725,55.22428],[-103.66725,55.22789],[-103.66092,55.22789],[-103.65459,55.22789],[-103.65459,55.22807],[-103.65459,55.23169],[-103.65459,55.2353],[-103.65459,55.23892],[-103.66092,55.23891],[-103.66725,55.23891],[-103.66725,55.24253],[-103.66725,55.24614],[-103.66725,55.24975],[-103.66725,55.25337],[-103.66725,55.25698],[-103.66725,55.25716],[-103.66725,55.26078],[-103.66725,55.26439],[-103.66092,55.26439],[-103.65459,55.26439],[-103.64826,55.26439],[-103.64794,55.26439],[-103.64161,55.2644],[-103.63528,55.2644],[-103.62894,55.2644],[-103.62261,55.2644],[-103.6223,55.2644],[-103.61596,55.2644],[-103.60963,55.2644],[-103.6033,55.2644],[-103.59697,55.26439],[-103.59697,55.26078],[-103.59697,55.25717],[-103.59697,55.25699],[-103.59697,55.25337],[-103.59697,55.24976],[-103.59697,55.24615],[-103.59697,55.24253],[-103.59697,55.23892],[-103.59697,55.2353],[-103.59697,55.23169],[-103.59697,55.22808],[-103.59697,55.2279],[-103.59697,55.22428],[-103.59697,55.22067],[-103.6033,55.22067],[-103.60963,55.22067],[-103.61596,55.22067],[-103.6223,55.22067],[-103.62261,55.22067],[-103.62894,55.22067],[-103.63528,55.22067],[-103.63528,55.21706],[-103.64161,55.21706],[-103.64794,55.21705],[-103.64826,55.21705],[-103.64827,55.21705],[-103.65459,55.21705],[-103.66092,55.21705],[-103.66725,55.21705],[-103.66725,55.22066]]]}},{"type":"Feature","properties":{"c":"MC00022781","o":"Michael Carl Charles Grundmann: 50.000%;  SHAUN SPELLISCY: 50.000%","e":"2027-10-20"},"geometry":{"type":"Polygon","coordinates":[[[-103.67358,55.21705],[-103.66725,55.21705],[-103.66092,55.21705],[-103.65459,55.21705],[-103.64827,55.21705],[-103.64826,55.21705],[-103.64794,55.21705],[-103.64161,55.21706],[-103.63528,55.21706],[-103.63528,55.21344],[-103.63528,55.20983],[-103.63528,55.20622],[-103.63528,55.2026],[-103.63528,55.19899],[-103.63528,55.19881],[-103.63528,55.19519],[-103.64161,55.19519],[-103.64794,55.19519],[-103.64826,55.19519],[-103.65459,55.19519],[-103.65459,55.1988],[-103.65459,55.19898],[-103.65459,55.2026],[-103.66092,55.2026],[-103.66725,55.20259],[-103.67358,55.20259],[-103.6739,55.20259],[-103.6739,55.20621],[-103.6739,55.20982],[-103.67392,55.20982],[-103.68023,55.20982],[-103.68656,55.20981],[-103.68656,55.2062],[-103.68656,55.20259],[-103.68656,55.19897],[-103.68656,55.19879],[-103.6929,55.19879],[-103.69923,55.19878],[-103.69954,55.19878],[-103.69954,55.19896],[-103.69954,55.20258],[-103.69954,55.20619],[-103.69954,55.20981],[-103.69954,55.21342],[-103.69954,55.21703],[-103.69923,55.21703],[-103.6929,55.21704],[-103.68656,55.21704],[-103.68023,55.21704],[-103.6739,55.21705],[-103.67358,55.21705]]]}},{"type":"Feature","properties":{"c":"MC00022818","o":"Michael Carl Charles Grundmann: 50.000%;  SHAUN SPELLISCY: 50.000%","e":"2027-11-05"},"geometry":{"type":"Polygon","coordinates":[[[-103.55201,55.22065],[-103.55835,55.22065],[-103.56468,55.22066],[-103.57101,55.22066],[-103.57133,55.22066],[-103.57766,55.22066],[-103.58399,55.22066],[-103.59032,55.22067],[-103.59665,55.22067],[-103.59697,55.22067],[-103.59697,55.22428],[-103.59697,55.2279],[-103.59697,55.22808],[-103.59697,55.23169],[-103.59697,55.2353],[-103.59697,55.23892],[-103.59697,55.24253],[-103.59697,55.24615],[-103.59697,55.24976],[-103.59697,55.25337],[-103.59697,55.25699],[-103.59697,55.25717],[-103.59697,55.26078],[-103.59697,55.26439],[-103.6033,55.2644],[-103.60963,55.2644],[-103.61596,55.2644],[-103.6223,55.2644],[-103.62261,55.2644],[-103.62894,55.2644],[-103.63528,55.2644],[-103.64161,55.2644],[-103.64794,55.26439],[-103.64826,55.26439],[-103.65459,55.26439],[-103.66092,55.26439],[-103.66725,55.26439],[-103.67358,55.26439],[-103.6739,55.26439],[-103.68023,55.26438],[-103.68656,55.26438],[-103.6929,55.26438],[-103.69923,55.26437],[-103.69954,55.26437],[-103.69954,55.26799],[-103.69954,55.2716],[-103.69954,55.27521],[-103.69954,55.27883],[-103.69954,55.28244],[-103.69954,55.28606],[-103.69923,55.28606],[-103.6929,55.28606],[-103.68656,55.28606],[-103.68023,55.28607],[-103.6739,55.28607],[-103.67358,55.28607],[-103.66725,55.28607],[-103.66092,55.28607],[-103.65459,55.28608],[-103.64826,55.28608],[-103.64794,55.28608],[-103.64161,55.28608],[-103.63528,55.28608],[-103.62894,55.28608],[-103.62261,55.28608],[-103.6223,55.28608],[-103.61596,55.28608],[-103.60963,55.28608],[-103.6033,55.28608],[-103.59697,55.28608],[-103.59665,55.28608],[-103.59032,55.28608],[-103.58399,55.28607],[-103.57766,55.28607],[-103.57133,55.28607],[-103.57101,55.28607],[-103.56468,55.28607],[-103.55835,55.28606],[-103.55201,55.28606],[-103.54568,55.28606],[-103.54568,55.28244],[-103.54568,55.27883],[-103.54568,55.27521],[-103.54568,55.2716],[-103.54568,55.26799],[-103.54568,55.26437],[-103.54568,55.26076],[-103.54568,55.25715],[-103.54568,55.25696],[-103.54568,55.25335],[-103.54568,55.24974],[-103.54568,55.24612],[-103.54568,55.24251],[-103.54568,55.2389],[-103.54568,55.23528],[-103.54568,55.23167],[-103.54568,55.22805],[-103.54568,55.22787],[-103.54568,55.22426],[-103.54568,55.22065],[-103.54568,55.21703],[-103.55201,55.21704],[-103.55201,55.22065]]]}},{"type":"Feature","properties":{"c":"MC00022819","o":"Michael Carl Charles Grundmann: 50.000%;  SHAUN SPELLISCY: 50.000%","e":"2027-11-05"},"geometry":{"type":"Polygon","coordinates":[[[-103.72519,55.18796],[-103.72519,55.19157],[-103.72519,55.19518],[-103.72519,55.1988],[-103.72519,55.19898],[-103.72519,55.20259],[-103.72519,55.2062],[-103.72519,55.20982],[-103.72519,55.21343],[-103.72519,55.21705],[-103.72487,55.21705],[-103.71854,55.21704],[-103.71221,55.21704],[-103.70588,55.21704],[-103.69954,55.21703],[-103.69954,55.21342],[-103.69954,55.20981],[-103.69954,55.20619],[-103.69954,55.20258],[-103.69954,55.19896],[-103.69954,55.19878],[-103.69923,55.19878],[-103.6929,55.19879],[-103.68656,55.19879],[-103.68023,55.19879],[-103.6739,55.1988],[-103.6739,55.19518],[-103.6739,55.19157],[-103.67358,55.19157],[-103.66725,55.19157],[-103.66092,55.19157],[-103.65459,55.19158],[-103.65459,55.19519],[-103.64826,55.19519],[-103.64794,55.19519],[-103.64161,55.19519],[-103.63528,55.19519],[-103.62894,55.19519],[-103.62261,55.19519],[-103.6223,55.19519],[-103.61596,55.19519],[-103.60963,55.19519],[-103.60963,55.19158],[-103.6033,55.19158],[-103.59697,55.19158],[-103.59697,55.18796],[-103.59697,55.18435],[-103.6033,55.18435],[-103.60963,55.18435],[-103.61596,55.18435],[-103.6223,55.18435],[-103.62261,55.18435],[-103.62261,55.18797],[-103.62262,55.18797],[-103.62894,55.18797],[-103.63528,55.18797],[-103.63528,55.18435],[-103.64161,55.18435],[-103.64794,55.18435],[-103.64826,55.18435],[-103.65459,55.18435],[-103.66092,55.18435],[-103.66725,55.18434],[-103.67358,55.18434],[-103.6739,55.18434],[-103.68023,55.18434],[-103.68656,55.18434],[-103.6929,55.18433],[-103.69923,55.18433],[-103.69954,55.18433],[-103.70588,55.18433],[-103.71221,55.18434],[-103.71854,55.18434],[-103.72487,55.18434],[-103.72519,55.18434],[-103.72519,55.18796]]]}},{"type":"Feature","properties":{"c":"MC00022820","o":"Michael Carl Charles Grundmann: 50.000%;  SHAUN SPELLISCY: 50.000%","e":"2027-11-05"},"geometry":{"type":"Polygon","coordinates":[[[-103.57101,55.18073],[-103.56468,55.18072],[-103.56468,55.17711],[-103.56468,55.1735],[-103.55835,55.17349],[-103.55835,55.16988],[-103.55835,55.1697],[-103.56468,55.1697],[-103.57101,55.16971],[-103.57133,55.16971],[-103.57766,55.16971],[-103.58399,55.16971],[-103.59032,55.16971],[-103.59665,55.16971],[-103.59697,55.16971],[-103.6033,55.16972],[-103.60963,55.16972],[-103.61596,55.16972],[-103.6223,55.16972],[-103.62261,55.16972],[-103.62894,55.16972],[-103.63528,55.16972],[-103.64161,55.16972],[-103.64794,55.16971],[-103.64826,55.16971],[-103.65459,55.16971],[-103.66092,55.16971],[-103.66725,55.16971],[-103.67358,55.16971],[-103.6739,55.16971],[-103.68023,55.1697],[-103.68656,55.1697],[-103.6929,55.1697],[-103.69923,55.16969],[-103.69954,55.16969],[-103.70588,55.1697],[-103.71221,55.1697],[-103.71854,55.1697],[-103.72487,55.16971],[-103.72519,55.16971],[-103.72519,55.16989],[-103.72519,55.1735],[-103.72519,55.17711],[-103.72519,55.18073],[-103.72519,55.18434],[-103.72487,55.18434],[-103.71854,55.18434],[-103.71221,55.18434],[-103.70588,55.18433],[-103.69954,55.18433],[-103.69923,55.18433],[-103.6929,55.18433],[-103.68656,55.18434],[-103.68023,55.18434],[-103.6739,55.18434],[-103.67358,55.18434],[-103.66725,55.18434],[-103.66092,55.18435],[-103.65459,55.18435],[-103.64826,55.18435],[-103.64794,55.18435],[-103.64161,55.18435],[-103.63528,55.18435],[-103.62894,55.18435],[-103.62261,55.18435],[-103.6223,55.18435],[-103.61596,55.18435],[-103.60963,55.18435],[-103.6033,55.18435],[-103.59697,55.18435],[-103.59697,55.18074],[-103.59665,55.18074],[-103.59032,55.18073],[-103.58399,55.18073],[-103.57766,55.18073],[-103.57133,55.18073],[-103.57101,55.18073]]]}},{"type":"Feature","properties":{"c":"MC00022821","o":"Michael Carl Charles Grundmann: 50.000%;  SHAUN SPELLISCY: 50.000%","e":"2027-11-05"},"geometry":{"type":"Polygon","coordinates":[[[-103.82776,55.16989],[-103.82776,55.1735],[-103.82776,55.17711],[-103.82776,55.18073],[-103.82778,55.18073],[-103.8341,55.18073],[-103.84043,55.18072],[-103.84676,55.18072],[-103.85309,55.18071],[-103.85341,55.18071],[-103.85341,55.18433],[-103.85341,55.18794],[-103.85341,55.19156],[-103.85341,55.19517],[-103.85341,55.19878],[-103.85341,55.19896],[-103.85341,55.20258],[-103.85341,55.20619],[-103.85341,55.20981],[-103.85341,55.21342],[-103.85341,55.21703],[-103.85341,55.22065],[-103.85341,55.22426],[-103.85341,55.22787],[-103.85309,55.22787],[-103.84676,55.22788],[-103.84043,55.22788],[-103.8341,55.22788],[-103.82776,55.22789],[-103.82745,55.22789],[-103.82112,55.22789],[-103.81478,55.22789],[-103.80845,55.22789],[-103.80212,55.2279],[-103.8018,55.2279],[-103.79547,55.2279],[-103.78914,55.2279],[-103.78281,55.2279],[-103.77648,55.2279],[-103.77616,55.2279],[-103.76983,55.2279],[-103.7635,55.2279],[-103.75716,55.2279],[-103.75083,55.2279],[-103.75052,55.2279],[-103.74418,55.22789],[-103.73785,55.22789],[-103.73152,55.22789],[-103.72519,55.22789],[-103.72519,55.22427],[-103.72519,55.22066],[-103.72519,55.21705],[-103.72519,55.21343],[-103.72519,55.20982],[-103.72519,55.2062],[-103.72519,55.20259],[-103.72519,55.19898],[-103.72519,55.1988],[-103.72519,55.19518],[-103.72519,55.19157],[-103.72519,55.18796],[-103.72519,55.18434],[-103.72519,55.18073],[-103.72519,55.17711],[-103.72519,55.1735],[-103.72519,55.16989],[-103.72519,55.16971],[-103.73152,55.16971],[-103.73785,55.16971],[-103.74418,55.16971],[-103.75052,55.16971],[-103.75083,55.16971],[-103.75716,55.16972],[-103.7635,55.16972],[-103.76983,55.16972],[-103.77616,55.16972],[-103.77648,55.16972],[-103.78281,55.16972],[-103.78914,55.16972],[-103.79547,55.16972],[-103.8018,55.16971],[-103.80212,55.16971],[-103.80845,55.16971],[-103.81478,55.16971],[-103.82112,55.16971],[-103.82745,55.16971],[-103.82776,55.16971],[-103.82776,55.16989]]]}},{"type":"Feature","properties":{"c":"MC00022822","o":"Michael Carl Charles Grundmann: 50.000%;  SHAUN SPELLISCY: 50.000%","e":"2027-11-05"},"geometry":{"type":"Polygon","coordinates":[[[-103.85341,55.22805],[-103.85341,55.23167],[-103.85341,55.23528],[-103.85341,55.2389],[-103.85341,55.24251],[-103.85341,55.24612],[-103.85341,55.24974],[-103.85341,55.25335],[-103.85341,55.25696],[-103.85341,55.25715],[-103.85341,55.26076],[-103.85341,55.26437],[-103.85341,55.26799],[-103.85341,55.2716],[-103.85341,55.27521],[-103.85341,55.27883],[-103.85341,55.28244],[-103.85341,55.28606],[-103.85309,55.28606],[-103.84676,55.28606],[-103.84043,55.28606],[-103.8341,55.28607],[-103.82776,55.28607],[-103.82745,55.28607],[-103.82111,55.28607],[-103.81478,55.28607],[-103.80845,55.28608],[-103.80212,55.28608],[-103.8018,55.28608],[-103.79547,55.28608],[-103.78914,55.28608],[-103.78281,55.28608],[-103.77648,55.28608],[-103.77616,55.28608],[-103.76983,55.28608],[-103.7635,55.28608],[-103.75716,55.28608],[-103.75083,55.28608],[-103.75052,55.28608],[-103.74418,55.28608],[-103.73785,55.28607],[-103.73152,55.28607],[-103.72519,55.28607],[-103.72487,55.28607],[-103.71854,55.28607],[-103.71221,55.28606],[-103.70588,55.28606],[-103.69954,55.28606],[-103.69954,55.28244],[-103.69954,55.27883],[-103.69954,55.27521],[-103.69954,55.2716],[-103.69954,55.26799],[-103.69954,55.26437],[-103.70588,55.26438],[-103.71221,55.26438],[-103.71854,55.26438],[-103.72487,55.26439],[-103.72519,55.26439],[-103.72519,55.26077],[-103.72519,55.25716],[-103.72519,55.25698],[-103.72519,55.25336],[-103.72519,55.24975],[-103.72519,55.24614],[-103.72519,55.24252],[-103.72519,55.23891],[-103.72519,55.2353],[-103.72519,55.23168],[-103.72519,55.22807],[-103.72519,55.22789],[-103.73152,55.22789],[-103.73785,55.22789],[-103.74418,55.22789],[-103.75052,55.2279],[-103.75083,55.2279],[-103.75716,55.2279],[-103.7635,55.2279],[-103.76983,55.2279],[-103.77616,55.2279],[-103.77648,55.2279],[-103.78281,55.2279],[-103.78914,55.2279],[-103.79547,55.2279],[-103.8018,55.2279],[-103.80212,55.2279],[-103.80845,55.22789],[-103.81478,55.22789],[-103.82112,55.22789],[-103.82745,55.22789],[-103.82776,55.22789],[-103.8341,55.22788],[-103.84043,55.22788],[-103.84676,55.22788],[-103.85309,55.22787],[-103.85341,55.22787],[-103.85341,55.22805]]]}},{"type":"Feature","properties":{"c":"MC00022957","o":"GEM OIL INC.: 100.000%","e":"2027-12-28"},"geometry":{"type":"Polygon","coordinates":[[[-103.75083,55.43171],[-103.75083,55.43532],[-103.75083,55.43894],[-103.75083,55.44255],[-103.75083,55.44616],[-103.75083,55.44978],[-103.75083,55.45339],[-103.75083,55.45692],[-103.75083,55.46045],[-103.75067,55.46045],[-103.75051,55.46045],[-103.74689,55.46045],[-103.74418,55.46045],[-103.7405,55.46045],[-103.74034,55.46045],[-103.74018,55.46045],[-103.73785,55.46045],[-103.73379,55.46045],[-103.73152,55.46045],[-103.72741,55.46045],[-103.72519,55.46045],[-103.72503,55.46044],[-103.72487,55.46044],[-103.72102,55.46044],[-103.71854,55.46044],[-103.71463,55.46044],[-103.71447,55.46044],[-103.71431,55.46044],[-103.71221,55.46044],[-103.70792,55.46044],[-103.70588,55.46044],[-103.70154,55.46043],[-103.69954,55.46043],[-103.69954,55.4569],[-103.69954,55.45337],[-103.69954,55.44975],[-103.69954,55.44614],[-103.69954,55.44253],[-103.69954,55.43891],[-103.69954,55.4353],[-103.69954,55.43169],[-103.69954,55.43151],[-103.70588,55.43151],[-103.71221,55.43151],[-103.71854,55.43152],[-103.72487,55.43152],[-103.72519,55.43152],[-103.73152,55.43152],[-103.73785,55.43152],[-103.74418,55.43153],[-103.75052,55.43153],[-103.75083,55.43153],[-103.75083,55.43171]]]}},{"type":"Feature","properties":{"c":"MC00022958","o":"GEM OIL INC.: 100.000%","e":"2027-12-28"},"geometry":{"type":"Polygon","coordinates":[[[-103.80212,55.43171],[-103.80212,55.43532],[-103.80212,55.43894],[-103.80212,55.44255],[-103.80212,55.44616],[-103.80212,55.44978],[-103.80212,55.45339],[-103.80212,55.45692],[-103.80212,55.46045],[-103.80196,55.46045],[-103.8018,55.46045],[-103.79863,55.46045],[-103.79547,55.46045],[-103.79224,55.46045],[-103.79208,55.46045],[-103.79192,55.46045],[-103.78914,55.46046],[-103.78554,55.46046],[-103.78281,55.46046],[-103.77915,55.46046],[-103.77648,55.46046],[-103.77632,55.46046],[-103.77616,55.46046],[-103.77276,55.46046],[-103.76983,55.46046],[-103.76637,55.46046],[-103.76621,55.46046],[-103.76605,55.46046],[-103.7635,55.46046],[-103.75967,55.46045],[-103.75716,55.46045],[-103.75328,55.46045],[-103.75083,55.46045],[-103.75083,55.45692],[-103.75083,55.45339],[-103.75083,55.44978],[-103.75083,55.44616],[-103.75083,55.44255],[-103.75083,55.43894],[-103.75083,55.43532],[-103.75083,55.43171],[-103.75083,55.43153],[-103.75716,55.43153],[-103.7635,55.43153],[-103.76983,55.43153],[-103.77616,55.43153],[-103.77648,55.43153],[-103.78281,55.43153],[-103.78914,55.43153],[-103.79547,55.43153],[-103.8018,55.43153],[-103.80212,55.43153],[-103.80212,55.43171]]]}},{"type":"Feature","properties":{"c":"MC00022959","o":"GEM OIL INC.: 100.000%","e":"2027-12-28"},"geometry":{"type":"Polygon","coordinates":[[[-103.85341,55.43169],[-103.85341,55.4353],[-103.85341,55.43891],[-103.85341,55.44253],[-103.85341,55.44614],[-103.85341,55.44975],[-103.85341,55.45337],[-103.85341,55.4569],[-103.85341,55.46043],[-103.85309,55.46043],[-103.85038,55.46043],[-103.84676,55.46044],[-103.84399,55.46044],[-103.84383,55.46044],[-103.84367,55.46044],[-103.84043,55.46044],[-103.83728,55.46044],[-103.8341,55.46044],[-103.83089,55.46044],[-103.82776,55.46045],[-103.8276,55.46045],[-103.82745,55.46045],[-103.8245,55.46045],[-103.82111,55.46045],[-103.81812,55.46045],[-103.81796,55.46045],[-103.8178,55.46045],[-103.81478,55.46045],[-103.81141,55.46045],[-103.80845,55.46045],[-103.80502,55.46045],[-103.80212,55.46045],[-103.80212,55.45692],[-103.80212,55.45339],[-103.80212,55.44978],[-103.80212,55.44616],[-103.80212,55.44255],[-103.80212,55.43894],[-103.80212,55.43532],[-103.80212,55.43171],[-103.80212,55.43153],[-103.80845,55.43153],[-103.81478,55.43152],[-103.82112,55.43152],[-103.82745,55.43152],[-103.82776,55.43152],[-103.8341,55.43152],[-103.84043,55.43151],[-103.84676,55.43151],[-103.85309,55.43151],[-103.85341,55.43151],[-103.85341,55.43169]]]}},{"type":"Feature","properties":{"c":"MC00022960","o":"GEM OIL INC.: 100.000%","e":"2027-12-28"},"geometry":{"type":"Polygon","coordinates":[[[-103.86986,55.46053],[-103.86986,55.46062],[-103.86986,55.46415],[-103.86986,55.46768],[-103.86986,55.46948],[-103.86986,55.47129],[-103.86986,55.4731],[-103.86986,55.4749],[-103.86986,55.47852],[-103.86986,55.48213],[-103.86986,55.48574],[-103.86986,55.48936],[-103.86986,55.48954],[-103.86986,55.49315],[-103.86986,55.49677],[-103.86986,55.50038],[-103.86986,55.50399],[-103.86954,55.50399],[-103.86315,55.504],[-103.85676,55.504],[-103.85038,55.504],[-103.84399,55.50401],[-103.84367,55.50401],[-103.83728,55.50401],[-103.83089,55.50401],[-103.8245,55.50401],[-103.81812,55.50401],[-103.81812,55.5004],[-103.81812,55.49679],[-103.81812,55.49317],[-103.81812,55.48956],[-103.81812,55.48938],[-103.8245,55.48938],[-103.83089,55.48938],[-103.83728,55.48937],[-103.84367,55.48937],[-103.84399,55.48937],[-103.84399,55.48576],[-103.84399,55.48214],[-103.84399,55.47853],[-103.84399,55.47492],[-103.84399,55.4713],[-103.84399,55.46769],[-103.84399,55.46415],[-103.84399,55.46062],[-103.84399,55.46053],[-103.84399,55.46044],[-103.84676,55.46044],[-103.85038,55.46043],[-103.85309,55.46043],[-103.85341,55.46043],[-103.85676,55.46043],[-103.85974,55.46044],[-103.86315,55.46044],[-103.86607,55.46044],[-103.86954,55.46044],[-103.8697,55.46044],[-103.86986,55.46044],[-103.86986,55.46053]]]}},{"type":"Feature","properties":{"c":"MC00022961","o":"GEM OIL INC.: 100.000%","e":"2027-12-28"},"geometry":{"type":"Polygon","coordinates":[[[-103.84399,55.46053],[-103.84399,55.46062],[-103.84399,55.46415],[-103.84399,55.46769],[-103.84399,55.4713],[-103.84399,55.47492],[-103.84399,55.47853],[-103.84399,55.48214],[-103.84399,55.48576],[-103.84399,55.48937],[-103.84367,55.48937],[-103.83728,55.48937],[-103.83089,55.48938],[-103.8245,55.48938],[-103.81812,55.48938],[-103.8178,55.48938],[-103.81141,55.48938],[-103.80502,55.48938],[-103.79863,55.48938],[-103.79224,55.48938],[-103.79224,55.48577],[-103.79224,55.48215],[-103.79224,55.47854],[-103.79224,55.47493],[-103.79224,55.47131],[-103.79224,55.4677],[-103.79224,55.46417],[-103.79224,55.46064],[-103.79224,55.46055],[-103.79224,55.46045],[-103.79547,55.46045],[-103.79863,55.46045],[-103.8018,55.46045],[-103.80196,55.46045],[-103.80212,55.46045],[-103.80502,55.46045],[-103.80845,55.46045],[-103.81141,55.46045],[-103.81478,55.46045],[-103.8178,55.46045],[-103.81796,55.46045],[-103.81812,55.46045],[-103.82111,55.46045],[-103.8245,55.46045],[-103.82745,55.46045],[-103.8276,55.46045],[-103.82776,55.46045],[-103.83089,55.46044],[-103.8341,55.46044],[-103.83728,55.46044],[-103.84043,55.46044],[-103.84367,55.46044],[-103.84383,55.46044],[-103.84399,55.46044],[-103.84399,55.46053]]]}},{"type":"Feature","properties":{"c":"MC00022962","o":"GEM OIL INC.: 100.000%","e":"2027-12-28"},"geometry":{"type":"Polygon","coordinates":[[[-103.79224,55.46055],[-103.79224,55.46064],[-103.79224,55.46417],[-103.79224,55.4677],[-103.79224,55.47131],[-103.79224,55.47493],[-103.79224,55.47854],[-103.79224,55.48215],[-103.79224,55.48577],[-103.79224,55.48938],[-103.79863,55.48938],[-103.80502,55.48938],[-103.81141,55.48938],[-103.8178,55.48938],[-103.81812,55.48938],[-103.81812,55.48956],[-103.81812,55.49317],[-103.81812,55.49679],[-103.81812,55.5004],[-103.81812,55.50401],[-103.8178,55.50401],[-103.81141,55.50402],[-103.80502,55.50402],[-103.79863,55.50402],[-103.79224,55.50402],[-103.79193,55.50402],[-103.78554,55.50402],[-103.77915,55.50402],[-103.77276,55.50402],[-103.76637,55.50401],[-103.76637,55.5004],[-103.76637,55.49679],[-103.76637,55.49317],[-103.76637,55.48956],[-103.76637,55.48938],[-103.76637,55.48577],[-103.76637,55.48215],[-103.76637,55.47854],[-103.76637,55.47492],[-103.76637,55.47131],[-103.76637,55.4677],[-103.76637,55.46417],[-103.76637,55.46064],[-103.76637,55.46055],[-103.76637,55.46046],[-103.76983,55.46046],[-103.77276,55.46046],[-103.77616,55.46046],[-103.77632,55.46046],[-103.77648,55.46046],[-103.77915,55.46046],[-103.78281,55.46046],[-103.78554,55.46046],[-103.78914,55.46046],[-103.79192,55.46045],[-103.79208,55.46045],[-103.79224,55.46045],[-103.79224,55.46055]]]}},{"type":"Feature","properties":{"c":"MC00022963","o":"GEM OIL INC.: 100.000%","e":"2027-12-28"},"geometry":{"type":"Polygon","coordinates":[[[-103.76637,55.46055],[-103.76637,55.46064],[-103.76637,55.46417],[-103.76637,55.4677],[-103.76637,55.47131],[-103.76637,55.47492],[-103.76637,55.47854],[-103.76637,55.48215],[-103.76637,55.48577],[-103.76637,55.48938],[-103.76605,55.48938],[-103.75967,55.48938],[-103.75328,55.48938],[-103.74689,55.48937],[-103.7405,55.48937],[-103.74018,55.48937],[-103.73379,55.48937],[-103.72741,55.48936],[-103.72102,55.48936],[-103.71463,55.48936],[-103.71463,55.48574],[-103.71463,55.48213],[-103.71463,55.47852],[-103.71463,55.4749],[-103.71463,55.4731],[-103.71463,55.47129],[-103.71463,55.46948],[-103.71463,55.46768],[-103.71463,55.46415],[-103.71463,55.46062],[-103.71463,55.46053],[-103.71463,55.46044],[-103.71854,55.46044],[-103.72102,55.46044],[-103.72487,55.46044],[-103.72503,55.46044],[-103.72519,55.46045],[-103.72741,55.46045],[-103.73152,55.46045],[-103.73379,55.46045],[-103.73785,55.46045],[-103.74018,55.46045],[-103.74034,55.46045],[-103.7405,55.46045],[-103.74418,55.46045],[-103.74689,55.46045],[-103.75051,55.46045],[-103.75067,55.46045],[-103.75083,55.46045],[-103.75328,55.46045],[-103.75716,55.46045],[-103.75967,55.46045],[-103.7635,55.46046],[-103.76605,55.46046],[-103.76621,55.46046],[-103.76637,55.46046],[-103.76637,55.46055]]]}},{"type":"Feature","properties":{"c":"MC00022964","o":"GEM OIL INC.: 100.000%","e":"2027-12-28"},"geometry":{"type":"Polygon","coordinates":[[[-103.76637,55.48956],[-103.76637,55.49317],[-103.76637,55.49679],[-103.76637,55.5004],[-103.76637,55.50401],[-103.77276,55.50402],[-103.77915,55.50402],[-103.78554,55.50402],[-103.79193,55.50402],[-103.79224,55.50402],[-103.79863,55.50402],[-103.80502,55.50402],[-103.81141,55.50402],[-103.8178,55.50401],[-103.81812,55.50401],[-103.8245,55.50401],[-103.83089,55.50401],[-103.83728,55.50401],[-103.84367,55.50401],[-103.84399,55.50401],[-103.85038,55.504],[-103.85676,55.504],[-103.86315,55.504],[-103.86954,55.50399],[-103.86986,55.50399],[-103.86986,55.50761],[-103.86986,55.51122],[-103.86986,55.51483],[-103.86315,55.51484],[-103.85676,55.51484],[-103.85676,55.51123],[-103.85038,55.51123],[-103.84399,55.51123],[-103.84367,55.51123],[-103.83728,55.51124],[-103.83089,55.51124],[-103.83089,55.50762],[-103.8245,55.50763],[-103.81812,55.50763],[-103.8178,55.50763],[-103.81141,55.50763],[-103.80502,55.50763],[-103.80502,55.51124],[-103.79863,55.51124],[-103.79224,55.51124],[-103.79193,55.51124],[-103.78554,55.51124],[-103.78554,55.50763],[-103.77915,55.50763],[-103.77276,55.50763],[-103.76637,55.50763],[-103.76605,55.50763],[-103.75967,55.50763],[-103.75328,55.50762],[-103.74689,55.50762],[-103.74689,55.50401],[-103.74689,55.5004],[-103.74051,55.50039],[-103.7405,55.50039],[-103.74018,55.50039],[-103.73379,55.50039],[-103.73379,55.49678],[-103.72741,55.49677],[-103.72102,55.49677],[-103.71463,55.49677],[-103.71463,55.49315],[-103.71463,55.48954],[-103.71463,55.48936],[-103.72102,55.48936],[-103.72741,55.48936],[-103.73379,55.48937],[-103.74018,55.48937],[-103.7405,55.48937],[-103.74689,55.48937],[-103.75328,55.48938],[-103.75967,55.48938],[-103.76605,55.48938],[-103.76637,55.48938],[-103.76637,55.48956]]]}},{"type":"Feature","properties":{"c":"MC00022965","o":"GEM OIL INC.: 100.000%","e":"2027-12-28"},"geometry":{"type":"Polygon","coordinates":[[[-103.87905,55.42068],[-103.87905,55.42429],[-103.87905,55.42791],[-103.87905,55.43152],[-103.87905,55.4317],[-103.87905,55.43531],[-103.87905,55.43893],[-103.87905,55.44254],[-103.87905,55.44615],[-103.87905,55.44977],[-103.87905,55.45338],[-103.87905,55.45691],[-103.87905,55.46045],[-103.87889,55.46044],[-103.87873,55.46044],[-103.87625,55.46044],[-103.8724,55.46044],[-103.86986,55.46044],[-103.8697,55.46044],[-103.86954,55.46044],[-103.86607,55.46044],[-103.86315,55.46044],[-103.85974,55.46044],[-103.85676,55.46043],[-103.85341,55.46043],[-103.85341,55.4569],[-103.85341,55.45337],[-103.85341,55.44975],[-103.85341,55.44614],[-103.85341,55.44253],[-103.85341,55.43891],[-103.85341,55.4353],[-103.85341,55.43169],[-103.85341,55.43151],[-103.85309,55.43151],[-103.84676,55.43151],[-103.84043,55.43151],[-103.8341,55.43152],[-103.82776,55.43152],[-103.82776,55.42791],[-103.82776,55.42429],[-103.82776,55.42068],[-103.82776,55.41706],[-103.8341,55.41706],[-103.84043,55.41706],[-103.84676,55.41706],[-103.85309,55.41705],[-103.85341,55.41705],[-103.85974,55.41705],[-103.86607,55.41706],[-103.8724,55.41706],[-103.87873,55.41706],[-103.87905,55.41706],[-103.87905,55.42068]]]}},{"type":"Feature","properties":{"c":"MC00022968","o":"GEM OIL INC.: 100.000%","e":"2027-12-28"},"geometry":{"type":"Polygon","coordinates":[[[-104.00727,55.33339],[-104.00727,55.33701],[-104.00727,55.34062],[-104.00727,55.34424],[-104.00727,55.34442],[-104.00727,55.34803],[-104.00727,55.35164],[-104.00727,55.35526],[-104.00727,55.35887],[-104.00695,55.35887],[-104.00062,55.35888],[-103.99429,55.35888],[-103.98796,55.35888],[-103.98163,55.35888],[-103.98131,55.35888],[-103.97498,55.35889],[-103.96865,55.35889],[-103.96231,55.35889],[-103.95598,55.35889],[-103.95598,55.35528],[-103.95598,55.35167],[-103.95598,55.34805],[-103.95598,55.34444],[-103.95598,55.34426],[-103.95598,55.34064],[-103.95598,55.33703],[-103.95598,55.33342],[-103.95598,55.3298],[-103.96231,55.3298],[-103.96865,55.3298],[-103.97498,55.3298],[-103.98131,55.32979],[-103.98163,55.32979],[-103.98796,55.32979],[-103.99429,55.32979],[-104.00062,55.32978],[-104.00695,55.32978],[-104.00727,55.32978],[-104.00727,55.33339]]]}},{"type":"Feature","properties":{"c":"MC00022969","o":"GEM OIL INC.: 100.000%","e":"2027-12-28"},"geometry":{"type":"Polygon","coordinates":[[[-104.00727,55.28624],[-104.00727,55.28985],[-104.00727,55.29346],[-104.00727,55.29708],[-104.00727,55.30069],[-104.00727,55.3043],[-104.00727,55.30792],[-104.00727,55.31153],[-104.00727,55.31515],[-104.00695,55.31515],[-104.00062,55.31515],[-103.99429,55.31515],[-103.98796,55.31516],[-103.98163,55.31516],[-103.98131,55.31516],[-103.97498,55.31516],[-103.96865,55.31516],[-103.96231,55.31517],[-103.95598,55.31517],[-103.95598,55.31155],[-103.95598,55.30794],[-103.95598,55.30433],[-103.95598,55.30071],[-103.95598,55.2971],[-103.95598,55.29348],[-103.95598,55.28987],[-103.95598,55.28626],[-103.95598,55.28608],[-103.96231,55.28608],[-103.96865,55.28607],[-103.97498,55.28607],[-103.98131,55.28607],[-103.98163,55.28607],[-103.98796,55.28607],[-103.99429,55.28606],[-104.00062,55.28606],[-104.00695,55.28606],[-104.00727,55.28606],[-104.00727,55.28624]]]}},{"type":"Feature","properties":{"c":"MC00022971","o":"GEM OIL INC.: 100.000%","e":"2027-12-28"},"geometry":{"type":"Polygon","coordinates":[[[-104.05856,55.31535],[-104.05856,55.31896],[-104.05856,55.32258],[-104.05856,55.32619],[-104.05856,55.3298],[-104.05824,55.3298],[-104.05191,55.3298],[-104.04558,55.3298],[-104.03925,55.3298],[-104.03291,55.32979],[-104.0326,55.32979],[-104.02627,55.32979],[-104.01993,55.32979],[-104.0136,55.32978],[-104.00727,55.32978],[-104.00695,55.32978],[-104.00062,55.32978],[-103.99429,55.32979],[-103.98796,55.32979],[-103.98163,55.32979],[-103.98131,55.32979],[-103.97498,55.3298],[-103.96865,55.3298],[-103.96231,55.3298],[-103.95598,55.3298],[-103.95598,55.32619],[-103.95598,55.32258],[-103.95598,55.31896],[-103.95598,55.31535],[-103.95598,55.31517],[-103.96231,55.31517],[-103.96865,55.31516],[-103.97498,55.31516],[-103.98131,55.31516],[-103.98163,55.31516],[-103.98796,55.31516],[-103.99429,55.31515],[-104.00062,55.31515],[-104.00695,55.31515],[-104.00727,55.31515],[-104.0136,55.31515],[-104.01993,55.31515],[-104.02627,55.31516],[-104.0326,55.31516],[-104.03291,55.31516],[-104.03925,55.31516],[-104.04558,55.31516],[-104.05191,55.31517],[-104.05824,55.31517],[-104.05856,55.31517],[-104.05856,55.31535]]]}},{"type":"Feature","properties":{"c":"MC00023129","o":"James Hutton: 100.000%","e":"2028-02-29"},"geometry":{"type":"Polygon","coordinates":[[[-103.70588,55.39519],[-103.70588,55.39881],[-103.70588,55.40242],[-103.70588,55.4026],[-103.70588,55.40621],[-103.70588,55.40983],[-103.70588,55.41344],[-103.70588,55.41705],[-103.70588,55.42067],[-103.70588,55.42428],[-103.70588,55.4279],[-103.70588,55.43151],[-103.69954,55.43151],[-103.69954,55.43169],[-103.69954,55.4353],[-103.69954,55.43891],[-103.69954,55.44253],[-103.69954,55.44614],[-103.69954,55.44975],[-103.69954,55.45337],[-103.69954,55.4569],[-103.69954,55.46043],[-103.69923,55.46043],[-103.69515,55.46043],[-103.69305,55.46044],[-103.6929,55.46044],[-103.6929,55.4569],[-103.6929,55.45337],[-103.68656,55.45338],[-103.68023,55.45338],[-103.6739,55.45338],[-103.6739,55.44977],[-103.67358,55.44977],[-103.66725,55.44977],[-103.66092,55.44977],[-103.65459,55.44977],[-103.64827,55.44978],[-103.64826,55.44978],[-103.64826,55.44616],[-103.64794,55.44616],[-103.64161,55.44616],[-103.63528,55.44616],[-103.62894,55.44616],[-103.62261,55.44617],[-103.6223,55.44617],[-103.61596,55.44616],[-103.60963,55.44616],[-103.60963,55.44255],[-103.60963,55.43894],[-103.60963,55.43532],[-103.60963,55.43171],[-103.60963,55.43153],[-103.60963,55.42792],[-103.60963,55.4243],[-103.60963,55.42069],[-103.60963,55.41707],[-103.60963,55.41346],[-103.60963,55.40985],[-103.60963,55.40623],[-103.60963,55.40262],[-103.60963,55.40244],[-103.60963,55.39883],[-103.60963,55.39521],[-103.60963,55.3916],[-103.61596,55.3916],[-103.6223,55.3916],[-103.62261,55.3916],[-103.62894,55.3916],[-103.63528,55.3916],[-103.64161,55.3916],[-103.64794,55.3916],[-103.64826,55.3916],[-103.65459,55.39159],[-103.66092,55.39159],[-103.66725,55.39159],[-103.67358,55.39159],[-103.6739,55.39159],[-103.68023,55.39159],[-103.68656,55.39158],[-103.6929,55.39158],[-103.69923,55.39158],[-103.69954,55.39157],[-103.70588,55.39158],[-103.70588,55.39519]]]}},{"type":"Feature","properties":{"c":"MC00023159","o":"EAGLE PLAINS RESOURCES LTD.: 100.000%","e":"2028-03-10"},"geometry":{"type":"Polygon","coordinates":[[[-103.98995,55.0133],[-103.98995,55.01691],[-103.98995,55.02052],[-103.98995,55.02414],[-103.98995,55.02432],[-103.98995,55.02793],[-103.98995,55.03155],[-103.98964,55.03155],[-103.98336,55.03155],[-103.97708,55.03155],[-103.97081,55.03156],[-103.96453,55.03156],[-103.96422,55.03156],[-103.95794,55.03156],[-103.95166,55.03156],[-103.94539,55.03157],[-103.94539,55.02795],[-103.94539,55.02434],[-103.94539,55.02416],[-103.94539,55.02054],[-103.94539,55.01693],[-103.94539,55.01332],[-103.94539,55.0097],[-103.95166,55.0097],[-103.95794,55.0097],[-103.96422,55.0097],[-103.96453,55.0097],[-103.97081,55.00969],[-103.97708,55.00969],[-103.98336,55.00969],[-103.98964,55.00968],[-103.98995,55.00968],[-103.98995,55.0133]]]}},{"type":"Feature","properties":{"c":"MC00023178","o":"GEM OIL INC.: 100.000%","e":"2028-03-10"},"geometry":{"type":"Polygon","coordinates":[[[-103.60204,54.99507],[-103.60204,54.99525],[-103.60204,54.99886],[-103.60204,55.00248],[-103.59577,55.00248],[-103.58949,55.00248],[-103.58321,55.00248],[-103.58321,54.99886],[-103.58321,54.99525],[-103.58321,54.99507],[-103.58321,54.99145],[-103.58322,54.99145],[-103.58949,54.99145],[-103.59577,54.99145],[-103.60204,54.99146],[-103.60204,54.99507]]]}},{"type":"Feature","properties":{"c":"MC00023188","o":"Brian Hibbard: 100.000%","e":"2028-03-10"},"geometry":{"type":"Polygon","coordinates":[[[-103.57662,55.1042],[-103.57662,55.10784],[-103.57662,55.11148],[-103.57766,55.11148],[-103.57766,55.11166],[-103.57766,55.1153],[-103.57133,55.11529],[-103.57133,55.11893],[-103.57133,55.12255],[-103.57133,55.12616],[-103.57101,55.12616],[-103.56468,55.12616],[-103.55835,55.12615],[-103.55201,55.12615],[-103.55201,55.12254],[-103.54568,55.12253],[-103.54537,55.12253],[-103.53903,55.12254],[-103.5327,55.12254],[-103.52637,55.12254],[-103.52005,55.12255],[-103.52004,55.12255],[-103.52004,55.11893],[-103.52637,55.11893],[-103.52637,55.11529],[-103.5327,55.11529],[-103.5327,55.11165],[-103.5327,55.11146],[-103.5346,55.11146],[-103.53865,55.11146],[-103.53865,55.10783],[-103.53865,55.10419],[-103.54492,55.10419],[-103.54492,55.10058],[-103.5512,55.10058],[-103.55748,55.10058],[-103.55779,55.10058],[-103.56407,55.10059],[-103.57034,55.10059],[-103.57662,55.10059],[-103.57662,55.1042]]]}},{"type":"Feature","properties":{"c":"MC00023189","o":"Brian Hibbard: 100.000%","e":"2028-03-10"},"geometry":{"type":"Polygon","coordinates":[[[-103.55201,55.12615],[-103.55835,55.12615],[-103.56468,55.12616],[-103.57101,55.12616],[-103.57133,55.12616],[-103.57133,55.12977],[-103.57133,55.13339],[-103.57133,55.137],[-103.57101,55.137],[-103.56468,55.137],[-103.55835,55.13699],[-103.55201,55.13699],[-103.54568,55.13699],[-103.54537,55.13699],[-103.53903,55.13699],[-103.5327,55.137],[-103.52637,55.137],[-103.52637,55.13338],[-103.52004,55.13339],[-103.51972,55.13339],[-103.51339,55.13339],[-103.50706,55.13339],[-103.50706,55.12978],[-103.51339,55.12978],[-103.51339,55.12616],[-103.51339,55.12255],[-103.51972,55.12255],[-103.52004,55.12255],[-103.52005,55.12255],[-103.52637,55.12254],[-103.5327,55.12254],[-103.53903,55.12254],[-103.54537,55.12253],[-103.54568,55.12253],[-103.55201,55.12254],[-103.55201,55.12615]]]}},{"type":"Feature","properties":{"c":"MC00023197","o":"GEM OIL INC.: 100.000%","e":"2028-03-16"},"geometry":{"type":"Polygon","coordinates":[[[-103.6739,55.19518],[-103.6739,55.1988],[-103.68023,55.19879],[-103.68656,55.19879],[-103.68656,55.19897],[-103.68656,55.20259],[-103.68656,55.2062],[-103.68656,55.20981],[-103.68023,55.20982],[-103.67392,55.20982],[-103.6739,55.20982],[-103.6739,55.20621],[-103.6739,55.20259],[-103.67358,55.20259],[-103.66725,55.20259],[-103.66092,55.2026],[-103.65459,55.2026],[-103.65459,55.19898],[-103.65459,55.1988],[-103.65459,55.19519],[-103.65459,55.19158],[-103.66092,55.19157],[-103.66725,55.19157],[-103.67358,55.19157],[-103.6739,55.19157],[-103.6739,55.19518]]]}},{"type":"Feature","properties":{"c":"MC00023198","o":"GEM OIL INC.: 100.000%","e":"2028-03-16"},"geometry":{"type":"Polygon","coordinates":[[[-103.63528,55.18797],[-103.62894,55.18797],[-103.62262,55.18797],[-103.62261,55.18797],[-103.62261,55.18435],[-103.62894,55.18435],[-103.63528,55.18435],[-103.63528,55.18797]]]}},{"type":"Feature","properties":{"c":"MC00023199","o":"GEM OIL INC.: 100.000%","e":"2028-03-16"},"geometry":{"type":"Polygon","coordinates":[[[-103.66725,55.22807],[-103.66725,55.23168],[-103.66725,55.2353],[-103.66725,55.23891],[-103.66092,55.23891],[-103.65459,55.23892],[-103.65459,55.2353],[-103.65459,55.23169],[-103.65459,55.22807],[-103.65459,55.22789],[-103.66092,55.22789],[-103.66725,55.22789],[-103.66725,55.22807]]]}},{"type":"Feature","properties":{"c":"MC00023200","o":"GEM OIL INC.: 100.000%","e":"2028-03-16"},"geometry":{"type":"Polygon","coordinates":[[[-103.57766,55.18073],[-103.57766,55.18434],[-103.57766,55.18796],[-103.57766,55.19157],[-103.57766,55.19519],[-103.57766,55.1988],[-103.57766,55.19898],[-103.57766,55.20259],[-103.57766,55.20621],[-103.57766,55.20982],[-103.57766,55.21343],[-103.57766,55.21705],[-103.57766,55.22066],[-103.57133,55.22066],[-103.57101,55.22066],[-103.56468,55.22066],[-103.55835,55.22065],[-103.55201,55.22065],[-103.55201,55.21704],[-103.54568,55.21703],[-103.54568,55.21342],[-103.54568,55.20981],[-103.54568,55.20619],[-103.54568,55.20258],[-103.54568,55.19896],[-103.54568,55.19878],[-103.54568,55.19517],[-103.55201,55.19517],[-103.55835,55.19518],[-103.56468,55.19518],[-103.56468,55.19157],[-103.57101,55.19157],[-103.57133,55.19157],[-103.57133,55.18796],[-103.57133,55.18434],[-103.57101,55.18434],[-103.56468,55.18434],[-103.55835,55.18434],[-103.55201,55.18433],[-103.55201,55.18072],[-103.54568,55.18071],[-103.54568,55.1771],[-103.54568,55.17349],[-103.54568,55.16987],[-103.54568,55.16969],[-103.55201,55.1697],[-103.55835,55.1697],[-103.55835,55.16988],[-103.55835,55.17349],[-103.56468,55.1735],[-103.56468,55.17711],[-103.56468,55.18072],[-103.57101,55.18073],[-103.57133,55.18073],[-103.57766,55.18073]]]}},{"type":"Feature","properties":{"c":"MC00023201","o":"GEM OIL INC.: 100.000%","e":"2028-03-16"},"geometry":{"type":"Polygon","coordinates":[[[-103.59697,55.18435],[-103.59697,55.18796],[-103.59697,55.19158],[-103.6033,55.19158],[-103.60963,55.19158],[-103.60963,55.19519],[-103.61596,55.19519],[-103.6223,55.19519],[-103.62261,55.19519],[-103.62894,55.19519],[-103.63528,55.19519],[-103.63528,55.19881],[-103.62894,55.19881],[-103.62261,55.19881],[-103.6223,55.19881],[-103.61596,55.19881],[-103.60963,55.19881],[-103.6033,55.19881],[-103.59697,55.1988],[-103.59665,55.1988],[-103.59032,55.1988],[-103.58399,55.1988],[-103.57766,55.1988],[-103.57766,55.19519],[-103.57766,55.19157],[-103.57766,55.18796],[-103.57766,55.18434],[-103.57766,55.18073],[-103.58399,55.18073],[-103.59032,55.18073],[-103.59665,55.18074],[-103.59697,55.18074],[-103.59697,55.18435]]]}},{"type":"Feature","properties":{"c":"MC00023203","o":"GEM OIL INC.: 100.000%","e":"2028-03-16"},"geometry":{"type":"Polygon","coordinates":[[[-103.63528,55.19899],[-103.63528,55.2026],[-103.63528,55.20622],[-103.63528,55.20983],[-103.63528,55.21344],[-103.63528,55.21706],[-103.63528,55.22067],[-103.62894,55.22067],[-103.62261,55.22067],[-103.6223,55.22067],[-103.61596,55.22067],[-103.60963,55.22067],[-103.6033,55.22067],[-103.59697,55.22067],[-103.59665,55.22067],[-103.59032,55.22067],[-103.58399,55.22066],[-103.57766,55.22066],[-103.57766,55.21705],[-103.57766,55.21343],[-103.58399,55.21344],[-103.59032,55.21344],[-103.59665,55.21344],[-103.59697,55.21344],[-103.6033,55.21344],[-103.60963,55.21344],[-103.61596,55.21344],[-103.6223,55.21344],[-103.62261,55.21344],[-103.62261,55.20983],[-103.62261,55.20622],[-103.62261,55.2026],[-103.62261,55.19899],[-103.62261,55.19881],[-103.62894,55.19881],[-103.63528,55.19881],[-103.63528,55.19899]]]}},{"type":"Feature","properties":{"c":"MC00023204","o":"GEM OIL INC.: 100.000%","e":"2028-03-16"},"geometry":{"type":"Polygon","coordinates":[[[-103.62261,55.19899],[-103.62261,55.2026],[-103.62261,55.20622],[-103.62261,55.20983],[-103.62261,55.21344],[-103.6223,55.21344],[-103.61596,55.21344],[-103.60963,55.21344],[-103.6033,55.21344],[-103.59697,55.21344],[-103.59665,55.21344],[-103.59032,55.21344],[-103.58399,55.21344],[-103.57766,55.21343],[-103.57766,55.20982],[-103.57766,55.20621],[-103.57766,55.20259],[-103.57766,55.19898],[-103.57766,55.1988],[-103.58399,55.1988],[-103.59032,55.1988],[-103.59665,55.1988],[-103.59697,55.1988],[-103.6033,55.19881],[-103.60963,55.19881],[-103.61596,55.19881],[-103.6223,55.19881],[-103.62261,55.19881],[-103.62261,55.19899]]]}},{"type":"Feature","properties":{"c":"S-113260","o":"North Arrow Minerals Inc.: 100.000%","e":"2029-06-02"},"geometry":{"type":"Polygon","coordinates":[[[-103.46238,55.1079],[-103.46246,55.10785],[-103.46866,55.10785],[-103.47494,55.10785],[-103.48121,55.10784],[-103.48153,55.10784],[-103.4878,55.10784],[-103.49408,55.10784],[-103.50036,55.10784],[-103.50663,55.10784],[-103.50695,55.10784],[-103.50695,55.11147],[-103.50706,55.11147],[-103.50706,55.11166],[-103.50706,55.1153],[-103.50706,55.11894],[-103.50073,55.11894],[-103.49439,55.11894],[-103.49408,55.11894],[-103.48775,55.11894],[-103.48141,55.11894],[-103.47508,55.11894],[-103.46875,55.11894],[-103.46843,55.11894],[-103.46697,55.11894],[-103.4621,55.11622],[-103.46047,55.1153],[-103.45602,55.11281],[-103.45774,55.11148],[-103.46238,55.1079]]]}},{"type":"Feature","properties":{"c":"MC00023681","o":"GEM OIL INC.: 100.000%","e":"2028-09-02"},"geometry":{"type":"Polygon","coordinates":[[[-103.69954,55.33339],[-103.69954,55.33701],[-103.69923,55.33701],[-103.6929,55.33701],[-103.68656,55.33702],[-103.68023,55.33702],[-103.6739,55.33702],[-103.6739,55.34064],[-103.6739,55.34425],[-103.6739,55.34443],[-103.6739,55.34804],[-103.6739,55.35166],[-103.68023,55.35165],[-103.68656,55.35165],[-103.6929,55.35165],[-103.69923,55.35164],[-103.69954,55.35164],[-103.69954,55.35526],[-103.69954,55.35887],[-103.69923,55.35887],[-103.6929,55.35888],[-103.68656,55.35888],[-103.68023,55.35888],[-103.6739,55.35888],[-103.67358,55.35888],[-103.66725,55.35889],[-103.66092,55.35889],[-103.66092,55.35528],[-103.66092,55.35166],[-103.66092,55.34805],[-103.66092,55.34443],[-103.66092,55.34425],[-103.66092,55.34064],[-103.66092,55.33703],[-103.66092,55.33341],[-103.66092,55.3298],[-103.66725,55.3298],[-103.67358,55.32979],[-103.6739,55.32979],[-103.68023,55.32979],[-103.68656,55.32979],[-103.6929,55.32979],[-103.69923,55.32978],[-103.69954,55.32978],[-103.69954,55.33339]]]}},{"type":"Feature","properties":{"c":"MC00023682","o":"GEM OIL INC.: 100.000%","e":"2028-09-02"},"geometry":{"type":"Polygon","coordinates":[[[-103.71221,55.3334],[-103.71221,55.33702],[-103.71221,55.34063],[-103.71221,55.34424],[-103.71221,55.34442],[-103.71221,55.34804],[-103.71221,55.35165],[-103.71221,55.35526],[-103.71221,55.35888],[-103.70588,55.35887],[-103.69954,55.35887],[-103.69954,55.35526],[-103.69954,55.35164],[-103.69954,55.34803],[-103.69954,55.34442],[-103.69954,55.34424],[-103.69954,55.34062],[-103.69954,55.33701],[-103.69954,55.33339],[-103.69954,55.32978],[-103.70588,55.32978],[-103.71221,55.32979],[-103.71221,55.3334]]]}}]}