{"type":"FeatureCollection","features":[{"type":"Feature","properties":{"c":"MC00003262","o":"Randy Johns: 100.000%","e":"2035-06-02"},"geometry":{"type":"Polygon","coordinates":[[[-104.08505,54.92966],[-104.08504,54.93327],[-104.08504,54.93688],[-104.07877,54.93688],[-104.07249,54.93689],[-104.06621,54.93689],[-104.06621,54.93327],[-104.06623,54.93327],[-104.07249,54.93327],[-104.07249,54.92966],[-104.07877,54.92966],[-104.08505,54.92966]]]}},{"type":"Feature","properties":{"c":"MC00015803","o":"Manganese Exploration Corp.: 100.000%","e":"2027-04-28"},"geometry":{"type":"Polygon","coordinates":[[[-104.15503,54.80966],[-104.15503,54.81327],[-104.15503,54.81689],[-104.15503,54.8205],[-104.15503,54.82068],[-104.15503,54.82429],[-104.15503,54.82791],[-104.14876,54.8279],[-104.14248,54.8279],[-104.14216,54.8279],[-104.13589,54.8279],[-104.12961,54.82791],[-104.12333,54.82791],[-104.11706,54.82791],[-104.11674,54.82791],[-104.11047,54.82792],[-104.10419,54.82792],[-104.09791,54.82792],[-104.09164,54.82792],[-104.09132,54.82792],[-104.08505,54.82792],[-104.07877,54.82792],[-104.07249,54.82792],[-104.06621,54.82792],[-104.06621,54.82431],[-104.06621,54.8207],[-104.06621,54.82052],[-104.06621,54.8169],[-104.06621,54.81329],[-104.06621,54.80967],[-104.06621,54.80606],[-104.07249,54.80606],[-104.07877,54.80606],[-104.08505,54.80606],[-104.09132,54.80606],[-104.09164,54.80606],[-104.09791,54.80606],[-104.10419,54.80605],[-104.11047,54.80605],[-104.11674,54.80605],[-104.11706,54.80605],[-104.12333,54.80605],[-104.12961,54.80604],[-104.13589,54.80604],[-104.14216,54.80604],[-104.14248,54.80604],[-104.14876,54.80604],[-104.15503,54.80604],[-104.15503,54.80966]]]}},{"type":"Feature","properties":{"c":"MC00015864","o":"Manganese Exploration Corp.: 100.000%","e":"2027-06-16"},"geometry":{"type":"Polygon","coordinates":[[[-104.16131,54.76251],[-104.16131,54.76612],[-104.16131,54.76973],[-104.16131,54.77334],[-104.16131,54.77695],[-104.15503,54.77695],[-104.15503,54.78056],[-104.15503,54.78418],[-104.15503,54.78779],[-104.15503,54.79141],[-104.15503,54.79159],[-104.15503,54.7952],[-104.15503,54.79882],[-104.15503,54.80243],[-104.15503,54.80604],[-104.14876,54.80604],[-104.14248,54.80604],[-104.14216,54.80604],[-104.13589,54.80604],[-104.12961,54.80604],[-104.12333,54.80605],[-104.11706,54.80605],[-104.11674,54.80605],[-104.11047,54.80605],[-104.11047,54.80244],[-104.11047,54.79882],[-104.11047,54.79521],[-104.11047,54.7916],[-104.11047,54.79142],[-104.11047,54.7878],[-104.11047,54.78419],[-104.11047,54.78057],[-104.11047,54.77696],[-104.11047,54.77335],[-104.11047,54.76973],[-104.11047,54.76612],[-104.11047,54.76251],[-104.11047,54.76232],[-104.11165,54.76232],[-104.11674,54.76232],[-104.11706,54.76232],[-104.11788,54.76232],[-104.12333,54.76232],[-104.1241,54.76232],[-104.12441,54.76232],[-104.12961,54.76232],[-104.13063,54.76232],[-104.13527,54.76232],[-104.13589,54.76232],[-104.13686,54.76232],[-104.14216,54.76233],[-104.14248,54.76233],[-104.14308,54.76233],[-104.14876,54.76233],[-104.1493,54.76233],[-104.14961,54.76233],[-104.15503,54.76233],[-104.15584,54.76233],[-104.15615,54.76233],[-104.16131,54.76233],[-104.16131,54.76251]]]}},{"type":"Feature","properties":{"c":"MC00015865","o":"Manganese Exploration Corp.: 100.000%","e":"2027-06-19"},"geometry":{"type":"Polygon","coordinates":[[[-104.21874,54.76252],[-104.21874,54.76613],[-104.21843,54.76613],[-104.21215,54.76613],[-104.20587,54.76613],[-104.1996,54.76613],[-104.19332,54.76613],[-104.19332,54.76974],[-104.19332,54.77335],[-104.19332,54.77696],[-104.19332,54.78058],[-104.19332,54.78419],[-104.19332,54.78781],[-104.19332,54.79142],[-104.19332,54.7916],[-104.19332,54.79522],[-104.19332,54.79883],[-104.19332,54.80244],[-104.19301,54.80244],[-104.18673,54.80244],[-104.18045,54.80244],[-104.17418,54.80244],[-104.16791,54.80244],[-104.1679,54.80244],[-104.16759,54.80244],[-104.16131,54.80243],[-104.15503,54.80243],[-104.15503,54.79882],[-104.15503,54.7952],[-104.15503,54.79159],[-104.15503,54.79141],[-104.15503,54.78779],[-104.15503,54.78418],[-104.15503,54.78056],[-104.15503,54.77695],[-104.16131,54.77695],[-104.16131,54.77334],[-104.16131,54.76973],[-104.16131,54.76612],[-104.16131,54.76251],[-104.16131,54.76233],[-104.16206,54.76233],[-104.16759,54.76234],[-104.1679,54.76234],[-104.16828,54.76234],[-104.17418,54.76234],[-104.17451,54.76234],[-104.17482,54.76234],[-104.18045,54.76234],[-104.18104,54.76234],[-104.18563,54.76234],[-104.18673,54.76234],[-104.18726,54.76234],[-104.19301,54.76234],[-104.19332,54.76234],[-104.19349,54.76234],[-104.1996,54.76234],[-104.19971,54.76234],[-104.20002,54.76234],[-104.20587,54.76234],[-104.20624,54.76234],[-104.20712,54.76234],[-104.21215,54.76234],[-104.21247,54.76234],[-104.21843,54.76234],[-104.21869,54.76234],[-104.21874,54.76234],[-104.21874,54.76252]]]}},{"type":"Feature","properties":{"c":"MC00015867","o":"Manganese Exploration Corp.: 100.000%","e":"2027-06-19"},"geometry":{"type":"Polygon","coordinates":[[[-104.19349,54.73344],[-104.19349,54.73705],[-104.19349,54.74067],[-104.19349,54.74428],[-104.19349,54.74789],[-104.19349,54.75151],[-104.19349,54.75512],[-104.19349,54.75873],[-104.19349,54.76234],[-104.19332,54.76234],[-104.19301,54.76234],[-104.18726,54.76234],[-104.18673,54.76234],[-104.18563,54.76234],[-104.18104,54.76234],[-104.18045,54.76234],[-104.17482,54.76234],[-104.17451,54.76234],[-104.17418,54.76234],[-104.16828,54.76234],[-104.1679,54.76234],[-104.16759,54.76234],[-104.16206,54.76233],[-104.16131,54.76233],[-104.15615,54.76233],[-104.15584,54.76233],[-104.15503,54.76233],[-104.14961,54.76233],[-104.14961,54.75872],[-104.14961,54.75511],[-104.14961,54.7515],[-104.14961,54.74788],[-104.14961,54.74427],[-104.14961,54.74066],[-104.14961,54.73704],[-104.14961,54.73343],[-104.14961,54.73325],[-104.15584,54.73325],[-104.16206,54.73325],[-104.16828,54.73325],[-104.17451,54.73325],[-104.17482,54.73325],[-104.18104,54.73326],[-104.18726,54.73326],[-104.19349,54.73326],[-104.19349,54.73344]]]}},{"type":"Feature","properties":{"c":"MC00015868","o":"Manganese Exploration Corp.: 100.000%","e":"2027-06-19"},"geometry":{"type":"Polygon","coordinates":[[[-104.25665,54.70433],[-104.25665,54.70795],[-104.25665,54.71156],[-104.25665,54.71517],[-104.25043,54.71518],[-104.25012,54.71518],[-104.24389,54.71518],[-104.23767,54.71518],[-104.23145,54.71518],[-104.22522,54.71518],[-104.22522,54.7188],[-104.22491,54.7188],[-104.21869,54.7188],[-104.21869,54.72241],[-104.21869,54.72603],[-104.21869,54.72964],[-104.21869,54.73326],[-104.21869,54.73344],[-104.21869,54.73705],[-104.21869,54.74066],[-104.21869,54.74428],[-104.21869,54.74789],[-104.21869,54.75151],[-104.21869,54.75512],[-104.21869,54.75873],[-104.21869,54.76234],[-104.21843,54.76234],[-104.21247,54.76234],[-104.21215,54.76234],[-104.20712,54.76234],[-104.20624,54.76234],[-104.20587,54.76234],[-104.20002,54.76234],[-104.19971,54.76234],[-104.1996,54.76234],[-104.19349,54.76234],[-104.19349,54.75873],[-104.19349,54.75512],[-104.19349,54.75151],[-104.19349,54.74789],[-104.19349,54.74428],[-104.19349,54.74067],[-104.19349,54.73705],[-104.19349,54.73344],[-104.19349,54.73326],[-104.19349,54.72964],[-104.19349,54.72603],[-104.19349,54.72241],[-104.18726,54.72241],[-104.18726,54.7188],[-104.18726,54.71519],[-104.18726,54.71157],[-104.18726,54.70796],[-104.18726,54.70434],[-104.18726,54.70416],[-104.19349,54.70416],[-104.19971,54.70416],[-104.20002,54.70416],[-104.20624,54.70416],[-104.21247,54.70416],[-104.21869,54.70416],[-104.22491,54.70416],[-104.22522,54.70416],[-104.23145,54.70416],[-104.23767,54.70416],[-104.24389,54.70416],[-104.25012,54.70415],[-104.25043,54.70415],[-104.25665,54.70415],[-104.25665,54.70433]]]}},{"type":"Feature","properties":{"c":"MC00015876","o":"Manganese Exploration Corp.: 100.000%","e":"2027-06-23"},"geometry":{"type":"Polygon","coordinates":[[[-104.24416,54.86424],[-104.24416,54.86786],[-104.24416,54.87147],[-104.24416,54.87508],[-104.24416,54.8787],[-104.24385,54.8787],[-104.23757,54.8787],[-104.2313,54.8787],[-104.22502,54.8787],[-104.21874,54.8787],[-104.21874,54.87888],[-104.21874,54.8825],[-104.21843,54.8825],[-104.21215,54.8825],[-104.20587,54.8825],[-104.1996,54.88249],[-104.19332,54.88249],[-104.19332,54.88611],[-104.19301,54.88611],[-104.18673,54.88611],[-104.18045,54.8861],[-104.17418,54.8861],[-104.1679,54.8861],[-104.16759,54.8861],[-104.16131,54.8861],[-104.15503,54.88609],[-104.15503,54.88971],[-104.15503,54.89332],[-104.14876,54.89332],[-104.14248,54.89331],[-104.14216,54.89331],[-104.13589,54.89332],[-104.12961,54.89332],[-104.12333,54.89332],[-104.11706,54.89333],[-104.11706,54.88971],[-104.11706,54.8861],[-104.11674,54.8861],[-104.11047,54.8861],[-104.10419,54.8861],[-104.09791,54.88611],[-104.09164,54.88611],[-104.09132,54.88611],[-104.08505,54.88611],[-104.07877,54.88611],[-104.07877,54.88972],[-104.07877,54.89334],[-104.07249,54.89334],[-104.06621,54.89334],[-104.06621,54.88972],[-104.06621,54.88611],[-104.06621,54.8825],[-104.06621,54.87888],[-104.06621,54.8787],[-104.06621,54.87509],[-104.06621,54.87147],[-104.06621,54.86786],[-104.06621,54.86425],[-104.07249,54.86425],[-104.07877,54.86424],[-104.08505,54.86424],[-104.09132,54.86424],[-104.09164,54.86424],[-104.09791,54.86424],[-104.10419,54.86424],[-104.11047,54.86424],[-104.11674,54.86423],[-104.11706,54.86423],[-104.12333,54.86423],[-104.12961,54.86423],[-104.13589,54.86423],[-104.14216,54.86422],[-104.14248,54.86422],[-104.14876,54.86423],[-104.15503,54.86423],[-104.16131,54.86423],[-104.16759,54.86423],[-104.1679,54.86423],[-104.17418,54.86424],[-104.18045,54.86424],[-104.18673,54.86424],[-104.19301,54.86424],[-104.19332,54.86424],[-104.19332,54.86063],[-104.1996,54.86063],[-104.20587,54.86063],[-104.21215,54.86063],[-104.21843,54.86063],[-104.21874,54.86063],[-104.21875,54.86063],[-104.22502,54.86063],[-104.2313,54.86063],[-104.23757,54.86063],[-104.24385,54.86063],[-104.24416,54.86063],[-104.24416,54.86424]]]}},{"type":"Feature","properties":{"c":"MC00017056","o":"Manganese Exploration Corp.: 100.000%","e":"2027-06-27"},"geometry":{"type":"Polygon","coordinates":[[[-104.06621,54.86786],[-104.06621,54.87147],[-104.06621,54.87509],[-104.06621,54.8787],[-104.06621,54.87888],[-104.06621,54.8825],[-104.06621,54.88611],[-104.06621,54.88972],[-104.06621,54.89334],[-104.0659,54.89334],[-104.05962,54.89334],[-104.05335,54.89334],[-104.04707,54.89334],[-104.04079,54.89333],[-104.04048,54.89333],[-104.0342,54.89333],[-104.02793,54.89333],[-104.02165,54.89333],[-104.01537,54.89333],[-104.01506,54.89333],[-104.00878,54.89332],[-104.0025,54.89332],[-103.99623,54.89332],[-103.98995,54.89331],[-103.98964,54.89331],[-103.98336,54.89332],[-103.97708,54.89332],[-103.97708,54.88971],[-103.97708,54.88609],[-103.97708,54.88248],[-103.97708,54.87887],[-103.97708,54.87868],[-103.97708,54.87507],[-103.97708,54.87146],[-103.97708,54.86784],[-103.97708,54.86423],[-103.98336,54.86423],[-103.98964,54.86422],[-103.98995,54.86422],[-103.99623,54.86423],[-104.0025,54.86423],[-104.00878,54.86423],[-104.01506,54.86423],[-104.01537,54.86423],[-104.02165,54.86424],[-104.02793,54.86424],[-104.0342,54.86424],[-104.04048,54.86424],[-104.04079,54.86424],[-104.04707,54.86424],[-104.05335,54.86424],[-104.05962,54.86425],[-104.0659,54.86425],[-104.06621,54.86425],[-104.06621,54.86786]]]}},{"type":"Feature","properties":{"c":"MC00017176","o":"Manganese Exploration Corp.: 100.000%","e":"2027-08-01"},"geometry":{"type":"Polygon","coordinates":[[[-104.40134,54.71518],[-104.39511,54.71518],[-104.38889,54.71518],[-104.38267,54.71518],[-104.37644,54.71518],[-104.37613,54.71518],[-104.36991,54.71519],[-104.36369,54.71519],[-104.35746,54.71519],[-104.35124,54.71519],[-104.35093,54.71519],[-104.34471,54.71519],[-104.33848,54.71519],[-104.33226,54.71519],[-104.32604,54.71518],[-104.32573,54.71518],[-104.3195,54.71518],[-104.31328,54.71518],[-104.30706,54.71518],[-104.30084,54.71518],[-104.30083,54.71518],[-104.30052,54.71518],[-104.2943,54.71517],[-104.28808,54.71517],[-104.28185,54.71517],[-104.27563,54.71516],[-104.27532,54.71516],[-104.2691,54.71517],[-104.26287,54.71517],[-104.25665,54.71517],[-104.25665,54.71156],[-104.25665,54.70795],[-104.25665,54.70433],[-104.25665,54.70415],[-104.25043,54.70415],[-104.25012,54.70415],[-104.24389,54.70416],[-104.23767,54.70416],[-104.23145,54.70416],[-104.22522,54.70416],[-104.22522,54.70055],[-104.22522,54.69693],[-104.22522,54.69332],[-104.22522,54.6897],[-104.22522,54.68609],[-104.22522,54.68248],[-104.22522,54.67886],[-104.22522,54.67525],[-104.22522,54.67507],[-104.23145,54.67507],[-104.23767,54.67506],[-104.24389,54.67506],[-104.25012,54.67506],[-104.25043,54.67506],[-104.25665,54.67506],[-104.26287,54.67505],[-104.2691,54.67505],[-104.27532,54.67505],[-104.27563,54.67505],[-104.28185,54.67505],[-104.28808,54.67505],[-104.2943,54.67506],[-104.30052,54.67506],[-104.30083,54.67506],[-104.30706,54.67506],[-104.31328,54.67506],[-104.3195,54.67507],[-104.32573,54.67507],[-104.32604,54.67507],[-104.33226,54.67507],[-104.33848,54.67507],[-104.34471,54.67507],[-104.35093,54.67507],[-104.35124,54.67507],[-104.35746,54.67507],[-104.36369,54.67507],[-104.36991,54.67507],[-104.37613,54.67507],[-104.37644,54.67507],[-104.38267,54.67507],[-104.38889,54.67506],[-104.39511,54.67506],[-104.40134,54.67506],[-104.40165,54.67506],[-104.40787,54.67506],[-104.41409,54.67505],[-104.42032,54.67505],[-104.42654,54.67505],[-104.42685,54.67505],[-104.42685,54.67523],[-104.42685,54.67884],[-104.42685,54.68246],[-104.42685,54.68607],[-104.42685,54.68968],[-104.42685,54.6933],[-104.42685,54.69691],[-104.42685,54.70053],[-104.42654,54.70053],[-104.42032,54.70053],[-104.42032,54.70414],[-104.42032,54.70432],[-104.42032,54.70794],[-104.42032,54.71155],[-104.42032,54.71517],[-104.41409,54.71517],[-104.40787,54.71517],[-104.40165,54.71518],[-104.40134,54.71518]]]}},{"type":"Feature","properties":{"c":"MC00019734","o":"GEM OIL INC.: 100.000%","e":"2027-01-06"},"geometry":{"type":"Polygon","coordinates":[[[-104.11047,54.7878],[-104.11047,54.79142],[-104.11047,54.7916],[-104.11047,54.79521],[-104.11047,54.79882],[-104.11047,54.80244],[-104.11047,54.80605],[-104.10419,54.80605],[-104.09791,54.80606],[-104.09164,54.80606],[-104.09132,54.80606],[-104.08505,54.80606],[-104.07877,54.80606],[-104.07249,54.80606],[-104.06621,54.80606],[-104.0659,54.80606],[-104.05962,54.80606],[-104.05335,54.80606],[-104.04707,54.80606],[-104.04079,54.80606],[-104.04048,54.80606],[-104.0342,54.80606],[-104.02793,54.80605],[-104.02165,54.80605],[-104.01537,54.80605],[-104.01506,54.80605],[-104.00878,54.80605],[-104.0025,54.80604],[-103.99623,54.80604],[-103.98995,54.80604],[-103.98995,54.80242],[-103.98995,54.79881],[-103.98995,54.79519],[-103.98995,54.79158],[-103.98995,54.7914],[-103.98995,54.78779],[-103.98995,54.78417],[-103.99623,54.78418],[-104.0025,54.78418],[-104.00878,54.78418],[-104.01506,54.78418],[-104.01537,54.78418],[-104.02165,54.78419],[-104.02793,54.78419],[-104.0342,54.78419],[-104.04048,54.78419],[-104.04079,54.78419],[-104.04707,54.78419],[-104.05335,54.78419],[-104.05962,54.7842],[-104.0659,54.7842],[-104.06621,54.7842],[-104.07249,54.7842],[-104.07877,54.78419],[-104.08505,54.78419],[-104.09132,54.78419],[-104.09164,54.78419],[-104.09791,54.78419],[-104.10419,54.78419],[-104.11047,54.78419],[-104.11047,54.7878]]]}},{"type":"Feature","properties":{"c":"MC00019735","o":"GEM OIL INC.: 100.000%","e":"2027-01-06"},"geometry":{"type":"Polygon","coordinates":[[[-104.11047,54.76251],[-104.11047,54.76612],[-104.11047,54.76973],[-104.11047,54.77335],[-104.11047,54.77696],[-104.11047,54.78057],[-104.11047,54.78419],[-104.10419,54.78419],[-104.09791,54.78419],[-104.09164,54.78419],[-104.09132,54.78419],[-104.08505,54.78419],[-104.07877,54.78419],[-104.07249,54.7842],[-104.06621,54.7842],[-104.0659,54.7842],[-104.05962,54.7842],[-104.05335,54.78419],[-104.04707,54.78419],[-104.04079,54.78419],[-104.04048,54.78419],[-104.0342,54.78419],[-104.02793,54.78419],[-104.02165,54.78419],[-104.01537,54.78418],[-104.01506,54.78418],[-104.00878,54.78418],[-104.0025,54.78418],[-103.99623,54.78418],[-103.98995,54.78417],[-103.98995,54.78056],[-103.98995,54.77694],[-103.98995,54.77333],[-103.98995,54.76972],[-103.98995,54.76611],[-103.98995,54.7625],[-103.98995,54.76233],[-103.99186,54.76233],[-103.99623,54.76233],[-103.99808,54.76233],[-103.99839,54.76233],[-104.0025,54.76233],[-104.00462,54.76233],[-104.00878,54.76233],[-104.01054,54.76233],[-104.01084,54.76233],[-104.01506,54.76234],[-104.0151,54.76234],[-104.01537,54.76234],[-104.01706,54.76234],[-104.02165,54.76234],[-104.02329,54.76234],[-104.0236,54.76234],[-104.02793,54.76234],[-104.02982,54.76234],[-104.0342,54.76234],[-104.03583,54.76234],[-104.03604,54.76234],[-104.04048,54.76234],[-104.04052,54.76234],[-104.04079,54.76234],[-104.04227,54.76234],[-104.04707,54.76234],[-104.04849,54.76234],[-104.0488,54.76234],[-104.05335,54.76234],[-104.05502,54.76234],[-104.05962,54.76234],[-104.06125,54.76234],[-104.0659,54.76234],[-104.06621,54.76234],[-104.06747,54.76234],[-104.06771,54.76234],[-104.07249,54.76234],[-104.07369,54.76234],[-104.074,54.76234],[-104.07877,54.76234],[-104.08023,54.76234],[-104.08504,54.76233],[-104.08645,54.76233],[-104.09132,54.76233],[-104.09164,54.76233],[-104.09267,54.76233],[-104.09791,54.76233],[-104.0989,54.76233],[-104.09921,54.76233],[-104.10419,54.76233],[-104.10543,54.76233],[-104.11047,54.76232],[-104.11047,54.76251]]]}},{"type":"Feature","properties":{"c":"MC00022196","o":"Gary Clayton Dunn: 100.000%","e":"2027-05-26"},"geometry":{"type":"Polygon","coordinates":[[[-104.13589,54.93687],[-104.14216,54.93686],[-104.14248,54.93686],[-104.14876,54.93687],[-104.15503,54.93687],[-104.16131,54.93687],[-104.16759,54.93687],[-104.1679,54.93687],[-104.17418,54.93688],[-104.18045,54.93688],[-104.18673,54.93688],[-104.19301,54.93688],[-104.19332,54.93688],[-104.1996,54.93688],[-104.20587,54.93688],[-104.21215,54.93689],[-104.21215,54.93707],[-104.21215,54.94068],[-104.21215,54.94429],[-104.21215,54.94791],[-104.20587,54.94791],[-104.1996,54.94791],[-104.19332,54.94791],[-104.19301,54.94791],[-104.18673,54.9479],[-104.18045,54.9479],[-104.17418,54.9479],[-104.1679,54.9479],[-104.16759,54.9479],[-104.16131,54.94789],[-104.15503,54.94789],[-104.14876,54.94789],[-104.14248,54.94788],[-104.14216,54.94788],[-104.13589,54.94789],[-104.12961,54.94789],[-104.12333,54.94789],[-104.12333,54.94428],[-104.12333,54.94067],[-104.12333,54.93705],[-104.12333,54.93687],[-104.12333,54.93326],[-104.12961,54.93326],[-104.13589,54.93325],[-104.13589,54.93687]]]}},{"type":"Feature","properties":{"c":"MC00022197","o":"Gary Clayton Dunn: 100.000%","e":"2027-05-26"},"geometry":{"type":"Polygon","coordinates":[[[-104.18673,54.95152],[-104.18673,54.95513],[-104.18673,54.95875],[-104.18045,54.95874],[-104.17418,54.95874],[-104.1679,54.95874],[-104.16759,54.95874],[-104.16131,54.95874],[-104.15503,54.95873],[-104.14876,54.95873],[-104.14248,54.95873],[-104.14216,54.95873],[-104.13589,54.95873],[-104.12961,54.95873],[-104.12333,54.95874],[-104.12333,54.95512],[-104.12333,54.95151],[-104.12333,54.94789],[-104.12961,54.94789],[-104.13589,54.94789],[-104.14216,54.94788],[-104.14248,54.94788],[-104.14876,54.94789],[-104.15503,54.94789],[-104.16131,54.94789],[-104.16759,54.9479],[-104.1679,54.9479],[-104.17418,54.9479],[-104.18045,54.9479],[-104.18673,54.9479],[-104.18673,54.95152]]]}},{"type":"Feature","properties":{"c":"MC00022203","o":"Gary Clayton Dunn: 100.000%","e":"2027-05-26"},"geometry":{"type":"Polygon","coordinates":[[[-104.27586,54.95151],[-104.27586,54.95512],[-104.27586,54.95874],[-104.27586,54.96235],[-104.27586,54.96596],[-104.26958,54.96597],[-104.26927,54.96597],[-104.26299,54.96597],[-104.25672,54.96597],[-104.25044,54.96597],[-104.24416,54.96597],[-104.24416,54.96236],[-104.24385,54.96236],[-104.23757,54.96236],[-104.2313,54.96236],[-104.22502,54.96236],[-104.21874,54.96236],[-104.21843,54.96236],[-104.21215,54.96236],[-104.20587,54.96236],[-104.1996,54.96236],[-104.19332,54.96236],[-104.19301,54.96236],[-104.18673,54.96236],[-104.18045,54.96236],[-104.18045,54.95874],[-104.18673,54.95875],[-104.18673,54.95513],[-104.18673,54.95152],[-104.18673,54.9479],[-104.19301,54.94791],[-104.19332,54.94791],[-104.1996,54.94791],[-104.20587,54.94791],[-104.21215,54.94791],[-104.21215,54.95152],[-104.21843,54.95152],[-104.21874,54.95152],[-104.22502,54.95152],[-104.2313,54.95152],[-104.23757,54.95152],[-104.24385,54.95152],[-104.24416,54.95152],[-104.25044,54.95152],[-104.25672,54.95152],[-104.26299,54.95151],[-104.26927,54.95151],[-104.26958,54.95151],[-104.26958,54.9479],[-104.27586,54.94789],[-104.27586,54.95151]]]}},{"type":"Feature","properties":{"c":"MC00022205","o":"Gary Clayton Dunn: 100.000%","e":"2027-05-28"},"geometry":{"type":"Polygon","coordinates":[[[-104.32011,54.96235],[-104.31384,54.96235],[-104.30756,54.96235],[-104.30128,54.96234],[-104.29501,54.96234],[-104.29469,54.96234],[-104.28841,54.96234],[-104.28214,54.96235],[-104.27586,54.96235],[-104.27586,54.95874],[-104.27586,54.95512],[-104.27586,54.95151],[-104.27586,54.94789],[-104.26958,54.9479],[-104.26958,54.94428],[-104.27586,54.94428],[-104.28214,54.94428],[-104.28841,54.94427],[-104.29469,54.94427],[-104.29501,54.94427],[-104.29501,54.94788],[-104.29501,54.9515],[-104.30128,54.9515],[-104.30756,54.95151],[-104.31384,54.95151],[-104.32011,54.95151],[-104.32043,54.95151],[-104.3267,54.95151],[-104.33298,54.95152],[-104.33926,54.95152],[-104.34553,54.95152],[-104.34585,54.95152],[-104.34585,54.94791],[-104.34586,54.94791],[-104.35212,54.94791],[-104.3584,54.94791],[-104.36468,54.94791],[-104.36468,54.95152],[-104.36468,54.95514],[-104.36468,54.95875],[-104.36468,54.96236],[-104.3584,54.96236],[-104.35212,54.96236],[-104.34585,54.96236],[-104.34553,54.96236],[-104.33926,54.96236],[-104.33298,54.96236],[-104.3267,54.96236],[-104.32043,54.96235],[-104.32011,54.96235]]]}},{"type":"Feature","properties":{"c":"MC00022206","o":"Gary Clayton Dunn: 100.000%","e":"2027-05-29"},"geometry":{"type":"Polygon","coordinates":[[[-104.42211,54.93706],[-104.42211,54.94067],[-104.42211,54.94428],[-104.42211,54.9479],[-104.4218,54.9479],[-104.41552,54.9479],[-104.40924,54.9479],[-104.40297,54.9479],[-104.39669,54.94791],[-104.39638,54.94791],[-104.3901,54.94791],[-104.38382,54.94791],[-104.37755,54.94791],[-104.37755,54.95152],[-104.37755,54.95514],[-104.37755,54.95875],[-104.37755,54.96236],[-104.37127,54.96236],[-104.37096,54.96236],[-104.36468,54.96236],[-104.36468,54.95875],[-104.36468,54.95514],[-104.36468,54.95152],[-104.36468,54.94791],[-104.3584,54.94791],[-104.35212,54.94791],[-104.34586,54.94791],[-104.34585,54.94791],[-104.34585,54.94429],[-104.34585,54.94068],[-104.34585,54.93706],[-104.34585,54.93688],[-104.35212,54.93688],[-104.3584,54.93688],[-104.36468,54.93689],[-104.37096,54.93689],[-104.37127,54.93689],[-104.37755,54.93689],[-104.38382,54.93688],[-104.3901,54.93688],[-104.39638,54.93688],[-104.39669,54.93688],[-104.40297,54.93688],[-104.40924,54.93688],[-104.41552,54.93688],[-104.4218,54.93688],[-104.42211,54.93687],[-104.42211,54.93706]]]}},{"type":"Feature","properties":{"c":"MC00022208","o":"Gary Clayton Dunn: 100.000%","e":"2027-06-01"},"geometry":{"type":"Polygon","coordinates":[[[-104.18045,54.96236],[-104.18673,54.96236],[-104.19301,54.96236],[-104.19332,54.96236],[-104.1996,54.96236],[-104.20587,54.96236],[-104.21215,54.96236],[-104.21843,54.96236],[-104.21874,54.96236],[-104.21874,54.96598],[-104.21874,54.96616],[-104.21874,54.96977],[-104.21843,54.96977],[-104.21215,54.96977],[-104.21215,54.97339],[-104.21215,54.977],[-104.20587,54.977],[-104.1996,54.977],[-104.19333,54.977],[-104.19332,54.977],[-104.19301,54.977],[-104.18673,54.977],[-104.18045,54.97699],[-104.17418,54.97699],[-104.17418,54.97338],[-104.17418,54.96976],[-104.17418,54.96615],[-104.17418,54.96597],[-104.17418,54.96236],[-104.17418,54.95874],[-104.18045,54.95874],[-104.18045,54.96236]]]}},{"type":"Feature","properties":{"c":"MC00022366","o":"Gary Clayton Dunn: 100.000%","e":"2027-07-22"},"geometry":{"type":"Polygon","coordinates":[[[-104.1679,54.93326],[-104.1679,54.93687],[-104.16759,54.93687],[-104.16131,54.93687],[-104.15503,54.93687],[-104.14876,54.93687],[-104.14248,54.93686],[-104.14216,54.93686],[-104.13589,54.93687],[-104.13589,54.93325],[-104.12961,54.93326],[-104.12333,54.93326],[-104.11706,54.93326],[-104.11674,54.93326],[-104.11047,54.93326],[-104.10419,54.93327],[-104.09791,54.93327],[-104.09791,54.92965],[-104.10419,54.92965],[-104.11047,54.92965],[-104.11674,54.92965],[-104.11706,54.92965],[-104.12333,54.92964],[-104.12961,54.92964],[-104.13589,54.92964],[-104.14216,54.92963],[-104.14248,54.92963],[-104.14876,54.92964],[-104.15503,54.92964],[-104.16131,54.92964],[-104.16759,54.92965],[-104.1679,54.92965],[-104.1679,54.93326]]]}},{"type":"Feature","properties":{"c":"MC00022935","o":"FULL MOON RESOURCES  LTD: 100.000%","e":"2027-12-11"},"geometry":{"type":"Polygon","coordinates":[[[-104.29501,54.96613],[-104.29501,54.96975],[-104.29501,54.97336],[-104.29501,54.97698],[-104.29501,54.98059],[-104.29501,54.9842],[-104.29501,54.98782],[-104.29501,54.99143],[-104.29501,54.99505],[-104.29469,54.99505],[-104.28841,54.99505],[-104.28214,54.99505],[-104.27586,54.99506],[-104.26958,54.99506],[-104.26927,54.99506],[-104.26299,54.99506],[-104.25672,54.99506],[-104.25672,54.99145],[-104.25672,54.98784],[-104.25672,54.98422],[-104.25672,54.98061],[-104.25672,54.97699],[-104.25672,54.97338],[-104.25672,54.96977],[-104.25672,54.96615],[-104.25672,54.96597],[-104.26299,54.96597],[-104.26927,54.96597],[-104.26958,54.96597],[-104.27586,54.96596],[-104.28214,54.96596],[-104.28841,54.96596],[-104.29469,54.96595],[-104.29501,54.96595],[-104.29501,54.96613]]]}},{"type":"Feature","properties":{"c":"MC00015869","o":"Manganese Exploration Corp.: 100.000%","e":"2027-06-19"},"geometry":{"type":"Polygon","coordinates":[[[-104.18726,54.72241],[-104.19349,54.72241],[-104.19349,54.72603],[-104.19349,54.72964],[-104.19349,54.73326],[-104.18726,54.73326],[-104.18104,54.73326],[-104.17482,54.73325],[-104.17451,54.73325],[-104.16828,54.73325],[-104.16206,54.73325],[-104.15584,54.73325],[-104.14961,54.73325],[-104.1493,54.73325],[-104.14308,54.73324],[-104.13686,54.73324],[-104.13063,54.73324],[-104.12441,54.73323],[-104.1241,54.73323],[-104.11788,54.73324],[-104.11165,54.73324],[-104.10543,54.73324],[-104.09921,54.73325],[-104.0989,54.73325],[-104.09267,54.73325],[-104.08645,54.73325],[-104.08023,54.73325],[-104.074,54.73325],[-104.074,54.72964],[-104.074,54.72603],[-104.074,54.72241],[-104.074,54.7188],[-104.08023,54.7188],[-104.08645,54.71879],[-104.09267,54.71879],[-104.0989,54.71879],[-104.09921,54.71879],[-104.10543,54.71879],[-104.11165,54.71878],[-104.11788,54.71878],[-104.1241,54.71878],[-104.12441,54.71878],[-104.13063,54.71878],[-104.13686,54.71878],[-104.14308,54.71879],[-104.1493,54.71879],[-104.14961,54.71879],[-104.15584,54.71879],[-104.16206,54.71879],[-104.16828,54.7188],[-104.17451,54.7188],[-104.17482,54.7188],[-104.18104,54.7188],[-104.18726,54.7188],[-104.18726,54.72241]]]}},{"type":"Feature","properties":{"c":"MC00015866","o":"Manganese Exploration Corp.: 100.000%","e":"2027-06-19"},"geometry":{"type":"Polygon","coordinates":[[[-104.14961,54.73343],[-104.14961,54.73704],[-104.14961,54.74066],[-104.14961,54.74427],[-104.14961,54.74788],[-104.14961,54.7515],[-104.14961,54.75511],[-104.14961,54.75872],[-104.14961,54.76233],[-104.1493,54.76233],[-104.14876,54.76233],[-104.14308,54.76233],[-104.14248,54.76233],[-104.14216,54.76233],[-104.13686,54.76232],[-104.13589,54.76232],[-104.13527,54.76232],[-104.13063,54.76232],[-104.12961,54.76232],[-104.12441,54.76232],[-104.1241,54.76232],[-104.12333,54.76232],[-104.11788,54.76232],[-104.11706,54.76232],[-104.11674,54.76232],[-104.11165,54.76232],[-104.11047,54.76232],[-104.10543,54.76233],[-104.10419,54.76233],[-104.09921,54.76233],[-104.0989,54.76233],[-104.09791,54.76233],[-104.09267,54.76233],[-104.09164,54.76233],[-104.09132,54.76233],[-104.08645,54.76233],[-104.08504,54.76233],[-104.08023,54.76234],[-104.07877,54.76234],[-104.074,54.76234],[-104.074,54.75873],[-104.074,54.75512],[-104.074,54.75151],[-104.074,54.74789],[-104.074,54.74428],[-104.074,54.74066],[-104.074,54.73705],[-104.074,54.73343],[-104.074,54.73325],[-104.08023,54.73325],[-104.08645,54.73325],[-104.09267,54.73325],[-104.0989,54.73325],[-104.09921,54.73325],[-104.10543,54.73324],[-104.11165,54.73324],[-104.11788,54.73324],[-104.1241,54.73323],[-104.12441,54.73323],[-104.13063,54.73324],[-104.13686,54.73324],[-104.14308,54.73324],[-104.1493,54.73325],[-104.14961,54.73325],[-104.14961,54.73343]]]}},{"type":"Feature","properties":{"c":"MC00015870","o":"Manganese Exploration Corp.: 100.000%","e":"2027-06-19"},"geometry":{"type":"Polygon","coordinates":[[[-104.18726,54.70434],[-104.18726,54.70796],[-104.18726,54.71157],[-104.18726,54.71519],[-104.18726,54.7188],[-104.18104,54.7188],[-104.17482,54.7188],[-104.17451,54.7188],[-104.16828,54.7188],[-104.16206,54.71879],[-104.15584,54.71879],[-104.14961,54.71879],[-104.1493,54.71879],[-104.14308,54.71879],[-104.13686,54.71878],[-104.13063,54.71878],[-104.12441,54.71878],[-104.12441,54.71516],[-104.12441,54.71155],[-104.12441,54.70793],[-104.12441,54.70432],[-104.12441,54.70414],[-104.13063,54.70414],[-104.13686,54.70415],[-104.14308,54.70415],[-104.1493,54.70415],[-104.14961,54.70415],[-104.15584,54.70416],[-104.16206,54.70416],[-104.16828,54.70416],[-104.17451,54.70416],[-104.17482,54.70416],[-104.18104,54.70416],[-104.18726,54.70416],[-104.18726,54.70434]]]}},{"type":"Feature","properties":{"c":"MC00015871","o":"Manganese Exploration Corp.: 100.000%","e":"2027-06-19"},"geometry":{"type":"Polygon","coordinates":[[[-104.22522,54.67507],[-104.22522,54.67525],[-104.22522,54.67886],[-104.22522,54.68248],[-104.22522,54.68609],[-104.22522,54.6897],[-104.22522,54.69332],[-104.22522,54.69693],[-104.22522,54.70055],[-104.22522,54.70416],[-104.22491,54.70416],[-104.21869,54.70416],[-104.21247,54.70416],[-104.20624,54.70416],[-104.20002,54.70416],[-104.19971,54.70416],[-104.19349,54.70416],[-104.18726,54.70416],[-104.18104,54.70416],[-104.17482,54.70416],[-104.17451,54.70416],[-104.16828,54.70416],[-104.16206,54.70416],[-104.15584,54.70416],[-104.14961,54.70415],[-104.1493,54.70415],[-104.14308,54.70415],[-104.14308,54.70054],[-104.14308,54.69692],[-104.14308,54.69331],[-104.14308,54.68969],[-104.14308,54.68608],[-104.14308,54.68247],[-104.14308,54.67885],[-104.14308,54.67524],[-104.14308,54.67506],[-104.14308,54.67144],[-104.1493,54.67145],[-104.14961,54.67145],[-104.15584,54.67145],[-104.16206,54.67145],[-104.16828,54.67145],[-104.17451,54.67145],[-104.17482,54.67145],[-104.18104,54.67145],[-104.18726,54.67146],[-104.19349,54.67146],[-104.19971,54.67146],[-104.20002,54.67146],[-104.20624,54.67146],[-104.21247,54.67146],[-104.21869,54.67145],[-104.22491,54.67145],[-104.22522,54.67145],[-104.22522,54.67507]]]}},{"type":"Feature","properties":{"c":"MC00015802","o":"Manganese Exploration Corp.: 100.000%","e":"2027-04-28"},"geometry":{"type":"Polygon","coordinates":[[[-104.11706,54.83153],[-104.11674,54.83153],[-104.11047,54.83153],[-104.11047,54.83514],[-104.11047,54.83876],[-104.11047,54.84237],[-104.11047,54.84599],[-104.11047,54.8496],[-104.11047,54.84978],[-104.11047,54.8534],[-104.11047,54.85701],[-104.11047,54.86062],[-104.11674,54.86062],[-104.11706,54.86062],[-104.11706,54.86423],[-104.11674,54.86423],[-104.11047,54.86424],[-104.10419,54.86424],[-104.09791,54.86424],[-104.09164,54.86424],[-104.09132,54.86424],[-104.08505,54.86424],[-104.07877,54.86424],[-104.07249,54.86425],[-104.06621,54.86425],[-104.06621,54.86063],[-104.06621,54.85702],[-104.06621,54.8534],[-104.06621,54.84979],[-104.06621,54.84961],[-104.06621,54.84599],[-104.06621,54.84238],[-104.06621,54.83877],[-104.06621,54.83515],[-104.06621,54.83154],[-104.06621,54.82792],[-104.07249,54.82792],[-104.07877,54.82792],[-104.08505,54.82792],[-104.09132,54.82792],[-104.09164,54.82792],[-104.09791,54.82792],[-104.10419,54.82792],[-104.11047,54.82792],[-104.11674,54.82791],[-104.11706,54.82791],[-104.11706,54.83153]]]}},{"type":"Feature","properties":{"c":"MC00023168","o":"Searchlight Resources Inc.: 100.000%","e":"2028-03-10"},"geometry":{"type":"Polygon","coordinates":[[[-103.98336,54.90795],[-103.98336,54.91157],[-103.98336,54.91518],[-103.98336,54.9188],[-103.98336,54.92241],[-103.98336,54.92602],[-103.98336,54.92964],[-103.98336,54.93325],[-103.98964,54.93325],[-103.98995,54.93325],[-103.99623,54.93325],[-104.0025,54.93325],[-104.00878,54.93326],[-104.01506,54.93326],[-104.01537,54.93326],[-104.02165,54.93326],[-104.02793,54.93327],[-104.0342,54.93327],[-104.04048,54.93327],[-104.04079,54.93327],[-104.04707,54.93327],[-104.05335,54.93327],[-104.05335,54.93688],[-104.05335,54.93707],[-104.05335,54.94068],[-104.05962,54.94068],[-104.0659,54.94068],[-104.06621,54.94068],[-104.07249,54.94068],[-104.07877,54.94068],[-104.08504,54.94068],[-104.09132,54.94068],[-104.09164,54.94068],[-104.09791,54.94068],[-104.09791,54.93706],[-104.09791,54.93688],[-104.09791,54.93327],[-104.10419,54.93327],[-104.11047,54.93326],[-104.11674,54.93326],[-104.11706,54.93326],[-104.12333,54.93326],[-104.12333,54.93687],[-104.12333,54.93705],[-104.12333,54.94067],[-104.12333,54.94428],[-104.12333,54.94789],[-104.12333,54.95151],[-104.12333,54.95512],[-104.12333,54.95874],[-104.12333,54.96235],[-104.11706,54.96235],[-104.11674,54.96235],[-104.11047,54.96236],[-104.10419,54.96236],[-104.09791,54.96236],[-104.09164,54.96236],[-104.09132,54.96236],[-104.08505,54.96236],[-104.07877,54.96236],[-104.07249,54.96236],[-104.06621,54.96236],[-104.0659,54.96236],[-104.05962,54.96236],[-104.05335,54.96236],[-104.04707,54.96236],[-104.04079,54.96236],[-104.04048,54.96236],[-104.0342,54.96236],[-104.02793,54.96236],[-104.02165,54.96236],[-104.01537,54.96235],[-104.01506,54.96235],[-104.00878,54.96235],[-104.0025,54.96235],[-103.99623,54.96234],[-103.98995,54.96234],[-103.98964,54.96234],[-103.98336,54.96234],[-103.97708,54.96235],[-103.97081,54.96235],[-103.97081,54.95874],[-103.97081,54.95512],[-103.97081,54.95151],[-103.97081,54.94789],[-103.97081,54.94428],[-103.96453,54.94428],[-103.96422,54.94428],[-103.95794,54.94429],[-103.95166,54.94429],[-103.94539,54.94429],[-103.93911,54.94429],[-103.93879,54.94429],[-103.93252,54.94429],[-103.92624,54.94429],[-103.91996,54.94429],[-103.91369,54.94429],[-103.91337,54.94429],[-103.9071,54.94429],[-103.90082,54.94429],[-103.90082,54.94068],[-103.90082,54.93707],[-103.90082,54.93688],[-103.90082,54.93327],[-103.90082,54.92966],[-103.90082,54.92604],[-103.90082,54.92243],[-103.90082,54.91882],[-103.90082,54.9152],[-103.90082,54.91159],[-103.90082,54.90797],[-103.90082,54.90779],[-103.9071,54.90779],[-103.91337,54.90779],[-103.91369,54.90779],[-103.91996,54.90779],[-103.92624,54.90779],[-103.93252,54.90779],[-103.93879,54.90779],[-103.93911,54.90779],[-103.94539,54.90779],[-103.95166,54.90779],[-103.95794,54.90779],[-103.96422,54.90778],[-103.96453,54.90778],[-103.97081,54.90778],[-103.97708,54.90778],[-103.98336,54.90777],[-103.98336,54.90795]]]}},{"type":"Feature","properties":{"c":"MC00023169","o":"Searchlight Resources Inc.: 100.000%","e":"2028-03-10"},"geometry":{"type":"Polygon","coordinates":[[[-104.44753,54.9515],[-104.45381,54.9515],[-104.46009,54.95151],[-104.46636,54.95151],[-104.47264,54.95151],[-104.47295,54.95151],[-104.47923,54.95151],[-104.48551,54.95152],[-104.49178,54.95152],[-104.49806,54.95152],[-104.49838,54.95152],[-104.50465,54.95152],[-104.51093,54.95152],[-104.51721,54.95152],[-104.51721,54.95514],[-104.51721,54.95875],[-104.51721,54.96236],[-104.51721,54.96598],[-104.51721,54.96616],[-104.51721,54.96977],[-104.51093,54.96977],[-104.50465,54.96977],[-104.49838,54.96977],[-104.49806,54.96977],[-104.49178,54.96977],[-104.48551,54.96977],[-104.47923,54.96976],[-104.47295,54.96976],[-104.47264,54.96976],[-104.46636,54.96976],[-104.46009,54.96976],[-104.45381,54.96975],[-104.44753,54.96975],[-104.44722,54.96975],[-104.44094,54.96975],[-104.43467,54.96976],[-104.42839,54.96976],[-104.42211,54.96976],[-104.4218,54.96976],[-104.42134,54.96976],[-104.41552,54.96976],[-104.40924,54.96977],[-104.40297,54.96977],[-104.39669,54.96977],[-104.39638,54.96977],[-104.3901,54.96977],[-104.38382,54.96977],[-104.37755,54.96977],[-104.37755,54.96616],[-104.37755,54.96598],[-104.37755,54.96236],[-104.37755,54.95875],[-104.37755,54.95514],[-104.37755,54.95152],[-104.37755,54.94791],[-104.38382,54.94791],[-104.3901,54.94791],[-104.39638,54.94791],[-104.39669,54.94791],[-104.40297,54.9479],[-104.40924,54.9479],[-104.41552,54.9479],[-104.4218,54.9479],[-104.42211,54.9479],[-104.42212,54.9479],[-104.42839,54.94789],[-104.43467,54.94789],[-104.44094,54.94789],[-104.44722,54.94788],[-104.44753,54.94788],[-104.44753,54.9515]]]}},{"type":"Feature","properties":{"c":"MC00023184","o":"Searchlight Resources Inc.: 100.000%","e":"2028-03-10"},"geometry":{"type":"Polygon","coordinates":[[[-104.51721,54.97339],[-104.51721,54.977],[-104.51093,54.977],[-104.50465,54.977],[-104.49838,54.977],[-104.49806,54.977],[-104.49178,54.977],[-104.48551,54.97699],[-104.47923,54.97699],[-104.47295,54.97699],[-104.47264,54.97699],[-104.46636,54.97699],[-104.46009,54.97698],[-104.45381,54.97698],[-104.44753,54.97698],[-104.44753,54.97336],[-104.44753,54.96975],[-104.45381,54.96975],[-104.46009,54.96976],[-104.46636,54.96976],[-104.47264,54.96976],[-104.47295,54.96976],[-104.47923,54.96976],[-104.48551,54.96977],[-104.49178,54.96977],[-104.49806,54.96977],[-104.49838,54.96977],[-104.50465,54.96977],[-104.51093,54.96977],[-104.51721,54.96977],[-104.51721,54.97339]]]}},{"type":"Feature","properties":{"c":"MC00023185","o":"Searchlight Resources Inc.: 100.000%","e":"2028-03-10"},"geometry":{"type":"Polygon","coordinates":[[[-104.3267,54.96236],[-104.33298,54.96236],[-104.33926,54.96236],[-104.34553,54.96236],[-104.34585,54.96236],[-104.35212,54.96236],[-104.3584,54.96236],[-104.36468,54.96236],[-104.37096,54.96236],[-104.37127,54.96236],[-104.37755,54.96236],[-104.37755,54.96598],[-104.37755,54.96616],[-104.37755,54.96977],[-104.38382,54.96977],[-104.3901,54.96977],[-104.39638,54.96977],[-104.39669,54.96977],[-104.40297,54.96977],[-104.40924,54.96977],[-104.41552,54.96976],[-104.42134,54.96976],[-104.4218,54.96976],[-104.42211,54.96976],[-104.42839,54.96976],[-104.43467,54.96976],[-104.44094,54.96975],[-104.44722,54.96975],[-104.44753,54.96975],[-104.44753,54.97336],[-104.44753,54.97698],[-104.44722,54.97698],[-104.44094,54.97698],[-104.43467,54.97698],[-104.42839,54.97699],[-104.42211,54.97699],[-104.4218,54.97699],[-104.41552,54.97699],[-104.40924,54.97699],[-104.40297,54.977],[-104.39669,54.977],[-104.39638,54.977],[-104.3901,54.977],[-104.38382,54.977],[-104.37755,54.977],[-104.37127,54.977],[-104.37096,54.977],[-104.36468,54.977],[-104.3584,54.977],[-104.35212,54.977],[-104.34585,54.977],[-104.34553,54.977],[-104.33926,54.977],[-104.33298,54.97699],[-104.3267,54.97699],[-104.32043,54.97699],[-104.32011,54.97699],[-104.31384,54.97699],[-104.30756,54.97698],[-104.30128,54.97698],[-104.29501,54.97698],[-104.29501,54.97336],[-104.29501,54.96975],[-104.29501,54.96613],[-104.29501,54.96595],[-104.29501,54.96234],[-104.30128,54.96234],[-104.30756,54.96235],[-104.31384,54.96235],[-104.32011,54.96235],[-104.32043,54.96235],[-104.3267,54.96236]]]}},{"type":"Feature","properties":{"c":"MC00023233","o":"GEM OIL INC.: 100.000%","e":"2028-04-04"},"geometry":{"type":"Polygon","coordinates":[[[-104.46009,54.95151],[-104.45381,54.9515],[-104.44753,54.9515],[-104.44753,54.94788],[-104.45381,54.94789],[-104.46009,54.94789],[-104.46009,54.95151]]]}},{"type":"Feature","properties":{"c":"MC00023253","o":"SHAUN SPELLISCY: 100.000%","e":"2028-04-08"},"geometry":{"type":"Polygon","coordinates":[[[-104.06747,54.73344],[-104.06747,54.73705],[-104.06747,54.74066],[-104.06747,54.74428],[-104.06747,54.74789],[-104.06747,54.75151],[-104.06747,54.75512],[-104.06747,54.75873],[-104.06125,54.75873],[-104.05502,54.75873],[-104.0488,54.75873],[-104.04849,54.75873],[-104.0482,54.75873],[-104.04227,54.75873],[-104.03604,54.75873],[-104.02982,54.75873],[-104.0236,54.75873],[-104.02329,54.75873],[-104.01706,54.75873],[-104.01084,54.75872],[-104.00462,54.75872],[-103.99904,54.75872],[-103.99839,54.75872],[-103.99839,54.75511],[-103.99839,54.7515],[-103.99839,54.74788],[-103.99839,54.74427],[-103.99839,54.74066],[-103.99839,54.73704],[-103.99839,54.73343],[-103.99839,54.73325],[-104.00462,54.73325],[-104.01084,54.73325],[-104.01706,54.73325],[-104.02329,54.73325],[-104.0236,54.73325],[-104.02982,54.73326],[-104.03604,54.73326],[-104.04227,54.73326],[-104.04849,54.73326],[-104.0488,54.73326],[-104.05502,54.73326],[-104.06125,54.73326],[-104.06747,54.73326],[-104.06747,54.73344]]]}},{"type":"Feature","properties":{"c":"MC00023254","o":"SHAUN SPELLISCY: 100.000%","e":"2028-04-08"},"geometry":{"type":"Polygon","coordinates":[[[-104.11788,54.70432],[-104.11788,54.70794],[-104.11788,54.71155],[-104.11788,54.71517],[-104.11165,54.71517],[-104.10543,54.71517],[-104.09921,54.71518],[-104.0989,54.71518],[-104.09267,54.71518],[-104.08645,54.71518],[-104.08023,54.71518],[-104.074,54.71518],[-104.07369,54.71518],[-104.06747,54.71519],[-104.06747,54.7188],[-104.06747,54.72241],[-104.06747,54.72603],[-104.06747,54.72964],[-104.06747,54.73326],[-104.06125,54.73326],[-104.05502,54.73326],[-104.0488,54.73326],[-104.04849,54.73326],[-104.04227,54.73326],[-104.03604,54.73326],[-104.02982,54.73326],[-104.0236,54.73325],[-104.02329,54.73325],[-104.01706,54.73325],[-104.01084,54.73325],[-104.00462,54.73325],[-103.99839,54.73325],[-103.99839,54.72963],[-103.99839,54.72602],[-103.99839,54.7224],[-103.99839,54.71879],[-103.99839,54.71518],[-103.99839,54.71156],[-103.99839,54.70795],[-103.99839,54.70433],[-103.99839,54.70415],[-104.00462,54.70416],[-104.01084,54.70416],[-104.01706,54.70416],[-104.02329,54.70416],[-104.0236,54.70416],[-104.02982,54.70416],[-104.03604,54.70416],[-104.04227,54.70416],[-104.04849,54.70416],[-104.0488,54.70416],[-104.05502,54.70416],[-104.06125,54.70416],[-104.06747,54.70416],[-104.07369,54.70416],[-104.074,54.70416],[-104.08023,54.70416],[-104.08645,54.70416],[-104.09267,54.70416],[-104.0989,54.70415],[-104.09921,54.70415],[-104.10543,54.70415],[-104.11165,54.70415],[-104.11788,54.70414],[-104.11788,54.70432]]]}},{"type":"Feature","properties":{"c":"MC00023255","o":"SHAUN SPELLISCY: 100.000%","e":"2028-04-08"},"geometry":{"type":"Polygon","coordinates":[[[-104.13686,54.67523],[-104.13686,54.67885],[-104.13686,54.68246],[-104.13686,54.68608],[-104.13686,54.68969],[-104.13686,54.69331],[-104.13686,54.69692],[-104.13686,54.70053],[-104.13063,54.70053],[-104.12441,54.70053],[-104.1241,54.70053],[-104.11788,54.70053],[-104.11788,54.70414],[-104.11165,54.70415],[-104.10543,54.70415],[-104.09921,54.70415],[-104.0989,54.70415],[-104.09267,54.70416],[-104.08645,54.70416],[-104.08023,54.70416],[-104.074,54.70416],[-104.07369,54.70416],[-104.06747,54.70416],[-104.06125,54.70416],[-104.06125,54.70055],[-104.06125,54.69693],[-104.06125,54.69332],[-104.06125,54.68971],[-104.06125,54.68609],[-104.06125,54.68248],[-104.06125,54.67886],[-104.06125,54.67525],[-104.06125,54.67507],[-104.06747,54.67507],[-104.07369,54.67507],[-104.074,54.67507],[-104.08023,54.67507],[-104.08645,54.67506],[-104.09267,54.67506],[-104.0989,54.67506],[-104.09921,54.67506],[-104.10543,54.67506],[-104.11165,54.67505],[-104.11788,54.67505],[-104.1241,54.67505],[-104.12441,54.67505],[-104.13063,54.67505],[-104.13686,54.67505],[-104.13686,54.67523]]]}},{"type":"Feature","properties":{"c":"MC00023256","o":"SHAUN SPELLISCY: 100.000%","e":"2028-04-08"},"geometry":{"type":"Polygon","coordinates":[[[-104.06125,54.67525],[-104.06125,54.67886],[-104.06125,54.68248],[-104.06125,54.68609],[-104.06125,54.68971],[-104.06125,54.69332],[-104.06125,54.69693],[-104.06125,54.70055],[-104.06125,54.70416],[-104.05502,54.70416],[-104.0488,54.70416],[-104.04849,54.70416],[-104.04227,54.70416],[-104.03604,54.70416],[-104.02982,54.70416],[-104.0236,54.70416],[-104.02329,54.70416],[-104.01706,54.70416],[-104.01084,54.70416],[-104.00462,54.70416],[-103.99839,54.70415],[-103.99839,54.70054],[-103.99839,54.69693],[-103.99839,54.69331],[-103.99839,54.6897],[-103.99839,54.68608],[-103.99839,54.68247],[-103.99839,54.67885],[-103.99839,54.67524],[-103.99839,54.67506],[-104.00462,54.67506],[-104.01084,54.67506],[-104.01706,54.67507],[-104.02329,54.67507],[-104.0236,54.67507],[-104.02982,54.67507],[-104.03604,54.67507],[-104.04227,54.67507],[-104.04849,54.67507],[-104.0488,54.67507],[-104.05502,54.67507],[-104.06125,54.67507],[-104.06125,54.67525]]]}},{"type":"Feature","properties":{"c":"MC00023907","o":"Searchlight Resources Inc.: 100.000%","e":"2028-10-04"},"geometry":{"type":"Polygon","coordinates":[[[-104.02165,54.92604],[-104.02793,54.92604],[-104.02793,54.92965],[-104.0342,54.92965],[-104.04048,54.92965],[-104.04079,54.92966],[-104.04707,54.92966],[-104.05335,54.92966],[-104.05962,54.92966],[-104.0659,54.92966],[-104.06621,54.92966],[-104.06621,54.93327],[-104.06621,54.93689],[-104.07249,54.93689],[-104.07877,54.93688],[-104.08504,54.93688],[-104.08504,54.93327],[-104.09132,54.93327],[-104.09164,54.93327],[-104.09791,54.93327],[-104.09791,54.93688],[-104.09791,54.93706],[-104.09791,54.94068],[-104.09164,54.94068],[-104.09132,54.94068],[-104.08504,54.94068],[-104.07877,54.94068],[-104.07249,54.94068],[-104.06621,54.94068],[-104.0659,54.94068],[-104.05962,54.94068],[-104.05335,54.94068],[-104.05335,54.93707],[-104.05335,54.93688],[-104.05335,54.93327],[-104.04707,54.93327],[-104.04079,54.93327],[-104.04048,54.93327],[-104.0342,54.93327],[-104.02793,54.93327],[-104.02165,54.93326],[-104.01537,54.93326],[-104.01506,54.93326],[-104.00878,54.93326],[-104.0025,54.93325],[-103.99623,54.93325],[-103.98995,54.93325],[-103.98964,54.93325],[-103.98336,54.93325],[-103.98336,54.92964],[-103.98336,54.92602],[-103.98336,54.92241],[-103.98964,54.92241],[-103.98995,54.92241],[-103.99623,54.92241],[-104.0025,54.92241],[-104.0025,54.92603],[-104.0025,54.92964],[-104.00878,54.92964],[-104.01506,54.92965],[-104.01537,54.92965],[-104.01537,54.92603],[-104.01537,54.92242],[-104.02165,54.92242],[-104.02165,54.92604]]]}},{"type":"Feature","properties":{"c":"MC00023908","o":"Searchlight Resources Inc.: 100.000%","e":"2028-10-04"},"geometry":{"type":"Polygon","coordinates":[[[-104.0025,54.90055],[-104.0025,54.90416],[-104.0025,54.90778],[-104.0025,54.90796],[-104.0025,54.91157],[-104.0025,54.91519],[-104.0025,54.9188],[-104.0025,54.92241],[-103.99623,54.92241],[-103.98995,54.92241],[-103.98964,54.92241],[-103.98336,54.92241],[-103.98336,54.9188],[-103.98336,54.91518],[-103.98336,54.91157],[-103.98336,54.90795],[-103.98336,54.90777],[-103.98336,54.90416],[-103.97708,54.90416],[-103.97708,54.90055],[-103.97708,54.89694],[-103.98336,54.89693],[-103.98964,54.89693],[-103.98995,54.89693],[-103.99623,54.89693],[-104.0025,54.89693],[-104.0025,54.90055]]]}},{"type":"Feature","properties":{"c":"MC00024048","o":"FULL MOON RESOURCES  LTD: 100.000%","e":"2028-11-04"},"geometry":{"type":"Polygon","coordinates":[[[-104.24416,54.96597],[-104.25044,54.96597],[-104.25672,54.96597],[-104.25672,54.96615],[-104.25672,54.96977],[-104.25672,54.97338],[-104.25672,54.97699],[-104.25672,54.98061],[-104.25672,54.98422],[-104.25672,54.98784],[-104.25672,54.99145],[-104.25672,54.99506],[-104.25044,54.99507],[-104.24416,54.99507],[-104.24385,54.99507],[-104.23757,54.99507],[-104.2313,54.99507],[-104.22502,54.99507],[-104.21874,54.99507],[-104.21843,54.99507],[-104.21215,54.99507],[-104.21215,54.99146],[-104.21215,54.98784],[-104.21215,54.98423],[-104.21215,54.98061],[-104.21215,54.977],[-104.21215,54.97339],[-104.21215,54.96977],[-104.21843,54.96977],[-104.21874,54.96977],[-104.21874,54.96616],[-104.21874,54.96598],[-104.21874,54.96236],[-104.22502,54.96236],[-104.2313,54.96236],[-104.23757,54.96236],[-104.24385,54.96236],[-104.24416,54.96236],[-104.24416,54.96597]]]}},{"type":"Feature","properties":{"c":"MC00024049","o":"FULL MOON RESOURCES  LTD: 100.000%","e":"2028-11-08"},"geometry":{"type":"Polygon","coordinates":[[[-104.11706,54.91881],[-104.11706,54.92242],[-104.11674,54.92242],[-104.11047,54.92242],[-104.10419,54.92242],[-104.09791,54.92243],[-104.09791,54.92604],[-104.09791,54.92965],[-104.09164,54.92966],[-104.09132,54.92966],[-104.08505,54.92966],[-104.07877,54.92966],[-104.07249,54.92966],[-104.06621,54.92966],[-104.0659,54.92966],[-104.05962,54.92966],[-104.05335,54.92966],[-104.04707,54.92966],[-104.04707,54.92604],[-104.05335,54.92604],[-104.05335,54.92243],[-104.05962,54.92243],[-104.0659,54.92243],[-104.06621,54.92243],[-104.07249,54.92243],[-104.07877,54.92243],[-104.08505,54.92243],[-104.09132,54.92243],[-104.09164,54.92243],[-104.09164,54.91881],[-104.09164,54.9152],[-104.09791,54.9152],[-104.10419,54.9152],[-104.11047,54.91519],[-104.11674,54.91519],[-104.11706,54.91519],[-104.11706,54.91881]]]}}]}