{"type":"FeatureCollection","features":[{"type":"Feature","properties":{"c":"MC00023427","o":"GEM OIL INC.: 100.000%","e":"2028-05-26"},"geometry":{"type":"Polygon","coordinates":[[[-106.54619,58.928],[-106.55314,58.928],[-106.55314,58.93161],[-106.55314,58.93522],[-106.54619,58.93522],[-106.53923,58.93522],[-106.53923,58.93883],[-106.53888,58.93883],[-106.53193,58.93882],[-106.53193,58.94244],[-106.53888,58.94244],[-106.53923,58.94244],[-106.54619,58.94244],[-106.54619,58.94605],[-106.54619,58.94967],[-106.54466,58.94966],[-106.54431,58.94966],[-106.53923,58.94966],[-106.53888,58.94966],[-106.53729,58.94966],[-106.53193,58.94966],[-106.53026,58.94966],[-106.52498,58.94966],[-106.52324,58.94965],[-106.51802,58.94965],[-106.51621,58.94965],[-106.51586,58.94965],[-106.51107,58.94965],[-106.51072,58.94965],[-106.50883,58.94965],[-106.50376,58.94965],[-106.50376,58.94604],[-106.50376,58.94243],[-106.51072,58.94242],[-106.51107,58.94242],[-106.51802,58.94243],[-106.51802,58.93882],[-106.52498,58.93882],[-106.52498,58.93521],[-106.53193,58.93521],[-106.53193,58.9316],[-106.53888,58.9316],[-106.53923,58.9316],[-106.53923,58.92799],[-106.54619,58.928]]]}}]}