{"type":"FeatureCollection","features":[{"type":"Feature","properties":{"c":"CBS 7794","o":"CAMECO CORPORATION: 100.000%","e":"2044-02-28"},"geometry":{"type":"Polygon","coordinates":[[[-108.0,58.0],[-107.0,58.0],[-108.0,58.0],[-108.0,58.0]]]}},{"type":"Feature","properties":{"c":"S-105677","o":"CAMECO CORPORATION: 100.000%","e":"2045-01-06"},"geometry":{"type":"Polygon","coordinates":[[[-107.0,58.0],[-107.0,58.0],[-108.0,58.0],[-107.0,58.0]]]}},{"type":"Feature","properties":{"c":"S-105678","o":"CAMECO CORPORATION: 100.000%","e":"2045-01-06"},"geometry":{"type":"Polygon","coordinates":[[[-107.0,58.0],[-108.0,58.0],[-108.0,58.0],[-107.0,58.0]]]}},{"type":"Feature","properties":{"c":"S-105679","o":"CAMECO CORPORATION: 100.000%","e":"2045-01-06"},"geometry":{"type":"Polygon","coordinates":[[[-107.0,58.0],[-108.0,58.0],[-108.0,58.0],[-107.0,58.0]]]}},{"type":"Feature","properties":{"c":"S-107737","o":"CAMECO CORPORATION: 100.000%","e":"2044-05-02"},"geometry":{"type":"Polygon","coordinates":[[[-107.0,58.0],[-108.0,58.0],[-107.0,58.0],[-107.0,58.0]]]}},{"type":"Feature","properties":{"c":"S-111419","o":"CAMECO CORPORATION: 100.000%","e":"2045-09-02"},"geometry":{"type":"Polygon","coordinates":[[[-108.0,57.0],[-108.0,58.0],[-107.0,58.0],[-108.0,57.0]]]}},{"type":"Feature","properties":{"c":"MC00017594","o":"EAGLE PLAINS RESOURCES LTD.: 100.000%","e":"2029-12-13"},"geometry":{"type":"Polygon","coordinates":[[[-107.0,58.0],[-107.0,58.0],[-108.0,58.0],[-107.0,58.0]]]}},{"type":"Feature","properties":{"c":"MC00017598","o":"EAGLE PLAINS RESOURCES LTD.: 100.000%","e":"2029-12-13"},"geometry":{"type":"Polygon","coordinates":[[[-107.0,58.0],[-107.0,58.0],[-108.0,58.0],[-107.0,58.0]]]}},{"type":"Feature","properties":{"c":"MC00017599","o":"EAGLE PLAINS RESOURCES LTD.: 100.000%","e":"2029-12-13"},"geometry":{"type":"Polygon","coordinates":[[[-107.0,58.0],[-107.0,58.0],[-108.0,58.0],[-107.0,58.0]]]}},{"type":"Feature","properties":{"c":"MC00017600","o":"EAGLE PLAINS RESOURCES LTD.: 100.000%","e":"2029-12-13"},"geometry":{"type":"Polygon","coordinates":[[[-107.0,58.0],[-107.0,58.0],[-108.0,58.0],[-107.0,58.0]]]}},{"type":"Feature","properties":{"c":"MC00017604","o":"EAGLE PLAINS RESOURCES LTD.: 100.000%","e":"2029-12-13"},"geometry":{"type":"Polygon","coordinates":[[[-107.0,58.0],[-107.0,58.0],[-108.0,58.0],[-107.0,58.0]]]}},{"type":"Feature","properties":{"c":"MC00017620","o":"EAGLE PLAINS RESOURCES LTD.: 100.000%","e":"2029-12-13"},"geometry":{"type":"Polygon","coordinates":[[[-107.0,58.0],[-108.0,58.0],[-108.0,58.0],[-107.0,58.0]]]}},{"type":"Feature","properties":{"c":"MC00017639","o":"EAGLE PLAINS RESOURCES LTD.: 100.000%","e":"2029-12-17"},"geometry":{"type":"Polygon","coordinates":[[[-108.0,58.0],[-107.0,58.0],[-108.0,58.0],[-108.0,58.0]]]}},{"type":"Feature","properties":{"c":"MC00022844","o":"EAGLE PLAINS RESOURCES LTD.: 100.000%","e":"2028-11-16"},"geometry":{"type":"Polygon","coordinates":[[[-107.0,58.0],[-108.0,58.0],[-108.0,58.0],[-107.0,58.0]]]}},{"type":"Feature","properties":{"c":"MC00022867","o":"GEM OIL INC.: 100.000%","e":"2027-11-17"},"geometry":{"type":"Polygon","coordinates":[[[-107.0,58.0],[-107.0,58.0],[-108.0,58.0],[-107.0,58.0]]]}},{"type":"Feature","properties":{"c":"MC00022872","o":"GEM OIL INC.: 100.000%","e":"2027-11-17"},"geometry":{"type":"Polygon","coordinates":[[[-107.0,58.0],[-107.0,58.0],[-108.0,58.0],[-107.0,58.0]]]}},{"type":"Feature","properties":{"c":"MC00023395","o":"Evan L Bell: 100.000%","e":"2028-05-04"},"geometry":{"type":"Polygon","coordinates":[[[-108.0,58.0],[-107.0,58.0],[-108.0,58.0],[-108.0,58.0]]]}},{"type":"Feature","properties":{"c":"MC00023406","o":"Harrison Owen Cookenboo: 100.000%","e":"2028-05-10"},"geometry":{"type":"Polygon","coordinates":[[[-108.0,58.0],[-107.0,58.0],[-107.0,57.0],[-108.0,58.0]]]}},{"type":"Feature","properties":{"c":"MC00019523","o":"Doctors Investment Group Ltd.: 100.000%","e":"2027-02-09"},"geometry":{"type":"Polygon","coordinates":[[[-108.0,57.0],[-108.0,58.0],[-107.0,57.0],[-108.0,57.0]]]}}]}