{"type":"FeatureCollection","features":[{"type":"Feature","properties":{"c":"MC00001968","o":"F4 Uranium Corp.: 100.000%","e":"2028-11-07"},"geometry":{"type":"Polygon","coordinates":[[[-108.0,59.0],[-108.0,59.0],[-108.0,59.0],[-108.0,59.0]]]}},{"type":"Feature","properties":{"c":"MC00003814","o":"CANALASKA URANIUM LTD.: 100.000%","e":"2029-10-07"},"geometry":{"type":"Polygon","coordinates":[[[-108.0,59.0],[-108.0,59.0],[-108.0,59.0],[-108.0,59.0]]]}},{"type":"Feature","properties":{"c":"MC00003815","o":"CANALASKA URANIUM LTD.: 100.000%","e":"2027-10-07"},"geometry":{"type":"MultiPolygon","coordinates":[[[[-108.0,59.0],[-108.0,59.0],[-108.0,59.0],[-108.0,59.0]]],[[[-108.0,59.0],[-108.0,59.0],[-108.0,59.0],[-108.0,59.0]]],[[[-108.0,59.0],[-108.0,59.0],[-108.0,59.0],[-108.0,59.0]]]]}},{"type":"Feature","properties":{"c":"MC00003817","o":"CANALASKA URANIUM LTD.: 100.000%","e":"2026-10-07"},"geometry":{"type":"Polygon","coordinates":[[[-108.0,59.0],[-109.0,59.0],[-109.0,59.0],[-108.0,59.0]]]}},{"type":"Feature","properties":{"c":"MC00003820","o":"CANALASKA URANIUM LTD.: 100.000%","e":"2027-10-07"},"geometry":{"type":"Polygon","coordinates":[[[-108.0,59.0],[-108.0,59.0],[-108.0,59.0],[-108.0,59.0]]]}},{"type":"Feature","properties":{"c":"MC00003821","o":"CANALASKA URANIUM LTD.: 100.000%","e":"2026-10-07"},"geometry":{"type":"Polygon","coordinates":[[[-108.0,59.0],[-108.0,59.0],[-108.0,59.0],[-108.0,59.0]]]}},{"type":"Feature","properties":{"c":"MC00004252","o":"CANALASKA URANIUM LTD.: 100.000%","e":"2027-03-30"},"geometry":{"type":"MultiPolygon","coordinates":[[[[-108.0,59.0],[-108.0,59.0],[-108.0,59.0],[-108.0,59.0]]],[[[-109.0,59.0],[-109.0,59.0],[-109.0,59.0],[-109.0,59.0]]],[[[-108.0,59.0],[-108.0,59.0],[-108.0,59.0],[-108.0,59.0]]],[[[-108.0,59.0],[-108.0,59.0],[-108.0,59.0],[-108.0,59.0]]],[[[-108.0,59.0],[-108.0,59.0],[-108.0,59.0],[-108.0,59.0]]],[[[-108.0,59.0],[-108.0,59.0],[-108.0,59.0],[-108.0,59.0]]],[[[-108.0,59.0],[-108.0,59.0],[-108.0,59.0],[-108.0,59.0]]],[[[-108.0,59.0],[-108.0,59.0],[-108.0,59.0],[-108.0,59.0]]],[[[-108.0,59.0],[-108.0,59.0],[-108.0,59.0],[-108.0,59.0]]],[[[-109.0,59.0],[-109.0,59.0],[-109.0,59.0],[-109.0,59.0]]],[[[-109.0,59.0],[-109.0,59.0],[-109.0,59.0],[-109.0,59.0]]],[[[-109.0,59.0],[-109.0,59.0],[-109.0,59.0],[-109.0,59.0]]],[[[-109.0,59.0],[-108.0,59.0],[-109.0,59.0],[-109.0,59.0]]],[[[-108.0,59.0],[-108.0,59.0],[-108.0,59.0],[-108.0,59.0]]]]}},{"type":"Feature","properties":{"c":"MC00004254","o":"CANALASKA URANIUM LTD.: 100.000%","e":"2030-03-30"},"geometry":{"type":"MultiPolygon","coordinates":[[[[-108.0,59.0],[-108.0,59.0],[-108.0,59.0],[-108.0,59.0]]],[[[-108.0,59.0],[-108.0,59.0],[-108.0,59.0],[-108.0,59.0]]],[[[-108.0,59.0],[-108.0,59.0],[-108.0,59.0],[-108.0,59.0]]],[[[-108.0,59.0],[-108.0,59.0],[-108.0,59.0],[-108.0,59.0]]],[[[-108.0,59.0],[-108.0,59.0],[-108.0,59.0],[-108.0,59.0]]],[[[-108.0,59.0],[-108.0,59.0],[-108.0,59.0],[-108.0,59.0]]],[[[-108.0,59.0],[-108.0,59.0],[-108.0,59.0],[-108.0,59.0]]],[[[-108.0,59.0],[-108.0,59.0],[-108.0,59.0],[-108.0,59.0]]],[[[-108.0,59.0],[-108.0,59.0],[-108.0,59.0],[-108.0,59.0]]],[[[-108.0,59.0],[-108.0,59.0],[-108.0,59.0],[-108.0,59.0]]],[[[-108.0,59.0],[-108.0,59.0],[-108.0,59.0],[-108.0,59.0]]],[[[-108.0,59.0],[-108.0,59.0],[-108.0,59.0],[-108.0,59.0]]],[[[-108.0,59.0],[-108.0,59.0],[-108.0,59.0],[-108.0,59.0]]]]}},{"type":"Feature","properties":{"c":"S-111634","o":"Atha Energy Corp.: 100.000%","e":"2034-11-29"},"geometry":{"type":"Polygon","coordinates":[[[-108.0,60.0],[-108.0,60.0],[-108.0,59.0],[-108.0,60.0]]]}},{"type":"Feature","properties":{"c":"MC00010338","o":"F4 Uranium Corp.: 100.000%","e":"2033-04-11"},"geometry":{"type":"Polygon","coordinates":[[[-107.0,59.0],[-108.0,59.0],[-108.0,59.0],[-107.0,59.0]]]}},{"type":"Feature","properties":{"c":"MC00010341","o":"F4 Uranium Corp.: 100.000%","e":"2033-04-11"},"geometry":{"type":"Polygon","coordinates":[[[-108.0,59.0],[-108.0,59.0],[-108.0,59.0],[-108.0,59.0]]]}},{"type":"Feature","properties":{"c":"MC00010324","o":"F4 Uranium Corp.: 100.000%","e":"2029-03-27"},"geometry":{"type":"Polygon","coordinates":[[[-108.0,59.0],[-108.0,60.0],[-108.0,59.0],[-108.0,59.0]]]}},{"type":"Feature","properties":{"c":"MC00010329","o":"F4 Uranium Corp.: 100.000%","e":"2029-03-27"},"geometry":{"type":"Polygon","coordinates":[[[-108.0,59.0],[-108.0,59.0],[-108.0,59.0],[-108.0,59.0]]]}},{"type":"Feature","properties":{"c":"MC00010330","o":"F4 Uranium Corp.: 100.000%","e":"2029-03-27"},"geometry":{"type":"Polygon","coordinates":[[[-108.0,59.0],[-108.0,59.0],[-108.0,59.0],[-108.0,59.0]]]}},{"type":"Feature","properties":{"c":"S-106690","o":"7153945 CANADA INC.: 100.000%","e":"2041-05-22"},"geometry":{"type":"Polygon","coordinates":[[[-108.0,59.0],[-109.0,59.0],[-108.0,59.0],[-108.0,59.0]]]}},{"type":"Feature","properties":{"c":"S-107903","o":"NEPTUNE ENERGY CORP.: 100.000%","e":"2030-03-09"},"geometry":{"type":"Polygon","coordinates":[[[-108.0,59.0],[-108.0,60.0],[-108.0,60.0],[-108.0,59.0]]]}},{"type":"Feature","properties":{"c":"MC00012405","o":"F4 Uranium Corp.: 100.000%","e":"2028-12-31"},"geometry":{"type":"Polygon","coordinates":[[[-108.0,60.0],[-108.0,60.0],[-108.0,59.0],[-108.0,60.0]]]}},{"type":"Feature","properties":{"c":"MC00012778","o":"F4 Uranium Corp.: 100.000%","e":"2033-07-08"},"geometry":{"type":"Polygon","coordinates":[[[-108.0,59.0],[-108.0,59.0],[-108.0,59.0],[-108.0,59.0]]]}},{"type":"Feature","properties":{"c":"MC00014620","o":"Geiger Energy Corporation: 100.000%","e":"2030-05-30"},"geometry":{"type":"Polygon","coordinates":[[[-107.0,59.0],[-107.0,59.0],[-108.0,59.0],[-107.0,59.0]]]}},{"type":"Feature","properties":{"c":"MC00015020","o":"Appia Rare Earths & Uranium Corp.: 100.000%","e":"2046-11-14"},"geometry":{"type":"Polygon","coordinates":[[[-108.0,59.0],[-108.0,60.0],[-108.0,60.0],[-108.0,59.0]]]}},{"type":"Feature","properties":{"c":"MC00015021","o":"Appia Rare Earths & Uranium Corp.: 100.000%","e":"2046-11-14"},"geometry":{"type":"Polygon","coordinates":[[[-108.0,59.0],[-108.0,59.0],[-108.0,60.0],[-108.0,59.0]]]}},{"type":"Feature","properties":{"c":"MC00015303","o":"Atha Energy Corp.: 100.000%","e":"2026-12-22"},"geometry":{"type":"Polygon","coordinates":[[[-108.0,59.0],[-108.0,60.0],[-108.0,59.0],[-108.0,59.0]]]}},{"type":"Feature","properties":{"c":"MC00015304","o":"Atha Energy Corp.: 100.000%","e":"2026-12-22"},"geometry":{"type":"Polygon","coordinates":[[[-108.0,59.0],[-108.0,59.0],[-108.0,59.0],[-108.0,59.0]]]}},{"type":"Feature","properties":{"c":"S-113341","o":"7153945 CANADA INC.: 100.000%","e":"2041-12-16"},"geometry":{"type":"Polygon","coordinates":[[[-108.0,59.0],[-108.0,59.0],[-108.0,59.0],[-108.0,59.0]]]}},{"type":"Feature","properties":{"c":"S-113340","o":"7153945 CANADA INC.: 100.000%","e":"2041-12-17"},"geometry":{"type":"Polygon","coordinates":[[[-108.0,59.0],[-108.0,59.0],[-108.0,59.0],[-108.0,59.0]]]}},{"type":"Feature","properties":{"c":"S-113339","o":"7153945 CANADA INC.: 100.000%","e":"2048-12-17"},"geometry":{"type":"Polygon","coordinates":[[[-108.0,59.0],[-108.0,59.0],[-108.0,59.0],[-108.0,59.0]]]}},{"type":"Feature","properties":{"c":"S-113337","o":"7153945 CANADA INC.: 100.000%","e":"2060-11-20"},"geometry":{"type":"Polygon","coordinates":[[[-108.0,59.0],[-108.0,59.0],[-108.0,59.0],[-108.0,59.0]]]}},{"type":"Feature","properties":{"c":"MC00017110","o":"EAGLE PLAINS RESOURCES LTD.: 100.000%","e":"2028-07-18"},"geometry":{"type":"Polygon","coordinates":[[[-108.0,59.0],[-108.0,59.0],[-108.0,59.0],[-108.0,59.0]]]}},{"type":"Feature","properties":{"c":"S-113381","o":"7153945 CANADA INC.: 100.000%","e":"2041-03-21"},"geometry":{"type":"Polygon","coordinates":[[[-108.0,59.0],[-109.0,59.0],[-109.0,59.0],[-108.0,59.0]],[[-109.0,59.0],[-109.0,59.0],[-109.0,59.0],[-109.0,59.0]],[[-109.0,59.0],[-109.0,59.0],[-109.0,59.0],[-109.0,59.0]]]}},{"type":"Feature","properties":{"c":"MC00017304","o":"EAGLE PLAINS RESOURCES LTD.: 100.000%","e":"2026-09-03"},"geometry":{"type":"Polygon","coordinates":[[[-109.0,60.0],[-108.0,60.0],[-108.0,59.0],[-109.0,60.0]]]}},{"type":"Feature","properties":{"c":"MC00017683","o":"7153945 CANADA INC.: 100.000%","e":"2041-12-31"},"geometry":{"type":"Polygon","coordinates":[[[-108.0,59.0],[-109.0,60.0],[-109.0,60.0],[-108.0,59.0]]]}},{"type":"Feature","properties":{"c":"MC00017988","o":"EAGLE PLAINS RESOURCES LTD.: 100.000%","e":"2029-03-01"},"geometry":{"type":"Polygon","coordinates":[[[-108.0,59.0],[-108.0,59.0],[-108.0,59.0],[-108.0,59.0]]]}},{"type":"Feature","properties":{"c":"MC00017992","o":"EAGLE PLAINS RESOURCES LTD.: 100.000%","e":"2029-03-05"},"geometry":{"type":"Polygon","coordinates":[[[-108.0,59.0],[-108.0,59.0],[-108.0,59.0],[-108.0,59.0]]]}},{"type":"Feature","properties":{"c":"MC00017994","o":"EAGLE PLAINS RESOURCES LTD.: 100.000%","e":"2029-03-05"},"geometry":{"type":"Polygon","coordinates":[[[-108.0,59.0],[-108.0,59.0],[-108.0,59.0],[-108.0,59.0]]]}},{"type":"Feature","properties":{"c":"MC00015672","o":"Appia Rare Earths & Uranium Corp.: 100.000%","e":"2027-02-10"},"geometry":{"type":"Polygon","coordinates":[[[-107.0,59.0],[-107.0,59.0],[-108.0,59.0],[-107.0,59.0]]]}},{"type":"Feature","properties":{"c":"MC00015671","o":"Appia Rare Earths & Uranium Corp.: 100.000%","e":"2027-02-10"},"geometry":{"type":"Polygon","coordinates":[[[-107.0,59.0],[-107.0,59.0],[-108.0,59.0],[-107.0,59.0]]]}},{"type":"Feature","properties":{"c":"MC00014994","o":"F4 Uranium Corp.: 100.000%","e":"2033-11-01"},"geometry":{"type":"Polygon","coordinates":[[[-108.0,59.0],[-108.0,59.0],[-108.0,59.0],[-108.0,59.0]]]}},{"type":"Feature","properties":{"c":"MC00014995","o":"F4 Uranium Corp.: 100.000%","e":"2033-11-01"},"geometry":{"type":"Polygon","coordinates":[[[-108.0,59.0],[-108.0,59.0],[-108.0,59.0],[-108.0,59.0]]]}},{"type":"Feature","properties":{"c":"MC00019371","o":"Atha Energy Corp.: 100.000%","e":"2027-08-04"},"geometry":{"type":"Polygon","coordinates":[[[-108.0,59.0],[-108.0,59.0],[-108.0,59.0],[-108.0,59.0]]]}},{"type":"Feature","properties":{"c":"MC00019372","o":"Atha Energy Corp.: 100.000%","e":"2027-08-04"},"geometry":{"type":"Polygon","coordinates":[[[-108.0,59.0],[-108.0,59.0],[-108.0,59.0],[-108.0,59.0]]]}},{"type":"Feature","properties":{"c":"MC00019373","o":"Atha Energy Corp.: 100.000%","e":"2027-08-04"},"geometry":{"type":"Polygon","coordinates":[[[-108.0,59.0],[-108.0,59.0],[-108.0,59.0],[-108.0,59.0]]]}},{"type":"Feature","properties":{"c":"MC00019374","o":"Atha Energy Corp.: 100.000%","e":"2027-08-04"},"geometry":{"type":"Polygon","coordinates":[[[-108.0,59.0],[-108.0,59.0],[-108.0,59.0],[-108.0,59.0]]]}},{"type":"Feature","properties":{"c":"MC00019375","o":"Atha Energy Corp.: 100.000%","e":"2027-08-04"},"geometry":{"type":"Polygon","coordinates":[[[-108.0,59.0],[-108.0,59.0],[-108.0,59.0],[-108.0,59.0]]]}},{"type":"Feature","properties":{"c":"MC00019377","o":"Atha Energy Corp.: 100.000%","e":"2027-08-04"},"geometry":{"type":"Polygon","coordinates":[[[-107.0,59.0],[-107.0,59.0],[-108.0,59.0],[-107.0,59.0]]]}},{"type":"Feature","properties":{"c":"MC00019380","o":"Atha Energy Corp.: 100.000%","e":"2027-08-02"},"geometry":{"type":"Polygon","coordinates":[[[-107.0,59.0],[-107.0,59.0],[-108.0,59.0],[-107.0,59.0]]]}},{"type":"Feature","properties":{"c":"MC00019381","o":"Atha Energy Corp.: 100.000%","e":"2027-08-02"},"geometry":{"type":"Polygon","coordinates":[[[-108.0,59.0],[-108.0,59.0],[-108.0,59.0],[-108.0,59.0]]]}},{"type":"Feature","properties":{"c":"MC00019382","o":"Atha Energy Corp.: 100.000%","e":"2027-08-02"},"geometry":{"type":"Polygon","coordinates":[[[-108.0,59.0],[-108.0,59.0],[-108.0,59.0],[-108.0,59.0]]]}},{"type":"Feature","properties":{"c":"MC00019383","o":"Atha Energy Corp.: 100.000%","e":"2027-08-02"},"geometry":{"type":"Polygon","coordinates":[[[-108.0,59.0],[-108.0,59.0],[-108.0,59.0],[-108.0,59.0]]]}},{"type":"Feature","properties":{"c":"MC00019388","o":"Atha Energy Corp.: 100.000%","e":"2027-08-04"},"geometry":{"type":"Polygon","coordinates":[[[-108.0,59.0],[-108.0,59.0],[-108.0,59.0],[-108.0,59.0]]]}},{"type":"Feature","properties":{"c":"MC00019398","o":"Atha Energy Corp.: 100.000%","e":"2027-07-28"},"geometry":{"type":"Polygon","coordinates":[[[-107.0,59.0],[-108.0,59.0],[-108.0,59.0],[-107.0,59.0]]]}},{"type":"Feature","properties":{"c":"MC00019401","o":"Atha Energy Corp.: 100.000%","e":"2027-07-28"},"geometry":{"type":"Polygon","coordinates":[[[-107.0,59.0],[-108.0,59.0],[-108.0,59.0],[-107.0,59.0]]]}},{"type":"Feature","properties":{"c":"MC00019405","o":"Atha Energy Corp.: 100.000%","e":"2027-07-28"},"geometry":{"type":"Polygon","coordinates":[[[-108.0,59.0],[-108.0,59.0],[-108.0,59.0],[-108.0,59.0]]]}},{"type":"Feature","properties":{"c":"MC00019406","o":"Atha Energy Corp.: 100.000%","e":"2027-07-28"},"geometry":{"type":"Polygon","coordinates":[[[-108.0,59.0],[-108.0,59.0],[-108.0,59.0],[-108.0,59.0]]]}},{"type":"Feature","properties":{"c":"MC00019409","o":"Atha Energy Corp.: 100.000%","e":"2027-07-26"},"geometry":{"type":"Polygon","coordinates":[[[-108.0,59.0],[-108.0,59.0],[-108.0,59.0],[-108.0,59.0]]]}},{"type":"Feature","properties":{"c":"MC00019410","o":"Atha Energy Corp.: 100.000%","e":"2027-07-26"},"geometry":{"type":"Polygon","coordinates":[[[-108.0,59.0],[-108.0,59.0],[-108.0,59.0],[-108.0,59.0]]]}},{"type":"Feature","properties":{"c":"MC00019821","o":"Appia Rare Earths & Uranium Corp.: 100.000%","e":"2027-01-20"},"geometry":{"type":"Polygon","coordinates":[[[-108.0,59.0],[-108.0,59.0],[-108.0,59.0],[-108.0,59.0]]]}},{"type":"Feature","properties":{"c":"MC00019365","o":"Atha Energy Corp.: 100.000%","e":"2027-08-04"},"geometry":{"type":"Polygon","coordinates":[[[-107.0,59.0],[-107.0,59.0],[-108.0,59.0],[-107.0,59.0]]]}},{"type":"Feature","properties":{"c":"MC00015186","o":"Atha Energy Corp.: 100.000%","e":"2027-12-20"},"geometry":{"type":"Polygon","coordinates":[[[-108.0,59.0],[-108.0,59.0],[-108.0,59.0],[-108.0,59.0]]]}},{"type":"Feature","properties":{"c":"MC00015187","o":"Atha Energy Corp.: 100.000%","e":"2027-12-20"},"geometry":{"type":"Polygon","coordinates":[[[-108.0,59.0],[-108.0,59.0],[-108.0,59.0],[-108.0,59.0]]]}},{"type":"Feature","properties":{"c":"MC00015967","o":"Atha Energy Corp.: 100.000%","e":"2027-09-07"},"geometry":{"type":"Polygon","coordinates":[[[-108.0,59.0],[-108.0,59.0],[-108.0,59.0],[-108.0,59.0]]]}},{"type":"Feature","properties":{"c":"MC00015968","o":"Atha Energy Corp.: 100.000%","e":"2027-09-07"},"geometry":{"type":"Polygon","coordinates":[[[-108.0,59.0],[-108.0,59.0],[-108.0,59.0],[-108.0,59.0]]]}},{"type":"Feature","properties":{"c":"MC00016132","o":"Atha Energy Corp.: 100.000%","e":"2027-11-29"},"geometry":{"type":"Polygon","coordinates":[[[-108.0,59.0],[-108.0,59.0],[-108.0,59.0],[-108.0,59.0]]]}},{"type":"Feature","properties":{"c":"MC00016153","o":"Atha Energy Corp.: 100.000%","e":"2027-11-29"},"geometry":{"type":"Polygon","coordinates":[[[-108.0,59.0],[-108.0,59.0],[-108.0,59.0],[-108.0,59.0]]]}},{"type":"Feature","properties":{"c":"MC00019360","o":"Atha Energy Corp.: 100.000%","e":"2027-12-22"},"geometry":{"type":"Polygon","coordinates":[[[-107.0,59.0],[-108.0,59.0],[-108.0,59.0],[-107.0,59.0]]]}},{"type":"Feature","properties":{"c":"MC00019361","o":"Atha Energy Corp.: 100.000%","e":"2027-12-22"},"geometry":{"type":"Polygon","coordinates":[[[-108.0,59.0],[-108.0,59.0],[-108.0,60.0],[-108.0,59.0]]]}},{"type":"Feature","properties":{"c":"MC00019362","o":"Atha Energy Corp.: 100.000%","e":"2027-12-22"},"geometry":{"type":"Polygon","coordinates":[[[-107.0,59.0],[-107.0,59.0],[-108.0,59.0],[-107.0,59.0]]]}},{"type":"Feature","properties":{"c":"MC00019363","o":"Atha Energy Corp.: 100.000%","e":"2027-08-04"},"geometry":{"type":"Polygon","coordinates":[[[-108.0,59.0],[-107.0,59.0],[-108.0,59.0],[-108.0,59.0]]]}},{"type":"Feature","properties":{"c":"MC00019364","o":"Atha Energy Corp.: 100.000%","e":"2027-08-04"},"geometry":{"type":"Polygon","coordinates":[[[-108.0,59.0],[-108.0,59.0],[-108.0,59.0],[-108.0,59.0]]]}},{"type":"Feature","properties":{"c":"MC00019366","o":"Atha Energy Corp.: 100.000%","e":"2027-12-22"},"geometry":{"type":"Polygon","coordinates":[[[-108.0,59.0],[-108.0,59.0],[-108.0,59.0],[-108.0,59.0]]]}},{"type":"Feature","properties":{"c":"MC00019367","o":"Atha Energy Corp.: 100.000%","e":"2027-12-22"},"geometry":{"type":"Polygon","coordinates":[[[-108.0,59.0],[-108.0,59.0],[-108.0,59.0],[-108.0,59.0]]]}},{"type":"Feature","properties":{"c":"MC00019368","o":"Atha Energy Corp.: 100.000%","e":"2027-08-02"},"geometry":{"type":"Polygon","coordinates":[[[-108.0,59.0],[-108.0,59.0],[-108.0,59.0],[-108.0,59.0]]]}},{"type":"Feature","properties":{"c":"MC00019369","o":"Atha Energy Corp.: 100.000%","e":"2027-08-02"},"geometry":{"type":"Polygon","coordinates":[[[-108.0,59.0],[-108.0,59.0],[-108.0,59.0],[-108.0,59.0]]]}},{"type":"Feature","properties":{"c":"MC00019370","o":"Atha Energy Corp.: 100.000%","e":"2027-08-02"},"geometry":{"type":"Polygon","coordinates":[[[-108.0,59.0],[-108.0,59.0],[-108.0,59.0],[-108.0,59.0]]]}},{"type":"Feature","properties":{"c":"MC00019378","o":"Atha Energy Corp.: 100.000%","e":"2027-12-28"},"geometry":{"type":"Polygon","coordinates":[[[-108.0,59.0],[-108.0,59.0],[-108.0,59.0],[-108.0,59.0]]]}},{"type":"Feature","properties":{"c":"MC00019386","o":"Atha Energy Corp.: 100.000%","e":"2027-08-04"},"geometry":{"type":"Polygon","coordinates":[[[-108.0,59.0],[-108.0,59.0],[-108.0,59.0],[-108.0,59.0]]]}},{"type":"Feature","properties":{"c":"MC00019387","o":"Atha Energy Corp.: 100.000%","e":"2027-08-04"},"geometry":{"type":"Polygon","coordinates":[[[-108.0,59.0],[-108.0,59.0],[-108.0,59.0],[-108.0,59.0]]]}},{"type":"Feature","properties":{"c":"MC00019389","o":"Atha Energy Corp.: 100.000%","e":"2027-07-28"},"geometry":{"type":"Polygon","coordinates":[[[-108.0,59.0],[-108.0,59.0],[-108.0,59.0],[-108.0,59.0]]]}},{"type":"Feature","properties":{"c":"MC00019407","o":"Atha Energy Corp.: 100.000%","e":"2027-07-28"},"geometry":{"type":"Polygon","coordinates":[[[-108.0,59.0],[-107.0,59.0],[-108.0,59.0],[-108.0,59.0]]]}},{"type":"Feature","properties":{"c":"MC00023375","o":"EAGLE PLAINS RESOURCES LTD.: 100.000%","e":"2029-05-05"},"geometry":{"type":"Polygon","coordinates":[[[-108.0,59.0],[-108.0,60.0],[-108.0,60.0],[-108.0,59.0]]]}},{"type":"Feature","properties":{"c":"MC00023390","o":"Jade Checlair: 100.000%","e":"2028-05-04"},"geometry":{"type":"Polygon","coordinates":[[[-108.0,59.0],[-108.0,60.0],[-108.0,59.0],[-108.0,59.0]]]}},{"type":"Feature","properties":{"c":"MC00023391","o":"Jade Checlair: 100.000%","e":"2028-05-04"},"geometry":{"type":"Polygon","coordinates":[[[-108.0,59.0],[-108.0,59.0],[-108.0,60.0],[-108.0,59.0]]]}},{"type":"Feature","properties":{"c":"MC00023392","o":"Jade Checlair: 100.000%","e":"2028-05-04"},"geometry":{"type":"Polygon","coordinates":[[[-108.0,59.0],[-108.0,59.0],[-108.0,59.0],[-108.0,59.0]]]}},{"type":"Feature","properties":{"c":"MC00023396","o":"EAGLE PLAINS RESOURCES LTD.: 100.000%","e":"2028-05-04"},"geometry":{"type":"Polygon","coordinates":[[[-108.0,59.0],[-108.0,59.0],[-108.0,59.0],[-108.0,59.0]]]}},{"type":"Feature","properties":{"c":"MC00023484","o":"Carey Rus Galeschuk: 100.000%","e":"2028-06-09"},"geometry":{"type":"Polygon","coordinates":[[[-108.0,59.0],[-108.0,59.0],[-108.0,59.0],[-108.0,59.0]]]}},{"type":"Feature","properties":{"c":"MC00023541","o":"EAGLE PLAINS RESOURCES LTD.: 100.000%","e":"2028-07-12"},"geometry":{"type":"Polygon","coordinates":[[[-108.0,59.0],[-108.0,59.0],[-108.0,59.0],[-108.0,59.0]]]}},{"type":"Feature","properties":{"c":"MC00023543","o":"EAGLE PLAINS RESOURCES LTD.: 100.000%","e":"2028-07-12"},"geometry":{"type":"Polygon","coordinates":[[[-108.0,59.0],[-108.0,60.0],[-108.0,59.0],[-108.0,59.0]]]}},{"type":"Feature","properties":{"c":"MC00023592","o":"EAGLE PLAINS RESOURCES LTD.: 100.000%","e":"2028-07-13"},"geometry":{"type":"Polygon","coordinates":[[[-108.0,59.0],[-108.0,59.0],[-108.0,59.0],[-108.0,59.0]]]}},{"type":"Feature","properties":{"c":"MC00023598","o":"Leeav Lipton: 100.000%","e":"2028-07-13"},"geometry":{"type":"Polygon","coordinates":[[[-108.0,59.0],[-108.0,59.0],[-108.0,59.0],[-108.0,59.0]]]}},{"type":"Feature","properties":{"c":"MC00013288","o":"F4 Uranium Corp.: 100.000%","e":"2029-02-02"},"geometry":{"type":"Polygon","coordinates":[[[-108.0,59.0],[-108.0,59.0],[-108.0,59.0],[-108.0,59.0]]]}},{"type":"Feature","properties":{"c":"MC00024233","o":"Aditya Iyer: 100.000%","e":"2028-12-23"},"geometry":{"type":"Polygon","coordinates":[[[-108.0,59.0],[-108.0,59.0],[-108.0,59.0],[-108.0,59.0]]]}}]}