{"type":"FeatureCollection","features":[{"type":"Feature","properties":{"c":"MC00024240","o":"GEM OIL INC.: 100.000%","e":"2028-12-23"},"geometry":{"type":"Polygon","coordinates":[[[-108.11168,56.15802],[-108.11788,56.15802],[-108.11812,56.15802],[-108.11845,56.15802],[-108.12439,56.15802],[-108.12489,56.15802],[-108.13089,56.15802],[-108.13134,56.15802],[-108.1374,56.15802],[-108.13755,56.15802],[-108.13772,56.15802],[-108.13778,56.15802],[-108.14422,56.15802],[-108.14423,56.15802],[-108.14455,56.15802],[-108.15073,56.15802],[-108.15099,56.15802],[-108.15723,56.15801],[-108.15744,56.15801],[-108.16016,56.15801],[-108.16207,56.15801],[-108.16374,56.15801],[-108.16388,56.15801],[-108.16406,56.15801],[-108.16406,56.1582],[-108.16406,56.16181],[-108.16406,56.16542],[-108.16406,56.16903],[-108.16406,56.17265],[-108.16406,56.17626],[-108.16406,56.17987],[-108.16406,56.18349],[-108.16406,56.1871],[-108.16374,56.1871],[-108.15723,56.1871],[-108.15073,56.1871],[-108.14422,56.1871],[-108.13772,56.1871],[-108.13739,56.1871],[-108.13089,56.1871],[-108.12439,56.1871],[-108.11788,56.1871],[-108.11138,56.1871],[-108.11138,56.18349],[-108.11138,56.17987],[-108.11138,56.17626],[-108.11138,56.17265],[-108.11138,56.16903],[-108.11138,56.16542],[-108.11138,56.16181],[-108.11138,56.1582],[-108.11138,56.15802],[-108.11168,56.15802]]]}},{"type":"Feature","properties":{"c":"MC00024241","o":"GEM OIL INC.: 100.000%","e":"2028-12-23"},"geometry":{"type":"Polygon","coordinates":[[[-108.11812,56.12894],[-108.11844,56.12894],[-108.12489,56.12894],[-108.13134,56.12894],[-108.13778,56.12894],[-108.14423,56.12893],[-108.14455,56.12893],[-108.15099,56.12893],[-108.15744,56.12893],[-108.16388,56.12893],[-108.16388,56.12911],[-108.16388,56.13272],[-108.16388,56.13634],[-108.16388,56.13995],[-108.16388,56.14356],[-108.16388,56.14718],[-108.16388,56.15079],[-108.16388,56.1544],[-108.16388,56.15801],[-108.16374,56.15801],[-108.16207,56.15801],[-108.16016,56.15801],[-108.15744,56.15801],[-108.15723,56.15801],[-108.15099,56.15802],[-108.15073,56.15802],[-108.14455,56.15802],[-108.14423,56.15802],[-108.14422,56.15802],[-108.13778,56.15802],[-108.13772,56.15802],[-108.13755,56.15802],[-108.1374,56.15802],[-108.13134,56.15802],[-108.13089,56.15802],[-108.12489,56.15802],[-108.12439,56.15802],[-108.11845,56.15802],[-108.11812,56.15802],[-108.11788,56.15802],[-108.11168,56.15802],[-108.11168,56.15441],[-108.11168,56.1508],[-108.11168,56.14718],[-108.11168,56.14357],[-108.11168,56.13996],[-108.11168,56.13634],[-108.11168,56.13273],[-108.11168,56.12912],[-108.11168,56.12894],[-108.11812,56.12894]]]}}]}