{"type":"FeatureCollection","features":[{"type":"Feature","properties":{"c":"M11031","o":"Strategx Elements Corporation (100%)","e":"2028-05-14"},"geometry":{"type":"Polygon","coordinates":[[[-110.0,63.0],[-110.0,63.0],[-110.0,63.0],[-110.0,63.0]]]}},{"type":"Feature","properties":{"c":"M11032","o":"Strategx Elements Corporation (100%)","e":"2028-05-14"},"geometry":{"type":"Polygon","coordinates":[[[-110.0,63.0],[-110.0,63.0],[-110.0,63.0],[-110.0,63.0]]]}},{"type":"Feature","properties":{"c":"M11033","o":"Strategx Elements Corporation (100%)","e":"2028-05-14"},"geometry":{"type":"Polygon","coordinates":[[[-110.0,63.0],[-110.0,63.0],[-110.0,63.0],[-110.0,63.0]]]}},{"type":"Feature","properties":{"c":"M11034","o":"Strategx Elements Corporation (100%)","e":"2028-12-03"},"geometry":{"type":"Polygon","coordinates":[[[-110.0,63.0],[-110.0,63.0],[-110.0,63.0],[-110.0,63.0]]]}},{"type":"Feature","properties":{"c":"M11035","o":"Strategx Elements Corporation (100%)","e":"2028-12-03"},"geometry":{"type":"Polygon","coordinates":[[[-110.0,63.0],[-110.0,63.0],[-110.0,63.0],[-110.0,63.0]]]}},{"type":"Feature","properties":{"c":"M11219","o":"Strategx Elements Corporation (100%)","e":"2029-09-05"},"geometry":{"type":"Polygon","coordinates":[[[-110.0,63.0],[-110.0,63.0],[-110.0,63.0],[-110.0,63.0]]]}},{"type":"Feature","properties":{"c":"M11218","o":"Strategx Elements Corporation (100%)","e":"2029-09-05"},"geometry":{"type":"Polygon","coordinates":[[[-110.0,63.0],[-110.0,63.0],[-110.0,63.0],[-110.0,63.0]]]}},{"type":"Feature","properties":{"c":"M11603","o":"Kennady Diamonds Inc. (100%)","e":"2032-08-03"},"geometry":{"type":"Polygon","coordinates":[[[-110.0,63.0],[-110.0,63.0],[-110.0,63.0],[-110.0,63.0]]]}},{"type":"Feature","properties":{"c":"M11605","o":"Kennady Diamonds Inc. (100%)","e":"2032-08-03"},"geometry":{"type":"Polygon","coordinates":[[[-110.0,63.0],[-110.0,63.0],[-110.0,63.0],[-110.0,63.0]]]}},{"type":"Feature","properties":{"c":"M11606","o":"Kennady Diamonds Inc. (100%)","e":"2032-08-03"},"geometry":{"type":"Polygon","coordinates":[[[-110.0,63.0],[-110.0,63.0],[-110.0,63.0],[-110.0,63.0]]]}},{"type":"Feature","properties":{"c":"M11607","o":"Kennady Diamonds Inc. (100%)","e":"2032-08-03"},"geometry":{"type":"Polygon","coordinates":[[[-110.0,63.0],[-110.0,63.0],[-110.0,63.0],[-110.0,63.0]]]}},{"type":"Feature","properties":{"c":"M11604","o":"Kennady Diamonds Inc. (100%)","e":"2032-08-03"},"geometry":{"type":"Polygon","coordinates":[[[-110.0,63.0],[-110.0,63.0],[-110.0,63.0],[-110.0,63.0]]]}}]}