{"type":"FeatureCollection","features":[{"type":"Feature","properties":{"c":"M11138","o":"Strategx Elements Corporation (100%)","e":"2026-11-22"},"geometry":{"type":"Polygon","coordinates":[[[-110.25865,62.41834],[-110.25898,62.40488],[-110.34605,62.40532],[-110.34576,62.41878],[-110.25865,62.41834]]]}},{"type":"Feature","properties":{"c":"M11139","o":"Strategx Elements Corporation (100%)","e":"2026-11-22"},"geometry":{"type":"Polygon","coordinates":[[[-110.34644,62.38736],[-110.39478,62.38758],[-110.39388,62.43246],[-110.34546,62.43224],[-110.34644,62.38736]]]}},{"type":"Feature","properties":{"c":"M11141","o":"Strategx Elements Corporation (100%)","e":"2026-11-22"},"geometry":{"type":"Polygon","coordinates":[[[-110.39487,62.3831],[-110.45288,62.38334],[-110.4523,62.41475],[-110.39424,62.41451],[-110.39487,62.3831]]]}},{"type":"Feature","properties":{"c":"M12450","o":"Strategx Elements Corporation (100%)","e":"2027-03-03"},"geometry":{"type":"Polygon","coordinates":[[[-110.41069,62.36523],[-110.41113,62.34279],[-110.46906,62.34303],[-110.46866,62.36546],[-110.42035,62.36527],[-110.41069,62.36523]]]}}]}