{"type":"FeatureCollection","features":[{"type":"Feature","properties":{"c":"3711120667","o":"CENOVUS ENERGY INC.","e":""},"geometry":{"type":"Polygon","coordinates":[[[-110.85979,55.56271],[-110.8852,55.56271],[-110.8852,55.57716],[-110.85979,55.57716],[-110.85979,55.56271]]]}},{"type":"Feature","properties":{"c":"9720030099","o":"CANADIAN NATURAL RESOURCES LIMITED","e":""},"geometry":{"type":"MultiPolygon","coordinates":[[[[-110.8852,55.51926],[-110.88519,55.53362],[-110.85979,55.53362],[-110.85979,55.51926],[-110.87896,55.51926],[-110.8852,55.51926]]],[[[-110.85931,55.51926],[-110.85931,55.53362],[-110.83391,55.53362],[-110.83391,55.51926],[-110.85308,55.51926],[-110.85931,55.51926]]]]}}]}