{"type":"FeatureCollection","features":[{"type":"Feature","properties":{"c":"3711120667","o":"CENOVUS ENERGY INC.","e":""},"geometry":{"type":"Polygon","coordinates":[[[-111.0,56.0],[-111.0,56.0],[-111.0,56.0],[-111.0,56.0]]]}},{"type":"Feature","properties":{"c":"9715070240","o":"ATHABASCA OIL CORPORATION","e":""},"geometry":{"type":"Polygon","coordinates":[[[-111.0,56.0],[-111.0,56.0],[-111.0,56.0],[-111.0,56.0]]]}},{"type":"Feature","properties":{"c":"9715070242","o":"ATHABASCA OIL CORPORATION","e":""},"geometry":{"type":"Polygon","coordinates":[[[-111.0,57.0],[-111.0,56.0],[-111.0,56.0],[-111.0,57.0]]]}},{"type":"Feature","properties":{"c":"9715070239","o":"ATHABASCA OIL CORPORATION","e":""},"geometry":{"type":"Polygon","coordinates":[[[-111.0,56.0],[-111.0,56.0],[-111.0,56.0],[-111.0,56.0]]]}},{"type":"Feature","properties":{"c":"9715070241","o":"ATHABASCA OIL CORPORATION","e":""},"geometry":{"type":"Polygon","coordinates":[[[-111.0,56.0],[-111.0,56.0],[-111.0,56.0],[-111.0,56.0]]]}},{"type":"Feature","properties":{"c":"9720030099","o":"CANADIAN NATURAL RESOURCES LIMITED","e":""},"geometry":{"type":"MultiPolygon","coordinates":[[[[-111.0,56.0],[-111.0,56.0],[-111.0,56.0],[-111.0,56.0]]],[[[-111.0,56.0],[-111.0,56.0],[-111.0,56.0],[-111.0,56.0]]]]}},{"type":"Feature","properties":{"c":"9716030200","o":"PURE ENVIRONMENTAL WASTE MANAGEMENT LTD.","e":""},"geometry":{"type":"Polygon","coordinates":[[[-111.0,56.0],[-111.0,56.0],[-111.0,56.0],[-111.0,56.0]]]}}]}