{"type":"FeatureCollection","features":[{"type":"Feature","properties":{"c":"9325070250","o":"ROLAND RESOURCES 2012 INC.","e":""},"geometry":{"type":"MultiPolygon","coordinates":[[[[-112.0,49.0],[-112.0,50.0],[-112.0,50.0],[-112.0,49.0]]],[[[-112.0,49.0],[-112.0,49.0],[-112.0,49.0],[-112.0,49.0]]],[[[-112.0,49.0],[-112.0,49.0],[-112.0,49.0],[-112.0,49.0]]],[[[-112.0,49.0],[-112.0,49.0],[-112.0,49.0],[-112.0,49.0]]],[[[-112.0,49.0],[-112.0,49.0],[-112.0,49.0],[-112.0,49.0]]],[[[-112.0,49.0],[-111.0,49.0],[-112.0,49.0],[-112.0,49.0]]],[[[-112.0,49.0],[-111.0,49.0],[-112.0,49.0],[-112.0,49.0]]],[[[-112.0,49.0],[-112.0,49.0],[-112.0,49.0],[-112.0,49.0]]],[[[-112.0,49.0],[-112.0,49.0],[-112.0,49.0],[-112.0,49.0]]],[[[-112.0,49.0],[-112.0,49.0],[-112.0,49.0],[-112.0,49.0]]],[[[-112.0,49.0],[-112.0,49.0],[-112.0,49.0],[-112.0,49.0]]],[[[-112.0,49.0],[-112.0,49.0],[-112.0,49.0],[-112.0,49.0]]],[[[-112.0,49.0],[-112.0,50.0],[-112.0,50.0],[-112.0,49.0]]],[[[-112.0,49.0],[-112.0,50.0],[-112.0,50.0],[-112.0,49.0]]],[[[-112.0,50.0],[-112.0,50.0],[-112.0,50.0],[-112.0,50.0]]],[[[-112.0,50.0],[-112.0,50.0],[-112.0,50.0],[-112.0,50.0]]],[[[-112.0,50.0],[-112.0,50.0],[-112.0,50.0],[-112.0,50.0]]],[[[-112.0,49.0],[-112.0,50.0],[-112.0,50.0],[-112.0,49.0]]],[[[-112.0,49.0],[-112.0,50.0],[-112.0,50.0],[-112.0,49.0]]],[[[-112.0,49.0],[-112.0,50.0],[-112.0,50.0],[-112.0,49.0]]],[[[-112.0,49.0],[-112.0,50.0],[-112.0,50.0],[-112.0,49.0]]],[[[-112.0,50.0],[-112.0,50.0],[-112.0,50.0],[-112.0,50.0]]]]}},{"type":"Feature","properties":{"c":"9325070252","o":"ROLAND RESOURCES 2012 INC.","e":""},"geometry":{"type":"MultiPolygon","coordinates":[[[[-111.0,49.0],[-111.0,50.0],[-111.0,50.0],[-111.0,49.0]]],[[[-111.0,49.0],[-111.0,49.0],[-111.0,49.0],[-111.0,49.0]]],[[[-111.0,49.0],[-111.0,49.0],[-111.0,49.0],[-111.0,49.0]]],[[[-111.0,49.0],[-111.0,49.0],[-111.0,49.0],[-111.0,49.0]]],[[[-111.0,49.0],[-111.0,49.0],[-111.0,49.0],[-111.0,49.0]]],[[[-111.0,49.0],[-111.0,49.0],[-111.0,49.0],[-111.0,49.0]]],[[[-111.0,49.0],[-111.0,49.0],[-111.0,49.0],[-111.0,49.0]]],[[[-111.0,49.0],[-111.0,49.0],[-111.0,49.0],[-111.0,49.0]]],[[[-111.0,49.0],[-111.0,49.0],[-111.0,49.0],[-111.0,49.0]]],[[[-111.0,49.0],[-111.0,49.0],[-111.0,49.0],[-111.0,49.0]]],[[[-111.0,49.0],[-111.0,49.0],[-111.0,49.0],[-111.0,49.0]]],[[[-111.0,49.0],[-111.0,49.0],[-111.0,49.0],[-111.0,49.0]]],[[[-111.0,49.0],[-111.0,49.0],[-111.0,49.0],[-111.0,49.0]]],[[[-111.0,49.0],[-111.0,50.0],[-111.0,50.0],[-111.0,49.0]]],[[[-111.0,49.0],[-111.0,50.0],[-111.0,50.0],[-111.0,49.0]]],[[[-111.0,49.0],[-111.0,50.0],[-111.0,50.0],[-111.0,49.0]]],[[[-111.0,50.0],[-111.0,50.0],[-111.0,50.0],[-111.0,50.0]]],[[[-111.0,49.0],[-111.0,50.0],[-111.0,50.0],[-111.0,49.0]]],[[[-111.0,50.0],[-111.0,50.0],[-111.0,50.0],[-111.0,50.0]]]]}},{"type":"Feature","properties":{"c":"9325070253","o":"ROLAND RESOURCES 2012 INC.","e":""},"geometry":{"type":"MultiPolygon","coordinates":[[[[-111.0,49.0],[-111.0,49.0],[-111.0,49.0],[-111.0,49.0]]],[[[-111.0,49.0],[-111.0,49.0],[-111.0,49.0],[-111.0,49.0]]],[[[-111.0,49.0],[-111.0,49.0],[-111.0,49.0],[-111.0,49.0]]],[[[-111.0,49.0],[-111.0,49.0],[-111.0,49.0],[-111.0,49.0]]],[[[-111.0,49.0],[-111.0,49.0],[-111.0,49.0],[-111.0,49.0]]],[[[-111.0,49.0],[-111.0,49.0],[-111.0,49.0],[-111.0,49.0]]],[[[-111.0,49.0],[-111.0,49.0],[-111.0,49.0],[-111.0,49.0]]],[[[-111.0,49.0],[-111.0,49.0],[-111.0,49.0],[-111.0,49.0]]],[[[-111.0,49.0],[-111.0,49.0],[-111.0,49.0],[-111.0,49.0]]],[[[-111.0,49.0],[-111.0,49.0],[-111.0,49.0],[-111.0,49.0]]],[[[-111.0,49.0],[-111.0,49.0],[-111.0,49.0],[-111.0,49.0]]],[[[-111.0,49.0],[-111.0,49.0],[-111.0,49.0],[-111.0,49.0]]],[[[-111.0,49.0],[-111.0,49.0],[-111.0,49.0],[-111.0,49.0]]],[[[-111.0,49.0],[-111.0,49.0],[-111.0,49.0],[-111.0,49.0]]],[[[-111.0,49.0],[-111.0,49.0],[-111.0,49.0],[-111.0,49.0]]],[[[-111.0,49.0],[-111.0,49.0],[-111.0,49.0],[-111.0,49.0]]],[[[-111.0,49.0],[-111.0,49.0],[-111.0,49.0],[-111.0,49.0]]],[[[-111.0,49.0],[-111.0,49.0],[-111.0,49.0],[-111.0,49.0]]],[[[-111.0,49.0],[-111.0,49.0],[-111.0,49.0],[-111.0,49.0]]],[[[-111.0,49.0],[-111.0,49.0],[-111.0,49.0],[-111.0,49.0]]],[[[-111.0,49.0],[-111.0,49.0],[-111.0,49.0],[-111.0,49.0]]],[[[-111.0,49.0],[-111.0,50.0],[-111.0,50.0],[-111.0,49.0]]]]}},{"type":"Feature","properties":{"c":"9325070259","o":"ROLAND RESOURCES 2012 INC.","e":""},"geometry":{"type":"MultiPolygon","coordinates":[[[[-111.0,50.0],[-111.0,50.0],[-111.0,50.0],[-111.0,50.0]]],[[[-111.0,49.0],[-111.0,50.0],[-111.0,50.0],[-111.0,49.0]]],[[[-111.0,49.0],[-111.0,50.0],[-111.0,50.0],[-111.0,49.0]]],[[[-111.0,49.0],[-111.0,50.0],[-111.0,50.0],[-111.0,49.0]]],[[[-111.0,50.0],[-111.0,50.0],[-111.0,50.0],[-111.0,50.0]]],[[[-111.0,49.0],[-111.0,50.0],[-111.0,50.0],[-111.0,49.0]]],[[[-111.0,49.0],[-111.0,50.0],[-111.0,50.0],[-111.0,49.0]]],[[[-111.0,49.0],[-111.0,50.0],[-111.0,50.0],[-111.0,49.0]]],[[[-111.0,50.0],[-111.0,50.0],[-111.0,50.0],[-111.0,50.0]]],[[[-111.0,50.0],[-111.0,50.0],[-111.0,50.0],[-111.0,50.0]]],[[[-111.0,50.0],[-111.0,50.0],[-111.0,50.0],[-111.0,50.0]]],[[[-111.0,50.0],[-111.0,50.0],[-111.0,50.0],[-111.0,50.0]]],[[[-111.0,50.0],[-111.0,50.0],[-111.0,50.0],[-111.0,50.0]]],[[[-111.0,50.0],[-111.0,50.0],[-111.0,50.0],[-111.0,50.0]]],[[[-111.0,50.0],[-111.0,50.0],[-111.0,50.0],[-111.0,50.0]]],[[[-111.0,50.0],[-111.0,50.0],[-111.0,50.0],[-111.0,50.0]]],[[[-111.0,50.0],[-111.0,50.0],[-111.0,50.0],[-111.0,50.0]]],[[[-111.0,50.0],[-111.0,50.0],[-111.0,50.0],[-111.0,50.0]]],[[[-111.0,50.0],[-111.0,50.0],[-111.0,50.0],[-111.0,50.0]]],[[[-111.0,50.0],[-111.0,50.0],[-111.0,50.0],[-111.0,50.0]]]]}}]}