{"type":"FeatureCollection","features":[{"type":"Feature","properties":{"c":"3713040314","o":"CANADIAN NATURAL RESOURCES LIMITED","e":""},"geometry":{"type":"MultiPolygon","coordinates":[[[[-111.24773,55.46107],[-111.24773,55.46818],[-111.22217,55.4682],[-111.22216,55.46107],[-111.24378,55.46107],[-111.24773,55.46107]]],[[[-111.23714,55.45377],[-111.23713,55.46088],[-111.21184,55.4608],[-111.21184,55.45367],[-111.23081,55.45375],[-111.23714,55.45377]]]]}},{"type":"Feature","properties":{"c":"9715060239","o":"CANADIAN NATURAL RESOURCES LIMITED","e":""},"geometry":{"type":"Polygon","coordinates":[[[-111.22169,55.46107],[-111.22169,55.4682],[-111.19628,55.46821],[-111.19627,55.46108],[-111.21816,55.46107],[-111.22169,55.46107]]]}},{"type":"Feature","properties":{"c":"9722110173","o":"CANADIAN NATURAL RESOURCES LIMITED","e":""},"geometry":{"type":"MultiPolygon","coordinates":[[[[-111.03191,55.33733],[-111.03192,55.34455],[-111.00673,55.34455],[-111.00673,55.33733],[-111.02574,55.33733],[-111.03191,55.33733]]],[[[-111.03192,55.34482],[-111.03192,55.35196],[-111.00673,55.35196],[-111.00673,55.34483],[-111.02574,55.34482],[-111.03192,55.34482]]]]}}]}