{"type":"FeatureCollection","features":[{"type":"Feature","properties":{"c":"9324040288","o":"THIBAULT, PIERRE","e":""},"geometry":{"type":"MultiPolygon","coordinates":[[[[-112.0,53.0],[-112.0,53.0],[-112.0,53.0],[-112.0,53.0]]],[[[-113.0,53.0],[-113.0,53.0],[-113.0,53.0],[-113.0,53.0]]],[[[-113.0,53.0],[-113.0,53.0],[-113.0,53.0],[-113.0,53.0]]],[[[-113.0,53.0],[-113.0,53.0],[-113.0,53.0],[-113.0,53.0]]],[[[-113.0,53.0],[-113.0,53.0],[-113.0,53.0],[-113.0,53.0]]],[[[-113.0,53.0],[-113.0,53.0],[-113.0,53.0],[-113.0,53.0]]],[[[-113.0,53.0],[-113.0,53.0],[-113.0,53.0],[-113.0,53.0]]],[[[-112.0,53.0],[-112.0,53.0],[-112.0,53.0],[-112.0,53.0]]],[[[-113.0,53.0],[-113.0,53.0],[-113.0,53.0],[-113.0,53.0]]],[[[-112.0,53.0],[-112.0,53.0],[-112.0,53.0],[-112.0,53.0]]],[[[-112.0,53.0],[-112.0,53.0],[-112.0,53.0],[-112.0,53.0]]]]}},{"type":"Feature","properties":{"c":"9324040289","o":"THIBAULT, PIERRE","e":""},"geometry":{"type":"MultiPolygon","coordinates":[[[[-113.0,53.0],[-112.0,53.0],[-113.0,53.0],[-113.0,53.0]]],[[[-112.0,53.0],[-112.0,53.0],[-112.0,53.0],[-112.0,53.0]]],[[[-112.0,53.0],[-112.0,53.0],[-112.0,53.0],[-112.0,53.0]]],[[[-112.0,53.0],[-112.0,53.0],[-112.0,53.0],[-112.0,53.0]]],[[[-112.0,53.0],[-112.0,53.0],[-112.0,53.0],[-112.0,53.0]]],[[[-112.0,53.0],[-112.0,53.0],[-112.0,53.0],[-112.0,53.0]]],[[[-113.0,53.0],[-113.0,53.0],[-113.0,53.0],[-113.0,53.0]]],[[[-112.0,53.0],[-112.0,53.0],[-112.0,53.0],[-112.0,53.0]]],[[[-112.0,53.0],[-112.0,53.0],[-112.0,53.0],[-112.0,53.0]]],[[[-113.0,53.0],[-113.0,53.0],[-113.0,53.0],[-113.0,53.0]]],[[[-113.0,53.0],[-113.0,53.0],[-113.0,53.0],[-113.0,53.0]]],[[[-113.0,53.0],[-113.0,53.0],[-113.0,53.0],[-113.0,53.0]]],[[[-112.0,53.0],[-112.0,53.0],[-112.0,53.0],[-112.0,53.0]]],[[[-112.0,53.0],[-112.0,53.0],[-112.0,53.0],[-112.0,53.0]]],[[[-112.0,53.0],[-112.0,53.0],[-112.0,53.0],[-112.0,53.0]]],[[[-113.0,53.0],[-113.0,53.0],[-113.0,53.0],[-113.0,53.0]]],[[[-112.0,53.0],[-112.0,53.0],[-112.0,53.0],[-112.0,53.0]]],[[[-112.0,53.0],[-112.0,53.0],[-112.0,53.0],[-112.0,53.0]]],[[[-112.0,53.0],[-112.0,53.0],[-112.0,53.0],[-112.0,53.0]]],[[[-113.0,53.0],[-113.0,53.0],[-113.0,53.0],[-113.0,53.0]]],[[[-112.0,53.0],[-112.0,53.0],[-112.0,53.0],[-112.0,53.0]]],[[[-112.0,53.0],[-112.0,53.0],[-112.0,53.0],[-112.0,53.0]]],[[[-113.0,53.0],[-113.0,53.0],[-113.0,53.0],[-113.0,53.0]]],[[[-112.0,53.0],[-112.0,53.0],[-112.0,53.0],[-112.0,53.0]]],[[[-113.0,53.0],[-112.0,53.0],[-113.0,53.0],[-113.0,53.0]]]]}},{"type":"Feature","properties":{"c":"9320020106","o":"THIBAULT, PIERRE","e":""},"geometry":{"type":"MultiPolygon","coordinates":[[[[-112.0,53.0],[-112.0,53.0],[-112.0,53.0],[-112.0,53.0]]],[[[-112.0,53.0],[-112.0,53.0],[-112.0,53.0],[-112.0,53.0]]],[[[-112.0,53.0],[-112.0,53.0],[-112.0,53.0],[-112.0,53.0]]],[[[-112.0,53.0],[-112.0,53.0],[-112.0,53.0],[-112.0,53.0]]],[[[-112.0,53.0],[-112.0,53.0],[-112.0,53.0],[-112.0,53.0]]],[[[-112.0,53.0],[-112.0,53.0],[-112.0,53.0],[-112.0,53.0]]],[[[-112.0,53.0],[-112.0,53.0],[-112.0,53.0],[-112.0,53.0]]],[[[-113.0,53.0],[-112.0,53.0],[-113.0,53.0],[-113.0,53.0]]],[[[-112.0,53.0],[-112.0,53.0],[-112.0,53.0],[-112.0,53.0]]],[[[-112.0,53.0],[-112.0,53.0],[-112.0,53.0],[-112.0,53.0]]]]}}]}