{"type":"FeatureCollection","features":[{"type":"Feature","properties":{"c":"9326040234","o":"ROLAND RESOURCES 2012 INC.","e":""},"geometry":{"type":"MultiPolygon","coordinates":[[[[-113.05129,50.54312],[-113.05125,50.57225],[-113.02866,50.57225],[-113.02868,50.5431],[-113.04564,50.54311],[-113.05129,50.54312]]],[[[-113.09713,50.49937],[-113.09712,50.51385],[-113.07452,50.51383],[-113.0745,50.49937],[-113.09147,50.49937],[-113.09713,50.49937]]],[[[-113.07422,50.49214],[-113.07424,50.51383],[-113.05159,50.51383],[-113.05161,50.49215],[-113.06857,50.49214],[-113.07422,50.49214]]],[[[-113.05133,50.48492],[-113.0513,50.51383],[-113.02869,50.51383],[-113.02869,50.48488],[-113.04567,50.48491],[-113.05133,50.48492]]],[[[-113.16582,50.51401],[-113.16581,50.52848],[-113.1432,50.52848],[-113.14321,50.51402],[-113.16016,50.51402],[-113.16582,50.51401]]],[[[-113.12,50.51396],[-113.11997,50.52843],[-113.0974,50.5285],[-113.09741,50.51403],[-113.11435,50.51398],[-113.12,50.51396]]],[[[-113.07424,50.51401],[-113.07424,50.52848],[-113.05157,50.52847],[-113.05159,50.51401],[-113.06858,50.51401],[-113.07424,50.51401]]],[[[-113.14291,50.52848],[-113.1429,50.54294],[-113.12023,50.54289],[-113.12026,50.52843],[-113.13725,50.52847],[-113.14291,50.52848]]],[[[-113.09711,50.5285],[-113.0971,50.54297],[-113.07452,50.54295],[-113.07452,50.52848],[-113.09146,50.5285],[-113.09711,50.5285]]],[[[-113.05129,50.52847],[-113.05129,50.54293],[-113.02868,50.54292],[-113.02869,50.52846],[-113.04564,50.52847],[-113.05129,50.52847]]],[[[-113.16579,50.54314],[-113.16578,50.55751],[-113.14314,50.5576],[-113.14318,50.54312],[-113.16014,50.54313],[-113.16579,50.54314]]],[[[-113.11995,50.54308],[-113.11994,50.55755],[-113.09738,50.55761],[-113.09738,50.54315],[-113.11429,50.54309],[-113.11995,50.54308]]],[[[-113.1429,50.54312],[-113.14282,50.57204],[-113.12022,50.5721],[-113.12023,50.54307],[-113.13723,50.54311],[-113.1429,50.54312]]],[[[-113.0971,50.54315],[-113.09703,50.57216],[-113.0744,50.57221],[-113.07452,50.54313],[-113.09146,50.54315],[-113.0971,50.54315]]],[[[-113.05157,50.55035],[-113.06292,50.55036],[-113.0629,50.55759],[-113.07423,50.5576],[-113.07411,50.57221],[-113.05154,50.57225],[-113.05157,50.55757],[-113.05157,50.55035]]]]}},{"type":"Feature","properties":{"c":"9326040235","o":"ROLAND RESOURCES 2012 INC.","e":""},"geometry":{"type":"MultiPolygon","coordinates":[[[[-113.0284,50.5431],[-113.02837,50.57225],[-113.00575,50.57224],[-113.00575,50.54306],[-113.02274,50.54309],[-113.0284,50.5431]]],[[[-113.0055,50.48488],[-113.00548,50.49934],[-112.98291,50.49941],[-112.9829,50.48488],[-112.99985,50.48489],[-113.0055,50.48488]]],[[[-113.02841,50.48488],[-113.02841,50.51383],[-113.00577,50.5138],[-113.00579,50.48488],[-113.02275,50.48488],[-113.02841,50.48488]]],[[[-112.98261,50.48488],[-112.98261,50.51386],[-112.95999,50.51381],[-112.96,50.48488],[-112.97696,50.48488],[-112.98261,50.48488]]],[[[-112.95972,50.49934],[-112.95971,50.51381],[-112.93704,50.51381],[-112.93707,50.49933],[-112.95406,50.49934],[-112.95972,50.49934]]],[[[-112.93682,50.48487],[-112.93675,50.51381],[-112.91409,50.5138],[-112.9142,50.48485],[-112.93117,50.48486],[-112.93682,50.48487]]],[[[-112.89126,50.48483],[-112.91392,50.48485],[-112.91389,50.49209],[-112.89959,50.49208],[-112.9027,50.49406],[-112.90691,50.49932],[-112.91386,50.49933],[-112.9138,50.5138],[-112.89126,50.51378],[-112.89126,50.4993],[-112.89126,50.48483]]],[[[-113.02841,50.51401],[-113.0284,50.54292],[-113.00575,50.54288],[-113.00577,50.51398],[-113.02275,50.51401],[-113.02841,50.51401]]],[[[-113.00549,50.51398],[-113.00547,50.54288],[-112.98288,50.54293],[-112.9829,50.51404],[-112.99984,50.514],[-113.00549,50.51398]]],[[[-112.98261,50.51404],[-112.98259,50.54293],[-112.95998,50.54291],[-112.95999,50.51399],[-112.97695,50.51403],[-112.98261,50.51404]]],[[[-112.9597,50.52844],[-112.9597,50.54291],[-112.93696,50.54296],[-112.937,50.52848],[-112.95403,50.52845],[-112.9597,50.52844]]],[[[-112.91409,50.51399],[-112.93675,50.51399],[-112.93671,50.52848],[-112.91741,50.52846],[-112.91739,50.5306],[-112.92036,50.53063],[-112.92031,50.5296],[-112.92297,50.52959],[-112.923,50.53355],[-112.93374,50.53357],[-112.93365,50.53678],[-112.92535,50.53981],[-112.92534,50.54294],[-112.914,50.54292],[-112.91402,50.53569],[-112.91409,50.51399]]],[[[-112.9138,50.51399],[-112.91371,50.54292],[-112.89125,50.5429],[-112.89126,50.51396],[-112.90817,50.51398],[-112.9138,50.51399]]],[[[-112.98259,50.54312],[-112.98256,50.55756],[-112.95998,50.55756],[-112.95998,50.54309],[-112.97693,50.54311],[-112.98259,50.54312]]],[[[-113.00547,50.54306],[-113.00547,50.57224],[-112.98281,50.57222],[-112.98288,50.54312],[-112.99982,50.54308],[-113.00547,50.54306]]],[[[-112.95969,50.55756],[-112.95954,50.57218],[-112.93686,50.57214],[-112.93691,50.55759],[-112.954,50.55757],[-112.95969,50.55756]]],[[[-112.92663,50.56135],[-112.92539,50.56067],[-112.92556,50.55918],[-112.92618,50.55885],[-112.92551,50.55841],[-112.92548,50.55761],[-112.92467,50.55761],[-112.92413,50.55685],[-112.92152,50.55522],[-112.9212,50.55532],[-112.92221,50.55578],[-112.92221,50.55605],[-112.92011,50.55571],[-112.91973,50.5554],[-112.92036,50.5554],[-112.92061,50.5551],[-112.91946,50.55419],[-112.91884,50.55417],[-112.91775,50.55569],[-112.91748,50.55698],[-112.91754,50.5592],[-112.91779,50.5596],[-112.91701,50.56306],[-112.91691,50.56539],[-112.91747,50.5665],[-112.91747,50.56717],[-112.91647,50.56818],[-112.91392,50.56757],[-112.914,50.5431],[-112.93668,50.54314],[-112.93663,50.55759],[-112.93047,50.55759],[-112.93045,50.56238],[-112.92762,50.56237],[-112.9276,50.56701],[-112.92705,50.56701],[-112.93238,50.57214],[-112.91391,50.57211],[-112.92524,50.57208],[-112.92526,50.56679],[-112.9246,50.56455],[-112.92404,50.56398],[-112.92482,50.56356],[-112.92538,50.56182],[-112.92663,50.56135]]],[[[-112.89125,50.54308],[-112.91371,50.5431],[-112.91364,50.56751],[-112.90524,50.56552],[-112.90524,50.5648],[-112.90244,50.5648],[-112.90243,50.57204],[-112.90496,50.57205],[-112.90462,50.57148],[-112.90512,50.56995],[-112.90609,50.56786],[-112.9073,50.56666],[-112.91299,50.56827],[-112.91012,50.57062],[-112.90926,50.57205],[-112.91362,50.57211],[-112.89124,50.57207],[-112.89125,50.54308]]]]}},{"type":"Feature","properties":{"c":"9326040240","o":"ROLAND RESOURCES 2012 INC.","e":""},"geometry":{"type":"MultiPolygon","coordinates":[[[[-112.91393,50.39753],[-112.91397,50.42647],[-112.89129,50.42644],[-112.8913,50.39752],[-112.90827,50.39753],[-112.91393,50.39753]]],[[[-113.00556,50.39754],[-113.00554,50.41197],[-112.98292,50.412],[-112.98293,50.39754],[-112.9999,50.39754],[-113.00556,50.39754]]],[[[-113.02847,50.39753],[-113.02845,50.42646],[-113.00581,50.42645],[-113.00584,50.39754],[-113.02281,50.39753],[-113.02847,50.39753]]],[[[-112.98265,50.39754],[-112.98264,50.42645],[-112.96002,50.42654],[-112.96002,50.39754],[-112.97699,50.39754],[-112.98265,50.39754]]],[[[-112.95974,50.39754],[-112.95974,50.42653],[-112.9371,50.42646],[-112.93712,50.39754],[-112.95408,50.39754],[-112.95974,50.39754]]],[[[-112.93684,50.39754],[-112.93682,50.42646],[-112.91426,50.42647],[-112.91421,50.39753],[-112.93118,50.39754],[-112.93684,50.39754]]],[[[-113.02845,50.42664],[-113.02843,50.45558],[-113.00581,50.45558],[-113.00581,50.42663],[-113.02279,50.42664],[-113.02845,50.42664]]],[[[-113.00553,50.42663],[-113.00552,50.45558],[-112.9829,50.45555],[-112.98293,50.42663],[-112.99988,50.42663],[-113.00553,50.42663]]],[[[-112.98264,50.42663],[-112.98262,50.45555],[-112.95999,50.4556],[-112.96002,50.42672],[-112.97699,50.42665],[-112.98264,50.42663]]],[[[-112.95974,50.42671],[-112.95971,50.4556],[-112.93709,50.45557],[-112.9371,50.42664],[-112.95407,50.4267],[-112.95974,50.42671]]],[[[-112.93682,50.42664],[-112.9368,50.45557],[-112.91418,50.45557],[-112.91425,50.42665],[-112.93118,50.42665],[-112.93682,50.42664]]],[[[-112.91397,50.42665],[-112.9139,50.45557],[-112.89128,50.45555],[-112.89129,50.42662],[-112.9083,50.42664],[-112.91397,50.42665]]],[[[-112.98262,50.45573],[-112.98261,50.47018],[-112.95999,50.47024],[-112.95999,50.45579],[-112.97696,50.45574],[-112.98262,50.45573]]],[[[-112.92549,50.46298],[-112.92549,50.47021],[-112.9142,50.47021],[-112.91419,50.46298],[-112.91984,50.46298],[-112.92549,50.46298]]],[[[-113.02843,50.45576],[-113.02841,50.4847],[-113.00579,50.4847],[-113.00581,50.45576],[-113.02277,50.45576],[-113.02843,50.45576]]],[[[-113.00552,50.45576],[-113.00551,50.4847],[-112.9829,50.4847],[-112.9829,50.45573],[-112.99988,50.45575],[-113.00552,50.45576]]],[[[-112.95971,50.45578],[-112.95972,50.4847],[-112.93711,50.48469],[-112.93709,50.45575],[-112.95405,50.45578],[-112.95971,50.45578]]],[[[-112.9139,50.45575],[-112.91392,50.48467],[-112.89126,50.48465],[-112.89128,50.45573],[-112.90824,50.45574],[-112.9139,50.45575]]]]}},{"type":"Feature","properties":{"c":"9326040245","o":"ROLAND RESOURCES 2012 INC.","e":""},"geometry":{"type":"MultiPolygon","coordinates":[[[[-112.98267,50.3393],[-112.98261,50.36826],[-112.95995,50.36825],[-112.96005,50.3393],[-112.97702,50.3393],[-112.98267,50.3393]]],[[[-113.00556,50.31019],[-113.00559,50.32466],[-112.9829,50.32465],[-112.98297,50.31019],[-112.99992,50.31019],[-113.00556,50.31019]]],[[[-113.0285,50.31018],[-113.02849,50.33911],[-113.00586,50.33912],[-113.00584,50.31019],[-113.02284,50.31018],[-113.0285,50.31018]]],[[[-112.98268,50.31019],[-112.98267,50.33912],[-112.96005,50.33912],[-112.96006,50.3102],[-112.97703,50.31019],[-112.98268,50.31019]]],[[[-112.95978,50.3102],[-112.95977,50.33912],[-112.93714,50.33916],[-112.93715,50.3102],[-112.95412,50.3102],[-112.95978,50.3102]]],[[[-112.93687,50.3102],[-112.93686,50.33916],[-112.91428,50.3391],[-112.91424,50.31019],[-112.93121,50.3102],[-112.93687,50.3102]]],[[[-112.91396,50.31019],[-112.914,50.3391],[-112.89132,50.33914],[-112.89133,50.31019],[-112.9083,50.31019],[-112.91396,50.31019]]],[[[-113.02849,50.33929],[-113.02848,50.36823],[-113.00583,50.36824],[-113.00586,50.33931],[-113.02283,50.3393],[-113.02849,50.33929]]],[[[-113.00558,50.33931],[-113.00554,50.36824],[-112.98289,50.36826],[-112.98295,50.3393],[-112.99992,50.33931],[-113.00558,50.33931]]],[[[-112.95977,50.3393],[-112.95967,50.36825],[-112.93706,50.36824],[-112.93714,50.33934],[-112.95411,50.33931],[-112.95977,50.3393]]],[[[-112.93685,50.33934],[-112.93678,50.36824],[-112.91422,50.36823],[-112.91428,50.33928],[-112.93121,50.33933],[-112.93685,50.33934]]],[[[-112.914,50.33928],[-112.91393,50.36823],[-112.89131,50.36823],[-112.89132,50.33932],[-112.90833,50.33929],[-112.914,50.33928]]],[[[-113.02848,50.36841],[-113.02847,50.39735],[-113.00584,50.39736],[-113.00583,50.36843],[-113.02281,50.36841],[-113.02848,50.36841]]],[[[-113.00554,50.36843],[-113.00556,50.39736],[-112.98293,50.39736],[-112.98289,50.36844],[-112.99988,50.36843],[-113.00554,50.36843]]],[[[-112.98261,50.36844],[-112.98265,50.39736],[-112.96002,50.39736],[-112.95995,50.36843],[-112.97694,50.36843],[-112.98261,50.36844]]],[[[-112.95967,50.36843],[-112.95974,50.39736],[-112.93712,50.39735],[-112.93706,50.36842],[-112.95401,50.36843],[-112.95967,50.36843]]],[[[-112.91424,50.37564],[-112.92552,50.37565],[-112.92554,50.38288],[-112.93681,50.38289],[-112.93684,50.39735],[-112.91421,50.39735],[-112.91427,50.38287],[-112.91424,50.37564]]],[[[-112.91394,50.36841],[-112.91392,50.39735],[-112.8913,50.39734],[-112.89131,50.36841],[-112.90828,50.36841],[-112.91394,50.36841]]]]}}]}