{"type":"FeatureCollection","features":[{"type":"Feature","properties":{"c":"3712100552","o":"KEYERA ENERGY LTD.","e":""},"geometry":{"type":"Polygon","coordinates":[[[-113.1492,53.74484],[-113.1699,53.7452],[-113.17349,53.74887],[-113.17346,53.75256],[-113.14916,53.75206],[-113.14918,53.74845],[-113.1492,53.74484]]]}},{"type":"Feature","properties":{"c":"3713060308","o":"SHELL CANADA LIMITED","e":""},"geometry":{"type":"Polygon","coordinates":[[[-113.1241,53.77437],[-113.1241,53.78858],[-113.1119,53.78877],[-113.11192,53.77444],[-113.11801,53.77441],[-113.1241,53.77437]]]}},{"type":"Feature","properties":{"c":"3713060309","o":"SHELL CANADA LIMITED","e":""},"geometry":{"type":"MultiPolygon","coordinates":[[[[-113.0994,53.78896],[-113.09935,53.80342],[-113.07491,53.80343],[-113.07491,53.789],[-113.09624,53.78896],[-113.0994,53.78896]]],[[[-113.09935,53.8036],[-113.09937,53.81084],[-113.08716,53.81084],[-113.08713,53.80361],[-113.09324,53.8036],[-113.09935,53.8036]]]]}},{"type":"Feature","properties":{"c":"9716030253","o":"TIDEWATER MIDSTREAM AND INFRASTRUCTURE LTD.","e":""},"geometry":{"type":"Polygon","coordinates":[[[-113.17581,53.72361],[-113.18432,53.71743],[-113.19817,53.73261],[-113.19595,53.73499],[-113.19016,53.73919],[-113.18875,53.73772],[-113.17581,53.72361]]]}},{"type":"Feature","properties":{"c":"3712020333","o":"ATCO GAS AND PIPELINES LTD. (SOUTH)","e":""},"geometry":{"type":"Polygon","coordinates":[[[-113.03868,53.78897],[-113.0387,53.79619],[-113.03062,53.79619],[-113.03057,53.78897],[-113.0315,53.78897],[-113.03868,53.78897]]]}},{"type":"Feature","properties":{"c":"9715060224","o":"WHITE SPRUCE PIPELINE GP LTD.","e":""},"geometry":{"type":"MultiPolygon","coordinates":[[[[-113.0746,53.74541],[-113.07461,53.75993],[-113.05007,53.7598],[-113.05002,53.74541],[-113.06845,53.74541],[-113.0746,53.74541]]],[[[-113.02507,53.7454],[-113.02506,53.75987],[-113.00054,53.75983],[-113.00058,53.74539],[-113.01895,53.74539],[-113.02507,53.7454]]],[[[-113.04977,53.7598],[-113.04982,53.77433],[-113.02536,53.77433],[-113.02537,53.75987],[-113.04367,53.75982],[-113.04977,53.7598]]],[[[-113.09944,53.75981],[-113.09944,53.76707],[-113.07491,53.76706],[-113.07492,53.75993],[-113.09331,53.75984],[-113.09944,53.75981]]]]}},{"type":"Feature","properties":{"c":"9715060229","o":"GIBSON ENERGY INC.","e":""},"geometry":{"type":"Polygon","coordinates":[[[-112.9758,53.75985],[-113.00024,53.75983],[-113.00033,53.77432],[-112.97582,53.77429],[-112.9758,53.75985]]]}},{"type":"Feature","properties":{"c":"9715090197","o":"KEYERA MIDSTREAM CANADA LTD.","e":""},"geometry":{"type":"Polygon","coordinates":[[[-113.14916,53.75206],[-113.15527,53.75219],[-113.15525,53.75404],[-113.15677,53.75407],[-113.15676,53.75591],[-113.15828,53.75594],[-113.15824,53.75963],[-113.14913,53.75949],[-113.14915,53.75578],[-113.14916,53.75206]]]}},{"type":"Feature","properties":{"c":"9715090198","o":"DOW CHEMICAL CANADA ULC","e":""},"geometry":{"type":"Polygon","coordinates":[[[-113.16143,53.7376],[-113.16266,53.73763],[-113.16706,53.74235],[-113.16145,53.7418],[-113.16145,53.74124],[-113.16143,53.7376]]]}},{"type":"Feature","properties":{"c":"9715090199","o":"FORT SASKATCHEWAN ETHYLENE STORAGE CORPORATION","e":""},"geometry":{"type":"Polygon","coordinates":[[[-113.16145,53.7418],[-113.16706,53.74235],[-113.16953,53.74501],[-113.16147,53.74487],[-113.16145,53.7418]]]}},{"type":"Feature","properties":{"c":"9716030252","o":"TIDEWATER MIDSTREAM AND INFRASTRUCTURE LTD.","e":""},"geometry":{"type":"Polygon","coordinates":[[[-113.14788,53.71577],[-113.14789,53.70129],[-113.17215,53.70129],[-113.1722,53.71581],[-113.14927,53.71578],[-113.14788,53.71577]]]}},{"type":"Feature","properties":{"c":"NAMAOPNGAG","o":"HIS MAJESTY THE KING IN RIGHT OF CANADA AS REPRESENTED HEREIN BY THE MINISTER OF NATIONAL DEFENCE","e":""},"geometry":{"type":"MultiPolygon","coordinates":[[[[-113.46713,53.67242],[-113.46709,53.68688],[-113.44285,53.68683],[-113.4429,53.67238],[-113.46107,53.67241],[-113.46713,53.67242]]],[[[-113.47963,53.65797],[-113.49178,53.65798],[-113.49172,53.67245],[-113.48565,53.67244],[-113.47958,53.67244],[-113.47963,53.65797]]],[[[-113.47955,53.67966],[-113.46741,53.67965],[-113.46744,53.67242],[-113.47958,53.67244],[-113.47955,53.67966]]]]}},{"type":"Feature","properties":{"c":"9717010225","o":"DOW CHEMICAL CANADA ULC","e":""},"geometry":{"type":"MultiPolygon","coordinates":[[[[-113.14897,53.73063],[-113.1489,53.74466],[-113.12441,53.74511],[-113.12443,53.73066],[-113.14511,53.73063],[-113.14897,53.73063]]],[[[-113.14927,53.73063],[-113.16139,53.73057],[-113.16141,53.73441],[-113.16039,53.73518],[-113.16266,53.73763],[-113.16143,53.7376],[-113.16147,53.74487],[-113.1492,53.74465],[-113.1492,53.74103],[-113.14927,53.73063]]]]}},{"type":"Feature","properties":{"c":"9717070292","o":"KEYERA ENERGY LTD.","e":""},"geometry":{"type":"Polygon","coordinates":[[[-113.12411,53.7453],[-113.12411,53.75974],[-113.09975,53.75981],[-113.09965,53.74535],[-113.12411,53.7453]]]}},{"type":"Feature","properties":{"c":"9717080352","o":"TIDEWATER MIDSTREAM AND INFRASTRUCTURE LTD.","e":""},"geometry":{"type":"MultiPolygon","coordinates":[[[[-113.19683,53.68685],[-113.19678,53.69409],[-113.1846,53.69408],[-113.1846,53.68684],[-113.19072,53.68685],[-113.19683,53.68685]]],[[[-113.1846,53.69498],[-113.1846,53.70131],[-113.17246,53.70129],[-113.17243,53.69497],[-113.18308,53.69498],[-113.1846,53.69498]]]]}},{"type":"Feature","properties":{"c":"9717080353","o":"TIDEWATER MIDSTREAM AND INFRASTRUCTURE LTD.","e":""},"geometry":{"type":"Polygon","coordinates":[[[-113.09871,53.71575],[-113.09875,53.70128],[-113.123,53.70131],[-113.12298,53.71576],[-113.09979,53.71575],[-113.09871,53.71575]]]}},{"type":"Feature","properties":{"c":"9717080354","o":"TIDEWATER MIDSTREAM AND INFRASTRUCTURE LTD.","e":""},"geometry":{"type":"Polygon","coordinates":[[[-113.27278,53.71598],[-113.27272,53.73068],[-113.26051,53.7307],[-113.26091,53.71623],[-113.27064,53.71602],[-113.27278,53.71598]]]}},{"type":"Feature","properties":{"c":"9717080356","o":"TIDEWATER MIDSTREAM AND INFRASTRUCTURE LTD.","e":""},"geometry":{"type":"Polygon","coordinates":[[[-113.19867,53.75617],[-113.20096,53.7583],[-113.20903,53.75235],[-113.21095,53.75237],[-113.21096,53.75092],[-113.21739,53.7461],[-113.21734,53.75973],[-113.19867,53.75941],[-113.19867,53.75617]]]}},{"type":"Feature","properties":{"c":"9717080355","o":"TIDEWATER MIDSTREAM AND INFRASTRUCTURE LTD.","e":""},"geometry":{"type":"Polygon","coordinates":[[[-113.18607,53.75239],[-113.18049,53.75247],[-113.17768,53.74956],[-113.1757,53.75098],[-113.1742,53.75256],[-113.17377,53.75256],[-113.17379,53.74882],[-113.17563,53.74735],[-113.1802,53.7452],[-113.18688,53.74514],[-113.19837,53.75589],[-113.19836,53.75941],[-113.18739,53.75961],[-113.18605,53.75822],[-113.18606,53.75602],[-113.18607,53.75239]]]}},{"type":"Feature","properties":{"c":"9320010147","o":"MINERAL RECOVERY TECHNOLOGIES CONSOLIDATED PTY LTD.","e":""},"geometry":{"type":"Polygon","coordinates":[[[-113.19621,53.73047],[-113.19842,53.73286],[-113.19744,53.73447],[-113.19338,53.73692],[-113.19023,53.73934],[-113.18612,53.73476],[-113.18613,53.7305],[-113.19228,53.73048],[-113.19621,53.73047]]]}},{"type":"Feature","properties":{"c":"9320010147","o":"MINERAL RECOVERY TECHNOLOGIES CONSOLIDATED PTY LTD.","e":""},"geometry":{"type":"Polygon","coordinates":[[[-113.18432,53.71743],[-113.19621,53.73047],[-113.18613,53.7305],[-113.18612,53.73476],[-113.17581,53.72361],[-113.18432,53.71743]]]}},{"type":"Feature","properties":{"c":"9720030111","o":"WOLF NGL INC.","e":""},"geometry":{"type":"Polygon","coordinates":[[[-113.0997,53.81811],[-113.11498,53.81803],[-113.11367,53.82062],[-113.11238,53.82187],[-113.10931,53.82366],[-113.10355,53.82534],[-113.12429,53.8253],[-113.12434,53.83261],[-113.09974,53.83258],[-113.09972,53.82535],[-113.0997,53.81811]]]}},{"type":"Feature","properties":{"c":"9720030100","o":"CANADIAN NATURAL RESOURCES LIMITED","e":""},"geometry":{"type":"Polygon","coordinates":[[[-113.09974,53.83277],[-113.12434,53.83279],[-113.12435,53.84724],[-113.09978,53.84718],[-113.09974,53.83277]]]}},{"type":"Feature","properties":{"c":"9719010277","o":"PEMBINA NGL CORPORATION","e":""},"geometry":{"type":"Polygon","coordinates":[[[-113.12455,53.81798],[-113.13687,53.81803],[-113.13689,53.82531],[-113.1246,53.82529],[-113.12455,53.81798]]]}},{"type":"Feature","properties":{"c":"9722030151","o":"PEMBINA NGL CORPORATION","e":""},"geometry":{"type":"Polygon","coordinates":[[[-113.1244,53.78857],[-113.14905,53.78886],[-113.14943,53.80336],[-113.12445,53.80313],[-113.1244,53.78857]]]}},{"type":"Feature","properties":{"c":"9721090128","o":"SUNWEST HEARTLAND TERMINALS LTD.","e":""},"geometry":{"type":"Polygon","coordinates":[[[-113.00032,53.83267],[-113.00028,53.83989],[-112.97592,53.83986],[-112.97592,53.83263],[-112.9942,53.83266],[-113.00032,53.83267]]]}},{"type":"Feature","properties":{"c":"9721080208","o":"SUNWEST HEARTLAND TERMINALS LTD.","e":""},"geometry":{"type":"Polygon","coordinates":[[[-112.97585,53.78895],[-113.00032,53.78898],[-113.00031,53.8034],[-112.97586,53.8034],[-112.97585,53.78895]]]}},{"type":"Feature","properties":{"c":"9721060202","o":"SUNWEST HEARTLAND TERMINALS LTD.","e":""},"geometry":{"type":"Polygon","coordinates":[[[-112.9758,53.81796],[-113.00023,53.81803],[-113.00032,53.83249],[-112.97592,53.83245],[-112.9758,53.81796]]]}},{"type":"Feature","properties":{"c":"9721060201","o":"SUNWEST HEARTLAND TERMINALS LTD.","e":""},"geometry":{"type":"Polygon","coordinates":[[[-113.0624,53.82535],[-113.0746,53.82535],[-113.07459,53.83258],[-113.06237,53.83257],[-113.0624,53.82535]]]}},{"type":"Feature","properties":{"c":"9721060200","o":"SUNWEST HEARTLAND TERMINALS LTD.","e":""},"geometry":{"type":"Polygon","coordinates":[[[-113.07461,53.80361],[-113.07468,53.81806],[-113.05017,53.81812],[-113.05018,53.80358],[-113.07461,53.80361]]]}},{"type":"Feature","properties":{"c":"9721050146","o":"SUNWEST HEARTLAND TERMINALS LTD.","e":""},"geometry":{"type":"Polygon","coordinates":[[[-113.00061,53.80358],[-113.02509,53.8036],[-113.02509,53.81804],[-113.00054,53.81803],[-113.00061,53.80358]]]}},{"type":"Feature","properties":{"c":"9721050144","o":"VALUE CREATION INC.","e":""},"geometry":{"type":"Polygon","coordinates":[[[-113.01282,53.81803],[-113.01286,53.83249],[-113.00062,53.83249],[-113.00054,53.81803],[-113.00668,53.81803],[-113.01282,53.81803]]]}},{"type":"Feature","properties":{"c":"3712020336","o":"ATCO NEXT ENERGY LTD.","e":""},"geometry":{"type":"Polygon","coordinates":[[[-113.04984,53.78896],[-113.04986,53.79618],[-113.0387,53.79619],[-113.03868,53.78897],[-113.04984,53.78896]]]}},{"type":"Feature","properties":{"c":"3712020337","o":"ATCO NEXT ENERGY LTD.","e":""},"geometry":{"type":"Polygon","coordinates":[[[-113.02539,53.79619],[-113.02539,53.78897],[-113.03057,53.78897],[-113.03062,53.79619],[-113.02539,53.79619]]]}},{"type":"Feature","properties":{"c":"9723050168","o":"VALUE CREATION INC.","e":""},"geometry":{"type":"Polygon","coordinates":[[[-113.02509,53.81804],[-113.0251,53.83249],[-113.01286,53.83249],[-113.01282,53.81803],[-113.01895,53.81804],[-113.02509,53.81804]]]}},{"type":"Feature","properties":{"c":"9723060255","o":"PEMBINA MARKETING LTD.","e":""},"geometry":{"type":"MultiPolygon","coordinates":[[[[-113.09944,53.76707],[-113.09945,53.77433],[-113.07491,53.77433],[-113.07491,53.76706],[-113.09331,53.76707],[-113.09944,53.76707]]],[[[-113.09944,53.77451],[-113.09942,53.78173],[-113.07491,53.78179],[-113.07491,53.77451],[-113.09331,53.77451],[-113.09944,53.77451]]]]}},{"type":"Feature","properties":{"c":"9723060256","o":"PEMBINA MARKETING LTD.","e":""},"geometry":{"type":"MultiPolygon","coordinates":[[[[-113.09942,53.78173],[-113.0994,53.78896],[-113.07491,53.789],[-113.07491,53.78179],[-113.09329,53.78175],[-113.09942,53.78173]]],[[[-113.11192,53.77444],[-113.1119,53.78877],[-113.0997,53.78896],[-113.09975,53.77451],[-113.10584,53.77447],[-113.11192,53.77444]]]]}},{"type":"Feature","properties":{"c":"9723080161","o":"ATCO NEXT ENERGY LTD.","e":""},"geometry":{"type":"Polygon","coordinates":[[[-113.02539,53.79619],[-113.03762,53.79619],[-113.03763,53.7998],[-113.04987,53.79979],[-113.04987,53.8034],[-113.02539,53.80342],[-113.02539,53.7998],[-113.02539,53.79619]]]}},{"type":"Feature","properties":{"c":"9723080158","o":"WOLF NGL INC.","e":""},"geometry":{"type":"Polygon","coordinates":[[[-113.13689,53.82531],[-113.13691,53.83257],[-113.12465,53.83261],[-113.1246,53.82529],[-113.13689,53.82531]]]}},{"type":"Feature","properties":{"c":"9723080159","o":"ATCO NEXT ENERGY LTD.","e":""},"geometry":{"type":"Polygon","coordinates":[[[-113.04986,53.79618],[-113.04987,53.79979],[-113.03763,53.7998],[-113.03762,53.79619],[-113.04374,53.79618],[-113.04986,53.79618]]]}},{"type":"Feature","properties":{"c":"9723080160","o":"ATCO NEXT ENERGY LTD.","e":""},"geometry":{"type":"Polygon","coordinates":[[[-113.05012,53.77452],[-113.07461,53.77451],[-113.07461,53.789],[-113.05015,53.78896],[-113.05012,53.77452]]]}},{"type":"Feature","properties":{"c":"9723080162","o":"PEMBINA PIPELINE CORPORATION","e":""},"geometry":{"type":"MultiPolygon","coordinates":[[[[-113.17422,53.80355],[-113.17399,53.82533],[-113.14947,53.82532],[-113.14974,53.80355],[-113.1681,53.80355],[-113.17422,53.80355]]],[[[-113.1744,53.81444],[-113.18055,53.81443],[-113.1805,53.81808],[-113.18668,53.81807],[-113.1866,53.82531],[-113.1743,53.82533],[-113.17432,53.81809],[-113.1744,53.81444]]],[[[-113.1492,53.81807],[-113.14916,53.82532],[-113.13689,53.82531],[-113.13687,53.81803],[-113.14304,53.81805],[-113.1492,53.81807]]]]}},{"type":"Feature","properties":{"c":"9723080163","o":"PEMBINA PIPELINE CORPORATION","e":""},"geometry":{"type":"MultiPolygon","coordinates":[[[[-113.17399,53.82533],[-113.17397,53.83258],[-113.14947,53.83256],[-113.14947,53.82532],[-113.16787,53.82533],[-113.17399,53.82533]]],[[[-113.1866,53.82531],[-113.18652,53.83259],[-113.17427,53.83258],[-113.1743,53.82533],[-113.18105,53.82532],[-113.1866,53.82531]]],[[[-113.14916,53.82532],[-113.14916,53.83256],[-113.13691,53.83257],[-113.13689,53.82531],[-113.14303,53.82531],[-113.14916,53.82532]]]]}},{"type":"Feature","properties":{"c":"9924030178","o":"NEOLITHICA LTD.","e":""},"geometry":{"type":"MultiPolygon","coordinates":[[[[-113.0996,53.94911],[-113.09965,53.97787],[-113.07522,53.97785],[-113.07515,53.94909],[-113.09349,53.9491],[-113.0996,53.94911]]],[[[-113.05001,53.90536],[-113.05001,53.91981],[-113.03779,53.91982],[-113.03778,53.90536],[-113.04389,53.90536],[-113.05001,53.90536]]],[[[-113.07479,53.92001],[-113.07484,53.93445],[-113.05039,53.93446],[-113.05032,53.91999],[-113.06867,53.92],[-113.07479,53.92001]]],[[[-113.09956,53.93447],[-113.0996,53.94892],[-113.07515,53.94891],[-113.07515,53.93445],[-113.09346,53.93446],[-113.09956,53.93447]]],[[[-113.05002,53.91999],[-113.05011,53.94892],[-113.02563,53.9489],[-113.02559,53.92723],[-113.03782,53.92723],[-113.03779,53.92],[-113.0439,53.91999],[-113.05002,53.91999]]],[[[-113.02528,53.92723],[-113.02532,53.9489],[-113.01309,53.94887],[-113.01306,53.92721],[-113.01917,53.92722],[-113.02528,53.92723]]],[[[-113.12438,53.94901],[-113.12437,53.96345],[-113.09992,53.96356],[-113.09991,53.94911],[-113.11826,53.94904],[-113.12438,53.94901]]],[[[-113.05011,53.9491],[-113.05014,53.96356],[-113.02565,53.96353],[-113.02563,53.94908],[-113.04399,53.9491],[-113.05011,53.9491]]],[[[-113.14917,53.96347],[-113.14915,53.97069],[-113.12468,53.97068],[-113.12468,53.96345],[-113.14516,53.96346],[-113.14917,53.96347]]],[[[-113.07484,53.94909],[-113.07491,53.97785],[-113.05044,53.97788],[-113.05042,53.9491],[-113.06874,53.94909],[-113.07484,53.94909]]]]}},{"type":"Feature","properties":{"c":"9924030179","o":"NEOLITHICA LTD.","e":""},"geometry":{"type":"MultiPolygon","coordinates":[[[[-113.22343,54.00727],[-113.22343,54.03617],[-113.19891,54.03618],[-113.19895,54.00726],[-113.21734,54.00727],[-113.22343,54.00727]]],[[[-113.09965,53.97806],[-113.09963,53.9925],[-113.07518,53.99246],[-113.07522,53.97803],[-113.09354,53.97805],[-113.09965,53.97806]]],[[[-113.22343,53.99985],[-113.22343,54.00709],[-113.19895,54.00708],[-113.19895,53.99985],[-113.21734,53.99985],[-113.22343,53.99985]]],[[[-113.19866,53.98538],[-113.19864,54.00708],[-113.17421,54.00704],[-113.17421,53.98535],[-113.19255,53.98537],[-113.19866,53.98538]]],[[[-113.1739,53.97812],[-113.1739,54.00704],[-113.14943,54.00703],[-113.14944,53.9781],[-113.1678,53.97812],[-113.1739,53.97812]]],[[[-113.14914,53.9781],[-113.14912,54.00703],[-113.12473,54.00695],[-113.12468,53.97807],[-113.14302,53.97809],[-113.14914,53.9781]]],[[[-113.12437,53.97807],[-113.12443,54.00695],[-113.09996,54.00697],[-113.09996,53.97806],[-113.11826,53.97807],[-113.12437,53.97807]]],[[[-113.14912,54.00721],[-113.14905,54.02167],[-113.12472,54.02156],[-113.12473,54.00713],[-113.14302,54.00719],[-113.14912,54.00721]]],[[[-113.1739,54.00722],[-113.17384,54.0289],[-113.14933,54.02891],[-113.14943,54.00721],[-113.16778,54.00722],[-113.1739,54.00722]]],[[[-113.27296,54.01447],[-113.27297,54.03613],[-113.24839,54.03616],[-113.24845,54.01449],[-113.26683,54.01447],[-113.27296,54.01447]]],[[[-113.24815,54.00726],[-113.24808,54.03616],[-113.22374,54.03617],[-113.22374,54.00727],[-113.24204,54.00726],[-113.24815,54.00726]]],[[[-113.19864,54.00726],[-113.1986,54.03618],[-113.17413,54.03613],[-113.17421,54.00722],[-113.19253,54.00725],[-113.19864,54.00726]]]]}},{"type":"Feature","properties":{"c":"9410070774","o":"DOW CHEMICAL CANADA ULC","e":""},"geometry":{"type":"Polygon","coordinates":[[[-113.17353,53.716],[-113.17352,53.72556],[-113.16655,53.73056],[-113.14927,53.73063],[-113.14927,53.71597],[-113.1725,53.716],[-113.17353,53.716]]]}},{"type":"Feature","properties":{"c":"9410070776","o":"DOW CHEMICAL CANADA ULC","e":""},"geometry":{"type":"Polygon","coordinates":[[[-113.14897,53.73063],[-113.1489,53.74466],[-113.12441,53.74511],[-113.12443,53.73066],[-113.14897,53.73063]]]}},{"type":"Feature","properties":{"c":"9410070777","o":"DOW CHEMICAL CANADA ULC","e":""},"geometry":{"type":"Polygon","coordinates":[[[-113.12441,53.75974],[-113.14882,53.7595],[-113.14876,53.7742],[-113.1244,53.77419],[-113.12441,53.75974]]]}},{"type":"Feature","properties":{"c":"9410070775","o":"DOW CHEMICAL CANADA ULC","e":""},"geometry":{"type":"Polygon","coordinates":[[[-113.14927,53.73063],[-113.16139,53.73057],[-113.16141,53.73409],[-113.16185,53.73409],[-113.16039,53.73518],[-113.16266,53.73763],[-113.16143,53.7376],[-113.16147,53.74487],[-113.1492,53.74465],[-113.1492,53.74103],[-113.14927,53.73063]]]}},{"type":"Feature","properties":{"c":"9410070775","o":"DOW CHEMICAL CANADA ULC","e":""},"geometry":{"type":"Polygon","coordinates":[[[-113.16655,53.73056],[-113.16185,53.73409],[-113.16141,53.73409],[-113.16139,53.73057],[-113.16619,53.73056],[-113.16655,53.73056]]]}},{"type":"Feature","properties":{"c":"9725070196","o":"WOLF NGL INC.","e":""},"geometry":{"type":"Polygon","coordinates":[[[-113.0254,53.81804],[-113.04986,53.81812],[-113.04985,53.83257],[-113.0254,53.83249],[-113.0254,53.81804]]]}},{"type":"Feature","properties":{"c":"9725070197","o":"WOLF NGL INC.","e":""},"geometry":{"type":"Polygon","coordinates":[[[-113.12415,53.80331],[-113.12425,53.81798],[-113.0997,53.81811],[-113.09965,53.8036],[-113.12415,53.80331]]]}},{"type":"Feature","properties":{"c":"9725060180","o":"IMPERIAL OIL LIMITED","e":""},"geometry":{"type":"Polygon","coordinates":[[[-113.40137,53.54133],[-113.40149,53.55582],[-113.40077,53.55582],[-113.39634,53.55235],[-113.39397,53.5512],[-113.39401,53.54127],[-113.40007,53.54128],[-113.40137,53.54133]]]}},{"type":"Feature","properties":{"c":"9626060183","o":"SUREWAY CONTRACTING LTD.","e":""},"geometry":{"type":"Polygon","coordinates":[[[-113.28298,53.65034],[-113.28291,53.65756],[-113.27082,53.65759],[-113.27082,53.65038],[-113.28298,53.65034]]]}},{"type":"Feature","properties":{"c":"9626060183","o":"SUREWAY CONTRACTING LTD.","e":""},"geometry":{"type":"Polygon","coordinates":[[[-113.27052,53.65777],[-113.27055,53.66489],[-113.2583,53.66492],[-113.25834,53.65775],[-113.27052,53.65777]]]}}]}