{"type":"FeatureCollection","features":[{"type":"Feature","properties":{"c":"9924010210","o":"E3 LITHIUM LTD.","e":""},"geometry":{"type":"MultiPolygon","coordinates":[[[[-114.04884,51.79513],[-114.04884,51.82408],[-114.02553,51.82407],[-114.02551,51.79513],[-114.043,51.79513],[-114.04884,51.79513]]],[[[-113.87869,51.79461],[-113.87867,51.82355],[-113.85542,51.82362],[-113.85536,51.79461],[-113.87286,51.79461],[-113.87869,51.79461]]],[[[-113.94943,51.85285],[-113.94954,51.88174],[-113.92617,51.88174],[-113.92622,51.85288],[-113.94363,51.85286],[-113.94943,51.85285]]],[[[-113.97344,51.83814],[-113.99694,51.83857],[-113.99693,51.85307],[-113.97342,51.85262],[-113.97344,51.84176],[-113.97344,51.83814]]],[[[-113.97346,51.80903],[-113.99691,51.80944],[-113.99696,51.82394],[-113.97346,51.82349],[-113.97346,51.81264],[-113.97346,51.80903]]],[[[-113.85514,51.80906],[-113.85513,51.82362],[-113.83174,51.82354],[-113.83174,51.80907],[-113.84929,51.80907],[-113.85514,51.80906]]],[[[-113.97313,51.8528],[-113.97316,51.86728],[-113.94979,51.86733],[-113.94972,51.85285],[-113.96728,51.85282],[-113.97313,51.8528]]],[[[-114.07245,51.8096],[-114.07251,51.82407],[-114.04913,51.82408],[-114.04913,51.80959],[-114.06662,51.8096],[-114.07245,51.8096]]],[[[-114.09608,51.79512],[-114.09612,51.80961],[-114.07274,51.8096],[-114.07275,51.79513],[-114.09024,51.79513],[-114.09608,51.79512]]],[[[-114.02525,51.83871],[-114.02526,51.85319],[-114.00188,51.85318],[-114.00187,51.83871],[-114.01941,51.83871],[-114.02525,51.83871]]],[[[-113.90229,51.80912],[-113.90231,51.82359],[-113.87896,51.82355],[-113.87896,51.80907],[-113.89646,51.80911],[-113.90229,51.80912]]],[[[-113.97316,51.82367],[-113.97315,51.83814],[-113.94978,51.83819],[-113.94981,51.82371],[-113.96733,51.82368],[-113.97316,51.82367]]],[[[-113.92593,51.79462],[-113.92592,51.80909],[-113.90258,51.80912],[-113.9026,51.79463],[-113.9201,51.79462],[-113.92593,51.79462]]],[[[-114.02523,51.80961],[-114.02524,51.82407],[-114.00187,51.82406],[-114.00187,51.80959],[-114.01939,51.8096],[-114.02523,51.80961]]],[[[-114.09616,51.82425],[-114.09619,51.83873],[-114.07282,51.83871],[-114.07281,51.82425],[-114.09032,51.82426],[-114.09616,51.82425]]],[[[-113.90231,51.83823],[-113.90232,51.85271],[-113.87898,51.85268],[-113.87897,51.8382],[-113.89647,51.83822],[-113.90231,51.83823]]],[[[-114.07253,51.83871],[-114.07256,51.8532],[-114.04922,51.8532],[-114.0492,51.83872],[-114.0667,51.83872],[-114.07253,51.83871]]],[[[-113.97318,51.79458],[-113.97317,51.80903],[-113.94982,51.80907],[-113.94983,51.79461],[-113.96734,51.79459],[-113.97318,51.79458]]],[[[-114.14332,51.79509],[-114.14332,51.80957],[-114.12003,51.8096],[-114.11999,51.79512],[-114.13749,51.7951],[-114.14332,51.79509]]],[[[-114.04884,51.82426],[-114.0489,51.83872],[-114.02554,51.83871],[-114.02553,51.82425],[-114.04301,51.82426],[-114.04884,51.82426]]],[[[-113.8551,51.83822],[-113.85508,51.85266],[-113.83174,51.85266],[-113.83174,51.83819],[-113.84926,51.83821],[-113.8551,51.83822]]],[[[-113.92593,51.82374],[-113.92591,51.83818],[-113.9026,51.83823],[-113.9026,51.82378],[-113.9201,51.82375],[-113.92593,51.82374]]],[[[-114.14332,51.82422],[-114.14332,51.83869],[-114.12003,51.83871],[-114.12003,51.82425],[-114.1375,51.82423],[-114.14332,51.82422]]],[[[-113.94949,51.83819],[-113.94943,51.85267],[-113.92622,51.8527],[-113.9262,51.83818],[-113.94366,51.83819],[-113.94949,51.83819]]],[[[-114.11974,51.83871],[-114.11973,51.85317],[-114.09644,51.8532],[-114.09648,51.83873],[-114.11392,51.83872],[-114.11974,51.83871]]],[[[-113.87867,51.82373],[-113.87868,51.8382],[-113.85539,51.83822],[-113.85542,51.8238],[-113.87286,51.82375],[-113.87867,51.82373]]],[[[-113.92592,51.85288],[-113.92591,51.86731],[-113.90263,51.86732],[-113.90261,51.85289],[-113.92011,51.85288],[-113.92592,51.85288]]],[[[-113.90234,51.86732],[-113.90231,51.88172],[-113.879,51.88172],[-113.87899,51.8673],[-113.8965,51.86732],[-113.90234,51.86732]]],[[[-113.85504,51.86728],[-113.855,51.88172],[-113.83175,51.88171],[-113.83174,51.86724],[-113.84922,51.86728],[-113.85504,51.86728]]],[[[-113.97345,51.86728],[-113.99694,51.86772],[-113.99696,51.87495],[-113.98521,51.87473],[-113.98523,51.88193],[-113.97345,51.88173],[-113.97345,51.87811],[-113.97345,51.86728]]],[[[-113.99707,51.79484],[-114.00159,51.7951],[-114.00158,51.82405],[-113.99725,51.82395],[-113.99711,51.79851],[-113.99707,51.79484]]],[[[-113.86702,51.86007],[-113.86702,51.8673],[-113.85533,51.86728],[-113.85535,51.86006],[-113.86119,51.86007],[-113.86702,51.86007]]],[[[-113.99725,51.82413],[-114.00158,51.82423],[-114.00158,51.8387],[-113.99723,51.83857],[-113.99724,51.82774],[-113.99725,51.82413]]],[[[-113.99722,51.86049],[-114.00159,51.86059],[-114.00159,51.86782],[-113.99723,51.86772],[-113.99723,51.86411],[-113.99722,51.86049]]]]}},{"type":"Feature","properties":{"c":"9924010212","o":"E3 LITHIUM LTD.","e":""},"geometry":{"type":"MultiPolygon","coordinates":[[[[-114.04918,51.96987],[-114.04912,51.99885],[-114.02569,51.99884],[-114.02567,51.96986],[-114.04891,51.96987],[-114.04918,51.96987]]],[[[-114.04886,51.88249],[-114.04884,51.91144],[-114.0255,51.91143],[-114.02551,51.8825],[-114.04302,51.8825],[-114.04886,51.88249]]],[[[-114.11973,51.85335],[-114.11971,51.88231],[-114.09638,51.88231],[-114.09644,51.85338],[-114.11391,51.85336],[-114.11973,51.85335]]],[[[-114.09689,51.99902],[-114.09685,52.0135],[-114.07329,52.01354],[-114.07329,51.99905],[-114.09099,51.99903],[-114.09689,51.99902]]],[[[-114.07296,51.98438],[-114.073,51.99887],[-114.04941,51.99885],[-114.04944,51.98437],[-114.06708,51.98438],[-114.07296,51.98438]]],[[[-114.12072,52.02816],[-114.12069,52.04262],[-114.09713,52.04261],[-114.0971,52.02816],[-114.11482,52.02816],[-114.12072,52.02816]]],[[[-114.09632,51.9116],[-114.09622,51.92609],[-114.07279,51.92612],[-114.07279,51.91164],[-114.09044,51.91161],[-114.09632,51.9116]]],[[[-114.04912,51.99903],[-114.04914,52.01354],[-114.02568,52.0135],[-114.02569,51.99902],[-114.04327,51.99903],[-114.04912,51.99903]]],[[[-113.97346,51.89637],[-113.99693,51.89689],[-113.99687,51.91135],[-113.97347,51.91084],[-113.97346,51.89999],[-113.97346,51.89637]]],[[[-114.09609,51.88249],[-114.09625,51.89693],[-114.07278,51.89698],[-114.07278,51.8825],[-114.09026,51.8825],[-114.09609,51.88249]]],[[[-114.07249,51.89698],[-114.0725,51.91146],[-114.04913,51.91144],[-114.04914,51.89697],[-114.06665,51.89697],[-114.07249,51.89698]]],[[[-114.04884,51.91162],[-114.04884,51.92611],[-114.02549,51.92609],[-114.0255,51.91161],[-114.043,51.91162],[-114.04884,51.91162]]],[[[-114.14332,51.85334],[-114.14333,51.86782],[-114.12002,51.86783],[-114.12003,51.85335],[-114.1375,51.85335],[-114.14332,51.85334]]],[[[-114.0725,51.92612],[-114.07247,51.9406],[-114.04914,51.94058],[-114.04913,51.92611],[-114.06665,51.92612],[-114.0725,51.92612]]],[[[-114.02521,51.89695],[-114.0252,51.91143],[-114.00188,51.91143],[-114.00188,51.89696],[-114.01938,51.89696],[-114.02521,51.89695]]],[[[-114.02524,51.86789],[-114.02522,51.88232],[-114.00188,51.8823],[-114.00188,51.86783],[-114.0194,51.86788],[-114.02524,51.86789]]],[[[-114.0252,51.92609],[-114.02519,51.94056],[-114.00187,51.94054],[-114.00188,51.92607],[-114.01937,51.92608],[-114.0252,51.92609]]],[[[-114.09615,51.85338],[-114.09612,51.86785],[-114.07287,51.86786],[-114.07285,51.85338],[-114.09032,51.85338],[-114.09615,51.85338]]],[[[-114.11989,51.94075],[-114.11988,51.95521],[-114.09654,51.95519],[-114.09654,51.94074],[-114.11406,51.94075],[-114.11989,51.94075]]],[[[-114.07258,51.86786],[-114.07248,51.88232],[-114.04915,51.88231],[-114.04924,51.86786],[-114.06674,51.86786],[-114.07258,51.86786]]],[[[-114.1198,51.92608],[-114.11989,51.94057],[-114.09654,51.94056],[-114.09651,51.92609],[-114.11398,51.92608],[-114.1198,51.92608]]],[[[-114.14333,51.88247],[-114.14333,51.89695],[-114.12009,51.89694],[-114.12,51.88249],[-114.1375,51.88248],[-114.14333,51.88247]]],[[[-114.07245,51.95521],[-114.07257,51.96968],[-114.0492,51.96969],[-114.04912,51.95526],[-114.06662,51.95522],[-114.07245,51.95521]]],[[[-114.14331,51.91159],[-114.14331,51.92606],[-114.1201,51.92608],[-114.12011,51.9116],[-114.13751,51.9116],[-114.14331,51.91159]]],[[[-114.14332,51.9407],[-114.14337,51.95515],[-114.12017,51.95521],[-114.12018,51.94075],[-114.13754,51.94071],[-114.14332,51.9407]]],[[[-114.073,52.01354],[-114.07299,52.02078],[-114.06122,52.02078],[-114.06122,52.02801],[-114.04945,52.028],[-114.04944,52.01354],[-114.06711,52.01354],[-114.073,52.01354]]],[[[-114.09684,51.9771],[-114.07324,51.97713],[-114.07323,51.96986],[-114.09654,51.96989],[-114.09684,51.9771]]],[[[-114.12068,52.01353],[-114.1207,52.02076],[-114.09712,52.02074],[-114.09714,52.0135],[-114.1148,52.01353],[-114.12068,52.01353]]],[[[-113.99728,51.88238],[-114.00159,51.88247],[-114.00158,51.91142],[-113.99716,51.91135],[-113.99726,51.88603],[-113.99728,51.88238]]],[[[-114.03724,51.86063],[-114.03724,51.86788],[-114.02553,51.86789],[-114.02554,51.86063],[-114.03139,51.86063],[-114.03724,51.86063]]],[[[-114.09624,51.94796],[-114.09625,51.95519],[-114.0845,51.9552],[-114.0845,51.94798],[-114.09037,51.94797],[-114.09624,51.94796]]],[[[-113.99716,51.91154],[-114.00158,51.9116],[-114.00158,51.92607],[-113.9971,51.92599],[-113.99714,51.91515],[-113.99716,51.91154]]],[[[-114.08451,51.94076],[-114.08451,51.94437],[-114.07276,51.94439],[-114.07276,51.94078],[-114.07864,51.94077],[-114.08451,51.94076]]],[[[-114.00159,51.94796],[-114.00159,51.9552],[-113.99713,51.9552],[-113.99714,51.94794],[-114.00001,51.94795],[-114.00159,51.94796]]]]}},{"type":"Feature","properties":{"c":"9924010223","o":"E3 LITHIUM LTD.","e":""},"geometry":{"type":"MultiPolygon","coordinates":[[[[-113.94964,51.76557],[-113.94954,51.79443],[-113.92622,51.79444],[-113.92621,51.76557],[-113.94378,51.76557],[-113.94964,51.76557]]],[[[-113.87874,51.70765],[-113.87872,51.73646],[-113.85545,51.73648],[-113.85543,51.70771],[-113.87291,51.70767],[-113.87874,51.70765]]],[[[-113.80786,51.76564],[-113.80783,51.79444],[-113.78451,51.79444],[-113.78454,51.76563],[-113.80203,51.76563],[-113.80786,51.76564]]],[[[-113.80782,51.85285],[-113.80781,51.88172],[-113.78449,51.88173],[-113.78454,51.85283],[-113.802,51.85284],[-113.80782,51.85285]]],[[[-113.83179,51.71496],[-113.84347,51.71493],[-113.84346,51.7221],[-113.85515,51.72209],[-113.85515,51.73648],[-113.83176,51.73648],[-113.83177,51.72211],[-113.83179,51.71496]]],[[[-113.9968,51.72192],[-113.99682,51.73641],[-113.97345,51.73629],[-113.97345,51.72183],[-113.99096,51.7219],[-113.9968,51.72192]]],[[[-113.99683,51.75105],[-113.99681,51.76553],[-113.97346,51.76534],[-113.97346,51.75089],[-113.99099,51.75101],[-113.99683,51.75105]]],[[[-113.94966,51.75098],[-113.94964,51.76539],[-113.92621,51.76539],[-113.92621,51.75097],[-113.94379,51.75098],[-113.94966,51.75098]]],[[[-113.97318,51.70738],[-113.97316,51.72184],[-113.94991,51.72197],[-113.94986,51.70745],[-113.96735,51.7074],[-113.97318,51.70738]]],[[[-113.83145,51.7946],[-113.83145,51.80907],[-113.8081,51.80909],[-113.80812,51.79462],[-113.82562,51.79461],[-113.83145,51.7946]]],[[[-113.83145,51.82372],[-113.83145,51.83819],[-113.80809,51.83819],[-113.80809,51.82373],[-113.82561,51.82373],[-113.83145,51.82372]]],[[[-113.85516,51.75105],[-113.85516,51.76546],[-113.83174,51.76546],[-113.83175,51.75108],[-113.84931,51.75106],[-113.85516,51.75105]]],[[[-113.97347,51.77996],[-113.9968,51.78019],[-113.99678,51.79466],[-113.97347,51.7944],[-113.97347,51.78357],[-113.97347,51.77996]]],[[[-113.80784,51.75107],[-113.80786,51.76545],[-113.78454,51.76545],[-113.78448,51.75099],[-113.802,51.75105],[-113.80784,51.75107]]],[[[-113.92596,51.70752],[-113.92595,51.72196],[-113.90265,51.72203],[-113.90264,51.70759],[-113.92013,51.70754],[-113.92596,51.70752]]],[[[-113.83147,51.73666],[-113.83146,51.75108],[-113.80813,51.75107],[-113.80815,51.73665],[-113.82564,51.73666],[-113.83147,51.73666]]],[[[-113.92592,51.76557],[-113.92594,51.77999],[-113.9026,51.78007],[-113.90262,51.76562],[-113.92009,51.76558],[-113.92592,51.76557]]],[[[-113.83153,51.70776],[-113.83148,51.72211],[-113.80817,51.72219],[-113.80815,51.70772],[-113.82568,51.70775],[-113.83153,51.70776]]],[[[-113.92593,51.73654],[-113.92592,51.75097],[-113.90263,51.75102],[-113.90264,51.7366],[-113.92011,51.73655],[-113.92593,51.73654]]],[[[-113.83145,51.85284],[-113.83145,51.86724],[-113.8081,51.86728],[-113.80811,51.85285],[-113.8256,51.85284],[-113.83145,51.85284]]],[[[-113.90234,51.75102],[-113.90233,51.76544],[-113.87905,51.76547],[-113.87903,51.75105],[-113.89651,51.75103],[-113.90234,51.75102]]],[[[-113.90236,51.72203],[-113.90235,51.73642],[-113.87901,51.73646],[-113.87907,51.72206],[-113.89654,51.72204],[-113.90236,51.72203]]],[[[-113.8078,51.83819],[-113.80782,51.85267],[-113.78454,51.85265],[-113.78455,51.8382],[-113.80199,51.8382],[-113.8078,51.83819]]],[[[-113.85512,51.78005],[-113.85507,51.79443],[-113.83174,51.79442],[-113.83174,51.78003],[-113.84927,51.78005],[-113.85512,51.78005]]],[[[-113.97317,51.76552],[-113.97317,51.77996],[-113.94989,51.78],[-113.94993,51.76557],[-113.96736,51.76553],[-113.97317,51.76552]]],[[[-113.87872,51.73664],[-113.87874,51.75105],[-113.85545,51.75105],[-113.85545,51.73666],[-113.87289,51.73664],[-113.87872,51.73664]]],[[[-113.83145,51.76564],[-113.83145,51.78003],[-113.8081,51.77998],[-113.80815,51.76564],[-113.82563,51.76564],[-113.83145,51.76564]]],[[[-113.90231,51.78007],[-113.90231,51.79444],[-113.87898,51.79443],[-113.87904,51.78003],[-113.89649,51.78006],[-113.90231,51.78007]]],[[[-113.97316,51.73647],[-113.97317,51.75089],[-113.94995,51.75098],[-113.94996,51.73658],[-113.96736,51.7365],[-113.97316,51.73647]]],[[[-113.99708,51.70739],[-114.00158,51.70773],[-114.00159,51.73668],[-113.99712,51.73642],[-113.99709,51.71104],[-113.99708,51.70739]]],[[[-113.86709,51.77284],[-113.86708,51.78004],[-113.85541,51.78005],[-113.85543,51.77284],[-113.86126,51.77284],[-113.86709,51.77284]]],[[[-113.99712,51.7366],[-114.00159,51.73686],[-114.00159,51.75133],[-113.99712,51.75105],[-113.99712,51.74021],[-113.99712,51.7366]]],[[[-113.9971,51.77296],[-114.00158,51.77322],[-114.00159,51.78045],[-113.99709,51.7802],[-113.99709,51.77658],[-113.9971,51.77296]]]]}},{"type":"Feature","properties":{"c":"9924010224","o":"E3 LITHIUM LTD.","e":""},"geometry":{"type":"MultiPolygon","coordinates":[[[[-113.87875,51.62011],[-113.87879,51.64927],[-113.85546,51.64975],[-113.85543,51.62015],[-113.87291,51.62012],[-113.87875,51.62011]]],[[[-113.92598,51.62001],[-113.92599,51.63484],[-113.90265,51.6348],[-113.90266,51.62007],[-113.92566,51.62001],[-113.92598,51.62001]]],[[[-113.9732,51.61999],[-113.9732,51.63466],[-113.94987,51.63475],[-113.94988,51.61996],[-113.97259,51.61998],[-113.9732,51.61999]]],[[[-114.02524,51.66394],[-114.02522,51.67842],[-114.00188,51.67845],[-114.00187,51.66398],[-114.0194,51.66395],[-114.02524,51.66394]]],[[[-114.02522,51.69308],[-114.0252,51.70759],[-114.00188,51.70757],[-114.00188,51.6931],[-114.01939,51.69308],[-114.02522,51.69308]]],[[[-114.07242,51.69309],[-114.07245,51.70759],[-114.04913,51.7076],[-114.04914,51.6931],[-114.0666,51.69309],[-114.07242,51.69309]]],[[[-113.90236,51.6348],[-113.90235,51.64925],[-113.87908,51.64927],[-113.87906,51.63474],[-113.89653,51.63479],[-113.90236,51.6348]]],[[[-113.99675,51.6346],[-113.99674,51.64905],[-113.97349,51.64909],[-113.97349,51.63466],[-113.99094,51.63462],[-113.99675,51.6346]]],[[[-113.99668,51.66368],[-113.99672,51.67813],[-113.97348,51.67814],[-113.97348,51.66371],[-113.99088,51.66369],[-113.99668,51.66368]]],[[[-113.99704,51.6203],[-114.00158,51.62037],[-114.00159,51.64931],[-113.99703,51.64905],[-113.99704,51.62385],[-113.99704,51.6203]]],[[[-114.03719,51.68585],[-114.03718,51.69309],[-114.02551,51.69308],[-114.02551,51.68584],[-114.03135,51.68584],[-114.03719,51.68585]]],[[[-113.94958,51.64197],[-113.94958,51.64919],[-113.93793,51.64924],[-113.93793,51.64201],[-113.94375,51.64199],[-113.94958,51.64197]]],[[[-113.99703,51.64924],[-114.00159,51.64949],[-114.00158,51.66396],[-113.99697,51.66368],[-113.99701,51.65285],[-113.99703,51.64924]]],[[[-113.99703,51.68554],[-114.00158,51.68584],[-114.00159,51.69308],[-113.99705,51.69276],[-113.99704,51.68915],[-113.99703,51.68554]]]]}},{"type":"Feature","properties":{"c":"9924010225","o":"E3 LITHIUM LTD.","e":""},"geometry":{"type":"MultiPolygon","coordinates":[[[[-114.04884,51.70778],[-114.04886,51.73672],[-114.02554,51.73673],[-114.02549,51.70777],[-114.043,51.70777],[-114.04884,51.70778]]],[[[-114.04886,51.7369],[-114.04887,51.75137],[-114.02551,51.75137],[-114.02554,51.73691],[-114.04304,51.7369],[-114.04886,51.7369]]],[[[-114.02522,51.75137],[-114.02524,51.76583],[-114.00188,51.76582],[-114.00188,51.75135],[-114.01938,51.75137],[-114.02522,51.75137]]],[[[-114.02522,51.72227],[-114.02525,51.73672],[-114.00188,51.73669],[-114.00187,51.72223],[-114.01938,51.72226],[-114.02522,51.72227]]],[[[-114.07245,51.78046],[-114.07246,51.79495],[-114.04913,51.79495],[-114.04915,51.78046],[-114.06662,51.78046],[-114.07245,51.78046]]],[[[-114.02523,51.78047],[-114.02522,51.79494],[-114.00188,51.79493],[-114.00188,51.78047],[-114.01939,51.78047],[-114.02523,51.78047]]],[[[-114.07246,51.75129],[-114.07245,51.76576],[-114.04918,51.76584],[-114.04917,51.75137],[-114.06663,51.75131],[-114.07246,51.75129]]],[[[-114.07246,51.7222],[-114.07246,51.73663],[-114.04915,51.73672],[-114.04914,51.72224],[-114.06663,51.72221],[-114.07246,51.7222]]],[[[-114.0372,51.77324],[-114.03719,51.78047],[-114.02552,51.78047],[-114.02553,51.77325],[-114.03136,51.77324],[-114.0372,51.77324]]]]}},{"type":"Feature","properties":{"c":"9924010247","o":"E3 LITHIUM LTD.","e":""},"geometry":{"type":"MultiPolygon","coordinates":[[[[-114.26144,51.76601],[-114.26142,51.79493],[-114.2381,51.79493],[-114.23805,51.76601],[-114.25557,51.76601],[-114.26144,51.76601]]],[[[-114.19057,51.79512],[-114.19056,51.82405],[-114.16722,51.82404],[-114.16724,51.79511],[-114.18474,51.79512],[-114.19057,51.79512]]],[[[-114.26144,51.75134],[-114.26144,51.76582],[-114.23805,51.76583],[-114.23805,51.75135],[-114.25559,51.75134],[-114.26144,51.75134]]],[[[-114.19056,51.73689],[-114.19059,51.75137],[-114.16723,51.75138],[-114.16721,51.73689],[-114.18472,51.73689],[-114.19056,51.73689]]],[[[-114.19056,51.72225],[-114.19055,51.73671],[-114.16721,51.73671],[-114.16721,51.72224],[-114.18472,51.72224],[-114.19056,51.72225]]],[[[-114.16694,51.75138],[-114.16695,51.76587],[-114.14361,51.76581],[-114.14361,51.75134],[-114.1611,51.75137],[-114.16694,51.75138]]],[[[-114.23776,51.73686],[-114.23776,51.75135],[-114.21443,51.75139],[-114.21444,51.73691],[-114.23193,51.73687],[-114.23776,51.73686]]],[[[-114.23781,51.79511],[-114.23783,51.80959],[-114.21445,51.8096],[-114.21448,51.79512],[-114.23198,51.79511],[-114.23781,51.79511]]],[[[-114.16691,51.72224],[-114.16692,51.73671],[-114.14361,51.73668],[-114.14361,51.72221],[-114.16109,51.72223],[-114.16691,51.72224]]],[[[-114.28504,51.73685],[-114.28503,51.75132],[-114.26173,51.75134],[-114.26173,51.73686],[-114.27921,51.73685],[-114.28504,51.73685]]],[[[-114.16698,51.78047],[-114.16695,51.79493],[-114.14361,51.79491],[-114.14362,51.78045],[-114.16114,51.78047],[-114.16698,51.78047]]],[[[-114.21414,51.72225],[-114.21414,51.73673],[-114.19085,51.73671],[-114.19085,51.72225],[-114.20832,51.72225],[-114.21414,51.72225]]],[[[-114.23783,51.82425],[-114.23782,51.8387],[-114.21444,51.8387],[-114.21445,51.82425],[-114.23199,51.82425],[-114.23783,51.82425]]],[[[-114.16696,51.80957],[-114.16693,51.82404],[-114.14362,51.82404],[-114.14361,51.80957],[-114.16112,51.80957],[-114.16696,51.80957]]],[[[-114.28502,51.82422],[-114.28501,51.83868],[-114.26167,51.83869],[-114.26168,51.82421],[-114.27919,51.82422],[-114.28502,51.82422]]],[[[-114.28503,51.76597],[-114.28503,51.78045],[-114.26172,51.78047],[-114.26173,51.76601],[-114.27921,51.76598],[-114.28503,51.76597]]],[[[-114.21414,51.75139],[-114.21414,51.76586],[-114.19084,51.76586],[-114.19088,51.75137],[-114.20833,51.75138],[-114.21414,51.75139]]],[[[-114.23776,51.76601],[-114.2378,51.78046],[-114.21443,51.78048],[-114.21444,51.76605],[-114.23193,51.76602],[-114.23776,51.76601]]],[[[-114.21414,51.78048],[-114.21419,51.79494],[-114.19086,51.79494],[-114.19086,51.78046],[-114.20832,51.78047],[-114.21414,51.78048]]],[[[-114.21416,51.80959],[-114.21416,51.82407],[-114.19085,51.82405],[-114.19086,51.80957],[-114.20834,51.80959],[-114.21416,51.80959]]],[[[-114.28503,51.79509],[-114.28502,51.80956],[-114.2617,51.80956],[-114.26171,51.79511],[-114.2792,51.79509],[-114.28503,51.79509]]],[[[-114.19056,51.82423],[-114.19054,51.8387],[-114.16723,51.83869],[-114.16722,51.82422],[-114.18472,51.82423],[-114.19056,51.82423]]],[[[-114.2378,51.85336],[-114.23778,51.86782],[-114.21444,51.86781],[-114.21444,51.85335],[-114.23196,51.85336],[-114.2378,51.85336]]],[[[-114.26138,51.83869],[-114.26136,51.85317],[-114.2381,51.85318],[-114.23811,51.8387],[-114.25556,51.83869],[-114.26138,51.83869]]],[[[-114.17891,51.77325],[-114.17892,51.78047],[-114.16728,51.78047],[-114.16726,51.77326],[-114.17309,51.77326],[-114.17891,51.77325]]],[[[-114.18492,51.75884],[-114.18624,51.75954],[-114.18735,51.76194],[-114.18882,51.7634],[-114.19055,51.76437],[-114.19054,51.76586],[-114.18384,51.76586],[-114.18377,51.76257],[-114.18329,51.76065],[-114.18346,51.75868],[-114.18492,51.75884]]]]}},{"type":"Feature","properties":{"c":"9924010255","o":"E3 LITHIUM LTD.","e":""},"geometry":{"type":"MultiPolygon","coordinates":[[[[-114.19053,51.88247],[-114.19052,51.91137],[-114.16719,51.91139],[-114.16721,51.88249],[-114.1847,51.88247],[-114.19053,51.88247]]],[[[-114.19052,51.91155],[-114.19066,51.92602],[-114.1672,51.92604],[-114.16719,51.91157],[-114.18469,51.91156],[-114.19052,51.91155]]],[[[-114.21415,51.8387],[-114.21415,51.85317],[-114.19081,51.8532],[-114.19083,51.8387],[-114.20832,51.8387],[-114.21415,51.8387]]],[[[-114.16697,51.89691],[-114.16689,51.91139],[-114.1436,51.91141],[-114.14363,51.89695],[-114.16114,51.89692],[-114.16697,51.89691]]],[[[-114.16694,51.83869],[-114.16694,51.85315],[-114.14362,51.85316],[-114.14362,51.83869],[-114.16111,51.83869],[-114.16694,51.83869]]],[[[-114.21415,51.86781],[-114.21415,51.88227],[-114.19083,51.88229],[-114.19082,51.86782],[-114.20832,51.86781],[-114.21415,51.86781]]],[[[-114.16693,51.86781],[-114.16691,51.88231],[-114.14362,51.88229],[-114.14362,51.86782],[-114.1611,51.86782],[-114.16693,51.86781]]],[[[-114.16691,51.92604],[-114.16693,51.94052],[-114.14362,51.94052],[-114.1436,51.92606],[-114.16108,51.92605],[-114.16691,51.92604]]],[[[-114.17887,51.86059],[-114.17887,51.86782],[-114.16722,51.86781],[-114.16722,51.86057],[-114.17305,51.86058],[-114.17887,51.86059]]]]}},{"type":"Feature","properties":{"c":"9924010259","o":"E3 LITHIUM LTD.","e":""},"geometry":{"type":"MultiPolygon","coordinates":[[[[-113.98976,51.44559],[-113.9898,51.47453],[-113.96665,51.4743],[-113.96661,51.44542],[-113.98397,51.44555],[-113.98976,51.44559]]],[[[-113.84913,51.44521],[-113.84913,51.4741],[-113.82596,51.47408],[-113.82597,51.44523],[-113.84334,51.44522],[-113.84913,51.44521]]],[[[-113.91956,51.50339],[-113.91954,51.53228],[-113.89637,51.53227],[-113.89635,51.50339],[-113.91376,51.50339],[-113.91956,51.50339]]],[[[-113.77881,51.50346],[-113.77881,51.5322],[-113.75564,51.53223],[-113.75565,51.50348],[-113.77303,51.50347],[-113.77881,51.50346]]],[[[-113.73195,51.45972],[-113.73194,51.4742],[-113.70878,51.4742],[-113.70879,51.45973],[-113.72616,51.45972],[-113.73195,51.45972]]],[[[-113.87259,51.45964],[-113.87263,51.4741],[-113.84942,51.4741],[-113.84943,51.45965],[-113.8668,51.45964],[-113.87259,51.45964]]],[[[-113.96665,51.47448],[-113.9898,51.47471],[-113.98983,51.48919],[-113.96667,51.48895],[-113.96665,51.4781],[-113.96665,51.47448]]],[[[-113.77882,51.4888],[-113.77881,51.50328],[-113.75565,51.5033],[-113.75566,51.48883],[-113.77303,51.48881],[-113.77882,51.4888]]],[[[-113.75539,51.44525],[-113.75538,51.45971],[-113.73224,51.45972],[-113.73223,51.44526],[-113.7496,51.44525],[-113.75539,51.44525]]],[[[-113.75537,51.47436],[-113.75537,51.48883],[-113.73222,51.48886],[-113.73223,51.47438],[-113.74959,51.47437],[-113.75537,51.47436]]],[[[-113.73193,51.48886],[-113.73192,51.50332],[-113.70876,51.50333],[-113.70877,51.48886],[-113.72614,51.48886],[-113.73193,51.48886]]],[[[-113.96634,51.45984],[-113.96636,51.4743],[-113.9432,51.47413],[-113.94318,51.45969],[-113.96055,51.4598],[-113.96634,51.45984]]],[[[-113.75536,51.50348],[-113.75536,51.51795],[-113.73219,51.51797],[-113.73221,51.5035],[-113.74957,51.50349],[-113.75536,51.50348]]],[[[-113.87261,51.48873],[-113.87259,51.50317],[-113.8494,51.50315],[-113.84941,51.48872],[-113.86681,51.48873],[-113.87261,51.48873]]],[[[-113.80225,51.44522],[-113.80225,51.45965],[-113.7791,51.4597],[-113.7791,51.44524],[-113.79646,51.44523],[-113.80225,51.44522]]],[[[-113.8726,51.5178],[-113.87262,51.53225],[-113.84946,51.53223],[-113.84942,51.51777],[-113.86681,51.51779],[-113.8726,51.5178]]],[[[-113.96638,51.48895],[-113.9664,51.50341],[-113.94324,51.50321],[-113.94322,51.48876],[-113.96059,51.4889],[-113.96638,51.48895]]],[[[-113.89606,51.50339],[-113.89609,51.51782],[-113.87289,51.5178],[-113.87288,51.50335],[-113.89026,51.50338],[-113.89606,51.50339]]],[[[-113.80225,51.47426],[-113.80225,51.48869],[-113.77911,51.4888],[-113.77911,51.47433],[-113.79647,51.47428],[-113.80225,51.47426]]],[[[-113.82571,51.48869],[-113.82571,51.50313],[-113.80254,51.50312],[-113.80254,51.48869],[-113.81992,51.48869],[-113.82571,51.48869]]],[[[-113.89603,51.4743],[-113.89605,51.48877],[-113.8729,51.48873],[-113.87292,51.47428],[-113.89025,51.4743],[-113.89603,51.4743]]],[[[-113.80226,51.50331],[-113.80225,51.51774],[-113.7791,51.51793],[-113.7791,51.50346],[-113.79646,51.50334],[-113.80226,51.50331]]],[[[-113.82566,51.45962],[-113.82567,51.47408],[-113.80254,51.47408],[-113.80254,51.45965],[-113.81988,51.45963],[-113.82566,51.45962]]],[[[-113.82571,51.51775],[-113.82571,51.5322],[-113.80254,51.53217],[-113.80254,51.51774],[-113.81992,51.51775],[-113.82571,51.51775]]],[[[-113.84913,51.47428],[-113.84912,51.48872],[-113.826,51.48869],[-113.82596,51.47426],[-113.84334,51.47428],[-113.84913,51.47428]]],[[[-113.94295,51.50339],[-113.94297,51.51784],[-113.91983,51.51783],[-113.91985,51.50339],[-113.93718,51.50339],[-113.94295,51.50339]]],[[[-113.94291,51.47431],[-113.94293,51.48876],[-113.91986,51.48876],[-113.91986,51.47431],[-113.93715,51.47431],[-113.94291,51.47431]]],[[[-113.89599,51.44525],[-113.896,51.45966],[-113.87288,51.45964],[-113.87284,51.44525],[-113.8902,51.44525],[-113.89599,51.44525]]],[[[-113.94287,51.44524],[-113.94289,51.45969],[-113.91985,51.45967],[-113.91972,51.44524],[-113.93708,51.44524],[-113.94287,51.44524]]],[[[-113.90796,51.49599],[-113.89635,51.49599],[-113.89634,51.48877],[-113.91957,51.48876],[-113.91956,51.50321],[-113.90796,51.50321],[-113.90796,51.4996],[-113.90796,51.49599]]],[[[-114.00156,51.46014],[-114.00156,51.47462],[-113.99009,51.47454],[-113.99007,51.46006],[-114.00001,51.46013],[-114.00156,51.46014]]],[[[-114.00159,51.48926],[-114.00158,51.50375],[-113.99013,51.50365],[-113.99012,51.48919],[-114.00001,51.48925],[-114.00159,51.48926]]],[[[-114.00158,51.51838],[-114.00157,51.53285],[-113.99018,51.53273],[-113.99015,51.51829],[-114.00001,51.51837],[-114.00158,51.51838]]],[[[-113.9667,51.51082],[-113.97828,51.51094],[-113.97829,51.51817],[-113.96671,51.51806],[-113.9667,51.51444],[-113.9667,51.51082]]],[[[-113.93141,51.52506],[-113.93141,51.53228],[-113.91983,51.53228],[-113.91983,51.52505],[-113.92562,51.52506],[-113.93141,51.52506]]],[[[-113.83756,51.51054],[-113.83756,51.51776],[-113.826,51.51775],[-113.826,51.51053],[-113.83178,51.51054],[-113.83756,51.51054]]]]}},{"type":"Feature","properties":{"c":"9924010260","o":"E3 LITHIUM LTD.","e":""},"geometry":{"type":"MultiPolygon","coordinates":[[[[-114.04889,51.64929],[-114.02553,51.64927],[-114.02552,51.62038],[-114.04874,51.62037],[-114.04889,51.64929]]],[[[-113.96672,51.5327],[-113.98989,51.53291],[-113.98988,51.56187],[-113.96672,51.56164],[-113.96672,51.53632],[-113.96672,51.5327]]],[[[-114.11874,51.59114],[-114.11874,51.62015],[-114.0956,51.62016],[-114.09557,51.59123],[-114.11296,51.59117],[-114.11874,51.59114]]],[[[-114.04845,51.53301],[-114.04843,51.56194],[-114.02529,51.56196],[-114.0253,51.53303],[-114.04266,51.53302],[-114.04845,51.53301]]],[[[-114.02525,51.6348],[-114.02524,51.64927],[-114.00188,51.64933],[-114.00188,51.63485],[-114.0194,51.63481],[-114.02525,51.6348]]],[[[-114.04889,51.64947],[-114.04886,51.66391],[-114.02553,51.66394],[-114.02553,51.64945],[-114.04305,51.64946],[-114.04889,51.64947]]],[[[-114.07232,51.66397],[-114.07238,51.67845],[-114.04915,51.67843],[-114.04915,51.66391],[-114.06653,51.66395],[-114.07232,51.66397]]],[[[-114.07188,51.60569],[-114.07187,51.62018],[-114.04874,51.62019],[-114.04869,51.60569],[-114.06608,51.60569],[-114.07188,51.60569]]],[[[-113.96672,51.56182],[-113.98988,51.56206],[-113.98988,51.57653],[-113.96672,51.57629],[-113.96672,51.56544],[-113.96672,51.56182]]],[[[-114.02499,51.60569],[-114.02501,51.6202],[-114.00187,51.6202],[-114.00186,51.60571],[-114.01921,51.6057],[-114.02499,51.60569]]],[[[-114.07189,51.54747],[-114.07188,51.56193],[-114.04872,51.56194],[-114.04873,51.54748],[-114.0661,51.54747],[-114.07189,51.54747]]],[[[-114.07187,51.57659],[-114.07187,51.59106],[-114.04871,51.59104],[-114.04872,51.57658],[-114.06608,51.57659],[-114.07187,51.57659]]],[[[-114.11874,51.57652],[-114.11874,51.59096],[-114.09557,51.59105],[-114.09558,51.57657],[-114.11295,51.57653],[-114.11874,51.57652]]],[[[-113.94326,51.51784],[-113.96642,51.51805],[-113.96643,51.53252],[-113.94329,51.53229],[-113.94327,51.52145],[-113.94326,51.51784]]],[[[-114.09531,51.5621],[-114.09529,51.57657],[-114.07217,51.57659],[-114.07217,51.56211],[-114.08952,51.5621],[-114.09531,51.5621]]],[[[-113.94332,51.60513],[-113.96642,51.60541],[-113.96651,51.61974],[-113.94333,51.61979],[-113.94332,51.60874],[-113.94332,51.60513]]],[[[-114.1422,51.59105],[-114.14219,51.6055],[-114.11902,51.6056],[-114.11903,51.59114],[-114.1364,51.59107],[-114.1422,51.59105]]],[[[-113.94329,51.54693],[-113.96643,51.54717],[-113.96643,51.56164],[-113.9433,51.56139],[-113.94329,51.55054],[-113.94329,51.54693]]],[[[-114.04843,51.56212],[-114.04843,51.57658],[-114.02528,51.5766],[-114.02528,51.56214],[-114.04264,51.56212],[-114.04843,51.56212]]],[[[-114.1422,51.53292],[-114.1422,51.54737],[-114.11906,51.54742],[-114.11907,51.53295],[-114.13642,51.53293],[-114.1422,51.53292]]],[[[-114.025,51.54749],[-114.02499,51.56196],[-114.00187,51.56196],[-114.00187,51.54749],[-114.01922,51.54749],[-114.025,51.54749]]],[[[-114.14221,51.562],[-114.14219,51.57642],[-114.11903,51.57651],[-114.11904,51.56205],[-114.13642,51.56201],[-114.14221,51.562]]],[[[-113.9433,51.57603],[-113.96643,51.57629],[-113.96643,51.59076],[-113.94331,51.59049],[-113.94331,51.57964],[-113.9433,51.57603]]],[[[-114.02499,51.5766],[-114.02499,51.59106],[-114.00187,51.59106],[-114.00188,51.5766],[-114.01921,51.5766],[-114.02499,51.5766]]],[[[-114.07226,51.63484],[-114.07229,51.64934],[-114.04918,51.64929],[-114.04917,51.63482],[-114.06649,51.63484],[-114.07226,51.63484]]],[[[-114.09528,51.59123],[-114.09527,51.60569],[-114.07217,51.60569],[-114.07216,51.59124],[-114.0895,51.59124],[-114.09528,51.59123]]],[[[-114.09534,51.53298],[-114.09532,51.54745],[-114.07218,51.54747],[-114.07218,51.54024],[-114.08376,51.54023],[-114.08377,51.53299],[-114.08955,51.53298],[-114.09534,51.53298]]],[[[-114.00158,51.54749],[-114.00158,51.56195],[-113.99017,51.56188],[-113.99017,51.5474],[-114.00001,51.54748],[-114.00158,51.54749]]],[[[-114.00159,51.5766],[-114.00158,51.59106],[-113.99018,51.59101],[-113.99017,51.57653],[-114.00001,51.57659],[-114.00159,51.5766]]],[[[-114.00157,51.60571],[-114.00158,51.62019],[-113.99027,51.62],[-113.99019,51.60567],[-114.00001,51.60571],[-114.00157,51.60571]]]]}},{"type":"Feature","properties":{"c":"9924010261","o":"E3 LITHIUM LTD.","e":""},"geometry":{"type":"MultiPolygon","coordinates":[[[[-114.25945,51.50385],[-114.25936,51.5328],[-114.23622,51.5328],[-114.23624,51.50388],[-114.25364,51.50386],[-114.25945,51.50385]]],[[[-114.11878,51.50389],[-114.11878,51.53277],[-114.09563,51.5328],[-114.09564,51.50388],[-114.11299,51.50388],[-114.11878,51.50389]]],[[[-114.1891,51.44569],[-114.18904,51.47459],[-114.16596,51.47461],[-114.16595,51.44569],[-114.18332,51.44569],[-114.1891,51.44569]]],[[[-114.23596,51.47477],[-114.23595,51.49648],[-114.2244,51.4965],[-114.22439,51.50372],[-114.21283,51.50375],[-114.21283,51.47482],[-114.23018,51.47478],[-114.23596,51.47477]]],[[[-114.23625,51.47477],[-114.25942,51.47479],[-114.25943,51.4784],[-114.25363,51.4784],[-114.25364,51.48201],[-114.24784,51.48201],[-114.24784,51.48924],[-114.25944,51.48923],[-114.25945,51.50367],[-114.23624,51.5037],[-114.23624,51.48924],[-114.23625,51.47477]]],[[[-114.21256,51.5184],[-114.21251,51.53281],[-114.1892,51.5328],[-114.18923,51.51834],[-114.20673,51.51838],[-114.21256,51.5184]]],[[[-114.21255,51.48927],[-114.21254,51.50375],[-114.18926,51.5037],[-114.18929,51.48925],[-114.20674,51.48927],[-114.21255,51.48927]]],[[[-114.04846,51.46012],[-114.04846,51.47459],[-114.02529,51.47466],[-114.02527,51.46018],[-114.04266,51.46014],[-114.04846,51.46012]]],[[[-114.21254,51.46017],[-114.21254,51.47464],[-114.18933,51.47459],[-114.18935,51.46013],[-114.20674,51.46016],[-114.21254,51.46017]]],[[[-114.09535,51.50388],[-114.09535,51.51834],[-114.07213,51.51837],[-114.07214,51.50391],[-114.08955,51.50389],[-114.09535,51.50388]]],[[[-114.09534,51.47479],[-114.09535,51.48925],[-114.07216,51.48928],[-114.07217,51.47481],[-114.08955,51.4748],[-114.09534,51.47479]]],[[[-114.04846,51.47477],[-114.04847,51.48925],[-114.02529,51.4893],[-114.02529,51.47484],[-114.04267,51.47479],[-114.04846,51.47477]]],[[[-114.16567,51.48925],[-114.16567,51.50371],[-114.14247,51.50367],[-114.14248,51.48921],[-114.15987,51.48924],[-114.16567,51.48925]]],[[[-114.02498,51.46018],[-114.025,51.47466],[-114.00185,51.47462],[-114.00185,51.46014],[-114.0192,51.46017],[-114.02498,51.46018]]],[[[-114.16566,51.46015],[-114.16567,51.47461],[-114.1425,51.47457],[-114.14251,51.46012],[-114.15987,51.46014],[-114.16566,51.46015]]],[[[-114.07189,51.46017],[-114.07188,51.47463],[-114.04875,51.47459],[-114.04875,51.46012],[-114.0661,51.46016],[-114.07189,51.46017]]],[[[-114.025,51.4893],[-114.02501,51.50377],[-114.00187,51.50375],[-114.00188,51.48927],[-114.01922,51.48929],[-114.025,51.4893]]],[[[-114.16566,51.51834],[-114.16566,51.5328],[-114.14249,51.53274],[-114.14248,51.5183],[-114.15987,51.51833],[-114.16566,51.51834]]],[[[-114.02501,51.5184],[-114.02501,51.53284],[-114.00186,51.53286],[-114.00187,51.51838],[-114.01923,51.5184],[-114.02501,51.5184]]],[[[-114.14221,51.47476],[-114.14219,51.48921],[-114.11908,51.48925],[-114.11906,51.4748],[-114.13642,51.47477],[-114.14221,51.47476]]],[[[-114.23596,51.4457],[-114.23596,51.46012],[-114.21283,51.46017],[-114.21283,51.44571],[-114.23018,51.4457],[-114.23596,51.4457]]],[[[-114.11879,51.48925],[-114.11878,51.50371],[-114.09564,51.5037],[-114.09564,51.48925],[-114.113,51.48925],[-114.11879,51.48925]]],[[[-114.23595,51.50388],[-114.23595,51.51834],[-114.21285,51.5184],[-114.21283,51.50393],[-114.23017,51.50389],[-114.23595,51.50388]]],[[[-114.07187,51.48928],[-114.07185,51.50373],[-114.04875,51.50372],[-114.04876,51.48925],[-114.06609,51.48927],[-114.07187,51.48928]]],[[[-114.07184,51.51837],[-114.0719,51.53282],[-114.04874,51.53283],[-114.04874,51.51838],[-114.06607,51.51837],[-114.07184,51.51837]]],[[[-114.18904,51.47477],[-114.189,51.48925],[-114.16596,51.48925],[-114.16596,51.47479],[-114.18327,51.47477],[-114.18904,51.47477]]],[[[-114.14218,51.50385],[-114.14219,51.5183],[-114.11907,51.51833],[-114.11907,51.50389],[-114.13641,51.50386],[-114.14218,51.50385]]],[[[-114.28281,51.47477],[-114.28279,51.48923],[-114.25973,51.48923],[-114.25971,51.47479],[-114.27704,51.47478],[-114.28281,51.47477]]],[[[-114.28278,51.50387],[-114.28276,51.51833],[-114.25972,51.51832],[-114.25974,51.50385],[-114.27702,51.50386],[-114.28278,51.50387]]],[[[-114.23625,51.46012],[-114.25362,51.46014],[-114.25363,51.46737],[-114.25942,51.46738],[-114.25942,51.47461],[-114.23625,51.47459],[-114.23625,51.46735],[-114.23625,51.46012]]],[[[-114.03688,51.51116],[-114.03688,51.51839],[-114.0253,51.5184],[-114.0253,51.51118],[-114.03109,51.51117],[-114.03688,51.51116]]],[[[-114.17745,51.51111],[-114.17744,51.51834],[-114.16595,51.51834],[-114.16595,51.51111],[-114.1717,51.51111],[-114.17745,51.51111]]],[[[-114.07347,51.46659],[-114.07217,51.46659],[-114.07218,51.46017],[-114.08377,51.46016],[-114.08376,51.46739],[-114.07347,51.4674],[-114.07347,51.46659]]]]}},{"type":"Feature","properties":{"c":"9924010262","o":"E3 LITHIUM LTD.","e":""},"geometry":{"type":"MultiPolygon","coordinates":[[[[-114.32965,51.53304],[-114.32962,51.56192],[-114.30647,51.56188],[-114.3065,51.533],[-114.32386,51.53303],[-114.32965,51.53304]]],[[[-114.25931,51.59129],[-114.25931,51.62011],[-114.23615,51.62012],[-114.23617,51.59127],[-114.25354,51.59131],[-114.25931,51.59129]]],[[[-114.18891,51.53299],[-114.18896,51.56189],[-114.16593,51.56183],[-114.16595,51.53298],[-114.18321,51.53298],[-114.18891,51.53299]]],[[[-114.14322,51.62029],[-114.14324,51.6349],[-114.11986,51.6349],[-114.11986,51.6203],[-114.14246,51.62029],[-114.14322,51.62029]]],[[[-114.09589,51.62034],[-114.09592,51.63488],[-114.07255,51.63484],[-114.0725,51.62037],[-114.0956,51.62034],[-114.09589,51.62034]]],[[[-114.30615,51.60556],[-114.30618,51.62013],[-114.28302,51.62008],[-114.28303,51.6055],[-114.30037,51.60555],[-114.30615,51.60556]]],[[[-114.09593,51.64952],[-114.09596,51.66399],[-114.07261,51.66397],[-114.07258,51.64952],[-114.09009,51.64954],[-114.09593,51.64952]]],[[[-114.11959,51.664],[-114.1196,51.67846],[-114.09627,51.67846],[-114.09626,51.66399],[-114.11376,51.664],[-114.11959,51.664]]],[[[-114.25935,51.57662],[-114.25931,51.59111],[-114.23617,51.59109],[-114.23618,51.57659],[-114.25356,51.57661],[-114.25935,51.57662]]],[[[-114.21248,51.57657],[-114.21247,51.59105],[-114.18927,51.59103],[-114.18926,51.57654],[-114.20667,51.57656],[-114.21248,51.57657]]],[[[-114.2125,51.54747],[-114.21249,51.5619],[-114.18925,51.56189],[-114.18923,51.54748],[-114.20668,51.54747],[-114.2125,51.54747]]],[[[-114.14248,51.6055],[-114.1656,51.60569],[-114.16559,51.62012],[-114.14246,51.62011],[-114.14247,51.60912],[-114.14248,51.6055]]],[[[-114.37648,51.56218],[-114.37653,51.57666],[-114.35335,51.57662],[-114.35334,51.56215],[-114.3707,51.56217],[-114.37648,51.56218]]],[[[-114.23591,51.56211],[-114.23589,51.57659],[-114.21277,51.57657],[-114.21278,51.56208],[-114.23023,51.5621],[-114.23591,51.56211]]],[[[-114.23593,51.53299],[-114.23593,51.54746],[-114.21279,51.54747],[-114.2128,51.53299],[-114.23015,51.53299],[-114.23593,51.53299]]],[[[-114.42338,51.56222],[-114.42339,51.57669],[-114.40023,51.57666],[-114.40024,51.56221],[-114.4176,51.56222],[-114.42338,51.56222]]],[[[-114.42337,51.5331],[-114.42338,51.54757],[-114.40024,51.54755],[-114.40024,51.53311],[-114.41759,51.53311],[-114.42337,51.5331]]],[[[-114.37649,51.53309],[-114.37656,51.54755],[-114.35339,51.54751],[-114.35338,51.53307],[-114.3707,51.53309],[-114.37649,51.53309]]],[[[-114.16561,51.57655],[-114.16561,51.59104],[-114.14249,51.59087],[-114.14248,51.57641],[-114.15983,51.57652],[-114.16561,51.57655]]],[[[-114.32962,51.5621],[-114.32961,51.57655],[-114.30645,51.5765],[-114.30647,51.56206],[-114.32383,51.56209],[-114.32962,51.5621]]],[[[-114.28273,51.56201],[-114.28273,51.57644],[-114.25964,51.57662],[-114.25963,51.56213],[-114.27696,51.56203],[-114.28273,51.56201]]],[[[-114.28276,51.53296],[-114.28274,51.5474],[-114.25964,51.54747],[-114.25965,51.53298],[-114.27698,51.53297],[-114.28276,51.53296]]],[[[-114.3531,51.54751],[-114.35305,51.56197],[-114.32991,51.56192],[-114.32992,51.54749],[-114.3473,51.54751],[-114.3531,51.54751]]],[[[-114.23588,51.59127],[-114.23587,51.60573],[-114.21275,51.6057],[-114.21276,51.59123],[-114.2301,51.59126],[-114.23588,51.59127]]],[[[-114.18896,51.56207],[-114.18897,51.57654],[-114.1659,51.57655],[-114.16593,51.56201],[-114.18321,51.56205],[-114.18896,51.56207]]],[[[-114.35306,51.57662],[-114.35304,51.59106],[-114.32988,51.59098],[-114.3299,51.57655],[-114.34727,51.5766],[-114.35306,51.57662]]],[[[-114.30619,51.54743],[-114.30618,51.56188],[-114.28302,51.56182],[-114.28303,51.5474],[-114.3004,51.54743],[-114.30619,51.54743]]],[[[-114.21246,51.6057],[-114.21245,51.62013],[-114.18931,51.62012],[-114.1893,51.60567],[-114.20667,51.6057],[-114.21246,51.6057]]],[[[-114.30616,51.5765],[-114.30615,51.59094],[-114.28303,51.59088],[-114.28302,51.57644],[-114.30038,51.57648],[-114.30616,51.5765]]],[[[-114.28274,51.59107],[-114.28274,51.6055],[-114.2596,51.60577],[-114.2596,51.59129],[-114.27695,51.59115],[-114.28274,51.59107]]],[[[-114.16566,51.54747],[-114.16564,51.56183],[-114.1425,51.56182],[-114.14249,51.54737],[-114.15986,51.54745],[-114.16566,51.54747]]]]}},{"type":"Feature","properties":{"c":"9924010263","o":"E3 LITHIUM LTD.","e":""},"geometry":{"type":"MultiPolygon","coordinates":[[[[-114.19052,51.6203],[-114.19053,51.64933],[-114.16717,51.64933],[-114.16716,51.62031],[-114.18931,51.6203],[-114.19052,51.6203]]],[[[-114.2614,51.67866],[-114.26141,51.70756],[-114.23803,51.70757],[-114.23805,51.67861],[-114.25557,51.67865],[-114.2614,51.67866]]],[[[-114.1196,51.67864],[-114.11961,51.70757],[-114.09632,51.70758],[-114.09628,51.67864],[-114.11377,51.67864],[-114.1196,51.67864]]],[[[-114.09636,51.76604],[-114.11972,51.76604],[-114.1197,51.79494],[-114.10803,51.79495],[-114.10804,51.79134],[-114.1022,51.79133],[-114.1022,51.79495],[-114.09637,51.79494],[-114.09636,51.79133],[-114.09636,51.76604]]],[[[-114.12192,51.72223],[-114.11996,51.72223],[-114.1199,51.70775],[-114.14331,51.70773],[-114.14331,51.72221],[-114.13497,51.72222],[-114.13282,51.72402],[-114.13068,51.727],[-114.12982,51.72747],[-114.12762,51.72564],[-114.12192,51.72223]]],[[[-114.28507,51.62026],[-114.28507,51.63485],[-114.26172,51.63487],[-114.26173,51.62029],[-114.28302,51.62027],[-114.28507,51.62026]]],[[[-114.23782,51.62029],[-114.2378,51.63483],[-114.21445,51.63484],[-114.21445,51.6203],[-114.23615,51.62029],[-114.23782,51.62029]]],[[[-114.14328,51.67865],[-114.1433,51.69311],[-114.1199,51.69309],[-114.11989,51.67864],[-114.13746,51.67863],[-114.14328,51.67865]]],[[[-114.28506,51.64949],[-114.28505,51.66394],[-114.26169,51.664],[-114.2617,51.64951],[-114.27928,51.64949],[-114.28506,51.64949]]],[[[-114.19053,51.70776],[-114.19056,51.72225],[-114.16721,51.72224],[-114.1672,51.70775],[-114.1847,51.70776],[-114.19053,51.70776]]],[[[-114.2614,51.664],[-114.2614,51.67848],[-114.23805,51.67843],[-114.23806,51.66396],[-114.25556,51.66399],[-114.2614,51.664]]],[[[-114.19053,51.64951],[-114.19053,51.66397],[-114.16718,51.66398],[-114.16717,51.64951],[-114.18472,51.64951],[-114.19053,51.64951]]],[[[-114.21415,51.66395],[-114.21419,51.67843],[-114.19084,51.67846],[-114.19082,51.66397],[-114.20832,51.66395],[-114.21415,51.66395]]],[[[-114.23779,51.64948],[-114.23777,51.66396],[-114.21444,51.66395],[-114.21444,51.64948],[-114.23195,51.64948],[-114.23779,51.64948]]],[[[-114.21416,51.63484],[-114.21415,51.6493],[-114.19082,51.64933],[-114.19082,51.63486],[-114.20832,51.63484],[-114.21416,51.63484]]],[[[-114.16687,51.63487],[-114.16688,51.64933],[-114.14355,51.64936],[-114.14353,51.6349],[-114.16103,51.63488],[-114.16687,51.63487]]],[[[-114.28504,51.70773],[-114.28504,51.7222],[-114.2617,51.72221],[-114.2617,51.70774],[-114.27922,51.70772],[-114.28504,51.70773]]],[[[-114.11971,51.75137],[-114.11972,51.76586],[-114.09636,51.76586],[-114.09636,51.75138],[-114.11387,51.75137],[-114.11971,51.75137]]],[[[-114.14332,51.73686],[-114.14332,51.75134],[-114.12,51.75137],[-114.11997,51.73689],[-114.13748,51.73687],[-114.14332,51.73686]]],[[[-114.16689,51.66398],[-114.16689,51.67846],[-114.14358,51.67847],[-114.14356,51.66401],[-114.16106,51.66399],[-114.16689,51.66398]]],[[[-114.21416,51.6931],[-114.21414,51.70758],[-114.19082,51.70758],[-114.19083,51.69311],[-114.20833,51.6931],[-114.21416,51.6931]]],[[[-114.09607,51.7369],[-114.09607,51.75138],[-114.07275,51.75129],[-114.07275,51.73681],[-114.09024,51.73688],[-114.09607,51.7369]]],[[[-114.23774,51.70775],[-114.23774,51.72222],[-114.21443,51.72225],[-114.21443,51.70776],[-114.23191,51.70775],[-114.23774,51.70775]]],[[[-114.09598,51.67864],[-114.09601,51.6931],[-114.07271,51.69309],[-114.07267,51.67863],[-114.09015,51.67864],[-114.09598,51.67864]]],[[[-114.23776,51.67861],[-114.23777,51.69308],[-114.21445,51.6931],[-114.21448,51.67861],[-114.23195,51.67862],[-114.23776,51.67861]]],[[[-114.1669,51.69311],[-114.16691,51.70757],[-114.1436,51.70755],[-114.14359,51.69311],[-114.16108,51.69311],[-114.1669,51.69311]]],[[[-114.09606,51.76604],[-114.09607,51.78048],[-114.07274,51.78046],[-114.07274,51.76594],[-114.09023,51.76603],[-114.09606,51.76604]]],[[[-114.09603,51.70776],[-114.09605,51.72224],[-114.07275,51.7222],[-114.07274,51.70777],[-114.09022,51.70776],[-114.09603,51.70776]]],[[[-114.14332,51.76599],[-114.14333,51.78045],[-114.12003,51.78052],[-114.12001,51.76604],[-114.13749,51.76601],[-114.14332,51.76599]]],[[[-114.11988,51.64953],[-114.14326,51.64954],[-114.14326,51.65677],[-114.13155,51.65676],[-114.13155,51.66039],[-114.13741,51.66039],[-114.13741,51.66401],[-114.11988,51.664],[-114.11989,51.66037],[-114.11988,51.64953]]],[[[-114.27338,51.68587],[-114.27339,51.6931],[-114.26169,51.69314],[-114.26168,51.6859],[-114.26753,51.68588],[-114.27338,51.68587]]],[[[-114.17887,51.68588],[-114.17887,51.69311],[-114.1672,51.69311],[-114.16718,51.68587],[-114.17302,51.68587],[-114.17887,51.68588]]]]}},{"type":"Feature","properties":{"c":"9924010264","o":"E3 LITHIUM LTD.","e":""},"geometry":{"type":"MultiPolygon","coordinates":[[[[-114.62035,51.96991],[-114.62035,51.99896],[-114.59686,51.999],[-114.59686,51.96992],[-114.61585,51.96991],[-114.62035,51.96991]]],[[[-114.54899,52.02824],[-114.54898,52.05716],[-114.52548,52.05714],[-114.52548,52.02817],[-114.54311,52.02822],[-114.54899,52.02824]]],[[[-114.69171,52.0281],[-114.69173,52.05709],[-114.66823,52.05711],[-114.66824,52.02813],[-114.68584,52.02811],[-114.69171,52.0281]]],[[[-114.56102,52.07904],[-114.54929,52.07904],[-114.54928,52.05734],[-114.57275,52.05735],[-114.57277,52.08626],[-114.56102,52.08627],[-114.56102,52.08265],[-114.56102,52.07904]]],[[[-114.57279,51.96992],[-114.57278,51.98453],[-114.5493,51.98451],[-114.54931,51.96992],[-114.56855,51.96992],[-114.57279,51.96992]]],[[[-114.45385,52.01337],[-114.45383,52.02784],[-114.43021,52.02791],[-114.43018,52.01341],[-114.44793,52.01338],[-114.45385,52.01337]]],[[[-114.66793,51.96987],[-114.66793,51.9844],[-114.64443,51.98446],[-114.64442,51.96989],[-114.66316,51.96987],[-114.66793,51.96987]]],[[[-114.71549,51.96982],[-114.7155,51.98437],[-114.692,51.98439],[-114.692,51.96985],[-114.71053,51.96983],[-114.71549,51.96982]]],[[[-114.52525,51.96991],[-114.52523,51.98444],[-114.50174,51.98436],[-114.50176,51.9699],[-114.5214,51.96991],[-114.52525,51.96991]]],[[[-114.6442,52.04264],[-114.64413,52.05713],[-114.62063,52.05714],[-114.62062,52.04267],[-114.6383,52.04265],[-114.6442,52.04264]]],[[[-114.64417,52.01354],[-114.64418,52.02801],[-114.62063,52.02804],[-114.62063,52.01359],[-114.63828,52.01356],[-114.64417,52.01354]]],[[[-114.71551,51.999],[-114.71551,52.01347],[-114.69199,52.01346],[-114.692,51.99902],[-114.70963,51.99901],[-114.71551,51.999]]],[[[-114.549,52.0136],[-114.54899,52.02806],[-114.52548,52.02799],[-114.52549,52.01352],[-114.54312,52.01358],[-114.549,52.0136]]],[[[-114.54898,52.05734],[-114.54899,52.07181],[-114.52546,52.0718],[-114.52548,52.05732],[-114.54311,52.05733],[-114.54898,52.05734]]],[[[-114.47768,51.98435],[-114.47766,51.99881],[-114.45416,51.99874],[-114.45418,51.98428],[-114.4718,51.98433],[-114.47768,51.98435]]],[[[-114.47766,51.99899],[-114.47765,52.01344],[-114.45414,52.01337],[-114.45416,51.99892],[-114.47179,51.99897],[-114.47766,51.99899]]],[[[-114.64414,51.98446],[-114.64415,51.99891],[-114.62064,51.99896],[-114.62064,51.98451],[-114.63826,51.98447],[-114.64414,51.98446]]],[[[-114.71551,52.02811],[-114.71551,52.04257],[-114.692,52.04255],[-114.692,52.0281],[-114.70964,52.02811],[-114.71551,52.02811]]],[[[-114.59657,52.01363],[-114.59657,52.02808],[-114.57306,52.02808],[-114.57307,52.01363],[-114.5907,52.01363],[-114.59657,52.01363]]],[[[-114.59656,51.98453],[-114.59656,51.999],[-114.57307,51.99899],[-114.57308,51.98453],[-114.59069,51.98453],[-114.59656,51.98453]]],[[[-114.50145,51.98436],[-114.50144,51.99882],[-114.47796,51.99881],[-114.47797,51.98435],[-114.49558,51.98436],[-114.50145,51.98436]]],[[[-114.59659,52.04271],[-114.59654,52.05716],[-114.57305,52.05717],[-114.57305,52.04271],[-114.5907,52.04271],[-114.59659,52.04271]]],[[[-114.52519,52.02817],[-114.52519,52.04262],[-114.50167,52.04255],[-114.50168,52.02811],[-114.51931,52.02815],[-114.52519,52.02817]]],[[[-114.57278,51.99917],[-114.57277,52.01363],[-114.54929,52.0136],[-114.54929,51.99915],[-114.56691,51.99917],[-114.57278,51.99917]]],[[[-114.5252,51.99906],[-114.5252,52.01352],[-114.50171,52.01346],[-114.50173,51.999],[-114.51933,51.99905],[-114.5252,51.99906]]],[[[-114.66793,51.99904],[-114.66794,52.01349],[-114.64446,52.01354],[-114.64445,51.99909],[-114.66206,51.99905],[-114.66793,51.99904]]],[[[-114.62035,51.99914],[-114.62034,52.01359],[-114.59687,52.01363],[-114.59686,51.99918],[-114.61447,51.99915],[-114.62035,51.99914]]],[[[-114.50142,52.01346],[-114.50139,52.02793],[-114.47792,52.0279],[-114.47794,52.01345],[-114.49555,52.01346],[-114.50142,52.01346]]],[[[-114.6917,52.01346],[-114.69171,52.02792],[-114.66824,52.02794],[-114.66823,52.01349],[-114.68583,52.01347],[-114.6917,52.01346]]],[[[-114.57277,52.02826],[-114.57276,52.04271],[-114.54928,52.04269],[-114.54928,52.02824],[-114.5669,52.02825],[-114.57277,52.02826]]],[[[-114.66795,52.02813],[-114.66795,52.04258],[-114.64449,52.04264],[-114.64447,52.02819],[-114.66208,52.02814],[-114.66795,52.02813]]],[[[-114.54469,51.95521],[-114.54468,51.96974],[-114.5214,51.96972],[-114.5214,51.95518],[-114.53887,51.9552],[-114.54469,51.95521]]]]}},{"type":"Feature","properties":{"c":"9924010273","o":"E3 LITHIUM LTD.","e":""},"geometry":{"type":"MultiPolygon","coordinates":[[[[-114.47021,51.44576],[-114.47023,51.47469],[-114.44708,51.47469],[-114.44706,51.44576],[-114.46443,51.44576],[-114.47021,51.44576]]],[[[-114.32966,51.44573],[-114.32964,51.47467],[-114.30652,51.47461],[-114.30652,51.44571],[-114.32388,51.44573],[-114.32966,51.44573]]],[[[-114.3999,51.50397],[-114.39995,51.53293],[-114.37678,51.53291],[-114.37679,51.50394],[-114.39411,51.50396],[-114.3999,51.50397]]],[[[-114.5171,51.47486],[-114.5171,51.48933],[-114.50553,51.48934],[-114.50553,51.5038],[-114.49396,51.5038],[-114.49395,51.47488],[-114.51132,51.47487],[-114.5171,51.47486]]],[[[-114.50553,51.46023],[-114.49395,51.46023],[-114.49396,51.44577],[-114.51711,51.44575],[-114.51711,51.46383],[-114.50553,51.46384],[-114.50553,51.46023]]],[[[-114.30617,51.51794],[-114.30621,51.53282],[-114.28305,51.53278],[-114.28305,51.51833],[-114.30039,51.51804],[-114.30617,51.51794]]],[[[-114.37649,51.47483],[-114.37651,51.48929],[-114.35334,51.48933],[-114.35335,51.47484],[-114.37072,51.47484],[-114.37649,51.47483]]],[[[-114.44679,51.46023],[-114.44679,51.47469],[-114.42365,51.47473],[-114.42364,51.46024],[-114.441,51.46023],[-114.44679,51.46023]]],[[[-114.49366,51.46023],[-114.49366,51.4747],[-114.47052,51.47469],[-114.47051,51.46022],[-114.48787,51.46023],[-114.49366,51.46023]]],[[[-114.42335,51.44576],[-114.42335,51.46024],[-114.40022,51.46023],[-114.40022,51.44576],[-114.41757,51.44576],[-114.42335,51.44576]]],[[[-114.3765,51.50394],[-114.3765,51.51844],[-114.35336,51.51844],[-114.35335,51.50398],[-114.37072,51.50395],[-114.3765,51.50394]]],[[[-114.42336,51.47491],[-114.42336,51.48938],[-114.40019,51.48932],[-114.4002,51.47487],[-114.41757,51.4749],[-114.42336,51.47491]]],[[[-114.42337,51.50402],[-114.42337,51.51847],[-114.40019,51.51843],[-114.40019,51.50397],[-114.41757,51.50401],[-114.42337,51.50402]]],[[[-114.35305,51.48933],[-114.35306,51.5038],[-114.32991,51.50378],[-114.32991,51.48931],[-114.34726,51.48933],[-114.35305,51.48933]]],[[[-114.44682,51.51846],[-114.44681,51.53295],[-114.42366,51.53292],[-114.42366,51.51847],[-114.44103,51.51846],[-114.44682,51.51846]]],[[[-114.35308,51.4602],[-114.35306,51.47466],[-114.32992,51.47467],[-114.32994,51.4602],[-114.34729,51.4602],[-114.35308,51.4602]]],[[[-114.47023,51.47488],[-114.47023,51.48934],[-114.44708,51.48933],[-114.44708,51.47487],[-114.46444,51.47487],[-114.47023,51.47488]]],[[[-114.56394,51.44576],[-114.56394,51.46022],[-114.54083,51.46024],[-114.54083,51.44576],[-114.55816,51.44576],[-114.56394,51.44576]]],[[[-114.30626,51.43109],[-114.30623,51.44553],[-114.28309,51.44549],[-114.28311,51.43105],[-114.30047,51.43108],[-114.30626,51.43109]]],[[[-114.4468,51.48933],[-114.4468,51.50379],[-114.42365,51.50384],[-114.42365,51.48938],[-114.44101,51.48934],[-114.4468,51.48933]]],[[[-114.44678,51.43112],[-114.44678,51.44558],[-114.42364,51.44558],[-114.42364,51.43115],[-114.441,51.43113],[-114.44678,51.43112]]],[[[-114.2828,51.44567],[-114.28278,51.46014],[-114.2597,51.46015],[-114.25967,51.44569],[-114.27702,51.44568],[-114.2828,51.44567]]],[[[-114.49365,51.48935],[-114.49367,51.5038],[-114.47053,51.5038],[-114.47052,51.48934],[-114.48787,51.48934],[-114.49365,51.48935]]],[[[-114.30622,51.46017],[-114.30623,51.47461],[-114.2831,51.47459],[-114.28307,51.46014],[-114.30044,51.46017],[-114.30622,51.46017]]],[[[-114.35311,51.43114],[-114.35309,51.44557],[-114.32995,51.44555],[-114.32995,51.43113],[-114.34732,51.43114],[-114.35311,51.43114]]],[[[-114.39995,51.4312],[-114.39993,51.44558],[-114.37677,51.44559],[-114.37677,51.43114],[-114.39416,51.43119],[-114.39995,51.4312]]],[[[-114.30619,51.48922],[-114.30619,51.50369],[-114.28307,51.50369],[-114.28308,51.48923],[-114.30041,51.48922],[-114.30619,51.48922]]],[[[-114.35307,51.51844],[-114.35309,51.53289],[-114.32994,51.53285],[-114.32992,51.51841],[-114.34728,51.51843],[-114.35307,51.51844]]],[[[-114.32964,51.47485],[-114.32962,51.48931],[-114.30648,51.48922],[-114.30652,51.47479],[-114.32385,51.47483],[-114.32964,51.47485]]],[[[-114.3999,51.48932],[-114.3999,51.50379],[-114.37679,51.50376],[-114.3768,51.48929],[-114.39413,51.48931],[-114.3999,51.48932]]],[[[-114.37648,51.44577],[-114.37648,51.4602],[-114.35337,51.4602],[-114.35338,51.44575],[-114.37071,51.44576],[-114.37648,51.44577]]],[[[-114.45867,51.51122],[-114.45868,51.51846],[-114.44711,51.51846],[-114.44711,51.51122],[-114.45289,51.51122],[-114.45867,51.51122]]],[[[-114.31805,51.51114],[-114.31805,51.51817],[-114.30646,51.51793],[-114.30647,51.51108],[-114.31226,51.51111],[-114.31805,51.51114]]],[[[-114.30618,51.50748],[-114.30618,51.51108],[-114.29462,51.51109],[-114.29462,51.50748],[-114.3004,51.50748],[-114.30618,51.50748]]]]}},{"type":"Feature","properties":{"c":"9924010274","o":"E3 LITHIUM LTD.","e":""},"geometry":{"type":"MultiPolygon","coordinates":[[[[-114.33231,51.70776],[-114.33228,51.7367],[-114.30894,51.73668],[-114.30897,51.70775],[-114.32647,51.70776],[-114.33231,51.70776]]],[[[-114.54477,51.67868],[-114.54477,51.70761],[-114.52145,51.70761],[-114.52147,51.67869],[-114.53894,51.67868],[-114.54477,51.67868]]],[[[-114.40319,51.67886],[-114.40316,51.7076],[-114.37983,51.7076],[-114.37986,51.67881],[-114.39736,51.67885],[-114.40319,51.67886]]],[[[-114.30869,51.66401],[-114.30869,51.67848],[-114.28535,51.67844],[-114.28534,51.66394],[-114.30285,51.664],[-114.30869,51.66401]]],[[[-114.35592,51.75134],[-114.35597,51.76583],[-114.33256,51.76585],[-114.33256,51.75136],[-114.35008,51.75135],[-114.35592,51.75134]]],[[[-114.52121,51.64958],[-114.52118,51.66404],[-114.49786,51.66404],[-114.49786,51.64957],[-114.51537,51.64958],[-114.52121,51.64958]]],[[[-114.40322,51.66421],[-114.40319,51.67868],[-114.37986,51.67863],[-114.37986,51.66417],[-114.39737,51.6642],[-114.40322,51.66421]]],[[[-114.35594,51.66414],[-114.35594,51.6786],[-114.33261,51.67852],[-114.33262,51.66405],[-114.35011,51.66412],[-114.35594,51.66414]]],[[[-114.37957,51.67881],[-114.37955,51.69327],[-114.35623,51.69324],[-114.35623,51.67878],[-114.37373,51.6788],[-114.37957,51.67881]]],[[[-114.33228,51.73688],[-114.33227,51.75136],[-114.30892,51.75132],[-114.30894,51.73686],[-114.32644,51.73688],[-114.33228,51.73688]]],[[[-114.42683,51.6787],[-114.42683,51.69314],[-114.40349,51.69331],[-114.40348,51.67886],[-114.42099,51.67874],[-114.42683,51.6787]]],[[[-114.35594,51.72225],[-114.35592,51.73671],[-114.33257,51.7367],[-114.33259,51.72224],[-114.3501,51.72225],[-114.35594,51.72225]]],[[[-114.37954,51.70778],[-114.37955,51.72225],[-114.35623,51.72225],[-114.35623,51.70777],[-114.37372,51.70778],[-114.37954,51.70778]]],[[[-114.30863,51.75132],[-114.30864,51.76582],[-114.28532,51.76579],[-114.28533,51.75132],[-114.30281,51.75132],[-114.30863,51.75132]]],[[[-114.30869,51.69313],[-114.30868,51.70756],[-114.28533,51.70754],[-114.28535,51.69307],[-114.30285,51.69312],[-114.30869,51.69313]]],[[[-114.30866,51.72221],[-114.30865,51.73668],[-114.28533,51.73667],[-114.28533,51.7222],[-114.30282,51.72221],[-114.30866,51.72221]]],[[[-114.40317,51.75137],[-114.40316,51.76584],[-114.37983,51.76584],[-114.37984,51.75136],[-114.39733,51.75137],[-114.40317,51.75137]]],[[[-114.47402,51.64959],[-114.47403,51.66404],[-114.45071,51.66406],[-114.45069,51.64962],[-114.46819,51.6496],[-114.47402,51.64959]]],[[[-114.49758,51.69315],[-114.49759,51.70762],[-114.47426,51.70762],[-114.47428,51.69317],[-114.49176,51.69315],[-114.49758,51.69315]]],[[[-114.47397,51.7078],[-114.47392,51.72227],[-114.45065,51.72229],[-114.45066,51.7078],[-114.46814,51.7078],[-114.47397,51.7078]]],[[[-114.37955,51.7369],[-114.37955,51.75136],[-114.35621,51.75134],[-114.35621,51.73689],[-114.37372,51.7369],[-114.37955,51.7369]]],[[[-114.56836,51.67869],[-114.56836,51.69315],[-114.54505,51.69313],[-114.54506,51.67868],[-114.56253,51.67868],[-114.56836,51.67869]]],[[[-114.54476,51.66404],[-114.54477,51.6785],[-114.52147,51.67851],[-114.52148,51.66404],[-114.53894,51.66404],[-114.54476,51.66404]]],[[[-114.42676,51.70779],[-114.42677,51.72224],[-114.40346,51.72225],[-114.40345,51.70779],[-114.42093,51.70778],[-114.42676,51.70779]]],[[[-114.52118,51.67869],[-114.52117,51.69315],[-114.49788,51.69315],[-114.49787,51.67869],[-114.51536,51.67869],[-114.52118,51.67869]]],[[[-114.42676,51.73687],[-114.42676,51.75135],[-114.40346,51.75137],[-114.40346,51.7369],[-114.42094,51.73688],[-114.42676,51.73687]]],[[[-114.52116,51.70779],[-114.52114,51.72225],[-114.49778,51.72226],[-114.49788,51.7078],[-114.51534,51.70779],[-114.52116,51.70779]]],[[[-114.49757,51.66404],[-114.49758,51.67851],[-114.4743,51.67852],[-114.47432,51.66404],[-114.49176,51.66404],[-114.49757,51.66404]]],[[[-114.45038,51.69316],[-114.45037,51.70762],[-114.42706,51.7076],[-114.42712,51.69314],[-114.44455,51.69316],[-114.45038,51.69316]]],[[[-114.42674,51.76599],[-114.42672,51.78045],[-114.40342,51.78049],[-114.40345,51.76602],[-114.42092,51.766],[-114.42674,51.76599]]],[[[-114.35594,51.69324],[-114.35594,51.70759],[-114.3326,51.70758],[-114.33261,51.69316],[-114.35011,51.69322],[-114.35594,51.69324]]],[[[-114.45042,51.66406],[-114.4504,51.67851],[-114.42712,51.67852],[-114.42712,51.66427],[-114.44459,51.66411],[-114.45042,51.66406]]],[[[-114.27338,51.68587],[-114.26168,51.6859],[-114.2617,51.67866],[-114.28506,51.67863],[-114.28506,51.69308],[-114.27339,51.6931],[-114.27339,51.68949],[-114.27338,51.68587]]],[[[-114.32065,51.68591],[-114.32064,51.69315],[-114.30898,51.69313],[-114.30899,51.6859],[-114.31482,51.68591],[-114.32065,51.68591]]]]}},{"type":"Feature","properties":{"c":"9924010275","o":"E3 LITHIUM LTD.","e":""},"geometry":{"type":"MultiPolygon","coordinates":[[[[-114.54479,51.766],[-114.54479,51.79491],[-114.52145,51.79492],[-114.52144,51.766],[-114.53895,51.766],[-114.54479,51.766]]],[[[-114.6156,51.7951],[-114.61574,51.824],[-114.59239,51.82401],[-114.59229,51.79509],[-114.60978,51.7951],[-114.6156,51.7951]]],[[[-114.54479,51.85331],[-114.54473,51.88223],[-114.52141,51.88224],[-114.52143,51.85333],[-114.53895,51.85332],[-114.54479,51.85331]]],[[[-114.59205,51.72226],[-114.59207,51.73672],[-114.56867,51.7367],[-114.56866,51.72224],[-114.58621,51.72226],[-114.59205,51.72226]]],[[[-114.59204,51.80955],[-114.5921,51.82401],[-114.56867,51.82401],[-114.56868,51.80954],[-114.5862,51.80955],[-114.59204,51.80955]]],[[[-114.59205,51.75135],[-114.59203,51.76581],[-114.56868,51.7658],[-114.56867,51.75134],[-114.5862,51.75135],[-114.59205,51.75135]]],[[[-114.59207,51.83864],[-114.59204,51.8531],[-114.56865,51.85312],[-114.56866,51.83865],[-114.58622,51.83864],[-114.59207,51.83864]]],[[[-114.49755,51.78046],[-114.49755,51.79495],[-114.47421,51.79494],[-114.47421,51.78048],[-114.49172,51.78046],[-114.49755,51.78046]]],[[[-114.5448,51.83866],[-114.54479,51.85313],[-114.52143,51.85315],[-114.52144,51.83867],[-114.53896,51.83866],[-114.5448,51.83866]]],[[[-114.54479,51.75137],[-114.54479,51.76582],[-114.52144,51.76582],[-114.52144,51.75136],[-114.53895,51.75137],[-114.54479,51.75137]]],[[[-114.49754,51.75137],[-114.49755,51.76583],[-114.47421,51.76583],[-114.4742,51.75136],[-114.4917,51.75137],[-114.49754,51.75137]]],[[[-114.52114,51.73691],[-114.52115,51.75136],[-114.49783,51.75137],[-114.49779,51.73691],[-114.51531,51.73691],[-114.52114,51.73691]]],[[[-114.56837,51.70779],[-114.56837,51.72225],[-114.54509,51.72227],[-114.54506,51.70779],[-114.56254,51.70779],[-114.56837,51.70779]]],[[[-114.49755,51.80957],[-114.49756,51.82403],[-114.4742,51.82402],[-114.47421,51.80956],[-114.49172,51.80957],[-114.49755,51.80957]]],[[[-114.61574,51.82418],[-114.61573,51.83864],[-114.59236,51.83864],[-114.59239,51.82419],[-114.6099,51.82418],[-114.61574,51.82418]]],[[[-114.59201,51.78045],[-114.592,51.79491],[-114.56869,51.7949],[-114.56868,51.78044],[-114.58618,51.78045],[-114.59201,51.78045]]],[[[-114.49749,51.72226],[-114.4975,51.73673],[-114.4742,51.73673],[-114.47421,51.72227],[-114.49167,51.72227],[-114.49749,51.72226]]],[[[-114.52115,51.766],[-114.52116,51.78047],[-114.49784,51.78046],[-114.49784,51.76601],[-114.51532,51.766],[-114.52115,51.766]]],[[[-114.45036,51.72229],[-114.45036,51.73674],[-114.42706,51.73669],[-114.42706,51.72224],[-114.44453,51.72228],[-114.45036,51.72229]]],[[[-114.5684,51.79508],[-114.56839,51.80954],[-114.54508,51.80956],[-114.54508,51.79509],[-114.56257,51.79508],[-114.5684,51.79508]]],[[[-114.56838,51.73688],[-114.56838,51.75134],[-114.54508,51.75137],[-114.54509,51.73691],[-114.56255,51.73689],[-114.56838,51.73688]]],[[[-114.56839,51.76598],[-114.56839,51.78044],[-114.54509,51.78046],[-114.54508,51.766],[-114.56256,51.76599],[-114.56839,51.76598]]],[[[-114.52116,51.7951],[-114.52116,51.80957],[-114.49784,51.80957],[-114.49784,51.79513],[-114.51533,51.79511],[-114.52116,51.7951]]],[[[-114.45035,51.75138],[-114.45034,51.76582],[-114.42703,51.76581],[-114.42705,51.75135],[-114.44452,51.75137],[-114.45035,51.75138]]],[[[-114.47392,51.72227],[-114.47391,51.73673],[-114.45065,51.73674],[-114.45065,51.72229],[-114.4681,51.72228],[-114.47392,51.72227]]],[[[-114.47392,51.79512],[-114.47392,51.80956],[-114.45063,51.80956],[-114.45061,51.79511],[-114.46809,51.79512],[-114.47392,51.79512]]],[[[-114.47391,51.73691],[-114.47391,51.75136],[-114.45064,51.75138],[-114.45065,51.73692],[-114.4681,51.73692],[-114.47391,51.73691]]],[[[-114.52115,51.82421],[-114.52115,51.83867],[-114.49786,51.83867],[-114.49785,51.82421],[-114.51532,51.82421],[-114.52115,51.82421]]],[[[-114.56838,51.82419],[-114.56837,51.83865],[-114.54509,51.83865],[-114.54507,51.82421],[-114.56255,51.8242],[-114.56838,51.82419]]],[[[-114.52114,51.85333],[-114.52113,51.86779],[-114.49784,51.86779],[-114.49785,51.85332],[-114.51532,51.85333],[-114.52114,51.85333]]],[[[-114.56836,51.8533],[-114.56835,51.86776],[-114.54508,51.86777],[-114.54508,51.85331],[-114.56254,51.85331],[-114.56836,51.8533]]],[[[-114.61823,51.85266],[-114.61782,51.85171],[-114.61924,51.8485],[-114.61898,51.84703],[-114.6196,51.84594],[-114.61942,51.84533],[-114.617,51.84353],[-114.61672,51.84295],[-114.61669,51.84159],[-114.61883,51.83865],[-114.63921,51.83871],[-114.63919,51.85315],[-114.62759,51.85313],[-114.6276,51.84594],[-114.62256,51.84594],[-114.62361,51.84719],[-114.62604,51.8477],[-114.62626,51.84952],[-114.62448,51.85161],[-114.62471,51.85254],[-114.62528,51.85312],[-114.61803,51.85311],[-114.61823,51.85266]]],[[[-114.46228,51.77324],[-114.46227,51.78047],[-114.45061,51.78047],[-114.45061,51.77324],[-114.45645,51.77324],[-114.46228,51.77324]]],[[[-114.6276,51.80958],[-114.62761,51.81548],[-114.62582,51.81681],[-114.61601,51.81679],[-114.61599,51.80957],[-114.62179,51.80957],[-114.6276,51.80958]]]]}}]}