{"type":"FeatureCollection","features":[{"type":"Feature","properties":{"c":"9414030444","o":"AMRIZE CANADA INC.","e":""},"geometry":{"type":"Polygon","coordinates":[[[-115.0,51.0],[-115.0,51.0],[-115.0,51.0],[-115.0,51.0]]]}},{"type":"Feature","properties":{"c":"9412060403","o":"GRAYMONT WESTERN CANADA INC.","e":""},"geometry":{"type":"Polygon","coordinates":[[[-115.0,51.0],[-115.0,51.0],[-115.0,51.0],[-115.0,51.0]]]}},{"type":"Feature","properties":{"c":"9412060330","o":"THUNDERSTONE QUARRIES CANMORE LTD.","e":""},"geometry":{"type":"Polygon","coordinates":[[[-115.0,51.0],[-115.0,51.0],[-115.0,51.0],[-115.0,51.0]]]}},{"type":"Feature","properties":{"c":"9412110415","o":"GRAYMONT WESTERN CANADA INC.","e":""},"geometry":{"type":"Polygon","coordinates":[[[-115.0,51.0],[-115.0,51.0],[-115.0,51.0],[-115.0,51.0]]]}},{"type":"Feature","properties":{"c":"9413070483","o":"KAMENKA QUARRY LTD.","e":""},"geometry":{"type":"MultiPolygon","coordinates":[[[[-115.0,51.0],[-115.0,51.0],[-115.0,51.0],[-115.0,51.0]]],[[[-115.0,51.0],[-115.0,51.0],[-115.0,51.0],[-115.0,51.0]]]]}},{"type":"Feature","properties":{"c":"9413090267","o":"AMRIZE CANADA INC.","e":""},"geometry":{"type":"Polygon","coordinates":[[[-115.0,51.0],[-115.0,51.0],[-115.0,51.0],[-115.0,51.0]]]}},{"type":"Feature","properties":{"c":"9414070424","o":"FOLEY, JAMES KENNETH","e":""},"geometry":{"type":"Polygon","coordinates":[[[-115.0,51.0],[-115.0,51.0],[-115.0,51.0],[-115.0,51.0]]]}},{"type":"Feature","properties":{"c":"9412100529","o":"THUNDERSTONE QUARRIES CANMORE LTD.","e":""},"geometry":{"type":"Polygon","coordinates":[[[-115.0,51.0],[-115.0,51.0],[-115.0,51.0],[-115.0,51.0]]]}},{"type":"Feature","properties":{"c":"9414070492","o":"HEIDELBERG MATERIALS CANADA LIMITED","e":""},"geometry":{"type":"MultiPolygon","coordinates":[[[[-115.0,51.0],[-115.0,51.0],[-115.0,51.0],[-115.0,51.0]]],[[[-115.0,51.0],[-115.0,51.0],[-115.0,51.0],[-115.0,51.0]]]]}},{"type":"Feature","properties":{"c":"9414080298","o":"GRAYMONT WESTERN CANADA INC.","e":""},"geometry":{"type":"Polygon","coordinates":[[[-115.0,51.0],[-115.0,51.0],[-115.0,51.0],[-115.0,51.0]]]}},{"type":"Feature","properties":{"c":"9414070491","o":"HEIDELBERG MATERIALS CANADA LIMITED","e":""},"geometry":{"type":"Polygon","coordinates":[[[-115.0,51.0],[-115.0,51.0],[-115.0,51.0],[-115.0,51.0]]]}},{"type":"Feature","properties":{"c":"9416040231","o":"AMRIZE CANADA INC.","e":""},"geometry":{"type":"MultiPolygon","coordinates":[[[[-115.0,51.0],[-115.0,51.0],[-115.0,51.0],[-115.0,51.0]]],[[[-115.0,51.0],[-115.0,51.0],[-115.0,51.0],[-115.0,51.0]]],[[[-115.0,51.0],[-115.0,51.0],[-115.0,51.0],[-115.0,51.0]]],[[[-115.0,51.0],[-115.0,51.0],[-115.0,51.0],[-115.0,51.0]]]]}},{"type":"Feature","properties":{"c":"9414030458","o":"AMRIZE CANADA INC.","e":""},"geometry":{"type":"Polygon","coordinates":[[[-115.0,51.0],[-115.0,51.0],[-115.0,51.0],[-115.0,51.0]]]}},{"type":"Feature","properties":{"c":"9419120136","o":"AMRIZE CANADA INC.","e":""},"geometry":{"type":"MultiPolygon","coordinates":[[[[-115.0,51.0],[-115.0,51.0],[-115.0,51.0],[-115.0,51.0]]],[[[-115.0,51.0],[-115.0,51.0],[-115.0,51.0],[-115.0,51.0]]]]}},{"type":"Feature","properties":{"c":"9419120131","o":"AMRIZE CANADA INC.","e":""},"geometry":{"type":"MultiPolygon","coordinates":[[[[-115.0,51.0],[-115.0,51.0],[-115.0,51.0],[-115.0,51.0]]],[[[-115.0,51.0],[-115.0,51.0],[-115.0,51.0],[-115.0,51.0]]],[[[-115.0,51.0],[-115.0,51.0],[-115.0,51.0],[-115.0,51.0]],[[-115.0,51.0],[-115.0,51.0],[-115.0,51.0],[-115.0,51.0]]]]}},{"type":"Feature","properties":{"c":"9421100124","o":"AMRIZE CANADA INC.","e":""},"geometry":{"type":"MultiPolygon","coordinates":[[[[-115.0,51.0],[-115.0,51.0],[-115.0,51.0],[-115.0,51.0]]],[[[-115.0,51.0],[-115.0,51.0],[-115.0,51.0],[-115.0,51.0]]]]}},{"type":"Feature","properties":{"c":"9422090182","o":"AMRIZE CANADA INC.","e":""},"geometry":{"type":"Polygon","coordinates":[[[-115.0,51.0],[-115.0,51.0],[-115.0,51.0],[-115.0,51.0]]]}},{"type":"Feature","properties":{"c":"9423070166","o":"AMRIZE CANADA INC.","e":""},"geometry":{"type":"Polygon","coordinates":[[[-115.0,51.0],[-115.0,51.0],[-115.0,51.0],[-115.0,51.0]]]}},{"type":"Feature","properties":{"c":"9423080147","o":"GRAYMONT WESTERN CANADA INC.","e":""},"geometry":{"type":"Polygon","coordinates":[[[-115.0,51.0],[-115.0,51.0],[-115.0,51.0],[-115.0,51.0]]]}},{"type":"Feature","properties":{"c":"9924010272","o":"E3 LITHIUM LTD.","e":""},"geometry":{"type":"MultiPolygon","coordinates":[[[[-115.0,51.0],[-115.0,51.0],[-115.0,51.0],[-115.0,51.0]]],[[[-114.0,51.0],[-114.0,51.0],[-114.0,51.0],[-114.0,51.0]]],[[[-114.0,51.0],[-114.0,51.0],[-114.0,51.0],[-114.0,51.0]]],[[[-114.0,51.0],[-114.0,51.0],[-114.0,51.0],[-114.0,51.0]]],[[[-114.0,51.0],[-114.0,51.0],[-114.0,51.0],[-114.0,51.0]]],[[[-114.0,51.0],[-114.0,51.0],[-114.0,51.0],[-114.0,51.0]]],[[[-114.0,51.0],[-114.0,51.0],[-114.0,51.0],[-114.0,51.0]]],[[[-114.0,51.0],[-114.0,51.0],[-114.0,51.0],[-114.0,51.0]]],[[[-114.0,51.0],[-114.0,51.0],[-114.0,51.0],[-114.0,51.0]]],[[[-114.0,51.0],[-114.0,51.0],[-114.0,51.0],[-114.0,51.0]]],[[[-114.0,51.0],[-114.0,51.0],[-114.0,51.0],[-114.0,51.0]]],[[[-114.0,51.0],[-114.0,51.0],[-114.0,51.0],[-114.0,51.0]]],[[[-114.0,51.0],[-114.0,51.0],[-114.0,51.0],[-114.0,51.0]]],[[[-114.0,51.0],[-114.0,51.0],[-114.0,51.0],[-114.0,51.0]]],[[[-114.0,51.0],[-114.0,51.0],[-114.0,51.0],[-114.0,51.0]]],[[[-114.0,51.0],[-114.0,51.0],[-114.0,51.0],[-114.0,51.0]]],[[[-114.0,51.0],[-114.0,51.0],[-114.0,51.0],[-114.0,51.0]]],[[[-114.0,51.0],[-114.0,51.0],[-114.0,51.0],[-114.0,51.0]]],[[[-114.0,51.0],[-114.0,51.0],[-114.0,51.0],[-114.0,51.0]]],[[[-114.0,51.0],[-114.0,51.0],[-114.0,51.0],[-114.0,51.0]]],[[[-114.0,51.0],[-114.0,51.0],[-114.0,51.0],[-114.0,51.0]]],[[[-114.0,51.0],[-114.0,51.0],[-114.0,51.0],[-114.0,51.0]]],[[[-114.0,51.0],[-114.0,51.0],[-114.0,51.0],[-114.0,51.0]]],[[[-115.0,51.0],[-114.0,51.0],[-115.0,51.0],[-115.0,51.0]]],[[[-114.0,51.0],[-114.0,51.0],[-114.0,51.0],[-114.0,51.0]]],[[[-115.0,51.0],[-115.0,51.0],[-115.0,51.0],[-115.0,51.0]]],[[[-114.0,51.0],[-114.0,51.0],[-114.0,51.0],[-114.0,51.0]]],[[[-114.0,51.0],[-114.0,51.0],[-114.0,51.0],[-114.0,51.0]]],[[[-114.0,51.0],[-114.0,51.0],[-114.0,51.0],[-114.0,51.0]]],[[[-114.0,51.0],[-114.0,51.0],[-114.0,51.0],[-114.0,51.0]]],[[[-115.0,51.0],[-115.0,51.0],[-115.0,51.0],[-115.0,51.0]]],[[[-114.0,51.0],[-114.0,51.0],[-114.0,51.0],[-114.0,51.0]]],[[[-114.0,51.0],[-114.0,51.0],[-114.0,51.0],[-114.0,51.0]]],[[[-114.0,51.0],[-114.0,51.0],[-114.0,51.0],[-114.0,51.0]]],[[[-114.0,51.0],[-114.0,51.0],[-114.0,51.0],[-114.0,51.0]]],[[[-114.0,51.0],[-114.0,51.0],[-114.0,51.0],[-114.0,51.0]]]]}},{"type":"Feature","properties":{"c":"9924010273","o":"E3 LITHIUM LTD.","e":""},"geometry":{"type":"MultiPolygon","coordinates":[[[[-115.0,51.0],[-114.0,52.0],[-114.0,51.0],[-115.0,51.0]]]]}},{"type":"Feature","properties":{"c":"9410110442","o":"AMRIZE CANADA INC.","e":""},"geometry":{"type":"MultiPolygon","coordinates":[[[[-115.0,51.0],[-115.0,51.0],[-115.0,51.0],[-115.0,51.0]]],[[[-115.0,51.0],[-115.0,51.0],[-115.0,51.0],[-115.0,51.0]]]]}},{"type":"Feature","properties":{"c":"9411070617","o":"GRAYMONT WESTERN CANADA INC.","e":""},"geometry":{"type":"MultiPolygon","coordinates":[[[[-115.0,51.0],[-115.0,51.0],[-115.0,51.0],[-115.0,51.0]]],[[[-115.0,51.0],[-115.0,51.0],[-115.0,51.0],[-115.0,51.0]]],[[[-115.0,51.0],[-115.0,51.0],[-115.0,51.0],[-115.0,51.0]]],[[[-115.0,51.0],[-115.0,51.0],[-115.0,51.0],[-115.0,51.0]]]]}},{"type":"Feature","properties":{"c":"9411050595","o":"AMRIZE CANADA INC.","e":""},"geometry":{"type":"Polygon","coordinates":[[[-115.0,51.0],[-115.0,51.0],[-115.0,51.0],[-115.0,51.0]]]}}]}