{"type":"FeatureCollection","features":[{"type":"Feature","properties":{"c":"9410091026","o":"STAR DIAMOND CORPORATION","e":""},"geometry":{"type":"Polygon","coordinates":[[[-115.0219,57.00668],[-115.04178,57.00668],[-115.04178,57.01751],[-115.0219,57.01751],[-115.0219,57.01029],[-115.0219,57.00668]]]}},{"type":"Feature","properties":{"c":"9410091027","o":"STAR DIAMOND CORPORATION","e":""},"geometry":{"type":"MultiPolygon","coordinates":[[[[-115.16271,57.00315],[-115.18242,57.00315],[-115.18242,57.01029],[-115.16271,57.01028],[-115.16271,57.00667],[-115.16271,57.00315]]],[[[-115.16271,56.99926],[-115.18242,56.99927],[-115.18242,57.00288],[-115.16271,57.00287],[-115.16271,56.99926]]]]}}]}