{"type":"FeatureCollection","features":[{"type":"Feature","properties":{"c":"9415080373","o":"GRAYMONT WESTERN CANADA INC.","e":""},"geometry":{"type":"MultiPolygon","coordinates":[[[[-116.0,52.0],[-116.0,52.0],[-116.0,52.0],[-116.0,52.0]]],[[[-116.0,52.0],[-116.0,52.0],[-116.0,52.0],[-116.0,52.0]]],[[[-116.0,52.0],[-116.0,52.0],[-116.0,52.0],[-116.0,52.0]]],[[[-116.0,52.0],[-116.0,52.0],[-116.0,52.0],[-116.0,52.0]]],[[[-116.0,52.0],[-116.0,52.0],[-116.0,52.0],[-116.0,52.0]]],[[[-116.0,52.0],[-116.0,52.0],[-116.0,52.0],[-116.0,52.0]]],[[[-116.0,52.0],[-116.0,52.0],[-116.0,52.0],[-116.0,52.0]]],[[[-116.0,52.0],[-116.0,52.0],[-116.0,52.0],[-116.0,52.0]]],[[[-116.0,52.0],[-116.0,52.0],[-116.0,52.0],[-116.0,52.0]]],[[[-116.0,52.0],[-116.0,52.0],[-116.0,52.0],[-116.0,52.0]]],[[[-116.0,52.0],[-116.0,52.0],[-116.0,52.0],[-116.0,52.0]]]]}},{"type":"Feature","properties":{"c":"9415100259","o":"GRAYMONT WESTERN CANADA INC.","e":""},"geometry":{"type":"MultiPolygon","coordinates":[[[[-116.0,52.0],[-116.0,52.0],[-116.0,52.0],[-116.0,52.0]]],[[[-116.0,52.0],[-116.0,52.0],[-116.0,52.0],[-116.0,52.0]]]]}},{"type":"Feature","properties":{"c":"9416030233","o":"BURNCO ROCK PRODUCTS LTD.","e":""},"geometry":{"type":"MultiPolygon","coordinates":[[[[-115.0,52.0],[-115.0,52.0],[-116.0,52.0],[-115.0,52.0]]],[[[-115.0,52.0],[-115.0,52.0],[-115.0,52.0],[-115.0,52.0]]]]}},{"type":"Feature","properties":{"c":"9417110224","o":"GRAYMONT WESTERN CANADA INC.","e":""},"geometry":{"type":"MultiPolygon","coordinates":[[[[-116.0,52.0],[-116.0,52.0],[-116.0,52.0],[-116.0,52.0]]],[[[-116.0,52.0],[-116.0,52.0],[-116.0,52.0],[-116.0,52.0]]],[[[-116.0,52.0],[-116.0,52.0],[-116.0,52.0],[-116.0,52.0]]],[[[-116.0,52.0],[-116.0,52.0],[-116.0,52.0],[-116.0,52.0]]],[[[-116.0,52.0],[-116.0,52.0],[-116.0,52.0],[-116.0,52.0]]],[[[-116.0,52.0],[-116.0,52.0],[-116.0,52.0],[-116.0,52.0]]],[[[-116.0,52.0],[-116.0,52.0],[-116.0,52.0],[-116.0,52.0]]],[[[-116.0,52.0],[-116.0,52.0],[-116.0,52.0],[-116.0,52.0]]],[[[-116.0,52.0],[-116.0,52.0],[-116.0,52.0],[-116.0,52.0]]],[[[-116.0,52.0],[-116.0,52.0],[-116.0,52.0],[-116.0,52.0]]],[[[-116.0,52.0],[-116.0,52.0],[-116.0,52.0],[-116.0,52.0]]],[[[-116.0,52.0],[-116.0,52.0],[-116.0,52.0],[-116.0,52.0]]],[[[-116.0,52.0],[-116.0,52.0],[-116.0,52.0],[-116.0,52.0]]]]}},{"type":"Feature","properties":{"c":"9417110225","o":"GRAYMONT WESTERN CANADA INC.","e":""},"geometry":{"type":"MultiPolygon","coordinates":[[[[-116.0,52.0],[-116.0,52.0],[-116.0,52.0],[-116.0,52.0]]],[[[-116.0,52.0],[-116.0,52.0],[-116.0,52.0],[-116.0,52.0]]],[[[-116.0,52.0],[-116.0,52.0],[-116.0,52.0],[-116.0,52.0]]],[[[-116.0,52.0],[-116.0,52.0],[-116.0,52.0],[-116.0,52.0]]],[[[-116.0,52.0],[-116.0,52.0],[-116.0,52.0],[-116.0,52.0]]],[[[-116.0,52.0],[-116.0,52.0],[-116.0,52.0],[-116.0,52.0]]],[[[-116.0,52.0],[-116.0,52.0],[-116.0,52.0],[-116.0,52.0]]],[[[-116.0,52.0],[-116.0,52.0],[-116.0,52.0],[-116.0,52.0]]],[[[-116.0,52.0],[-116.0,52.0],[-116.0,52.0],[-116.0,52.0]]]]}},{"type":"Feature","properties":{"c":"9417110226","o":"GRAYMONT WESTERN CANADA INC.","e":""},"geometry":{"type":"MultiPolygon","coordinates":[[[[-116.0,52.0],[-116.0,52.0],[-116.0,52.0],[-116.0,52.0]]],[[[-116.0,52.0],[-116.0,52.0],[-116.0,52.0],[-116.0,52.0]]],[[[-116.0,52.0],[-116.0,52.0],[-116.0,52.0],[-116.0,52.0]]],[[[-116.0,52.0],[-116.0,52.0],[-116.0,52.0],[-116.0,52.0]]],[[[-116.0,52.0],[-116.0,52.0],[-116.0,52.0],[-116.0,52.0]]],[[[-116.0,52.0],[-116.0,52.0],[-116.0,52.0],[-116.0,52.0]]],[[[-116.0,52.0],[-116.0,52.0],[-116.0,52.0],[-116.0,52.0]]],[[[-116.0,52.0],[-116.0,52.0],[-116.0,52.0],[-116.0,52.0]]],[[[-116.0,52.0],[-116.0,52.0],[-116.0,52.0],[-116.0,52.0]]],[[[-116.0,52.0],[-116.0,52.0],[-116.0,52.0],[-116.0,52.0]]]]}},{"type":"Feature","properties":{"c":"9419110163","o":"PRAIRIE CREEK QUARRIES LTD","e":""},"geometry":{"type":"MultiPolygon","coordinates":[[[[-115.0,52.0],[-115.0,52.0],[-115.0,52.0],[-115.0,52.0]]],[[[-115.0,52.0],[-116.0,52.0],[-116.0,52.0],[-115.0,52.0]]],[[[-115.0,52.0],[-116.0,52.0],[-116.0,52.0],[-115.0,52.0]]],[[[-115.0,52.0],[-115.0,52.0],[-115.0,52.0],[-115.0,52.0]]],[[[-116.0,52.0],[-116.0,52.0],[-116.0,52.0],[-116.0,52.0]]],[[[-116.0,52.0],[-116.0,52.0],[-116.0,52.0],[-116.0,52.0]]]]}},{"type":"Feature","properties":{"c":"9423020071","o":"GRAYMONT WESTERN CANADA INC.","e":""},"geometry":{"type":"Polygon","coordinates":[[[-116.0,52.0],[-116.0,52.0],[-116.0,52.0],[-116.0,52.0]]]}},{"type":"Feature","properties":{"c":"9423020073","o":"GRAYMONT WESTERN CANADA INC.","e":""},"geometry":{"type":"MultiPolygon","coordinates":[[[[-116.0,52.0],[-116.0,52.0],[-116.0,52.0],[-116.0,52.0]]],[[[-115.0,52.0],[-116.0,52.0],[-116.0,52.0],[-115.0,52.0]]],[[[-116.0,52.0],[-116.0,52.0],[-116.0,52.0],[-116.0,52.0]]],[[[-116.0,52.0],[-116.0,52.0],[-116.0,52.0],[-116.0,52.0]]],[[[-115.0,52.0],[-115.0,52.0],[-116.0,52.0],[-115.0,52.0]]],[[[-116.0,52.0],[-116.0,52.0],[-116.0,52.0],[-116.0,52.0]]],[[[-116.0,52.0],[-116.0,52.0],[-116.0,52.0],[-116.0,52.0]]],[[[-116.0,52.0],[-116.0,52.0],[-116.0,52.0],[-116.0,52.0]]],[[[-115.0,52.0],[-116.0,52.0],[-116.0,52.0],[-115.0,52.0]]],[[[-116.0,52.0],[-116.0,52.0],[-116.0,52.0],[-116.0,52.0]]],[[[-115.0,52.0],[-116.0,52.0],[-116.0,52.0],[-115.0,52.0]]],[[[-115.0,52.0],[-115.0,52.0],[-115.0,52.0],[-115.0,52.0]]],[[[-115.0,52.0],[-115.0,52.0],[-115.0,52.0],[-115.0,52.0]]]]}},{"type":"Feature","properties":{"c":"9423020074","o":"GRAYMONT WESTERN CANADA INC.","e":""},"geometry":{"type":"MultiPolygon","coordinates":[[[[-115.0,52.0],[-115.0,52.0],[-115.0,52.0],[-115.0,52.0]]],[[[-115.0,52.0],[-115.0,52.0],[-115.0,52.0],[-115.0,52.0]]],[[[-115.0,52.0],[-115.0,52.0],[-115.0,52.0],[-115.0,52.0]]],[[[-115.0,52.0],[-115.0,52.0],[-115.0,52.0],[-115.0,52.0]]],[[[-115.0,52.0],[-115.0,52.0],[-115.0,52.0],[-115.0,52.0]]],[[[-115.0,52.0],[-116.0,52.0],[-116.0,52.0],[-115.0,52.0]]],[[[-115.0,52.0],[-115.0,52.0],[-115.0,52.0],[-115.0,52.0]]]]}},{"type":"Feature","properties":{"c":"9410010457","o":"GRAYMONT WESTERN CANADA INC.","e":""},"geometry":{"type":"MultiPolygon","coordinates":[[[[-116.0,53.0],[-116.0,53.0],[-116.0,53.0],[-116.0,53.0]]],[[[-116.0,52.0],[-116.0,53.0],[-116.0,53.0],[-116.0,52.0]]],[[[-116.0,53.0],[-116.0,53.0],[-116.0,53.0],[-116.0,53.0]]],[[[-116.0,53.0],[-116.0,53.0],[-116.0,53.0],[-116.0,53.0]]],[[[-116.0,53.0],[-116.0,53.0],[-116.0,53.0],[-116.0,53.0]]],[[[-116.0,53.0],[-116.0,53.0],[-116.0,53.0],[-116.0,53.0]]],[[[-116.0,53.0],[-116.0,53.0],[-116.0,53.0],[-116.0,53.0]]],[[[-116.0,53.0],[-116.0,53.0],[-116.0,53.0],[-116.0,53.0]]],[[[-116.0,53.0],[-116.0,53.0],[-116.0,53.0],[-116.0,53.0]]],[[[-116.0,53.0],[-116.0,53.0],[-116.0,53.0],[-116.0,53.0]]],[[[-116.0,53.0],[-116.0,53.0],[-116.0,53.0],[-116.0,53.0]]],[[[-116.0,53.0],[-116.0,53.0],[-116.0,53.0],[-116.0,53.0]]]]}},{"type":"Feature","properties":{"c":"9410010456","o":"GRAYMONT WESTERN CANADA INC.","e":""},"geometry":{"type":"MultiPolygon","coordinates":[[[[-116.0,52.0],[-116.0,52.0],[-116.0,52.0],[-116.0,52.0]]],[[[-116.0,52.0],[-116.0,52.0],[-116.0,52.0],[-116.0,52.0]]],[[[-116.0,52.0],[-116.0,52.0],[-116.0,52.0],[-116.0,52.0]]],[[[-116.0,52.0],[-116.0,52.0],[-116.0,52.0],[-116.0,52.0]]],[[[-116.0,52.0],[-116.0,52.0],[-116.0,52.0],[-116.0,52.0]]],[[[-116.0,52.0],[-116.0,52.0],[-116.0,52.0],[-116.0,52.0]]],[[[-116.0,52.0],[-116.0,52.0],[-116.0,52.0],[-116.0,52.0]]],[[[-116.0,52.0],[-116.0,52.0],[-116.0,52.0],[-116.0,52.0]]],[[[-116.0,52.0],[-116.0,52.0],[-116.0,52.0],[-116.0,52.0]]],[[[-116.0,52.0],[-116.0,52.0],[-116.0,52.0],[-116.0,52.0]]],[[[-116.0,52.0],[-116.0,52.0],[-116.0,52.0],[-116.0,52.0]]],[[[-116.0,52.0],[-116.0,52.0],[-116.0,52.0],[-116.0,52.0]]]]}},{"type":"Feature","properties":{"c":"9410060415","o":"GRAYMONT WESTERN CANADA INC.","e":""},"geometry":{"type":"MultiPolygon","coordinates":[[[[-115.0,52.0],[-115.0,52.0],[-115.0,52.0],[-115.0,52.0]]],[[[-115.0,52.0],[-115.0,52.0],[-115.0,52.0],[-115.0,52.0]]],[[[-115.0,52.0],[-115.0,52.0],[-115.0,52.0],[-115.0,52.0]]],[[[-115.0,52.0],[-116.0,52.0],[-115.0,52.0],[-115.0,52.0]]],[[[-115.0,52.0],[-115.0,52.0],[-115.0,52.0],[-115.0,52.0]]],[[[-116.0,52.0],[-116.0,52.0],[-116.0,52.0],[-116.0,52.0]]],[[[-115.0,52.0],[-116.0,52.0],[-115.0,52.0],[-115.0,52.0]]]]}},{"type":"Feature","properties":{"c":"9410060416","o":"GRAYMONT WESTERN CANADA INC.","e":""},"geometry":{"type":"Polygon","coordinates":[[[-115.0,52.0],[-116.0,52.0],[-115.0,52.0],[-115.0,52.0]]]}},{"type":"Feature","properties":{"c":"9410110427","o":"1208013 ALBERTA LTD.","e":""},"geometry":{"type":"Polygon","coordinates":[[[-116.0,52.0],[-116.0,53.0],[-116.0,52.0],[-116.0,52.0]]]}},{"type":"Feature","properties":{"c":"9410110428","o":"1208013 ALBERTA LTD.","e":""},"geometry":{"type":"Polygon","coordinates":[[[-115.0,52.0],[-116.0,52.0],[-116.0,52.0],[-115.0,52.0]]]}},{"type":"Feature","properties":{"c":"9411100598","o":"GRAYMONT WESTERN CANADA INC.","e":""},"geometry":{"type":"Polygon","coordinates":[[[-116.0,52.0],[-116.0,52.0],[-116.0,52.0],[-116.0,52.0]]]}}]}