{"type":"FeatureCollection","features":[{"type":"Feature","properties":{"c":"1059928","o":"GREAT CANADIAN MINING COMPANY LTD.","e":"2027-03-04Z"},"geometry":{"type":"Polygon","coordinates":[[[-115.90101,50.49585],[-115.90726,50.49585],[-115.90726,50.50002],[-115.90101,50.50002],[-115.90101,50.49585]]]}},{"type":"Feature","properties":{"c":"1047388","o":"MT. WILSON SILICA VENTURES LTD","e":"2030-11-21Z"},"geometry":{"type":"Polygon","coordinates":[[[-115.65103,50.33332],[-115.65103,50.32915],[-115.65728,50.32915],[-115.66353,50.32915],[-115.66353,50.33332],[-115.65728,50.33332],[-115.65103,50.33332]]]}},{"type":"Feature","properties":{"c":"1047389","o":"MT. WILSON SILICA VENTURES LTD","e":"2030-11-21Z"},"geometry":{"type":"Polygon","coordinates":[[[-115.66353,50.32915],[-115.66978,50.32916],[-115.66978,50.33332],[-115.66353,50.33332],[-115.66353,50.32915]]]}},{"type":"Feature","properties":{"c":"1050895","o":"MT. WILSON SILICA VENTURES LTD","e":"2030-11-21Z"},"geometry":{"type":"Polygon","coordinates":[[[-115.65728,50.33332],[-115.66353,50.33332],[-115.66353,50.33749],[-115.65728,50.33749],[-115.65728,50.33332]]]}},{"type":"Feature","properties":{"c":"1064686","o":"MT. WILSON SILICA VENTURES LTD","e":"2030-11-21Z"},"geometry":{"type":"Polygon","coordinates":[[[-115.65728,50.33749],[-115.66353,50.33749],[-115.66353,50.34165],[-115.65728,50.34165],[-115.65728,50.33749]]]}},{"type":"Feature","properties":{"c":"1027088","o":"MT. WILSON SILICA VENTURES LTD","e":"2028-10-01Z"},"geometry":{"type":"Polygon","coordinates":[[[-115.76354,50.14997],[-115.75729,50.14997],[-115.75104,50.14997],[-115.75104,50.1458],[-115.74479,50.1458],[-115.74479,50.14164],[-115.75104,50.14164],[-115.75104,50.13747],[-115.75729,50.13747],[-115.76354,50.13747],[-115.76979,50.13747],[-115.76979,50.14164],[-115.76354,50.14164],[-115.76354,50.1458],[-115.76354,50.14997]]]}},{"type":"Feature","properties":{"c":"1111634","o":"GRIFFITHS, CODY THOMAS","e":"2028-06-01Z"},"geometry":{"type":"Polygon","coordinates":[[[-115.95726,50.50002],[-115.95101,50.50002],[-115.95101,50.50419],[-115.95101,50.50835],[-115.94476,50.50835],[-115.9385,50.50835],[-115.9385,50.50419],[-115.94476,50.50419],[-115.94476,50.50002],[-115.94476,50.49585],[-115.94476,50.49168],[-115.95101,50.49168],[-115.95726,50.49168],[-115.95726,50.49585],[-115.95726,50.50002]]]}},{"type":"Feature","properties":{"c":"1119846","o":"FRANCK, KEVIN GARY","e":"2027-02-03Z"},"geometry":{"type":"Polygon","coordinates":[[[-115.88851,50.49585],[-115.88226,50.49585],[-115.88226,50.49168],[-115.87602,50.49168],[-115.87602,50.48751],[-115.87602,50.48334],[-115.88227,50.48334],[-115.88852,50.48334],[-115.88851,50.48751],[-115.88851,50.49168],[-115.88851,50.49585]]]}},{"type":"Feature","properties":{"c":"1130737","o":"PAWLEY, GORDON WINSTON","e":"2027-02-27Z"},"geometry":{"type":"Polygon","coordinates":[[[-115.9823,50.12497],[-115.97605,50.12497],[-115.97605,50.1208],[-115.97605,50.11663],[-115.9823,50.11663],[-115.98855,50.11663],[-115.98855,50.1208],[-115.9823,50.1208],[-115.9823,50.12497]]]}},{"type":"Feature","properties":{"c":"1130740","o":"SCOTT, STEVEN JEFFREY","e":"2027-02-27Z"},"geometry":{"type":"Polygon","coordinates":[[[-115.55103,50.48333],[-115.55728,50.48333],[-115.55728,50.4875],[-115.55103,50.4875],[-115.55103,50.48333]]]}},{"type":"Feature","properties":{"c":"1132358","o":"BIGGY, GEORGE KYLE","e":"2027-04-20Z"},"geometry":{"type":"Polygon","coordinates":[[[-115.70104,50.42498],[-115.69479,50.42498],[-115.68854,50.42498],[-115.68854,50.42081],[-115.69479,50.42081],[-115.69479,50.41665],[-115.70104,50.41665],[-115.70104,50.42081],[-115.70104,50.42498]]]}},{"type":"Feature","properties":{"c":"1125603","o":"MALEK, CONNOR WILLIAM","e":"2027-01-02Z"},"geometry":{"type":"Polygon","coordinates":[[[-115.74479,50.13747],[-115.73854,50.13747],[-115.73229,50.13747],[-115.72604,50.13747],[-115.71979,50.13747],[-115.71979,50.13331],[-115.71979,50.12914],[-115.72604,50.12914],[-115.73229,50.12914],[-115.73854,50.12914],[-115.74479,50.12914],[-115.74479,50.1333],[-115.74479,50.13747]]]}},{"type":"Feature","properties":{"c":"1125605","o":"MALEK, CONNOR WILLIAM","e":"2027-01-02Z"},"geometry":{"type":"Polygon","coordinates":[[[-115.74479,50.12914],[-115.73854,50.12914],[-115.73229,50.12914],[-115.72604,50.12914],[-115.71979,50.12914],[-115.71979,50.12497],[-115.71979,50.12081],[-115.71979,50.11664],[-115.72604,50.11664],[-115.73229,50.11664],[-115.73854,50.11664],[-115.74479,50.11664],[-115.74479,50.1208],[-115.74479,50.12497],[-115.74479,50.12914]]]}},{"type":"Feature","properties":{"c":"1132676","o":"GRAF, CHRIS","e":"2027-05-01Z"},"geometry":{"type":"Polygon","coordinates":[[[-115.78226,50.30418],[-115.77601,50.30418],[-115.76976,50.30418],[-115.76351,50.30418],[-115.76351,50.30002],[-115.76351,50.29585],[-115.76351,50.29168],[-115.76976,50.29168],[-115.77601,50.29168],[-115.77601,50.29585],[-115.78226,50.29585],[-115.78226,50.30001],[-115.78226,50.30418]]]}},{"type":"Feature","properties":{"c":"1132699","o":"MILLARD, ALAN EDWARD","e":"2037-05-01Z"},"geometry":{"type":"Polygon","coordinates":[[[-115.91355,50.14997],[-115.91355,50.1458],[-115.9198,50.1458],[-115.92605,50.1458],[-115.92605,50.14997],[-115.9198,50.14997],[-115.91355,50.14997]]]}},{"type":"Feature","properties":{"c":"1132750","o":"BEYOND MINERALS INC.","e":"2027-11-15Z"},"geometry":{"type":"Polygon","coordinates":[[[-115.51354,50.45833],[-115.50729,50.45833],[-115.50104,50.45834],[-115.49479,50.45834],[-115.48854,50.45834],[-115.48228,50.45834],[-115.47603,50.45835],[-115.47603,50.45418],[-115.47603,50.45001],[-115.47603,50.44584],[-115.47603,50.44167],[-115.47604,50.4375],[-115.48229,50.4375],[-115.48854,50.4375],[-115.49479,50.4375],[-115.50104,50.43749],[-115.50104,50.44166],[-115.50104,50.44583],[-115.50729,50.44583],[-115.50729,50.45],[-115.51354,50.45],[-115.51354,50.45417],[-115.51354,50.45833]]]}},{"type":"Feature","properties":{"c":"1136381","o":"ROSBOROUGH, ROBIN KENNETH","e":"2027-07-22Z"},"geometry":{"type":"Polygon","coordinates":[[[-115.86355,50.13747],[-115.8573,50.13747],[-115.8573,50.1333],[-115.8573,50.12913],[-115.85105,50.12913],[-115.8448,50.12914],[-115.8448,50.12497],[-115.8448,50.1208],[-115.8448,50.11663],[-115.85105,50.11663],[-115.85105,50.1208],[-115.85105,50.12497],[-115.8573,50.12497],[-115.86355,50.12497],[-115.86355,50.12913],[-115.86355,50.1333],[-115.86355,50.13747]]]}},{"type":"Feature","properties":{"c":"1136459","o":"FRANCK, KEVIN GARY","e":"2027-07-22Z"},"geometry":{"type":"Polygon","coordinates":[[[-115.70103,50.22499],[-115.70103,50.22082],[-115.70728,50.22082],[-115.71353,50.22082],[-115.71353,50.22499],[-115.70728,50.22499],[-115.70103,50.22499]]]}},{"type":"Feature","properties":{"c":"1136463","o":"KOVALEVICH, CAROLYN ANN","e":"2027-07-22Z"},"geometry":{"type":"Polygon","coordinates":[[[-115.81355,50.09997],[-115.8198,50.09997],[-115.8198,50.10413],[-115.81355,50.10413],[-115.81355,50.09997]]]}},{"type":"Feature","properties":{"c":"1136526","o":"SNOEP, OSCAR CHRISTIAAN","e":"2027-07-22Z"},"geometry":{"type":"Polygon","coordinates":[[[-115.9573,50.12914],[-115.96355,50.12914],[-115.96355,50.1333],[-115.9573,50.1333],[-115.9573,50.12914]]]}},{"type":"Feature","properties":{"c":"1136560","o":"LEE, MARK J","e":"2027-07-22Z"},"geometry":{"type":"Polygon","coordinates":[[[-115.83855,50.11663],[-115.8323,50.11663],[-115.8323,50.11247],[-115.83855,50.11247],[-115.8448,50.11247],[-115.85105,50.11247],[-115.85105,50.11663],[-115.8448,50.11663],[-115.83855,50.11663]]]}},{"type":"Feature","properties":{"c":"1136586","o":"DYE, JOSHUA DEAN","e":"2027-07-22Z"},"geometry":{"type":"Polygon","coordinates":[[[-115.9448,50.1333],[-115.95105,50.1333],[-115.95105,50.13747],[-115.9448,50.13747],[-115.9448,50.1333]]]}},{"type":"Feature","properties":{"c":"1136587","o":"DYE, JOSHUA DEAN","e":"2027-07-22Z"},"geometry":{"type":"Polygon","coordinates":[[[-115.96355,50.12914],[-115.9698,50.12914],[-115.9698,50.1333],[-115.96355,50.1333],[-115.96355,50.12914]]]}},{"type":"Feature","properties":{"c":"1136588","o":"DYE, JOSHUA DEAN","e":"2027-07-22Z"},"geometry":{"type":"Polygon","coordinates":[[[-115.93855,50.13747],[-115.9448,50.13747],[-115.9448,50.14164],[-115.93855,50.14164],[-115.93855,50.13747]]]}},{"type":"Feature","properties":{"c":"1135071","o":"JAMES, CALEB AUSTIN","e":"2027-07-08Z"},"geometry":{"type":"Polygon","coordinates":[[[-115.8823,50.1458],[-115.87605,50.1458],[-115.8698,50.1458],[-115.86355,50.1458],[-115.86355,50.14164],[-115.86355,50.13747],[-115.8698,50.13747],[-115.87605,50.13747],[-115.87605,50.14164],[-115.8823,50.14164],[-115.88855,50.14164],[-115.8948,50.14164],[-115.8948,50.1458],[-115.88855,50.1458],[-115.8823,50.1458]]]}},{"type":"Feature","properties":{"c":"1135074","o":"JAMES, CALEB AUSTIN","e":"2027-07-08Z"},"geometry":{"type":"Polygon","coordinates":[[[-115.8698,50.14997],[-115.8698,50.1458],[-115.87605,50.1458],[-115.8823,50.1458],[-115.8823,50.14997],[-115.87605,50.14997],[-115.8698,50.14997]]]}},{"type":"Feature","properties":{"c":"1137132","o":"KOVALEVICH, ALLEN BRUCE","e":"2027-08-14Z"},"geometry":{"type":"Polygon","coordinates":[[[-115.93855,50.1458],[-115.9323,50.1458],[-115.92605,50.1458],[-115.92605,50.14164],[-115.9323,50.14164],[-115.9323,50.13747],[-115.93855,50.13747],[-115.93855,50.14164],[-115.93855,50.1458]]]}},{"type":"Feature","properties":{"c":"1137135","o":"MILLARD, ALAN EDWARD","e":"2027-08-14Z"},"geometry":{"type":"Polygon","coordinates":[[[-115.91355,50.1458],[-115.9073,50.1458],[-115.9073,50.14164],[-115.91355,50.14163],[-115.9198,50.14164],[-115.92605,50.14164],[-115.92605,50.1458],[-115.9198,50.1458],[-115.91355,50.1458]]]}},{"type":"Feature","properties":{"c":"1137136","o":"MILLARD, ALAN EDWARD","e":"2027-08-14Z"},"geometry":{"type":"Polygon","coordinates":[[[-115.9823,50.1333],[-115.97605,50.1333],[-115.97605,50.12914],[-115.97605,50.12497],[-115.9823,50.12497],[-115.9823,50.12914],[-115.9823,50.1333]]]}},{"type":"Feature","properties":{"c":"1137154","o":"DUBE, SETH","e":"2027-08-14Z"},"geometry":{"type":"Polygon","coordinates":[[[-115.97605,50.1333],[-115.9698,50.1333],[-115.9698,50.12914],[-115.9698,50.12497],[-115.97605,50.12497],[-115.97605,50.12914],[-115.97605,50.1333]]]}},{"type":"Feature","properties":{"c":"1137171","o":"WYPYCH, MICHAL","e":"2027-08-14Z"},"geometry":{"type":"Polygon","coordinates":[[[-115.72603,50.225],[-115.71978,50.22499],[-115.71353,50.22499],[-115.71353,50.22082],[-115.70728,50.22082],[-115.70103,50.22082],[-115.70103,50.21665],[-115.70728,50.21666],[-115.70728,50.21249],[-115.71353,50.21249],[-115.71978,50.21249],[-115.72603,50.21249],[-115.72603,50.21666],[-115.72603,50.22083],[-115.72603,50.225]]]}},{"type":"Feature","properties":{"c":"1052756","o":"CERTAINTEED CANADA INC.","e":"2027-06-26Z"},"geometry":{"type":"Polygon","coordinates":[[[-115.72603,50.21249],[-115.73228,50.21249],[-115.73228,50.21666],[-115.72603,50.21666],[-115.72603,50.21249]]]}},{"type":"Feature","properties":{"c":"1106799","o":"CERTAINTEED CANADA INC.","e":"2027-08-15Z"},"geometry":{"type":"Polygon","coordinates":[[[-115.9135,50.50419],[-115.90726,50.50419],[-115.90726,50.50002],[-115.90726,50.49585],[-115.90101,50.49585],[-115.89476,50.49585],[-115.89476,50.50002],[-115.90101,50.50002],[-115.90101,50.50419],[-115.90101,50.50835],[-115.89476,50.50835],[-115.88851,50.50835],[-115.88851,50.50418],[-115.88851,50.50002],[-115.88851,50.49585],[-115.88851,50.49168],[-115.89476,50.49168],[-115.90101,50.49168],[-115.90726,50.49169],[-115.91351,50.49169],[-115.91351,50.49586],[-115.9135,50.50003],[-115.9135,50.50419]]]}},{"type":"Feature","properties":{"c":"1115613","o":"CERTAINTEED CANADA INC.","e":"2027-09-05Z"},"geometry":{"type":"Polygon","coordinates":[[[-115.926,50.51252],[-115.91975,50.51252],[-115.9135,50.51252],[-115.9135,50.50836],[-115.90726,50.50836],[-115.90726,50.50419],[-115.9135,50.50419],[-115.9135,50.50003],[-115.91351,50.49586],[-115.91351,50.49169],[-115.91976,50.49169],[-115.92601,50.49169],[-115.92601,50.49586],[-115.926,50.50002],[-115.926,50.50419],[-115.926,50.50836],[-115.926,50.51252]]]}},{"type":"Feature","properties":{"c":"319259","o":"CERTAINTEED CANADA INC.","e":"2027-08-18Z"},"geometry":{"type":"Polygon","coordinates":[[[-115.88297,50.48662],[-115.88122,50.4866],[-115.88257,50.48596],[-115.87918,50.48304],[-115.87897,50.48288],[-115.87646,50.48094],[-115.87431,50.47985],[-115.8686,50.47808],[-115.86281,50.47628],[-115.85999,50.47998],[-115.86578,50.48178],[-115.87149,50.48355],[-115.874,50.48549],[-115.87521,50.48653],[-115.85479,50.48629],[-115.85545,50.46381],[-115.88362,50.46414],[-115.88297,50.48662]]]}},{"type":"Feature","properties":{"c":"369431","o":"CERTAINTEED CANADA INC.","e":"2026-11-25Z"},"geometry":{"type":"MultiPolygon","coordinates":[[[[-115.72803,50.21721],[-115.72795,50.22171],[-115.72787,50.2262],[-115.72779,50.2307],[-115.70676,50.23055],[-115.706,50.23054],[-115.70605,50.22996],[-115.71236,50.23017],[-115.71269,50.22624],[-115.71058,50.22616],[-115.71065,50.22528],[-115.71159,50.22567],[-115.71581,50.22302],[-115.72108,50.22185],[-115.72308,50.21898],[-115.72578,50.21525],[-115.7235,50.21457],[-115.72392,50.21398],[-115.72201,50.21342],[-115.72234,50.2131],[-115.72658,50.21483],[-115.7281,50.2133],[-115.72803,50.21721]]],[[[-115.72821,50.21062],[-115.72462,50.20915],[-115.72179,50.212],[-115.71944,50.211],[-115.7194,50.21099],[-115.71762,50.21023],[-115.7138,50.21392],[-115.71185,50.21346],[-115.70989,50.21687],[-115.70964,50.21755],[-115.70877,50.21702],[-115.70515,50.21538],[-115.70354,50.21465],[-115.70705,50.21136],[-115.71082,50.20824],[-115.71098,50.20803],[-115.71425,50.20806],[-115.7163,50.20808],[-115.71627,50.20809],[-115.72021,50.2102],[-115.72119,50.21073],[-115.72457,50.20812],[-115.72828,50.20816],[-115.72821,50.21062]]],[[[-115.70176,50.20904],[-115.7002,50.21051],[-115.70025,50.20791],[-115.70308,50.20794],[-115.70176,50.20904]]],[[[-115.6996,50.23022],[-115.70386,50.23047],[-115.6996,50.23032],[-115.6996,50.23022]]],[[[-115.70002,50.22622],[-115.69982,50.22764],[-115.69994,50.22622],[-115.70002,50.22622]]]]}},{"type":"Feature","properties":{"c":"1124535","o":"SEVEN5SEVEN HOLDINGS LTD","e":"2027-01-18Z"},"geometry":{"type":"Polygon","coordinates":[[[-115.54478,50.47917],[-115.55103,50.47917],[-115.55103,50.48333],[-115.54478,50.48334],[-115.54478,50.47917]]]}},{"type":"Feature","properties":{"c":"1139142","o":"LAWES, STEVEN JOHN","e":"2027-09-18Z"},"geometry":{"type":"Polygon","coordinates":[[[-115.70729,50.41665],[-115.71354,50.41665],[-115.71354,50.42081],[-115.70729,50.42081],[-115.70729,50.41665]]]}},{"type":"Feature","properties":{"c":"1095900","o":"ORICHALCUM HOLDINGS INC.","e":"2026-08-25Z"},"geometry":{"type":"Polygon","coordinates":[[[-116.00106,50.04579],[-115.99481,50.04579],[-115.98856,50.04579],[-115.98231,50.04579],[-115.98231,50.04163],[-115.98231,50.03746],[-115.98231,50.03329],[-115.98231,50.02913],[-115.98231,50.02496],[-115.98231,50.02079],[-115.97606,50.02079],[-115.97606,50.01663],[-115.97606,50.01246],[-115.98231,50.01246],[-115.98856,50.01246],[-115.99481,50.01246],[-115.99481,50.01663],[-115.99481,50.02079],[-115.99481,50.02496],[-115.99481,50.02913],[-115.99481,50.03329],[-116.00106,50.03329],[-116.00106,50.03746],[-116.00106,50.04163],[-116.00106,50.04579]]]}},{"type":"Feature","properties":{"c":"1130034","o":"DUBE, SETH","e":"2036-01-18Z"},"geometry":{"type":"Polygon","coordinates":[[[-115.8823,50.14164],[-115.87605,50.14164],[-115.87605,50.13747],[-115.8698,50.13747],[-115.8698,50.1333],[-115.87605,50.1333],[-115.8823,50.1333],[-115.8823,50.13747],[-115.88855,50.13747],[-115.8948,50.13747],[-115.8948,50.14164],[-115.88855,50.14164],[-115.8823,50.14164]]]}},{"type":"Feature","properties":{"c":"1138653","o":"HUBBELL, AUSTIN","e":"2027-09-09Z"},"geometry":{"type":"Polygon","coordinates":[[[-115.87605,50.16247],[-115.8698,50.16247],[-115.8698,50.1583],[-115.8698,50.15414],[-115.8698,50.14997],[-115.87605,50.14997],[-115.87605,50.15414],[-115.87605,50.1583],[-115.87605,50.16247]]]}},{"type":"Feature","properties":{"c":"1124328","o":"BEYOND MINERALS INC.","e":"2027-11-15Z"},"geometry":{"type":"Polygon","coordinates":[[[-115.52604,50.44166],[-115.51979,50.44166],[-115.51354,50.44166],[-115.51354,50.44583],[-115.51354,50.45],[-115.50729,50.45],[-115.50729,50.44583],[-115.50104,50.44583],[-115.50104,50.44166],[-115.50104,50.43749],[-115.49479,50.4375],[-115.49479,50.43333],[-115.49479,50.42916],[-115.48854,50.42916],[-115.48854,50.42499],[-115.48229,50.42499],[-115.48229,50.42083],[-115.47604,50.42083],[-115.47604,50.41666],[-115.46979,50.41666],[-115.46979,50.41249],[-115.46978,50.40833],[-115.47604,50.40833],[-115.47604,50.40416],[-115.47604,50.39999],[-115.48229,50.39999],[-115.48854,50.39999],[-115.49479,50.39999],[-115.50104,50.39998],[-115.50104,50.40415],[-115.50729,50.40415],[-115.50729,50.40832],[-115.51354,50.40832],[-115.51354,50.41248],[-115.51979,50.41248],[-115.51979,50.41665],[-115.51979,50.42082],[-115.51979,50.42499],[-115.52604,50.42499],[-115.52604,50.42915],[-115.52604,50.43332],[-115.53229,50.43332],[-115.53229,50.43749],[-115.53854,50.43749],[-115.53854,50.44166],[-115.53229,50.44166],[-115.52604,50.44166]]]}},{"type":"Feature","properties":{"c":"1121227","o":"BEYOND MINERALS INC.","e":"2027-11-15Z"},"geometry":{"type":"Polygon","coordinates":[[[-115.54478,50.50834],[-115.53853,50.50834],[-115.53228,50.50835],[-115.52603,50.50835],[-115.51978,50.50835],[-115.51353,50.50835],[-115.51353,50.50418],[-115.51353,50.50002],[-115.51353,50.49585],[-115.51353,50.49168],[-115.51353,50.48751],[-115.51978,50.48751],[-115.52603,50.48751],[-115.53228,50.48751],[-115.53853,50.4875],[-115.54478,50.4875],[-115.54478,50.49167],[-115.54478,50.49584],[-115.54478,50.50001],[-115.54478,50.50417],[-115.54478,50.50834]]]}},{"type":"Feature","properties":{"c":"1121229","o":"BEYOND MINERALS INC.","e":"2027-11-15Z"},"geometry":{"type":"Polygon","coordinates":[[[-115.57603,50.50833],[-115.56978,50.50833],[-115.56353,50.50834],[-115.55728,50.50834],[-115.55103,50.50834],[-115.54478,50.50834],[-115.54478,50.50417],[-115.54478,50.50001],[-115.54478,50.49584],[-115.54478,50.49167],[-115.54478,50.4875],[-115.55103,50.4875],[-115.55728,50.4875],[-115.56353,50.4875],[-115.56978,50.4875],[-115.57603,50.48749],[-115.57603,50.49166],[-115.57603,50.49583],[-115.57603,50.5],[-115.57603,50.50416],[-115.57603,50.50833]]]}},{"type":"Feature","properties":{"c":"1121230","o":"BEYOND MINERALS INC.","e":"2027-11-15Z"},"geometry":{"type":"Polygon","coordinates":[[[-115.59478,50.50833],[-115.58853,50.50833],[-115.58228,50.50833],[-115.57603,50.50833],[-115.57603,50.50416],[-115.57603,50.5],[-115.57603,50.49583],[-115.57603,50.49166],[-115.57603,50.48749],[-115.58228,50.48749],[-115.58853,50.48749],[-115.59478,50.48749],[-115.59478,50.49166],[-115.59478,50.49583],[-115.59478,50.49999],[-115.59478,50.50416],[-115.59478,50.50833]]]}},{"type":"Feature","properties":{"c":"1117102","o":"GRIFFITHS, CODY THOMAS","e":"2027-06-01Z"},"geometry":{"type":"Polygon","coordinates":[[[-115.94476,50.50419],[-115.9385,50.50419],[-115.9385,50.50835],[-115.93225,50.50836],[-115.93225,50.50419],[-115.93225,50.50002],[-115.9385,50.50002],[-115.93851,50.49585],[-115.94476,50.49585],[-115.94476,50.50002],[-115.94476,50.50419]]]}},{"type":"Feature","properties":{"c":"1133524","o":"DYE, JOSHUA DEAN","e":"2027-05-29Z"},"geometry":{"type":"Polygon","coordinates":[[[-115.86355,50.1333],[-115.8698,50.1333],[-115.8698,50.13747],[-115.86355,50.13747],[-115.86355,50.1333]]]}},{"type":"Feature","properties":{"c":"1131875","o":"SHEARER, JOHAN THOM","e":"2027-03-31Z"},"geometry":{"type":"Polygon","coordinates":[[[-115.50728,50.01665],[-115.50103,50.01665],[-115.49478,50.01665],[-115.48853,50.01665],[-115.48228,50.01665],[-115.47603,50.01665],[-115.46978,50.01665],[-115.46353,50.01665],[-115.46353,50.02081],[-115.45728,50.02081],[-115.45103,50.02081],[-115.45103,50.01665],[-115.45103,50.01248],[-115.45103,50.00831],[-115.45103,50.00415],[-115.45103,49.99998],[-115.45728,49.99998],[-115.46353,49.99998],[-115.46978,49.99998],[-115.47603,49.99998],[-115.48228,49.99998],[-115.48228,50.00415],[-115.48228,50.00831],[-115.48853,50.00831],[-115.49478,50.00831],[-115.50103,50.00831],[-115.50728,50.00831],[-115.50728,50.01248],[-115.50728,50.01665]]]}},{"type":"Feature","properties":{"c":"1131878","o":"SCOTT, STEVEN JEFFREY","e":"2027-03-31Z"},"geometry":{"type":"Polygon","coordinates":[[[-115.54478,50.48334],[-115.55103,50.48333],[-115.55103,50.4875],[-115.54478,50.4875],[-115.54478,50.48334]]]}},{"type":"Feature","properties":{"c":"1132679","o":"RODGERS, ESTATE OF GLEN  MUNROE","e":"2027-05-01Z"},"geometry":{"type":"Polygon","coordinates":[[[-115.50728,50.05414],[-115.50728,50.05831],[-115.50728,50.06248],[-115.50728,50.06664],[-115.50728,50.07081],[-115.50728,50.07498],[-115.50103,50.07498],[-115.50103,50.07081],[-115.50103,50.06665],[-115.50103,50.06248],[-115.50103,50.05831],[-115.50103,50.05415],[-115.50103,50.04998],[-115.50728,50.04998],[-115.51353,50.04998],[-115.51978,50.04998],[-115.51978,50.05414],[-115.51353,50.05414],[-115.50728,50.05414]]]}},{"type":"Feature","properties":{"c":"1136617","o":"KOVALEVICH, CAROLYN ANN","e":"2027-07-22Z"},"geometry":{"type":"Polygon","coordinates":[[[-115.90105,50.14997],[-115.90105,50.1458],[-115.8948,50.1458],[-115.8948,50.14164],[-115.90105,50.14164],[-115.9073,50.14164],[-115.9073,50.1458],[-115.91355,50.1458],[-115.91355,50.14997],[-115.9073,50.14997],[-115.90105,50.14997]]]}},{"type":"Feature","properties":{"c":"1137690","o":"OLEKSII, AFONIN","e":"2027-08-27Z"},"geometry":{"type":"Polygon","coordinates":[[[-115.82605,50.11247],[-115.82605,50.1083],[-115.82605,50.10413],[-115.8323,50.10413],[-115.8323,50.1083],[-115.83855,50.1083],[-115.83855,50.11247],[-115.8323,50.11247],[-115.82605,50.11247]]]}},{"type":"Feature","properties":{"c":"1136438","o":"KOVALEVICH, CAROLYN ANN","e":"2027-07-22Z"},"geometry":{"type":"Polygon","coordinates":[[[-115.8198,50.09997],[-115.82605,50.09997],[-115.82605,50.10413],[-115.8198,50.10413],[-115.8198,50.09997]]]}},{"type":"Feature","properties":{"c":"1139454","o":"BRULOTTE, JORDAIN EVERETTE","e":"2027-09-21Z"},"geometry":{"type":"Polygon","coordinates":[[[-115.8073,50.0208],[-115.80105,50.0208],[-115.80105,50.01663],[-115.80105,50.01246],[-115.80731,50.01246],[-115.8073,50.01663],[-115.8073,50.0208]]]}},{"type":"Feature","properties":{"c":"1115490","o":"KOVALEVICH, ALLEN BRUCE","e":"2031-09-30Z"},"geometry":{"type":"Polygon","coordinates":[[[-115.9948,50.14581],[-116.00105,50.14581],[-116.00105,50.14997],[-115.9948,50.14997],[-115.9948,50.14581]]]}},{"type":"Feature","properties":{"c":"1136890","o":"SHEARER, JOHAN THOM","e":"2027-08-03Z"},"geometry":{"type":"Polygon","coordinates":[[[-115.84481,50.02496],[-115.83856,50.02496],[-115.83231,50.02496],[-115.82606,50.02496],[-115.82606,50.0208],[-115.82606,50.01663],[-115.83231,50.01663],[-115.83856,50.01663],[-115.84481,50.01663],[-115.84481,50.02079],[-115.84481,50.02496]]]}},{"type":"Feature","properties":{"c":"1131063","o":"SCOTT, STEVEN JEFFREY","e":"2027-03-11Z"},"geometry":{"type":"Polygon","coordinates":[[[-115.55103,50.47917],[-115.55728,50.47916],[-115.55728,50.48333],[-115.55103,50.48333],[-115.55103,50.47917]]]}},{"type":"Feature","properties":{"c":"1120638","o":"MILLARD, ALAN EDWARD","e":"2035-02-17Z"},"geometry":{"type":"Polygon","coordinates":[[[-115.9323,50.1583],[-115.92605,50.1583],[-115.92605,50.15414],[-115.92605,50.14997],[-115.92605,50.1458],[-115.9323,50.1458],[-115.9323,50.14997],[-115.9323,50.15414],[-115.9323,50.1583]]]}},{"type":"Feature","properties":{"c":"1122117","o":"ORICHALCUM HOLDINGS INC.","e":"2026-08-25Z"},"geometry":{"type":"MultiPolygon","coordinates":[[[[-116.01981,50.04996],[-116.01356,50.04996],[-116.01356,50.05413],[-116.00731,50.05413],[-116.00106,50.05413],[-115.99481,50.05413],[-115.98856,50.05413],[-115.98231,50.05413],[-115.97606,50.05413],[-115.96981,50.05413],[-115.96981,50.04996],[-115.96356,50.04996],[-115.96356,50.04579],[-115.95731,50.04579],[-115.95731,50.04163],[-115.95106,50.04163],[-115.95106,50.03746],[-115.95106,50.03329],[-115.95106,50.02913],[-115.95106,50.02496],[-115.95106,50.02079],[-115.95731,50.02079],[-115.95731,50.01663],[-115.95731,50.01246],[-115.95731,50.00829],[-115.95731,50.00412],[-115.96356,50.00412],[-115.96981,50.00412],[-115.97606,50.00412],[-115.97606,49.99996],[-115.98231,49.99996],[-115.98856,49.99996],[-115.99481,49.99996],[-116.00106,49.99996],[-116.00106,50.00412],[-116.00731,50.00412],[-116.00731,50.00829],[-116.01356,50.00829],[-116.01356,50.01246],[-116.01356,50.01663],[-116.01981,50.01663],[-116.01981,50.02079],[-116.01981,50.02496],[-116.01981,50.02913],[-116.01981,50.03329],[-116.01981,50.03746],[-116.01981,50.04163],[-116.01981,50.0458],[-116.01981,50.04996]],[[-116.00106,50.04163],[-116.00106,50.03746],[-116.00106,50.03329],[-115.99481,50.03329],[-115.99481,50.02913],[-115.99481,50.02496],[-115.99481,50.02079],[-115.99481,50.01663],[-115.99481,50.01246],[-115.98856,50.01246],[-115.98231,50.01246],[-115.97606,50.01246],[-115.97606,50.01663],[-115.97606,50.02079],[-115.98231,50.02079],[-115.98231,50.02496],[-115.98231,50.02913],[-115.98231,50.03329],[-115.98231,50.03746],[-115.98231,50.04163],[-115.98231,50.04579],[-115.98856,50.04579],[-115.99481,50.04579],[-116.00106,50.04579],[-116.00106,50.04163]]]]}},{"type":"Feature","properties":{"c":"1092788","o":"CGC INC.","e":"2028-09-30Z"},"geometry":{"type":"Polygon","coordinates":[[[-115.51978,50.04998],[-115.51353,50.04998],[-115.51353,50.04581],[-115.51353,50.04164],[-115.51978,50.04164],[-115.51978,50.04581],[-115.51978,50.04998]]]}},{"type":"Feature","properties":{"c":"1093623","o":"CGC INC.","e":"2033-12-30Z"},"geometry":{"type":"Polygon","coordinates":[[[-115.52603,50.09998],[-115.51978,50.09998],[-115.51353,50.09998],[-115.51353,50.09581],[-115.51353,50.09164],[-115.51978,50.09164],[-115.52603,50.09164],[-115.52603,50.09581],[-115.52603,50.09998]]]}},{"type":"Feature","properties":{"c":"1093659","o":"CGC INC.","e":"2034-12-29Z"},"geometry":{"type":"Polygon","coordinates":[[[-115.53228,50.09164],[-115.52603,50.09164],[-115.51978,50.09164],[-115.51353,50.09164],[-115.50728,50.09164],[-115.50728,50.08748],[-115.50728,50.08331],[-115.51353,50.08331],[-115.51978,50.08331],[-115.52603,50.08331],[-115.53228,50.08331],[-115.53228,50.08748],[-115.53228,50.09164]]]}},{"type":"Feature","properties":{"c":"1093660","o":"CGC INC.","e":"2034-12-29Z"},"geometry":{"type":"Polygon","coordinates":[[[-115.53228,50.10831],[-115.52603,50.10831],[-115.51978,50.10831],[-115.51353,50.10831],[-115.50728,50.10831],[-115.50728,50.10414],[-115.50728,50.09998],[-115.51353,50.09998],[-115.51978,50.09998],[-115.52603,50.09998],[-115.52603,50.09581],[-115.52603,50.09164],[-115.53228,50.09164],[-115.53228,50.09581],[-115.53228,50.09998],[-115.53228,50.10414],[-115.53228,50.10831]]]}},{"type":"Feature","properties":{"c":"1096488","o":"CGC INC.","e":"2028-09-30Z"},"geometry":{"type":"Polygon","coordinates":[[[-115.52603,50.04998],[-115.51978,50.04998],[-115.51978,50.04581],[-115.51978,50.04164],[-115.52604,50.04164],[-115.52603,50.04581],[-115.52603,50.04998]]]}},{"type":"Feature","properties":{"c":"1096489","o":"CGC INC.","e":"2028-09-30Z"},"geometry":{"type":"Polygon","coordinates":[[[-115.51978,50.04164],[-115.51353,50.04164],[-115.51353,50.03748],[-115.51353,50.03331],[-115.51978,50.03331],[-115.51978,50.03748],[-115.51978,50.04164]]]}},{"type":"Feature","properties":{"c":"1098145","o":"CGC INC.","e":"2033-12-28Z"},"geometry":{"type":"Polygon","coordinates":[[[-115.50728,50.08331],[-115.50103,50.08331],[-115.50103,50.08748],[-115.49478,50.08748],[-115.48853,50.08748],[-115.48853,50.08331],[-115.48853,50.07915],[-115.49478,50.07915],[-115.50103,50.07914],[-115.50103,50.07498],[-115.50728,50.07498],[-115.50728,50.07914],[-115.50728,50.08331]]]}},{"type":"Feature","properties":{"c":"1099801","o":"CGC INC.","e":"2034-12-29Z"},"geometry":{"type":"Polygon","coordinates":[[[-115.51353,50.09998],[-115.50728,50.09998],[-115.50728,50.09581],[-115.50728,50.09164],[-115.51353,50.09164],[-115.51353,50.09581],[-115.51353,50.09998]]]}},{"type":"Feature","properties":{"c":"1102879","o":"CGC INC.","e":"2034-12-29Z"},"geometry":{"type":"Polygon","coordinates":[[[-115.53228,50.10414],[-115.53228,50.09998],[-115.53228,50.09581],[-115.53853,50.09581],[-115.53853,50.09998],[-115.54478,50.09998],[-115.54478,50.10414],[-115.53853,50.10414],[-115.53228,50.10414]]]}},{"type":"Feature","properties":{"c":"1107881","o":"CGC INC.","e":"2033-12-28Z"},"geometry":{"type":"Polygon","coordinates":[[[-115.50728,50.09164],[-115.50103,50.09164],[-115.50103,50.08748],[-115.50103,50.08331],[-115.50728,50.08331],[-115.50728,50.08748],[-115.50728,50.09164]]]}},{"type":"Feature","properties":{"c":"1120457","o":"CGC INC.","e":"2027-09-05Z"},"geometry":{"type":"Polygon","coordinates":[[[-115.51979,50.01248],[-115.51354,50.01248],[-115.50728,50.01248],[-115.50728,50.00831],[-115.50729,50.00415],[-115.50729,49.99998],[-115.50729,49.99581],[-115.50729,49.99165],[-115.50728,49.98748],[-115.51354,49.98748],[-115.51979,49.98748],[-115.51979,49.99165],[-115.51979,49.99581],[-115.51979,49.99998],[-115.51979,50.00414],[-115.51979,50.00831],[-115.51979,50.01248]]]}},{"type":"Feature","properties":{"c":"1121901","o":"BEYOND MINERALS INC.","e":"2027-11-15Z"},"geometry":{"type":"Polygon","coordinates":[[[-115.55728,50.47916],[-115.55103,50.47917],[-115.54478,50.47917],[-115.54478,50.48334],[-115.54478,50.4875],[-115.53853,50.4875],[-115.53228,50.48751],[-115.52603,50.48751],[-115.51978,50.48751],[-115.51353,50.48751],[-115.51353,50.48334],[-115.51353,50.47918],[-115.51353,50.47501],[-115.51353,50.47084],[-115.51354,50.46667],[-115.51354,50.4625],[-115.51979,50.4625],[-115.52604,50.4625],[-115.53229,50.4625],[-115.53853,50.4625],[-115.54478,50.4625],[-115.55103,50.46249],[-115.55728,50.46249],[-115.55728,50.46666],[-115.55728,50.47083],[-115.55728,50.475],[-115.55728,50.47916]]]}},{"type":"Feature","properties":{"c":"1122223","o":"BEYOND MINERALS INC.","e":"2027-11-15Z"},"geometry":{"type":"Polygon","coordinates":[[[-115.59478,50.48749],[-115.58853,50.48749],[-115.58228,50.48749],[-115.57603,50.48749],[-115.56978,50.4875],[-115.56353,50.4875],[-115.55728,50.4875],[-115.55728,50.48333],[-115.55728,50.47916],[-115.55728,50.475],[-115.55728,50.47083],[-115.56353,50.47083],[-115.56978,50.47083],[-115.57603,50.47082],[-115.58228,50.47082],[-115.58853,50.47082],[-115.59478,50.47082],[-115.59478,50.47499],[-115.59478,50.47916],[-115.59478,50.48332],[-115.59478,50.48749]]]}},{"type":"Feature","properties":{"c":"1122642","o":"BEYOND MINERALS INC.","e":"2027-11-15Z"},"geometry":{"type":"Polygon","coordinates":[[[-115.56978,50.47083],[-115.56353,50.47083],[-115.55728,50.47083],[-115.55728,50.46666],[-115.55728,50.46249],[-115.55103,50.46249],[-115.54478,50.4625],[-115.53853,50.4625],[-115.53229,50.4625],[-115.52604,50.4625],[-115.51979,50.4625],[-115.51354,50.4625],[-115.51354,50.45833],[-115.51354,50.45417],[-115.51354,50.45],[-115.51354,50.44583],[-115.51354,50.44166],[-115.51979,50.44166],[-115.52604,50.44166],[-115.53229,50.44166],[-115.53854,50.44166],[-115.54479,50.44166],[-115.55104,50.44166],[-115.55729,50.44166],[-115.56354,50.44165],[-115.56979,50.44165],[-115.56979,50.44582],[-115.56979,50.44999],[-115.56979,50.45416],[-115.56978,50.45832],[-115.56978,50.46249],[-115.56978,50.46666],[-115.56978,50.47083]]]}}]}