{"type":"FeatureCollection","features":[{"type":"Feature","properties":{"c":"9423020070","o":"GRAYMONT WESTERN CANADA INC.","e":""},"geometry":{"type":"MultiPolygon","coordinates":[[[[-116.11228,52.52324],[-116.13581,52.52323],[-116.13581,52.54121],[-116.11228,52.54122],[-116.11228,52.52676],[-116.11228,52.52324]]],[[[-116.0643,52.50128],[-116.07615,52.50128],[-116.07615,52.5049],[-116.08208,52.5049],[-116.08208,52.51574],[-116.08785,52.51574],[-116.08786,52.52297],[-116.0643,52.52297],[-116.0643,52.5049],[-116.0643,52.50128]]],[[[-116.0883,52.52324],[-116.11183,52.52324],[-116.11183,52.5376],[-116.10014,52.53761],[-116.10014,52.53399],[-116.0883,52.53399],[-116.0883,52.52676],[-116.0883,52.52324]]],[[[-116.0883,52.51574],[-116.11183,52.51574],[-116.11183,52.52297],[-116.0883,52.52297],[-116.0883,52.51935],[-116.0883,52.51574]]],[[[-116.0643,52.52324],[-116.08786,52.52324],[-116.08786,52.53038],[-116.07615,52.53038],[-116.07615,52.52676],[-116.0643,52.52676],[-116.0643,52.52324]]],[[[-116.11228,52.51574],[-116.1182,52.51574],[-116.1182,52.51935],[-116.13581,52.51935],[-116.13581,52.52296],[-116.11228,52.52297],[-116.11228,52.51935],[-116.11228,52.51574]]],[[[-116.05216,52.50128],[-116.06385,52.50128],[-116.06385,52.50851],[-116.05216,52.50851],[-116.05216,52.5049],[-116.05216,52.50128]]],[[[-116.13626,52.53037],[-116.14218,52.53037],[-116.14218,52.53398],[-116.13626,52.53399],[-116.13626,52.53037]]]]}},{"type":"Feature","properties":{"c":"9410010457","o":"GRAYMONT WESTERN CANADA INC.","e":""},"geometry":{"type":"MultiPolygon","coordinates":[[[[-116.16023,52.5412],[-116.16616,52.5412],[-116.16616,52.53398],[-116.16023,52.53398],[-116.16023,52.52322],[-116.16616,52.52322],[-116.16616,52.52675],[-116.178,52.52675],[-116.178,52.53036],[-116.18378,52.53036],[-116.18378,52.55205],[-116.16024,52.55205],[-116.16024,52.54482],[-116.16023,52.5412]]],[[[-116.07023,52.49721],[-116.07231,52.4979],[-116.07833,52.4983],[-116.08305,52.49897],[-116.0844,52.49939],[-116.08785,52.50129],[-116.08785,52.51574],[-116.08208,52.51574],[-116.08208,52.5049],[-116.07615,52.5049],[-116.07615,52.50128],[-116.07022,52.50128],[-116.07023,52.49767],[-116.07023,52.49721]]],[[[-116.0883,52.50161],[-116.08924,52.502],[-116.09048,52.50384],[-116.09206,52.5049],[-116.09415,52.50536],[-116.11183,52.5049],[-116.11183,52.51574],[-116.0883,52.51574],[-116.0883,52.50851],[-116.0883,52.50161]]],[[[-116.11228,52.5049],[-116.11819,52.50495],[-116.1182,52.50851],[-116.13581,52.50851],[-116.13581,52.51935],[-116.1182,52.51935],[-116.1182,52.51574],[-116.11228,52.51574],[-116.11228,52.50851],[-116.11228,52.5049]]],[[[-116.13626,52.51212],[-116.14218,52.51212],[-116.14218,52.51573],[-116.1481,52.51573],[-116.1481,52.51934],[-116.15402,52.51934],[-116.15402,52.52295],[-116.13626,52.52296],[-116.13626,52.51573],[-116.13626,52.51212]]],[[[-116.13626,52.52323],[-116.15979,52.52322],[-116.15979,52.53398],[-116.1481,52.53398],[-116.1481,52.53037],[-116.13626,52.53037],[-116.13626,52.52676],[-116.13626,52.52323]]],[[[-116.13626,52.53399],[-116.14218,52.53398],[-116.14218,52.5376],[-116.1481,52.5376],[-116.1481,52.54844],[-116.15979,52.54843],[-116.15979,52.55205],[-116.14218,52.55205],[-116.14218,52.54844],[-116.13626,52.54844],[-116.13626,52.5376],[-116.13626,52.53399]]],[[[-116.18422,52.53759],[-116.19014,52.53759],[-116.19014,52.54843],[-116.20199,52.54844],[-116.20199,52.55205],[-116.18422,52.55205],[-116.18422,52.5412],[-116.18422,52.53759]]],[[[-116.15402,52.55232],[-116.15979,52.55232],[-116.15979,52.55584],[-116.15402,52.55585],[-116.15402,52.55232]]],[[[-116.16024,52.55232],[-116.18378,52.55232],[-116.18378,52.56307],[-116.17208,52.56307],[-116.17208,52.55946],[-116.16616,52.55946],[-116.16616,52.55584],[-116.16024,52.55584],[-116.16024,52.55232]]],[[[-116.18422,52.55232],[-116.20776,52.55232],[-116.20776,52.56308],[-116.18422,52.56307],[-116.18422,52.55584],[-116.18422,52.55232]]],[[[-116.20821,52.55232],[-116.22005,52.55232],[-116.22005,52.56308],[-116.20821,52.56308],[-116.20821,52.55585],[-116.20821,52.55232]]]]}},{"type":"Feature","properties":{"c":"9410110427","o":"1208013 ALBERTA LTD.","e":""},"geometry":{"type":"Polygon","coordinates":[[[-115.99234,52.49407],[-116.00419,52.49406],[-116.0042,52.49753],[-116.00798,52.49626],[-116.01247,52.49405],[-116.01589,52.49405],[-116.01589,52.50851],[-115.99234,52.50853],[-115.99234,52.49769],[-115.99234,52.49407]]]}}]}