{"type":"FeatureCollection","features":[{"type":"Feature","properties":{"c":"9924030129","o":"NEOLITHICA LTD.","e":""},"geometry":{"type":"MultiPolygon","coordinates":[[[[-118.0,56.0],[-118.0,56.0],[-118.0,56.0],[-118.0,56.0]]],[[[-117.0,56.0],[-118.0,56.0],[-118.0,56.0],[-117.0,56.0]]],[[[-117.0,56.0],[-118.0,56.0],[-118.0,56.0],[-117.0,56.0]]],[[[-118.0,56.0],[-118.0,56.0],[-118.0,56.0],[-118.0,56.0]]],[[[-117.0,56.0],[-117.0,56.0],[-117.0,56.0],[-117.0,56.0]]],[[[-118.0,56.0],[-118.0,56.0],[-118.0,56.0],[-118.0,56.0]]],[[[-118.0,56.0],[-118.0,56.0],[-118.0,56.0],[-118.0,56.0]]],[[[-117.0,56.0],[-118.0,56.0],[-118.0,56.0],[-117.0,56.0]]],[[[-118.0,56.0],[-118.0,56.0],[-118.0,56.0],[-118.0,56.0]]],[[[-117.0,56.0],[-117.0,56.0],[-117.0,56.0],[-117.0,56.0]]],[[[-117.0,56.0],[-117.0,56.0],[-117.0,56.0],[-117.0,56.0]]],[[[-118.0,56.0],[-118.0,56.0],[-118.0,56.0],[-118.0,56.0]]],[[[-118.0,56.0],[-118.0,56.0],[-118.0,56.0],[-118.0,56.0]]],[[[-117.0,56.0],[-117.0,56.0],[-117.0,56.0],[-117.0,56.0]]],[[[-118.0,56.0],[-118.0,56.0],[-118.0,56.0],[-118.0,56.0]]],[[[-117.0,56.0],[-117.0,56.0],[-117.0,56.0],[-117.0,56.0]]],[[[-118.0,56.0],[-118.0,56.0],[-118.0,56.0],[-118.0,56.0]]],[[[-117.0,56.0],[-117.0,56.0],[-117.0,56.0],[-117.0,56.0]]]]}},{"type":"Feature","properties":{"c":"9924030134","o":"NEOLITHICA LTD.","e":""},"geometry":{"type":"MultiPolygon","coordinates":[[[[-117.0,56.0],[-117.0,56.0],[-117.0,56.0],[-117.0,56.0]]],[[[-117.0,56.0],[-117.0,56.0],[-117.0,56.0],[-117.0,56.0]]],[[[-118.0,56.0],[-118.0,56.0],[-118.0,56.0],[-118.0,56.0]]],[[[-117.0,56.0],[-117.0,56.0],[-117.0,56.0],[-117.0,56.0]]],[[[-118.0,56.0],[-118.0,56.0],[-118.0,56.0],[-118.0,56.0]]],[[[-118.0,56.0],[-118.0,56.0],[-118.0,56.0],[-118.0,56.0]]],[[[-118.0,56.0],[-118.0,56.0],[-118.0,56.0],[-118.0,56.0]]],[[[-117.0,56.0],[-117.0,56.0],[-117.0,56.0],[-117.0,56.0]]],[[[-118.0,56.0],[-118.0,56.0],[-118.0,56.0],[-118.0,56.0]]],[[[-118.0,56.0],[-118.0,56.0],[-118.0,56.0],[-118.0,56.0]]],[[[-117.0,56.0],[-117.0,56.0],[-117.0,56.0],[-117.0,56.0]]],[[[-118.0,56.0],[-118.0,56.0],[-118.0,56.0],[-118.0,56.0]]],[[[-117.0,56.0],[-117.0,56.0],[-117.0,56.0],[-117.0,56.0]]],[[[-117.0,56.0],[-118.0,56.0],[-118.0,56.0],[-117.0,56.0]]],[[[-118.0,56.0],[-118.0,56.0],[-118.0,56.0],[-118.0,56.0]]],[[[-117.0,56.0],[-117.0,56.0],[-118.0,56.0],[-117.0,56.0]]],[[[-117.0,56.0],[-118.0,56.0],[-118.0,56.0],[-117.0,56.0]]]]}},{"type":"Feature","properties":{"c":"9924040271","o":"LITHALTA (CHP) HOLDINGS CORP.","e":""},"geometry":{"type":"MultiPolygon","coordinates":[[[[-117.0,56.0],[-117.0,56.0],[-117.0,56.0],[-117.0,56.0]]],[[[-117.0,56.0],[-117.0,56.0],[-117.0,56.0],[-117.0,56.0]]],[[[-117.0,56.0],[-117.0,56.0],[-117.0,56.0],[-117.0,56.0]]],[[[-117.0,56.0],[-117.0,56.0],[-117.0,56.0],[-117.0,56.0]]],[[[-117.0,56.0],[-117.0,56.0],[-117.0,56.0],[-117.0,56.0]]],[[[-117.0,56.0],[-117.0,56.0],[-117.0,56.0],[-117.0,56.0]]],[[[-117.0,56.0],[-118.0,56.0],[-118.0,56.0],[-117.0,56.0]]],[[[-117.0,56.0],[-117.0,56.0],[-117.0,56.0],[-117.0,56.0]]],[[[-117.0,56.0],[-117.0,56.0],[-117.0,56.0],[-117.0,56.0]]],[[[-117.0,56.0],[-118.0,56.0],[-118.0,56.0],[-117.0,56.0]]],[[[-117.0,56.0],[-117.0,56.0],[-117.0,56.0],[-117.0,56.0]]],[[[-117.0,56.0],[-117.0,56.0],[-117.0,56.0],[-117.0,56.0]]],[[[-117.0,56.0],[-117.0,56.0],[-117.0,56.0],[-117.0,56.0]]],[[[-117.0,56.0],[-117.0,56.0],[-117.0,56.0],[-117.0,56.0]]],[[[-118.0,56.0],[-118.0,56.0],[-118.0,56.0],[-118.0,56.0]]],[[[-117.0,56.0],[-117.0,56.0],[-117.0,56.0],[-117.0,56.0]]],[[[-117.0,56.0],[-117.0,56.0],[-117.0,56.0],[-117.0,56.0]]],[[[-117.0,56.0],[-117.0,56.0],[-117.0,56.0],[-117.0,56.0]]],[[[-117.0,56.0],[-117.0,56.0],[-117.0,56.0],[-117.0,56.0]]]]}},{"type":"Feature","properties":{"c":"9924040272","o":"LITHALTA (CHP) HOLDINGS CORP.","e":""},"geometry":{"type":"MultiPolygon","coordinates":[[[[-118.0,56.0],[-118.0,56.0],[-118.0,56.0],[-118.0,56.0]]],[[[-117.0,56.0],[-117.0,56.0],[-117.0,56.0],[-117.0,56.0]]],[[[-118.0,56.0],[-118.0,56.0],[-118.0,56.0],[-118.0,56.0]]],[[[-117.0,56.0],[-117.0,56.0],[-117.0,56.0],[-117.0,56.0]]],[[[-117.0,56.0],[-117.0,56.0],[-117.0,56.0],[-117.0,56.0]]],[[[-117.0,56.0],[-117.0,56.0],[-117.0,56.0],[-117.0,56.0]]],[[[-117.0,56.0],[-117.0,56.0],[-117.0,56.0],[-117.0,56.0]]],[[[-117.0,56.0],[-118.0,56.0],[-118.0,56.0],[-117.0,56.0]]],[[[-118.0,56.0],[-118.0,56.0],[-118.0,56.0],[-118.0,56.0]]],[[[-118.0,56.0],[-118.0,56.0],[-118.0,56.0],[-118.0,56.0]]],[[[-118.0,56.0],[-118.0,56.0],[-118.0,56.0],[-118.0,56.0]]],[[[-118.0,56.0],[-118.0,56.0],[-118.0,56.0],[-118.0,56.0]]],[[[-118.0,56.0],[-118.0,56.0],[-118.0,56.0],[-118.0,56.0]]],[[[-117.0,56.0],[-117.0,56.0],[-117.0,56.0],[-117.0,56.0]]],[[[-117.0,56.0],[-117.0,56.0],[-117.0,56.0],[-117.0,56.0]]],[[[-117.0,56.0],[-117.0,56.0],[-117.0,56.0],[-117.0,56.0]]],[[[-117.0,56.0],[-117.0,56.0],[-117.0,56.0],[-117.0,56.0]]],[[[-117.0,56.0],[-117.0,56.0],[-117.0,56.0],[-117.0,56.0]]],[[[-117.0,56.0],[-117.0,56.0],[-117.0,56.0],[-117.0,56.0]]],[[[-117.0,56.0],[-117.0,56.0],[-117.0,56.0],[-117.0,56.0]]],[[[-117.0,56.0],[-117.0,56.0],[-117.0,56.0],[-117.0,56.0]]],[[[-117.0,56.0],[-117.0,56.0],[-117.0,56.0],[-117.0,56.0]]],[[[-117.0,56.0],[-117.0,56.0],[-117.0,56.0],[-117.0,56.0]]]]}},{"type":"Feature","properties":{"c":"9924040274","o":"LITHALTA (CHP) HOLDINGS CORP.","e":""},"geometry":{"type":"MultiPolygon","coordinates":[[[[-117.0,57.0],[-118.0,56.0],[-118.0,57.0],[-117.0,57.0]]]]}},{"type":"Feature","properties":{"c":"9924030158","o":"NEOLITHICA LTD.","e":""},"geometry":{"type":"MultiPolygon","coordinates":[[[[-118.0,56.0],[-118.0,56.0],[-118.0,56.0],[-118.0,56.0]]],[[[-118.0,56.0],[-118.0,56.0],[-118.0,56.0],[-118.0,56.0]]],[[[-118.0,56.0],[-118.0,56.0],[-118.0,56.0],[-118.0,56.0]]],[[[-117.0,56.0],[-117.0,56.0],[-117.0,56.0],[-117.0,56.0]]],[[[-117.0,56.0],[-117.0,56.0],[-117.0,56.0],[-117.0,56.0]]],[[[-117.0,56.0],[-117.0,56.0],[-117.0,56.0],[-117.0,56.0]]],[[[-118.0,56.0],[-118.0,56.0],[-118.0,56.0],[-118.0,56.0]]],[[[-118.0,56.0],[-118.0,56.0],[-118.0,56.0],[-118.0,56.0]]]]}},{"type":"Feature","properties":{"c":"9326030149","o":"HIGHWOOD ASSET MANAGEMENT LTD.","e":""},"geometry":{"type":"MultiPolygon","coordinates":[[[[-117.0,55.0],[-118.0,55.0],[-118.0,56.0],[-117.0,55.0]]]]}},{"type":"Feature","properties":{"c":"9326030150","o":"HIGHWOOD ASSET MANAGEMENT LTD.","e":""},"geometry":{"type":"MultiPolygon","coordinates":[[[[-117.0,56.0],[-117.0,56.0],[-117.0,56.0],[-117.0,56.0]]],[[[-117.0,56.0],[-117.0,56.0],[-117.0,56.0],[-117.0,56.0]]],[[[-117.0,56.0],[-117.0,56.0],[-117.0,56.0],[-117.0,56.0]]],[[[-117.0,56.0],[-117.0,56.0],[-117.0,56.0],[-117.0,56.0]]],[[[-117.0,56.0],[-118.0,56.0],[-118.0,56.0],[-117.0,56.0]]],[[[-118.0,56.0],[-118.0,56.0],[-118.0,56.0],[-118.0,56.0]]],[[[-118.0,56.0],[-118.0,56.0],[-118.0,56.0],[-118.0,56.0]]],[[[-117.0,56.0],[-117.0,56.0],[-117.0,56.0],[-117.0,56.0]]],[[[-117.0,56.0],[-117.0,56.0],[-117.0,56.0],[-117.0,56.0]]],[[[-117.0,56.0],[-118.0,56.0],[-118.0,56.0],[-117.0,56.0]]],[[[-118.0,56.0],[-118.0,56.0],[-118.0,56.0],[-118.0,56.0]]],[[[-118.0,56.0],[-118.0,56.0],[-118.0,56.0],[-118.0,56.0]]],[[[-117.0,56.0],[-117.0,56.0],[-117.0,56.0],[-117.0,56.0]]],[[[-117.0,56.0],[-117.0,56.0],[-117.0,56.0],[-117.0,56.0]]],[[[-117.0,56.0],[-117.0,56.0],[-117.0,56.0],[-117.0,56.0]]],[[[-117.0,56.0],[-118.0,56.0],[-118.0,56.0],[-117.0,56.0]]],[[[-118.0,56.0],[-118.0,56.0],[-118.0,56.0],[-118.0,56.0]]],[[[-118.0,56.0],[-118.0,56.0],[-118.0,56.0],[-118.0,56.0]]]]}}]}