{"type":"FeatureCollection","features":[{"type":"Feature","properties":{"c":"1075685","o":"PIRZADA, AFZAAL AHMED","e":"2028-12-31Z"},"geometry":{"type":"Polygon","coordinates":[[[-117.75111,49.02075],[-117.74486,49.02075],[-117.73861,49.02075],[-117.73236,49.02075],[-117.72611,49.02075],[-117.71986,49.02075],[-117.71361,49.02075],[-117.70736,49.02075],[-117.7011,49.02075],[-117.69485,49.02075],[-117.6886,49.02075],[-117.6886,49.01658],[-117.6886,49.01241],[-117.6886,49.00825],[-117.6886,49.00408],[-117.6886,48.99991],[-117.69485,48.99991],[-117.7011,48.99991],[-117.70735,48.99991],[-117.70735,49.00408],[-117.70735,49.00825],[-117.70735,49.01242],[-117.71361,49.01242],[-117.71986,49.01242],[-117.72611,49.01242],[-117.73236,49.01242],[-117.73861,49.01242],[-117.74486,49.01242],[-117.75111,49.01242],[-117.75111,49.01658],[-117.75111,49.02075]]]}},{"type":"Feature","properties":{"c":"1012325","o":"CANNON BRIDGE CAPITAL CORP","e":"2027-08-23Z"},"geometry":{"type":"Polygon","coordinates":[[[-117.78236,48.99991],[-117.78236,49.00408],[-117.77611,49.00408],[-117.77611,48.99991],[-117.78236,48.99991]]]}},{"type":"Feature","properties":{"c":"1046531","o":"CANNON BRIDGE CAPITAL CORP","e":"2027-08-23Z"},"geometry":{"type":"Polygon","coordinates":[[[-117.77611,48.99991],[-117.77611,49.00408],[-117.76986,49.00408],[-117.76986,48.99991],[-117.77611,48.99991]]]}},{"type":"Feature","properties":{"c":"1044723","o":"WEST HIGH YIELD (W.H.Y.) RESOURCES LTD.","e":"2033-12-20Z"},"geometry":{"type":"Polygon","coordinates":[[[-117.76986,49.01241],[-117.76361,49.01242],[-117.75736,49.01242],[-117.75736,49.00825],[-117.75736,49.00408],[-117.75736,48.99992],[-117.76361,48.99991],[-117.76986,48.99991],[-117.76986,49.00408],[-117.76986,49.00825],[-117.76986,49.01241]]]}},{"type":"Feature","properties":{"c":"1045540","o":"WEST HIGH YIELD (W.H.Y.) RESOURCES LTD.","e":"2033-12-20Z"},"geometry":{"type":"Polygon","coordinates":[[[-117.75736,49.01658],[-117.75111,49.01658],[-117.75111,49.01242],[-117.75111,49.00825],[-117.74486,49.00825],[-117.74486,49.00408],[-117.74486,48.99992],[-117.75111,48.99992],[-117.75736,48.99992],[-117.75736,49.00408],[-117.75736,49.00825],[-117.75736,49.01242],[-117.76361,49.01242],[-117.76986,49.01241],[-117.76986,49.01658],[-117.76361,49.01658],[-117.75736,49.01658]]]}},{"type":"Feature","properties":{"c":"1075626","o":"PIRZADA, AFZAAL AHMED","e":"2028-12-31Z"},"geometry":{"type":"Polygon","coordinates":[[[-117.73861,49.01242],[-117.73236,49.01242],[-117.72611,49.01242],[-117.71986,49.01242],[-117.71361,49.01242],[-117.70735,49.01242],[-117.70735,49.00825],[-117.70735,49.00408],[-117.70735,48.99991],[-117.7136,48.99991],[-117.71986,48.99992],[-117.72611,48.99992],[-117.73236,48.99992],[-117.73861,48.99992],[-117.74486,48.99992],[-117.74486,49.00408],[-117.74486,49.00825],[-117.75111,49.00825],[-117.75111,49.01242],[-117.74486,49.01242],[-117.73861,49.01242]]]}},{"type":"Feature","properties":{"c":"1133147","o":"REDMAN, CAMERON DANIEL","e":"2027-05-19Z"},"geometry":{"type":"Polygon","coordinates":[[[-117.62609,48.99992],[-117.62609,49.00408],[-117.61984,49.00408],[-117.61984,48.99992],[-117.62609,48.99992]]]}},{"type":"Feature","properties":{"c":"1109537","o":"GAL, LEONARD PAUL","e":"2029-08-15Z"},"geometry":{"type":"Polygon","coordinates":[[[-117.96361,49.0124],[-117.95736,49.0124],[-117.95111,49.0124],[-117.95111,49.00824],[-117.95111,49.00407],[-117.95111,48.9999],[-117.95736,48.9999],[-117.96361,48.9999],[-117.96361,49.00407],[-117.96361,49.00824],[-117.96361,49.0124]]]}},{"type":"Feature","properties":{"c":"1136179","o":"REDMAN, CAMERON DANIEL","e":"2027-07-22Z"},"geometry":{"type":"Polygon","coordinates":[[[-117.61984,48.99992],[-117.61984,49.00408],[-117.61359,49.00408],[-117.61359,48.99992],[-117.61984,48.99992]]]}},{"type":"Feature","properties":{"c":"1138899","o":"POCH, BRANDON JOSEPH","e":"2027-09-14Z"},"geometry":{"type":"Polygon","coordinates":[[[-117.92611,49.00824],[-117.91986,49.00824],[-117.91986,49.00407],[-117.91986,48.9999],[-117.92611,48.9999],[-117.92611,49.00407],[-117.92611,49.00824]]]}},{"type":"Feature","properties":{"c":"1115056","o":"CANNON BRIDGE CAPITAL CORP","e":"2027-08-23Z"},"geometry":{"type":"Polygon","coordinates":[[[-117.79486,49.02075],[-117.78861,49.02075],[-117.78236,49.02075],[-117.77611,49.02075],[-117.76986,49.02075],[-117.76986,49.01658],[-117.77611,49.01658],[-117.78236,49.01658],[-117.78861,49.01658],[-117.78861,49.01241],[-117.78861,49.00825],[-117.78861,49.00408],[-117.78861,48.99991],[-117.79486,48.99991],[-117.79486,49.00408],[-117.79486,49.00825],[-117.79486,49.01241],[-117.79486,49.01658],[-117.79486,49.02075]]]}},{"type":"Feature","properties":{"c":"1135630","o":"ADAMOWICZ, ROBERT JOHN","e":"2027-07-16Z"},"geometry":{"type":"Polygon","coordinates":[[[-117.78861,49.00825],[-117.78236,49.00825],[-117.78236,49.00408],[-117.78236,48.99991],[-117.78861,48.99991],[-117.78861,49.00408],[-117.78861,49.00825]]]}},{"type":"Feature","properties":{"c":"1131036","o":"ARMSTRONG, DELWYN MAUREEN","e":"2027-03-11Z"},"geometry":{"type":"Polygon","coordinates":[[[-117.91361,49.01657],[-117.90736,49.01657],[-117.90736,49.02074],[-117.90111,49.02074],[-117.89486,49.02074],[-117.88861,49.02074],[-117.88236,49.02074],[-117.87611,49.02074],[-117.87611,49.01657],[-117.87611,49.01241],[-117.87611,49.00824],[-117.87611,49.00407],[-117.88236,49.00407],[-117.88861,49.00407],[-117.89486,49.00407],[-117.90111,49.00407],[-117.90736,49.00407],[-117.90736,48.9999],[-117.91361,48.9999],[-117.91986,48.9999],[-117.91986,49.00407],[-117.91361,49.00407],[-117.91361,49.00824],[-117.91361,49.0124],[-117.91361,49.01657]]]}}]}