{"type":"FeatureCollection","features":[{"type":"Feature","properties":{"c":"393121","o":"LUCHANSKY, RODNEY LEONARD","e":"2029-09-01Z"},"geometry":{"type":"Polygon","coordinates":[[[-117.71175,49.55061],[-117.71175,49.55511],[-117.70477,49.55511],[-117.69792,49.55511],[-117.69792,49.55062],[-117.70477,49.55062],[-117.71175,49.55061]]]}},{"type":"Feature","properties":{"c":"518270","o":"STREBCHUK, STANLEY ALEXANDER","e":"2028-06-21Z"},"geometry":{"type":"Polygon","coordinates":[[[-117.68238,49.99576],[-117.67613,49.99576],[-117.66988,49.99576],[-117.66363,49.99576],[-117.65738,49.99576],[-117.65113,49.99576],[-117.64488,49.99576],[-117.63863,49.99576],[-117.63238,49.99576],[-117.63238,49.99159],[-117.63238,49.98743],[-117.63238,49.98326],[-117.63238,49.97909],[-117.63238,49.97493],[-117.63237,49.97076],[-117.63237,49.96659],[-117.63863,49.96659],[-117.64488,49.9666],[-117.65113,49.96659],[-117.65738,49.9666],[-117.66363,49.9666],[-117.66988,49.9666],[-117.67613,49.9666],[-117.68238,49.9666],[-117.68238,49.97076],[-117.68238,49.97493],[-117.68238,49.9791],[-117.68238,49.98326],[-117.67613,49.98326],[-117.67613,49.98743],[-117.68238,49.98743],[-117.68238,49.99159],[-117.68238,49.99576]]]}},{"type":"Feature","properties":{"c":"320414","o":"GUSTAFSON HOLDINGS LTD","e":"2026-01-23Z"},"geometry":{"type":"Polygon","coordinates":[[[-117.70887,49.98363],[-117.71476,49.98254],[-117.71464,49.98226],[-117.71709,49.98572],[-117.71439,49.98652],[-117.70549,49.98914],[-117.70284,49.9854],[-117.70865,49.98369],[-117.70887,49.98363]]]}},{"type":"Feature","properties":{"c":"1049977","o":"TURNAGAIN RESOURCES INC.","e":"2018-02-13Z"},"geometry":{"type":"Polygon","coordinates":[[[-117.69488,49.57076],[-117.68863,49.57076],[-117.68238,49.57076],[-117.67612,49.57076],[-117.66988,49.57076],[-117.66363,49.57076],[-117.65738,49.57076],[-117.65113,49.57076],[-117.64488,49.57076],[-117.63863,49.57076],[-117.63863,49.56659],[-117.64488,49.56659],[-117.65113,49.56659],[-117.65738,49.56659],[-117.66363,49.56659],[-117.66988,49.56659],[-117.67612,49.56659],[-117.68238,49.56659],[-117.68863,49.56659],[-117.68863,49.56242],[-117.69488,49.56242],[-117.69488,49.56659],[-117.69488,49.57076]]]}},{"type":"Feature","properties":{"c":"1070577","o":"LUCHANSKY, RODNEY LEONARD","e":"2028-08-22Z"},"geometry":{"type":"Polygon","coordinates":[[[-117.74488,49.64159],[-117.74488,49.64576],[-117.73863,49.64576],[-117.73863,49.64159],[-117.74488,49.64159]]]}},{"type":"Feature","properties":{"c":"1089099","o":"HURD, DOUGLAS LYLE","e":"2028-02-18Z"},"geometry":{"type":"Polygon","coordinates":[[[-117.65113,49.56242],[-117.64488,49.56242],[-117.64488,49.55826],[-117.64488,49.55409],[-117.64488,49.54992],[-117.65113,49.54992],[-117.65113,49.55409],[-117.65113,49.55826],[-117.65113,49.56242]]]}},{"type":"Feature","properties":{"c":"1049888","o":"LUCHANSKY, RODNEY LEONARD","e":"2034-08-19Z"},"geometry":{"type":"Polygon","coordinates":[[[-117.71363,49.54159],[-117.70738,49.54159],[-117.70738,49.53742],[-117.70738,49.53326],[-117.71363,49.53326],[-117.71363,49.53742],[-117.71363,49.54159]]]}},{"type":"Feature","properties":{"c":"1084577","o":"TURNAGAIN RESOURCES INC.","e":"2036-10-05Z"},"geometry":{"type":"Polygon","coordinates":[[[-117.65113,49.54576],[-117.65113,49.54992],[-117.64488,49.54992],[-117.64488,49.54576],[-117.65113,49.54576]]]}},{"type":"Feature","properties":{"c":"1097953","o":"TURNAGAIN RESOURCES INC.","e":"2032-10-05Z"},"geometry":{"type":"Polygon","coordinates":[[[-117.66988,49.56659],[-117.66363,49.56659],[-117.66363,49.56242],[-117.66363,49.55826],[-117.66987,49.55826],[-117.66988,49.56242],[-117.66988,49.56659]]]}},{"type":"Feature","properties":{"c":"1095432","o":"MCDONALD, THOMAS WALTER","e":"2033-05-01Z"},"geometry":{"type":"Polygon","coordinates":[[[-117.65113,49.54159],[-117.65113,49.54576],[-117.64488,49.54576],[-117.64488,49.54159],[-117.65113,49.54159]]]}},{"type":"Feature","properties":{"c":"1095433","o":"MCDONALD, THOMAS WALTER","e":"2033-05-01Z"},"geometry":{"type":"Polygon","coordinates":[[[-117.64488,49.54159],[-117.64488,49.54576],[-117.63863,49.54576],[-117.63863,49.54159],[-117.64488,49.54159]]]}},{"type":"Feature","properties":{"c":"1095441","o":"MCDONALD, THOMAS WALTER","e":"2033-05-01Z"},"geometry":{"type":"Polygon","coordinates":[[[-117.63863,49.54159],[-117.63863,49.54576],[-117.63238,49.54576],[-117.63238,49.54159],[-117.63863,49.54159]]]}},{"type":"Feature","properties":{"c":"1104501","o":"HARSHENIN, DARREN GEORGE","e":"2034-05-28Z"},"geometry":{"type":"Polygon","coordinates":[[[-117.78238,49.64159],[-117.78238,49.64576],[-117.77613,49.64576],[-117.77613,49.64159],[-117.78238,49.64159]]]}},{"type":"Feature","properties":{"c":"1111811","o":"THOMSON, JUSTIN DAVID","e":"2031-06-27Z"},"geometry":{"type":"Polygon","coordinates":[[[-117.61989,49.52075],[-117.61989,49.52492],[-117.61364,49.52492],[-117.61364,49.52075],[-117.61989,49.52075]]]}},{"type":"Feature","properties":{"c":"1111526","o":"WRIGHT, MATT","e":"2028-06-25Z"},"geometry":{"type":"Polygon","coordinates":[[[-117.70738,49.55409],[-117.70738,49.54992],[-117.71363,49.54992],[-117.71988,49.54992],[-117.71988,49.55409],[-117.71363,49.55409],[-117.70738,49.55409]]]}},{"type":"Feature","properties":{"c":"1101195","o":"MAXPURE CRITICAL MINERALS LTD.","e":"2027-03-30Z"},"geometry":{"type":"Polygon","coordinates":[[[-117.72613,49.66242],[-117.71989,49.66242],[-117.71364,49.66242],[-117.70739,49.66242],[-117.70739,49.65826],[-117.70739,49.65409],[-117.70739,49.64992],[-117.71364,49.64992],[-117.71988,49.64992],[-117.71988,49.64576],[-117.72613,49.64576],[-117.72613,49.64992],[-117.72613,49.65409],[-117.72613,49.65826],[-117.72613,49.66242]]]}},{"type":"Feature","properties":{"c":"1103573","o":"MAXPURE CRITICAL MINERALS LTD.","e":"2027-03-30Z"},"geometry":{"type":"Polygon","coordinates":[[[-117.72613,49.67909],[-117.71989,49.67909],[-117.71988,49.68326],[-117.71364,49.68326],[-117.71364,49.67909],[-117.71364,49.67492],[-117.71364,49.67076],[-117.71364,49.66659],[-117.70739,49.66659],[-117.70114,49.66659],[-117.70114,49.66242],[-117.70114,49.65826],[-117.70114,49.65409],[-117.70114,49.64992],[-117.70114,49.64576],[-117.70739,49.64576],[-117.71364,49.64576],[-117.71363,49.64159],[-117.71988,49.64159],[-117.72613,49.64159],[-117.72613,49.64576],[-117.71988,49.64576],[-117.71988,49.64992],[-117.71364,49.64992],[-117.70739,49.64992],[-117.70739,49.65409],[-117.70739,49.65826],[-117.70739,49.66242],[-117.71364,49.66242],[-117.71989,49.66242],[-117.72613,49.66242],[-117.72614,49.66659],[-117.72613,49.67076],[-117.72613,49.67492],[-117.72613,49.67909]]]}},{"type":"Feature","properties":{"c":"1104554","o":"MAXPURE CRITICAL MINERALS LTD.","e":"2027-03-29Z"},"geometry":{"type":"MultiPolygon","coordinates":[[[[-117.75113,49.64992],[-117.74488,49.64992],[-117.73863,49.64992],[-117.73238,49.64992],[-117.72613,49.64992],[-117.72613,49.64576],[-117.72613,49.64159],[-117.72613,49.63742],[-117.72613,49.63326],[-117.72613,49.62909],[-117.72613,49.62492],[-117.73238,49.62492],[-117.73863,49.62492],[-117.73863,49.62909],[-117.73863,49.63326],[-117.74488,49.63326],[-117.74488,49.62909],[-117.74488,49.62492],[-117.75113,49.62492],[-117.75113,49.62909],[-117.75113,49.63326],[-117.75113,49.63742],[-117.75113,49.64159],[-117.75113,49.64576],[-117.75113,49.64992]],[[-117.74488,49.64159],[-117.73863,49.64159],[-117.73863,49.64576],[-117.74488,49.64576],[-117.74488,49.64159]]]]}},{"type":"Feature","properties":{"c":"1108642","o":"MAXPURE CRITICAL MINERALS LTD.","e":"2027-10-31Z"},"geometry":{"type":"Polygon","coordinates":[[[-117.76363,49.61659],[-117.75738,49.61659],[-117.75113,49.61659],[-117.75113,49.61242],[-117.74488,49.61242],[-117.74488,49.60826],[-117.74488,49.60409],[-117.75113,49.60409],[-117.75738,49.60409],[-117.76363,49.60409],[-117.76363,49.60826],[-117.76363,49.61242],[-117.76363,49.61659]]]}},{"type":"Feature","properties":{"c":"1107747","o":"DIXON, KELSI DONNA DELENA","e":"2027-09-30Z"},"geometry":{"type":"Polygon","coordinates":[[[-117.74488,49.53742],[-117.74488,49.53326],[-117.75113,49.53326],[-117.75738,49.53326],[-117.75738,49.53742],[-117.75113,49.53742],[-117.74488,49.53742]]]}},{"type":"Feature","properties":{"c":"1103961","o":"HARSHENIN, DARREN GEORGE","e":"2028-07-02Z"},"geometry":{"type":"Polygon","coordinates":[[[-117.72613,49.54992],[-117.72613,49.55409],[-117.71988,49.55409],[-117.71988,49.54992],[-117.72613,49.54992]]]}},{"type":"Feature","properties":{"c":"318625","o":"WEAVER ENERGY CORP","e":"2029-09-01Z"},"geometry":{"type":"Polygon","coordinates":[[[-117.77648,49.7681],[-117.77648,49.78609],[-117.74175,49.78609],[-117.74176,49.7681],[-117.76184,49.7681],[-117.75994,49.77701],[-117.77369,49.77823],[-117.77464,49.77378],[-117.77559,49.76933],[-117.76185,49.7681],[-117.77648,49.7681]]]}},{"type":"Feature","properties":{"c":"318627","o":"WEAVER ENERGY CORP","e":"2029-09-01Z"},"geometry":{"type":"Polygon","coordinates":[[[-117.74176,49.7681],[-117.74178,49.75011],[-117.77648,49.75012],[-117.77648,49.7681],[-117.76185,49.7681],[-117.76184,49.7681],[-117.74176,49.7681]]]}},{"type":"Feature","properties":{"c":"390937","o":"WEAVER ENERGY CORP","e":"2027-06-25Z"},"geometry":{"type":"Polygon","coordinates":[[[-117.77464,49.77378],[-117.77369,49.77823],[-117.75994,49.77701],[-117.76184,49.7681],[-117.77559,49.76933],[-117.77464,49.77378]]]}},{"type":"Feature","properties":{"c":"392322","o":"WEAVER ENERGY CORP","e":"2027-06-25Z"},"geometry":{"type":"Polygon","coordinates":[[[-117.76607,49.60768],[-117.73865,49.60769],[-117.73865,49.59869],[-117.76606,49.59869],[-117.76607,49.60768]]]}},{"type":"Feature","properties":{"c":"1120140","o":"TURNAGAIN RESOURCES INC.","e":"2028-07-07Z"},"geometry":{"type":"Polygon","coordinates":[[[-117.63863,49.57076],[-117.63238,49.57076],[-117.63238,49.56659],[-117.63238,49.56242],[-117.63863,49.56242],[-117.64488,49.56242],[-117.64488,49.56659],[-117.63863,49.56659],[-117.63863,49.57076]]]}},{"type":"Feature","properties":{"c":"1120141","o":"TURNAGAIN RESOURCES INC.","e":"2028-07-07Z"},"geometry":{"type":"Polygon","coordinates":[[[-117.64488,49.56659],[-117.64488,49.57076],[-117.63863,49.57076],[-117.63863,49.56659],[-117.64488,49.56659]]]}},{"type":"Feature","properties":{"c":"1126441","o":"MAXPURE CRITICAL MINERALS LTD.","e":"2027-03-29Z"},"geometry":{"type":"Polygon","coordinates":[[[-117.75738,49.58326],[-117.75113,49.58326],[-117.75113,49.57909],[-117.75113,49.57492],[-117.75113,49.57076],[-117.75113,49.56659],[-117.75113,49.56242],[-117.75738,49.56242],[-117.75738,49.56659],[-117.75738,49.57076],[-117.75738,49.57492],[-117.75738,49.57909],[-117.75738,49.58326]]]}},{"type":"Feature","properties":{"c":"1126442","o":"MAXPURE CRITICAL MINERALS LTD.","e":"2027-03-29Z"},"geometry":{"type":"Polygon","coordinates":[[[-117.73238,49.57909],[-117.72613,49.57909],[-117.71988,49.57909],[-117.71363,49.57909],[-117.71363,49.57492],[-117.70738,49.57492],[-117.70738,49.57076],[-117.70738,49.56659],[-117.71363,49.56659],[-117.71988,49.56659],[-117.72613,49.56659],[-117.73238,49.56659],[-117.73238,49.57076],[-117.73238,49.57492],[-117.73238,49.57909]]]}},{"type":"Feature","properties":{"c":"1121132","o":"GUSTAFSON HOLDINGS LTD","e":"2030-09-15Z"},"geometry":{"type":"Polygon","coordinates":[[[-117.71363,49.99993],[-117.71363,50.00409],[-117.70738,50.00409],[-117.70738,49.99993],[-117.71363,49.99993]]]}},{"type":"Feature","properties":{"c":"1132487","o":"SCOTT, STEVEN JEFFREY","e":"2026-11-10Z"},"geometry":{"type":"Polygon","coordinates":[[[-117.78238,49.76659],[-117.78238,49.77076],[-117.77613,49.77076],[-117.77613,49.76659],[-117.78238,49.76659]]]}},{"type":"Feature","properties":{"c":"1136412","o":"ZIMMER, CHRISTOPHER JAMES","e":"2027-07-22Z"},"geometry":{"type":"Polygon","coordinates":[[[-117.67612,49.56659],[-117.66988,49.56659],[-117.66988,49.56242],[-117.66987,49.55826],[-117.67612,49.55826],[-117.67612,49.56242],[-117.67612,49.56659]]]}},{"type":"Feature","properties":{"c":"1133339","o":"LANGILLE, MICHEAL SCOTT","e":"2027-05-27Z"},"geometry":{"type":"Polygon","coordinates":[[[-117.91988,49.59575],[-117.91988,49.59159],[-117.92613,49.59159],[-117.93238,49.59159],[-117.93238,49.59575],[-117.92613,49.59575],[-117.91988,49.59575]]]}},{"type":"Feature","properties":{"c":"1139754","o":"BENIGAN, RANDY SCOTT","e":"2027-09-28Z"},"geometry":{"type":"Polygon","coordinates":[[[-117.58864,49.60409],[-117.58239,49.60409],[-117.57614,49.60409],[-117.57614,49.59992],[-117.57614,49.59576],[-117.58239,49.59576],[-117.58864,49.59576],[-117.58864,49.59992],[-117.58864,49.60409]]]}},{"type":"Feature","properties":{"c":"1139761","o":"VYE, JASON","e":"2027-09-28Z"},"geometry":{"type":"Polygon","coordinates":[[[-117.67613,49.9666],[-117.66988,49.9666],[-117.66363,49.9666],[-117.65738,49.9666],[-117.65738,49.96243],[-117.65738,49.95826],[-117.66363,49.95826],[-117.66988,49.95826],[-117.67613,49.95826],[-117.67613,49.96243],[-117.67613,49.9666]]]}},{"type":"Feature","properties":{"c":"1136540","o":"LEBLANC, DAVID GLENN","e":"2027-07-22Z"},"geometry":{"type":"Polygon","coordinates":[[[-117.65113,49.52076],[-117.65113,49.52492],[-117.64488,49.52492],[-117.64488,49.52076],[-117.65113,49.52076]]]}},{"type":"Feature","properties":{"c":"1136581","o":"VERIGIN, KELIN FLOYD","e":"2027-07-22Z"},"geometry":{"type":"Polygon","coordinates":[[[-117.63238,49.57076],[-117.63238,49.57492],[-117.62613,49.57492],[-117.62613,49.57076],[-117.63238,49.57076]]]}},{"type":"Feature","properties":{"c":"1136062","o":"SKARBO, BENJAMIN PRESTON","e":"2027-07-16Z"},"geometry":{"type":"Polygon","coordinates":[[[-117.73863,49.98326],[-117.73863,49.97909],[-117.74488,49.97909],[-117.75113,49.97909],[-117.75113,49.98326],[-117.74488,49.98326],[-117.73863,49.98326]]]}},{"type":"Feature","properties":{"c":"1132737","o":"VERIGIN, KELIN FLOYD","e":"2027-05-01Z"},"geometry":{"type":"Polygon","coordinates":[[[-117.65738,49.54992],[-117.65738,49.55409],[-117.65113,49.55409],[-117.65113,49.54992],[-117.65738,49.54992]]]}},{"type":"Feature","properties":{"c":"1137561","o":"HARSHENIN, DARREN GEORGE","e":"2027-08-24Z"},"geometry":{"type":"Polygon","coordinates":[[[-117.71988,49.54576],[-117.71363,49.54576],[-117.71363,49.54159],[-117.71363,49.53742],[-117.71988,49.53742],[-117.71988,49.54159],[-117.71988,49.54576]]]}},{"type":"Feature","properties":{"c":"1137577","o":"SMALLWOOD, KEVIN","e":"2027-08-24Z"},"geometry":{"type":"Polygon","coordinates":[[[-117.67612,49.52909],[-117.67612,49.52492],[-117.66987,49.52492],[-117.66987,49.52076],[-117.66987,49.51659],[-117.67612,49.51659],[-117.67612,49.52076],[-117.68237,49.52076],[-117.68237,49.52492],[-117.68862,49.52492],[-117.68862,49.52909],[-117.68237,49.52909],[-117.67612,49.52909]]]}},{"type":"Feature","properties":{"c":"1137601","o":"SCOTT, STEVEN JEFFREY","e":"2027-08-24Z"},"geometry":{"type":"Polygon","coordinates":[[[-117.78238,49.77076],[-117.78238,49.77493],[-117.77613,49.77493],[-117.77613,49.77076],[-117.78238,49.77076]]]}},{"type":"Feature","properties":{"c":"1113375","o":"THOMSON, JUSTIN DAVID","e":"2027-11-03Z"},"geometry":{"type":"Polygon","coordinates":[[[-117.70738,49.57492],[-117.70113,49.57492],[-117.70113,49.57076],[-117.70113,49.56659],[-117.70738,49.56659],[-117.70738,49.57076],[-117.70738,49.57492]]]}},{"type":"Feature","properties":{"c":"1113487","o":"ADAMOWICZ, ROBERT JOHN","e":"2029-05-14Z"},"geometry":{"type":"Polygon","coordinates":[[[-117.78238,49.96243],[-117.78238,49.96659],[-117.77613,49.96659],[-117.77613,49.96243],[-117.78238,49.96243]]]}},{"type":"Feature","properties":{"c":"1113532","o":"ADAMOWICZ, ROBERT JOHN","e":"2029-05-14Z"},"geometry":{"type":"Polygon","coordinates":[[[-117.78863,49.97076],[-117.78238,49.97076],[-117.78238,49.96659],[-117.78238,49.96243],[-117.78863,49.96243],[-117.78863,49.96659],[-117.78863,49.97076]]]}},{"type":"Feature","properties":{"c":"1113504","o":"ADAMOWICZ, ROBERT JOHN","e":"2029-05-14Z"},"geometry":{"type":"Polygon","coordinates":[[[-117.75738,49.9666],[-117.75738,49.97076],[-117.75113,49.97076],[-117.75113,49.96659],[-117.75738,49.9666]]]}},{"type":"Feature","properties":{"c":"1113498","o":"ADAMOWICZ, ROBERT JOHN","e":"2029-05-14Z"},"geometry":{"type":"Polygon","coordinates":[[[-117.76988,49.9666],[-117.76988,49.97076],[-117.76363,49.97076],[-117.76363,49.96659],[-117.76988,49.9666]]]}},{"type":"Feature","properties":{"c":"1113500","o":"ADAMOWICZ, ROBERT JOHN","e":"2029-05-14Z"},"geometry":{"type":"Polygon","coordinates":[[[-117.76363,49.96659],[-117.76363,49.97076],[-117.75738,49.97076],[-117.75738,49.9666],[-117.76363,49.96659]]]}},{"type":"Feature","properties":{"c":"1115419","o":"WEAVER ENERGY CORP","e":"2028-12-01Z"},"geometry":{"type":"Polygon","coordinates":[[[-117.74488,49.76659],[-117.73863,49.76659],[-117.73238,49.76659],[-117.72613,49.76659],[-117.71988,49.76659],[-117.71363,49.76659],[-117.70738,49.7666],[-117.70738,49.76243],[-117.70738,49.75826],[-117.70738,49.75409],[-117.70738,49.74993],[-117.70738,49.74576],[-117.70738,49.74159],[-117.71363,49.74159],[-117.71988,49.74159],[-117.72613,49.74159],[-117.73238,49.74159],[-117.73863,49.74159],[-117.74488,49.74159],[-117.74488,49.74576],[-117.74488,49.74993],[-117.74488,49.75409],[-117.74488,49.75826],[-117.74488,49.76243],[-117.74488,49.76659]]]}},{"type":"Feature","properties":{"c":"1138068","o":"LANGILLE, MICHEAL SCOTT","e":"2027-08-28Z"},"geometry":{"type":"Polygon","coordinates":[[[-117.65738,49.52909],[-117.65738,49.53326],[-117.65113,49.53326],[-117.65113,49.52909],[-117.65738,49.52909]]]}},{"type":"Feature","properties":{"c":"1138195","o":"VERIGIN, KELIN FLOYD","e":"2027-08-28Z"},"geometry":{"type":"Polygon","coordinates":[[[-117.69488,49.59159],[-117.69488,49.58742],[-117.70113,49.58742],[-117.70738,49.58742],[-117.70738,49.59159],[-117.70113,49.59159],[-117.69488,49.59159]]]}},{"type":"Feature","properties":{"c":"1138223","o":"MARISCO, GALEN THOMAS","e":"2027-08-28Z"},"geometry":{"type":"Polygon","coordinates":[[[-117.66989,49.69159],[-117.66364,49.69159],[-117.65739,49.69159],[-117.65739,49.69576],[-117.65114,49.69576],[-117.64489,49.69576],[-117.64489,49.69159],[-117.65114,49.69159],[-117.65114,49.68742],[-117.65739,49.68742],[-117.65739,49.68326],[-117.66364,49.68326],[-117.66989,49.68326],[-117.66989,49.68742],[-117.66989,49.69159]]]}},{"type":"Feature","properties":{"c":"1114814","o":"LUCHANSKY, RODNEY LEONARD","e":"2027-03-15Z"},"geometry":{"type":"Polygon","coordinates":[[[-117.71988,49.53742],[-117.71363,49.53742],[-117.71363,49.53326],[-117.70738,49.53326],[-117.70738,49.53742],[-117.70738,49.54159],[-117.70113,49.54159],[-117.70112,49.53742],[-117.70112,49.53326],[-117.70112,49.52909],[-117.70737,49.52909],[-117.71363,49.52909],[-117.71988,49.52909],[-117.71988,49.53326],[-117.71988,49.53742]]]}},{"type":"Feature","properties":{"c":"1125972","o":"HARSHENIN, DARREN GEORGE","e":"2030-09-18Z"},"geometry":{"type":"Polygon","coordinates":[[[-117.91988,49.59992],[-117.91363,49.59992],[-117.90738,49.59992],[-117.90738,49.59575],[-117.91363,49.59575],[-117.91363,49.59159],[-117.91988,49.59159],[-117.91988,49.59575],[-117.91988,49.59992]]]}},{"type":"Feature","properties":{"c":"1126024","o":"MAXPURE CRITICAL MINERALS LTD.","e":"2027-03-29Z"},"geometry":{"type":"Polygon","coordinates":[[[-117.75113,49.61242],[-117.75113,49.61659],[-117.74488,49.61659],[-117.74488,49.61242],[-117.75113,49.61242]]]}},{"type":"Feature","properties":{"c":"1126062","o":"MAXPURE CRITICAL MINERALS LTD.","e":"2027-03-29Z"},"geometry":{"type":"Polygon","coordinates":[[[-117.77613,49.61659],[-117.77613,49.62076],[-117.76988,49.62076],[-117.76988,49.61659],[-117.77613,49.61659]]]}},{"type":"Feature","properties":{"c":"1139511","o":"GUSTAFSON HOLDINGS LTD","e":"2027-09-24Z"},"geometry":{"type":"Polygon","coordinates":[[[-117.70113,50.01243],[-117.69488,50.01243],[-117.68863,50.01243],[-117.68238,50.01243],[-117.68238,50.00826],[-117.68238,50.00409],[-117.68238,49.99993],[-117.68238,49.99576],[-117.68863,49.99576],[-117.69488,49.99576],[-117.70113,49.99576],[-117.70113,49.99993],[-117.70113,50.00409],[-117.70113,50.00826],[-117.70113,50.01243]]]}},{"type":"Feature","properties":{"c":"1116651","o":"ADAMOWICZ, ROBERT JOHN","e":"2029-05-14Z"},"geometry":{"type":"Polygon","coordinates":[[[-117.76988,49.97076],[-117.76988,49.9666],[-117.76988,49.96243],[-117.77613,49.96243],[-117.77613,49.96659],[-117.78238,49.96659],[-117.78238,49.97076],[-117.77613,49.97076],[-117.76988,49.97076]]]}},{"type":"Feature","properties":{"c":"1119097","o":"SEIB, DAWN MARIE","e":"2027-01-19Z"},"geometry":{"type":"Polygon","coordinates":[[[-117.74488,49.55826],[-117.73863,49.55826],[-117.73863,49.55409],[-117.73863,49.54992],[-117.74488,49.54992],[-117.74488,49.55409],[-117.75113,49.55409],[-117.75738,49.55409],[-117.75738,49.55826],[-117.75113,49.55826],[-117.74488,49.55826]]]}},{"type":"Feature","properties":{"c":"1121406","o":"DOUCET, YVES ROMUALD","e":"2027-03-05Z"},"geometry":{"type":"Polygon","coordinates":[[[-117.71363,49.59159],[-117.71363,49.59576],[-117.70738,49.59576],[-117.70113,49.59576],[-117.69488,49.59576],[-117.69488,49.59159],[-117.70113,49.59159],[-117.70738,49.59159],[-117.70738,49.58742],[-117.71363,49.58742],[-117.71988,49.58742],[-117.72613,49.58742],[-117.72613,49.59159],[-117.71988,49.59159],[-117.71363,49.59159]]]}},{"type":"Feature","properties":{"c":"1116745","o":"MARISCO, GALEN THOMAS","e":"2026-10-16Z"},"geometry":{"type":"Polygon","coordinates":[[[-117.91988,49.61242],[-117.91988,49.60825],[-117.92613,49.60825],[-117.93238,49.60825],[-117.93238,49.61242],[-117.92613,49.61242],[-117.91988,49.61242]]]}},{"type":"Feature","properties":{"c":"1098394","o":"WEAVER ENERGY CORP","e":"2028-12-01Z"},"geometry":{"type":"Polygon","coordinates":[[[-117.76363,49.71659],[-117.75738,49.71659],[-117.75113,49.71659],[-117.75113,49.71243],[-117.75113,49.70826],[-117.75738,49.70826],[-117.76363,49.70826],[-117.76363,49.71243],[-117.76363,49.71659]]]}},{"type":"Feature","properties":{"c":"1098460","o":"WEAVER ENERGY CORP","e":"2028-12-01Z"},"geometry":{"type":"Polygon","coordinates":[[[-117.75738,49.70826],[-117.75113,49.70826],[-117.75113,49.71243],[-117.74488,49.71243],[-117.74488,49.70826],[-117.73863,49.70826],[-117.73863,49.70409],[-117.73863,49.69992],[-117.74488,49.69993],[-117.75113,49.69993],[-117.75738,49.69993],[-117.75738,49.70409],[-117.75738,49.70826]]]}},{"type":"Feature","properties":{"c":"1098491","o":"WEAVER ENERGY CORP","e":"2028-12-01Z"},"geometry":{"type":"Polygon","coordinates":[[[-117.76988,49.72493],[-117.76363,49.72493],[-117.75738,49.72493],[-117.75738,49.72076],[-117.75738,49.71659],[-117.76363,49.71659],[-117.76363,49.71243],[-117.76988,49.71243],[-117.76988,49.71659],[-117.76988,49.72076],[-117.76988,49.72493]]]}},{"type":"Feature","properties":{"c":"1098538","o":"WEAVER ENERGY CORP","e":"2028-12-01Z"},"geometry":{"type":"Polygon","coordinates":[[[-117.73863,49.70409],[-117.73238,49.70409],[-117.73238,49.69992],[-117.73238,49.69576],[-117.73238,49.69159],[-117.73863,49.69159],[-117.73863,49.69576],[-117.74488,49.69576],[-117.74488,49.69993],[-117.73863,49.69992],[-117.73863,49.70409]]]}},{"type":"Feature","properties":{"c":"1098549","o":"WEAVER ENERGY CORP","e":"2028-12-01Z"},"geometry":{"type":"Polygon","coordinates":[[[-117.76988,49.71243],[-117.76363,49.71243],[-117.76363,49.70826],[-117.75738,49.70826],[-117.75738,49.70409],[-117.76363,49.70409],[-117.76988,49.70409],[-117.76988,49.70826],[-117.76988,49.71243]]]}},{"type":"Feature","properties":{"c":"1098810","o":"WEAVER ENERGY CORP","e":"2028-12-01Z"},"geometry":{"type":"Polygon","coordinates":[[[-117.78863,49.74576],[-117.78238,49.74576],[-117.78238,49.74159],[-117.77613,49.74159],[-117.77613,49.73743],[-117.77613,49.73326],[-117.76988,49.73326],[-117.76988,49.72909],[-117.76363,49.72909],[-117.76363,49.72493],[-117.76988,49.72493],[-117.76988,49.72076],[-117.76988,49.71659],[-117.76988,49.71243],[-117.76988,49.70826],[-117.77613,49.70826],[-117.77613,49.71243],[-117.77613,49.71659],[-117.78238,49.71659],[-117.78238,49.72076],[-117.78238,49.72493],[-117.78238,49.72909],[-117.78863,49.72909],[-117.78863,49.73326],[-117.78863,49.73743],[-117.78863,49.74159],[-117.78863,49.74576]]]}},{"type":"Feature","properties":{"c":"1098815","o":"WEAVER ENERGY CORP","e":"2028-12-01Z"},"geometry":{"type":"Polygon","coordinates":[[[-117.73863,49.69159],[-117.73238,49.69159],[-117.73238,49.69576],[-117.72613,49.69576],[-117.72613,49.69159],[-117.71988,49.69159],[-117.71988,49.68742],[-117.71988,49.68326],[-117.71989,49.67909],[-117.72613,49.67909],[-117.72613,49.68326],[-117.73238,49.68326],[-117.73238,49.68742],[-117.73863,49.68742],[-117.73863,49.69159]]]}},{"type":"Feature","properties":{"c":"1109228","o":"WEAVER ENERGY CORP","e":"2028-12-01Z"},"geometry":{"type":"Polygon","coordinates":[[[-117.78863,49.74993],[-117.78238,49.74993],[-117.77613,49.74993],[-117.76988,49.74993],[-117.76363,49.74993],[-117.75738,49.74993],[-117.75113,49.74993],[-117.74488,49.74993],[-117.74488,49.74576],[-117.74488,49.74159],[-117.75113,49.74159],[-117.75738,49.74159],[-117.76363,49.74159],[-117.76988,49.74159],[-117.77613,49.74159],[-117.78238,49.74159],[-117.78238,49.74576],[-117.78863,49.74576],[-117.78863,49.74993]]]}},{"type":"Feature","properties":{"c":"1117391","o":"WEAVER ENERGY CORP","e":"2028-12-01Z"},"geometry":{"type":"Polygon","coordinates":[[[-117.77613,49.74159],[-117.76988,49.74159],[-117.76363,49.74159],[-117.75738,49.74159],[-117.75113,49.74159],[-117.74488,49.74159],[-117.73863,49.74159],[-117.73238,49.74159],[-117.72613,49.74159],[-117.71988,49.74159],[-117.71363,49.74159],[-117.70738,49.74159],[-117.70738,49.74576],[-117.70738,49.74993],[-117.70738,49.75409],[-117.70738,49.75826],[-117.70113,49.75826],[-117.70113,49.75409],[-117.69488,49.7541],[-117.69488,49.74993],[-117.68863,49.74993],[-117.68863,49.74576],[-117.68238,49.74576],[-117.68238,49.74159],[-117.67613,49.74159],[-117.67613,49.73743],[-117.66988,49.73743],[-117.66988,49.73326],[-117.66988,49.72909],[-117.67613,49.72909],[-117.68238,49.72909],[-117.68863,49.72909],[-117.68863,49.73326],[-117.69488,49.73326],[-117.69488,49.73743],[-117.70113,49.73743],[-117.70738,49.73743],[-117.71363,49.73743],[-117.71988,49.73743],[-117.71988,49.73326],[-117.71988,49.72909],[-117.71363,49.72909],[-117.71363,49.72493],[-117.71363,49.72076],[-117.70738,49.72076],[-117.70738,49.71659],[-117.70113,49.71659],[-117.70113,49.71243],[-117.70738,49.71243],[-117.70738,49.70826],[-117.71363,49.70826],[-117.71988,49.70826],[-117.71988,49.71243],[-117.71988,49.71659],[-117.72613,49.71659],[-117.72613,49.72076],[-117.73238,49.72076],[-117.73238,49.72493],[-117.73863,49.72493],[-117.73863,49.72909],[-117.73863,49.73326],[-117.74488,49.73326],[-117.74488,49.73743],[-117.75113,49.73743],[-117.75738,49.73743],[-117.76363,49.73743],[-117.76988,49.73743],[-117.76988,49.73326],[-117.77613,49.73326],[-117.77613,49.73743],[-117.77613,49.74159]]]}},{"type":"Feature","properties":{"c":"1117664","o":"WEAVER ENERGY CORP","e":"2028-12-01Z"},"geometry":{"type":"Polygon","coordinates":[[[-117.71988,49.73743],[-117.71363,49.73743],[-117.70738,49.73743],[-117.70113,49.73743],[-117.69488,49.73743],[-117.69488,49.73326],[-117.68863,49.73326],[-117.68863,49.72909],[-117.69488,49.72909],[-117.69488,49.72493],[-117.70113,49.72493],[-117.70113,49.72076],[-117.70113,49.71659],[-117.70738,49.71659],[-117.70738,49.72076],[-117.71363,49.72076],[-117.71363,49.72493],[-117.71363,49.72909],[-117.71988,49.72909],[-117.71988,49.73326],[-117.71988,49.73743]]]}},{"type":"Feature","properties":{"c":"1117747","o":"WEAVER ENERGY CORP","e":"2028-12-01Z"},"geometry":{"type":"Polygon","coordinates":[[[-117.76988,49.73743],[-117.76363,49.73743],[-117.75738,49.73743],[-117.75113,49.73743],[-117.74488,49.73743],[-117.74488,49.73326],[-117.73863,49.73326],[-117.73863,49.72909],[-117.73863,49.72493],[-117.73238,49.72493],[-117.73238,49.72076],[-117.72613,49.72076],[-117.72613,49.71659],[-117.71988,49.71659],[-117.71988,49.71243],[-117.71988,49.70826],[-117.71988,49.70409],[-117.72613,49.70409],[-117.72613,49.69992],[-117.73238,49.69992],[-117.73238,49.70409],[-117.73863,49.70409],[-117.73863,49.70826],[-117.74488,49.70826],[-117.74488,49.71243],[-117.75113,49.71243],[-117.75113,49.71659],[-117.75738,49.71659],[-117.75738,49.72076],[-117.75738,49.72493],[-117.76363,49.72493],[-117.76363,49.72909],[-117.76988,49.72909],[-117.76988,49.73326],[-117.76988,49.73743]]]}},{"type":"Feature","properties":{"c":"1117889","o":"WEAVER ENERGY CORP","e":"2028-12-01Z"},"geometry":{"type":"Polygon","coordinates":[[[-117.72613,49.70409],[-117.71988,49.70409],[-117.71988,49.70826],[-117.71363,49.70826],[-117.70738,49.70826],[-117.70738,49.71243],[-117.70113,49.71243],[-117.70113,49.71659],[-117.70113,49.72076],[-117.70113,49.72493],[-117.69488,49.72493],[-117.69488,49.72909],[-117.68863,49.72909],[-117.68238,49.72909],[-117.67613,49.72909],[-117.66988,49.72909],[-117.66988,49.73326],[-117.66988,49.73743],[-117.67613,49.73743],[-117.67613,49.74159],[-117.68238,49.74159],[-117.68238,49.74576],[-117.68863,49.74576],[-117.68863,49.74993],[-117.69488,49.74993],[-117.69488,49.7541],[-117.70113,49.75409],[-117.70113,49.75826],[-117.69488,49.75826],[-117.68863,49.75826],[-117.68238,49.75826],[-117.67613,49.75826],[-117.67613,49.7541],[-117.66988,49.7541],[-117.66988,49.74993],[-117.66988,49.74576],[-117.66363,49.74576],[-117.66363,49.74159],[-117.66363,49.73743],[-117.65738,49.73743],[-117.65738,49.73326],[-117.65738,49.72909],[-117.65113,49.72909],[-117.65113,49.72493],[-117.64488,49.72493],[-117.64488,49.72076],[-117.64488,49.71659],[-117.65113,49.71659],[-117.65738,49.71659],[-117.66363,49.71659],[-117.66988,49.71659],[-117.67613,49.71659],[-117.68238,49.71659],[-117.68863,49.71659],[-117.68863,49.71243],[-117.69488,49.71243],[-117.69488,49.70826],[-117.70113,49.70826],[-117.70113,49.70409],[-117.70738,49.70409],[-117.70738,49.69992],[-117.71363,49.69992],[-117.71363,49.69576],[-117.71363,49.69159],[-117.71988,49.69159],[-117.72613,49.69159],[-117.72613,49.69576],[-117.73238,49.69576],[-117.73238,49.69992],[-117.72613,49.69992],[-117.72613,49.70409]]]}},{"type":"Feature","properties":{"c":"1118074","o":"WEAVER ENERGY CORP","e":"2028-12-01Z"},"geometry":{"type":"Polygon","coordinates":[[[-117.70113,49.70826],[-117.69488,49.70826],[-117.69488,49.71243],[-117.68863,49.71243],[-117.68863,49.71659],[-117.68238,49.71659],[-117.67613,49.71659],[-117.67614,49.71243],[-117.66989,49.71243],[-117.66989,49.70826],[-117.66364,49.70826],[-117.65739,49.70826],[-117.65739,49.70409],[-117.65739,49.69992],[-117.65739,49.69576],[-117.65739,49.69159],[-117.66364,49.69159],[-117.66364,49.69576],[-117.66364,49.69992],[-117.66989,49.69992],[-117.67614,49.69992],[-117.68239,49.69992],[-117.68239,49.69576],[-117.68864,49.69576],[-117.69489,49.69576],[-117.69489,49.69992],[-117.70114,49.69992],[-117.70738,49.69992],[-117.70738,49.70409],[-117.70113,49.70409],[-117.70113,49.70826]]]}},{"type":"Feature","properties":{"c":"1118081","o":"WEAVER ENERGY CORP","e":"2028-12-01Z"},"geometry":{"type":"Polygon","coordinates":[[[-117.66989,49.64159],[-117.66364,49.64159],[-117.66364,49.64576],[-117.65739,49.64576],[-117.65739,49.64992],[-117.65114,49.64992],[-117.65114,49.65409],[-117.65114,49.65826],[-117.65114,49.66242],[-117.65115,49.66659],[-117.64489,49.66659],[-117.64489,49.67076],[-117.63864,49.67076],[-117.63239,49.67076],[-117.62614,49.67076],[-117.61989,49.67076],[-117.61364,49.67076],[-117.61364,49.66659],[-117.61364,49.66242],[-117.61364,49.65826],[-117.61364,49.65409],[-117.61364,49.64992],[-117.61989,49.64992],[-117.62614,49.64992],[-117.63239,49.64992],[-117.63864,49.64992],[-117.64489,49.64992],[-117.64489,49.64576],[-117.65114,49.64576],[-117.65114,49.64159],[-117.65739,49.64159],[-117.65739,49.63742],[-117.66364,49.63742],[-117.66364,49.63326],[-117.66989,49.63326],[-117.67614,49.63326],[-117.67614,49.63742],[-117.66989,49.63742],[-117.66989,49.64159]]]}},{"type":"Feature","properties":{"c":"1118086","o":"WEAVER ENERGY CORP","e":"2028-12-01Z"},"geometry":{"type":"Polygon","coordinates":[[[-117.64489,49.69993],[-117.63864,49.69993],[-117.63238,49.69993],[-117.63239,49.69576],[-117.63239,49.69159],[-117.63239,49.68742],[-117.63239,49.68326],[-117.63239,49.67909],[-117.63239,49.67492],[-117.63239,49.67076],[-117.63864,49.67076],[-117.63864,49.67492],[-117.63864,49.67909],[-117.63864,49.68326],[-117.63864,49.68742],[-117.63864,49.69159],[-117.63864,49.69576],[-117.64489,49.69576],[-117.65114,49.69576],[-117.65739,49.69576],[-117.65739,49.69992],[-117.65114,49.69992],[-117.64489,49.69993]]]}},{"type":"Feature","properties":{"c":"1125779","o":"THOMSON, JUSTIN DAVID","e":"2032-09-30Z"},"geometry":{"type":"Polygon","coordinates":[[[-117.65113,49.56242],[-117.65113,49.56659],[-117.64488,49.56659],[-117.64488,49.56242],[-117.65113,49.56242]]]}},{"type":"Feature","properties":{"c":"1133525","o":"SEVEN5SEVEN HOLDINGS LTD","e":"2027-05-29Z"},"geometry":{"type":"Polygon","coordinates":[[[-117.66363,49.55826],[-117.66363,49.56242],[-117.65738,49.56242],[-117.65738,49.55826],[-117.66363,49.55826]]]}},{"type":"Feature","properties":{"c":"1123006","o":"MAXPURE CRITICAL MINERALS LTD.","e":"2027-03-29Z"},"geometry":{"type":"Polygon","coordinates":[[[-117.76988,49.60409],[-117.76363,49.60409],[-117.76363,49.59992],[-117.75738,49.59992],[-117.75738,49.59576],[-117.75738,49.59159],[-117.75738,49.58742],[-117.75738,49.58326],[-117.75738,49.57909],[-117.75738,49.57492],[-117.75738,49.57076],[-117.75738,49.56659],[-117.75738,49.56242],[-117.75113,49.56242],[-117.74488,49.56242],[-117.73863,49.56242],[-117.73238,49.56242],[-117.73238,49.55826],[-117.73238,49.55409],[-117.73238,49.54992],[-117.73238,49.54576],[-117.72613,49.54576],[-117.71988,49.54576],[-117.71988,49.54159],[-117.71988,49.53742],[-117.71988,49.53326],[-117.71988,49.52909],[-117.71363,49.52909],[-117.71363,49.52492],[-117.71362,49.52076],[-117.70737,49.52076],[-117.70737,49.51659],[-117.70112,49.51659],[-117.70112,49.51242],[-117.70112,49.50826],[-117.70112,49.50409],[-117.70112,49.49992],[-117.69487,49.49992],[-117.69487,49.49576],[-117.69487,49.49159],[-117.68862,49.49159],[-117.68862,49.49576],[-117.68237,49.49576],[-117.67612,49.49576],[-117.66987,49.49576],[-117.66362,49.49575],[-117.66362,49.49159],[-117.65738,49.49159],[-117.65737,49.48742],[-117.65737,49.48325],[-117.66362,49.48325],[-117.66362,49.48742],[-117.66987,49.48742],[-117.67612,49.48742],[-117.68237,49.48742],[-117.68862,49.48742],[-117.69487,49.48742],[-117.69487,49.48325],[-117.69487,49.47909],[-117.69487,49.47492],[-117.70112,49.47492],[-117.70737,49.47492],[-117.70737,49.47909],[-117.70737,49.48325],[-117.70737,49.48742],[-117.70737,49.49159],[-117.70737,49.49576],[-117.71362,49.49575],[-117.71987,49.49576],[-117.71987,49.49992],[-117.71987,49.50409],[-117.71987,49.50826],[-117.71987,49.51242],[-117.71988,49.51659],[-117.72613,49.51659],[-117.72613,49.52076],[-117.73238,49.52076],[-117.73238,49.52492],[-117.73238,49.52909],[-117.73238,49.53326],[-117.73238,49.53742],[-117.73238,49.54159],[-117.73863,49.54159],[-117.73863,49.54576],[-117.73863,49.54992],[-117.73863,49.55409],[-117.73863,49.55826],[-117.74488,49.55826],[-117.75113,49.55826],[-117.75738,49.55826],[-117.76363,49.55826],[-117.76988,49.55826],[-117.76988,49.56242],[-117.76988,49.56659],[-117.76988,49.57076],[-117.76988,49.57492],[-117.76988,49.57909],[-117.76988,49.58326],[-117.76988,49.58742],[-117.76988,49.59159],[-117.76988,49.59576],[-117.76988,49.59992],[-117.76988,49.60409]]]}},{"type":"Feature","properties":{"c":"1121410","o":"DOUCET, YVES ROMUALD","e":"2028-03-05Z"},"geometry":{"type":"Polygon","coordinates":[[[-117.72613,49.58742],[-117.71988,49.58742],[-117.71363,49.58742],[-117.71363,49.58326],[-117.71363,49.57909],[-117.71988,49.57909],[-117.72613,49.57909],[-117.72613,49.58326],[-117.72613,49.58742]]]}},{"type":"Feature","properties":{"c":"1139599","o":"LEBLANC, DAVID GLENN","e":"2027-09-27Z"},"geometry":{"type":"Polygon","coordinates":[[[-117.61364,49.52075],[-117.61364,49.52492],[-117.60739,49.52492],[-117.60739,49.52075],[-117.61364,49.52075]]]}},{"type":"Feature","properties":{"c":"1139464","o":"GUSTAFSON HOLDINGS LTD","e":"2027-09-15Z"},"geometry":{"type":"Polygon","coordinates":[[[-117.78238,49.99159],[-117.77613,49.99159],[-117.76988,49.99159],[-117.76363,49.99159],[-117.75738,49.99159],[-117.75738,49.99576],[-117.75113,49.99576],[-117.74488,49.99576],[-117.73863,49.99576],[-117.73863,49.99993],[-117.73863,50.00409],[-117.73238,50.00409],[-117.72613,50.00409],[-117.72613,49.99993],[-117.72613,49.99576],[-117.72613,49.99159],[-117.72613,49.98743],[-117.72613,49.98326],[-117.72613,49.97909],[-117.73238,49.97909],[-117.73238,49.97493],[-117.73863,49.97493],[-117.73863,49.97909],[-117.73863,49.98326],[-117.74488,49.98326],[-117.75113,49.98326],[-117.75738,49.98326],[-117.76363,49.98326],[-117.76988,49.98326],[-117.77613,49.98326],[-117.78238,49.98326],[-117.78238,49.98743],[-117.78238,49.99159]]]}},{"type":"Feature","properties":{"c":"1139465","o":"GUSTAFSON HOLDINGS LTD","e":"2027-09-15Z"},"geometry":{"type":"Polygon","coordinates":[[[-117.72613,50.00409],[-117.71988,50.00409],[-117.71363,50.00409],[-117.71363,49.99993],[-117.70738,49.99993],[-117.70113,49.99993],[-117.70113,49.99576],[-117.69488,49.99576],[-117.68863,49.99576],[-117.68238,49.99576],[-117.68238,49.99159],[-117.68238,49.98743],[-117.67613,49.98743],[-117.67613,49.98326],[-117.68238,49.98326],[-117.68238,49.9791],[-117.68863,49.97909],[-117.69488,49.97909],[-117.69488,49.97493],[-117.70113,49.97493],[-117.70738,49.97493],[-117.71363,49.97493],[-117.71988,49.97493],[-117.71988,49.97909],[-117.72613,49.97909],[-117.72613,49.98326],[-117.72613,49.98743],[-117.72613,49.99159],[-117.72613,49.99576],[-117.72613,49.99993],[-117.72613,50.00409]]]}},{"type":"Feature","properties":{"c":"1139466","o":"GUSTAFSON HOLDINGS LTD","e":"2027-09-15Z"},"geometry":{"type":"Polygon","coordinates":[[[-117.73238,49.97909],[-117.72613,49.97909],[-117.71988,49.97909],[-117.71988,49.97493],[-117.71363,49.97493],[-117.70738,49.97493],[-117.70113,49.97493],[-117.69488,49.97493],[-117.69488,49.97909],[-117.68863,49.97909],[-117.68238,49.9791],[-117.68238,49.97493],[-117.68238,49.97076],[-117.68238,49.9666],[-117.68863,49.9666],[-117.68863,49.96243],[-117.69488,49.96243],[-117.70113,49.96243],[-117.70738,49.96243],[-117.71363,49.96243],[-117.71988,49.96243],[-117.72613,49.96243],[-117.73238,49.96243],[-117.73238,49.9666],[-117.73238,49.97076],[-117.73238,49.97493],[-117.73238,49.97909]]]}},{"type":"Feature","properties":{"c":"1139459","o":"GUSTAFSON HOLDINGS LTD","e":"2027-08-28Z"},"geometry":{"type":"Polygon","coordinates":[[[-117.70738,50.01243],[-117.70113,50.01243],[-117.70113,50.00826],[-117.70113,50.00409],[-117.70113,49.99993],[-117.70738,49.99993],[-117.70738,50.00409],[-117.70738,50.00826],[-117.70738,50.01243]]]}},{"type":"Feature","properties":{"c":"1113759","o":"ESSERY, MATHEW LAWRENCE","e":"2027-06-21Z"},"geometry":{"type":"Polygon","coordinates":[[[-117.66362,49.53326],[-117.66362,49.53742],[-117.65738,49.53742],[-117.65738,49.53326],[-117.66362,49.53326]]]}},{"type":"Feature","properties":{"c":"1115277","o":"MAXPURE CRITICAL MINERALS LTD.","e":"2027-03-29Z"},"geometry":{"type":"Polygon","coordinates":[[[-117.74488,49.63326],[-117.73863,49.63326],[-117.73863,49.62909],[-117.73863,49.62492],[-117.74488,49.62492],[-117.74488,49.62909],[-117.74488,49.63326]]]}},{"type":"Feature","properties":{"c":"1115278","o":"MAXPURE CRITICAL MINERALS LTD.","e":"2027-03-29Z"},"geometry":{"type":"Polygon","coordinates":[[[-117.77613,49.61659],[-117.76988,49.61659],[-117.76988,49.62076],[-117.76363,49.62076],[-117.76363,49.62492],[-117.75738,49.62492],[-117.75738,49.62909],[-117.75738,49.63326],[-117.75113,49.63326],[-117.75113,49.62909],[-117.75113,49.62492],[-117.74488,49.62492],[-117.74488,49.62076],[-117.74488,49.61659],[-117.75113,49.61659],[-117.75738,49.61659],[-117.76363,49.61659],[-117.76363,49.61242],[-117.76363,49.60826],[-117.76363,49.60409],[-117.76988,49.60409],[-117.76988,49.60826],[-117.76988,49.61242],[-117.77613,49.61242],[-117.77613,49.61659]]]}},{"type":"Feature","properties":{"c":"1131034","o":"VERIGIN, KELIN FLOYD","e":"2027-03-11Z"},"geometry":{"type":"Polygon","coordinates":[[[-117.65738,49.55409],[-117.65738,49.55826],[-117.65113,49.55826],[-117.65113,49.55409],[-117.65738,49.55409]]]}},{"type":"Feature","properties":{"c":"1103018","o":"WEAVER ENERGY CORP","e":"2028-12-01Z"},"geometry":{"type":"MultiPolygon","coordinates":[[[[-117.77613,49.77909],[-117.77613,49.77493],[-117.78238,49.77493],[-117.78238,49.77076],[-117.78238,49.76659],[-117.77613,49.76659],[-117.77613,49.76243],[-117.77613,49.75826],[-117.77613,49.75409],[-117.77613,49.74993],[-117.78238,49.74993],[-117.78863,49.74993],[-117.79488,49.74993],[-117.80113,49.74993],[-117.80738,49.74993],[-117.80738,49.75409],[-117.80738,49.75826],[-117.80738,49.76243],[-117.80738,49.76659],[-117.80738,49.77076],[-117.80738,49.77493],[-117.80738,49.77909],[-117.80738,49.78326],[-117.80738,49.78743],[-117.80113,49.78743],[-117.79488,49.78743],[-117.78863,49.78743],[-117.78863,49.79159],[-117.78863,49.79576],[-117.78863,49.79993],[-117.78863,49.80409],[-117.78863,49.80826],[-117.78238,49.80826],[-117.77613,49.80826],[-117.76988,49.80826],[-117.76363,49.80826],[-117.75738,49.80826],[-117.75738,49.8041],[-117.75738,49.79993],[-117.75738,49.79576],[-117.75738,49.79159],[-117.75738,49.78743],[-117.75113,49.78743],[-117.74488,49.78743],[-117.74488,49.78326],[-117.75113,49.78326],[-117.75738,49.78326],[-117.76363,49.78326],[-117.76988,49.78326],[-117.77613,49.78326],[-117.77613,49.77909]],[[-117.77613,49.78743],[-117.78238,49.78743],[-117.78238,49.78326],[-117.77613,49.78326],[-117.77613,49.78743]]]]}},{"type":"Feature","properties":{"c":"1103019","o":"WEAVER ENERGY CORP","e":"2028-12-01Z"},"geometry":{"type":"Polygon","coordinates":[[[-117.74488,49.78743],[-117.73863,49.78743],[-117.73238,49.78743],[-117.72613,49.78743],[-117.71988,49.78743],[-117.71363,49.78743],[-117.70738,49.78743],[-117.70738,49.78326],[-117.70738,49.7791],[-117.70738,49.77493],[-117.70738,49.77076],[-117.70738,49.7666],[-117.71363,49.76659],[-117.71988,49.76659],[-117.72613,49.76659],[-117.73238,49.76659],[-117.73863,49.76659],[-117.74488,49.76659],[-117.74488,49.77076],[-117.74488,49.77493],[-117.74488,49.77909],[-117.74488,49.78326],[-117.74488,49.78743]]]}},{"type":"Feature","properties":{"c":"1131388","o":"SCHALM, TRAJEN HARRISON","e":"2027-03-20Z"},"geometry":{"type":"Polygon","coordinates":[[[-117.70112,49.52909],[-117.70112,49.52492],[-117.70737,49.52492],[-117.71363,49.52492],[-117.71363,49.52909],[-117.70737,49.52909],[-117.70112,49.52909]]]}},{"type":"Feature","properties":{"c":"1116599","o":"AIRY AGGREGATES INC.","e":"2027-03-29Z"},"geometry":{"type":"Polygon","coordinates":[[[-117.73863,49.57492],[-117.73238,49.57492],[-117.73238,49.57076],[-117.73238,49.56659],[-117.72613,49.56659],[-117.72613,49.56242],[-117.73238,49.56242],[-117.73863,49.56242],[-117.73863,49.56659],[-117.73863,49.57076],[-117.73863,49.57492]]]}},{"type":"Feature","properties":{"c":"1116598","o":"MAXPURE CRITICAL MINERALS LTD.","e":"2027-03-29Z"},"geometry":{"type":"Polygon","coordinates":[[[-117.75738,49.59576],[-117.75113,49.59576],[-117.75113,49.59159],[-117.75113,49.58742],[-117.74488,49.58742],[-117.73863,49.58742],[-117.73238,49.58742],[-117.73238,49.58326],[-117.73863,49.58326],[-117.73863,49.57909],[-117.73863,49.57492],[-117.73863,49.57076],[-117.73863,49.56659],[-117.74488,49.56659],[-117.74488,49.57076],[-117.74488,49.57492],[-117.75113,49.57492],[-117.75113,49.57909],[-117.75113,49.58326],[-117.75738,49.58326],[-117.75738,49.58742],[-117.75738,49.59159],[-117.75738,49.59576]]]}},{"type":"Feature","properties":{"c":"1113075","o":"AIRY AGGREGATES INC.","e":"2027-03-29Z"},"geometry":{"type":"Polygon","coordinates":[[[-117.71988,49.56242],[-117.71988,49.55826],[-117.72613,49.55826],[-117.73238,49.55826],[-117.73238,49.56242],[-117.72613,49.56242],[-117.71988,49.56242]]]}},{"type":"Feature","properties":{"c":"1112999","o":"MAXPURE CRITICAL MINERALS LTD.","e":"2027-03-29Z"},"geometry":{"type":"Polygon","coordinates":[[[-117.75113,49.57492],[-117.74488,49.57492],[-117.74488,49.57076],[-117.74488,49.56659],[-117.73863,49.56659],[-117.73863,49.56242],[-117.74488,49.56242],[-117.75113,49.56242],[-117.75113,49.56659],[-117.75113,49.57076],[-117.75113,49.57492]]]}},{"type":"Feature","properties":{"c":"1049228","o":"WEAVER ENERGY CORP","e":"2028-12-01Z"},"geometry":{"type":"Polygon","coordinates":[[[-117.71363,49.60826],[-117.70738,49.60826],[-117.70113,49.60826],[-117.69488,49.60826],[-117.68863,49.60826],[-117.68238,49.60826],[-117.68238,49.60409],[-117.68238,49.59992],[-117.68238,49.59576],[-117.68863,49.59576],[-117.69488,49.59576],[-117.70113,49.59576],[-117.70738,49.59576],[-117.71363,49.59576],[-117.71363,49.59992],[-117.71363,49.60409],[-117.71363,49.60826]]]}},{"type":"Feature","properties":{"c":"1049327","o":"WEAVER ENERGY CORP","e":"2028-12-01Z"},"geometry":{"type":"Polygon","coordinates":[[[-117.72613,49.61242],[-117.71988,49.61242],[-117.71363,49.61242],[-117.70738,49.61242],[-117.70113,49.61242],[-117.69488,49.61242],[-117.68863,49.61242],[-117.68863,49.60826],[-117.69488,49.60826],[-117.70113,49.60826],[-117.70738,49.60826],[-117.71363,49.60826],[-117.71988,49.60826],[-117.72613,49.60826],[-117.73238,49.60826],[-117.73863,49.60826],[-117.73863,49.61242],[-117.73238,49.61242],[-117.72613,49.61242]]]}},{"type":"Feature","properties":{"c":"1049328","o":"WEAVER ENERGY CORP","e":"2028-12-01Z"},"geometry":{"type":"Polygon","coordinates":[[[-117.68238,49.59576],[-117.68238,49.59992],[-117.68238,49.60409],[-117.67613,49.60409],[-117.67613,49.59992],[-117.67613,49.59576],[-117.67613,49.59159],[-117.68238,49.59159],[-117.68863,49.59159],[-117.69488,49.59159],[-117.69488,49.59576],[-117.68863,49.59576],[-117.68238,49.59576]]]}},{"type":"Feature","properties":{"c":"1049357","o":"WEAVER ENERGY CORP","e":"2028-12-01Z"},"geometry":{"type":"Polygon","coordinates":[[[-117.73863,49.60409],[-117.73863,49.60826],[-117.73238,49.60826],[-117.73238,49.60409],[-117.73863,49.60409]]]}},{"type":"Feature","properties":{"c":"1054442","o":"WEAVER ENERGY CORP","e":"2028-12-01Z"},"geometry":{"type":"Polygon","coordinates":[[[-117.72613,49.59992],[-117.71988,49.59992],[-117.71988,49.59576],[-117.71988,49.59159],[-117.72613,49.59159],[-117.72613,49.59576],[-117.72613,49.59992]]]}},{"type":"Feature","properties":{"c":"1054462","o":"WEAVER ENERGY CORP","e":"2028-12-01Z"},"geometry":{"type":"Polygon","coordinates":[[[-117.71988,49.60826],[-117.71988,49.60409],[-117.71988,49.59992],[-117.72613,49.59992],[-117.72613,49.60409],[-117.73238,49.60409],[-117.73238,49.60826],[-117.72613,49.60826],[-117.71988,49.60826]]]}},{"type":"Feature","properties":{"c":"1072107","o":"WEAVER ENERGY CORP","e":"2028-12-01Z"},"geometry":{"type":"Polygon","coordinates":[[[-117.68238,49.61659],[-117.67613,49.61659],[-117.67613,49.61242],[-117.67613,49.60826],[-117.67613,49.60409],[-117.68238,49.60409],[-117.68238,49.60826],[-117.68863,49.60826],[-117.68863,49.61242],[-117.69488,49.61242],[-117.69488,49.61659],[-117.68863,49.61659],[-117.68238,49.61659]]]}},{"type":"Feature","properties":{"c":"1072108","o":"WEAVER ENERGY CORP","e":"2028-12-01Z"},"geometry":{"type":"Polygon","coordinates":[[[-117.71988,49.60409],[-117.71988,49.60826],[-117.71363,49.60826],[-117.71363,49.60409],[-117.71988,49.60409]]]}},{"type":"Feature","properties":{"c":"1081141","o":"WEAVER ENERGY CORP","e":"2028-12-01Z"},"geometry":{"type":"Polygon","coordinates":[[[-117.74488,49.62492],[-117.73863,49.62492],[-117.73238,49.62492],[-117.72613,49.62492],[-117.71988,49.62492],[-117.71363,49.62492],[-117.70738,49.62492],[-117.70738,49.62076],[-117.70113,49.62076],[-117.69488,49.62076],[-117.68863,49.62076],[-117.68238,49.62076],[-117.67613,49.62076],[-117.66989,49.62076],[-117.66364,49.62076],[-117.66363,49.61659],[-117.66363,49.61242],[-117.66363,49.60826],[-117.66363,49.60409],[-117.66363,49.59992],[-117.66363,49.59576],[-117.66363,49.59159],[-117.66363,49.58742],[-117.66363,49.58326],[-117.66988,49.58326],[-117.67613,49.58326],[-117.68238,49.58326],[-117.68863,49.58326],[-117.69488,49.58326],[-117.69488,49.58742],[-117.69488,49.59159],[-117.68863,49.59159],[-117.68238,49.59159],[-117.67613,49.59159],[-117.67613,49.59576],[-117.67613,49.59992],[-117.67613,49.60409],[-117.67613,49.60826],[-117.67613,49.61242],[-117.67613,49.61659],[-117.68238,49.61659],[-117.68863,49.61659],[-117.69488,49.61659],[-117.69488,49.61242],[-117.70113,49.61242],[-117.70738,49.61242],[-117.71363,49.61242],[-117.71988,49.61242],[-117.72613,49.61242],[-117.73238,49.61242],[-117.73863,49.61242],[-117.73863,49.60826],[-117.74488,49.60826],[-117.74488,49.61242],[-117.74488,49.61659],[-117.74488,49.62076],[-117.74488,49.62492]]]}},{"type":"Feature","properties":{"c":"1081142","o":"WEAVER ENERGY CORP","e":"2028-12-01Z"},"geometry":{"type":"Polygon","coordinates":[[[-117.75113,49.59992],[-117.74488,49.59992],[-117.73863,49.59992],[-117.73863,49.60409],[-117.73238,49.60409],[-117.72613,49.60409],[-117.72613,49.59992],[-117.72613,49.59576],[-117.72613,49.59159],[-117.72613,49.58742],[-117.73238,49.58742],[-117.73863,49.58742],[-117.74488,49.58742],[-117.75113,49.58742],[-117.75113,49.59159],[-117.75113,49.59576],[-117.75113,49.59992]]]}},{"type":"Feature","properties":{"c":"1084828","o":"WEAVER ENERGY CORP","e":"2028-12-01Z"},"geometry":{"type":"Polygon","coordinates":[[[-117.71363,49.58742],[-117.70738,49.58742],[-117.70113,49.58742],[-117.69488,49.58742],[-117.69488,49.58326],[-117.69488,49.57909],[-117.69488,49.57492],[-117.70113,49.57492],[-117.70738,49.57492],[-117.71363,49.57492],[-117.71363,49.57909],[-117.71363,49.58326],[-117.71363,49.58742]]]}},{"type":"Feature","properties":{"c":"1088689","o":"WEAVER ENERGY CORP","e":"2028-12-01Z"},"geometry":{"type":"Polygon","coordinates":[[[-117.71988,49.60409],[-117.71363,49.60409],[-117.71363,49.59992],[-117.71363,49.59576],[-117.71988,49.59576],[-117.71988,49.59992],[-117.71988,49.60409]]]}},{"type":"Feature","properties":{"c":"1096562","o":"WEAVER ENERGY CORP","e":"2028-12-01Z"},"geometry":{"type":"Polygon","coordinates":[[[-117.70738,49.63326],[-117.70114,49.63326],[-117.69489,49.63326],[-117.68864,49.63326],[-117.68239,49.63326],[-117.67614,49.63326],[-117.66989,49.63326],[-117.66364,49.63326],[-117.66364,49.62909],[-117.66364,49.62492],[-117.66364,49.62076],[-117.66989,49.62076],[-117.67613,49.62076],[-117.68238,49.62076],[-117.68863,49.62076],[-117.69488,49.62076],[-117.70113,49.62076],[-117.70738,49.62076],[-117.70738,49.62492],[-117.70738,49.62909],[-117.70738,49.63326]]]}},{"type":"Feature","properties":{"c":"1110217","o":"WEAVER ENERGY CORP","e":"2028-12-01Z"},"geometry":{"type":"Polygon","coordinates":[[[-117.71988,49.59159],[-117.71988,49.59576],[-117.71363,49.59576],[-117.71363,49.59159],[-117.71988,49.59159]]]}},{"type":"Feature","properties":{"c":"1117909","o":"MAXPURE CRITICAL MINERALS LTD.","e":"2027-03-29Z"},"geometry":{"type":"Polygon","coordinates":[[[-117.75738,49.69993],[-117.75113,49.69993],[-117.74488,49.69993],[-117.74488,49.69576],[-117.73863,49.69576],[-117.73863,49.69159],[-117.73863,49.68742],[-117.73863,49.68326],[-117.73863,49.67909],[-117.73863,49.67492],[-117.73863,49.67076],[-117.73863,49.66659],[-117.73863,49.66242],[-117.73863,49.65826],[-117.73863,49.65409],[-117.74488,49.65409],[-117.74488,49.64992],[-117.75113,49.64992],[-117.75738,49.64992],[-117.75738,49.65409],[-117.75738,49.65826],[-117.75738,49.66242],[-117.75738,49.66659],[-117.75738,49.67076],[-117.75738,49.67492],[-117.75738,49.67909],[-117.75738,49.68326],[-117.75738,49.68742],[-117.75738,49.69159],[-117.75738,49.69576],[-117.75738,49.69993]]]}},{"type":"Feature","properties":{"c":"1117913","o":"MAXPURE CRITICAL MINERALS LTD.","e":"2027-03-29Z"},"geometry":{"type":"Polygon","coordinates":[[[-117.72613,49.64159],[-117.71988,49.64159],[-117.71363,49.64159],[-117.71363,49.63742],[-117.71363,49.63326],[-117.71988,49.63326],[-117.72613,49.63326],[-117.72613,49.63742],[-117.72613,49.64159]]]}},{"type":"Feature","properties":{"c":"1113768","o":"SCHALM, TRAJEN HARRISON","e":"2029-12-21Z"},"geometry":{"type":"Polygon","coordinates":[[[-117.66362,49.52909],[-117.66362,49.53326],[-117.65738,49.53326],[-117.65738,49.52909],[-117.66362,49.52909]]]}},{"type":"Feature","properties":{"c":"1111591","o":"SCHALM, TRAJEN HARRISON","e":"2028-01-25Z"},"geometry":{"type":"Polygon","coordinates":[[[-117.87613,49.55409],[-117.87613,49.55825],[-117.86988,49.55825],[-117.86988,49.55409],[-117.87613,49.55409]]]}},{"type":"Feature","properties":{"c":"1115644","o":"MAXPURE CRITICAL MINERALS LTD.","e":"2027-03-29Z"},"geometry":{"type":"Polygon","coordinates":[[[-117.73863,49.68742],[-117.73238,49.68742],[-117.73238,49.68326],[-117.72613,49.68326],[-117.72613,49.67909],[-117.72613,49.67492],[-117.72613,49.67076],[-117.72614,49.66659],[-117.72613,49.66242],[-117.72613,49.65826],[-117.72613,49.65409],[-117.72613,49.64992],[-117.73238,49.64992],[-117.73863,49.64992],[-117.74488,49.64992],[-117.74488,49.65409],[-117.73863,49.65409],[-117.73863,49.65826],[-117.73863,49.66242],[-117.73863,49.66659],[-117.73863,49.67076],[-117.73863,49.67492],[-117.73863,49.67909],[-117.73863,49.68326],[-117.73863,49.68742]]]}},{"type":"Feature","properties":{"c":"1116054","o":"ADAMOWICZ, ROBERT JOHN","e":"2029-05-14Z"},"geometry":{"type":"Polygon","coordinates":[[[-117.75738,49.9666],[-117.75113,49.96659],[-117.74488,49.9666],[-117.73863,49.96659],[-117.73863,49.96243],[-117.74488,49.96243],[-117.75113,49.96243],[-117.75738,49.96243],[-117.76363,49.96243],[-117.76988,49.96243],[-117.76988,49.9666],[-117.76363,49.96659],[-117.75738,49.9666]]]}}]}