{"type":"FeatureCollection","features":[{"type":"Feature","properties":{"c":"9924030128","o":"NEOLITHICA LTD.","e":""},"geometry":{"type":"MultiPolygon","coordinates":[[[[-117.70041,55.72333],[-117.72597,55.72333],[-117.72594,55.75225],[-117.70036,55.75223],[-117.7004,55.72693],[-117.70041,55.72333]]],[[[-117.70037,55.78151],[-117.72591,55.78152],[-117.72589,55.81048],[-117.70035,55.81049],[-117.70036,55.78513],[-117.70037,55.78151]]],[[[-117.67448,55.78152],[-117.70004,55.78151],[-117.70003,55.81049],[-117.67451,55.8105],[-117.67449,55.78514],[-117.67448,55.78152]]],[[[-117.6745,55.75241],[-117.70004,55.75241],[-117.70004,55.78133],[-117.67448,55.78134],[-117.67449,55.75602],[-117.6745,55.75241]]],[[[-117.70036,55.75241],[-117.72594,55.75243],[-117.72591,55.78134],[-117.70037,55.78133],[-117.70037,55.75603],[-117.70036,55.75241]]],[[[-117.67451,55.72333],[-117.70009,55.72333],[-117.70004,55.75223],[-117.6745,55.75223],[-117.67451,55.72693],[-117.67451,55.72333]]],[[[-117.77771,55.78153],[-117.80317,55.78152],[-117.80319,55.8105],[-117.77774,55.8105],[-117.7777,55.78514],[-117.77771,55.78153]]],[[[-117.80349,55.78152],[-117.82893,55.78151],[-117.82896,55.8105],[-117.80351,55.8105],[-117.80348,55.78514],[-117.80349,55.78152]]],[[[-117.75193,55.78153],[-117.77739,55.78153],[-117.77742,55.8105],[-117.75198,55.81049],[-117.75193,55.78514],[-117.75193,55.78153]]],[[[-117.80361,55.72333],[-117.82905,55.72332],[-117.82899,55.75224],[-117.80354,55.75225],[-117.8036,55.72695],[-117.80361,55.72333]]],[[[-117.77783,55.72334],[-117.80329,55.72333],[-117.80322,55.75225],[-117.77777,55.75225],[-117.77782,55.72695],[-117.77783,55.72334]]],[[[-117.75206,55.72333],[-117.77751,55.72334],[-117.77745,55.75225],[-117.752,55.75225],[-117.75206,55.72695],[-117.75206,55.72333]]],[[[-117.77777,55.75243],[-117.80322,55.75243],[-117.80317,55.78134],[-117.77771,55.78135],[-117.77776,55.75605],[-117.77777,55.75243]]],[[[-117.752,55.75243],[-117.77745,55.75243],[-117.77739,55.78135],[-117.75193,55.78135],[-117.75199,55.75605],[-117.752,55.75243]]],[[[-117.72629,55.72333],[-117.75174,55.72333],[-117.75168,55.75225],[-117.72626,55.75225],[-117.72629,55.72694],[-117.72629,55.72333]]],[[[-117.80354,55.75243],[-117.82899,55.75242],[-117.82893,55.78133],[-117.80349,55.78134],[-117.80353,55.75604],[-117.80354,55.75243]]],[[[-117.72623,55.78152],[-117.75161,55.78153],[-117.75165,55.81049],[-117.72621,55.81048],[-117.72623,55.78513],[-117.72623,55.78152]]],[[[-117.72626,55.75243],[-117.75168,55.75243],[-117.75161,55.78135],[-117.72623,55.78134],[-117.72626,55.75604],[-117.72626,55.75243]]]]}},{"type":"Feature","properties":{"c":"9924030129","o":"NEOLITHICA LTD.","e":""},"geometry":{"type":"MultiPolygon","coordinates":[[[[-117.52492,55.8107],[-117.5508,55.81069],[-117.55084,55.8397],[-117.52497,55.83972],[-117.52491,55.81438],[-117.52492,55.8107]]],[[[-117.49873,55.8107],[-117.5246,55.8107],[-117.52465,55.83972],[-117.49864,55.83967],[-117.49873,55.81434],[-117.49873,55.8107]]],[[[-117.49864,55.83985],[-117.52465,55.8399],[-117.52464,55.86878],[-117.49874,55.86876],[-117.49866,55.84346],[-117.49864,55.83985]]],[[[-117.57727,55.81068],[-117.60307,55.81067],[-117.60304,55.83966],[-117.57723,55.83968],[-117.57726,55.81435],[-117.57727,55.81068]]],[[[-117.44653,55.81069],[-117.47231,55.8107],[-117.47235,55.83966],[-117.44654,55.83971],[-117.44653,55.81436],[-117.44653,55.81069]]],[[[-117.55112,55.81069],[-117.57695,55.81068],[-117.57691,55.83968],[-117.55116,55.8397],[-117.55113,55.81436],[-117.55112,55.81069]]],[[[-117.52497,55.8399],[-117.55084,55.83988],[-117.5508,55.86877],[-117.52496,55.86878],[-117.52497,55.84351],[-117.52497,55.8399]]],[[[-117.49874,55.86894],[-117.52464,55.86896],[-117.52463,55.89785],[-117.49883,55.89785],[-117.49875,55.87255],[-117.49874,55.86894]]],[[[-117.57723,55.83986],[-117.60304,55.83984],[-117.60302,55.86875],[-117.57721,55.86876],[-117.57723,55.84347],[-117.57723,55.83986]]],[[[-117.44654,55.83989],[-117.47235,55.83984],[-117.47236,55.86875],[-117.44656,55.86879],[-117.44655,55.8435],[-117.44654,55.83989]]],[[[-117.47263,55.8107],[-117.49841,55.8107],[-117.49832,55.83967],[-117.47267,55.83966],[-117.47264,55.81434],[-117.47263,55.8107]]],[[[-117.52496,55.86896],[-117.5508,55.86895],[-117.55076,55.89785],[-117.52496,55.89785],[-117.52496,55.87257],[-117.52496,55.86896]]],[[[-117.57721,55.86894],[-117.60302,55.86893],[-117.603,55.89783],[-117.5772,55.89784],[-117.57721,55.87255],[-117.57721,55.86894]]],[[[-117.44656,55.86897],[-117.47236,55.86893],[-117.47238,55.89784],[-117.44657,55.89784],[-117.44656,55.87258],[-117.44656,55.86897]]],[[[-117.55112,55.86895],[-117.57689,55.86894],[-117.57688,55.89784],[-117.55108,55.89785],[-117.55112,55.87256],[-117.55112,55.86895]]],[[[-117.47269,55.86893],[-117.49841,55.86894],[-117.49851,55.89785],[-117.4727,55.89785],[-117.47269,55.87255],[-117.47269,55.86893]]],[[[-117.55116,55.83988],[-117.57691,55.83986],[-117.57689,55.86876],[-117.55112,55.86877],[-117.55116,55.84349],[-117.55116,55.83988]]],[[[-117.47267,55.83984],[-117.49832,55.83985],[-117.49841,55.86876],[-117.47269,55.86875],[-117.47267,55.84346],[-117.47267,55.83984]]]]}},{"type":"Feature","properties":{"c":"9924030130","o":"NEOLITHICA LTD.","e":""},"geometry":{"type":"MultiPolygon","coordinates":[[[[-117.62939,55.81066],[-117.6551,55.81067],[-117.65515,55.83964],[-117.62941,55.83965],[-117.62939,55.81431],[-117.62939,55.81066]]],[[[-117.7335,55.81065],[-117.7592,55.81064],[-117.75925,55.83959],[-117.73349,55.8396],[-117.73349,55.81428],[-117.7335,55.81065]]],[[[-117.60339,55.81066],[-117.62907,55.81067],[-117.62909,55.83965],[-117.60336,55.83966],[-117.60339,55.81433],[-117.60339,55.81066]]],[[[-117.70748,55.81065],[-117.73318,55.81065],[-117.73317,55.8396],[-117.70745,55.83963],[-117.70746,55.8143],[-117.70748,55.81065]]],[[[-117.68146,55.81066],[-117.70716,55.81065],[-117.70713,55.83963],[-117.68144,55.83964],[-117.68145,55.81431],[-117.68146,55.81066]]],[[[-117.73349,55.83978],[-117.75925,55.83977],[-117.7593,55.86869],[-117.73356,55.86872],[-117.7335,55.8434],[-117.73349,55.83978]]],[[[-117.70745,55.83981],[-117.73317,55.83978],[-117.73324,55.86872],[-117.70752,55.86873],[-117.70746,55.84342],[-117.70745,55.83981]]],[[[-117.62941,55.83983],[-117.65515,55.83982],[-117.65513,55.86873],[-117.6294,55.86874],[-117.62941,55.84344],[-117.62941,55.83983]]],[[[-117.60336,55.83984],[-117.62909,55.83983],[-117.62908,55.86874],[-117.60334,55.86875],[-117.60336,55.84345],[-117.60336,55.83984]]],[[[-117.73356,55.8689],[-117.7593,55.86888],[-117.75936,55.8978],[-117.73363,55.89782],[-117.73357,55.87251],[-117.73356,55.8689]]],[[[-117.6294,55.86892],[-117.65513,55.86891],[-117.65514,55.89784],[-117.62939,55.89784],[-117.6294,55.87254],[-117.6294,55.86892]]],[[[-117.65542,55.81067],[-117.68113,55.81066],[-117.68112,55.83964],[-117.65547,55.83964],[-117.65544,55.81431],[-117.65542,55.81067]]],[[[-117.65545,55.86891],[-117.68116,55.86892],[-117.6812,55.89784],[-117.65546,55.89784],[-117.65545,55.87253],[-117.65545,55.86891]]],[[[-117.70752,55.86891],[-117.73324,55.8689],[-117.73331,55.89782],[-117.70758,55.89783],[-117.70753,55.87253],[-117.70752,55.86891]]],[[[-117.60334,55.86893],[-117.62908,55.86892],[-117.62907,55.89784],[-117.60333,55.89783],[-117.60334,55.87254],[-117.60334,55.86893]]],[[[-117.68148,55.86892],[-117.7072,55.86891],[-117.70725,55.89783],[-117.68152,55.89784],[-117.68149,55.87253],[-117.68148,55.86892]]],[[[-117.68144,55.83982],[-117.70713,55.83981],[-117.7072,55.86873],[-117.68148,55.86874],[-117.68145,55.84344],[-117.68144,55.83982]]],[[[-117.65547,55.83982],[-117.68112,55.83982],[-117.68116,55.86874],[-117.65545,55.86873],[-117.65547,55.84343],[-117.65547,55.83982]]]]}},{"type":"Feature","properties":{"c":"9924030134","o":"NEOLITHICA LTD.","e":""},"geometry":{"type":"MultiPolygon","coordinates":[[[[-117.4727,55.89803],[-117.49851,55.89803],[-117.49856,55.92695],[-117.47263,55.92697],[-117.47268,55.90166],[-117.4727,55.89803]]],[[[-117.47263,55.92715],[-117.49856,55.92713],[-117.49856,55.95604],[-117.47266,55.956],[-117.47263,55.93076],[-117.47263,55.92715]]],[[[-117.52496,55.89803],[-117.55076,55.89803],[-117.55081,55.92693],[-117.525,55.92695],[-117.52497,55.90165],[-117.52496,55.89803]]],[[[-117.47266,55.95618],[-117.49856,55.95622],[-117.49848,55.98513],[-117.47269,55.98512],[-117.47267,55.95979],[-117.47266,55.95618]]],[[[-117.5772,55.89802],[-117.603,55.89801],[-117.60299,55.92691],[-117.57722,55.92697],[-117.57721,55.90165],[-117.5772,55.89802]]],[[[-117.55108,55.89803],[-117.57688,55.89802],[-117.5769,55.92697],[-117.55113,55.92693],[-117.5511,55.90164],[-117.55108,55.89803]]],[[[-117.57722,55.92715],[-117.60299,55.92709],[-117.60298,55.95602],[-117.57719,55.95606],[-117.57721,55.93076],[-117.57722,55.92715]]],[[[-117.44657,55.89802],[-117.47238,55.89803],[-117.47231,55.92697],[-117.44658,55.92692],[-117.44657,55.90163],[-117.44657,55.89802]]],[[[-117.55113,55.92711],[-117.5769,55.92715],[-117.57687,55.95606],[-117.5511,55.95603],[-117.55113,55.93072],[-117.55113,55.92711]]],[[[-117.57719,55.95624],[-117.60298,55.9562],[-117.60297,55.9851],[-117.57718,55.98512],[-117.57719,55.95985],[-117.57719,55.95624]]],[[[-117.44659,55.95619],[-117.47234,55.95618],[-117.47237,55.98512],[-117.44659,55.9851],[-117.44659,55.9598],[-117.44659,55.95619]]],[[[-117.5511,55.95622],[-117.57687,55.95624],[-117.57685,55.98512],[-117.55104,55.98513],[-117.55109,55.95983],[-117.5511,55.95622]]],[[[-117.44658,55.9271],[-117.47231,55.92715],[-117.47234,55.956],[-117.44659,55.95601],[-117.44658,55.93071],[-117.44658,55.9271]]],[[[-117.49883,55.89803],[-117.52463,55.89803],[-117.52469,55.91972],[-117.49887,55.91972],[-117.49883,55.90165],[-117.49883,55.89803]]],[[[-117.53145,55.92713],[-117.55081,55.92711],[-117.55077,55.95603],[-117.53787,55.95604],[-117.53788,55.94157],[-117.53143,55.94158],[-117.53145,55.93074],[-117.53145,55.92713]]],[[[-117.49888,55.95622],[-117.51176,55.95622],[-117.51173,55.97067],[-117.51817,55.97067],[-117.51814,55.98513],[-117.4988,55.98513],[-117.49887,55.95983],[-117.49888,55.95622]]],[[[-117.49888,55.94158],[-117.51177,55.94158],[-117.51176,55.95604],[-117.49888,55.95604],[-117.49888,55.9452],[-117.49888,55.94158]]]]}},{"type":"Feature","properties":{"c":"9924030135","o":"NEOLITHICA LTD.","e":""},"geometry":{"type":"MultiPolygon","coordinates":[[[[-117.65543,55.92708],[-117.6813,55.92709],[-117.68128,55.95601],[-117.65546,55.95601],[-117.65543,55.9307],[-117.65543,55.92708]]],[[[-117.65546,55.89802],[-117.6812,55.89802],[-117.6813,55.92691],[-117.65543,55.9269],[-117.65544,55.90161],[-117.65546,55.89802]]],[[[-117.68163,55.92709],[-117.70742,55.92709],[-117.70737,55.956],[-117.6816,55.95601],[-117.68162,55.9307],[-117.68163,55.92709]]],[[[-117.65546,55.95619],[-117.68128,55.95619],[-117.68124,55.98512],[-117.65547,55.98512],[-117.65546,55.95981],[-117.65546,55.95619]]],[[[-117.68152,55.89802],[-117.70726,55.89801],[-117.70742,55.92691],[-117.68163,55.92691],[-117.68155,55.90162],[-117.68152,55.89802]]],[[[-117.62935,55.92708],[-117.6551,55.92708],[-117.65514,55.95601],[-117.62936,55.95601],[-117.62934,55.9307],[-117.62935,55.92708]]],[[[-117.6816,55.95619],[-117.70737,55.95618],[-117.70733,55.98511],[-117.68157,55.98512],[-117.6816,55.95981],[-117.6816,55.95619]]],[[[-117.62936,55.95619],[-117.65514,55.95619],[-117.65515,55.98512],[-117.62938,55.98511],[-117.62936,55.9598],[-117.62936,55.95619]]],[[[-117.62939,55.89802],[-117.65514,55.89802],[-117.6551,55.9269],[-117.62935,55.9269],[-117.62938,55.90161],[-117.62939,55.89802]]],[[[-117.70769,55.95618],[-117.73342,55.95618],[-117.73343,55.9851],[-117.70766,55.98511],[-117.70769,55.9598],[-117.70769,55.95618]]],[[[-117.60331,55.92709],[-117.62903,55.92708],[-117.62904,55.95601],[-117.6033,55.95602],[-117.60331,55.93071],[-117.60331,55.92709]]],[[[-117.6033,55.9562],[-117.62904,55.95619],[-117.62906,55.98511],[-117.60329,55.9851],[-117.6033,55.95981],[-117.6033,55.9562]]],[[[-117.73374,55.95618],[-117.75947,55.95617],[-117.75952,55.98508],[-117.73375,55.9851],[-117.73375,55.9598],[-117.73374,55.95618]]],[[[-117.70758,55.89801],[-117.73331,55.898],[-117.73345,55.9269],[-117.70774,55.92691],[-117.70762,55.90161],[-117.70758,55.89801]]],[[[-117.60333,55.89801],[-117.62907,55.89802],[-117.62903,55.9269],[-117.60331,55.92691],[-117.60332,55.90162],[-117.60333,55.89801]]],[[[-117.70774,55.92709],[-117.73345,55.92708],[-117.73342,55.956],[-117.70769,55.956],[-117.70774,55.9307],[-117.70774,55.92709]]],[[[-117.73377,55.92708],[-117.75941,55.92708],[-117.75947,55.95599],[-117.73374,55.956],[-117.73376,55.9307],[-117.73377,55.92708]]],[[[-117.73363,55.898],[-117.75936,55.89798],[-117.75941,55.9269],[-117.73377,55.9269],[-117.73367,55.90161],[-117.73363,55.898]]]]}},{"type":"Feature","properties":{"c":"9924030149","o":"NEOLITHICA LTD.","e":""},"geometry":{"type":"MultiPolygon","coordinates":[[[[-117.88116,55.54871],[-117.90653,55.54874],[-117.90649,55.57766],[-117.88111,55.57763],[-117.88115,55.55232],[-117.88116,55.54871]]],[[[-117.907,55.54874],[-117.93237,55.54877],[-117.93234,55.57768],[-117.90696,55.57766],[-117.907,55.55236],[-117.907,55.54874]]],[[[-117.93285,55.54877],[-117.95822,55.5488],[-117.9582,55.57771],[-117.93282,55.57768],[-117.93285,55.55239],[-117.93285,55.54877]]],[[[-117.9587,55.5488],[-117.98407,55.54882],[-117.98406,55.57772],[-117.95868,55.57771],[-117.9587,55.55241],[-117.9587,55.5488]]],[[[-117.88111,55.5779],[-117.90649,55.57793],[-117.90645,55.60675],[-117.88106,55.60672],[-117.8811,55.58142],[-117.88111,55.5779]]],[[[-117.90696,55.57793],[-117.93234,55.57796],[-117.93231,55.60677],[-117.90692,55.60675],[-117.90696,55.58145],[-117.90696,55.57793]]],[[[-117.93282,55.57796],[-117.9582,55.57798],[-117.95818,55.60679],[-117.93279,55.60678],[-117.93282,55.58148],[-117.93282,55.57796]]],[[[-117.95868,55.57798],[-117.98406,55.57799],[-117.98404,55.60681],[-117.95866,55.60679],[-117.95867,55.5815],[-117.95868,55.57798]]],[[[-117.88106,55.60699],[-117.90645,55.60702],[-117.90641,55.63584],[-117.88101,55.63582],[-117.88105,55.61052],[-117.88106,55.60699]]],[[[-117.90692,55.60702],[-117.93231,55.60705],[-117.93228,55.63587],[-117.90689,55.63584],[-117.90692,55.61055],[-117.90692,55.60702]]],[[[-117.93279,55.60705],[-117.95818,55.60706],[-117.95815,55.63588],[-117.93276,55.63587],[-117.93279,55.61057],[-117.93279,55.60705]]],[[[-117.95866,55.60706],[-117.98404,55.60708],[-117.98403,55.63589],[-117.95863,55.63588],[-117.95865,55.61059],[-117.95866,55.60706]]],[[[-117.98454,55.54882],[-118.0002,55.54883],[-118.00021,55.57775],[-117.98453,55.57772],[-117.98454,55.55243],[-117.98454,55.54882]]],[[[-117.98453,55.57799],[-118.00021,55.57803],[-118.00018,55.60681],[-117.98452,55.60681],[-117.98453,55.58152],[-117.98453,55.57799]]],[[[-117.98452,55.60708],[-118.00018,55.60708],[-118.00017,55.63589],[-117.98451,55.63589],[-117.98452,55.6106],[-117.98452,55.60708]]]]}},{"type":"Feature","properties":{"c":"9924030160","o":"NEOLITHICA LTD.","e":""},"geometry":{"type":"MultiPolygon","coordinates":[[[[-117.64874,55.78152],[-117.67416,55.78152],[-117.67419,55.8105],[-117.64861,55.8105],[-117.64874,55.78514],[-117.64874,55.78152]]],[[[-117.62273,55.79601],[-117.64842,55.79598],[-117.64829,55.8105],[-117.6228,55.81049],[-117.62275,55.79963],[-117.62273,55.79601]]],[[[-117.64874,55.76688],[-117.67417,55.76687],[-117.67416,55.78134],[-117.64874,55.78134],[-117.64874,55.77049],[-117.64874,55.76688]]]]}},{"type":"Feature","properties":{"c":"9924030158","o":"NEOLITHICA LTD.","e":""},"geometry":{"type":"MultiPolygon","coordinates":[[[[-117.51927,55.78146],[-117.54486,55.78148],[-117.54494,55.81052],[-117.51938,55.81053],[-117.51927,55.78508],[-117.51927,55.78146]]],[[[-117.51928,55.76683],[-117.54486,55.76685],[-117.54486,55.7813],[-117.51927,55.78128],[-117.51926,55.77044],[-117.51928,55.76683]]],[[[-117.54518,55.76685],[-117.57075,55.76688],[-117.57078,55.78133],[-117.54518,55.7813],[-117.54518,55.77046],[-117.54518,55.76685]]],[[[-117.41587,55.79593],[-117.44148,55.79594],[-117.44142,55.81051],[-117.41586,55.81049],[-117.41587,55.79954],[-117.41587,55.79593]]],[[[-117.4418,55.79594],[-117.4673,55.79592],[-117.4673,55.81052],[-117.44174,55.81051],[-117.44179,55.79956],[-117.4418,55.79594]]],[[[-117.46762,55.79592],[-117.49318,55.79595],[-117.49318,55.81053],[-117.46762,55.81052],[-117.46762,55.79953],[-117.46762,55.79592]]],[[[-117.50624,55.79594],[-117.51897,55.79592],[-117.51906,55.81053],[-117.50628,55.81053],[-117.50625,55.79955],[-117.50624,55.79594]]],[[[-117.54518,55.78148],[-117.57078,55.78151],[-117.57082,55.81051],[-117.54526,55.81052],[-117.54518,55.78509],[-117.54518,55.78148]]]]}},{"type":"Feature","properties":{"c":"9924030162","o":"NEOLITHICA LTD.","e":""},"geometry":{"type":"MultiPolygon","coordinates":[[[[-117.93267,55.72333],[-117.95823,55.72335],[-117.9582,55.75226],[-117.93261,55.75223],[-117.93266,55.72694],[-117.93267,55.72333]]],[[[-117.82937,55.72332],[-117.85481,55.7233],[-117.85477,55.75222],[-117.82931,55.75224],[-117.82936,55.72693],[-117.82937,55.72332]]],[[[-117.85513,55.7233],[-117.88058,55.72328],[-117.88055,55.75218],[-117.85509,55.75222],[-117.85513,55.72692],[-117.85513,55.7233]]],[[[-117.8809,55.72328],[-117.90646,55.72331],[-117.90642,55.75221],[-117.88087,55.75218],[-117.8809,55.72689],[-117.8809,55.72328]]],[[[-117.90678,55.72331],[-117.93235,55.72333],[-117.93229,55.75223],[-117.90674,55.75221],[-117.90678,55.72692],[-117.90678,55.72331]]],[[[-117.82931,55.75242],[-117.85477,55.7524],[-117.85473,55.78132],[-117.82925,55.78133],[-117.8293,55.75603],[-117.82931,55.75242]]],[[[-117.85509,55.7524],[-117.88055,55.75237],[-117.88052,55.78127],[-117.85505,55.78132],[-117.85509,55.75602],[-117.85509,55.7524]]],[[[-117.88087,55.75236],[-117.90642,55.75239],[-117.90637,55.7813],[-117.88084,55.78127],[-117.88087,55.75598],[-117.88087,55.75236]]],[[[-117.90674,55.75239],[-117.93229,55.75241],[-117.93227,55.78131],[-117.90669,55.7813],[-117.90674,55.756],[-117.90674,55.75239]]],[[[-117.93261,55.75241],[-117.9582,55.75244],[-117.95817,55.78135],[-117.93259,55.78131],[-117.93261,55.75602],[-117.93261,55.75241]]],[[[-117.82925,55.78151],[-117.85473,55.7815],[-117.85473,55.81049],[-117.82928,55.8105],[-117.82925,55.78513],[-117.82925,55.78151]]],[[[-117.85505,55.7815],[-117.88052,55.78145],[-117.88049,55.81047],[-117.85505,55.81049],[-117.85505,55.78512],[-117.85505,55.7815]]]]}},{"type":"Feature","properties":{"c":"9924030148","o":"NEOLITHICA LTD.","e":""},"geometry":{"type":"MultiPolygon","coordinates":[[[[-117.80365,55.63604],[-117.82912,55.63603],[-117.82909,55.66497],[-117.80363,55.66496],[-117.80365,55.63966],[-117.80365,55.63604]]],[[[-117.80371,55.59232],[-117.82902,55.59231],[-117.829,55.60676],[-117.80369,55.60678],[-117.8037,55.59594],[-117.80371,55.59232]]],[[[-117.8295,55.59231],[-117.85481,55.59229],[-117.85479,55.60675],[-117.82948,55.60676],[-117.82949,55.59592],[-117.8295,55.59231]]],[[[-117.85529,55.59229],[-117.88076,55.59226],[-117.88074,55.60672],[-117.85527,55.60675],[-117.85529,55.5959],[-117.85529,55.59229]]],[[[-117.80369,55.60705],[-117.829,55.60703],[-117.82896,55.63585],[-117.80365,55.63586],[-117.80368,55.61057],[-117.80369,55.60705]]],[[[-117.82948,55.60703],[-117.85479,55.60702],[-117.85475,55.63584],[-117.82944,55.63585],[-117.82947,55.61056],[-117.82948,55.60703]]],[[[-117.85527,55.60702],[-117.88074,55.60699],[-117.88069,55.63582],[-117.85522,55.63584],[-117.85526,55.61054],[-117.85527,55.60702]]],[[[-117.75207,55.65051],[-117.77755,55.65051],[-117.77755,55.66497],[-117.75206,55.66496],[-117.75207,55.65412],[-117.75207,55.65051]]],[[[-117.77787,55.65051],[-117.80332,55.6505],[-117.80331,55.66496],[-117.77787,55.66497],[-117.77787,55.65412],[-117.77787,55.65051]]],[[[-117.82944,55.63603],[-117.8549,55.63602],[-117.85482,55.66494],[-117.82941,55.66497],[-117.82944,55.63965],[-117.82944,55.63603]]],[[[-117.75206,55.66515],[-117.77755,55.66515],[-117.77754,55.67961],[-117.75204,55.67959],[-117.75205,55.66876],[-117.75206,55.66515]]],[[[-117.77787,55.66515],[-117.80331,55.66514],[-117.80331,55.6796],[-117.77786,55.67961],[-117.77786,55.66876],[-117.77787,55.66515]]],[[[-117.80363,55.66514],[-117.82909,55.66515],[-117.82907,55.67961],[-117.80363,55.6796],[-117.80363,55.66876],[-117.80363,55.66514]]],[[[-117.82941,55.66515],[-117.85482,55.66512],[-117.8548,55.67959],[-117.82939,55.67961],[-117.82941,55.66877],[-117.82941,55.66515]]]]}},{"type":"Feature","properties":{"c":"9924030150","o":"NEOLITHICA LTD.","e":""},"geometry":{"type":"MultiPolygon","coordinates":[[[[-117.90683,55.66512],[-117.93241,55.66514],[-117.93238,55.69406],[-117.90678,55.69403],[-117.90683,55.66873],[-117.90683,55.66512]]],[[[-117.85522,55.63602],[-117.88069,55.636],[-117.88066,55.66491],[-117.85514,55.66494],[-117.85521,55.63963],[-117.85522,55.63602]]],[[[-117.88101,55.636],[-117.90657,55.63602],[-117.90651,55.66494],[-117.88098,55.66491],[-117.88101,55.63961],[-117.88101,55.636]]],[[[-117.90689,55.63603],[-117.93244,55.63605],[-117.93241,55.66496],[-117.90683,55.66494],[-117.90688,55.63964],[-117.90689,55.63603]]],[[[-117.93276,55.63605],[-117.95831,55.63606],[-117.95826,55.66498],[-117.93273,55.66496],[-117.93275,55.63966],[-117.93276,55.63605]]],[[[-117.75204,55.67959],[-117.77754,55.67961],[-117.77752,55.69406],[-117.75201,55.69404],[-117.75203,55.6832],[-117.75204,55.67959]]],[[[-117.77786,55.67961],[-117.80331,55.6796],[-117.80328,55.69406],[-117.77784,55.69406],[-117.77785,55.68322],[-117.77786,55.67961]]],[[[-117.80363,55.6796],[-117.82907,55.67961],[-117.82906,55.69407],[-117.8036,55.69406],[-117.80363,55.68321],[-117.80363,55.6796]]],[[[-117.82939,55.67961],[-117.8548,55.67959],[-117.85478,55.69405],[-117.82938,55.69407],[-117.82939,55.68323],[-117.82939,55.67961]]],[[[-117.85514,55.66512],[-117.88066,55.66509],[-117.88061,55.69401],[-117.8551,55.69405],[-117.85513,55.66874],[-117.85514,55.66512]]],[[[-117.88098,55.66509],[-117.90651,55.66512],[-117.90646,55.69403],[-117.88093,55.69401],[-117.88097,55.66871],[-117.88098,55.66509]]],[[[-117.93273,55.66515],[-117.95826,55.66516],[-117.9582,55.69407],[-117.9327,55.69406],[-117.93273,55.66876],[-117.93273,55.66515]]],[[[-117.8036,55.69424],[-117.82906,55.69425],[-117.82906,55.7087],[-117.8036,55.70868],[-117.8036,55.69785],[-117.8036,55.69424]]],[[[-117.82938,55.69425],[-117.85478,55.69423],[-117.85478,55.70868],[-117.82938,55.7087],[-117.82939,55.69787],[-117.82938,55.69425]]],[[[-117.8551,55.69423],[-117.88061,55.69419],[-117.88059,55.70864],[-117.8551,55.70868],[-117.8551,55.69784],[-117.8551,55.69423]]],[[[-117.88093,55.69419],[-117.90646,55.69421],[-117.90644,55.70867],[-117.88091,55.70864],[-117.88093,55.6978],[-117.88093,55.69419]]],[[[-117.90678,55.69421],[-117.93238,55.69424],[-117.93237,55.7087],[-117.90676,55.70867],[-117.90677,55.69782],[-117.90678,55.69421]]],[[[-117.75201,55.69422],[-117.77752,55.69424],[-117.77752,55.72316],[-117.75206,55.72315],[-117.75201,55.69784],[-117.75201,55.69422]]],[[[-117.77784,55.69424],[-117.80328,55.69424],[-117.80329,55.72315],[-117.77784,55.72316],[-117.77783,55.69785],[-117.77784,55.69424]]]]}},{"type":"Feature","properties":{"c":"9924030151","o":"NEOLITHICA LTD.","e":""},"geometry":{"type":"MultiPolygon","coordinates":[[[[-118.05224,55.63609],[-118.07779,55.63609],[-118.07786,55.66506],[-118.05225,55.66506],[-118.05224,55.63971],[-118.05224,55.63609]]],[[[-117.95863,55.63606],[-117.98419,55.63607],[-117.98418,55.66499],[-117.95858,55.66498],[-117.95863,55.63968],[-117.95863,55.63606]]],[[[-117.98451,55.63607],[-118.00017,55.63608],[-118.00019,55.66499],[-117.9845,55.66499],[-117.98451,55.63969],[-117.98451,55.63607]]],[[[-118.00049,55.63608],[-118.02605,55.63609],[-118.02611,55.66504],[-118.00051,55.66499],[-118.0005,55.63969],[-118.00049,55.63608]]],[[[-118.02637,55.63609],[-118.05192,55.63609],[-118.05194,55.66506],[-118.02643,55.66504],[-118.02637,55.6397],[-118.02637,55.63609]]],[[[-118.02643,55.66522],[-118.05194,55.66524],[-118.05195,55.67968],[-118.02642,55.67967],[-118.02643,55.66884],[-118.02643,55.66522]]],[[[-118.05226,55.66524],[-118.07786,55.66524],[-118.07786,55.67968],[-118.05227,55.67968],[-118.05226,55.66885],[-118.05226,55.66524]]],[[[-117.95858,55.66516],[-117.98418,55.66517],[-117.98415,55.69408],[-117.95852,55.69408],[-117.95857,55.66877],[-117.95858,55.66516]]],[[[-117.9845,55.66517],[-118.00019,55.66517],[-118.00021,55.69408],[-117.98447,55.69408],[-117.98449,55.66878],[-117.9845,55.66517]]],[[[-118.00051,55.66517],[-118.02611,55.66522],[-118.02609,55.69412],[-118.00053,55.69408],[-118.00051,55.66878],[-118.00051,55.66517]]],[[[-117.9327,55.69424],[-117.9582,55.69426],[-117.95817,55.70871],[-117.93269,55.7087],[-117.9327,55.69786],[-117.9327,55.69424]]],[[[-117.95852,55.69426],[-117.98415,55.69427],[-117.98413,55.70872],[-117.95849,55.70871],[-117.95852,55.69787],[-117.95852,55.69426]]],[[[-117.98447,55.69427],[-118.00021,55.69427],[-118.00022,55.70872],[-117.98445,55.70872],[-117.98446,55.69788],[-117.98447,55.69427]]],[[[-118.00053,55.69427],[-118.02609,55.6943],[-118.02609,55.70875],[-118.00054,55.70872],[-118.00053,55.69788],[-118.00053,55.69427]]]]}},{"type":"Feature","properties":{"c":"9325110099","o":"WORSLEY IRON - ALBERTA STEEL INC.","e":""},"geometry":{"type":"MultiPolygon","coordinates":[[[[-117.80376,55.54878],[-117.82908,55.54876],[-117.82904,55.57767],[-117.80373,55.57769],[-117.80376,55.55239],[-117.80376,55.54878]]],[[[-117.82956,55.54876],[-117.85488,55.54874],[-117.85486,55.5632],[-117.82954,55.56322],[-117.82955,55.55238],[-117.82956,55.54876]]],[[[-117.70048,55.56326],[-117.72603,55.56325],[-117.72602,55.5777],[-117.70047,55.57771],[-117.70047,55.56687],[-117.70048,55.56326]]],[[[-117.72635,55.56325],[-117.75167,55.56325],[-117.75166,55.5777],[-117.72634,55.5777],[-117.72635,55.56686],[-117.72635,55.56325]]],[[[-117.75215,55.56325],[-117.77747,55.56325],[-117.77745,55.5777],[-117.75214,55.5777],[-117.75215,55.56686],[-117.75215,55.56325]]],[[[-117.77796,55.54879],[-117.80328,55.54878],[-117.80325,55.57769],[-117.77793,55.5777],[-117.77796,55.55241],[-117.77796,55.54879]]],[[[-117.70047,55.57798],[-117.72602,55.57797],[-117.72601,55.59233],[-117.70045,55.59234],[-117.70046,55.58151],[-117.70047,55.57798]]],[[[-117.72634,55.57797],[-117.75166,55.57797],[-117.75163,55.60678],[-117.72632,55.60678],[-117.72634,55.58149],[-117.72634,55.57797]]],[[[-117.75214,55.57797],[-117.77745,55.57797],[-117.77742,55.60678],[-117.75211,55.60678],[-117.75213,55.5815],[-117.75214,55.57797]]],[[[-117.77793,55.57797],[-117.80325,55.57796],[-117.80321,55.60678],[-117.7779,55.60678],[-117.77793,55.58149],[-117.77793,55.57797]]],[[[-117.80373,55.57796],[-117.82904,55.57794],[-117.829,55.60676],[-117.80369,55.60678],[-117.80372,55.58148],[-117.80373,55.57796]]],[[[-117.70043,55.62143],[-117.72599,55.62141],[-117.72598,55.63586],[-117.70042,55.63588],[-117.70043,55.62504],[-117.70043,55.62143]]],[[[-117.72632,55.60705],[-117.75163,55.60706],[-117.7516,55.63587],[-117.7263,55.63586],[-117.72632,55.61057],[-117.72632,55.60705]]],[[[-117.75211,55.60706],[-117.77742,55.60705],[-117.77739,55.63587],[-117.75208,55.63587],[-117.75211,55.61058],[-117.75211,55.60706]]],[[[-117.7779,55.60705],[-117.80321,55.60705],[-117.80317,55.63586],[-117.77787,55.63587],[-117.7779,55.61058],[-117.7779,55.60705]]],[[[-117.80369,55.60705],[-117.829,55.60703],[-117.82896,55.63585],[-117.80365,55.63586],[-117.80368,55.61057],[-117.80369,55.60705]]],[[[-117.70042,55.63606],[-117.72598,55.63604],[-117.72598,55.6505],[-117.70039,55.65052],[-117.70041,55.63967],[-117.70042,55.63606]]],[[[-117.7263,55.63604],[-117.75176,55.63605],[-117.75175,55.65051],[-117.7263,55.6505],[-117.7263,55.63966],[-117.7263,55.63604]]],[[[-117.75208,55.63605],[-117.77755,55.63605],[-117.77755,55.65051],[-117.75207,55.65051],[-117.75208,55.63966],[-117.75208,55.63605]]],[[[-117.77787,55.63605],[-117.80333,55.63604],[-117.80332,55.6505],[-117.77787,55.65051],[-117.77787,55.63966],[-117.77787,55.63605]]],[[[-117.80365,55.63604],[-117.82912,55.63603],[-117.82911,55.6505],[-117.80364,55.6505],[-117.80365,55.63966],[-117.80365,55.63604]]],[[[-117.82944,55.63603],[-117.8549,55.63602],[-117.85486,55.65048],[-117.82943,55.6505],[-117.82944,55.63965],[-117.82944,55.63603]]]]}},{"type":"Feature","properties":{"c":"9325110100","o":"WORSLEY IRON - ALBERTA STEEL INC.","e":""},"geometry":{"type":"MultiPolygon","coordinates":[[[[-117.85531,55.57792],[-117.88079,55.5779],[-117.88074,55.60672],[-117.85527,55.60675],[-117.85531,55.58145],[-117.85531,55.57792]]],[[[-117.85534,55.56319],[-117.88081,55.56317],[-117.88079,55.57763],[-117.85531,55.57765],[-117.85533,55.56681],[-117.85534,55.56319]]],[[[-117.88113,55.56317],[-117.90651,55.5632],[-117.90649,55.57766],[-117.88111,55.57763],[-117.88113,55.56678],[-117.88113,55.56317]]],[[[-117.90698,55.5632],[-117.93236,55.56323],[-117.93234,55.57768],[-117.90696,55.57766],[-117.90698,55.56682],[-117.90698,55.5632]]],[[[-117.93284,55.56323],[-117.95821,55.56325],[-117.9582,55.57771],[-117.93282,55.57768],[-117.93283,55.56684],[-117.93284,55.56323]]],[[[-117.98454,55.56327],[-118.0002,55.56329],[-118.00021,55.57775],[-117.98453,55.57772],[-117.98454,55.56688],[-117.98454,55.56327]]],[[[-117.82952,55.57794],[-117.85483,55.57792],[-117.85479,55.60675],[-117.82948,55.60676],[-117.82951,55.58147],[-117.82952,55.57794]]],[[[-117.88111,55.5779],[-117.90649,55.57793],[-117.90645,55.60675],[-117.88106,55.60672],[-117.8811,55.58142],[-117.88111,55.5779]]],[[[-117.90696,55.57793],[-117.93234,55.57796],[-117.93231,55.60677],[-117.90692,55.60675],[-117.90696,55.58145],[-117.90696,55.57793]]],[[[-117.93282,55.57796],[-117.9582,55.57798],[-117.95818,55.60679],[-117.93279,55.60678],[-117.93282,55.58148],[-117.93282,55.57796]]],[[[-117.95868,55.57798],[-117.98406,55.57799],[-117.98404,55.60681],[-117.95866,55.60679],[-117.95867,55.5815],[-117.95868,55.57798]]],[[[-117.98453,55.59235],[-118.00019,55.59236],[-118.00018,55.60681],[-117.98452,55.60681],[-117.98453,55.59597],[-117.98453,55.59235]]],[[[-117.82948,55.60703],[-117.85479,55.60702],[-117.85475,55.63584],[-117.82944,55.63585],[-117.82947,55.61056],[-117.82948,55.60703]]],[[[-117.85527,55.60702],[-117.88074,55.60699],[-117.88069,55.63582],[-117.85522,55.63584],[-117.85526,55.61054],[-117.85527,55.60702]]],[[[-117.88106,55.60699],[-117.90645,55.60702],[-117.90641,55.63584],[-117.88101,55.63582],[-117.88105,55.61052],[-117.88106,55.60699]]],[[[-117.90692,55.60702],[-117.93231,55.60705],[-117.93228,55.63587],[-117.90689,55.63584],[-117.90692,55.61055],[-117.90692,55.60702]]],[[[-117.93279,55.60705],[-117.95818,55.60706],[-117.95815,55.63588],[-117.93276,55.63587],[-117.93279,55.61057],[-117.93279,55.60705]]],[[[-117.95866,55.60706],[-117.98404,55.60708],[-117.98403,55.63589],[-117.95863,55.63588],[-117.95865,55.61059],[-117.95866,55.60706]]],[[[-117.98452,55.60708],[-118.00018,55.60708],[-118.00017,55.63589],[-117.98451,55.63589],[-117.98452,55.6106],[-117.98452,55.60708]]],[[[-117.98451,55.63607],[-118.00017,55.63608],[-118.00018,55.65053],[-117.9845,55.65053],[-117.98451,55.63969],[-117.98451,55.63607]]]]}},{"type":"Feature","properties":{"c":"9325110101","o":"WORSLEY IRON - ALBERTA STEEL INC.","e":""},"geometry":{"type":"MultiPolygon","coordinates":[[[[-118.05226,55.66524],[-118.07786,55.66524],[-118.07785,55.69413],[-118.05228,55.69412],[-118.05226,55.66885],[-118.05226,55.66524]]],[[[-117.9845,55.65053],[-118.00018,55.65053],[-118.00019,55.66499],[-117.9845,55.66499],[-117.9845,55.65414],[-117.9845,55.65053]]],[[[-118.0005,55.65053],[-118.02607,55.65053],[-118.02611,55.66504],[-118.00051,55.66499],[-118.0005,55.65415],[-118.0005,55.65053]]],[[[-118.02639,55.65053],[-118.05193,55.65055],[-118.05194,55.66506],[-118.02643,55.66504],[-118.02639,55.65415],[-118.02639,55.65053]]],[[[-118.05225,55.65055],[-118.07779,55.65054],[-118.07786,55.66506],[-118.05225,55.66506],[-118.05225,55.65416],[-118.05225,55.65055]]],[[[-118.07811,55.65054],[-118.10367,55.65054],[-118.10369,55.66506],[-118.07818,55.66506],[-118.0781,55.65415],[-118.07811,55.65054]]],[[[-118.10399,55.65054],[-118.12954,55.65052],[-118.1296,55.66507],[-118.10401,55.66506],[-118.10399,55.65415],[-118.10399,55.65054]]],[[[-118.12986,55.65052],[-118.1554,55.65051],[-118.15548,55.66505],[-118.12992,55.66507],[-118.12986,55.65413],[-118.12986,55.65052]]],[[[-118.15572,55.65051],[-118.18124,55.65053],[-118.18125,55.66499],[-118.1558,55.66505],[-118.15572,55.65412],[-118.15572,55.65051]]],[[[-118.18156,55.65053],[-118.20712,55.65054],[-118.20712,55.66499],[-118.18157,55.66499],[-118.18156,55.65415],[-118.18156,55.65053]]],[[[-118.02643,55.66522],[-118.05194,55.66524],[-118.05196,55.69412],[-118.02641,55.69412],[-118.02643,55.66884],[-118.02643,55.66522]]],[[[-118.07818,55.66524],[-118.10369,55.66524],[-118.1037,55.69413],[-118.07817,55.69413],[-118.07818,55.66885],[-118.07818,55.66524]]],[[[-118.10401,55.66524],[-118.1296,55.66525],[-118.12959,55.69413],[-118.10402,55.69413],[-118.10401,55.66885],[-118.10401,55.66524]]],[[[-118.12992,55.66525],[-118.15548,55.66523],[-118.15546,55.69412],[-118.12991,55.69414],[-118.12992,55.66886],[-118.12992,55.66525]]],[[[-118.1558,55.66523],[-118.18125,55.66517],[-118.18127,55.69407],[-118.15578,55.69412],[-118.15579,55.66884],[-118.1558,55.66523]]],[[[-118.18157,55.66517],[-118.20712,55.66517],[-118.20714,55.69408],[-118.18159,55.69407],[-118.18156,55.66878],[-118.18157,55.66517]]],[[[-118.02641,55.6943],[-118.05196,55.6943],[-118.05197,55.70875],[-118.02641,55.70875],[-118.02641,55.69791],[-118.02641,55.6943]]],[[[-118.05228,55.6943],[-118.07785,55.69431],[-118.07785,55.70876],[-118.05229,55.70875],[-118.05228,55.69791],[-118.05228,55.6943]]],[[[-118.12991,55.69432],[-118.15546,55.6943],[-118.15545,55.70875],[-118.1299,55.70876],[-118.12991,55.69793],[-118.12991,55.69432]]],[[[-118.15578,55.6943],[-118.18127,55.69425],[-118.18138,55.70862],[-118.15577,55.70875],[-118.15577,55.69791],[-118.15578,55.6943]]],[[[-118.18159,55.69425],[-118.20714,55.69426],[-118.20726,55.70862],[-118.1817,55.70862],[-118.18164,55.69782],[-118.18159,55.69425]]],[[[-118.07817,55.69431],[-118.1037,55.69431],[-118.10372,55.7232],[-118.07816,55.7232],[-118.07817,55.69792],[-118.07817,55.69431]]],[[[-118.10402,55.69431],[-118.12959,55.69432],[-118.12958,55.7232],[-118.10404,55.7232],[-118.10403,55.69792],[-118.10402,55.69431]]]]}},{"type":"Feature","properties":{"c":"9326020092","o":"HIGHWOOD ASSET MANAGEMENT LTD.","e":""},"geometry":{"type":"MultiPolygon","coordinates":[[[[-117.57112,55.54885],[-117.59653,55.54887],[-117.5965,55.5777],[-117.57109,55.57768],[-117.57112,55.55238],[-117.57112,55.54885]]],[[[-117.70049,55.5489],[-117.72605,55.54889],[-117.72603,55.56325],[-117.70048,55.56326],[-117.70049,55.55242],[-117.70049,55.5489]]],[[[-117.597,55.54887],[-117.62241,55.54889],[-117.62238,55.57771],[-117.59697,55.5777],[-117.597,55.5524],[-117.597,55.54887]]],[[[-117.62289,55.54889],[-117.64828,55.5489],[-117.64825,55.57772],[-117.62286,55.57771],[-117.62288,55.55241],[-117.62289,55.54889]]],[[[-117.64875,55.5489],[-117.67414,55.5489],[-117.67412,55.57772],[-117.64873,55.57772],[-117.64875,55.55242],[-117.64875,55.5489]]],[[[-117.67462,55.5489],[-117.70001,55.5489],[-117.69999,55.57771],[-117.6746,55.57772],[-117.67462,55.55242],[-117.67462,55.5489]]],[[[-117.57109,55.57795],[-117.5965,55.57797],[-117.59647,55.6068],[-117.57107,55.60678],[-117.57109,55.58148],[-117.57109,55.57795]]],[[[-117.59697,55.57797],[-117.62238,55.57798],[-117.62234,55.6068],[-117.59694,55.6068],[-117.59697,55.5815],[-117.59697,55.57797]]],[[[-117.62286,55.57798],[-117.64825,55.57799],[-117.64822,55.60681],[-117.62282,55.6068],[-117.62285,55.58151],[-117.62286,55.57798]]],[[[-117.64873,55.57799],[-117.67412,55.57799],[-117.67409,55.6068],[-117.6487,55.60681],[-117.64872,55.58151],[-117.64873,55.57799]]],[[[-117.6746,55.57799],[-117.69999,55.57798],[-117.69996,55.6068],[-117.67457,55.6068],[-117.67459,55.58151],[-117.6746,55.57799]]],[[[-117.70045,55.59234],[-117.72601,55.59233],[-117.726,55.60678],[-117.70044,55.6068],[-117.70045,55.59596],[-117.70045,55.59234]]],[[[-117.70044,55.60707],[-117.726,55.60705],[-117.72599,55.62141],[-117.70043,55.62143],[-117.70044,55.61059],[-117.70044,55.60707]]],[[[-117.57106,55.60706],[-117.59647,55.60707],[-117.59643,55.63589],[-117.57104,55.63588],[-117.57106,55.61058],[-117.57106,55.60706]]],[[[-117.59694,55.60707],[-117.62234,55.60708],[-117.62231,55.6359],[-117.59691,55.63589],[-117.59694,55.61059],[-117.59694,55.60707]]],[[[-117.62282,55.60708],[-117.64822,55.60708],[-117.64819,55.6359],[-117.62279,55.6359],[-117.62282,55.6106],[-117.62282,55.60708]]],[[[-117.6487,55.60708],[-117.67409,55.60707],[-117.67406,55.63589],[-117.64867,55.6359],[-117.64869,55.6106],[-117.6487,55.60708]]],[[[-117.67457,55.60707],[-117.69996,55.60707],[-117.69994,55.63588],[-117.67454,55.63589],[-117.67457,55.6106],[-117.67457,55.60707]]]]}},{"type":"Feature","properties":{"c":"9326020093","o":"HIGHWOOD ASSET MANAGEMENT LTD.","e":""},"geometry":{"type":"MultiPolygon","coordinates":[[[[-117.75216,55.5488],[-117.77748,55.54879],[-117.77747,55.56325],[-117.75215,55.56325],[-117.75216,55.55241],[-117.75216,55.5488]]],[[[-117.75169,55.5488],[-117.75167,55.56325],[-117.72635,55.56325],[-117.72636,55.54889],[-117.75169,55.5488]]]]}},{"type":"Feature","properties":{"c":"9326030126","o":"1080766 ALBERTA LTD.","e":""},"geometry":{"type":"MultiPolygon","coordinates":[[[[-117.88115,55.51963],[-117.9067,55.51965],[-117.90668,55.54856],[-117.88116,55.54853],[-117.88115,55.52324],[-117.88115,55.51963]]],[[[-117.75184,55.51972],[-117.75184,55.54862],[-117.72636,55.54862],[-117.72639,55.5198],[-117.75184,55.51972]]],[[[-117.75215,55.51972],[-117.77767,55.51971],[-117.77764,55.54861],[-117.75216,55.54862],[-117.75216,55.52333],[-117.75215,55.51972]]],[[[-117.77799,55.51971],[-117.80344,55.51969],[-117.80344,55.5486],[-117.77796,55.54861],[-117.77798,55.52332],[-117.77799,55.51971]]],[[[-117.80376,55.51969],[-117.82925,55.51967],[-117.82924,55.54858],[-117.80376,55.5486],[-117.80376,55.52331],[-117.80376,55.51969]]],[[[-117.82957,55.51967],[-117.85508,55.51965],[-117.85504,55.54856],[-117.82956,55.54858],[-117.82956,55.52328],[-117.82957,55.51967]]],[[[-117.8554,55.51965],[-117.88083,55.51963],[-117.88084,55.54853],[-117.85536,55.54856],[-117.85539,55.52326],[-117.8554,55.51965]]],[[[-117.90702,55.51965],[-117.93254,55.51968],[-117.93253,55.54859],[-117.907,55.54856],[-117.90702,55.52327],[-117.90702,55.51965]]],[[[-117.93286,55.51968],[-117.95837,55.51971],[-117.95838,55.54862],[-117.93285,55.54859],[-117.93286,55.52329],[-117.93286,55.51968]]],[[[-117.95869,55.51971],[-117.98422,55.51973],[-117.98423,55.54864],[-117.9587,55.54862],[-117.95869,55.52332],[-117.95869,55.51971]]],[[[-117.98454,55.51973],[-118.00019,55.51974],[-118.0002,55.54864],[-117.98454,55.54864],[-117.98454,55.52334],[-117.98454,55.51973]]],[[[-117.88116,55.54871],[-117.90653,55.54874],[-117.90651,55.5632],[-117.88113,55.56317],[-117.88115,55.55232],[-117.88116,55.54871]]],[[[-117.907,55.54874],[-117.93237,55.54877],[-117.93236,55.56323],[-117.90698,55.5632],[-117.907,55.55236],[-117.907,55.54874]]],[[[-117.93285,55.54877],[-117.95822,55.5488],[-117.95821,55.56325],[-117.93284,55.56323],[-117.93285,55.55239],[-117.93285,55.54877]]],[[[-117.9587,55.5488],[-117.98407,55.54882],[-117.98406,55.56327],[-117.95869,55.56325],[-117.9587,55.55241],[-117.9587,55.5488]]],[[[-117.98454,55.54882],[-118.0002,55.54883],[-118.0002,55.56329],[-117.98454,55.56327],[-117.98454,55.55243],[-117.98454,55.54882]]],[[[-118.00052,55.54883],[-118.02591,55.5488],[-118.0261,55.57771],[-118.00052,55.57776],[-118.00052,55.55244],[-118.00052,55.54883]]],[[[-118.02638,55.5488],[-118.05177,55.54882],[-118.05199,55.57772],[-118.02641,55.57771],[-118.02639,55.55242],[-118.02638,55.5488]]],[[[-118.0261,55.57789],[-118.02611,55.59233],[-118.00051,55.59236],[-118.00052,55.57803],[-118.0261,55.57789]]],[[[-118.02641,55.57789],[-118.05199,55.5779],[-118.05198,55.59235],[-118.02643,55.59233],[-118.02642,55.5815],[-118.02641,55.57789]]]]}},{"type":"Feature","properties":{"c":"9326030127","o":"1080766 ALBERTA LTD.","e":""},"geometry":{"type":"MultiPolygon","coordinates":[[[[-117.85536,55.54874],[-117.88084,55.54871],[-117.88081,55.56317],[-117.85534,55.56319],[-117.85535,55.55235],[-117.85536,55.54874]]],[[[-117.82954,55.56322],[-117.85486,55.5632],[-117.85484,55.57765],[-117.82952,55.57767],[-117.82953,55.56683],[-117.82954,55.56322]]]]}},{"type":"Feature","properties":{"c":"9326030149","o":"HIGHWOOD ASSET MANAGEMENT LTD.","e":""},"geometry":{"type":"MultiPolygon","coordinates":[[[[-117.49353,55.4906],[-117.51914,55.49059],[-117.51913,55.51951],[-117.49361,55.51951],[-117.49354,55.49421],[-117.49353,55.4906]]],[[[-117.41608,55.47595],[-117.4417,55.47594],[-117.44169,55.4904],[-117.41609,55.4904],[-117.41608,55.47956],[-117.41608,55.47595]]],[[[-117.44202,55.47594],[-117.46745,55.47595],[-117.46746,55.49041],[-117.44201,55.4904],[-117.44202,55.47955],[-117.44202,55.47594]]],[[[-117.46777,55.47595],[-117.49318,55.47596],[-117.49321,55.49042],[-117.46778,55.49041],[-117.46777,55.47957],[-117.46777,55.47595]]],[[[-117.49349,55.47596],[-117.51915,55.47595],[-117.51914,55.49041],[-117.49353,55.49042],[-117.4935,55.47957],[-117.49349,55.47596]]],[[[-117.51947,55.47595],[-117.54484,55.47595],[-117.54487,55.49041],[-117.51946,55.49041],[-117.51947,55.47957],[-117.51947,55.47595]]],[[[-117.54516,55.47595],[-117.57078,55.47596],[-117.57079,55.49041],[-117.54519,55.49041],[-117.54517,55.47957],[-117.54516,55.47595]]],[[[-117.41609,55.49058],[-117.44169,55.49058],[-117.44166,55.51949],[-117.41614,55.51948],[-117.41609,55.49419],[-117.41609,55.49058]]],[[[-117.44201,55.49058],[-117.46746,55.49059],[-117.46747,55.51951],[-117.44198,55.51949],[-117.442,55.49419],[-117.44201,55.49058]]],[[[-117.46778,55.49059],[-117.49321,55.4906],[-117.49329,55.51951],[-117.46779,55.51951],[-117.46778,55.49421],[-117.46778,55.49059]]],[[[-117.51946,55.49059],[-117.54488,55.49059],[-117.54496,55.5195],[-117.51945,55.51951],[-117.51946,55.49421],[-117.51946,55.49059]]],[[[-117.54519,55.49059],[-117.57079,55.49059],[-117.5708,55.5195],[-117.54528,55.5195],[-117.54521,55.4942],[-117.54519,55.49059]]],[[[-117.41614,55.51966],[-117.44166,55.51967],[-117.44164,55.54859],[-117.41613,55.54858],[-117.41614,55.52328],[-117.41614,55.51966]]],[[[-117.44198,55.51967],[-117.46747,55.51969],[-117.46747,55.5486],[-117.44196,55.54859],[-117.44198,55.52329],[-117.44198,55.51967]]],[[[-117.46779,55.51969],[-117.49329,55.51969],[-117.4933,55.54861],[-117.46779,55.5486],[-117.46779,55.5233],[-117.46779,55.51969]]],[[[-117.49361,55.51969],[-117.51913,55.51969],[-117.51914,55.5486],[-117.49362,55.54861],[-117.49361,55.52331],[-117.49361,55.51969]]],[[[-117.51945,55.51969],[-117.54496,55.51968],[-117.54497,55.5486],[-117.51946,55.5486],[-117.51945,55.5233],[-117.51945,55.51969]]],[[[-117.54528,55.51968],[-117.5708,55.51968],[-117.5708,55.54858],[-117.54529,55.5486],[-117.54528,55.5233],[-117.54528,55.51968]]]]}},{"type":"Feature","properties":{"c":"9326030150","o":"HIGHWOOD ASSET MANAGEMENT LTD.","e":""},"geometry":{"type":"MultiPolygon","coordinates":[[[[-117.46764,55.57789],[-117.49329,55.57784],[-117.49327,55.60682],[-117.46769,55.6068],[-117.46764,55.5815],[-117.46764,55.57789]]],[[[-117.41613,55.54876],[-117.44164,55.54878],[-117.44156,55.5777],[-117.41612,55.57768],[-117.41612,55.55238],[-117.41613,55.54876]]],[[[-117.44196,55.54878],[-117.46747,55.54878],[-117.46732,55.57771],[-117.44188,55.5777],[-117.44194,55.5524],[-117.44196,55.54878]]],[[[-117.46779,55.54878],[-117.4933,55.54879],[-117.49329,55.57766],[-117.46764,55.57771],[-117.46774,55.5524],[-117.46779,55.54878]]],[[[-117.49362,55.54879],[-117.51914,55.54878],[-117.5191,55.57771],[-117.49361,55.57766],[-117.49362,55.55238],[-117.49362,55.54879]]],[[[-117.51946,55.54878],[-117.54497,55.54878],[-117.545,55.57771],[-117.51942,55.57771],[-117.51945,55.55241],[-117.51946,55.54878]]],[[[-117.54529,55.54878],[-117.5708,55.54876],[-117.57077,55.57768],[-117.54532,55.57771],[-117.5453,55.5524],[-117.54529,55.54878]]],[[[-117.41612,55.57786],[-117.44156,55.57788],[-117.44158,55.60679],[-117.4161,55.60677],[-117.41612,55.58147],[-117.41612,55.57786]]],[[[-117.44188,55.57788],[-117.46732,55.57789],[-117.46737,55.6068],[-117.4419,55.60679],[-117.44188,55.5815],[-117.44188,55.57788]]],[[[-117.49361,55.57784],[-117.5191,55.57789],[-117.51909,55.60681],[-117.49359,55.60682],[-117.49361,55.58145],[-117.49361,55.57784]]],[[[-117.51942,55.5779],[-117.545,55.57789],[-117.54495,55.6068],[-117.5194,55.60681],[-117.51942,55.58151],[-117.51942,55.5779]]],[[[-117.54532,55.57789],[-117.57077,55.57786],[-117.57075,55.60678],[-117.54526,55.6068],[-117.54531,55.58151],[-117.54532,55.57789]]],[[[-117.4161,55.60695],[-117.44158,55.60697],[-117.44159,55.63588],[-117.41608,55.63587],[-117.4161,55.61057],[-117.4161,55.60695]]],[[[-117.4419,55.60697],[-117.46737,55.60698],[-117.46742,55.63589],[-117.44191,55.63588],[-117.4419,55.61059],[-117.4419,55.60697]]],[[[-117.46769,55.60698],[-117.49327,55.607],[-117.49324,55.6359],[-117.46773,55.63589],[-117.46769,55.6106],[-117.46769,55.60698]]],[[[-117.49359,55.607],[-117.51909,55.60699],[-117.51907,55.6359],[-117.49356,55.6359],[-117.49358,55.61061],[-117.49359,55.607]]],[[[-117.5194,55.60699],[-117.54495,55.60698],[-117.54489,55.6359],[-117.51939,55.6359],[-117.5194,55.6106],[-117.5194,55.60699]]],[[[-117.54526,55.60698],[-117.57075,55.60697],[-117.57072,55.63588],[-117.54521,55.6359],[-117.54526,55.6106],[-117.54526,55.60698]]]]}},{"type":"Feature","properties":{"c":"9326030151","o":"HIGHWOOD ASSET MANAGEMENT LTD.","e":""},"geometry":{"type":"MultiPolygon","coordinates":[[[[-117.95868,55.49061],[-117.98421,55.49064],[-117.98422,55.51955],[-117.95869,55.51952],[-117.95868,55.49423],[-117.95868,55.49061]]],[[[-117.88114,55.4759],[-117.90668,55.47592],[-117.90671,55.49038],[-117.88114,55.49036],[-117.88114,55.47951],[-117.88114,55.4759]]],[[[-117.907,55.47592],[-117.93255,55.47594],[-117.93255,55.4904],[-117.90703,55.49038],[-117.90701,55.47954],[-117.907,55.47592]]],[[[-117.93287,55.47594],[-117.95836,55.47598],[-117.95836,55.49043],[-117.93287,55.4904],[-117.93287,55.47955],[-117.93287,55.47594]]],[[[-117.95868,55.47598],[-117.98421,55.47601],[-117.98421,55.49046],[-117.95868,55.49043],[-117.95868,55.47959],[-117.95868,55.47598]]],[[[-117.98453,55.47601],[-118.00018,55.47602],[-118.00018,55.49047],[-117.98453,55.49046],[-117.98453,55.47962],[-117.98453,55.47601]]],[[[-117.88114,55.49054],[-117.90671,55.49056],[-117.90671,55.49779],[-117.89393,55.49778],[-117.89393,55.505],[-117.90671,55.50502],[-117.9067,55.51947],[-117.88115,55.51945],[-117.88115,55.50138],[-117.88114,55.49054]]],[[[-117.90702,55.51224],[-117.91978,55.51226],[-117.91979,55.4978],[-117.90703,55.49779],[-117.90703,55.49056],[-117.93255,55.49058],[-117.93254,55.51949],[-117.90702,55.51947],[-117.90702,55.51586],[-117.90702,55.51224]]],[[[-117.93287,55.49058],[-117.95836,55.49061],[-117.95837,55.51952],[-117.93286,55.5195],[-117.93287,55.49419],[-117.93287,55.49058]]],[[[-117.98453,55.49064],[-118.00018,55.49065],[-118.00019,55.51956],[-117.98454,55.51955],[-117.98453,55.49426],[-117.98453,55.49064]]]]}},{"type":"Feature","properties":{"c":"9326030155","o":"HIGHWOOD ASSET MANAGEMENT LTD.","e":""},"geometry":{"type":"MultiPolygon","coordinates":[[[[-117.95858,55.66516],[-117.98418,55.66517],[-117.98415,55.69408],[-117.95852,55.69408],[-117.95857,55.66877],[-117.95858,55.66516]]],[[[-117.88101,55.636],[-117.90657,55.63602],[-117.90651,55.66494],[-117.88098,55.66491],[-117.88101,55.63961],[-117.88101,55.636]]],[[[-117.90689,55.63603],[-117.93244,55.63605],[-117.93241,55.66496],[-117.90683,55.66494],[-117.90688,55.63964],[-117.90689,55.63603]]],[[[-117.93276,55.63605],[-117.95831,55.63606],[-117.95826,55.66498],[-117.93273,55.66496],[-117.93275,55.63966],[-117.93276,55.63605]]],[[[-117.95863,55.63606],[-117.98419,55.63607],[-117.98418,55.66499],[-117.95858,55.66498],[-117.95863,55.63968],[-117.95863,55.63606]]],[[[-117.88098,55.66509],[-117.90651,55.66512],[-117.90646,55.69403],[-117.88093,55.69401],[-117.88097,55.66871],[-117.88098,55.66509]]],[[[-117.90683,55.66512],[-117.93241,55.66514],[-117.93238,55.69406],[-117.90678,55.69403],[-117.90683,55.66873],[-117.90683,55.66512]]],[[[-117.93273,55.66515],[-117.95826,55.66516],[-117.9582,55.69407],[-117.9327,55.69406],[-117.93273,55.66876],[-117.93273,55.66515]]],[[[-117.9845,55.66517],[-118.00019,55.66517],[-118.00021,55.69408],[-117.98447,55.69408],[-117.98449,55.66878],[-117.9845,55.66517]]],[[[-117.88093,55.69419],[-117.90646,55.69421],[-117.90644,55.70867],[-117.88091,55.70864],[-117.88093,55.6978],[-117.88093,55.69419]]],[[[-117.90678,55.69421],[-117.93238,55.69424],[-117.93237,55.7087],[-117.90676,55.70867],[-117.90677,55.69782],[-117.90678,55.69421]]],[[[-117.9327,55.69424],[-117.9582,55.69426],[-117.95823,55.72316],[-117.93267,55.72315],[-117.9327,55.69786],[-117.9327,55.69424]]],[[[-117.95852,55.69426],[-117.98415,55.69427],[-117.98411,55.72318],[-117.95855,55.72316],[-117.95852,55.69787],[-117.95852,55.69426]]],[[[-117.98447,55.69427],[-118.00021,55.69427],[-118.00022,55.72318],[-117.98443,55.72318],[-117.98446,55.69788],[-117.98447,55.69427]]]]}},{"type":"Feature","properties":{"c":"9326030156","o":"HIGHWOOD ASSET MANAGEMENT LTD.","e":""},"geometry":{"type":"MultiPolygon","coordinates":[[[[-117.85514,55.66512],[-117.88066,55.66509],[-117.88061,55.69401],[-117.8551,55.69405],[-117.85513,55.66874],[-117.85514,55.66512]]],[[[-117.7263,55.6505],[-117.75175,55.65051],[-117.75174,55.66496],[-117.7263,55.66496],[-117.7263,55.65411],[-117.7263,55.6505]]],[[[-117.75207,55.65051],[-117.77755,55.65051],[-117.77755,55.66497],[-117.75206,55.66496],[-117.75207,55.65412],[-117.75207,55.65051]]],[[[-117.77787,55.65051],[-117.80332,55.6505],[-117.80331,55.66496],[-117.77787,55.66497],[-117.77787,55.65412],[-117.77787,55.65051]]],[[[-117.80364,55.6505],[-117.82911,55.6505],[-117.82909,55.66497],[-117.80363,55.66496],[-117.80364,55.65412],[-117.80364,55.6505]]],[[[-117.82943,55.6505],[-117.85486,55.65048],[-117.85482,55.66494],[-117.82941,55.66497],[-117.82942,55.65412],[-117.82943,55.6505]]],[[[-117.85522,55.63602],[-117.88069,55.636],[-117.88066,55.66491],[-117.85514,55.66494],[-117.85521,55.63963],[-117.85522,55.63602]]],[[[-117.7263,55.66514],[-117.75174,55.66515],[-117.75169,55.69404],[-117.72628,55.69405],[-117.7263,55.66875],[-117.7263,55.66514]]],[[[-117.75206,55.66515],[-117.77755,55.66515],[-117.77752,55.69406],[-117.75201,55.69404],[-117.75205,55.66876],[-117.75206,55.66515]]],[[[-117.77787,55.66515],[-117.80331,55.66514],[-117.80328,55.69406],[-117.77784,55.69406],[-117.77786,55.66876],[-117.77787,55.66515]]],[[[-117.80363,55.66514],[-117.82909,55.66515],[-117.82906,55.69407],[-117.8036,55.69406],[-117.80363,55.66876],[-117.80363,55.66514]]],[[[-117.82941,55.66515],[-117.85482,55.66512],[-117.85478,55.69405],[-117.82938,55.69407],[-117.82941,55.66877],[-117.82941,55.66515]]],[[[-117.72628,55.69423],[-117.75169,55.69422],[-117.75167,55.7087],[-117.72627,55.70869],[-117.72628,55.69784],[-117.72628,55.69423]]],[[[-117.75201,55.69422],[-117.77752,55.69424],[-117.7775,55.70869],[-117.75199,55.7087],[-117.75201,55.69784],[-117.75201,55.69422]]],[[[-117.77784,55.69424],[-117.80328,55.69424],[-117.80328,55.70868],[-117.77782,55.70869],[-117.77783,55.69785],[-117.77784,55.69424]]],[[[-117.8036,55.69424],[-117.82906,55.69425],[-117.82906,55.7087],[-117.8036,55.70868],[-117.8036,55.69785],[-117.8036,55.69424]]],[[[-117.82938,55.69425],[-117.85478,55.69423],[-117.85478,55.70868],[-117.82938,55.7087],[-117.82939,55.69787],[-117.82938,55.69425]]],[[[-117.8551,55.69423],[-117.88061,55.69419],[-117.88059,55.70864],[-117.8551,55.70868],[-117.8551,55.69784],[-117.8551,55.69423]]]]}},{"type":"Feature","properties":{"c":"9326040071","o":"HIGHWOOD ASSET MANAGEMENT LTD.","e":""},"geometry":{"type":"MultiPolygon","coordinates":[[[[-117.7005,55.49072],[-117.72593,55.49071],[-117.72591,55.51953],[-117.7005,55.51954],[-117.7005,55.49424],[-117.7005,55.49072]]],[[[-117.57111,55.49068],[-117.59654,55.49069],[-117.59653,55.51951],[-117.57112,55.5195],[-117.57111,55.4942],[-117.57111,55.49068]]],[[[-117.59701,55.49069],[-117.62242,55.4907],[-117.62242,55.51952],[-117.59701,55.51951],[-117.59701,55.49421],[-117.59701,55.49069]]],[[[-117.6229,55.4907],[-117.64832,55.49071],[-117.6483,55.51953],[-117.62289,55.51952],[-117.6229,55.49423],[-117.6229,55.4907]]],[[[-117.64879,55.49071],[-117.6742,55.49071],[-117.67417,55.51954],[-117.64878,55.51953],[-117.64879,55.49423],[-117.64879,55.49071]]],[[[-117.67468,55.49071],[-117.70003,55.49072],[-117.70002,55.51954],[-117.67465,55.51954],[-117.67468,55.49424],[-117.67468,55.49071]]],[[[-117.57112,55.51977],[-117.59653,55.51978],[-117.59653,55.5486],[-117.57112,55.54858],[-117.57112,55.52329],[-117.57112,55.51977]]],[[[-117.59701,55.51978],[-117.62242,55.5198],[-117.62241,55.54862],[-117.597,55.5486],[-117.59701,55.52331],[-117.59701,55.51978]]],[[[-117.62289,55.5198],[-117.6483,55.5198],[-117.64828,55.54863],[-117.62289,55.54862],[-117.62289,55.52332],[-117.62289,55.5198]]],[[[-117.64878,55.5198],[-117.67417,55.51981],[-117.67414,55.54863],[-117.64875,55.54863],[-117.64878,55.52333],[-117.64878,55.5198]]],[[[-117.67465,55.51981],[-117.70002,55.51981],[-117.70001,55.54863],[-117.67462,55.54863],[-117.67465,55.52333],[-117.67465,55.51981]]],[[[-117.7005,55.51981],[-117.72591,55.5198],[-117.72589,55.54862],[-117.70049,55.54863],[-117.7005,55.52333],[-117.7005,55.51981]]]]}},{"type":"Feature","properties":{"c":"9326040072","o":"HIGHWOOD ASSET MANAGEMENT LTD.","e":""},"geometry":{"type":"MultiPolygon","coordinates":[[[[-117.67454,55.63607],[-117.69994,55.63606],[-117.69988,55.66498],[-117.67438,55.66499],[-117.67452,55.63969],[-117.67454,55.63607]]],[[[-117.57104,55.63607],[-117.59643,55.63607],[-117.59641,55.66498],[-117.57105,55.66497],[-117.57104,55.63968],[-117.57104,55.63607]]],[[[-117.59691,55.63607],[-117.62231,55.63608],[-117.62228,55.66497],[-117.59689,55.66499],[-117.59691,55.63969],[-117.59691,55.63607]]],[[[-117.62279,55.63608],[-117.64819,55.63608],[-117.64816,55.66498],[-117.62276,55.66497],[-117.62279,55.63969],[-117.62279,55.63608]]],[[[-117.64867,55.63608],[-117.67406,55.63607],[-117.6739,55.66499],[-117.64863,55.66498],[-117.64866,55.63969],[-117.64867,55.63608]]],[[[-117.70039,55.65052],[-117.72598,55.6505],[-117.72598,55.66496],[-117.70036,55.66498],[-117.70038,55.65414],[-117.70039,55.65052]]]]}}]}