{"type":"FeatureCollection","features":[{"type":"Feature","properties":{"c":"9924020191","o":"HIGHWOOD ASSET MANAGEMENT LTD.","e":""},"geometry":{"type":"MultiPolygon","coordinates":[[[[-119.0,56.0],[-119.0,56.0],[-119.0,56.0],[-119.0,56.0]]],[[[-119.0,56.0],[-119.0,56.0],[-119.0,56.0],[-119.0,56.0]]],[[[-119.0,56.0],[-119.0,56.0],[-119.0,56.0],[-119.0,56.0]]],[[[-119.0,56.0],[-119.0,56.0],[-119.0,56.0],[-119.0,56.0]]],[[[-119.0,56.0],[-119.0,56.0],[-119.0,56.0],[-119.0,56.0]]],[[[-118.0,56.0],[-119.0,56.0],[-119.0,56.0],[-118.0,56.0]]],[[[-118.0,56.0],[-118.0,56.0],[-118.0,56.0],[-118.0,56.0]]],[[[-119.0,56.0],[-119.0,57.0],[-119.0,56.0],[-119.0,56.0]]],[[[-119.0,56.0],[-119.0,57.0],[-119.0,56.0],[-119.0,56.0]]],[[[-118.0,56.0],[-118.0,57.0],[-118.0,56.0],[-118.0,56.0]]],[[[-118.0,56.0],[-118.0,57.0],[-118.0,56.0],[-118.0,56.0]]],[[[-118.0,56.0],[-118.0,56.0],[-118.0,56.0],[-118.0,56.0]]],[[[-118.0,56.0],[-118.0,56.0],[-118.0,56.0],[-118.0,56.0]]],[[[-119.0,56.0],[-119.0,56.0],[-119.0,56.0],[-119.0,56.0]]],[[[-118.0,56.0],[-118.0,56.0],[-118.0,56.0],[-118.0,56.0]]],[[[-118.0,56.0],[-118.0,56.0],[-118.0,56.0],[-118.0,56.0]]]]}},{"type":"Feature","properties":{"c":"9924020192","o":"HIGHWOOD ASSET MANAGEMENT LTD.","e":""},"geometry":{"type":"MultiPolygon","coordinates":[[[[-119.0,57.0],[-118.0,56.0],[-119.0,56.0],[-119.0,57.0]]]]}},{"type":"Feature","properties":{"c":"9924020193","o":"HIGHWOOD ASSET MANAGEMENT LTD.","e":""},"geometry":{"type":"MultiPolygon","coordinates":[[[[-118.0,57.0],[-118.0,57.0],[-118.0,57.0],[-118.0,57.0]]],[[[-118.0,57.0],[-118.0,57.0],[-118.0,57.0],[-118.0,57.0]]],[[[-118.0,57.0],[-118.0,57.0],[-118.0,57.0],[-118.0,57.0]]],[[[-118.0,57.0],[-118.0,57.0],[-118.0,57.0],[-118.0,57.0]]],[[[-118.0,57.0],[-118.0,57.0],[-118.0,57.0],[-118.0,57.0]]],[[[-118.0,57.0],[-118.0,57.0],[-118.0,57.0],[-118.0,57.0]]]]}},{"type":"Feature","properties":{"c":"9924020194","o":"HIGHWOOD ASSET MANAGEMENT LTD.","e":""},"geometry":{"type":"MultiPolygon","coordinates":[[[[-118.0,57.0],[-118.0,57.0],[-118.0,57.0],[-118.0,57.0]]],[[[-118.0,57.0],[-118.0,57.0],[-118.0,57.0],[-118.0,57.0]]],[[[-118.0,57.0],[-118.0,57.0],[-118.0,57.0],[-118.0,57.0]]],[[[-118.0,57.0],[-118.0,57.0],[-118.0,57.0],[-118.0,57.0]]],[[[-118.0,57.0],[-118.0,57.0],[-118.0,57.0],[-118.0,57.0]]],[[[-118.0,57.0],[-118.0,57.0],[-118.0,57.0],[-118.0,57.0]]],[[[-118.0,57.0],[-118.0,57.0],[-118.0,57.0],[-118.0,57.0]]],[[[-118.0,57.0],[-118.0,57.0],[-118.0,57.0],[-118.0,57.0]]],[[[-118.0,57.0],[-118.0,57.0],[-118.0,57.0],[-118.0,57.0]]],[[[-118.0,57.0],[-118.0,57.0],[-118.0,57.0],[-118.0,57.0]]],[[[-118.0,57.0],[-118.0,57.0],[-118.0,57.0],[-118.0,57.0]]],[[[-118.0,57.0],[-118.0,57.0],[-118.0,57.0],[-118.0,57.0]]],[[[-118.0,57.0],[-118.0,57.0],[-118.0,57.0],[-118.0,57.0]]],[[[-118.0,57.0],[-118.0,57.0],[-118.0,57.0],[-118.0,57.0]]]]}},{"type":"Feature","properties":{"c":"9924040257","o":"LITHALTA (CHP) HOLDINGS CORP.","e":""},"geometry":{"type":"MultiPolygon","coordinates":[[[[-119.0,57.0],[-119.0,57.0],[-119.0,57.0],[-119.0,57.0]]],[[[-118.0,57.0],[-119.0,57.0],[-119.0,57.0],[-118.0,57.0]]],[[[-119.0,57.0],[-119.0,57.0],[-119.0,57.0],[-119.0,57.0]]],[[[-119.0,57.0],[-119.0,57.0],[-119.0,57.0],[-119.0,57.0]]],[[[-119.0,57.0],[-119.0,57.0],[-119.0,57.0],[-119.0,57.0]]],[[[-119.0,57.0],[-119.0,57.0],[-119.0,57.0],[-119.0,57.0]]],[[[-119.0,57.0],[-119.0,57.0],[-119.0,57.0],[-119.0,57.0]]],[[[-118.0,57.0],[-119.0,57.0],[-119.0,57.0],[-118.0,57.0]]],[[[-119.0,57.0],[-119.0,57.0],[-119.0,57.0],[-119.0,57.0]]],[[[-119.0,57.0],[-119.0,57.0],[-119.0,57.0],[-119.0,57.0]]],[[[-119.0,57.0],[-119.0,57.0],[-119.0,57.0],[-119.0,57.0]]],[[[-119.0,57.0],[-119.0,57.0],[-119.0,57.0],[-119.0,57.0]]],[[[-118.0,57.0],[-119.0,57.0],[-119.0,57.0],[-118.0,57.0]]],[[[-119.0,57.0],[-119.0,57.0],[-119.0,57.0],[-119.0,57.0]]],[[[-119.0,57.0],[-119.0,57.0],[-119.0,57.0],[-119.0,57.0]]],[[[-119.0,57.0],[-119.0,57.0],[-119.0,57.0],[-119.0,57.0]]],[[[-119.0,57.0],[-119.0,57.0],[-119.0,57.0],[-119.0,57.0]]],[[[-119.0,57.0],[-119.0,57.0],[-119.0,57.0],[-119.0,57.0]]]]}},{"type":"Feature","properties":{"c":"9924040273","o":"LITHALTA (CHP) HOLDINGS CORP.","e":""},"geometry":{"type":"MultiPolygon","coordinates":[[[[-118.0,56.0],[-118.0,56.0],[-118.0,56.0],[-118.0,56.0]]],[[[-118.0,56.0],[-118.0,56.0],[-118.0,56.0],[-118.0,56.0]]],[[[-118.0,56.0],[-118.0,56.0],[-118.0,56.0],[-118.0,56.0]]],[[[-118.0,56.0],[-118.0,56.0],[-118.0,56.0],[-118.0,56.0]]],[[[-118.0,56.0],[-118.0,56.0],[-118.0,56.0],[-118.0,56.0]]],[[[-118.0,56.0],[-118.0,56.0],[-118.0,56.0],[-118.0,56.0]]],[[[-118.0,56.0],[-118.0,56.0],[-118.0,56.0],[-118.0,56.0]]],[[[-118.0,56.0],[-118.0,56.0],[-118.0,56.0],[-118.0,56.0]]],[[[-118.0,56.0],[-118.0,56.0],[-118.0,56.0],[-118.0,56.0]]],[[[-118.0,56.0],[-118.0,56.0],[-118.0,56.0],[-118.0,56.0]]],[[[-118.0,56.0],[-118.0,56.0],[-118.0,56.0],[-118.0,56.0]]],[[[-118.0,56.0],[-118.0,56.0],[-118.0,56.0],[-118.0,56.0]]],[[[-118.0,56.0],[-118.0,56.0],[-118.0,56.0],[-118.0,56.0]]],[[[-118.0,56.0],[-118.0,56.0],[-118.0,56.0],[-118.0,56.0]]],[[[-118.0,56.0],[-118.0,56.0],[-118.0,56.0],[-118.0,56.0]]],[[[-118.0,56.0],[-118.0,57.0],[-118.0,56.0],[-118.0,56.0]]],[[[-118.0,56.0],[-118.0,57.0],[-118.0,56.0],[-118.0,56.0]]],[[[-118.0,56.0],[-118.0,57.0],[-118.0,56.0],[-118.0,56.0]]],[[[-118.0,56.0],[-118.0,57.0],[-118.0,56.0],[-118.0,56.0]]],[[[-118.0,56.0],[-118.0,57.0],[-118.0,56.0],[-118.0,56.0]]],[[[-118.0,56.0],[-118.0,57.0],[-118.0,56.0],[-118.0,56.0]]]]}},{"type":"Feature","properties":{"c":"9924040274","o":"LITHALTA (CHP) HOLDINGS CORP.","e":""},"geometry":{"type":"MultiPolygon","coordinates":[[[[-117.0,57.0],[-118.0,56.0],[-118.0,57.0],[-117.0,57.0]]]]}},{"type":"Feature","properties":{"c":"9924040275","o":"LITHALTA (CHP) HOLDINGS CORP.","e":""},"geometry":{"type":"MultiPolygon","coordinates":[[[[-118.0,56.0],[-118.0,56.0],[-118.0,56.0],[-118.0,56.0]]],[[[-118.0,56.0],[-118.0,56.0],[-118.0,56.0],[-118.0,56.0]]],[[[-118.0,56.0],[-118.0,56.0],[-118.0,56.0],[-118.0,56.0]]],[[[-118.0,56.0],[-118.0,56.0],[-118.0,56.0],[-118.0,56.0]]],[[[-118.0,56.0],[-118.0,56.0],[-118.0,56.0],[-118.0,56.0]]],[[[-118.0,56.0],[-118.0,56.0],[-118.0,56.0],[-118.0,56.0]]],[[[-118.0,56.0],[-118.0,56.0],[-118.0,56.0],[-118.0,56.0]]],[[[-118.0,56.0],[-118.0,56.0],[-118.0,56.0],[-118.0,56.0]]],[[[-118.0,56.0],[-118.0,56.0],[-118.0,56.0],[-118.0,56.0]]],[[[-118.0,56.0],[-118.0,56.0],[-118.0,56.0],[-118.0,56.0]]],[[[-118.0,56.0],[-118.0,56.0],[-118.0,56.0],[-118.0,56.0]]],[[[-118.0,56.0],[-118.0,56.0],[-118.0,56.0],[-118.0,56.0]]],[[[-118.0,56.0],[-118.0,57.0],[-118.0,56.0],[-118.0,56.0]]],[[[-118.0,56.0],[-118.0,57.0],[-118.0,56.0],[-118.0,56.0]]],[[[-118.0,56.0],[-118.0,57.0],[-118.0,56.0],[-118.0,56.0]]],[[[-118.0,56.0],[-118.0,57.0],[-118.0,56.0],[-118.0,56.0]]],[[[-118.0,56.0],[-118.0,57.0],[-118.0,56.0],[-118.0,56.0]]],[[[-118.0,56.0],[-118.0,57.0],[-118.0,56.0],[-118.0,56.0]]]]}},{"type":"Feature","properties":{"c":"9924040276","o":"LITHALTA (CHP) HOLDINGS CORP.","e":""},"geometry":{"type":"MultiPolygon","coordinates":[[[[-118.0,57.0],[-118.0,57.0],[-118.0,57.0],[-118.0,57.0]]],[[[-118.0,57.0],[-118.0,57.0],[-118.0,57.0],[-118.0,57.0]]],[[[-118.0,57.0],[-118.0,57.0],[-118.0,57.0],[-118.0,57.0]]],[[[-118.0,57.0],[-118.0,57.0],[-118.0,57.0],[-118.0,57.0]]],[[[-118.0,57.0],[-118.0,57.0],[-118.0,57.0],[-118.0,57.0]]],[[[-118.0,57.0],[-118.0,57.0],[-118.0,57.0],[-118.0,57.0]]],[[[-118.0,57.0],[-118.0,57.0],[-118.0,57.0],[-118.0,57.0]]],[[[-118.0,57.0],[-118.0,57.0],[-118.0,57.0],[-118.0,57.0]]],[[[-118.0,57.0],[-118.0,57.0],[-118.0,57.0],[-118.0,57.0]]],[[[-118.0,57.0],[-118.0,57.0],[-118.0,57.0],[-118.0,57.0]]],[[[-118.0,57.0],[-118.0,57.0],[-118.0,57.0],[-118.0,57.0]]],[[[-118.0,57.0],[-118.0,57.0],[-118.0,57.0],[-118.0,57.0]]],[[[-118.0,57.0],[-118.0,57.0],[-118.0,57.0],[-118.0,57.0]]],[[[-118.0,57.0],[-118.0,57.0],[-118.0,57.0],[-118.0,57.0]]],[[[-118.0,57.0],[-118.0,57.0],[-118.0,57.0],[-118.0,57.0]]],[[[-118.0,57.0],[-118.0,57.0],[-118.0,57.0],[-118.0,57.0]]],[[[-118.0,57.0],[-118.0,57.0],[-118.0,57.0],[-118.0,57.0]]],[[[-118.0,57.0],[-118.0,57.0],[-118.0,57.0],[-118.0,57.0]]],[[[-118.0,57.0],[-118.0,57.0],[-118.0,57.0],[-118.0,57.0]]],[[[-118.0,57.0],[-118.0,57.0],[-118.0,57.0],[-118.0,57.0]]],[[[-118.0,57.0],[-118.0,57.0],[-118.0,57.0],[-118.0,57.0]]],[[[-118.0,57.0],[-118.0,57.0],[-118.0,57.0],[-118.0,57.0]]],[[[-118.0,57.0],[-118.0,57.0],[-118.0,57.0],[-118.0,57.0]]]]}},{"type":"Feature","properties":{"c":"9924040279","o":"LITHALTA (CHP) HOLDINGS CORP.","e":""},"geometry":{"type":"MultiPolygon","coordinates":[[[[-118.0,57.0],[-118.0,57.0],[-118.0,57.0],[-118.0,57.0]]],[[[-118.0,57.0],[-118.0,57.0],[-118.0,57.0],[-118.0,57.0]]],[[[-118.0,57.0],[-118.0,57.0],[-118.0,57.0],[-118.0,57.0]]],[[[-118.0,57.0],[-118.0,57.0],[-118.0,57.0],[-118.0,57.0]]],[[[-118.0,57.0],[-118.0,57.0],[-118.0,57.0],[-118.0,57.0]]],[[[-118.0,57.0],[-118.0,57.0],[-118.0,57.0],[-118.0,57.0]]],[[[-118.0,57.0],[-118.0,57.0],[-118.0,57.0],[-118.0,57.0]]],[[[-118.0,57.0],[-118.0,57.0],[-118.0,57.0],[-118.0,57.0]]],[[[-118.0,57.0],[-118.0,57.0],[-118.0,57.0],[-118.0,57.0]]],[[[-118.0,57.0],[-118.0,57.0],[-118.0,57.0],[-118.0,57.0]]],[[[-118.0,57.0],[-118.0,57.0],[-118.0,57.0],[-118.0,57.0]]],[[[-118.0,57.0],[-118.0,57.0],[-118.0,57.0],[-118.0,57.0]]],[[[-118.0,57.0],[-118.0,57.0],[-118.0,57.0],[-118.0,57.0]]],[[[-118.0,57.0],[-118.0,57.0],[-118.0,57.0],[-118.0,57.0]]],[[[-118.0,57.0],[-118.0,57.0],[-118.0,57.0],[-118.0,57.0]]],[[[-118.0,57.0],[-118.0,57.0],[-118.0,57.0],[-118.0,57.0]]],[[[-118.0,57.0],[-118.0,57.0],[-118.0,57.0],[-118.0,57.0]]],[[[-118.0,57.0],[-118.0,57.0],[-118.0,57.0],[-118.0,57.0]]]]}},{"type":"Feature","properties":{"c":"9924040280","o":"LITHALTA (CHP) HOLDINGS CORP.","e":""},"geometry":{"type":"MultiPolygon","coordinates":[[[[-118.0,57.0],[-118.0,57.0],[-118.0,57.0],[-118.0,57.0]]],[[[-118.0,57.0],[-118.0,57.0],[-118.0,57.0],[-118.0,57.0]]],[[[-118.0,57.0],[-118.0,57.0],[-118.0,57.0],[-118.0,57.0]]],[[[-118.0,57.0],[-118.0,57.0],[-118.0,57.0],[-118.0,57.0]]],[[[-118.0,57.0],[-118.0,57.0],[-118.0,57.0],[-118.0,57.0]]],[[[-118.0,57.0],[-118.0,57.0],[-118.0,57.0],[-118.0,57.0]]],[[[-118.0,57.0],[-118.0,57.0],[-118.0,57.0],[-118.0,57.0]]],[[[-118.0,57.0],[-118.0,57.0],[-118.0,57.0],[-118.0,57.0]]],[[[-118.0,57.0],[-118.0,57.0],[-118.0,57.0],[-118.0,57.0]]],[[[-118.0,57.0],[-118.0,57.0],[-118.0,57.0],[-118.0,57.0]]],[[[-118.0,57.0],[-118.0,57.0],[-118.0,57.0],[-118.0,57.0]]],[[[-118.0,57.0],[-118.0,57.0],[-118.0,57.0],[-118.0,57.0]]],[[[-118.0,57.0],[-118.0,57.0],[-118.0,57.0],[-118.0,57.0]]],[[[-118.0,57.0],[-118.0,57.0],[-118.0,57.0],[-118.0,57.0]]],[[[-118.0,57.0],[-118.0,57.0],[-118.0,57.0],[-118.0,57.0]]],[[[-118.0,57.0],[-118.0,57.0],[-118.0,57.0],[-118.0,57.0]]],[[[-118.0,57.0],[-118.0,57.0],[-118.0,57.0],[-118.0,57.0]]],[[[-118.0,57.0],[-118.0,57.0],[-118.0,57.0],[-118.0,57.0]]]]}},{"type":"Feature","properties":{"c":"9424060135","o":"PRISM DIVERSIFIED LTD.","e":""},"geometry":{"type":"MultiPolygon","coordinates":[[[[-118.0,57.0],[-119.0,57.0],[-119.0,57.0],[-118.0,57.0]]],[[[-118.0,57.0],[-118.0,57.0],[-118.0,57.0],[-118.0,57.0]]],[[[-119.0,57.0],[-119.0,57.0],[-119.0,57.0],[-119.0,57.0]]]]}},{"type":"Feature","properties":{"c":"9424060136","o":"PRISM DIVERSIFIED LTD.","e":""},"geometry":{"type":"MultiPolygon","coordinates":[[[[-119.0,57.0],[-119.0,57.0],[-119.0,57.0],[-119.0,57.0]]],[[[-118.0,57.0],[-119.0,57.0],[-119.0,57.0],[-118.0,57.0]]],[[[-119.0,57.0],[-119.0,57.0],[-119.0,57.0],[-119.0,57.0]]],[[[-119.0,57.0],[-119.0,57.0],[-119.0,57.0],[-119.0,57.0]]],[[[-119.0,57.0],[-119.0,57.0],[-119.0,57.0],[-119.0,57.0]]],[[[-118.0,57.0],[-119.0,57.0],[-119.0,57.0],[-118.0,57.0]]],[[[-119.0,57.0],[-119.0,57.0],[-119.0,57.0],[-119.0,57.0]]],[[[-119.0,57.0],[-119.0,57.0],[-119.0,57.0],[-119.0,57.0]]],[[[-119.0,57.0],[-119.0,57.0],[-119.0,57.0],[-119.0,57.0]]]]}},{"type":"Feature","properties":{"c":"9325040147","o":"WORSLEY IRON - ALBERTA STEEL INC.","e":""},"geometry":{"type":"MultiPolygon","coordinates":[[[[-119.0,56.0],[-119.0,57.0],[-118.0,56.0],[-119.0,56.0]]]]}},{"type":"Feature","properties":{"c":"9326020059","o":"WORSLEY IRON - ALBERTA STEEL INC.","e":""},"geometry":{"type":"MultiPolygon","coordinates":[[[[-119.0,57.0],[-119.0,57.0],[-119.0,57.0],[-119.0,57.0]]],[[[-119.0,57.0],[-119.0,57.0],[-119.0,57.0],[-119.0,57.0]]],[[[-119.0,57.0],[-119.0,57.0],[-119.0,57.0],[-119.0,57.0]]],[[[-119.0,57.0],[-119.0,57.0],[-119.0,57.0],[-119.0,57.0]]],[[[-118.0,57.0],[-118.0,57.0],[-118.0,57.0],[-118.0,57.0]]],[[[-118.0,57.0],[-118.0,57.0],[-118.0,57.0],[-118.0,57.0]]],[[[-118.0,57.0],[-118.0,57.0],[-118.0,57.0],[-118.0,57.0]]],[[[-118.0,57.0],[-119.0,57.0],[-119.0,57.0],[-118.0,57.0]]],[[[-119.0,57.0],[-119.0,57.0],[-119.0,57.0],[-119.0,57.0]]],[[[-119.0,57.0],[-119.0,57.0],[-119.0,57.0],[-119.0,57.0]]],[[[-119.0,57.0],[-119.0,57.0],[-119.0,57.0],[-119.0,57.0]]],[[[-119.0,57.0],[-119.0,57.0],[-119.0,57.0],[-119.0,57.0]]],[[[-119.0,57.0],[-119.0,57.0],[-119.0,57.0],[-119.0,57.0]]],[[[-118.0,57.0],[-118.0,57.0],[-118.0,57.0],[-118.0,57.0]]],[[[-118.0,57.0],[-118.0,57.0],[-118.0,57.0],[-118.0,57.0]]],[[[-118.0,57.0],[-119.0,57.0],[-119.0,57.0],[-118.0,57.0]]]]}},{"type":"Feature","properties":{"c":"9326020060","o":"WORSLEY IRON - ALBERTA STEEL INC.","e":""},"geometry":{"type":"MultiPolygon","coordinates":[[[[-118.0,57.0],[-118.0,57.0],[-118.0,57.0],[-118.0,57.0]]],[[[-118.0,56.0],[-118.0,57.0],[-118.0,56.0],[-118.0,56.0]]],[[[-118.0,56.0],[-118.0,57.0],[-118.0,56.0],[-118.0,56.0]]],[[[-118.0,56.0],[-118.0,57.0],[-118.0,56.0],[-118.0,56.0]]],[[[-118.0,57.0],[-118.0,57.0],[-118.0,57.0],[-118.0,57.0]]],[[[-118.0,57.0],[-118.0,57.0],[-118.0,57.0],[-118.0,57.0]]],[[[-118.0,57.0],[-118.0,57.0],[-118.0,57.0],[-118.0,57.0]]],[[[-118.0,57.0],[-118.0,57.0],[-118.0,57.0],[-118.0,57.0]]],[[[-118.0,57.0],[-118.0,57.0],[-118.0,57.0],[-118.0,57.0]]],[[[-118.0,57.0],[-118.0,57.0],[-118.0,57.0],[-118.0,57.0]]],[[[-118.0,57.0],[-118.0,57.0],[-118.0,57.0],[-118.0,57.0]]],[[[-118.0,57.0],[-118.0,57.0],[-118.0,57.0],[-118.0,57.0]]],[[[-118.0,57.0],[-118.0,57.0],[-118.0,57.0],[-118.0,57.0]]],[[[-118.0,57.0],[-118.0,57.0],[-118.0,57.0],[-118.0,57.0]]],[[[-118.0,57.0],[-118.0,57.0],[-118.0,57.0],[-118.0,57.0]]],[[[-118.0,57.0],[-118.0,57.0],[-118.0,57.0],[-118.0,57.0]]],[[[-118.0,57.0],[-118.0,57.0],[-118.0,57.0],[-118.0,57.0]]],[[[-118.0,57.0],[-119.0,57.0],[-119.0,57.0],[-118.0,57.0]]],[[[-119.0,57.0],[-119.0,57.0],[-119.0,57.0],[-119.0,57.0]]]]}},{"type":"Feature","properties":{"c":"9326030140","o":"1080766 ALBERTA LTD.","e":""},"geometry":{"type":"MultiPolygon","coordinates":[[[[-118.0,57.0],[-118.0,57.0],[-118.0,57.0],[-118.0,57.0]]],[[[-118.0,57.0],[-118.0,57.0],[-118.0,57.0],[-118.0,57.0]]],[[[-118.0,57.0],[-118.0,57.0],[-118.0,57.0],[-118.0,57.0]]],[[[-118.0,57.0],[-118.0,57.0],[-118.0,57.0],[-118.0,57.0]]],[[[-118.0,57.0],[-118.0,57.0],[-118.0,57.0],[-118.0,57.0]]],[[[-118.0,57.0],[-118.0,57.0],[-118.0,57.0],[-118.0,57.0]]],[[[-118.0,57.0],[-118.0,57.0],[-118.0,57.0],[-118.0,57.0]]],[[[-118.0,57.0],[-118.0,57.0],[-118.0,57.0],[-118.0,57.0]]],[[[-118.0,57.0],[-119.0,57.0],[-118.0,57.0],[-118.0,57.0]]]]}},{"type":"Feature","properties":{"c":"9326030142","o":"HIGHWOOD ASSET MANAGEMENT LTD.","e":""},"geometry":{"type":"MultiPolygon","coordinates":[[[[-118.0,57.0],[-119.0,57.0],[-119.0,57.0],[-118.0,57.0]]],[[[-119.0,57.0],[-119.0,57.0],[-119.0,57.0],[-119.0,57.0]]],[[[-118.0,57.0],[-119.0,57.0],[-119.0,57.0],[-118.0,57.0]]],[[[-119.0,57.0],[-119.0,57.0],[-119.0,57.0],[-119.0,57.0]]],[[[-119.0,57.0],[-119.0,57.0],[-119.0,57.0],[-119.0,57.0]]],[[[-119.0,57.0],[-119.0,57.0],[-119.0,57.0],[-119.0,57.0]]],[[[-119.0,57.0],[-119.0,57.0],[-119.0,57.0],[-119.0,57.0]]],[[[-119.0,57.0],[-119.0,57.0],[-119.0,57.0],[-119.0,57.0]]],[[[-119.0,57.0],[-118.0,57.0],[-118.0,57.0],[-119.0,57.0]]],[[[-119.0,57.0],[-119.0,57.0],[-119.0,57.0],[-119.0,57.0]]],[[[-119.0,57.0],[-119.0,57.0],[-119.0,57.0],[-119.0,57.0]]],[[[-119.0,57.0],[-119.0,57.0],[-119.0,57.0],[-119.0,57.0]]],[[[-119.0,57.0],[-119.0,57.0],[-119.0,57.0],[-119.0,57.0]]],[[[-119.0,57.0],[-119.0,57.0],[-119.0,57.0],[-119.0,57.0]]]]}},{"type":"Feature","properties":{"c":"9326030143","o":"HIGHWOOD ASSET MANAGEMENT LTD.","e":""},"geometry":{"type":"MultiPolygon","coordinates":[[[[-118.0,57.0],[-118.0,57.0],[-118.0,57.0],[-118.0,57.0]]],[[[-118.0,57.0],[-118.0,57.0],[-118.0,57.0],[-118.0,57.0]]],[[[-118.0,57.0],[-118.0,57.0],[-118.0,57.0],[-118.0,57.0]]],[[[-118.0,57.0],[-118.0,57.0],[-118.0,57.0],[-118.0,57.0]]],[[[-118.0,57.0],[-118.0,57.0],[-118.0,57.0],[-118.0,57.0]]],[[[-118.0,57.0],[-118.0,57.0],[-118.0,57.0],[-118.0,57.0]]],[[[-118.0,57.0],[-118.0,57.0],[-118.0,57.0],[-118.0,57.0]]],[[[-118.0,57.0],[-118.0,57.0],[-118.0,57.0],[-118.0,57.0]]],[[[-118.0,57.0],[-118.0,57.0],[-118.0,57.0],[-118.0,57.0]]]]}},{"type":"Feature","properties":{"c":"9326030152","o":"HIGHWOOD ASSET MANAGEMENT LTD.","e":""},"geometry":{"type":"MultiPolygon","coordinates":[[[[-119.0,57.0],[-119.0,57.0],[-119.0,57.0],[-119.0,57.0]]],[[[-118.0,57.0],[-119.0,57.0],[-119.0,57.0],[-118.0,57.0]]],[[[-119.0,57.0],[-119.0,57.0],[-119.0,57.0],[-119.0,57.0]]],[[[-119.0,57.0],[-119.0,57.0],[-119.0,57.0],[-119.0,57.0]]],[[[-119.0,57.0],[-119.0,57.0],[-119.0,57.0],[-119.0,57.0]]],[[[-119.0,57.0],[-119.0,57.0],[-119.0,57.0],[-119.0,57.0]]],[[[-119.0,57.0],[-119.0,57.0],[-119.0,57.0],[-119.0,57.0]]]]}},{"type":"Feature","properties":{"c":"9326040074","o":"HIGHWOOD ASSET MANAGEMENT LTD.","e":""},"geometry":{"type":"MultiPolygon","coordinates":[[[[-119.0,57.0],[-119.0,57.0],[-119.0,57.0],[-119.0,57.0]]],[[[-118.0,57.0],[-119.0,57.0],[-119.0,57.0],[-118.0,57.0]]],[[[-119.0,57.0],[-119.0,57.0],[-119.0,57.0],[-119.0,57.0]]],[[[-119.0,57.0],[-119.0,57.0],[-119.0,57.0],[-119.0,57.0]]],[[[-119.0,57.0],[-119.0,57.0],[-119.0,57.0],[-119.0,57.0]]],[[[-119.0,57.0],[-119.0,57.0],[-119.0,57.0],[-119.0,57.0]]],[[[-119.0,57.0],[-119.0,57.0],[-119.0,57.0],[-119.0,57.0]]],[[[-119.0,57.0],[-119.0,57.0],[-119.0,57.0],[-119.0,57.0]]],[[[-119.0,57.0],[-119.0,57.0],[-119.0,57.0],[-119.0,57.0]]],[[[-119.0,57.0],[-119.0,57.0],[-119.0,57.0],[-119.0,57.0]]]]}},{"type":"Feature","properties":{"c":"9326040139","o":"WORSLEY IRON - ALBERTA STEEL INC.","e":""},"geometry":{"type":"MultiPolygon","coordinates":[[[[-119.0,57.0],[-119.0,57.0],[-119.0,57.0],[-119.0,57.0]]],[[[-119.0,57.0],[-119.0,57.0],[-119.0,57.0],[-119.0,57.0]]],[[[-119.0,57.0],[-119.0,57.0],[-119.0,57.0],[-119.0,57.0]]],[[[-119.0,57.0],[-119.0,57.0],[-119.0,57.0],[-119.0,57.0]]],[[[-119.0,57.0],[-119.0,57.0],[-119.0,57.0],[-119.0,57.0]]],[[[-119.0,57.0],[-119.0,57.0],[-119.0,57.0],[-119.0,57.0]]],[[[-119.0,57.0],[-119.0,57.0],[-119.0,57.0],[-119.0,57.0]]],[[[-119.0,57.0],[-119.0,57.0],[-119.0,57.0],[-119.0,57.0]]],[[[-119.0,57.0],[-119.0,57.0],[-119.0,57.0],[-119.0,57.0]]],[[[-119.0,57.0],[-119.0,57.0],[-119.0,57.0],[-119.0,57.0]]],[[[-118.0,57.0],[-118.0,57.0],[-118.0,57.0],[-118.0,57.0]]],[[[-118.0,57.0],[-119.0,57.0],[-119.0,57.0],[-118.0,57.0]]],[[[-118.0,57.0],[-118.0,57.0],[-118.0,57.0],[-118.0,57.0]]],[[[-119.0,57.0],[-119.0,57.0],[-119.0,57.0],[-119.0,57.0]]],[[[-119.0,57.0],[-119.0,57.0],[-119.0,57.0],[-119.0,57.0]]],[[[-119.0,57.0],[-119.0,57.0],[-119.0,57.0],[-119.0,57.0]]],[[[-119.0,57.0],[-119.0,57.0],[-119.0,57.0],[-119.0,57.0]]],[[[-119.0,57.0],[-119.0,57.0],[-119.0,57.0],[-119.0,57.0]]],[[[-119.0,57.0],[-119.0,57.0],[-119.0,57.0],[-119.0,57.0]]],[[[-119.0,57.0],[-119.0,57.0],[-119.0,57.0],[-119.0,57.0]]],[[[-119.0,57.0],[-119.0,57.0],[-119.0,57.0],[-119.0,57.0]]],[[[-119.0,57.0],[-119.0,57.0],[-119.0,57.0],[-119.0,57.0]]]]}}]}