{"type":"FeatureCollection","features":[{"type":"Feature","properties":{"c":"9924020196","o":"HIGHWOOD ASSET MANAGEMENT LTD.","e":""},"geometry":{"type":"MultiPolygon","coordinates":[[[[-118.4106,55.28706],[-118.43592,55.28705],[-118.43591,55.31596],[-118.41058,55.31596],[-118.4106,55.29067],[-118.4106,55.28706]]],[[[-118.41058,55.31614],[-118.43591,55.31614],[-118.43591,55.34505],[-118.41056,55.34504],[-118.41058,55.31975],[-118.41058,55.31614]]],[[[-118.33371,55.28706],[-118.35902,55.28706],[-118.359,55.31598],[-118.3337,55.31597],[-118.33371,55.29067],[-118.33371,55.28706]]],[[[-118.30807,55.28705],[-118.33339,55.28706],[-118.33338,55.31597],[-118.30807,55.31594],[-118.30807,55.29066],[-118.30807,55.28705]]],[[[-118.43624,55.28705],[-118.46155,55.28704],[-118.46153,55.31594],[-118.43623,55.31596],[-118.43624,55.29067],[-118.43624,55.28705]]],[[[-118.41056,55.34522],[-118.43591,55.34523],[-118.43587,55.37412],[-118.41056,55.37412],[-118.41056,55.34884],[-118.41056,55.34522]]],[[[-118.30807,55.31612],[-118.33338,55.31615],[-118.33337,55.34507],[-118.30806,55.34501],[-118.30807,55.31973],[-118.30807,55.31612]]],[[[-118.43623,55.31614],[-118.46153,55.31612],[-118.46151,55.34503],[-118.43623,55.34505],[-118.43623,55.31975],[-118.43623,55.31614]]],[[[-118.43623,55.34523],[-118.46151,55.34521],[-118.46149,55.37411],[-118.43618,55.37412],[-118.43623,55.34884],[-118.43623,55.34523]]],[[[-118.38498,55.30874],[-118.39763,55.30874],[-118.39763,55.30151],[-118.38498,55.30152],[-118.38497,55.28707],[-118.41029,55.28706],[-118.41026,55.31596],[-118.38499,55.31597],[-118.38498,55.31236],[-118.38498,55.30874]]],[[[-118.35934,55.28706],[-118.38466,55.28707],[-118.38467,55.31597],[-118.37199,55.31597],[-118.37199,55.30152],[-118.35933,55.30152],[-118.35934,55.29068],[-118.35934,55.28706]]],[[[-118.35932,55.31616],[-118.38467,55.31615],[-118.38468,55.3306],[-118.3593,55.33061],[-118.35931,55.31977],[-118.35932,55.31616]]],[[[-118.30806,55.34519],[-118.33337,55.34525],[-118.33337,55.3597],[-118.30806,55.35964],[-118.30806,55.3488],[-118.30806,55.34519]]],[[[-118.38499,55.31615],[-118.41026,55.31614],[-118.41025,55.33059],[-118.38499,55.3306],[-118.38499,55.31976],[-118.38499,55.31615]]],[[[-118.3337,55.32338],[-118.34634,55.32338],[-118.34635,55.31615],[-118.359,55.31616],[-118.35899,55.33061],[-118.33369,55.33061],[-118.3337,55.327],[-118.3337,55.32338]]]]}},{"type":"Feature","properties":{"c":"9924020197","o":"HIGHWOOD ASSET MANAGEMENT LTD.","e":""},"geometry":{"type":"MultiPolygon","coordinates":[[[[-118.25683,55.37431],[-118.28216,55.3743],[-118.28215,55.4032],[-118.25683,55.4032],[-118.25683,55.37792],[-118.25683,55.37431]]],[[[-118.20555,55.37432],[-118.23087,55.37432],[-118.23088,55.40321],[-118.20555,55.40321],[-118.20555,55.37793],[-118.20555,55.37432]]],[[[-118.15427,55.3743],[-118.17959,55.37431],[-118.1796,55.4032],[-118.15429,55.4032],[-118.15428,55.37791],[-118.15427,55.3743]]],[[[-118.23119,55.37432],[-118.25652,55.37431],[-118.25651,55.4032],[-118.23119,55.40321],[-118.23119,55.37793],[-118.23119,55.37432]]],[[[-118.17991,55.37431],[-118.20523,55.37432],[-118.20524,55.40321],[-118.17992,55.4032],[-118.17991,55.37792],[-118.17991,55.37431]]],[[[-118.28248,55.3743],[-118.30774,55.37427],[-118.30775,55.40317],[-118.28247,55.4032],[-118.28247,55.37791],[-118.28248,55.3743]]],[[[-118.28247,55.40338],[-118.30775,55.40335],[-118.30775,55.43226],[-118.28247,55.43229],[-118.28247,55.407],[-118.28247,55.40338]]],[[[-118.28247,55.43247],[-118.30775,55.43244],[-118.30775,55.46134],[-118.28247,55.46136],[-118.28247,55.43608],[-118.28247,55.43247]]]]}},{"type":"Feature","properties":{"c":"9924020198","o":"HIGHWOOD ASSET MANAGEMENT LTD.","e":""},"geometry":{"type":"MultiPolygon","coordinates":[[[[-118.38841,55.46155],[-118.41396,55.46156],[-118.41401,55.49047],[-118.38844,55.49046],[-118.38842,55.46517],[-118.38841,55.46155]]],[[[-118.31081,55.46152],[-118.33636,55.46154],[-118.33639,55.49044],[-118.31082,55.49041],[-118.31081,55.46513],[-118.31081,55.46152]]],[[[-118.41428,55.46156],[-118.43983,55.46155],[-118.43988,55.49046],[-118.41432,55.49047],[-118.41429,55.46517],[-118.41428,55.46156]]],[[[-118.36255,55.46155],[-118.38809,55.46155],[-118.38812,55.49046],[-118.36257,55.49045],[-118.36255,55.46516],[-118.36255,55.46155]]],[[[-118.38844,55.49064],[-118.41401,55.49065],[-118.414,55.51955],[-118.38844,55.51954],[-118.38844,55.49425],[-118.38844,55.49064]]],[[[-118.41432,55.49065],[-118.43988,55.49064],[-118.43988,55.51955],[-118.41432,55.51955],[-118.41432,55.49426],[-118.41432,55.49065]]],[[[-118.33668,55.46154],[-118.36223,55.46155],[-118.36225,55.49045],[-118.33671,55.49044],[-118.33669,55.46515],[-118.33668,55.46154]]],[[[-118.36257,55.49063],[-118.38812,55.49064],[-118.38812,55.51954],[-118.36257,55.51954],[-118.36257,55.49425],[-118.36257,55.49063]]],[[[-118.44015,55.46155],[-118.4657,55.46154],[-118.46571,55.49044],[-118.44019,55.49046],[-118.44016,55.46516],[-118.44015,55.46155]]],[[[-118.33671,55.49062],[-118.36225,55.49063],[-118.36225,55.51954],[-118.33671,55.51952],[-118.33671,55.49424],[-118.33671,55.49062]]],[[[-118.38844,55.51972],[-118.414,55.51973],[-118.414,55.54863],[-118.38845,55.54863],[-118.38844,55.52334],[-118.38844,55.51972]]],[[[-118.44019,55.51973],[-118.46573,55.51971],[-118.46572,55.54863],[-118.44018,55.54864],[-118.44019,55.52334],[-118.44019,55.51973]]],[[[-118.41432,55.51973],[-118.43988,55.51973],[-118.43986,55.54864],[-118.41432,55.54863],[-118.41432,55.52335],[-118.41432,55.51973]]],[[[-118.44019,55.49064],[-118.46571,55.49062],[-118.46573,55.51953],[-118.44019,55.51955],[-118.4402,55.49425],[-118.44019,55.49064]]],[[[-118.31082,55.4906],[-118.33639,55.49062],[-118.33639,55.51952],[-118.32361,55.51951],[-118.32361,55.51229],[-118.31083,55.51227],[-118.31083,55.49421],[-118.31082,55.4906]]],[[[-118.36257,55.51972],[-118.38812,55.51972],[-118.38813,55.5414],[-118.36257,55.54139],[-118.36257,55.52333],[-118.36257,55.51972]]],[[[-118.33671,55.5197],[-118.36225,55.51972],[-118.36225,55.53417],[-118.34948,55.53416],[-118.34948,55.54861],[-118.3367,55.5486],[-118.3367,55.53777],[-118.33671,55.5197]]],[[[-118.31084,55.51968],[-118.33639,55.5197],[-118.33638,55.54138],[-118.31084,55.54136],[-118.31084,55.52329],[-118.31084,55.51968]]]]}},{"type":"Feature","properties":{"c":"9924030152","o":"NEOLITHICA LTD.","e":""},"geometry":{"type":"MultiPolygon","coordinates":[[[[-118.12862,55.37431],[-118.15396,55.3743],[-118.15397,55.4032],[-118.12861,55.40321],[-118.12861,55.37792],[-118.12862,55.37431]]],[[[-118.12861,55.40339],[-118.15397,55.40338],[-118.15398,55.43227],[-118.12861,55.4323],[-118.12861,55.40701],[-118.12861,55.40339]]],[[[-118.05169,55.37432],[-118.077,55.37433],[-118.07699,55.40323],[-118.05165,55.40322],[-118.05167,55.37794],[-118.05169,55.37432]]],[[[-118.02606,55.37431],[-118.05138,55.37432],[-118.05134,55.40322],[-118.02601,55.40322],[-118.02603,55.37793],[-118.02606,55.37431]]],[[[-118.10295,55.4034],[-118.1283,55.40339],[-118.1283,55.4323],[-118.10295,55.4323],[-118.10295,55.40701],[-118.10295,55.4034]]],[[[-118.10298,55.37432],[-118.1283,55.37431],[-118.1283,55.40321],[-118.10295,55.40322],[-118.10297,55.37794],[-118.10298,55.37432]]],[[[-118.07732,55.37433],[-118.10266,55.37432],[-118.10263,55.40322],[-118.07731,55.40323],[-118.07731,55.37794],[-118.07732,55.37433]]],[[[-118.05165,55.4034],[-118.07699,55.40341],[-118.07699,55.43231],[-118.05165,55.43231],[-118.05165,55.40701],[-118.05165,55.4034]]],[[[-118.12861,55.43248],[-118.15398,55.43246],[-118.15398,55.46135],[-118.12861,55.46136],[-118.12861,55.43609],[-118.12861,55.43248]]],[[[-118.07731,55.40341],[-118.10263,55.4034],[-118.10263,55.4323],[-118.0773,55.43231],[-118.07731,55.40702],[-118.07731,55.40341]]],[[[-118.10295,55.43248],[-118.1283,55.43248],[-118.12829,55.46136],[-118.10294,55.46137],[-118.10295,55.43609],[-118.10295,55.43248]]],[[[-118.02601,55.4034],[-118.05134,55.4034],[-118.05133,55.43231],[-118.02602,55.43229],[-118.02601,55.40701],[-118.02601,55.4034]]],[[[-118.05165,55.43249],[-118.07699,55.43249],[-118.07697,55.46138],[-118.05165,55.46138],[-118.05165,55.4361],[-118.05165,55.43249]]],[[[-118.0773,55.43249],[-118.10263,55.43248],[-118.10262,55.46137],[-118.07729,55.46138],[-118.0773,55.4361],[-118.0773,55.43249]]],[[[-118.02602,55.43248],[-118.05133,55.43249],[-118.05133,55.46138],[-118.02605,55.46137],[-118.02602,55.43609],[-118.02602,55.43248]]],[[[-118.00046,55.40339],[-118.02569,55.4034],[-118.0257,55.4323],[-118.00047,55.43231],[-118.00046,55.40701],[-118.00046,55.40339]]],[[[-118.0257,55.43248],[-118.02573,55.46137],[-118.00049,55.46138],[-118.00047,55.43258],[-118.0257,55.43248]]],[[[-118.00046,55.38876],[-118.02568,55.38877],[-118.02569,55.40322],[-118.00046,55.40321],[-118.00046,55.39237],[-118.00046,55.38876]]]]}},{"type":"Feature","properties":{"c":"9924030155","o":"NEOLITHICA LTD.","e":""},"geometry":{"type":"MultiPolygon","coordinates":[[[[-118.2333,55.46155],[-118.25888,55.46155],[-118.25887,55.49044],[-118.23331,55.49045],[-118.2333,55.46516],[-118.2333,55.46155]]],[[[-118.18127,55.49062],[-118.18128,55.51954],[-118.15571,55.51953],[-118.1557,55.4907],[-118.18127,55.49062]]],[[[-118.20745,55.49063],[-118.23299,55.49063],[-118.23301,55.51954],[-118.20744,55.51954],[-118.20745,55.49424],[-118.20745,55.49063]]],[[[-118.20745,55.46155],[-118.23299,55.46155],[-118.23299,55.49045],[-118.20745,55.49045],[-118.20745,55.46516],[-118.20745,55.46155]]],[[[-118.20744,55.51972],[-118.23301,55.51972],[-118.23301,55.54863],[-118.20746,55.54863],[-118.20744,55.52333],[-118.20744,55.51972]]],[[[-118.18128,55.51972],[-118.18127,55.54862],[-118.15572,55.54861],[-118.15571,55.5198],[-118.18128,55.51972]]],[[[-118.18159,55.46154],[-118.20713,55.46155],[-118.20713,55.49045],[-118.18159,55.49044],[-118.18159,55.46515],[-118.18159,55.46154]]],[[[-118.25918,55.51971],[-118.28473,55.5197],[-118.28472,55.54862],[-118.25919,55.54863],[-118.25917,55.52333],[-118.25918,55.51971]]],[[[-118.25918,55.49062],[-118.28473,55.49062],[-118.28473,55.51951],[-118.25918,55.51953],[-118.25918,55.49424],[-118.25918,55.49062]]],[[[-118.18159,55.49062],[-118.20713,55.49063],[-118.20712,55.51954],[-118.1816,55.51954],[-118.18159,55.49423],[-118.18159,55.49062]]],[[[-118.23332,55.51972],[-118.25886,55.51971],[-118.25887,55.54863],[-118.23333,55.54863],[-118.23332,55.52334],[-118.23332,55.51972]]],[[[-118.1816,55.51972],[-118.20712,55.51972],[-118.20714,55.54863],[-118.18158,55.54862],[-118.1816,55.52333],[-118.1816,55.51972]]],[[[-118.28505,55.51969],[-118.31052,55.51968],[-118.31053,55.54858],[-118.28504,55.54862],[-118.28505,55.52331],[-118.28505,55.51969]]],[[[-118.28505,55.49062],[-118.31051,55.4906],[-118.31052,55.5195],[-118.28505,55.51951],[-118.28505,55.49424],[-118.28505,55.49062]]],[[[-118.28505,55.48683],[-118.29143,55.48682],[-118.29142,55.48321],[-118.28505,55.48321],[-118.28504,55.46154],[-118.31049,55.46152],[-118.31051,55.49042],[-118.28505,55.49044],[-118.28505,55.48683]]],[[[-118.1557,55.4832],[-118.15933,55.4832],[-118.16849,55.48228],[-118.16849,55.4796],[-118.1557,55.47959],[-118.15569,55.46153],[-118.18127,55.46154],[-118.18127,55.49044],[-118.1557,55.49043],[-118.1557,55.48682],[-118.1557,55.4832]]],[[[-118.2592,55.46155],[-118.28473,55.46154],[-118.28473,55.46876],[-118.27197,55.46876],[-118.27196,55.47599],[-118.28473,55.47599],[-118.28473,55.49044],[-118.25918,55.49044],[-118.25919,55.47238],[-118.2592,55.46155]]],[[[-118.23332,55.50509],[-118.24609,55.50508],[-118.24608,55.49063],[-118.25887,55.49062],[-118.25886,55.51953],[-118.23332,55.51954],[-118.23332,55.5087],[-118.23332,55.50509]]]]}},{"type":"Feature","properties":{"c":"9924030154","o":"NEOLITHICA LTD.","e":""},"geometry":{"type":"MultiPolygon","coordinates":[[[[-118.02641,55.46155],[-118.05199,55.46156],[-118.05197,55.49045],[-118.0264,55.49044],[-118.02641,55.46515],[-118.02641,55.46155]]],[[[-118.05231,55.46156],[-118.07783,55.46156],[-118.07784,55.49045],[-118.05229,55.49045],[-118.05231,55.46516],[-118.05231,55.46156]]],[[[-118.07815,55.46156],[-118.10354,55.4616],[-118.10354,55.49045],[-118.07816,55.49045],[-118.07815,55.46516],[-118.07815,55.46156]]],[[[-118.10402,55.4616],[-118.12937,55.46159],[-118.1294,55.49044],[-118.10402,55.49045],[-118.10402,55.46519],[-118.10402,55.4616]]],[[[-118.12985,55.46159],[-118.15521,55.46153],[-118.15522,55.49043],[-118.12988,55.49044],[-118.12986,55.46518],[-118.12985,55.46159]]],[[[-118.0264,55.49062],[-118.05197,55.49063],[-118.05195,55.51955],[-118.02639,55.51953],[-118.0264,55.49423],[-118.0264,55.49062]]],[[[-118.05229,55.49063],[-118.07784,55.49063],[-118.07783,55.51954],[-118.05227,55.51955],[-118.05229,55.49424],[-118.05229,55.49063]]],[[[-118.07816,55.49063],[-118.10354,55.49073],[-118.10353,55.51954],[-118.07815,55.51954],[-118.07816,55.49425],[-118.07816,55.49063]]],[[[-118.10402,55.49073],[-118.1294,55.49071],[-118.12942,55.51953],[-118.10401,55.51954],[-118.10402,55.49425],[-118.10402,55.49073]]],[[[-118.12988,55.49071],[-118.15523,55.4907],[-118.15523,55.51953],[-118.12989,55.51953],[-118.12988,55.49424],[-118.12988,55.49071]]],[[[-118.02639,55.51971],[-118.05195,55.51973],[-118.05177,55.54864],[-118.02638,55.54862],[-118.02639,55.53055],[-118.02639,55.51971]]],[[[-118.05227,55.51973],[-118.07783,55.51972],[-118.07766,55.54865],[-118.05225,55.54864],[-118.05226,55.53057],[-118.05227,55.51973]]],[[[-118.07815,55.51981],[-118.10353,55.51981],[-118.10358,55.54865],[-118.07814,55.54865],[-118.07815,55.52334],[-118.07815,55.51981]]],[[[-118.10401,55.51981],[-118.12942,55.51981],[-118.1294,55.54865],[-118.10406,55.54865],[-118.10401,55.52334],[-118.10401,55.51981]]],[[[-118.12989,55.51981],[-118.15523,55.5198],[-118.15524,55.54861],[-118.12988,55.54865],[-118.1299,55.52333],[-118.12989,55.51981]]]]}},{"type":"Feature","properties":{"c":"9326030136","o":"1080766 ALBERTA LTD.","e":""},"geometry":{"type":"MultiPolygon","coordinates":[[[[-118.00049,55.46156],[-118.02609,55.46155],[-118.02608,55.49044],[-118.0005,55.49047],[-118.00049,55.46518],[-118.00049,55.46156]]],[[[-118.02641,55.46155],[-118.05199,55.46156],[-118.05197,55.49045],[-118.0264,55.49044],[-118.02641,55.46515],[-118.02641,55.46155]]],[[[-118.05231,55.46156],[-118.07783,55.46156],[-118.07784,55.49045],[-118.05229,55.49045],[-118.05231,55.46516],[-118.05231,55.46156]]],[[[-118.07815,55.46156],[-118.10354,55.4616],[-118.10354,55.49045],[-118.07816,55.49045],[-118.07815,55.46516],[-118.07815,55.46156]]],[[[-118.10402,55.4616],[-118.12937,55.46159],[-118.1294,55.49044],[-118.10402,55.49045],[-118.10402,55.46519],[-118.10402,55.4616]]],[[[-118.12985,55.46159],[-118.15521,55.46153],[-118.15522,55.49043],[-118.12988,55.49044],[-118.12986,55.46518],[-118.12985,55.46159]]],[[[-118.15569,55.46153],[-118.18127,55.46154],[-118.18127,55.49044],[-118.1557,55.49043],[-118.15569,55.46514],[-118.15569,55.46153]]],[[[-118.18127,55.49062],[-118.18127,55.50508],[-118.15571,55.50507],[-118.1557,55.4907],[-118.18127,55.49062]]],[[[-118.0005,55.49065],[-118.02608,55.49062],[-118.02607,55.51953],[-118.00051,55.51956],[-118.0005,55.49426],[-118.0005,55.49065]]],[[[-118.0264,55.49062],[-118.05197,55.49063],[-118.05195,55.51955],[-118.02639,55.51953],[-118.0264,55.49423],[-118.0264,55.49062]]],[[[-118.05229,55.49063],[-118.07784,55.49063],[-118.07783,55.51954],[-118.05227,55.51955],[-118.05229,55.49424],[-118.05229,55.49063]]],[[[-118.07816,55.49063],[-118.10354,55.49073],[-118.10353,55.51954],[-118.07815,55.51954],[-118.07816,55.49425],[-118.07816,55.49063]]],[[[-118.10402,55.49073],[-118.1294,55.49071],[-118.12942,55.51953],[-118.10401,55.51954],[-118.10402,55.49425],[-118.10402,55.49073]]],[[[-118.12988,55.49071],[-118.15523,55.4907],[-118.15523,55.51953],[-118.12989,55.51953],[-118.12988,55.49424],[-118.12988,55.49071]]],[[[-118.00051,55.51983],[-118.02592,55.5198],[-118.02591,55.54862],[-118.00052,55.54864],[-118.00051,55.52335],[-118.00051,55.51983]]],[[[-118.02639,55.51971],[-118.05195,55.51973],[-118.05177,55.54864],[-118.02638,55.54862],[-118.02639,55.53055],[-118.02639,55.51971]]],[[[-118.05227,55.51973],[-118.07783,55.51972],[-118.07766,55.54865],[-118.05225,55.54864],[-118.05226,55.53057],[-118.05227,55.51973]]],[[[-118.07815,55.51981],[-118.10353,55.51981],[-118.10358,55.54865],[-118.07814,55.54865],[-118.07815,55.52334],[-118.07815,55.51981]]],[[[-118.104,55.53418],[-118.12942,55.53417],[-118.1294,55.54865],[-118.10406,55.54865],[-118.10402,55.53779],[-118.104,55.53418]]]]}},{"type":"Feature","properties":{"c":"9326030151","o":"HIGHWOOD ASSET MANAGEMENT LTD.","e":""},"geometry":{"type":"MultiPolygon","coordinates":[[[[-117.95868,55.49061],[-117.98421,55.49064],[-117.98422,55.51955],[-117.95869,55.51952],[-117.95868,55.49423],[-117.95868,55.49061]]],[[[-117.88114,55.4759],[-117.90668,55.47592],[-117.90671,55.49038],[-117.88114,55.49036],[-117.88114,55.47951],[-117.88114,55.4759]]],[[[-117.907,55.47592],[-117.93255,55.47594],[-117.93255,55.4904],[-117.90703,55.49038],[-117.90701,55.47954],[-117.907,55.47592]]],[[[-117.93287,55.47594],[-117.95836,55.47598],[-117.95836,55.49043],[-117.93287,55.4904],[-117.93287,55.47955],[-117.93287,55.47594]]],[[[-117.95868,55.47598],[-117.98421,55.47601],[-117.98421,55.49046],[-117.95868,55.49043],[-117.95868,55.47959],[-117.95868,55.47598]]],[[[-117.98453,55.47601],[-118.00018,55.47602],[-118.00018,55.49047],[-117.98453,55.49046],[-117.98453,55.47962],[-117.98453,55.47601]]],[[[-117.88114,55.49054],[-117.90671,55.49056],[-117.90671,55.49779],[-117.89393,55.49778],[-117.89393,55.505],[-117.90671,55.50502],[-117.9067,55.51947],[-117.88115,55.51945],[-117.88115,55.50138],[-117.88114,55.49054]]],[[[-117.90702,55.51224],[-117.91978,55.51226],[-117.91979,55.4978],[-117.90703,55.49779],[-117.90703,55.49056],[-117.93255,55.49058],[-117.93254,55.51949],[-117.90702,55.51947],[-117.90702,55.51586],[-117.90702,55.51224]]],[[[-117.93287,55.49058],[-117.95836,55.49061],[-117.95837,55.51952],[-117.93286,55.5195],[-117.93287,55.49419],[-117.93287,55.49058]]],[[[-117.98453,55.49064],[-118.00018,55.49065],[-118.00019,55.51956],[-117.98454,55.51955],[-117.98453,55.49426],[-117.98453,55.49064]]]]}},{"type":"Feature","properties":{"c":"9326040079","o":"HIGHWOOD ASSET MANAGEMENT LTD.","e":""},"geometry":{"type":"MultiPolygon","coordinates":[[[[-118.20745,55.49063],[-118.23299,55.49063],[-118.23301,55.51954],[-118.20744,55.51954],[-118.20745,55.49424],[-118.20745,55.49063]]],[[[-118.15428,55.38875],[-118.17961,55.38876],[-118.1796,55.4032],[-118.15429,55.4032],[-118.15428,55.39236],[-118.15428,55.38875]]],[[[-118.17991,55.37431],[-118.20523,55.37432],[-118.20524,55.40321],[-118.17992,55.4032],[-118.17991,55.37792],[-118.17991,55.37431]]],[[[-118.20555,55.37432],[-118.23087,55.37432],[-118.23088,55.40321],[-118.20555,55.40321],[-118.20555,55.37793],[-118.20555,55.37432]]],[[[-118.23119,55.37432],[-118.25652,55.37431],[-118.25651,55.4032],[-118.23119,55.40321],[-118.23119,55.37793],[-118.23119,55.37432]]],[[[-118.23119,55.40339],[-118.25651,55.40338],[-118.25651,55.41784],[-118.2312,55.41784],[-118.23119,55.40701],[-118.23119,55.40339]]],[[[-118.15429,55.40338],[-118.1796,55.40338],[-118.1796,55.43228],[-118.15429,55.43227],[-118.15429,55.40699],[-118.15429,55.40338]]],[[[-118.17992,55.40338],[-118.20524,55.40339],[-118.20524,55.43229],[-118.17992,55.43228],[-118.17992,55.40699],[-118.17992,55.40338]]],[[[-118.20555,55.40339],[-118.23088,55.40339],[-118.23088,55.43229],[-118.20556,55.43229],[-118.20556,55.407],[-118.20555,55.40339]]],[[[-118.15429,55.43245],[-118.1796,55.43246],[-118.1796,55.46136],[-118.1543,55.46135],[-118.15429,55.43607],[-118.15429,55.43245]]],[[[-118.17992,55.43246],[-118.20524,55.43247],[-118.20525,55.46137],[-118.17992,55.46136],[-118.17992,55.43607],[-118.17992,55.43246]]],[[[-118.20556,55.43247],[-118.23088,55.43247],[-118.23089,55.46137],[-118.20557,55.46137],[-118.20556,55.43609],[-118.20556,55.43247]]],[[[-118.2312,55.44692],[-118.25652,55.44691],[-118.25652,55.46137],[-118.2312,55.46137],[-118.2312,55.45054],[-118.2312,55.44692]]],[[[-118.18159,55.46154],[-118.20713,55.46155],[-118.20713,55.49045],[-118.18159,55.49044],[-118.18159,55.46515],[-118.18159,55.46154]]],[[[-118.20745,55.46155],[-118.23299,55.46155],[-118.23299,55.49045],[-118.20745,55.49045],[-118.20745,55.46516],[-118.20745,55.46155]]],[[[-118.18159,55.49062],[-118.20713,55.49063],[-118.20712,55.51954],[-118.1816,55.51954],[-118.18159,55.49423],[-118.18159,55.49062]]]]}}]}