{"type":"FeatureCollection","features":[{"type":"Feature","properties":{"c":"842625","o":"MCIVER, SHAWN","e":"2027-01-08Z"},"geometry":{"type":"Polygon","coordinates":[[[-118.37614,49.03323],[-118.36989,49.03323],[-118.36989,49.02907],[-118.37614,49.02907],[-118.38239,49.02907],[-118.38864,49.02906],[-118.38864,49.03323],[-118.38239,49.03323],[-118.37614,49.03323]]]}},{"type":"Feature","properties":{"c":"216383","o":"REDMOND, MARIA IVANA","e":"2027-10-19Z"},"geometry":{"type":"Polygon","coordinates":[[[-118.44453,49.16463],[-118.44701,49.16841],[-118.44593,49.16871],[-118.44535,49.16888],[-118.44511,49.16894],[-118.44499,49.16878],[-118.44476,49.16848],[-118.44352,49.16684],[-118.44353,49.16683],[-118.44513,49.16563],[-118.44376,49.16485],[-118.44399,49.16478],[-118.44453,49.16463]]]}},{"type":"Feature","properties":{"c":"1061356","o":"KG EXPLORATION (CANADA) INC.","e":"2031-08-01Z"},"geometry":{"type":"Polygon","coordinates":[[[-118.46989,49.16657],[-118.46989,49.17073],[-118.46364,49.17073],[-118.46364,49.16657],[-118.46989,49.16657]]]}},{"type":"Feature","properties":{"c":"1065912","o":"KG EXPLORATION (CANADA) INC.","e":"2031-08-01Z"},"geometry":{"type":"Polygon","coordinates":[[[-118.46364,49.14573],[-118.46364,49.1499],[-118.45739,49.1499],[-118.45739,49.14573],[-118.46364,49.14573]]]}},{"type":"Feature","properties":{"c":"1068192","o":"KG EXPLORATION (CANADA) INC.","e":"2031-08-01Z"},"geometry":{"type":"Polygon","coordinates":[[[-118.46989,49.14157],[-118.46989,49.14573],[-118.46364,49.14573],[-118.46364,49.14156],[-118.46989,49.14157]]]}},{"type":"Feature","properties":{"c":"1074667","o":"LEWIS, THOMAS MICHAEL","e":"2027-09-01Z"},"geometry":{"type":"Polygon","coordinates":[[[-118.01362,49.08741],[-118.00737,49.08741],[-118.00737,49.08324],[-118.00737,49.07907],[-118.01362,49.07907],[-118.01362,49.08324],[-118.01362,49.08741]]]}},{"type":"Feature","properties":{"c":"1074669","o":"LEWIS, THOMAS MICHAEL","e":"2027-09-01Z"},"geometry":{"type":"Polygon","coordinates":[[[-118.00737,49.08741],[-118.00112,49.08741],[-118.00112,49.08324],[-118.00112,49.07907],[-118.00737,49.07907],[-118.00737,49.08324],[-118.00737,49.08741]]]}},{"type":"Feature","properties":{"c":"1061903","o":"KG EXPLORATION (CANADA) INC.","e":"2031-08-01Z"},"geometry":{"type":"Polygon","coordinates":[[[-118.46989,49.14573],[-118.46989,49.1499],[-118.46364,49.1499],[-118.46364,49.14573],[-118.46989,49.14573]]]}},{"type":"Feature","properties":{"c":"1059725","o":"BELMONT RESOURCES INC","e":"2032-01-31Z"},"geometry":{"type":"Polygon","coordinates":[[[-118.43239,49.1999],[-118.42614,49.1999],[-118.41989,49.1999],[-118.41989,49.19573],[-118.41364,49.19573],[-118.40739,49.19573],[-118.40739,49.19157],[-118.41364,49.19157],[-118.41989,49.19157],[-118.42614,49.19157],[-118.43239,49.19157],[-118.43239,49.19573],[-118.43239,49.1999]]]}},{"type":"Feature","properties":{"c":"1059727","o":"BELMONT RESOURCES INC","e":"2032-01-31Z"},"geometry":{"type":"Polygon","coordinates":[[[-118.43239,49.19157],[-118.42614,49.19157],[-118.41989,49.19157],[-118.41364,49.19157],[-118.40739,49.19157],[-118.40739,49.1874],[-118.41364,49.1874],[-118.41989,49.1874],[-118.41989,49.18323],[-118.42614,49.18323],[-118.43239,49.18323],[-118.43239,49.1874],[-118.43239,49.19157]]]}},{"type":"Feature","properties":{"c":"1067482","o":"BELMONT RESOURCES INC","e":"2032-01-31Z"},"geometry":{"type":"Polygon","coordinates":[[[-118.43864,49.19157],[-118.43239,49.19157],[-118.43239,49.1874],[-118.43239,49.18323],[-118.43864,49.18323],[-118.43864,49.1874],[-118.43864,49.19157]]]}},{"type":"Feature","properties":{"c":"1096769","o":"STREICHERT, TANIA LYNN","e":"2031-10-10Z"},"geometry":{"type":"Polygon","coordinates":[[[-118.08864,49.39991],[-118.08864,49.40408],[-118.08239,49.40408],[-118.08239,49.39991],[-118.08864,49.39991]]]}},{"type":"Feature","properties":{"c":"1066698","o":"ORIGEN RESOURCES INC.","e":"2030-12-19Z"},"geometry":{"type":"Polygon","coordinates":[[[-118.41364,49.2249],[-118.40739,49.2249],[-118.40739,49.22907],[-118.40739,49.23323],[-118.40114,49.23323],[-118.39489,49.23323],[-118.38864,49.23323],[-118.38239,49.23323],[-118.38239,49.22907],[-118.38239,49.2249],[-118.38239,49.22073],[-118.38239,49.21657],[-118.38864,49.21657],[-118.38864,49.2124],[-118.39489,49.2124],[-118.39489,49.20823],[-118.40114,49.20823],[-118.40739,49.20823],[-118.40739,49.2124],[-118.40739,49.21657],[-118.41364,49.21657],[-118.41364,49.22073],[-118.41364,49.2249]]]}},{"type":"Feature","properties":{"c":"753242","o":"QUADRA COASTAL RESOURCES LTD.","e":"2028-11-23Z"},"geometry":{"type":"Polygon","coordinates":[[[-118.48239,49.20407],[-118.47614,49.20407],[-118.46989,49.20407],[-118.46364,49.20407],[-118.45739,49.20407],[-118.45739,49.1999],[-118.45739,49.19573],[-118.45739,49.19157],[-118.45739,49.1874],[-118.46364,49.1874],[-118.46989,49.1874],[-118.46989,49.19157],[-118.47614,49.19157],[-118.48239,49.19157],[-118.48239,49.19573],[-118.48239,49.1999],[-118.48239,49.20407]]]}},{"type":"Feature","properties":{"c":"758002","o":"QUADRA COASTAL RESOURCES LTD.","e":"2028-11-23Z"},"geometry":{"type":"Polygon","coordinates":[[[-118.46989,49.20823],[-118.46364,49.20823],[-118.45739,49.20823],[-118.45114,49.20823],[-118.44489,49.20823],[-118.43864,49.20823],[-118.43864,49.20407],[-118.44489,49.20407],[-118.44489,49.1999],[-118.44489,49.19573],[-118.44489,49.19157],[-118.44489,49.1874],[-118.44489,49.18323],[-118.45114,49.18323],[-118.45114,49.17907],[-118.45739,49.17907],[-118.46364,49.17907],[-118.46364,49.18323],[-118.46364,49.1874],[-118.45739,49.1874],[-118.45739,49.19157],[-118.45739,49.19573],[-118.45739,49.1999],[-118.45739,49.20407],[-118.46364,49.20407],[-118.46989,49.20407],[-118.47614,49.20407],[-118.48239,49.20407],[-118.48239,49.20823],[-118.47614,49.20823],[-118.46989,49.20823]]]}},{"type":"Feature","properties":{"c":"759542","o":"QUADRA COASTAL RESOURCES LTD.","e":"2028-11-22Z"},"geometry":{"type":"Polygon","coordinates":[[[-118.49489,49.19157],[-118.48864,49.19157],[-118.48239,49.19157],[-118.47614,49.19157],[-118.46989,49.19157],[-118.46989,49.1874],[-118.46364,49.1874],[-118.46364,49.18323],[-118.46364,49.17907],[-118.46364,49.1749],[-118.46364,49.17073],[-118.46989,49.17073],[-118.46989,49.16657],[-118.47614,49.16657],[-118.48239,49.16657],[-118.48864,49.16657],[-118.48864,49.17073],[-118.48864,49.1749],[-118.48864,49.17907],[-118.48864,49.18323],[-118.49489,49.18323],[-118.49489,49.1874],[-118.49489,49.19157]]]}},{"type":"Feature","properties":{"c":"1071611","o":"ORIGEN RESOURCES INC.","e":"2030-12-19Z"},"geometry":{"type":"Polygon","coordinates":[[[-118.41364,49.2374],[-118.40739,49.2374],[-118.40114,49.2374],[-118.39489,49.2374],[-118.38864,49.2374],[-118.38239,49.2374],[-118.38239,49.23323],[-118.38864,49.23323],[-118.39489,49.23323],[-118.40114,49.23323],[-118.40739,49.23323],[-118.40739,49.22907],[-118.40739,49.2249],[-118.41364,49.2249],[-118.41364,49.22907],[-118.41364,49.23323],[-118.41364,49.2374]]]}},{"type":"Feature","properties":{"c":"1071614","o":"ORIGEN RESOURCES INC.","e":"2030-12-19Z"},"geometry":{"type":"Polygon","coordinates":[[[-118.41364,49.21657],[-118.40739,49.21657],[-118.40739,49.2124],[-118.40739,49.20823],[-118.40114,49.20823],[-118.39489,49.20823],[-118.39489,49.20407],[-118.39489,49.1999],[-118.40114,49.1999],[-118.40739,49.1999],[-118.41364,49.1999],[-118.41364,49.20407],[-118.41364,49.20823],[-118.41364,49.2124],[-118.41364,49.21657]]]}},{"type":"Feature","properties":{"c":"1061109","o":"KG EXPLORATION (CANADA) INC.","e":"2031-08-01Z"},"geometry":{"type":"Polygon","coordinates":[[[-118.46364,49.14573],[-118.45739,49.14573],[-118.45739,49.14157],[-118.45739,49.1374],[-118.46364,49.1374],[-118.46989,49.1374],[-118.46989,49.14157],[-118.46364,49.14156],[-118.46364,49.14573]]]}},{"type":"Feature","properties":{"c":"1061773","o":"KG EXPLORATION (CANADA) INC.","e":"2031-08-01Z"},"geometry":{"type":"Polygon","coordinates":[[[-118.45114,49.15823],[-118.44489,49.15823],[-118.43864,49.15823],[-118.43239,49.15823],[-118.43239,49.15407],[-118.43239,49.1499],[-118.43239,49.14573],[-118.43864,49.14573],[-118.43864,49.1499],[-118.43864,49.15407],[-118.44489,49.15407],[-118.44489,49.1499],[-118.44489,49.14573],[-118.45114,49.14573],[-118.45114,49.1499],[-118.45114,49.15407],[-118.45114,49.15823]]]}},{"type":"Feature","properties":{"c":"1061774","o":"KG EXPLORATION (CANADA) INC.","e":"2031-08-01Z"},"geometry":{"type":"Polygon","coordinates":[[[-118.45114,49.17073],[-118.44489,49.17073],[-118.44489,49.16657],[-118.43864,49.16657],[-118.43864,49.1624],[-118.43239,49.1624],[-118.43239,49.16657],[-118.42614,49.16657],[-118.42614,49.17073],[-118.42614,49.1749],[-118.42614,49.17907],[-118.41989,49.17907],[-118.41989,49.18323],[-118.41989,49.1874],[-118.41364,49.1874],[-118.40739,49.1874],[-118.40739,49.19157],[-118.40739,49.19573],[-118.41364,49.19573],[-118.41989,49.19573],[-118.41989,49.1999],[-118.42614,49.1999],[-118.42614,49.20407],[-118.41989,49.20407],[-118.41364,49.20407],[-118.41364,49.1999],[-118.40739,49.1999],[-118.40114,49.1999],[-118.40114,49.19573],[-118.40114,49.19157],[-118.40114,49.1874],[-118.40114,49.18323],[-118.40114,49.17907],[-118.40739,49.17907],[-118.40739,49.1749],[-118.40739,49.17073],[-118.40739,49.16657],[-118.41364,49.16657],[-118.41364,49.1624],[-118.41989,49.1624],[-118.41989,49.15823],[-118.41989,49.15407],[-118.41989,49.1499],[-118.42614,49.1499],[-118.42614,49.14573],[-118.43239,49.14573],[-118.43239,49.1499],[-118.43239,49.15407],[-118.43239,49.15823],[-118.43864,49.15823],[-118.44489,49.15823],[-118.45114,49.15823],[-118.45114,49.1624],[-118.45114,49.16657],[-118.45739,49.16657],[-118.46364,49.16657],[-118.46364,49.17073],[-118.45739,49.17073],[-118.45114,49.17073]]]}},{"type":"Feature","properties":{"c":"1055537","o":"XIMEN MINING CORP","e":"2029-09-10Z"},"geometry":{"type":"Polygon","coordinates":[[[-118.57615,49.19573],[-118.5699,49.19573],[-118.56365,49.19573],[-118.5574,49.19573],[-118.55115,49.19573],[-118.5449,49.19573],[-118.53865,49.19573],[-118.53239,49.19573],[-118.52614,49.19573],[-118.51989,49.19573],[-118.51364,49.19573],[-118.51364,49.19157],[-118.50739,49.19157],[-118.50739,49.1874],[-118.50114,49.1874],[-118.49489,49.1874],[-118.49489,49.18323],[-118.48864,49.18323],[-118.48864,49.17907],[-118.48864,49.1749],[-118.48864,49.17073],[-118.48864,49.16657],[-118.49489,49.16657],[-118.50114,49.16656],[-118.50739,49.16657],[-118.51364,49.16656],[-118.51364,49.17073],[-118.51364,49.1749],[-118.51364,49.17906],[-118.51364,49.18323],[-118.51989,49.18323],[-118.51989,49.1874],[-118.52614,49.1874],[-118.53239,49.1874],[-118.53865,49.1874],[-118.5449,49.1874],[-118.55115,49.1874],[-118.5574,49.1874],[-118.56365,49.1874],[-118.5699,49.1874],[-118.57615,49.1874],[-118.57615,49.19156],[-118.57615,49.19573]]]}},{"type":"Feature","properties":{"c":"1059775","o":"KG EXPLORATION (CANADA) INC.","e":"2031-08-01Z"},"geometry":{"type":"Polygon","coordinates":[[[-118.44489,49.18323],[-118.43864,49.18323],[-118.43864,49.17907],[-118.43239,49.17907],[-118.43239,49.1749],[-118.43239,49.17073],[-118.43864,49.17073],[-118.44489,49.17073],[-118.45114,49.17073],[-118.45114,49.1749],[-118.44489,49.1749],[-118.44489,49.17907],[-118.44489,49.18323]]]}},{"type":"Feature","properties":{"c":"1059733","o":"KG EXPLORATION (CANADA) INC.","e":"2031-08-01Z"},"geometry":{"type":"Polygon","coordinates":[[[-118.43864,49.18323],[-118.43239,49.18323],[-118.42614,49.18323],[-118.41989,49.18323],[-118.41989,49.17907],[-118.42614,49.17907],[-118.42614,49.1749],[-118.42614,49.17073],[-118.42614,49.16657],[-118.43239,49.16657],[-118.43239,49.17073],[-118.43239,49.1749],[-118.43239,49.17907],[-118.43864,49.17907],[-118.43864,49.18323]]]}},{"type":"Feature","properties":{"c":"1047601","o":"KG EXPLORATION (CANADA) INC.","e":"2031-08-01Z"},"geometry":{"type":"Polygon","coordinates":[[[-118.49489,49.16657],[-118.48864,49.16657],[-118.48239,49.16657],[-118.47614,49.16657],[-118.46989,49.16657],[-118.46364,49.16657],[-118.45739,49.16657],[-118.45114,49.16657],[-118.45114,49.1624],[-118.45114,49.15823],[-118.45114,49.15407],[-118.45739,49.15407],[-118.45739,49.1499],[-118.46364,49.1499],[-118.46989,49.1499],[-118.47614,49.1499],[-118.47614,49.14573],[-118.48239,49.14573],[-118.48864,49.14573],[-118.48864,49.1499],[-118.49489,49.1499],[-118.49489,49.15406],[-118.49489,49.15823],[-118.49489,49.1624],[-118.49489,49.16657]]]}},{"type":"Feature","properties":{"c":"510531","o":"KG EXPLORATION (CANADA) INC.","e":"2031-08-01Z"},"geometry":{"type":"Polygon","coordinates":[[[-118.49489,49.15823],[-118.49489,49.15406],[-118.49489,49.1499],[-118.48864,49.1499],[-118.48864,49.14573],[-118.48864,49.14156],[-118.48864,49.1374],[-118.49489,49.1374],[-118.50114,49.1374],[-118.50114,49.14156],[-118.50114,49.14573],[-118.50114,49.1499],[-118.50114,49.15406],[-118.50739,49.15406],[-118.50739,49.15823],[-118.50114,49.15823],[-118.49489,49.15823]]]}},{"type":"Feature","properties":{"c":"510534","o":"KG EXPLORATION (CANADA) INC.","e":"2031-08-01Z"},"geometry":{"type":"Polygon","coordinates":[[[-118.48864,49.14573],[-118.48239,49.14573],[-118.47614,49.14573],[-118.47614,49.1499],[-118.46989,49.1499],[-118.46989,49.14573],[-118.46989,49.14157],[-118.46989,49.1374],[-118.47614,49.1374],[-118.48239,49.1374],[-118.48864,49.1374],[-118.48864,49.14156],[-118.48864,49.14573]]]}},{"type":"Feature","properties":{"c":"522325","o":"KG EXPLORATION (CANADA) INC.","e":"2031-08-01Z"},"geometry":{"type":"Polygon","coordinates":[[[-118.50739,49.14573],[-118.50114,49.14573],[-118.50114,49.14156],[-118.50114,49.1374],[-118.49489,49.1374],[-118.48864,49.1374],[-118.48239,49.1374],[-118.47614,49.1374],[-118.46989,49.1374],[-118.46364,49.1374],[-118.46364,49.13323],[-118.46364,49.12906],[-118.46364,49.1249],[-118.46989,49.1249],[-118.47614,49.1249],[-118.48239,49.1249],[-118.48864,49.1249],[-118.49489,49.1249],[-118.50114,49.1249],[-118.50114,49.12906],[-118.50114,49.13323],[-118.50739,49.13323],[-118.50739,49.1374],[-118.50739,49.14156],[-118.50739,49.14573]]]}},{"type":"Feature","properties":{"c":"522327","o":"KG EXPLORATION (CANADA) INC.","e":"2031-08-01Z"},"geometry":{"type":"Polygon","coordinates":[[[-118.48864,49.1249],[-118.48239,49.1249],[-118.47614,49.1249],[-118.46989,49.1249],[-118.46364,49.1249],[-118.46364,49.12073],[-118.46989,49.12073],[-118.47614,49.12073],[-118.48239,49.12073],[-118.48864,49.12073],[-118.49489,49.12073],[-118.50114,49.12073],[-118.50114,49.1249],[-118.49489,49.1249],[-118.48864,49.1249]]]}},{"type":"Feature","properties":{"c":"526815","o":"KG EXPLORATION (CANADA) INC.","e":"2031-08-01Z"},"geometry":{"type":"Polygon","coordinates":[[[-118.50739,49.16657],[-118.50114,49.16656],[-118.49489,49.16657],[-118.49489,49.1624],[-118.49489,49.15823],[-118.50114,49.15823],[-118.50739,49.15823],[-118.50739,49.1624],[-118.50739,49.16657]]]}},{"type":"Feature","properties":{"c":"1093802","o":"HARSHENIN, DARREN GEORGE","e":"2033-03-14Z"},"geometry":{"type":"Polygon","coordinates":[[[-118.46364,49.30823],[-118.46364,49.3124],[-118.45739,49.3124],[-118.45739,49.30823],[-118.46364,49.30823]]]}},{"type":"Feature","properties":{"c":"1089044","o":"YORK, GERALD REID","e":"2027-01-14Z"},"geometry":{"type":"Polygon","coordinates":[[[-118.02613,49.21241],[-118.01988,49.21241],[-118.01363,49.21241],[-118.00738,49.21241],[-118.00113,49.21241],[-118.00113,49.20825],[-118.00113,49.20408],[-118.00113,49.19991],[-118.00113,49.19575],[-118.00113,49.19158],[-118.00112,49.18741],[-118.00738,49.18741],[-118.01363,49.18741],[-118.01988,49.18741],[-118.02613,49.18741],[-118.02613,49.19158],[-118.02613,49.19575],[-118.02613,49.19991],[-118.02613,49.20408],[-118.02613,49.20825],[-118.02613,49.21241]]]}},{"type":"Feature","properties":{"c":"1098192","o":"HARSHENIN, DARREN GEORGE","e":"2032-10-31Z"},"geometry":{"type":"Polygon","coordinates":[[[-118.44489,49.33323],[-118.44489,49.3374],[-118.43864,49.3374],[-118.43864,49.33323],[-118.44489,49.33323]]]}},{"type":"Feature","properties":{"c":"1081751","o":"HARSHENIN, DARREN GEORGE","e":"2027-09-30Z"},"geometry":{"type":"Polygon","coordinates":[[[-118.46364,49.30823],[-118.45739,49.30823],[-118.45739,49.30407],[-118.45739,49.2999],[-118.46364,49.2999],[-118.46364,49.30407],[-118.46364,49.30823]]]}},{"type":"Feature","properties":{"c":"1098076","o":"ROBAK, CHRISTOPHER","e":"2034-10-11Z"},"geometry":{"type":"Polygon","coordinates":[[[-118.48239,49.2624],[-118.48239,49.25823],[-118.48864,49.25823],[-118.49489,49.25823],[-118.49489,49.2624],[-118.48864,49.2624],[-118.48239,49.2624]]]}},{"type":"Feature","properties":{"c":"1098079","o":"ROBAK, CHRISTOPHER","e":"2034-10-11Z"},"geometry":{"type":"Polygon","coordinates":[[[-118.46989,49.2624],[-118.46989,49.25823],[-118.47614,49.25823],[-118.48239,49.25823],[-118.48239,49.2624],[-118.47614,49.2624],[-118.46989,49.2624]]]}},{"type":"Feature","properties":{"c":"1082110","o":"HARSHENIN, DARREN GEORGE","e":"2027-09-30Z"},"geometry":{"type":"Polygon","coordinates":[[[-118.45739,49.3124],[-118.45114,49.3124],[-118.45114,49.30823],[-118.45114,49.30407],[-118.45739,49.30407],[-118.45739,49.30823],[-118.45739,49.3124]]]}},{"type":"Feature","properties":{"c":"1089386","o":"XIMEN MINING CORP","e":"2030-11-20Z"},"geometry":{"type":"Polygon","coordinates":[[[-118.43239,49.17073],[-118.43239,49.16657],[-118.43239,49.1624],[-118.43864,49.1624],[-118.43864,49.16657],[-118.44489,49.16657],[-118.44489,49.17073],[-118.43864,49.17073],[-118.43239,49.17073]]]}},{"type":"Feature","properties":{"c":"1081099","o":"XIMEN MINING CORP","e":"2030-05-10Z"},"geometry":{"type":"Polygon","coordinates":[[[-118.50114,49.0374],[-118.49489,49.0374],[-118.48864,49.0374],[-118.48864,49.03323],[-118.48864,49.02906],[-118.49489,49.02906],[-118.50114,49.02906],[-118.50114,49.03323],[-118.50114,49.0374]]]}},{"type":"Feature","properties":{"c":"1107615","o":"RIVERSIDE RESOURCES (BC) INC.","e":"2030-09-20Z"},"geometry":{"type":"Polygon","coordinates":[[[-118.06364,49.48325],[-118.05739,49.48325],[-118.05114,49.48325],[-118.04489,49.48325],[-118.03864,49.48325],[-118.03864,49.47908],[-118.03864,49.47492],[-118.03864,49.47075],[-118.03864,49.46658],[-118.03864,49.46242],[-118.03864,49.45825],[-118.04489,49.45825],[-118.05114,49.45825],[-118.05739,49.45825],[-118.06364,49.45825],[-118.06364,49.46242],[-118.06364,49.46658],[-118.06364,49.47075],[-118.06364,49.47492],[-118.06364,49.47908],[-118.06364,49.48325]]]}},{"type":"Feature","properties":{"c":"1110209","o":"RIVERSIDE RESOURCES (BC) INC.","e":"2030-09-20Z"},"geometry":{"type":"Polygon","coordinates":[[[-118.03864,49.47908],[-118.03239,49.47908],[-118.02614,49.47908],[-118.01988,49.47908],[-118.01363,49.47908],[-118.00738,49.47909],[-118.00738,49.47492],[-118.00738,49.47075],[-118.00738,49.46658],[-118.00738,49.46242],[-118.00738,49.45825],[-118.01363,49.45825],[-118.01988,49.45825],[-118.02613,49.45825],[-118.03239,49.45825],[-118.03864,49.45825],[-118.03864,49.46242],[-118.03864,49.46658],[-118.03864,49.47075],[-118.03864,49.47492],[-118.03864,49.47908]]]}},{"type":"Feature","properties":{"c":"1107527","o":"RIVERSIDE RESOURCES (BC) INC.","e":"2030-09-20Z"},"geometry":{"type":"Polygon","coordinates":[[[-118.05114,49.45825],[-118.04489,49.45825],[-118.03864,49.45825],[-118.03239,49.45825],[-118.03239,49.45408],[-118.03239,49.44992],[-118.03239,49.44575],[-118.03239,49.44158],[-118.03239,49.43742],[-118.03239,49.43325],[-118.03239,49.42908],[-118.02613,49.42908],[-118.01988,49.42908],[-118.01363,49.42908],[-118.00738,49.42908],[-118.00738,49.42492],[-118.01363,49.42492],[-118.01988,49.42492],[-118.02613,49.42492],[-118.03239,49.42492],[-118.03864,49.42492],[-118.04489,49.42492],[-118.05114,49.42491],[-118.05114,49.42908],[-118.05114,49.43325],[-118.05114,49.43742],[-118.05114,49.44158],[-118.05114,49.44575],[-118.05114,49.44992],[-118.05114,49.45408],[-118.05114,49.45825]]]}},{"type":"Feature","properties":{"c":"1138445","o":"ORIGEN RESOURCES INC.","e":"2026-10-17Z"},"geometry":{"type":"Polygon","coordinates":[[[-118.42614,49.5124],[-118.41989,49.5124],[-118.41364,49.5124],[-118.40739,49.5124],[-118.40114,49.5124],[-118.39489,49.5124],[-118.38864,49.5124],[-118.38239,49.5124],[-118.37614,49.5124],[-118.36989,49.5124],[-118.36364,49.5124],[-118.36364,49.50824],[-118.36364,49.50407],[-118.36364,49.4999],[-118.36364,49.49574],[-118.36364,49.49157],[-118.36364,49.4874],[-118.36364,49.48324],[-118.36364,49.47907],[-118.36364,49.4749],[-118.36364,49.47074],[-118.36364,49.46657],[-118.36364,49.4624],[-118.36989,49.4624],[-118.37614,49.4624],[-118.38239,49.4624],[-118.38864,49.4624],[-118.39489,49.4624],[-118.40114,49.4624],[-118.40114,49.46657],[-118.40114,49.47073],[-118.40739,49.47073],[-118.41364,49.47073],[-118.41989,49.47073],[-118.42614,49.47073],[-118.42614,49.4749],[-118.42614,49.47907],[-118.42614,49.48323],[-118.42614,49.4874],[-118.42614,49.49157],[-118.42614,49.49573],[-118.42614,49.4999],[-118.42614,49.50407],[-118.42614,49.50823],[-118.42614,49.5124]]]}},{"type":"Feature","properties":{"c":"1125869","o":"WRIGHT, MATT","e":"2027-04-08Z"},"geometry":{"type":"Polygon","coordinates":[[[-118.10738,49.19158],[-118.10113,49.19158],[-118.09488,49.19158],[-118.08863,49.19158],[-118.08863,49.18741],[-118.08238,49.18741],[-118.08238,49.18324],[-118.08238,49.17908],[-118.08863,49.17908],[-118.09488,49.17908],[-118.09488,49.17491],[-118.10113,49.17491],[-118.10113,49.17074],[-118.10738,49.17074],[-118.10738,49.17491],[-118.11363,49.17491],[-118.11363,49.17908],[-118.10738,49.17908],[-118.10738,49.18324],[-118.10738,49.18741],[-118.10738,49.19158]]]}},{"type":"Feature","properties":{"c":"1125877","o":"WRIGHT, MATT","e":"2027-04-08Z"},"geometry":{"type":"Polygon","coordinates":[[[-118.10113,49.19574],[-118.10113,49.19158],[-118.10738,49.19158],[-118.11363,49.19158],[-118.11363,49.19574],[-118.10738,49.19574],[-118.10113,49.19574]]]}},{"type":"Feature","properties":{"c":"1106637","o":"RIVERSIDE RESOURCES (BC) INC.","e":"2030-09-20Z"},"geometry":{"type":"Polygon","coordinates":[[[-118.01988,49.45825],[-118.01363,49.45825],[-118.00738,49.45825],[-118.00738,49.45408],[-118.01363,49.45408],[-118.01988,49.45408],[-118.02613,49.45408],[-118.03239,49.45408],[-118.03239,49.45825],[-118.02613,49.45825],[-118.01988,49.45825]]]}},{"type":"Feature","properties":{"c":"1106200","o":"RIVERSIDE RESOURCES (BC) INC.","e":"2030-09-20Z"},"geometry":{"type":"Polygon","coordinates":[[[-118.03239,49.45408],[-118.02613,49.45408],[-118.01988,49.45408],[-118.01363,49.45408],[-118.00738,49.45408],[-118.00738,49.44992],[-118.00738,49.44575],[-118.00738,49.44158],[-118.00738,49.43742],[-118.00738,49.43325],[-118.00738,49.42908],[-118.01363,49.42908],[-118.01988,49.42908],[-118.02613,49.42908],[-118.03239,49.42908],[-118.03239,49.43325],[-118.03239,49.43742],[-118.03239,49.44158],[-118.03239,49.44575],[-118.03239,49.44992],[-118.03239,49.45408]]]}},{"type":"Feature","properties":{"c":"1140040","o":"LANGILLE, MICHEAL SCOTT","e":"2027-10-06Z"},"geometry":{"type":"Polygon","coordinates":[[[-118.10114,49.40825],[-118.10114,49.41241],[-118.09489,49.41241],[-118.09489,49.40825],[-118.10114,49.40825]]]}},{"type":"Feature","properties":{"c":"1125655","o":"YORK, GERALD REID","e":"2029-12-16Z"},"geometry":{"type":"Polygon","coordinates":[[[-118.00113,49.19575],[-118.00113,49.19991],[-117.99488,49.19991],[-117.99488,49.19575],[-118.00113,49.19575]]]}},{"type":"Feature","properties":{"c":"1132691","o":"LEWIS, THOMAS MICHAEL","e":"2027-05-01Z"},"geometry":{"type":"Polygon","coordinates":[[[-118.45739,49.28323],[-118.45114,49.28323],[-118.44489,49.28323],[-118.43864,49.28323],[-118.43239,49.28323],[-118.42614,49.28323],[-118.41989,49.28323],[-118.41364,49.28323],[-118.40739,49.28323],[-118.40114,49.28323],[-118.40114,49.27907],[-118.39489,49.27907],[-118.39489,49.2749],[-118.39489,49.27073],[-118.40114,49.27073],[-118.40114,49.26657],[-118.40114,49.2624],[-118.40739,49.2624],[-118.40739,49.25823],[-118.40739,49.25407],[-118.41364,49.25407],[-118.41989,49.25407],[-118.42614,49.25407],[-118.43239,49.25407],[-118.43864,49.25407],[-118.43864,49.25823],[-118.44489,49.25823],[-118.45114,49.25823],[-118.45739,49.25823],[-118.46364,49.25823],[-118.46364,49.2624],[-118.45739,49.2624],[-118.45114,49.2624],[-118.45114,49.26657],[-118.45114,49.27073],[-118.45114,49.2749],[-118.45739,49.2749],[-118.45739,49.27907],[-118.45739,49.28323]]]}},{"type":"Feature","properties":{"c":"1136305","o":"NORN, BYRON FRANK","e":"2027-07-22Z"},"geometry":{"type":"Polygon","coordinates":[[[-118.14489,49.36241],[-118.13864,49.36241],[-118.13239,49.36241],[-118.12614,49.36241],[-118.12614,49.35824],[-118.12614,49.35408],[-118.13239,49.35408],[-118.13864,49.35408],[-118.14489,49.35408],[-118.14489,49.35824],[-118.14489,49.36241]]]}},{"type":"Feature","properties":{"c":"1136306","o":"NORN, BYRON FRANK","e":"2027-07-22Z"},"geometry":{"type":"Polygon","coordinates":[[[-118.13239,49.36658],[-118.12614,49.36658],[-118.11989,49.36658],[-118.11989,49.36241],[-118.11989,49.35824],[-118.12614,49.35824],[-118.12614,49.36241],[-118.13239,49.36241],[-118.13239,49.36658]]]}},{"type":"Feature","properties":{"c":"1136310","o":"NORN, BYRON FRANK","e":"2027-07-22Z"},"geometry":{"type":"Polygon","coordinates":[[[-118.04488,49.27491],[-118.03863,49.27491],[-118.03238,49.27491],[-118.02613,49.27491],[-118.01988,49.27491],[-118.01363,49.27491],[-118.00738,49.27491],[-118.00738,49.27075],[-118.00738,49.26658],[-118.00738,49.26241],[-118.00738,49.25825],[-118.00738,49.25408],[-118.00738,49.24991],[-118.01363,49.24991],[-118.01363,49.25408],[-118.01363,49.25825],[-118.01988,49.25825],[-118.02613,49.25825],[-118.03238,49.25825],[-118.03863,49.25825],[-118.04488,49.25825],[-118.04488,49.26241],[-118.04488,49.26658],[-118.04488,49.27075],[-118.04488,49.27491]]]}},{"type":"Feature","properties":{"c":"1132989","o":"COAST COPPER CORP.","e":"2027-05-14Z"},"geometry":{"type":"Polygon","coordinates":[[[-118.52615,49.34156],[-118.5199,49.34157],[-118.51365,49.34157],[-118.5074,49.34157],[-118.50115,49.34157],[-118.4949,49.34157],[-118.48864,49.34157],[-118.48239,49.34157],[-118.47614,49.34157],[-118.47614,49.3374],[-118.47614,49.33323],[-118.47614,49.32907],[-118.47614,49.3249],[-118.47614,49.32073],[-118.47614,49.31657],[-118.47614,49.3124],[-118.47614,49.30823],[-118.47614,49.30407],[-118.47614,49.2999],[-118.47614,49.29573],[-118.47614,49.29157],[-118.48239,49.29157],[-118.48864,49.29157],[-118.49489,49.29157],[-118.50114,49.29157],[-118.50739,49.29157],[-118.51364,49.29157],[-118.51989,49.29157],[-118.52615,49.29157],[-118.52615,49.29573],[-118.52615,49.2999],[-118.52615,49.30406],[-118.52615,49.30823],[-118.52615,49.3124],[-118.52615,49.31656],[-118.52615,49.32073],[-118.52615,49.3249],[-118.52615,49.32906],[-118.52615,49.33323],[-118.52615,49.3374],[-118.52615,49.34156]]]}},{"type":"Feature","properties":{"c":"1132990","o":"COAST COPPER CORP.","e":"2027-05-14Z"},"geometry":{"type":"Polygon","coordinates":[[[-118.52615,49.37073],[-118.5199,49.37073],[-118.51365,49.37073],[-118.5074,49.37073],[-118.50115,49.37073],[-118.4949,49.37073],[-118.48864,49.37073],[-118.48239,49.37073],[-118.47614,49.37073],[-118.47614,49.36657],[-118.47614,49.3624],[-118.47614,49.35823],[-118.47614,49.35407],[-118.47614,49.3499],[-118.47614,49.34573],[-118.47614,49.34157],[-118.48239,49.34157],[-118.48864,49.34157],[-118.4949,49.34157],[-118.50115,49.34157],[-118.5074,49.34157],[-118.51365,49.34157],[-118.5199,49.34157],[-118.52615,49.34156],[-118.52615,49.34573],[-118.52615,49.3499],[-118.52615,49.35406],[-118.52615,49.35823],[-118.52615,49.3624],[-118.52615,49.36656],[-118.52615,49.37073]]]}},{"type":"Feature","properties":{"c":"1132991","o":"LEWIS, THOMAS MICHAEL","e":"2027-05-14Z"},"geometry":{"type":"Polygon","coordinates":[[[-118.51364,49.24157],[-118.50739,49.24157],[-118.50114,49.24157],[-118.49489,49.24157],[-118.49489,49.2374],[-118.49489,49.23323],[-118.49489,49.22907],[-118.49489,49.2249],[-118.49489,49.22073],[-118.49489,49.21657],[-118.48864,49.21657],[-118.48239,49.21657],[-118.47614,49.21657],[-118.47614,49.22073],[-118.47614,49.2249],[-118.47614,49.22907],[-118.48239,49.22907],[-118.48239,49.23323],[-118.48239,49.2374],[-118.47614,49.2374],[-118.47614,49.24157],[-118.46989,49.24157],[-118.46364,49.24157],[-118.46364,49.2374],[-118.46364,49.23323],[-118.46364,49.22907],[-118.46364,49.2249],[-118.46364,49.22073],[-118.46989,49.22073],[-118.46989,49.21657],[-118.46989,49.2124],[-118.47614,49.2124],[-118.48239,49.2124],[-118.48864,49.2124],[-118.49489,49.2124],[-118.50114,49.2124],[-118.50114,49.21657],[-118.50739,49.21657],[-118.50739,49.22073],[-118.51364,49.22073],[-118.51364,49.2249],[-118.51364,49.22907],[-118.51364,49.23323],[-118.51364,49.2374],[-118.51364,49.24157]]]}},{"type":"Feature","properties":{"c":"1132992","o":"LEWIS, THOMAS MICHAEL","e":"2027-05-14Z"},"geometry":{"type":"Polygon","coordinates":[[[-118.51364,49.2749],[-118.50739,49.2749],[-118.50114,49.2749],[-118.49489,49.2749],[-118.48864,49.2749],[-118.48239,49.2749],[-118.47614,49.2749],[-118.46989,49.2749],[-118.46989,49.27073],[-118.46364,49.27073],[-118.46364,49.26657],[-118.46989,49.26657],[-118.47614,49.26657],[-118.47614,49.27073],[-118.48239,49.27073],[-118.48239,49.26657],[-118.48864,49.26657],[-118.48864,49.2624],[-118.49489,49.2624],[-118.49489,49.26657],[-118.50114,49.26657],[-118.50739,49.26657],[-118.50739,49.2624],[-118.50739,49.25823],[-118.51364,49.25823],[-118.51364,49.2624],[-118.51364,49.26657],[-118.51364,49.27073],[-118.51364,49.2749]]]}},{"type":"Feature","properties":{"c":"1132993","o":"LEWIS, THOMAS MICHAEL","e":"2027-05-14Z"},"geometry":{"type":"Polygon","coordinates":[[[-118.48239,49.2374],[-118.48239,49.24157],[-118.47614,49.24157],[-118.47614,49.2374],[-118.48239,49.2374]]]}},{"type":"Feature","properties":{"c":"1132994","o":"LEWIS, THOMAS MICHAEL","e":"2027-05-14Z"},"geometry":{"type":"Polygon","coordinates":[[[-118.45739,49.30407],[-118.45114,49.30407],[-118.45114,49.30823],[-118.45114,49.3124],[-118.45114,49.31657],[-118.44489,49.31657],[-118.43864,49.31657],[-118.43239,49.31657],[-118.43239,49.3124],[-118.42614,49.3124],[-118.42614,49.30823],[-118.42614,49.30407],[-118.42614,49.2999],[-118.42614,49.29573],[-118.42614,49.29157],[-118.41989,49.29157],[-118.41989,49.2874],[-118.41364,49.2874],[-118.40739,49.2874],[-118.40739,49.28323],[-118.41364,49.28323],[-118.41989,49.28323],[-118.42614,49.28323],[-118.43239,49.28323],[-118.43864,49.28323],[-118.44489,49.28323],[-118.45114,49.28323],[-118.45739,49.28323],[-118.45739,49.2874],[-118.45739,49.29157],[-118.45739,49.29573],[-118.45739,49.2999],[-118.45739,49.30407]]]}},{"type":"Feature","properties":{"c":"1132995","o":"LEWIS, THOMAS MICHAEL","e":"2027-05-14Z"},"geometry":{"type":"Polygon","coordinates":[[[-118.52615,49.29157],[-118.51989,49.29157],[-118.51364,49.29157],[-118.50739,49.29157],[-118.50114,49.29157],[-118.49489,49.29157],[-118.48864,49.29157],[-118.48239,49.29157],[-118.47614,49.29157],[-118.47614,49.2874],[-118.47614,49.28323],[-118.47614,49.27907],[-118.47614,49.2749],[-118.48239,49.2749],[-118.48864,49.2749],[-118.49489,49.2749],[-118.50114,49.2749],[-118.50739,49.2749],[-118.51364,49.2749],[-118.51364,49.27073],[-118.51364,49.26657],[-118.51364,49.2624],[-118.51989,49.2624],[-118.52614,49.2624],[-118.52614,49.26657],[-118.52614,49.27073],[-118.52614,49.2749],[-118.52614,49.27907],[-118.52614,49.28323],[-118.52615,49.2874],[-118.52615,49.29157]]]}},{"type":"Feature","properties":{"c":"1133020","o":"WRIGHT, MATT","e":"2027-05-15Z"},"geometry":{"type":"Polygon","coordinates":[[[-118.07613,49.17908],[-118.06988,49.17908],[-118.06988,49.17491],[-118.07613,49.17491],[-118.08238,49.17491],[-118.08863,49.17491],[-118.08863,49.17908],[-118.08238,49.17908],[-118.07613,49.17908]]]}},{"type":"Feature","properties":{"c":"1133353","o":"MAXUS MINING INC.","e":"2031-04-05Z"},"geometry":{"type":"Polygon","coordinates":[[[-118.11364,49.35824],[-118.10739,49.35824],[-118.10114,49.35824],[-118.09489,49.35825],[-118.08864,49.35825],[-118.08239,49.35825],[-118.07614,49.35825],[-118.06989,49.35825],[-118.06364,49.35825],[-118.05739,49.35825],[-118.05739,49.35408],[-118.05739,49.34991],[-118.05739,49.34575],[-118.05739,49.34158],[-118.05739,49.33741],[-118.06364,49.33741],[-118.06989,49.33741],[-118.07614,49.33741],[-118.07614,49.34158],[-118.08239,49.34158],[-118.08864,49.34158],[-118.09489,49.34158],[-118.10114,49.34158],[-118.10739,49.34158],[-118.11364,49.34158],[-118.11364,49.34574],[-118.11364,49.34991],[-118.11364,49.35408],[-118.11364,49.35824]]]}},{"type":"Feature","properties":{"c":"1135227","o":"DORNER, HENRY WILLIAM","e":"2027-07-09Z"},"geometry":{"type":"Polygon","coordinates":[[[-118.47614,49.2874],[-118.47614,49.29157],[-118.46989,49.29157],[-118.46989,49.2874],[-118.47614,49.2874]]]}},{"type":"Feature","properties":{"c":"1137296","o":"LANGILLE, MICHEAL SCOTT","e":"2027-08-17Z"},"geometry":{"type":"Polygon","coordinates":[[[-118.11364,49.40825],[-118.11364,49.41241],[-118.10739,49.41241],[-118.10739,49.40825],[-118.11364,49.40825]]]}},{"type":"Feature","properties":{"c":"516683","o":"PHOENIX METALS CORP.","e":"2028-01-21Z"},"geometry":{"type":"Polygon","coordinates":[[[-118.50114,49.12073],[-118.49489,49.12073],[-118.48864,49.12073],[-118.48239,49.12073],[-118.47614,49.12073],[-118.46989,49.12073],[-118.46989,49.11656],[-118.46989,49.1124],[-118.47614,49.1124],[-118.47614,49.10823],[-118.46989,49.10823],[-118.46364,49.10823],[-118.46364,49.10406],[-118.46364,49.0999],[-118.46364,49.09573],[-118.46989,49.09573],[-118.47614,49.09573],[-118.48239,49.09573],[-118.48239,49.09156],[-118.48239,49.0874],[-118.48864,49.0874],[-118.49489,49.0874],[-118.50114,49.0874],[-118.50114,49.09156],[-118.50114,49.09573],[-118.50114,49.0999],[-118.50114,49.10406],[-118.50114,49.10823],[-118.50114,49.1124],[-118.50114,49.11656],[-118.50114,49.12073]]]}},{"type":"Feature","properties":{"c":"521743","o":"PHOENIX METALS CORP.","e":"2028-01-21Z"},"geometry":{"type":"Polygon","coordinates":[[[-118.46989,49.12073],[-118.46364,49.12073],[-118.46364,49.11656],[-118.46364,49.1124],[-118.46364,49.10823],[-118.46989,49.10823],[-118.47614,49.10823],[-118.47614,49.1124],[-118.46989,49.1124],[-118.46989,49.11656],[-118.46989,49.12073]]]}},{"type":"Feature","properties":{"c":"1125975","o":"WRIGHT, MATT","e":"2027-04-08Z"},"geometry":{"type":"Polygon","coordinates":[[[-118.07613,49.17074],[-118.07613,49.17491],[-118.06988,49.17491],[-118.06988,49.17074],[-118.07613,49.17074]]]}},{"type":"Feature","properties":{"c":"1125997","o":"MAXUS MINING INC.","e":"2031-04-05Z"},"geometry":{"type":"Polygon","coordinates":[[[-118.04489,49.34158],[-118.03864,49.34158],[-118.03239,49.34158],[-118.03239,49.33741],[-118.03239,49.33325],[-118.03864,49.33325],[-118.04489,49.33325],[-118.04489,49.33741],[-118.04489,49.34158]]]}},{"type":"Feature","properties":{"c":"1123359","o":"OREX MINERALS INC.","e":"2027-06-23Z"},"geometry":{"type":"Polygon","coordinates":[[[-118.01988,49.29991],[-118.01363,49.29991],[-118.00738,49.29991],[-118.00113,49.29991],[-118.00113,49.29575],[-118.00113,49.29158],[-118.00113,49.28741],[-117.99488,49.28741],[-117.98863,49.28741],[-117.98238,49.28741],[-117.97613,49.28741],[-117.96988,49.28741],[-117.96363,49.28741],[-117.95738,49.28741],[-117.95113,49.28741],[-117.94488,49.28741],[-117.94488,49.28325],[-117.94488,49.27908],[-117.94488,49.27491],[-117.94488,49.27075],[-117.94488,49.26658],[-117.94488,49.26241],[-117.94488,49.25825],[-117.94488,49.25408],[-117.95113,49.25408],[-117.95738,49.25408],[-117.95738,49.24991],[-117.96363,49.24991],[-117.96363,49.24575],[-117.96363,49.24158],[-117.96988,49.24158],[-117.97613,49.24158],[-117.98238,49.24158],[-117.98863,49.24158],[-117.99488,49.24158],[-117.99488,49.24575],[-117.99488,49.24991],[-117.99488,49.25408],[-117.99488,49.25825],[-117.99488,49.26241],[-117.99488,49.26658],[-117.99488,49.27075],[-118.00113,49.27075],[-118.00738,49.27075],[-118.00738,49.27491],[-118.00738,49.27908],[-118.00738,49.28325],[-118.00738,49.28741],[-118.01363,49.28741],[-118.01988,49.28741],[-118.01988,49.29158],[-118.01988,49.29575],[-118.01988,49.29991]]]}},{"type":"Feature","properties":{"c":"1114209","o":"SCOTT, STEVEN JEFFREY","e":"2027-01-04Z"},"geometry":{"type":"Polygon","coordinates":[[[-118.11988,49.16658],[-118.11988,49.17074],[-118.11363,49.17074],[-118.11363,49.16658],[-118.11988,49.16658]]]}},{"type":"Feature","properties":{"c":"1125870","o":"WRIGHT, MATT","e":"2027-04-08Z"},"geometry":{"type":"Polygon","coordinates":[[[-118.11363,49.20408],[-118.10738,49.20408],[-118.10738,49.19991],[-118.10738,49.19574],[-118.11363,49.19574],[-118.11363,49.19991],[-118.11363,49.20408]]]}},{"type":"Feature","properties":{"c":"1125884","o":"LEWIS, THOMAS MICHAEL","e":"2027-06-13Z"},"geometry":{"type":"Polygon","coordinates":[[[-118.49489,49.24157],[-118.48864,49.24157],[-118.48239,49.24157],[-118.48239,49.2374],[-118.48239,49.23323],[-118.48239,49.22907],[-118.47614,49.22907],[-118.47614,49.2249],[-118.47614,49.22073],[-118.47614,49.21657],[-118.48239,49.21657],[-118.48864,49.21657],[-118.49489,49.21657],[-118.49489,49.22073],[-118.49489,49.2249],[-118.49489,49.22907],[-118.49489,49.23323],[-118.49489,49.2374],[-118.49489,49.24157]]]}},{"type":"Feature","properties":{"c":"1132202","o":"WRIGHT, MATT","e":"2027-04-14Z"},"geometry":{"type":"Polygon","coordinates":[[[-118.10113,49.22908],[-118.09488,49.22908],[-118.08863,49.22908],[-118.08863,49.22491],[-118.08863,49.22074],[-118.08863,49.21658],[-118.09488,49.21658],[-118.10113,49.21658],[-118.10113,49.22074],[-118.10113,49.22491],[-118.10113,49.22908]]]}},{"type":"Feature","properties":{"c":"1128092","o":"CRIGHT, KEVIN JEAN GUY","e":"2026-12-05Z"},"geometry":{"type":"Polygon","coordinates":[[[-118.06988,49.20824],[-118.06363,49.20824],[-118.06363,49.20408],[-118.06363,49.19991],[-118.06988,49.19991],[-118.07613,49.19991],[-118.07613,49.20408],[-118.06988,49.20408],[-118.06988,49.20824]]]}},{"type":"Feature","properties":{"c":"1131319","o":"LYNES, CRAIG ALVIN","e":"2028-11-30Z"},"geometry":{"type":"MultiPolygon","coordinates":[[[[-118.15113,49.17491],[-118.14488,49.17491],[-118.13863,49.17491],[-118.13863,49.17908],[-118.13863,49.18324],[-118.13863,49.18741],[-118.13238,49.18741],[-118.12613,49.18741],[-118.11988,49.18741],[-118.11988,49.18324],[-118.11363,49.18324],[-118.11363,49.17908],[-118.11363,49.17491],[-118.10738,49.17491],[-118.10738,49.17074],[-118.10738,49.16658],[-118.10738,49.16241],[-118.11363,49.16241],[-118.11988,49.16241],[-118.12613,49.16241],[-118.13238,49.16241],[-118.13863,49.16241],[-118.14488,49.16241],[-118.14488,49.16657],[-118.14488,49.17074],[-118.15113,49.17074],[-118.15113,49.17491]],[[-118.12613,49.17074],[-118.12613,49.16658],[-118.11988,49.16658],[-118.11363,49.16658],[-118.11363,49.17074],[-118.11988,49.17074],[-118.11988,49.17491],[-118.12613,49.17491],[-118.12613,49.17074]]]]}},{"type":"Feature","properties":{"c":"1131320","o":"LYNES, CRAIG ALVIN","e":"2028-11-30Z"},"geometry":{"type":"Polygon","coordinates":[[[-118.16363,49.17074],[-118.15738,49.17074],[-118.15738,49.17491],[-118.15738,49.17907],[-118.15738,49.18324],[-118.15113,49.18324],[-118.14488,49.18324],[-118.13863,49.18324],[-118.13863,49.17908],[-118.13863,49.17491],[-118.14488,49.17491],[-118.15113,49.17491],[-118.15113,49.17074],[-118.14488,49.17074],[-118.14488,49.16657],[-118.14488,49.16241],[-118.13863,49.16241],[-118.13238,49.16241],[-118.12613,49.16241],[-118.12613,49.15824],[-118.12613,49.15408],[-118.12613,49.14991],[-118.13238,49.14991],[-118.13238,49.15408],[-118.13863,49.15407],[-118.13863,49.15824],[-118.14488,49.15824],[-118.15113,49.15824],[-118.15113,49.16241],[-118.15738,49.16241],[-118.16363,49.16241],[-118.16363,49.16657],[-118.16363,49.17074]]]}},{"type":"Feature","properties":{"c":"1131321","o":"LYNES, CRAIG ALVIN","e":"2028-11-30Z"},"geometry":{"type":"Polygon","coordinates":[[[-118.12613,49.16241],[-118.11988,49.16241],[-118.11363,49.16241],[-118.10738,49.16241],[-118.10738,49.15824],[-118.10738,49.15408],[-118.11363,49.15408],[-118.11363,49.14991],[-118.11988,49.14991],[-118.12613,49.14991],[-118.12613,49.15408],[-118.12613,49.15824],[-118.12613,49.16241]]]}},{"type":"Feature","properties":{"c":"1131322","o":"LYNES, CRAIG ALVIN","e":"2027-08-30Z"},"geometry":{"type":"Polygon","coordinates":[[[-118.12613,49.17491],[-118.11988,49.17491],[-118.11988,49.17074],[-118.11988,49.16658],[-118.12613,49.16658],[-118.12613,49.17074],[-118.12613,49.17491]]]}},{"type":"Feature","properties":{"c":"1131859","o":"CRIGHT, KEVIN JEAN GUY","e":"2027-03-31Z"},"geometry":{"type":"Polygon","coordinates":[[[-118.06363,49.19158],[-118.05738,49.19158],[-118.05738,49.18741],[-118.05738,49.18324],[-118.06363,49.18324],[-118.06363,49.18741],[-118.06363,49.19158]]]}},{"type":"Feature","properties":{"c":"1131862","o":"CRIGHT, KEVIN JEAN GUY","e":"2027-03-31Z"},"geometry":{"type":"Polygon","coordinates":[[[-118.07613,49.19158],[-118.06988,49.19158],[-118.06988,49.18741],[-118.06363,49.18741],[-118.06363,49.18324],[-118.06988,49.18324],[-118.07613,49.18324],[-118.07613,49.18741],[-118.07613,49.19158]]]}},{"type":"Feature","properties":{"c":"1131864","o":"MAXUS MINING INC.","e":"2031-04-05Z"},"geometry":{"type":"MultiPolygon","coordinates":[[[[-118.05739,49.34991],[-118.05114,49.34991],[-118.04489,49.34991],[-118.03864,49.34991],[-118.03239,49.34991],[-118.02614,49.34991],[-118.01989,49.34991],[-118.01363,49.34991],[-118.01363,49.34575],[-118.01363,49.34158],[-118.01364,49.33741],[-118.01364,49.33325],[-118.01363,49.32908],[-118.01363,49.32491],[-118.01363,49.32075],[-118.01363,49.31658],[-118.01363,49.31241],[-118.01363,49.30825],[-118.01363,49.30408],[-118.00738,49.30408],[-118.00113,49.30408],[-117.99488,49.30408],[-117.99488,49.29991],[-117.98863,49.29991],[-117.98238,49.29991],[-117.97613,49.29991],[-117.96988,49.29991],[-117.96363,49.29991],[-117.95738,49.29991],[-117.95113,49.29991],[-117.94488,49.29991],[-117.93863,49.29991],[-117.93238,49.29991],[-117.92613,49.29991],[-117.91988,49.29992],[-117.91363,49.29992],[-117.91363,49.29575],[-117.91363,49.29158],[-117.91363,49.28741],[-117.91363,49.28325],[-117.91988,49.28325],[-117.92613,49.28325],[-117.93238,49.28325],[-117.93863,49.28325],[-117.94488,49.28325],[-117.94488,49.28741],[-117.95113,49.28741],[-117.95738,49.28741],[-117.96363,49.28741],[-117.96988,49.28741],[-117.97613,49.28741],[-117.98238,49.28741],[-117.98863,49.28741],[-117.99488,49.28741],[-118.00113,49.28741],[-118.00113,49.29158],[-118.00113,49.29575],[-118.00113,49.29991],[-118.00738,49.29991],[-118.01363,49.29991],[-118.01988,49.29991],[-118.01988,49.30408],[-118.01988,49.30825],[-118.01988,49.31241],[-118.01988,49.31658],[-118.01988,49.32075],[-118.02614,49.32075],[-118.03239,49.32075],[-118.03864,49.32075],[-118.04489,49.32075],[-118.05114,49.32075],[-118.05739,49.32075],[-118.05739,49.32491],[-118.05739,49.32908],[-118.05739,49.33325],[-118.05739,49.33741],[-118.05739,49.34158],[-118.05739,49.34575],[-118.05739,49.34991]],[[-118.04489,49.33741],[-118.04489,49.33325],[-118.03864,49.33325],[-118.03239,49.33325],[-118.03239,49.33741],[-118.03239,49.34158],[-118.03864,49.34158],[-118.04489,49.34158],[-118.04489,49.33741]]]]}},{"type":"Feature","properties":{"c":"1135729","o":"SHEARER, JOHAN THOM","e":"2027-07-16Z"},"geometry":{"type":"Polygon","coordinates":[[[-118.41364,49.00823],[-118.40739,49.00823],[-118.40114,49.00823],[-118.40114,49.00406],[-118.40114,48.9999],[-118.40739,48.9999],[-118.41364,48.9999],[-118.41364,49.00406],[-118.41364,49.00823]]]}},{"type":"Feature","properties":{"c":"1135992","o":"PHOENIX METALS CORP.","e":"2027-07-16Z"},"geometry":{"type":"Polygon","coordinates":[[[-118.46364,49.10823],[-118.45739,49.10823],[-118.45114,49.10823],[-118.45114,49.10406],[-118.44489,49.10406],[-118.44489,49.0999],[-118.44489,49.09573],[-118.44489,49.09156],[-118.45114,49.09156],[-118.45114,49.09573],[-118.45739,49.09573],[-118.46364,49.09573],[-118.46364,49.0999],[-118.46364,49.10406],[-118.46364,49.10823]]]}},{"type":"Feature","properties":{"c":"1137257","o":"CRIGHT, KEVIN JEAN GUY","e":"2027-08-14Z"},"geometry":{"type":"Polygon","coordinates":[[[-118.06363,49.20408],[-118.06363,49.20824],[-118.05738,49.20824],[-118.05738,49.20408],[-118.06363,49.20408]]]}},{"type":"Feature","properties":{"c":"1137258","o":"CRIGHT, KEVIN JEAN GUY","e":"2027-08-14Z"},"geometry":{"type":"Polygon","coordinates":[[[-118.06363,49.19991],[-118.06363,49.20408],[-118.05738,49.20408],[-118.05738,49.19991],[-118.06363,49.19991]]]}},{"type":"Feature","properties":{"c":"1123602","o":"DELORME, GUY RICHARD","e":"2027-06-05Z"},"geometry":{"type":"Polygon","coordinates":[[[-118.19488,49.0499],[-118.18863,49.0499],[-118.18238,49.0499],[-118.17613,49.0499],[-118.16988,49.0499],[-118.16363,49.0499],[-118.15738,49.0499],[-118.15113,49.0499],[-118.14488,49.0499],[-118.13863,49.0499],[-118.13863,49.04574],[-118.13863,49.04157],[-118.13863,49.0374],[-118.13863,49.03324],[-118.13863,49.02907],[-118.13863,49.0249],[-118.13863,49.02074],[-118.13862,49.01657],[-118.13862,49.0124],[-118.14488,49.0124],[-118.14487,49.00824],[-118.14487,49.00407],[-118.14487,48.9999],[-118.15112,48.9999],[-118.15738,48.9999],[-118.16363,48.9999],[-118.16988,48.9999],[-118.17613,48.9999],[-118.18238,48.9999],[-118.18863,48.9999],[-118.18863,49.00407],[-118.18863,49.00824],[-118.18863,49.0124],[-118.18863,49.01657],[-118.18863,49.02074],[-118.19488,49.02074],[-118.19488,49.0249],[-118.19488,49.02907],[-118.19488,49.03324],[-118.19488,49.0374],[-118.19488,49.04157],[-118.19488,49.04574],[-118.19488,49.0499]]]}},{"type":"Feature","properties":{"c":"1137313","o":"ZEZNIK, LEE MICHAEL","e":"2027-08-17Z"},"geometry":{"type":"Polygon","coordinates":[[[-118.10739,49.41241],[-118.10739,49.41658],[-118.10114,49.41658],[-118.10114,49.41241],[-118.10739,49.41241]]]}},{"type":"Feature","properties":{"c":"1139864","o":"GRIZZLY DISCOVERIES INC.","e":"2026-11-30Z"},"geometry":{"type":"Polygon","coordinates":[[[-118.46364,49.1374],[-118.45739,49.1374],[-118.45739,49.14157],[-118.45739,49.14573],[-118.45739,49.1499],[-118.45739,49.15407],[-118.45114,49.15407],[-118.45114,49.1499],[-118.45114,49.14573],[-118.44489,49.14573],[-118.44489,49.1499],[-118.44489,49.15407],[-118.43864,49.15407],[-118.43864,49.1499],[-118.43864,49.14573],[-118.43239,49.14573],[-118.43239,49.14157],[-118.43239,49.1374],[-118.43239,49.13323],[-118.43239,49.12907],[-118.43239,49.1249],[-118.43239,49.12073],[-118.43239,49.11657],[-118.43239,49.1124],[-118.43864,49.1124],[-118.44489,49.1124],[-118.44489,49.10823],[-118.43864,49.10823],[-118.43864,49.10406],[-118.43864,49.0999],[-118.43864,49.09573],[-118.43864,49.09156],[-118.43864,49.0874],[-118.43864,49.08323],[-118.44489,49.08323],[-118.45114,49.08323],[-118.45114,49.0874],[-118.45739,49.0874],[-118.46364,49.0874],[-118.46364,49.09156],[-118.46364,49.09573],[-118.45739,49.09573],[-118.45114,49.09573],[-118.45114,49.09156],[-118.44489,49.09156],[-118.44489,49.09573],[-118.44489,49.0999],[-118.44489,49.10406],[-118.45114,49.10406],[-118.45114,49.10823],[-118.45739,49.10823],[-118.46364,49.10823],[-118.46364,49.1124],[-118.46364,49.11656],[-118.46364,49.12073],[-118.46364,49.1249],[-118.46364,49.12906],[-118.46364,49.13323],[-118.46364,49.1374]]]}},{"type":"Feature","properties":{"c":"1139865","o":"GRIZZLY DISCOVERIES INC.","e":"2026-11-30Z"},"geometry":{"type":"Polygon","coordinates":[[[-118.54489,49.07906],[-118.53864,49.07906],[-118.53864,49.08323],[-118.53864,49.0874],[-118.53239,49.0874],[-118.52614,49.0874],[-118.51989,49.0874],[-118.51364,49.0874],[-118.51364,49.09156],[-118.51364,49.09573],[-118.50739,49.09573],[-118.50114,49.09573],[-118.50114,49.09156],[-118.50114,49.0874],[-118.49489,49.0874],[-118.48864,49.0874],[-118.48239,49.0874],[-118.48239,49.09156],[-118.48239,49.09573],[-118.47614,49.09573],[-118.46989,49.09573],[-118.46364,49.09573],[-118.46364,49.09156],[-118.46364,49.0874],[-118.46364,49.08323],[-118.46364,49.07906],[-118.46364,49.0749],[-118.46364,49.07073],[-118.46364,49.06656],[-118.46989,49.06656],[-118.46989,49.0624],[-118.47614,49.0624],[-118.47614,49.05823],[-118.47614,49.05406],[-118.47614,49.0499],[-118.47614,49.04573],[-118.48239,49.04573],[-118.48239,49.0499],[-118.48239,49.05406],[-118.48864,49.05406],[-118.49489,49.05406],[-118.49489,49.05823],[-118.49489,49.0624],[-118.50114,49.0624],[-118.50739,49.0624],[-118.51364,49.0624],[-118.51364,49.06656],[-118.51364,49.07073],[-118.51364,49.0749],[-118.51364,49.07906],[-118.51989,49.07906],[-118.52614,49.07906],[-118.52614,49.0749],[-118.53239,49.0749],[-118.53239,49.07073],[-118.53239,49.06656],[-118.53864,49.06656],[-118.53864,49.07073],[-118.54489,49.07073],[-118.54489,49.0749],[-118.54489,49.07906]]]}},{"type":"Feature","properties":{"c":"1139866","o":"GRIZZLY DISCOVERIES INC.","e":"2026-11-30Z"},"geometry":{"type":"Polygon","coordinates":[[[-118.53864,49.05406],[-118.53239,49.05406],[-118.52614,49.05406],[-118.51989,49.05406],[-118.51989,49.05823],[-118.51989,49.0624],[-118.51364,49.0624],[-118.50739,49.0624],[-118.50114,49.0624],[-118.49489,49.0624],[-118.49489,49.05823],[-118.49489,49.05406],[-118.48864,49.05406],[-118.48239,49.05406],[-118.48239,49.0499],[-118.48239,49.04573],[-118.48864,49.04573],[-118.48864,49.04156],[-118.48864,49.0374],[-118.49489,49.0374],[-118.50114,49.0374],[-118.50739,49.0374],[-118.50739,49.03323],[-118.50739,49.02906],[-118.50114,49.02906],[-118.50114,49.0249],[-118.50739,49.0249],[-118.50739,49.02073],[-118.51364,49.02073],[-118.51364,49.01656],[-118.51989,49.01656],[-118.51989,49.0124],[-118.51989,49.00823],[-118.52614,49.00823],[-118.52614,49.00406],[-118.53239,49.00406],[-118.53239,48.9999],[-118.53864,48.9999],[-118.53864,49.00406],[-118.53864,49.00823],[-118.53864,49.0124],[-118.53864,49.01656],[-118.53864,49.02073],[-118.53864,49.0249],[-118.53864,49.02906],[-118.53864,49.03323],[-118.53864,49.0374],[-118.53864,49.04156],[-118.53864,49.04573],[-118.53864,49.0499],[-118.53864,49.05406]]]}},{"type":"Feature","properties":{"c":"1114252","o":"WRIGHT, MATT","e":"2027-04-08Z"},"geometry":{"type":"Polygon","coordinates":[[[-118.13238,49.20408],[-118.12613,49.20408],[-118.11988,49.20408],[-118.11988,49.20824],[-118.11988,49.21241],[-118.11363,49.21241],[-118.11363,49.21658],[-118.11363,49.22074],[-118.10738,49.22074],[-118.10113,49.22074],[-118.10113,49.21658],[-118.09488,49.21658],[-118.09488,49.21241],[-118.09488,49.20824],[-118.10113,49.20824],[-118.10738,49.20824],[-118.11363,49.20824],[-118.11363,49.20408],[-118.11363,49.19991],[-118.11988,49.19991],[-118.11988,49.19574],[-118.11988,49.19158],[-118.12613,49.19158],[-118.13238,49.19158],[-118.13238,49.19574],[-118.13238,49.19991],[-118.13238,49.20408]]]}},{"type":"Feature","properties":{"c":"1113530","o":"LEWIS, THOMAS MICHAEL","e":"2027-06-13Z"},"geometry":{"type":"Polygon","coordinates":[[[-118.51364,49.25823],[-118.50739,49.25823],[-118.50739,49.2624],[-118.50739,49.26657],[-118.50114,49.26657],[-118.49489,49.26657],[-118.49489,49.2624],[-118.49489,49.25823],[-118.48864,49.25823],[-118.48239,49.25823],[-118.47614,49.25823],[-118.46989,49.25823],[-118.46989,49.2624],[-118.47614,49.2624],[-118.48239,49.2624],[-118.48864,49.2624],[-118.48864,49.26657],[-118.48239,49.26657],[-118.48239,49.27073],[-118.47614,49.27073],[-118.47614,49.26657],[-118.46989,49.26657],[-118.46364,49.26657],[-118.46364,49.2624],[-118.46364,49.25823],[-118.46364,49.25407],[-118.46364,49.2499],[-118.46364,49.24573],[-118.46364,49.24157],[-118.46989,49.24157],[-118.47614,49.24157],[-118.48239,49.24157],[-118.48864,49.24157],[-118.49489,49.24157],[-118.50114,49.24157],[-118.50739,49.24157],[-118.51364,49.24157],[-118.51364,49.24573],[-118.51364,49.2499],[-118.51364,49.25407],[-118.51364,49.25823]]]}}]}