{"type":"FeatureCollection","features":[{"type":"Feature","properties":{"c":"1135729","o":"SHEARER, JOHAN THOM","e":"2027-07-16Z"},"geometry":{"type":"Polygon","coordinates":[[[-118.41364,49.00823],[-118.40739,49.00823],[-118.40114,49.00823],[-118.40114,49.00406],[-118.40114,48.9999],[-118.40739,48.9999],[-118.41364,48.9999],[-118.41364,49.00406],[-118.41364,49.00823]]]}},{"type":"Feature","properties":{"c":"1123602","o":"DELORME, GUY RICHARD","e":"2027-06-05Z"},"geometry":{"type":"Polygon","coordinates":[[[-118.19488,49.0499],[-118.18863,49.0499],[-118.18238,49.0499],[-118.17613,49.0499],[-118.16988,49.0499],[-118.16363,49.0499],[-118.15738,49.0499],[-118.15113,49.0499],[-118.14488,49.0499],[-118.13863,49.0499],[-118.13863,49.04574],[-118.13863,49.04157],[-118.13863,49.0374],[-118.13863,49.03324],[-118.13863,49.02907],[-118.13863,49.0249],[-118.13863,49.02074],[-118.13862,49.01657],[-118.13862,49.0124],[-118.14488,49.0124],[-118.14487,49.00824],[-118.14487,49.00407],[-118.14487,48.9999],[-118.15112,48.9999],[-118.15738,48.9999],[-118.16363,48.9999],[-118.16988,48.9999],[-118.17613,48.9999],[-118.18238,48.9999],[-118.18863,48.9999],[-118.18863,49.00407],[-118.18863,49.00824],[-118.18863,49.0124],[-118.18863,49.01657],[-118.18863,49.02074],[-118.19488,49.02074],[-118.19488,49.0249],[-118.19488,49.02907],[-118.19488,49.03324],[-118.19488,49.0374],[-118.19488,49.04157],[-118.19488,49.04574],[-118.19488,49.0499]]]}},{"type":"Feature","properties":{"c":"1139866","o":"GRIZZLY DISCOVERIES INC.","e":"2026-11-30Z"},"geometry":{"type":"Polygon","coordinates":[[[-118.53864,49.05406],[-118.53239,49.05406],[-118.52614,49.05406],[-118.51989,49.05406],[-118.51989,49.05823],[-118.51989,49.0624],[-118.51364,49.0624],[-118.50739,49.0624],[-118.50114,49.0624],[-118.49489,49.0624],[-118.49489,49.05823],[-118.49489,49.05406],[-118.48864,49.05406],[-118.48239,49.05406],[-118.48239,49.0499],[-118.48239,49.04573],[-118.48864,49.04573],[-118.48864,49.04156],[-118.48864,49.0374],[-118.49489,49.0374],[-118.50114,49.0374],[-118.50739,49.0374],[-118.50739,49.03323],[-118.50739,49.02906],[-118.50114,49.02906],[-118.50114,49.0249],[-118.50739,49.0249],[-118.50739,49.02073],[-118.51364,49.02073],[-118.51364,49.01656],[-118.51989,49.01656],[-118.51989,49.0124],[-118.51989,49.00823],[-118.52614,49.00823],[-118.52614,49.00406],[-118.53239,49.00406],[-118.53239,48.9999],[-118.53864,48.9999],[-118.53864,49.00406],[-118.53864,49.00823],[-118.53864,49.0124],[-118.53864,49.01656],[-118.53864,49.02073],[-118.53864,49.0249],[-118.53864,49.02906],[-118.53864,49.03323],[-118.53864,49.0374],[-118.53864,49.04156],[-118.53864,49.04573],[-118.53864,49.0499],[-118.53864,49.05406]]]}}]}