{"type":"FeatureCollection","features":[{"type":"Feature","properties":{"c":"9924020191","o":"HIGHWOOD ASSET MANAGEMENT LTD.","e":""},"geometry":{"type":"MultiPolygon","coordinates":[[[[-119.0,56.0],[-119.0,56.0],[-119.0,56.0],[-119.0,56.0]]],[[[-119.0,56.0],[-119.0,56.0],[-119.0,56.0],[-119.0,56.0]]],[[[-119.0,56.0],[-119.0,56.0],[-119.0,56.0],[-119.0,56.0]]],[[[-119.0,56.0],[-119.0,56.0],[-119.0,56.0],[-119.0,56.0]]],[[[-119.0,56.0],[-119.0,56.0],[-119.0,56.0],[-119.0,56.0]]],[[[-118.0,56.0],[-119.0,56.0],[-119.0,56.0],[-118.0,56.0]]],[[[-118.0,56.0],[-118.0,56.0],[-118.0,56.0],[-118.0,56.0]]],[[[-119.0,56.0],[-119.0,57.0],[-119.0,56.0],[-119.0,56.0]]],[[[-119.0,56.0],[-119.0,57.0],[-119.0,56.0],[-119.0,56.0]]],[[[-118.0,56.0],[-118.0,57.0],[-118.0,56.0],[-118.0,56.0]]],[[[-118.0,56.0],[-118.0,57.0],[-118.0,56.0],[-118.0,56.0]]],[[[-118.0,56.0],[-118.0,56.0],[-118.0,56.0],[-118.0,56.0]]],[[[-118.0,56.0],[-118.0,56.0],[-118.0,56.0],[-118.0,56.0]]],[[[-119.0,56.0],[-119.0,56.0],[-119.0,56.0],[-119.0,56.0]]],[[[-118.0,56.0],[-118.0,56.0],[-118.0,56.0],[-118.0,56.0]]],[[[-118.0,56.0],[-118.0,56.0],[-118.0,56.0],[-118.0,56.0]]]]}},{"type":"Feature","properties":{"c":"9924020192","o":"HIGHWOOD ASSET MANAGEMENT LTD.","e":""},"geometry":{"type":"MultiPolygon","coordinates":[[[[-119.0,57.0],[-118.0,56.0],[-119.0,56.0],[-119.0,57.0]]]]}},{"type":"Feature","properties":{"c":"9924040256","o":"LITHALTA (CHP) HOLDINGS CORP.","e":""},"geometry":{"type":"MultiPolygon","coordinates":[[[[-119.0,57.0],[-119.0,57.0],[-119.0,57.0],[-119.0,57.0]]],[[[-119.0,56.0],[-119.0,57.0],[-119.0,56.0],[-119.0,56.0]]],[[[-119.0,56.0],[-119.0,57.0],[-119.0,56.0],[-119.0,56.0]]],[[[-119.0,56.0],[-119.0,57.0],[-119.0,56.0],[-119.0,56.0]]],[[[-119.0,56.0],[-119.0,57.0],[-119.0,56.0],[-119.0,56.0]]],[[[-119.0,57.0],[-119.0,57.0],[-119.0,57.0],[-119.0,57.0]]],[[[-119.0,57.0],[-119.0,57.0],[-119.0,57.0],[-119.0,57.0]]],[[[-119.0,57.0],[-119.0,57.0],[-119.0,57.0],[-119.0,57.0]]],[[[-119.0,57.0],[-119.0,57.0],[-119.0,57.0],[-119.0,57.0]]],[[[-119.0,57.0],[-119.0,57.0],[-119.0,57.0],[-119.0,57.0]]],[[[-119.0,57.0],[-119.0,57.0],[-119.0,57.0],[-119.0,57.0]]],[[[-119.0,57.0],[-119.0,57.0],[-119.0,57.0],[-119.0,57.0]]],[[[-119.0,57.0],[-119.0,57.0],[-119.0,57.0],[-119.0,57.0]]],[[[-119.0,57.0],[-119.0,57.0],[-119.0,57.0],[-119.0,57.0]]],[[[-119.0,57.0],[-119.0,57.0],[-119.0,57.0],[-119.0,57.0]]],[[[-119.0,57.0],[-119.0,57.0],[-119.0,57.0],[-119.0,57.0]]],[[[-119.0,57.0],[-119.0,57.0],[-119.0,57.0],[-119.0,57.0]]],[[[-119.0,57.0],[-119.0,57.0],[-119.0,57.0],[-119.0,57.0]]]]}},{"type":"Feature","properties":{"c":"9924040257","o":"LITHALTA (CHP) HOLDINGS CORP.","e":""},"geometry":{"type":"MultiPolygon","coordinates":[[[[-119.0,57.0],[-119.0,57.0],[-119.0,57.0],[-119.0,57.0]]],[[[-118.0,57.0],[-119.0,57.0],[-119.0,57.0],[-118.0,57.0]]],[[[-119.0,57.0],[-119.0,57.0],[-119.0,57.0],[-119.0,57.0]]],[[[-119.0,57.0],[-119.0,57.0],[-119.0,57.0],[-119.0,57.0]]],[[[-119.0,57.0],[-119.0,57.0],[-119.0,57.0],[-119.0,57.0]]],[[[-119.0,57.0],[-119.0,57.0],[-119.0,57.0],[-119.0,57.0]]],[[[-119.0,57.0],[-119.0,57.0],[-119.0,57.0],[-119.0,57.0]]],[[[-118.0,57.0],[-119.0,57.0],[-119.0,57.0],[-118.0,57.0]]],[[[-119.0,57.0],[-119.0,57.0],[-119.0,57.0],[-119.0,57.0]]],[[[-119.0,57.0],[-119.0,57.0],[-119.0,57.0],[-119.0,57.0]]],[[[-119.0,57.0],[-119.0,57.0],[-119.0,57.0],[-119.0,57.0]]],[[[-119.0,57.0],[-119.0,57.0],[-119.0,57.0],[-119.0,57.0]]],[[[-118.0,57.0],[-119.0,57.0],[-119.0,57.0],[-118.0,57.0]]],[[[-119.0,57.0],[-119.0,57.0],[-119.0,57.0],[-119.0,57.0]]],[[[-119.0,57.0],[-119.0,57.0],[-119.0,57.0],[-119.0,57.0]]],[[[-119.0,57.0],[-119.0,57.0],[-119.0,57.0],[-119.0,57.0]]],[[[-119.0,57.0],[-119.0,57.0],[-119.0,57.0],[-119.0,57.0]]],[[[-119.0,57.0],[-119.0,57.0],[-119.0,57.0],[-119.0,57.0]]]]}},{"type":"Feature","properties":{"c":"9924040266","o":"LITHALTA (CHP) HOLDINGS CORP.","e":""},"geometry":{"type":"MultiPolygon","coordinates":[[[[-119.0,57.0],[-119.0,57.0],[-119.0,57.0],[-119.0,57.0]]],[[[-119.0,57.0],[-119.0,57.0],[-119.0,57.0],[-119.0,57.0]]],[[[-119.0,57.0],[-119.0,57.0],[-119.0,57.0],[-119.0,57.0]]],[[[-119.0,57.0],[-119.0,57.0],[-119.0,57.0],[-119.0,57.0]]],[[[-119.0,57.0],[-119.0,57.0],[-119.0,57.0],[-119.0,57.0]]],[[[-119.0,57.0],[-119.0,57.0],[-119.0,57.0],[-119.0,57.0]]],[[[-119.0,57.0],[-119.0,57.0],[-119.0,57.0],[-119.0,57.0]]],[[[-119.0,57.0],[-119.0,57.0],[-119.0,57.0],[-119.0,57.0]]],[[[-119.0,57.0],[-119.0,57.0],[-119.0,57.0],[-119.0,57.0]]],[[[-119.0,57.0],[-119.0,57.0],[-119.0,57.0],[-119.0,57.0]]],[[[-119.0,57.0],[-119.0,57.0],[-119.0,57.0],[-119.0,57.0]]],[[[-119.0,57.0],[-119.0,57.0],[-119.0,57.0],[-119.0,57.0]]],[[[-119.0,57.0],[-119.0,57.0],[-119.0,57.0],[-119.0,57.0]]],[[[-119.0,57.0],[-119.0,57.0],[-119.0,57.0],[-119.0,57.0]]],[[[-119.0,57.0],[-119.0,57.0],[-119.0,57.0],[-119.0,57.0]]],[[[-119.0,57.0],[-119.0,57.0],[-119.0,57.0],[-119.0,57.0]]],[[[-119.0,57.0],[-119.0,57.0],[-119.0,57.0],[-119.0,57.0]]],[[[-119.0,57.0],[-119.0,57.0],[-119.0,57.0],[-119.0,57.0]]]]}},{"type":"Feature","properties":{"c":"9420040152","o":"PRISM DIVERSIFIED LTD.","e":""},"geometry":{"type":"MultiPolygon","coordinates":[[[[-119.0,57.0],[-119.0,57.0],[-119.0,57.0],[-119.0,57.0]]],[[[-119.0,57.0],[-119.0,57.0],[-119.0,57.0],[-119.0,57.0]]],[[[-119.0,57.0],[-119.0,57.0],[-119.0,57.0],[-119.0,57.0]]]]}},{"type":"Feature","properties":{"c":"9424060140","o":"PRISM DIVERSIFIED LTD.","e":""},"geometry":{"type":"Polygon","coordinates":[[[-119.0,57.0],[-119.0,57.0],[-119.0,57.0],[-119.0,57.0]]]}},{"type":"Feature","properties":{"c":"9424060135","o":"PRISM DIVERSIFIED LTD.","e":""},"geometry":{"type":"MultiPolygon","coordinates":[[[[-118.0,57.0],[-119.0,57.0],[-119.0,57.0],[-118.0,57.0]]],[[[-118.0,57.0],[-118.0,57.0],[-118.0,57.0],[-118.0,57.0]]],[[[-119.0,57.0],[-119.0,57.0],[-119.0,57.0],[-119.0,57.0]]]]}},{"type":"Feature","properties":{"c":"9424060136","o":"PRISM DIVERSIFIED LTD.","e":""},"geometry":{"type":"MultiPolygon","coordinates":[[[[-119.0,57.0],[-119.0,57.0],[-119.0,57.0],[-119.0,57.0]]],[[[-118.0,57.0],[-119.0,57.0],[-119.0,57.0],[-118.0,57.0]]],[[[-119.0,57.0],[-119.0,57.0],[-119.0,57.0],[-119.0,57.0]]],[[[-119.0,57.0],[-119.0,57.0],[-119.0,57.0],[-119.0,57.0]]],[[[-119.0,57.0],[-119.0,57.0],[-119.0,57.0],[-119.0,57.0]]],[[[-118.0,57.0],[-119.0,57.0],[-119.0,57.0],[-118.0,57.0]]],[[[-119.0,57.0],[-119.0,57.0],[-119.0,57.0],[-119.0,57.0]]],[[[-119.0,57.0],[-119.0,57.0],[-119.0,57.0],[-119.0,57.0]]],[[[-119.0,57.0],[-119.0,57.0],[-119.0,57.0],[-119.0,57.0]]]]}},{"type":"Feature","properties":{"c":"9424060137","o":"PRISM DIVERSIFIED LTD.","e":""},"geometry":{"type":"MultiPolygon","coordinates":[[[[-119.0,57.0],[-119.0,57.0],[-119.0,57.0],[-119.0,57.0]]],[[[-119.0,57.0],[-119.0,57.0],[-119.0,57.0],[-119.0,57.0]]],[[[-119.0,57.0],[-119.0,57.0],[-119.0,57.0],[-119.0,57.0]]]]}},{"type":"Feature","properties":{"c":"9424060138","o":"PRISM DIVERSIFIED LTD.","e":""},"geometry":{"type":"MultiPolygon","coordinates":[[[[-119.0,57.0],[-119.0,57.0],[-119.0,57.0],[-119.0,57.0]]],[[[-119.0,57.0],[-119.0,57.0],[-119.0,57.0],[-119.0,57.0]]],[[[-119.0,57.0],[-119.0,57.0],[-119.0,57.0],[-119.0,57.0]]],[[[-119.0,57.0],[-119.0,57.0],[-119.0,57.0],[-119.0,57.0]]],[[[-119.0,57.0],[-119.0,57.0],[-119.0,57.0],[-119.0,57.0]]],[[[-119.0,57.0],[-119.0,57.0],[-119.0,57.0],[-119.0,57.0]]],[[[-119.0,57.0],[-119.0,57.0],[-119.0,57.0],[-119.0,57.0]]]]}},{"type":"Feature","properties":{"c":"9424060139","o":"PRISM DIVERSIFIED LTD.","e":""},"geometry":{"type":"MultiPolygon","coordinates":[[[[-119.0,57.0],[-119.0,57.0],[-119.0,57.0],[-119.0,57.0]]],[[[-119.0,57.0],[-119.0,57.0],[-119.0,57.0],[-119.0,57.0]]],[[[-119.0,57.0],[-119.0,57.0],[-119.0,57.0],[-119.0,57.0]]],[[[-119.0,57.0],[-119.0,57.0],[-119.0,57.0],[-119.0,57.0]]],[[[-119.0,57.0],[-119.0,57.0],[-119.0,57.0],[-119.0,57.0]]],[[[-119.0,57.0],[-119.0,57.0],[-119.0,57.0],[-119.0,57.0]]],[[[-119.0,57.0],[-119.0,57.0],[-119.0,57.0],[-119.0,57.0]]]]}},{"type":"Feature","properties":{"c":"9325040147","o":"WORSLEY IRON - ALBERTA STEEL INC.","e":""},"geometry":{"type":"MultiPolygon","coordinates":[[[[-119.0,56.0],[-119.0,57.0],[-118.0,56.0],[-119.0,56.0]]]]}},{"type":"Feature","properties":{"c":"9325040148","o":"WORSLEY IRON - ALBERTA STEEL INC.","e":""},"geometry":{"type":"MultiPolygon","coordinates":[[[[-119.0,57.0],[-119.0,57.0],[-119.0,57.0],[-119.0,57.0]]],[[[-119.0,57.0],[-119.0,57.0],[-119.0,57.0],[-119.0,57.0]]],[[[-119.0,57.0],[-119.0,57.0],[-119.0,57.0],[-119.0,57.0]]],[[[-119.0,57.0],[-119.0,57.0],[-119.0,57.0],[-119.0,57.0]]],[[[-119.0,57.0],[-119.0,57.0],[-119.0,57.0],[-119.0,57.0]]],[[[-119.0,57.0],[-119.0,57.0],[-119.0,57.0],[-119.0,57.0]]],[[[-119.0,57.0],[-119.0,57.0],[-119.0,57.0],[-119.0,57.0]]],[[[-119.0,57.0],[-119.0,57.0],[-119.0,57.0],[-119.0,57.0]]],[[[-119.0,57.0],[-119.0,57.0],[-119.0,57.0],[-119.0,57.0]]],[[[-119.0,57.0],[-119.0,57.0],[-119.0,57.0],[-119.0,57.0]]],[[[-119.0,57.0],[-119.0,57.0],[-119.0,57.0],[-119.0,57.0]]],[[[-119.0,57.0],[-119.0,57.0],[-119.0,57.0],[-119.0,57.0]]],[[[-119.0,57.0],[-119.0,57.0],[-119.0,57.0],[-119.0,57.0]]],[[[-119.0,57.0],[-119.0,57.0],[-119.0,57.0],[-119.0,57.0]]],[[[-119.0,57.0],[-119.0,57.0],[-119.0,57.0],[-119.0,57.0]]]]}},{"type":"Feature","properties":{"c":"9325040149","o":"WORSLEY IRON - ALBERTA STEEL INC.","e":""},"geometry":{"type":"MultiPolygon","coordinates":[[[[-119.0,57.0],[-119.0,57.0],[-119.0,57.0],[-119.0,57.0]]],[[[-119.0,57.0],[-119.0,57.0],[-119.0,57.0],[-119.0,57.0]]],[[[-119.0,57.0],[-119.0,57.0],[-119.0,57.0],[-119.0,57.0]]],[[[-119.0,57.0],[-119.0,57.0],[-119.0,57.0],[-119.0,57.0]]],[[[-119.0,57.0],[-119.0,57.0],[-119.0,57.0],[-119.0,57.0]]],[[[-119.0,57.0],[-119.0,57.0],[-119.0,57.0],[-119.0,57.0]]],[[[-119.0,57.0],[-119.0,57.0],[-119.0,57.0],[-119.0,57.0]]],[[[-119.0,57.0],[-119.0,57.0],[-119.0,57.0],[-119.0,57.0]]],[[[-119.0,57.0],[-119.0,57.0],[-119.0,57.0],[-119.0,57.0]]],[[[-119.0,57.0],[-119.0,57.0],[-119.0,57.0],[-119.0,57.0]]],[[[-119.0,57.0],[-119.0,57.0],[-119.0,57.0],[-119.0,57.0]]],[[[-119.0,57.0],[-119.0,57.0],[-119.0,57.0],[-119.0,57.0]]],[[[-119.0,57.0],[-119.0,57.0],[-119.0,57.0],[-119.0,57.0]]],[[[-119.0,57.0],[-119.0,57.0],[-119.0,57.0],[-119.0,57.0]]],[[[-119.0,57.0],[-119.0,57.0],[-119.0,57.0],[-119.0,57.0]]],[[[-119.0,57.0],[-119.0,57.0],[-119.0,57.0],[-119.0,57.0]]]]}},{"type":"Feature","properties":{"c":"9325040150","o":"WORSLEY IRON - ALBERTA STEEL INC.","e":""},"geometry":{"type":"MultiPolygon","coordinates":[[[[-119.0,57.0],[-119.0,57.0],[-119.0,57.0],[-119.0,57.0]]],[[[-119.0,57.0],[-119.0,57.0],[-119.0,57.0],[-119.0,57.0]]],[[[-119.0,57.0],[-119.0,57.0],[-119.0,57.0],[-119.0,57.0]]],[[[-119.0,57.0],[-119.0,57.0],[-119.0,57.0],[-119.0,57.0]]],[[[-119.0,57.0],[-119.0,57.0],[-119.0,57.0],[-119.0,57.0]]],[[[-119.0,57.0],[-119.0,57.0],[-119.0,57.0],[-119.0,57.0]]],[[[-119.0,57.0],[-119.0,57.0],[-119.0,57.0],[-119.0,57.0]]],[[[-119.0,57.0],[-119.0,57.0],[-119.0,57.0],[-119.0,57.0]]],[[[-119.0,57.0],[-119.0,57.0],[-119.0,57.0],[-119.0,57.0]]],[[[-119.0,57.0],[-119.0,57.0],[-119.0,57.0],[-119.0,57.0]]],[[[-119.0,57.0],[-119.0,57.0],[-119.0,57.0],[-119.0,57.0]]],[[[-119.0,57.0],[-119.0,57.0],[-119.0,57.0],[-119.0,57.0]]],[[[-119.0,57.0],[-119.0,57.0],[-119.0,57.0],[-119.0,57.0]]],[[[-119.0,57.0],[-119.0,57.0],[-119.0,57.0],[-119.0,57.0]]],[[[-119.0,57.0],[-119.0,57.0],[-119.0,57.0],[-119.0,57.0]]],[[[-119.0,57.0],[-119.0,57.0],[-119.0,57.0],[-119.0,57.0]]]]}},{"type":"Feature","properties":{"c":"9325040151","o":"WORSLEY IRON - ALBERTA STEEL INC.","e":""},"geometry":{"type":"MultiPolygon","coordinates":[[[[-119.0,57.0],[-119.0,57.0],[-119.0,57.0],[-119.0,57.0]]],[[[-119.0,57.0],[-119.0,57.0],[-119.0,57.0],[-119.0,57.0]]],[[[-119.0,57.0],[-119.0,57.0],[-119.0,57.0],[-119.0,57.0]]],[[[-119.0,57.0],[-119.0,57.0],[-119.0,57.0],[-119.0,57.0]]],[[[-119.0,57.0],[-119.0,57.0],[-119.0,57.0],[-119.0,57.0]]],[[[-119.0,57.0],[-119.0,57.0],[-119.0,57.0],[-119.0,57.0]]],[[[-119.0,57.0],[-119.0,57.0],[-119.0,57.0],[-119.0,57.0]]],[[[-119.0,57.0],[-119.0,57.0],[-119.0,57.0],[-119.0,57.0]]],[[[-119.0,57.0],[-119.0,57.0],[-119.0,57.0],[-119.0,57.0]]],[[[-119.0,57.0],[-119.0,57.0],[-119.0,57.0],[-119.0,57.0]]],[[[-119.0,57.0],[-119.0,57.0],[-119.0,57.0],[-119.0,57.0]]],[[[-119.0,57.0],[-120.0,57.0],[-120.0,57.0],[-119.0,57.0]]],[[[-120.0,57.0],[-120.0,57.0],[-120.0,57.0],[-120.0,57.0]]],[[[-120.0,57.0],[-120.0,57.0],[-120.0,57.0],[-120.0,57.0]]],[[[-120.0,57.0],[-120.0,57.0],[-120.0,57.0],[-120.0,57.0]]],[[[-119.0,57.0],[-119.0,57.0],[-119.0,57.0],[-119.0,57.0]]],[[[-119.0,57.0],[-119.0,57.0],[-119.0,57.0],[-119.0,57.0]]],[[[-119.0,57.0],[-120.0,57.0],[-120.0,57.0],[-119.0,57.0]]],[[[-120.0,57.0],[-120.0,57.0],[-120.0,57.0],[-120.0,57.0]]],[[[-120.0,57.0],[-120.0,57.0],[-120.0,57.0],[-120.0,57.0]]],[[[-120.0,57.0],[-120.0,57.0],[-120.0,57.0],[-120.0,57.0]]],[[[-120.0,57.0],[-120.0,57.0],[-120.0,57.0],[-120.0,57.0]]]]}},{"type":"Feature","properties":{"c":"9924040208","o":"2277445 ALBERTA LTD.","e":""},"geometry":{"type":"MultiPolygon","coordinates":[[[[-119.0,57.0],[-119.0,57.0],[-119.0,57.0],[-119.0,57.0]]],[[[-119.0,57.0],[-119.0,57.0],[-119.0,57.0],[-119.0,57.0]]],[[[-119.0,57.0],[-119.0,57.0],[-119.0,57.0],[-119.0,57.0]]],[[[-119.0,57.0],[-119.0,57.0],[-119.0,57.0],[-119.0,57.0]]],[[[-119.0,57.0],[-119.0,57.0],[-119.0,57.0],[-119.0,57.0]]],[[[-119.0,57.0],[-119.0,57.0],[-119.0,57.0],[-119.0,57.0]]],[[[-119.0,57.0],[-119.0,57.0],[-119.0,57.0],[-119.0,57.0]]],[[[-119.0,57.0],[-119.0,57.0],[-119.0,57.0],[-119.0,57.0]]],[[[-119.0,57.0],[-119.0,57.0],[-119.0,57.0],[-119.0,57.0]]],[[[-119.0,57.0],[-119.0,57.0],[-119.0,57.0],[-119.0,57.0]]],[[[-119.0,57.0],[-119.0,57.0],[-119.0,57.0],[-119.0,57.0]]],[[[-119.0,57.0],[-119.0,57.0],[-119.0,57.0],[-119.0,57.0]]]]}},{"type":"Feature","properties":{"c":"9924040207","o":"2277445 ALBERTA LTD.","e":""},"geometry":{"type":"MultiPolygon","coordinates":[[[[-119.0,57.0],[-119.0,57.0],[-119.0,57.0],[-119.0,57.0]]],[[[-119.0,57.0],[-119.0,57.0],[-119.0,57.0],[-119.0,57.0]]],[[[-119.0,57.0],[-119.0,57.0],[-119.0,57.0],[-119.0,57.0]]],[[[-119.0,57.0],[-119.0,57.0],[-119.0,57.0],[-119.0,57.0]]],[[[-119.0,57.0],[-119.0,57.0],[-119.0,57.0],[-119.0,57.0]]],[[[-119.0,57.0],[-119.0,57.0],[-119.0,57.0],[-119.0,57.0]]],[[[-119.0,57.0],[-119.0,57.0],[-119.0,57.0],[-119.0,57.0]]],[[[-119.0,57.0],[-119.0,57.0],[-119.0,57.0],[-119.0,57.0]]],[[[-119.0,57.0],[-119.0,57.0],[-119.0,57.0],[-119.0,57.0]]],[[[-119.0,57.0],[-119.0,57.0],[-119.0,57.0],[-119.0,57.0]]],[[[-119.0,57.0],[-119.0,57.0],[-119.0,57.0],[-119.0,57.0]]],[[[-119.0,57.0],[-119.0,57.0],[-119.0,57.0],[-119.0,57.0]]]]}},{"type":"Feature","properties":{"c":"9924040206","o":"2277445 ALBERTA LTD.","e":""},"geometry":{"type":"MultiPolygon","coordinates":[[[[-119.0,57.0],[-119.0,57.0],[-119.0,57.0],[-119.0,57.0]]],[[[-119.0,57.0],[-119.0,57.0],[-119.0,57.0],[-119.0,57.0]]],[[[-119.0,57.0],[-119.0,57.0],[-119.0,57.0],[-119.0,57.0]]],[[[-119.0,57.0],[-119.0,57.0],[-119.0,57.0],[-119.0,57.0]]],[[[-119.0,57.0],[-119.0,57.0],[-119.0,57.0],[-119.0,57.0]]],[[[-119.0,57.0],[-119.0,57.0],[-119.0,57.0],[-119.0,57.0]]],[[[-119.0,57.0],[-119.0,57.0],[-119.0,57.0],[-119.0,57.0]]],[[[-119.0,57.0],[-119.0,57.0],[-119.0,57.0],[-119.0,57.0]]],[[[-119.0,57.0],[-119.0,57.0],[-119.0,57.0],[-119.0,57.0]]],[[[-119.0,57.0],[-119.0,57.0],[-119.0,57.0],[-119.0,57.0]]],[[[-119.0,57.0],[-119.0,57.0],[-119.0,57.0],[-119.0,57.0]]],[[[-119.0,57.0],[-119.0,57.0],[-119.0,57.0],[-119.0,57.0]]],[[[-119.0,57.0],[-119.0,57.0],[-119.0,57.0],[-119.0,57.0]]],[[[-119.0,57.0],[-119.0,57.0],[-119.0,57.0],[-119.0,57.0]]],[[[-119.0,57.0],[-119.0,57.0],[-119.0,57.0],[-119.0,57.0]]]]}},{"type":"Feature","properties":{"c":"9325100115","o":"WORSLEY IRON - ALBERTA STEEL INC.","e":""},"geometry":{"type":"MultiPolygon","coordinates":[[[[-119.0,57.0],[-119.0,57.0],[-119.0,57.0],[-119.0,57.0]]],[[[-119.0,57.0],[-119.0,57.0],[-119.0,57.0],[-119.0,57.0]]],[[[-119.0,57.0],[-119.0,57.0],[-119.0,57.0],[-119.0,57.0]]],[[[-119.0,57.0],[-119.0,57.0],[-119.0,57.0],[-119.0,57.0]]],[[[-119.0,57.0],[-119.0,57.0],[-119.0,57.0],[-119.0,57.0]]],[[[-119.0,57.0],[-119.0,57.0],[-119.0,57.0],[-119.0,57.0]]],[[[-119.0,57.0],[-119.0,57.0],[-119.0,57.0],[-119.0,57.0]]],[[[-119.0,57.0],[-119.0,57.0],[-119.0,57.0],[-119.0,57.0]]],[[[-119.0,57.0],[-119.0,57.0],[-119.0,57.0],[-119.0,57.0]]],[[[-119.0,57.0],[-119.0,57.0],[-119.0,57.0],[-119.0,57.0]]],[[[-119.0,57.0],[-119.0,57.0],[-119.0,57.0],[-119.0,57.0]]],[[[-119.0,57.0],[-119.0,57.0],[-119.0,57.0],[-119.0,57.0]]],[[[-119.0,57.0],[-119.0,57.0],[-119.0,57.0],[-119.0,57.0]]],[[[-119.0,57.0],[-119.0,57.0],[-119.0,57.0],[-119.0,57.0]]]]}},{"type":"Feature","properties":{"c":"9326010137","o":"WORSLEY IRON - ALBERTA STEEL INC.","e":""},"geometry":{"type":"MultiPolygon","coordinates":[[[[-119.0,57.0],[-119.0,57.0],[-119.0,57.0],[-119.0,57.0]]],[[[-119.0,57.0],[-119.0,57.0],[-119.0,57.0],[-119.0,57.0]]],[[[-119.0,57.0],[-119.0,57.0],[-119.0,57.0],[-119.0,57.0]]],[[[-119.0,57.0],[-119.0,57.0],[-119.0,57.0],[-119.0,57.0]]],[[[-119.0,57.0],[-119.0,57.0],[-119.0,57.0],[-119.0,57.0]]],[[[-119.0,57.0],[-119.0,57.0],[-119.0,57.0],[-119.0,57.0]]],[[[-119.0,57.0],[-119.0,57.0],[-119.0,57.0],[-119.0,57.0]]],[[[-119.0,57.0],[-119.0,57.0],[-119.0,57.0],[-119.0,57.0]]],[[[-119.0,57.0],[-119.0,57.0],[-119.0,57.0],[-119.0,57.0]]],[[[-119.0,57.0],[-119.0,57.0],[-119.0,57.0],[-119.0,57.0]]],[[[-119.0,57.0],[-119.0,57.0],[-119.0,57.0],[-119.0,57.0]]],[[[-119.0,57.0],[-119.0,57.0],[-119.0,57.0],[-119.0,57.0]]],[[[-119.0,57.0],[-119.0,57.0],[-119.0,57.0],[-119.0,57.0]]],[[[-119.0,57.0],[-119.0,57.0],[-119.0,57.0],[-119.0,57.0]]],[[[-119.0,57.0],[-119.0,57.0],[-119.0,57.0],[-119.0,57.0]]],[[[-119.0,57.0],[-119.0,57.0],[-119.0,57.0],[-119.0,57.0]]],[[[-119.0,57.0],[-119.0,57.0],[-119.0,57.0],[-119.0,57.0]]],[[[-119.0,57.0],[-119.0,57.0],[-119.0,57.0],[-119.0,57.0]]],[[[-119.0,57.0],[-119.0,57.0],[-119.0,57.0],[-119.0,57.0]]],[[[-119.0,57.0],[-119.0,57.0],[-119.0,57.0],[-119.0,57.0]]],[[[-119.0,57.0],[-119.0,57.0],[-119.0,57.0],[-119.0,57.0]]],[[[-119.0,57.0],[-119.0,57.0],[-119.0,57.0],[-119.0,57.0]]],[[[-119.0,57.0],[-119.0,57.0],[-119.0,57.0],[-119.0,57.0]]],[[[-119.0,57.0],[-119.0,57.0],[-119.0,57.0],[-119.0,57.0]]]]}},{"type":"Feature","properties":{"c":"9326020059","o":"WORSLEY IRON - ALBERTA STEEL INC.","e":""},"geometry":{"type":"MultiPolygon","coordinates":[[[[-119.0,57.0],[-119.0,57.0],[-119.0,57.0],[-119.0,57.0]]],[[[-119.0,57.0],[-119.0,57.0],[-119.0,57.0],[-119.0,57.0]]],[[[-119.0,57.0],[-119.0,57.0],[-119.0,57.0],[-119.0,57.0]]],[[[-119.0,57.0],[-119.0,57.0],[-119.0,57.0],[-119.0,57.0]]],[[[-118.0,57.0],[-118.0,57.0],[-118.0,57.0],[-118.0,57.0]]],[[[-118.0,57.0],[-118.0,57.0],[-118.0,57.0],[-118.0,57.0]]],[[[-118.0,57.0],[-118.0,57.0],[-118.0,57.0],[-118.0,57.0]]],[[[-118.0,57.0],[-119.0,57.0],[-119.0,57.0],[-118.0,57.0]]],[[[-119.0,57.0],[-119.0,57.0],[-119.0,57.0],[-119.0,57.0]]],[[[-119.0,57.0],[-119.0,57.0],[-119.0,57.0],[-119.0,57.0]]],[[[-119.0,57.0],[-119.0,57.0],[-119.0,57.0],[-119.0,57.0]]],[[[-119.0,57.0],[-119.0,57.0],[-119.0,57.0],[-119.0,57.0]]],[[[-119.0,57.0],[-119.0,57.0],[-119.0,57.0],[-119.0,57.0]]],[[[-118.0,57.0],[-118.0,57.0],[-118.0,57.0],[-118.0,57.0]]],[[[-118.0,57.0],[-118.0,57.0],[-118.0,57.0],[-118.0,57.0]]],[[[-118.0,57.0],[-119.0,57.0],[-119.0,57.0],[-118.0,57.0]]]]}},{"type":"Feature","properties":{"c":"9326020060","o":"WORSLEY IRON - ALBERTA STEEL INC.","e":""},"geometry":{"type":"MultiPolygon","coordinates":[[[[-118.0,57.0],[-118.0,57.0],[-118.0,57.0],[-118.0,57.0]]],[[[-118.0,56.0],[-118.0,57.0],[-118.0,56.0],[-118.0,56.0]]],[[[-118.0,56.0],[-118.0,57.0],[-118.0,56.0],[-118.0,56.0]]],[[[-118.0,56.0],[-118.0,57.0],[-118.0,56.0],[-118.0,56.0]]],[[[-118.0,57.0],[-118.0,57.0],[-118.0,57.0],[-118.0,57.0]]],[[[-118.0,57.0],[-118.0,57.0],[-118.0,57.0],[-118.0,57.0]]],[[[-118.0,57.0],[-118.0,57.0],[-118.0,57.0],[-118.0,57.0]]],[[[-118.0,57.0],[-118.0,57.0],[-118.0,57.0],[-118.0,57.0]]],[[[-118.0,57.0],[-118.0,57.0],[-118.0,57.0],[-118.0,57.0]]],[[[-118.0,57.0],[-118.0,57.0],[-118.0,57.0],[-118.0,57.0]]],[[[-118.0,57.0],[-118.0,57.0],[-118.0,57.0],[-118.0,57.0]]],[[[-118.0,57.0],[-118.0,57.0],[-118.0,57.0],[-118.0,57.0]]],[[[-118.0,57.0],[-118.0,57.0],[-118.0,57.0],[-118.0,57.0]]],[[[-118.0,57.0],[-118.0,57.0],[-118.0,57.0],[-118.0,57.0]]],[[[-118.0,57.0],[-118.0,57.0],[-118.0,57.0],[-118.0,57.0]]],[[[-118.0,57.0],[-118.0,57.0],[-118.0,57.0],[-118.0,57.0]]],[[[-118.0,57.0],[-118.0,57.0],[-118.0,57.0],[-118.0,57.0]]],[[[-118.0,57.0],[-119.0,57.0],[-119.0,57.0],[-118.0,57.0]]],[[[-119.0,57.0],[-119.0,57.0],[-119.0,57.0],[-119.0,57.0]]]]}},{"type":"Feature","properties":{"c":"9326030125","o":"1080766 ALBERTA LTD.","e":""},"geometry":{"type":"MultiPolygon","coordinates":[[[[-119.0,57.0],[-119.0,57.0],[-119.0,57.0],[-119.0,57.0]]],[[[-119.0,57.0],[-119.0,57.0],[-119.0,57.0],[-119.0,57.0]]],[[[-119.0,57.0],[-119.0,57.0],[-119.0,57.0],[-119.0,57.0]]],[[[-119.0,57.0],[-119.0,57.0],[-119.0,57.0],[-119.0,57.0]]],[[[-119.0,57.0],[-119.0,57.0],[-119.0,57.0],[-119.0,57.0]]],[[[-119.0,57.0],[-119.0,57.0],[-119.0,57.0],[-119.0,57.0]]],[[[-119.0,57.0],[-119.0,57.0],[-119.0,57.0],[-119.0,57.0]]],[[[-119.0,57.0],[-119.0,57.0],[-119.0,57.0],[-119.0,57.0]]],[[[-119.0,57.0],[-119.0,57.0],[-119.0,57.0],[-119.0,57.0]]],[[[-119.0,57.0],[-119.0,57.0],[-119.0,57.0],[-119.0,57.0]]],[[[-119.0,57.0],[-119.0,57.0],[-119.0,57.0],[-119.0,57.0]]],[[[-119.0,57.0],[-119.0,57.0],[-119.0,57.0],[-119.0,57.0]]],[[[-119.0,57.0],[-119.0,57.0],[-119.0,57.0],[-119.0,57.0]]],[[[-119.0,57.0],[-119.0,57.0],[-119.0,57.0],[-119.0,57.0]]],[[[-119.0,57.0],[-119.0,57.0],[-119.0,57.0],[-119.0,57.0]]],[[[-119.0,57.0],[-119.0,57.0],[-119.0,57.0],[-119.0,57.0]]],[[[-119.0,57.0],[-119.0,57.0],[-119.0,57.0],[-119.0,57.0]]],[[[-119.0,57.0],[-119.0,57.0],[-119.0,57.0],[-119.0,57.0]]]]}},{"type":"Feature","properties":{"c":"9326030132","o":"1080766 ALBERTA LTD.","e":""},"geometry":{"type":"MultiPolygon","coordinates":[[[[-119.0,57.0],[-119.0,57.0],[-119.0,57.0],[-119.0,57.0]]],[[[-119.0,57.0],[-119.0,57.0],[-119.0,57.0],[-119.0,57.0]]],[[[-119.0,57.0],[-119.0,57.0],[-119.0,57.0],[-119.0,57.0]]],[[[-119.0,57.0],[-119.0,57.0],[-119.0,57.0],[-119.0,57.0]]],[[[-119.0,57.0],[-119.0,57.0],[-119.0,57.0],[-119.0,57.0]]],[[[-119.0,57.0],[-119.0,57.0],[-119.0,57.0],[-119.0,57.0]]]]}},{"type":"Feature","properties":{"c":"9326030134","o":"1080766 ALBERTA LTD.","e":""},"geometry":{"type":"MultiPolygon","coordinates":[[[[-119.0,57.0],[-119.0,57.0],[-119.0,57.0],[-119.0,57.0]]],[[[-119.0,57.0],[-119.0,57.0],[-119.0,57.0],[-119.0,57.0]]],[[[-119.0,57.0],[-119.0,57.0],[-119.0,57.0],[-119.0,57.0]]],[[[-119.0,57.0],[-119.0,57.0],[-119.0,57.0],[-119.0,57.0]]],[[[-119.0,57.0],[-119.0,57.0],[-119.0,57.0],[-119.0,57.0]]],[[[-119.0,57.0],[-119.0,57.0],[-119.0,57.0],[-119.0,57.0]]],[[[-119.0,57.0],[-119.0,57.0],[-119.0,57.0],[-119.0,57.0]]],[[[-119.0,57.0],[-119.0,57.0],[-119.0,57.0],[-119.0,57.0]]],[[[-119.0,57.0],[-119.0,57.0],[-119.0,57.0],[-119.0,57.0]]],[[[-119.0,57.0],[-119.0,57.0],[-119.0,57.0],[-119.0,57.0]]],[[[-119.0,57.0],[-119.0,57.0],[-119.0,57.0],[-119.0,57.0]]],[[[-119.0,57.0],[-119.0,57.0],[-119.0,57.0],[-119.0,57.0]]],[[[-119.0,57.0],[-119.0,57.0],[-119.0,57.0],[-119.0,57.0]]],[[[-119.0,57.0],[-119.0,57.0],[-119.0,57.0],[-119.0,57.0]]],[[[-119.0,57.0],[-119.0,57.0],[-119.0,57.0],[-119.0,57.0]]],[[[-119.0,57.0],[-119.0,57.0],[-119.0,57.0],[-119.0,57.0]]],[[[-119.0,57.0],[-119.0,57.0],[-119.0,57.0],[-119.0,57.0]]]]}},{"type":"Feature","properties":{"c":"9326030135","o":"1080766 ALBERTA LTD.","e":""},"geometry":{"type":"MultiPolygon","coordinates":[[[[-119.0,57.0],[-119.0,57.0],[-119.0,57.0],[-119.0,57.0]]],[[[-119.0,57.0],[-119.0,57.0],[-119.0,57.0],[-119.0,57.0]]],[[[-119.0,57.0],[-119.0,57.0],[-119.0,57.0],[-119.0,57.0]]],[[[-119.0,57.0],[-119.0,57.0],[-119.0,57.0],[-119.0,57.0]]],[[[-119.0,57.0],[-119.0,57.0],[-119.0,57.0],[-119.0,57.0]]],[[[-119.0,57.0],[-119.0,57.0],[-119.0,57.0],[-119.0,57.0]]],[[[-119.0,57.0],[-119.0,57.0],[-119.0,57.0],[-119.0,57.0]]],[[[-119.0,57.0],[-119.0,57.0],[-119.0,57.0],[-119.0,57.0]]],[[[-119.0,57.0],[-119.0,57.0],[-119.0,57.0],[-119.0,57.0]]],[[[-119.0,57.0],[-119.0,57.0],[-119.0,57.0],[-119.0,57.0]]],[[[-119.0,57.0],[-119.0,57.0],[-119.0,57.0],[-119.0,57.0]]],[[[-119.0,57.0],[-119.0,57.0],[-119.0,57.0],[-119.0,57.0]]],[[[-119.0,57.0],[-119.0,57.0],[-119.0,57.0],[-119.0,57.0]]]]}},{"type":"Feature","properties":{"c":"9326030138","o":"1080766 ALBERTA LTD.","e":""},"geometry":{"type":"MultiPolygon","coordinates":[[[[-119.0,57.0],[-119.0,57.0],[-119.0,57.0],[-119.0,57.0]]],[[[-119.0,57.0],[-119.0,57.0],[-119.0,57.0],[-119.0,57.0]]],[[[-119.0,57.0],[-119.0,57.0],[-119.0,57.0],[-119.0,57.0]]],[[[-119.0,57.0],[-119.0,57.0],[-119.0,57.0],[-119.0,57.0]]],[[[-119.0,57.0],[-119.0,57.0],[-119.0,57.0],[-119.0,57.0]]],[[[-119.0,57.0],[-119.0,57.0],[-119.0,57.0],[-119.0,57.0]]],[[[-119.0,57.0],[-119.0,57.0],[-119.0,57.0],[-119.0,57.0]]],[[[-119.0,57.0],[-119.0,57.0],[-119.0,57.0],[-119.0,57.0]]],[[[-119.0,57.0],[-119.0,57.0],[-119.0,57.0],[-119.0,57.0]]],[[[-119.0,57.0],[-119.0,57.0],[-119.0,57.0],[-119.0,57.0]]],[[[-119.0,57.0],[-119.0,57.0],[-119.0,57.0],[-119.0,57.0]]],[[[-119.0,57.0],[-119.0,57.0],[-119.0,57.0],[-119.0,57.0]]],[[[-119.0,57.0],[-119.0,57.0],[-119.0,57.0],[-119.0,57.0]]]]}},{"type":"Feature","properties":{"c":"9326030139","o":"1080766 ALBERTA LTD.","e":""},"geometry":{"type":"MultiPolygon","coordinates":[[[[-119.0,57.0],[-119.0,57.0],[-119.0,57.0],[-119.0,57.0]]],[[[-119.0,57.0],[-119.0,57.0],[-119.0,57.0],[-119.0,57.0]]],[[[-119.0,57.0],[-119.0,57.0],[-119.0,57.0],[-119.0,57.0]]],[[[-119.0,57.0],[-119.0,57.0],[-119.0,57.0],[-119.0,57.0]]],[[[-119.0,57.0],[-119.0,57.0],[-119.0,57.0],[-119.0,57.0]]],[[[-119.0,57.0],[-119.0,57.0],[-119.0,57.0],[-119.0,57.0]]],[[[-119.0,57.0],[-119.0,57.0],[-119.0,57.0],[-119.0,57.0]]],[[[-119.0,57.0],[-119.0,57.0],[-119.0,57.0],[-119.0,57.0]]],[[[-119.0,57.0],[-119.0,57.0],[-119.0,57.0],[-119.0,57.0]]],[[[-119.0,57.0],[-119.0,57.0],[-119.0,57.0],[-119.0,57.0]]],[[[-119.0,57.0],[-119.0,57.0],[-119.0,57.0],[-119.0,57.0]]],[[[-119.0,57.0],[-119.0,57.0],[-119.0,57.0],[-119.0,57.0]]],[[[-119.0,57.0],[-119.0,57.0],[-119.0,57.0],[-119.0,57.0]]],[[[-119.0,57.0],[-119.0,57.0],[-119.0,57.0],[-119.0,57.0]]],[[[-119.0,57.0],[-119.0,57.0],[-119.0,57.0],[-119.0,57.0]]],[[[-119.0,57.0],[-119.0,57.0],[-119.0,57.0],[-119.0,57.0]]],[[[-119.0,57.0],[-119.0,57.0],[-119.0,57.0],[-119.0,57.0]]],[[[-119.0,57.0],[-119.0,57.0],[-119.0,57.0],[-119.0,57.0]]]]}},{"type":"Feature","properties":{"c":"9326030140","o":"1080766 ALBERTA LTD.","e":""},"geometry":{"type":"MultiPolygon","coordinates":[[[[-118.0,57.0],[-118.0,57.0],[-118.0,57.0],[-118.0,57.0]]],[[[-118.0,57.0],[-118.0,57.0],[-118.0,57.0],[-118.0,57.0]]],[[[-118.0,57.0],[-118.0,57.0],[-118.0,57.0],[-118.0,57.0]]],[[[-118.0,57.0],[-118.0,57.0],[-118.0,57.0],[-118.0,57.0]]],[[[-118.0,57.0],[-118.0,57.0],[-118.0,57.0],[-118.0,57.0]]],[[[-118.0,57.0],[-118.0,57.0],[-118.0,57.0],[-118.0,57.0]]],[[[-118.0,57.0],[-118.0,57.0],[-118.0,57.0],[-118.0,57.0]]],[[[-118.0,57.0],[-118.0,57.0],[-118.0,57.0],[-118.0,57.0]]],[[[-118.0,57.0],[-119.0,57.0],[-118.0,57.0],[-118.0,57.0]]]]}},{"type":"Feature","properties":{"c":"9326030141","o":"1080766 ALBERTA LTD.","e":""},"geometry":{"type":"MultiPolygon","coordinates":[[[[-119.0,57.0],[-119.0,57.0],[-119.0,57.0],[-119.0,57.0]]],[[[-119.0,57.0],[-119.0,57.0],[-119.0,57.0],[-119.0,57.0]]],[[[-119.0,57.0],[-119.0,57.0],[-119.0,57.0],[-119.0,57.0]]],[[[-119.0,57.0],[-119.0,57.0],[-119.0,57.0],[-119.0,57.0]]],[[[-119.0,57.0],[-119.0,57.0],[-119.0,57.0],[-119.0,57.0]]],[[[-119.0,57.0],[-119.0,57.0],[-119.0,57.0],[-119.0,57.0]]]]}},{"type":"Feature","properties":{"c":"9326030142","o":"HIGHWOOD ASSET MANAGEMENT LTD.","e":""},"geometry":{"type":"MultiPolygon","coordinates":[[[[-118.0,57.0],[-119.0,57.0],[-119.0,57.0],[-118.0,57.0]]],[[[-119.0,57.0],[-119.0,57.0],[-119.0,57.0],[-119.0,57.0]]],[[[-118.0,57.0],[-119.0,57.0],[-119.0,57.0],[-118.0,57.0]]],[[[-119.0,57.0],[-119.0,57.0],[-119.0,57.0],[-119.0,57.0]]],[[[-119.0,57.0],[-119.0,57.0],[-119.0,57.0],[-119.0,57.0]]],[[[-119.0,57.0],[-119.0,57.0],[-119.0,57.0],[-119.0,57.0]]],[[[-119.0,57.0],[-119.0,57.0],[-119.0,57.0],[-119.0,57.0]]],[[[-119.0,57.0],[-119.0,57.0],[-119.0,57.0],[-119.0,57.0]]],[[[-119.0,57.0],[-118.0,57.0],[-118.0,57.0],[-119.0,57.0]]],[[[-119.0,57.0],[-119.0,57.0],[-119.0,57.0],[-119.0,57.0]]],[[[-119.0,57.0],[-119.0,57.0],[-119.0,57.0],[-119.0,57.0]]],[[[-119.0,57.0],[-119.0,57.0],[-119.0,57.0],[-119.0,57.0]]],[[[-119.0,57.0],[-119.0,57.0],[-119.0,57.0],[-119.0,57.0]]],[[[-119.0,57.0],[-119.0,57.0],[-119.0,57.0],[-119.0,57.0]]]]}},{"type":"Feature","properties":{"c":"9326030152","o":"HIGHWOOD ASSET MANAGEMENT LTD.","e":""},"geometry":{"type":"MultiPolygon","coordinates":[[[[-119.0,57.0],[-119.0,57.0],[-119.0,57.0],[-119.0,57.0]]],[[[-118.0,57.0],[-119.0,57.0],[-119.0,57.0],[-118.0,57.0]]],[[[-119.0,57.0],[-119.0,57.0],[-119.0,57.0],[-119.0,57.0]]],[[[-119.0,57.0],[-119.0,57.0],[-119.0,57.0],[-119.0,57.0]]],[[[-119.0,57.0],[-119.0,57.0],[-119.0,57.0],[-119.0,57.0]]],[[[-119.0,57.0],[-119.0,57.0],[-119.0,57.0],[-119.0,57.0]]],[[[-119.0,57.0],[-119.0,57.0],[-119.0,57.0],[-119.0,57.0]]]]}},{"type":"Feature","properties":{"c":"9326030133","o":"1080766 ALBERTA LTD.","e":""},"geometry":{"type":"MultiPolygon","coordinates":[[[[-119.0,57.0],[-119.0,57.0],[-119.0,57.0],[-119.0,57.0]]],[[[-119.0,57.0],[-119.0,57.0],[-119.0,57.0],[-119.0,57.0]]],[[[-119.0,57.0],[-119.0,57.0],[-119.0,57.0],[-119.0,57.0]]],[[[-119.0,57.0],[-119.0,57.0],[-119.0,57.0],[-119.0,57.0]]],[[[-119.0,57.0],[-119.0,57.0],[-119.0,57.0],[-119.0,57.0]]],[[[-119.0,57.0],[-119.0,57.0],[-119.0,57.0],[-119.0,57.0]]],[[[-119.0,57.0],[-119.0,57.0],[-119.0,57.0],[-119.0,57.0]]],[[[-119.0,57.0],[-119.0,57.0],[-119.0,57.0],[-119.0,57.0]]],[[[-119.0,57.0],[-119.0,57.0],[-119.0,57.0],[-119.0,57.0]]],[[[-119.0,57.0],[-119.0,57.0],[-119.0,57.0],[-119.0,57.0]]],[[[-119.0,57.0],[-119.0,57.0],[-119.0,57.0],[-119.0,57.0]]]]}},{"type":"Feature","properties":{"c":"9326040073","o":"HIGHWOOD ASSET MANAGEMENT LTD.","e":""},"geometry":{"type":"MultiPolygon","coordinates":[[[[-119.0,57.0],[-119.0,57.0],[-119.0,57.0],[-119.0,57.0]]],[[[-119.0,57.0],[-119.0,57.0],[-119.0,57.0],[-119.0,57.0]]],[[[-119.0,57.0],[-119.0,57.0],[-119.0,57.0],[-119.0,57.0]]],[[[-119.0,57.0],[-119.0,57.0],[-119.0,57.0],[-119.0,57.0]]],[[[-119.0,57.0],[-119.0,57.0],[-119.0,57.0],[-119.0,57.0]]],[[[-119.0,57.0],[-119.0,57.0],[-119.0,57.0],[-119.0,57.0]]]]}},{"type":"Feature","properties":{"c":"9326040074","o":"HIGHWOOD ASSET MANAGEMENT LTD.","e":""},"geometry":{"type":"MultiPolygon","coordinates":[[[[-119.0,57.0],[-119.0,57.0],[-119.0,57.0],[-119.0,57.0]]],[[[-118.0,57.0],[-119.0,57.0],[-119.0,57.0],[-118.0,57.0]]],[[[-119.0,57.0],[-119.0,57.0],[-119.0,57.0],[-119.0,57.0]]],[[[-119.0,57.0],[-119.0,57.0],[-119.0,57.0],[-119.0,57.0]]],[[[-119.0,57.0],[-119.0,57.0],[-119.0,57.0],[-119.0,57.0]]],[[[-119.0,57.0],[-119.0,57.0],[-119.0,57.0],[-119.0,57.0]]],[[[-119.0,57.0],[-119.0,57.0],[-119.0,57.0],[-119.0,57.0]]],[[[-119.0,57.0],[-119.0,57.0],[-119.0,57.0],[-119.0,57.0]]],[[[-119.0,57.0],[-119.0,57.0],[-119.0,57.0],[-119.0,57.0]]],[[[-119.0,57.0],[-119.0,57.0],[-119.0,57.0],[-119.0,57.0]]]]}},{"type":"Feature","properties":{"c":"9326040139","o":"WORSLEY IRON - ALBERTA STEEL INC.","e":""},"geometry":{"type":"MultiPolygon","coordinates":[[[[-119.0,57.0],[-119.0,57.0],[-119.0,57.0],[-119.0,57.0]]],[[[-119.0,57.0],[-119.0,57.0],[-119.0,57.0],[-119.0,57.0]]],[[[-119.0,57.0],[-119.0,57.0],[-119.0,57.0],[-119.0,57.0]]],[[[-119.0,57.0],[-119.0,57.0],[-119.0,57.0],[-119.0,57.0]]],[[[-119.0,57.0],[-119.0,57.0],[-119.0,57.0],[-119.0,57.0]]],[[[-119.0,57.0],[-119.0,57.0],[-119.0,57.0],[-119.0,57.0]]],[[[-119.0,57.0],[-119.0,57.0],[-119.0,57.0],[-119.0,57.0]]],[[[-119.0,57.0],[-119.0,57.0],[-119.0,57.0],[-119.0,57.0]]],[[[-119.0,57.0],[-119.0,57.0],[-119.0,57.0],[-119.0,57.0]]],[[[-119.0,57.0],[-119.0,57.0],[-119.0,57.0],[-119.0,57.0]]],[[[-118.0,57.0],[-118.0,57.0],[-118.0,57.0],[-118.0,57.0]]],[[[-118.0,57.0],[-119.0,57.0],[-119.0,57.0],[-118.0,57.0]]],[[[-118.0,57.0],[-118.0,57.0],[-118.0,57.0],[-118.0,57.0]]],[[[-119.0,57.0],[-119.0,57.0],[-119.0,57.0],[-119.0,57.0]]],[[[-119.0,57.0],[-119.0,57.0],[-119.0,57.0],[-119.0,57.0]]],[[[-119.0,57.0],[-119.0,57.0],[-119.0,57.0],[-119.0,57.0]]],[[[-119.0,57.0],[-119.0,57.0],[-119.0,57.0],[-119.0,57.0]]],[[[-119.0,57.0],[-119.0,57.0],[-119.0,57.0],[-119.0,57.0]]],[[[-119.0,57.0],[-119.0,57.0],[-119.0,57.0],[-119.0,57.0]]],[[[-119.0,57.0],[-119.0,57.0],[-119.0,57.0],[-119.0,57.0]]],[[[-119.0,57.0],[-119.0,57.0],[-119.0,57.0],[-119.0,57.0]]],[[[-119.0,57.0],[-119.0,57.0],[-119.0,57.0],[-119.0,57.0]]]]}}]}