{"type":"FeatureCollection","features":[{"type":"Feature","properties":{"c":"9924030236","o":"MONOLITH METALS CORP.","e":""},"geometry":{"type":"MultiPolygon","coordinates":[[[[-119.25664,55.1125],[-119.28196,55.1125],[-119.28198,55.14145],[-119.25664,55.14141],[-119.25664,55.11611],[-119.25664,55.1125]]],[[[-119.154,55.14162],[-119.17939,55.14162],[-119.17939,55.17053],[-119.15404,55.17054],[-119.15401,55.14523],[-119.154,55.14162]]],[[[-119.15403,55.11254],[-119.17937,55.11254],[-119.17939,55.14144],[-119.154,55.14143],[-119.15402,55.11615],[-119.15403,55.11254]]],[[[-119.17968,55.11254],[-119.20502,55.11253],[-119.20504,55.14142],[-119.1797,55.14144],[-119.17969,55.11615],[-119.17968,55.11254]]],[[[-119.231,55.11251],[-119.25633,55.1125],[-119.25632,55.14141],[-119.231,55.1414],[-119.231,55.11611],[-119.231,55.11251]]],[[[-119.20534,55.11253],[-119.23068,55.11251],[-119.23069,55.1414],[-119.20535,55.14142],[-119.20534,55.11614],[-119.20534,55.11253]]],[[[-119.25664,55.14159],[-119.28198,55.14163],[-119.28197,55.17052],[-119.25664,55.1705],[-119.25664,55.1452],[-119.25664,55.14159]]],[[[-119.1797,55.14162],[-119.20504,55.1416],[-119.20505,55.17051],[-119.1797,55.17053],[-119.17971,55.14524],[-119.1797,55.14162]]],[[[-119.20535,55.1416],[-119.23069,55.14158],[-119.23069,55.17049],[-119.20536,55.17051],[-119.20535,55.14522],[-119.20535,55.1416]]],[[[-119.25664,55.17068],[-119.28197,55.1707],[-119.28196,55.1996],[-119.25664,55.19959],[-119.25664,55.17429],[-119.25664,55.17068]]],[[[-119.231,55.14158],[-119.25632,55.14159],[-119.25632,55.1705],[-119.23101,55.17049],[-119.231,55.1452],[-119.231,55.14158]]],[[[-119.2823,55.14163],[-119.30761,55.14161],[-119.30761,55.17053],[-119.28229,55.17052],[-119.2823,55.14524],[-119.2823,55.14163]]],[[[-119.1797,55.17071],[-119.20505,55.17069],[-119.20507,55.19959],[-119.17977,55.19961],[-119.17972,55.17432],[-119.1797,55.17071]]],[[[-119.23101,55.17067],[-119.25632,55.17068],[-119.25633,55.19959],[-119.23101,55.19958],[-119.23101,55.17428],[-119.23101,55.17067]]],[[[-119.20536,55.17069],[-119.23069,55.17067],[-119.2307,55.19958],[-119.20538,55.19959],[-119.20537,55.17431],[-119.20536,55.17069]]],[[[-119.2823,55.12699],[-119.30761,55.12698],[-119.30761,55.14143],[-119.2823,55.14145],[-119.2823,55.1306],[-119.2823,55.12699]]],[[[-119.30792,55.17071],[-119.33328,55.17069],[-119.33327,55.18514],[-119.30794,55.18515],[-119.30793,55.17432],[-119.30792,55.17071]]],[[[-119.15404,55.17072],[-119.17939,55.17071],[-119.17942,55.18515],[-119.15411,55.18517],[-119.15406,55.17433],[-119.15404,55.17072]]],[[[-119.28229,55.1707],[-119.30761,55.17071],[-119.30762,55.18515],[-119.2823,55.18515],[-119.28229,55.17432],[-119.28229,55.1707]]]]}},{"type":"Feature","properties":{"c":"9924030237","o":"MONOLITH METALS CORP.","e":""},"geometry":{"type":"MultiPolygon","coordinates":[[[[-119.27199,55.09786],[-119.29706,55.09784],[-119.29705,55.11232],[-119.27198,55.11232],[-119.27198,55.10147],[-119.27199,55.09786]]],[[[-119.24661,55.09788],[-119.27167,55.09786],[-119.27166,55.11232],[-119.24659,55.11232],[-119.2466,55.10149],[-119.24661,55.09788]]],[[[-119.22121,55.09788],[-119.24629,55.09788],[-119.24628,55.11232],[-119.22121,55.11232],[-119.2212,55.10149],[-119.22121,55.09788]]],[[[-119.29737,55.09784],[-119.32245,55.09781],[-119.32244,55.10504],[-119.3099,55.10505],[-119.3099,55.11231],[-119.29736,55.11232],[-119.29737,55.10869],[-119.29737,55.09784]]]]}},{"type":"Feature","properties":{"c":"9326020084","o":"2639074 ALBERTA LTD.","e":""},"geometry":{"type":"MultiPolygon","coordinates":[[[[-119.11224,55.46158],[-119.13777,55.46157],[-119.13787,55.49046],[-119.11223,55.49046],[-119.11223,55.46519],[-119.11224,55.46158]]],[[[-119.08636,55.46158],[-119.11192,55.46158],[-119.11191,55.49046],[-119.08643,55.49052],[-119.08637,55.46521],[-119.08636,55.46158]]],[[[-119.13809,55.46157],[-119.16363,55.46155],[-119.16359,55.49044],[-119.13819,55.49046],[-119.13811,55.46518],[-119.13809,55.46157]]],[[[-119.16395,55.46155],[-119.1895,55.46153],[-119.18951,55.49039],[-119.16391,55.49044],[-119.16394,55.46516],[-119.16395,55.46155]]],[[[-119.18982,55.46153],[-119.21537,55.46151],[-119.21538,55.49039],[-119.18983,55.49039],[-119.18982,55.46512],[-119.18982,55.46153]]],[[[-119.21569,55.46151],[-119.24123,55.46148],[-119.24117,55.49038],[-119.2157,55.49039],[-119.21568,55.4651],[-119.21569,55.46151]]],[[[-119.08643,55.4907],[-119.11191,55.49064],[-119.11196,55.51953],[-119.08645,55.51961],[-119.08643,55.49432],[-119.08643,55.4907]]],[[[-119.11223,55.49064],[-119.13787,55.49064],[-119.13785,55.51953],[-119.11228,55.51953],[-119.11224,55.49425],[-119.11223,55.49064]]],[[[-119.13819,55.49064],[-119.16359,55.49062],[-119.16365,55.51953],[-119.13817,55.51953],[-119.13819,55.49425],[-119.13819,55.49064]]],[[[-119.16391,55.49062],[-119.18951,55.49057],[-119.18953,55.5195],[-119.16396,55.51953],[-119.16391,55.49424],[-119.16391,55.49062]]],[[[-119.18983,55.49057],[-119.21538,55.49057],[-119.21542,55.51948],[-119.18985,55.5195],[-119.18983,55.49419],[-119.18983,55.49057]]],[[[-119.2157,55.49057],[-119.24117,55.49056],[-119.24125,55.51947],[-119.21574,55.51948],[-119.2157,55.49418],[-119.2157,55.49057]]],[[[-119.08645,55.51979],[-119.11196,55.51971],[-119.112,55.54861],[-119.08647,55.5486],[-119.08645,55.52336],[-119.08645,55.51979]]],[[[-119.11228,55.51971],[-119.13785,55.51971],[-119.13785,55.54861],[-119.11232,55.54861],[-119.11228,55.52332],[-119.11228,55.51971]]],[[[-119.13817,55.51971],[-119.16365,55.51971],[-119.1637,55.54861],[-119.13817,55.54861],[-119.13816,55.52333],[-119.13817,55.51971]]],[[[-119.16396,55.51971],[-119.18953,55.51968],[-119.18955,55.5486],[-119.16401,55.54861],[-119.16397,55.52332],[-119.16396,55.51971]]],[[[-119.18985,55.51968],[-119.21542,55.51966],[-119.21539,55.54858],[-119.18986,55.5486],[-119.18986,55.52329],[-119.18985,55.51968]]],[[[-119.21574,55.51966],[-119.24125,55.51965],[-119.24125,55.54857],[-119.21571,55.54858],[-119.21574,55.52328],[-119.21574,55.51966]]]]}},{"type":"Feature","properties":{"c":"9326020090","o":"2639074 ALBERTA LTD.","e":""},"geometry":{"type":"MultiPolygon","coordinates":[[[[-119.07722,55.43244],[-119.10255,55.43245],[-119.1025,55.4614],[-119.07718,55.4614],[-119.07721,55.43605],[-119.07722,55.43244]]],[[[-118.94906,55.41783],[-118.97439,55.41783],[-118.9744,55.43228],[-118.94906,55.43228],[-118.94906,55.42144],[-118.94906,55.41783]]],[[[-118.97471,55.41783],[-118.99999,55.41783],[-118.99998,55.43229],[-118.97471,55.43228],[-118.97471,55.42144],[-118.97471,55.41783]]],[[[-119.00031,55.41783],[-119.02564,55.41783],[-119.02564,55.43227],[-119.0003,55.43229],[-119.00031,55.42145],[-119.00031,55.41783]]],[[[-119.02596,55.41783],[-119.05127,55.41781],[-119.05126,55.43226],[-119.02596,55.43227],[-119.02596,55.42144],[-119.02596,55.41783]]],[[[-119.05158,55.41781],[-119.07691,55.41779],[-119.0769,55.43226],[-119.05158,55.43226],[-119.05159,55.42143],[-119.05158,55.41781]]],[[[-119.07722,55.41779],[-119.10255,55.41781],[-119.10255,55.43227],[-119.07722,55.43226],[-119.07723,55.42141],[-119.07722,55.41779]]],[[[-119.10287,55.41781],[-119.12817,55.41781],[-119.12817,55.43227],[-119.10286,55.43227],[-119.10287,55.42142],[-119.10287,55.41781]]],[[[-119.12849,55.41781],[-119.15381,55.41781],[-119.15381,55.43228],[-119.12849,55.43227],[-119.12849,55.42142],[-119.12849,55.41781]]],[[[-119.15413,55.41781],[-119.17947,55.41779],[-119.17948,55.43224],[-119.15413,55.43228],[-119.15413,55.42143],[-119.15413,55.41781]]],[[[-118.94906,55.43246],[-118.9744,55.43247],[-118.97437,55.46139],[-118.94906,55.46138],[-118.94907,55.43608],[-118.94906,55.43246]]],[[[-118.97471,55.43247],[-118.99998,55.43247],[-118.99999,55.4614],[-118.97469,55.46139],[-118.97471,55.43609],[-118.97471,55.43247]]],[[[-119.0003,55.43247],[-119.02564,55.43245],[-119.02562,55.4614],[-119.00031,55.4614],[-119.0003,55.43608],[-119.0003,55.43247]]],[[[-119.02596,55.43245],[-119.05126,55.43244],[-119.05128,55.46141],[-119.02594,55.4614],[-119.02596,55.43606],[-119.02596,55.43245]]],[[[-119.05158,55.43244],[-119.0769,55.43244],[-119.07686,55.4614],[-119.05159,55.46141],[-119.05158,55.43605],[-119.05158,55.43244]]],[[[-119.10286,55.43245],[-119.12817,55.43245],[-119.12814,55.46139],[-119.10282,55.4614],[-119.10286,55.43607],[-119.10286,55.43245]]],[[[-119.12849,55.43245],[-119.15381,55.43246],[-119.15377,55.46137],[-119.12846,55.46139],[-119.12849,55.43607],[-119.12849,55.43245]]],[[[-119.15413,55.43246],[-119.17948,55.43242],[-119.17939,55.46135],[-119.15409,55.46137],[-119.15413,55.43608],[-119.15413,55.43246]]],[[[-119.17979,55.43242],[-119.20515,55.43242],[-119.20503,55.46132],[-119.17971,55.46135],[-119.1798,55.43605],[-119.17979,55.43242]]],[[[-119.20547,55.43242],[-119.23069,55.43241],[-119.23066,55.46129],[-119.20535,55.46132],[-119.20547,55.43604],[-119.20547,55.43242]]],[[[-118.93182,55.46154],[-118.95726,55.46156],[-118.95732,55.47605],[-118.93171,55.47598],[-118.93179,55.46515],[-118.93182,55.46154]]],[[[-118.95758,55.46156],[-118.98301,55.46157],[-118.98305,55.47606],[-118.95763,55.47605],[-118.95759,55.46519],[-118.95758,55.46156]]],[[[-118.98333,55.46157],[-119.00877,55.46158],[-119.00884,55.47609],[-118.98337,55.47606],[-118.98334,55.46521],[-118.98333,55.46157]]],[[[-119.00909,55.46158],[-119.03453,55.46159],[-119.03449,55.47605],[-119.00916,55.47609],[-119.0091,55.46523],[-119.00909,55.46158]]]]}},{"type":"Feature","properties":{"c":"9326020091","o":"2639074 ALBERTA LTD.","e":""},"geometry":{"type":"MultiPolygon","coordinates":[[[[-119.03484,55.46159],[-119.06031,55.46158],[-119.06034,55.49048],[-119.03481,55.4905],[-119.03484,55.46522],[-119.03484,55.46159]]],[[[-118.93171,55.47598],[-118.95732,55.47605],[-118.95727,55.48327],[-118.93169,55.48322],[-118.9317,55.4796],[-118.93171,55.47598]]],[[[-118.95763,55.47605],[-118.98305,55.47606],[-118.983,55.4905],[-118.95754,55.4905],[-118.95761,55.47966],[-118.95763,55.47605]]],[[[-118.98337,55.47606],[-119.00884,55.47609],[-119.0088,55.49053],[-118.98332,55.4905],[-118.98336,55.47967],[-118.98337,55.47606]]],[[[-119.00916,55.47609],[-119.03449,55.47605],[-119.03449,55.4905],[-119.00912,55.49053],[-119.00915,55.4797],[-119.00916,55.47609]]],[[[-119.06063,55.46158],[-119.08604,55.46158],[-119.08611,55.49052],[-119.06066,55.49048],[-119.06063,55.46519],[-119.06063,55.46158]]],[[[-118.9575,55.50513],[-118.97023,55.50513],[-118.97025,55.49791],[-118.95752,55.4979],[-118.95754,55.49068],[-118.983,55.49068],[-118.98294,55.51958],[-118.95745,55.51958],[-118.95749,55.50874],[-118.9575,55.50513]]],[[[-118.98332,55.49068],[-119.0088,55.49071],[-119.00873,55.5196],[-118.98326,55.51958],[-118.98331,55.4943],[-118.98332,55.49068]]],[[[-119.00912,55.49071],[-119.03449,55.49068],[-119.0345,55.51956],[-119.00905,55.5196],[-119.00911,55.49432],[-119.00912,55.49071]]],[[[-119.03481,55.49068],[-119.06034,55.49066],[-119.06033,55.51955],[-119.03482,55.51956],[-119.03481,55.49429],[-119.03481,55.49068]]],[[[-119.06066,55.49066],[-119.08611,55.4907],[-119.08613,55.51961],[-119.06065,55.51955],[-119.06066,55.49427],[-119.06066,55.49066]]],[[[-118.95745,55.51976],[-118.98294,55.51977],[-118.98287,55.54866],[-118.95737,55.54866],[-118.95744,55.52337],[-118.95745,55.51976]]],[[[-118.98326,55.51977],[-119.00873,55.51978],[-119.00869,55.54865],[-118.98319,55.54866],[-118.98325,55.52338],[-118.98326,55.51977]]],[[[-119.00905,55.51978],[-119.0345,55.51974],[-119.03451,55.54864],[-119.00901,55.54865],[-119.00904,55.52338],[-119.00905,55.51978]]],[[[-119.03482,55.51974],[-119.06033,55.51973],[-119.06033,55.54862],[-119.03483,55.54864],[-119.03482,55.52335],[-119.03482,55.51974]]],[[[-119.06065,55.51973],[-119.08613,55.51979],[-119.08615,55.5486],[-119.06065,55.54862],[-119.06065,55.52334],[-119.06065,55.51973]]],[[[-118.98319,55.54884],[-119.00869,55.54884],[-119.00862,55.56321],[-118.98318,55.56323],[-118.98319,55.55242],[-118.98319,55.54884]]],[[[-119.06065,55.5488],[-119.08615,55.54878],[-119.08615,55.56323],[-119.0606,55.5632],[-119.06064,55.5524],[-119.06065,55.5488]]],[[[-119.08647,55.54878],[-119.11184,55.54879],[-119.11184,55.56324],[-119.08647,55.56323],[-119.08647,55.55239],[-119.08647,55.54878]]],[[[-119.11232,55.54879],[-119.13769,55.54879],[-119.13769,55.56324],[-119.11232,55.56324],[-119.11232,55.5524],[-119.11232,55.54879]]],[[[-119.13817,55.54879],[-119.16354,55.54879],[-119.16354,55.56324],[-119.13817,55.56324],[-119.13817,55.5524],[-119.13817,55.54879]]],[[[-119.16401,55.54879],[-119.18939,55.54878],[-119.18939,55.56323],[-119.16402,55.56324],[-119.16402,55.5524],[-119.16401,55.54879]]]]}},{"type":"Feature","properties":{"c":"9826040039","o":"1867927 ALBERTA LTD.","e":""},"geometry":{"type":"Polygon","coordinates":[[[-119.24629,55.09065],[-119.24629,55.09788],[-119.23375,55.09788],[-119.23374,55.09065],[-119.24629,55.09065]]]}}]}