{"type":"FeatureCollection","features":[{"type":"Feature","properties":{"c":"521535","o":"CANADIAN AGGREGATES INC","e":"2026-10-23Z"},"geometry":{"type":"Polygon","coordinates":[[[-119.48244,50.21239],[-119.47619,50.21239],[-119.47619,50.21656],[-119.47619,50.22073],[-119.47619,50.22489],[-119.48244,50.22489],[-119.48244,50.22906],[-119.47619,50.22906],[-119.46994,50.22906],[-119.46994,50.22489],[-119.46994,50.22073],[-119.46994,50.21656],[-119.46994,50.21239],[-119.46994,50.20823],[-119.47619,50.20823],[-119.47619,50.20406],[-119.48244,50.20406],[-119.48244,50.20823],[-119.48244,50.21239]]]}},{"type":"Feature","properties":{"c":"1061618","o":"GARBOWSKI, JAMIESON JOHN","e":"2027-07-07Z"},"geometry":{"type":"Polygon","coordinates":[[[-119.10117,50.17905],[-119.09492,50.17905],[-119.09492,50.17488],[-119.09492,50.17072],[-119.10117,50.17072],[-119.10117,50.17488],[-119.10117,50.17905]]]}},{"type":"Feature","properties":{"c":"1055527","o":"TREEN, GORDON ALLAN","e":"2027-10-14Z"},"geometry":{"type":"Polygon","coordinates":[[[-119.01367,50.19572],[-119.01367,50.19989],[-119.00742,50.19989],[-119.00742,50.19572],[-119.01367,50.19572]]]}},{"type":"Feature","properties":{"c":"1055528","o":"TREEN, GORDON ALLAN","e":"2027-10-14Z"},"geometry":{"type":"Polygon","coordinates":[[[-119.01367,50.19989],[-119.01367,50.20405],[-119.00742,50.20405],[-119.00742,50.19989],[-119.01367,50.19989]]]}},{"type":"Feature","properties":{"c":"1072779","o":"ROBERTS, ANDREW","e":"2027-01-01Z"},"geometry":{"type":"Polygon","coordinates":[[[-119.37618,50.42073],[-119.37618,50.4249],[-119.36993,50.4249],[-119.36993,50.42073],[-119.37618,50.42073]]]}},{"type":"Feature","properties":{"c":"1080517","o":"ROBERTS, ANDREW","e":"2027-01-01Z"},"geometry":{"type":"Polygon","coordinates":[[[-119.40744,50.42906],[-119.40119,50.42906],[-119.39494,50.42907],[-119.38869,50.42906],[-119.38868,50.4249],[-119.38868,50.42073],[-119.38868,50.41656],[-119.39494,50.41656],[-119.40119,50.41656],[-119.40119,50.42073],[-119.40744,50.42073],[-119.40744,50.4249],[-119.40744,50.42906]]]}},{"type":"Feature","properties":{"c":"1075493","o":"ROBERTS, ANDREW","e":"2027-01-01Z"},"geometry":{"type":"Polygon","coordinates":[[[-119.37618,50.4249],[-119.37618,50.42073],[-119.38243,50.42073],[-119.38868,50.42073],[-119.38868,50.4249],[-119.38243,50.4249],[-119.37618,50.4249]]]}},{"type":"Feature","properties":{"c":"1076464","o":"ROBERTS, ANDREW","e":"2027-01-01Z"},"geometry":{"type":"Polygon","coordinates":[[[-119.36993,50.4249],[-119.36368,50.4249],[-119.35743,50.4249],[-119.35743,50.42073],[-119.35743,50.41657],[-119.36368,50.41656],[-119.36993,50.41657],[-119.37618,50.41656],[-119.37618,50.42073],[-119.36993,50.42073],[-119.36993,50.4249]]]}},{"type":"Feature","properties":{"c":"1079246","o":"ROBERTS, ANDREW","e":"2027-01-01Z"},"geometry":{"type":"Polygon","coordinates":[[[-119.37618,50.42073],[-119.37618,50.41656],[-119.38243,50.41656],[-119.38868,50.41656],[-119.38868,50.42073],[-119.38243,50.42073],[-119.37618,50.42073]]]}},{"type":"Feature","properties":{"c":"1061799","o":"GARBOWSKI, JAMIESON JOHN","e":"2027-07-14Z"},"geometry":{"type":"Polygon","coordinates":[[[-119.08242,50.16655],[-119.08242,50.17072],[-119.07617,50.17072],[-119.07617,50.16655],[-119.08242,50.16655]]]}},{"type":"Feature","properties":{"c":"1098054","o":"MACLEAN, DALE JAMES","e":"2034-10-08Z"},"geometry":{"type":"Polygon","coordinates":[[[-119.13868,50.15822],[-119.13243,50.15822],[-119.12618,50.15822],[-119.12618,50.15405],[-119.12618,50.14988],[-119.12618,50.14572],[-119.12618,50.14155],[-119.12618,50.13738],[-119.13243,50.13739],[-119.13868,50.13738],[-119.13868,50.14155],[-119.13868,50.14572],[-119.13868,50.14988],[-119.13868,50.15405],[-119.13868,50.15822]]]}},{"type":"Feature","properties":{"c":"1095610","o":"REIBIN, LANCE CHRISTOPHER","e":"2028-07-11Z"},"geometry":{"type":"Polygon","coordinates":[[[-119.16993,50.19572],[-119.16993,50.19155],[-119.17618,50.19155],[-119.18243,50.19155],[-119.18243,50.19572],[-119.17618,50.19572],[-119.16993,50.19572]]]}},{"type":"Feature","properties":{"c":"1089155","o":"ESSINGTON, LEROY BRUCE","e":"2032-07-31Z"},"geometry":{"type":"Polygon","coordinates":[[[-119.11367,50.20405],[-119.10742,50.20405],[-119.10742,50.20822],[-119.10117,50.20822],[-119.09492,50.20822],[-119.09492,50.20405],[-119.09492,50.19989],[-119.10117,50.19989],[-119.10117,50.19572],[-119.10742,50.19572],[-119.11367,50.19572],[-119.11367,50.19989],[-119.11367,50.20405]]]}},{"type":"Feature","properties":{"c":"1031847","o":"ROSSI ROCK INC.","e":"2030-04-28Z"},"geometry":{"type":"Polygon","coordinates":[[[-119.11368,50.16655],[-119.10742,50.16655],[-119.10117,50.16655],[-119.10117,50.16238],[-119.10117,50.15822],[-119.10742,50.15822],[-119.11368,50.15822],[-119.11368,50.16238],[-119.11368,50.16655]]]}},{"type":"Feature","properties":{"c":"1089580","o":"ROSSI ROCK INC.","e":"2027-01-14Z"},"geometry":{"type":"Polygon","coordinates":[[[-119.05117,50.14155],[-119.04492,50.14155],[-119.03867,50.14155],[-119.03242,50.14155],[-119.03242,50.13738],[-119.03242,50.13322],[-119.03867,50.13322],[-119.04492,50.13322],[-119.05117,50.13322],[-119.05117,50.13738],[-119.05117,50.14155]]]}},{"type":"Feature","properties":{"c":"1095585","o":"1163915 B.C. LTD.","e":"2028-05-12Z"},"geometry":{"type":"Polygon","coordinates":[[[-119.48869,50.39156],[-119.48244,50.39156],[-119.47619,50.39156],[-119.47619,50.3874],[-119.47619,50.38323],[-119.47619,50.37906],[-119.47619,50.3749],[-119.47619,50.37073],[-119.48244,50.37073],[-119.48869,50.37073],[-119.48869,50.37489],[-119.48869,50.37906],[-119.48869,50.38323],[-119.48869,50.3874],[-119.48869,50.39156]]]}},{"type":"Feature","properties":{"c":"1095586","o":"1163915 B.C. LTD.","e":"2026-11-12Z"},"geometry":{"type":"Polygon","coordinates":[[[-119.38868,50.3499],[-119.38243,50.3499],[-119.37618,50.3499],[-119.36993,50.3499],[-119.36368,50.3499],[-119.36368,50.34573],[-119.36368,50.34156],[-119.36993,50.34156],[-119.36993,50.3374],[-119.36993,50.33323],[-119.37618,50.33323],[-119.37618,50.3374],[-119.38243,50.3374],[-119.38243,50.34156],[-119.38868,50.34156],[-119.38868,50.34573],[-119.38868,50.3499]]]}},{"type":"Feature","properties":{"c":"1089382","o":"ESSINGTON, LEROY BRUCE","e":"2027-01-20Z"},"geometry":{"type":"Polygon","coordinates":[[[-119.17618,50.14572],[-119.16993,50.14572],[-119.16993,50.14989],[-119.16368,50.14989],[-119.15743,50.14989],[-119.15743,50.15405],[-119.15743,50.15822],[-119.15118,50.15822],[-119.14493,50.15822],[-119.14493,50.15405],[-119.13868,50.15405],[-119.13868,50.14988],[-119.13868,50.14572],[-119.13868,50.14155],[-119.14493,50.14155],[-119.14493,50.13739],[-119.15118,50.13739],[-119.15743,50.13739],[-119.16368,50.13739],[-119.16993,50.13739],[-119.17618,50.13739],[-119.17618,50.14155],[-119.17618,50.14572]]]}},{"type":"Feature","properties":{"c":"1084956","o":"LATOUR, SEBASTIEN MAURICE","e":"2029-05-18Z"},"geometry":{"type":"Polygon","coordinates":[[[-119.09493,50.04988],[-119.09493,50.05405],[-119.08867,50.05405],[-119.08867,50.04988],[-119.09493,50.04988]]]}},{"type":"Feature","properties":{"c":"1104866","o":"WRIGHT, MATT","e":"2027-01-04Z"},"geometry":{"type":"Polygon","coordinates":[[[-119.10117,50.47073],[-119.09492,50.47073],[-119.09492,50.46657],[-119.09492,50.4624],[-119.10117,50.4624],[-119.10117,50.46657],[-119.10117,50.47073]]]}},{"type":"Feature","properties":{"c":"1109962","o":"SPIRIT PROJECTS LTD","e":"2027-01-04Z"},"geometry":{"type":"Polygon","coordinates":[[[-119.33243,50.29156],[-119.32618,50.29156],[-119.31993,50.29156],[-119.31368,50.29156],[-119.30743,50.29156],[-119.30743,50.29573],[-119.30743,50.2999],[-119.30118,50.2999],[-119.30118,50.30406],[-119.29493,50.30406],[-119.28868,50.30406],[-119.28243,50.30406],[-119.28243,50.2999],[-119.28243,50.29573],[-119.28243,50.29156],[-119.28243,50.28739],[-119.28243,50.28323],[-119.28243,50.27906],[-119.28243,50.27489],[-119.28868,50.27489],[-119.28868,50.27073],[-119.29493,50.27073],[-119.29493,50.26656],[-119.29493,50.26239],[-119.30118,50.26239],[-119.30743,50.26239],[-119.31368,50.26239],[-119.31993,50.26239],[-119.32618,50.26239],[-119.32618,50.26656],[-119.32618,50.27073],[-119.32618,50.27489],[-119.33243,50.2749],[-119.33243,50.27906],[-119.33243,50.28323],[-119.33243,50.2874],[-119.33243,50.29156]]]}},{"type":"Feature","properties":{"c":"1098548","o":"MOSHER, ALLAN SEAN","e":"2027-05-12Z"},"geometry":{"type":"Polygon","coordinates":[[[-119.00117,50.20405],[-118.99492,50.20405],[-118.98867,50.20405],[-118.98867,50.19989],[-118.99492,50.19989],[-118.99492,50.19572],[-119.00117,50.19572],[-119.00117,50.19989],[-119.00117,50.20405]]]}},{"type":"Feature","properties":{"c":"1107261","o":"CZEPIL, JEFFREY RANDAL","e":"2027-09-07Z"},"geometry":{"type":"Polygon","coordinates":[[[-119.06992,50.4249],[-119.06367,50.4249],[-119.05742,50.4249],[-119.05742,50.42073],[-119.05742,50.41656],[-119.06367,50.41656],[-119.06992,50.41656],[-119.06992,50.42073],[-119.06992,50.4249]]]}},{"type":"Feature","properties":{"c":"1101522","o":"RYDE, JONATHAN MATTHEW","e":"2031-07-29Z"},"geometry":{"type":"Polygon","coordinates":[[[-119.10743,50.05405],[-119.10118,50.05405],[-119.10118,50.04988],[-119.10118,50.04572],[-119.10743,50.04572],[-119.10743,50.04988],[-119.10743,50.05405]]]}},{"type":"Feature","properties":{"c":"1112860","o":"LATOUR, SEBASTIEN MAURICE","e":"2027-02-15Z"},"geometry":{"type":"Polygon","coordinates":[[[-119.09493,50.05405],[-119.09493,50.05822],[-119.08867,50.05822],[-119.08867,50.05405],[-119.09493,50.05405]]]}},{"type":"Feature","properties":{"c":"1112863","o":"REIBIN, LANCE CHRISTOPHER","e":"2029-02-20Z"},"geometry":{"type":"Polygon","coordinates":[[[-119.09493,50.05822],[-119.09493,50.06238],[-119.08867,50.06238],[-119.08867,50.05822],[-119.09493,50.05822]]]}},{"type":"Feature","properties":{"c":"1110074","o":"SPIRIT PROJECTS LTD","e":"2027-01-09Z"},"geometry":{"type":"Polygon","coordinates":[[[-119.30743,50.2999],[-119.30743,50.30406],[-119.30118,50.30406],[-119.30118,50.2999],[-119.30743,50.2999]]]}},{"type":"Feature","properties":{"c":"1110557","o":"ROADWAY CONTRACTING LTD.","e":"2027-01-24Z"},"geometry":{"type":"Polygon","coordinates":[[[-119.14493,50.06655],[-119.14493,50.07072],[-119.13868,50.07072],[-119.13868,50.06655],[-119.14493,50.06655]]]}},{"type":"Feature","properties":{"c":"1110559","o":"ROADWAY CONTRACTING LTD.","e":"2027-01-24Z"},"geometry":{"type":"Polygon","coordinates":[[[-119.14493,50.06238],[-119.14493,50.06655],[-119.13868,50.06655],[-119.13868,50.06238],[-119.14493,50.06238]]]}},{"type":"Feature","properties":{"c":"1109741","o":"ESSINGTON, LEROY BRUCE","e":"2034-01-30Z"},"geometry":{"type":"Polygon","coordinates":[[[-119.23243,50.09989],[-119.22618,50.09989],[-119.21993,50.09989],[-119.21993,50.10405],[-119.21368,50.10405],[-119.21368,50.10822],[-119.20743,50.10822],[-119.20743,50.10405],[-119.20743,50.09989],[-119.21368,50.09989],[-119.21368,50.09572],[-119.21368,50.09155],[-119.21368,50.08739],[-119.21993,50.08739],[-119.21993,50.09155],[-119.22618,50.09155],[-119.23243,50.09155],[-119.23243,50.09572],[-119.23243,50.09989]]]}},{"type":"Feature","properties":{"c":"1105932","o":"ZIMMER, CHRISTOPHER JAMES","e":"2029-04-28Z"},"geometry":{"type":"Polygon","coordinates":[[[-119.50119,50.22073],[-119.50119,50.22489],[-119.49494,50.22489],[-119.49494,50.22073],[-119.50119,50.22073]]]}},{"type":"Feature","properties":{"c":"1121141","o":"REIBIN, LANCE CHRISTOPHER","e":"2028-05-14Z"},"geometry":{"type":"Polygon","coordinates":[[[-119.18243,50.19155],[-119.18243,50.19572],[-119.17618,50.19572],[-119.17618,50.19155],[-119.18243,50.19155]]]}},{"type":"Feature","properties":{"c":"1072444","o":"MT. ROSE SILICA (MINING) LTD","e":"2034-05-31Z"},"geometry":{"type":"Polygon","coordinates":[[[-119.28868,50.44573],[-119.28243,50.44573],[-119.27618,50.44573],[-119.27618,50.44157],[-119.27618,50.4374],[-119.28243,50.4374],[-119.28868,50.4374],[-119.28868,50.44157],[-119.28868,50.44573]]]}},{"type":"Feature","properties":{"c":"1076574","o":"MT. ROSE SILICA (MINING) LTD","e":"2034-05-31Z"},"geometry":{"type":"Polygon","coordinates":[[[-119.27618,50.44573],[-119.26993,50.44573],[-119.26993,50.44157],[-119.26993,50.4374],[-119.27618,50.4374],[-119.27618,50.44157],[-119.27618,50.44573]]]}},{"type":"Feature","properties":{"c":"1076575","o":"MT. ROSE SILICA (MINING) LTD","e":"2034-05-31Z"},"geometry":{"type":"Polygon","coordinates":[[[-119.29493,50.44573],[-119.28868,50.44573],[-119.28868,50.44157],[-119.28868,50.4374],[-119.28243,50.4374],[-119.27618,50.4374],[-119.27618,50.43323],[-119.28243,50.43323],[-119.28868,50.43323],[-119.29493,50.43323],[-119.29493,50.4374],[-119.29493,50.44157],[-119.29493,50.44573]]]}},{"type":"Feature","properties":{"c":"1079927","o":"MT. ROSE SILICA (MINING) LTD","e":"2034-05-31Z"},"geometry":{"type":"Polygon","coordinates":[[[-119.27618,50.4499],[-119.26993,50.4499],[-119.26993,50.44573],[-119.27618,50.44573],[-119.28243,50.44573],[-119.28868,50.44573],[-119.28868,50.4499],[-119.28243,50.4499],[-119.27618,50.4499]]]}},{"type":"Feature","properties":{"c":"1093663","o":"MT. ROSE SILICA (MINING) LTD","e":"2034-05-31Z"},"geometry":{"type":"Polygon","coordinates":[[[-119.28868,50.42907],[-119.28243,50.42907],[-119.28243,50.43323],[-119.27618,50.43323],[-119.27618,50.42907],[-119.27618,50.4249],[-119.27618,50.42073],[-119.28243,50.42073],[-119.28868,50.42073],[-119.28868,50.4249],[-119.28868,50.42907]]]}},{"type":"Feature","properties":{"c":"1103904","o":"MT. ROSE SILICA (MINING) LTD","e":"2034-05-31Z"},"geometry":{"type":"Polygon","coordinates":[[[-119.30743,50.4374],[-119.30118,50.4374],[-119.29493,50.4374],[-119.29493,50.43323],[-119.28868,50.43323],[-119.28243,50.43323],[-119.28243,50.42907],[-119.28868,50.42907],[-119.29493,50.42907],[-119.30118,50.42907],[-119.30743,50.42907],[-119.31368,50.42907],[-119.31368,50.43323],[-119.30743,50.43323],[-119.30743,50.4374]]]}},{"type":"Feature","properties":{"c":"1130724","o":"TREEN, GORDON ALLAN","e":"2028-02-27Z"},"geometry":{"type":"Polygon","coordinates":[[[-119.00742,50.19989],[-119.00742,50.20405],[-119.00117,50.20405],[-119.00117,50.19989],[-119.00742,50.19989]]]}},{"type":"Feature","properties":{"c":"1126446","o":"HURD, DANIEL GORDON","e":"2030-07-16Z"},"geometry":{"type":"Polygon","coordinates":[[[-119.02617,50.14988],[-119.02617,50.15405],[-119.01992,50.15405],[-119.01992,50.14988],[-119.02617,50.14988]]]}},{"type":"Feature","properties":{"c":"1089575","o":"HURD, DANIEL GORDON","e":"2033-01-16Z"},"geometry":{"type":"Polygon","coordinates":[[[-119.03242,50.14988],[-119.02617,50.14988],[-119.01992,50.14988],[-119.01992,50.14572],[-119.01992,50.14155],[-119.01992,50.13738],[-119.02617,50.13738],[-119.03242,50.13738],[-119.03242,50.14155],[-119.03242,50.14572],[-119.03242,50.14988]]]}},{"type":"Feature","properties":{"c":"1132749","o":"ZIMMERMAN, LUCAS WADE","e":"2027-05-01Z"},"geometry":{"type":"Polygon","coordinates":[[[-119.06367,50.19988],[-119.06367,50.19572],[-119.06992,50.19572],[-119.07617,50.19572],[-119.07617,50.19988],[-119.06992,50.19988],[-119.06367,50.19988]]]}},{"type":"Feature","properties":{"c":"1133025","o":"OKANAGAN AGGREGATES LTD.","e":"2027-05-14Z"},"geometry":{"type":"Polygon","coordinates":[[[-119.18242,50.3624],[-119.17617,50.3624],[-119.16992,50.3624],[-119.16992,50.35823],[-119.16992,50.35406],[-119.16992,50.3499],[-119.17617,50.3499],[-119.18242,50.3499],[-119.18242,50.35406],[-119.18242,50.35823],[-119.18242,50.3624]]]}},{"type":"Feature","properties":{"c":"1133030","o":"HODGINS, DANIEL DOUGLAS","e":"2027-05-14Z"},"geometry":{"type":"Polygon","coordinates":[[[-119.36368,50.25406],[-119.36368,50.24989],[-119.36993,50.24989],[-119.37618,50.24989],[-119.37618,50.25406],[-119.36993,50.25406],[-119.36368,50.25406]]]}},{"type":"Feature","properties":{"c":"1133359","o":"POWERS, JESSE MICHAEL DONALD","e":"2027-05-27Z"},"geometry":{"type":"Polygon","coordinates":[[[-119.03242,50.13322],[-119.03242,50.13738],[-119.02617,50.13738],[-119.02617,50.13322],[-119.03242,50.13322]]]}},{"type":"Feature","properties":{"c":"1134898","o":"ESSINGTON, LEROY BRUCE","e":"2027-07-04Z"},"geometry":{"type":"Polygon","coordinates":[[[-119.11368,50.14155],[-119.10743,50.14155],[-119.10743,50.13738],[-119.10743,50.13322],[-119.10743,50.12905],[-119.11368,50.12905],[-119.11368,50.13322],[-119.11993,50.13322],[-119.11993,50.13738],[-119.11368,50.13738],[-119.11368,50.14155]]]}},{"type":"Feature","properties":{"c":"1136081","o":"DORNAN, BARRIE JAMES","e":"2027-07-16Z"},"geometry":{"type":"Polygon","coordinates":[[[-119.50119,50.22073],[-119.49494,50.22073],[-119.49494,50.21656],[-119.48869,50.21656],[-119.48869,50.21239],[-119.49494,50.21239],[-119.50119,50.21239],[-119.50119,50.21656],[-119.50119,50.22073]]]}},{"type":"Feature","properties":{"c":"1136747","o":"YORKE-HARDY, CHRISTOPHER DAY","e":"2027-07-28Z"},"geometry":{"type":"Polygon","coordinates":[[[-119.16368,50.17072],[-119.15743,50.17072],[-119.15743,50.17489],[-119.15118,50.17489],[-119.14493,50.17489],[-119.14493,50.17905],[-119.13868,50.17905],[-119.13868,50.18322],[-119.13868,50.18739],[-119.13243,50.18739],[-119.13242,50.19155],[-119.13242,50.19572],[-119.12617,50.19572],[-119.11992,50.19572],[-119.11992,50.19989],[-119.11992,50.20405],[-119.11367,50.20405],[-119.11367,50.19989],[-119.11367,50.19572],[-119.10742,50.19572],[-119.10117,50.19572],[-119.10117,50.19989],[-119.09492,50.19989],[-119.09492,50.19572],[-119.09492,50.19155],[-119.10117,50.19155],[-119.10742,50.19155],[-119.10742,50.18739],[-119.11367,50.18739],[-119.11992,50.18739],[-119.11992,50.18322],[-119.12618,50.18322],[-119.12618,50.17905],[-119.12618,50.17489],[-119.13243,50.17489],[-119.13243,50.17072],[-119.13868,50.17072],[-119.13868,50.16655],[-119.13868,50.16238],[-119.14493,50.16239],[-119.15118,50.16239],[-119.15743,50.16239],[-119.16368,50.16239],[-119.16368,50.16655],[-119.16368,50.17072]]]}},{"type":"Feature","properties":{"c":"1136749","o":"YORKE-HARDY, CHRISTOPHER DAY","e":"2027-07-28Z"},"geometry":{"type":"Polygon","coordinates":[[[-119.09492,50.20822],[-119.08867,50.20822],[-119.08867,50.20405],[-119.08867,50.19988],[-119.09492,50.19989],[-119.09492,50.20405],[-119.09492,50.20822]]]}},{"type":"Feature","properties":{"c":"1137164","o":"COTE, TRAVIS MICHAEL","e":"2027-08-14Z"},"geometry":{"type":"Polygon","coordinates":[[[-119.10743,50.05822],[-119.10743,50.05405],[-119.11368,50.05405],[-119.11993,50.05405],[-119.11993,50.05822],[-119.11368,50.05822],[-119.10743,50.05822]]]}},{"type":"Feature","properties":{"c":"1137165","o":"COTE, TRAVIS MICHAEL","e":"2027-08-14Z"},"geometry":{"type":"Polygon","coordinates":[[[-119.11368,50.04988],[-119.11368,50.05405],[-119.10743,50.05405],[-119.10743,50.04988],[-119.11368,50.04988]]]}},{"type":"Feature","properties":{"c":"1137166","o":"COTE, TRAVIS MICHAEL","e":"2027-08-14Z"},"geometry":{"type":"Polygon","coordinates":[[[-119.10118,50.04572],[-119.10118,50.04988],[-119.09493,50.04988],[-119.09493,50.04572],[-119.10118,50.04572]]]}},{"type":"Feature","properties":{"c":"1126177","o":"WEDENIG, CHRISTIAN","e":"2027-03-28Z"},"geometry":{"type":"Polygon","coordinates":[[[-119.00117,50.21239],[-119.00117,50.21655],[-118.99492,50.21656],[-118.99492,50.21239],[-119.00117,50.21239]]]}},{"type":"Feature","properties":{"c":"1137529","o":"DODD, EUGENE A.","e":"2027-08-24Z"},"geometry":{"type":"Polygon","coordinates":[[[-119.06367,50.4499],[-119.06367,50.45407],[-119.05742,50.45407],[-119.05742,50.4499],[-119.06367,50.4499]]]}},{"type":"Feature","properties":{"c":"1137952","o":"MATWICK, JESSE RAY","e":"2027-08-28Z"},"geometry":{"type":"Polygon","coordinates":[[[-119.00117,50.35406],[-118.99492,50.35406],[-118.99492,50.34989],[-118.99492,50.34573],[-119.00117,50.34573],[-119.00117,50.34989],[-119.00117,50.35406]]]}},{"type":"Feature","properties":{"c":"1137980","o":"HASON, JAMES MILLER","e":"2027-08-28Z"},"geometry":{"type":"Polygon","coordinates":[[[-119.16992,50.28323],[-119.16367,50.28323],[-119.15742,50.28323],[-119.15742,50.27906],[-119.16367,50.27906],[-119.16992,50.27906],[-119.17617,50.27906],[-119.18242,50.27906],[-119.18242,50.28323],[-119.17617,50.28323],[-119.16992,50.28323]]]}},{"type":"Feature","properties":{"c":"1113917","o":"HIGGINS, WILLIAM HOWARD","e":"2027-08-30Z"},"geometry":{"type":"Polygon","coordinates":[[[-119.18243,50.19155],[-119.17618,50.19155],[-119.17618,50.18739],[-119.17618,50.18322],[-119.18243,50.18322],[-119.18243,50.18739],[-119.18243,50.19155]]]}},{"type":"Feature","properties":{"c":"1138288","o":"MT. WILSON SILICA VENTURES LTD","e":"2027-08-31Z"},"geometry":{"type":"Polygon","coordinates":[[[-119.09492,50.4374],[-119.08867,50.4374],[-119.08867,50.44157],[-119.08242,50.44157],[-119.07617,50.44157],[-119.07617,50.4374],[-119.07617,50.43323],[-119.08242,50.43323],[-119.08242,50.42907],[-119.08867,50.42907],[-119.08867,50.4249],[-119.09492,50.4249],[-119.09492,50.42907],[-119.09492,50.43323],[-119.09492,50.4374]]]}},{"type":"Feature","properties":{"c":"1138290","o":"MT. WILSON SILICA VENTURES LTD","e":"2027-08-31Z"},"geometry":{"type":"Polygon","coordinates":[[[-119.07617,50.4499],[-119.06992,50.4499],[-119.06992,50.44573],[-119.06992,50.44157],[-119.07617,50.44157],[-119.07617,50.44573],[-119.07617,50.4499]]]}},{"type":"Feature","properties":{"c":"1138291","o":"MT. WILSON SILICA VENTURES LTD","e":"2027-08-31Z"},"geometry":{"type":"Polygon","coordinates":[[[-119.04492,50.45407],[-119.03867,50.45407],[-119.03867,50.4499],[-119.04492,50.4499],[-119.04492,50.44573],[-119.04492,50.44157],[-119.04492,50.4374],[-119.04492,50.43323],[-119.05117,50.43323],[-119.05117,50.4374],[-119.05117,50.44157],[-119.05117,50.44573],[-119.05117,50.4499],[-119.05742,50.4499],[-119.05742,50.45407],[-119.05117,50.45407],[-119.04492,50.45407]]]}},{"type":"Feature","properties":{"c":"1138292","o":"MT. WILSON SILICA VENTURES LTD","e":"2027-08-31Z"},"geometry":{"type":"Polygon","coordinates":[[[-119.04492,50.43323],[-119.03867,50.43323],[-119.03242,50.43323],[-119.02617,50.43323],[-119.01992,50.43323],[-119.01367,50.43323],[-119.01366,50.42907],[-119.01366,50.4249],[-119.01366,50.42073],[-119.01366,50.41656],[-119.01366,50.4124],[-119.01991,50.4124],[-119.02617,50.4124],[-119.03242,50.4124],[-119.03867,50.4124],[-119.04492,50.4124],[-119.04492,50.41656],[-119.04492,50.42073],[-119.04492,50.4249],[-119.04492,50.42907],[-119.04492,50.43323]]]}},{"type":"Feature","properties":{"c":"1138202","o":"ANDRUS, ANDREW ROBERT","e":"2027-08-28Z"},"geometry":{"type":"Polygon","coordinates":[[[-119.01367,50.13738],[-119.01367,50.13322],[-119.01992,50.13322],[-119.02617,50.13322],[-119.02617,50.13738],[-119.01992,50.13738],[-119.01367,50.13738]]]}},{"type":"Feature","properties":{"c":"1138577","o":"CAZADOR RESOURCES LTD","e":"2030-04-01Z"},"geometry":{"type":"Polygon","coordinates":[[[-119.18867,50.27906],[-119.18242,50.27906],[-119.17617,50.27906],[-119.16992,50.27906],[-119.16367,50.27906],[-119.15742,50.27906],[-119.15117,50.27906],[-119.14492,50.27906],[-119.13867,50.27906],[-119.13242,50.27906],[-119.12617,50.27906],[-119.11992,50.27906],[-119.11992,50.27489],[-119.11992,50.27072],[-119.11992,50.26656],[-119.11992,50.26239],[-119.12617,50.26239],[-119.13242,50.26239],[-119.13867,50.26239],[-119.14492,50.26239],[-119.15117,50.26239],[-119.15742,50.26239],[-119.16367,50.26239],[-119.16992,50.26239],[-119.17617,50.26239],[-119.18242,50.26239],[-119.18867,50.26239],[-119.18867,50.26656],[-119.18867,50.27073],[-119.18867,50.27489],[-119.18867,50.27906]]]}},{"type":"Feature","properties":{"c":"1081473","o":"WILLMS, KELSON","e":"2026-10-15Z"},"geometry":{"type":"Polygon","coordinates":[[[-119.43244,50.42906],[-119.42619,50.42906],[-119.41994,50.42906],[-119.41369,50.42906],[-119.40744,50.42906],[-119.40744,50.4249],[-119.40744,50.42073],[-119.40119,50.42073],[-119.40119,50.41656],[-119.40744,50.41656],[-119.41369,50.41656],[-119.41994,50.41656],[-119.42619,50.41656],[-119.43244,50.41656],[-119.43244,50.42073],[-119.43244,50.4249],[-119.43244,50.42906]]]}},{"type":"Feature","properties":{"c":"1081474","o":"WILLMS, KELSON","e":"2027-01-01Z"},"geometry":{"type":"Polygon","coordinates":[[[-119.37618,50.42907],[-119.36993,50.42907],[-119.36993,50.4249],[-119.37618,50.4249],[-119.38243,50.4249],[-119.38868,50.4249],[-119.38869,50.42906],[-119.38243,50.42907],[-119.37618,50.42907]]]}},{"type":"Feature","properties":{"c":"1081475","o":"WILLMS, KELSON","e":"2026-10-15Z"},"geometry":{"type":"Polygon","coordinates":[[[-119.39494,50.41656],[-119.38868,50.41656],[-119.38243,50.41656],[-119.37618,50.41656],[-119.36993,50.41657],[-119.36368,50.41656],[-119.35743,50.41657],[-119.35743,50.4124],[-119.36368,50.4124],[-119.36993,50.4124],[-119.36993,50.40823],[-119.37618,50.40823],[-119.38243,50.40823],[-119.38868,50.40823],[-119.39493,50.40823],[-119.39493,50.4124],[-119.39494,50.41656]]]}},{"type":"Feature","properties":{"c":"1081476","o":"WILLMS, KELSON","e":"2026-10-15Z"},"geometry":{"type":"Polygon","coordinates":[[[-119.41369,50.41656],[-119.40744,50.41656],[-119.40119,50.41656],[-119.39494,50.41656],[-119.39493,50.4124],[-119.39493,50.40823],[-119.39493,50.40406],[-119.40119,50.40406],[-119.40744,50.40406],[-119.41369,50.40406],[-119.41369,50.40823],[-119.41369,50.4124],[-119.41369,50.41656]]]}},{"type":"Feature","properties":{"c":"1081477","o":"WILLMS, KELSON","e":"2026-10-15Z"},"geometry":{"type":"Polygon","coordinates":[[[-119.39493,50.40823],[-119.38868,50.40823],[-119.38243,50.40823],[-119.37618,50.40823],[-119.37618,50.40406],[-119.37618,50.3999],[-119.37618,50.39573],[-119.38243,50.39573],[-119.38868,50.39573],[-119.39493,50.39573],[-119.39493,50.3999],[-119.39493,50.40406],[-119.39493,50.40823]]]}},{"type":"Feature","properties":{"c":"1081479","o":"WILLMS, KELSON","e":"2026-10-15Z"},"geometry":{"type":"Polygon","coordinates":[[[-119.39493,50.39573],[-119.38868,50.39573],[-119.38243,50.39573],[-119.37618,50.39573],[-119.37618,50.39156],[-119.37618,50.3874],[-119.37618,50.38323],[-119.38243,50.38323],[-119.38868,50.38323],[-119.39493,50.38323],[-119.39493,50.3874],[-119.39493,50.39156],[-119.39493,50.39573]]]}},{"type":"Feature","properties":{"c":"1081491","o":"WILLMS, KELSON","e":"2026-10-15Z"},"geometry":{"type":"Polygon","coordinates":[[[-119.42619,50.40406],[-119.41994,50.40406],[-119.41369,50.40406],[-119.40744,50.40406],[-119.40119,50.40406],[-119.39493,50.40406],[-119.39493,50.3999],[-119.39493,50.39573],[-119.40118,50.39573],[-119.40744,50.39573],[-119.41369,50.39573],[-119.41994,50.39573],[-119.42619,50.39573],[-119.42619,50.3999],[-119.42619,50.40406]]]}},{"type":"Feature","properties":{"c":"1081492","o":"WILLMS, KELSON","e":"2026-10-15Z"},"geometry":{"type":"Polygon","coordinates":[[[-119.43244,50.41656],[-119.42619,50.41656],[-119.41994,50.41656],[-119.41369,50.41656],[-119.41369,50.4124],[-119.41369,50.40823],[-119.41369,50.40406],[-119.41994,50.40406],[-119.42619,50.40406],[-119.43244,50.40406],[-119.43244,50.40823],[-119.43244,50.4124],[-119.43244,50.41656]]]}},{"type":"Feature","properties":{"c":"1081493","o":"WILLMS, KELSON","e":"2026-10-15Z"},"geometry":{"type":"Polygon","coordinates":[[[-119.44494,50.42906],[-119.43869,50.42906],[-119.43244,50.42906],[-119.43244,50.4249],[-119.43244,50.42073],[-119.43244,50.41656],[-119.43244,50.4124],[-119.43244,50.40823],[-119.43244,50.40406],[-119.43869,50.40406],[-119.44494,50.40406],[-119.44494,50.40823],[-119.44494,50.4124],[-119.44494,50.41656],[-119.44494,50.42073],[-119.44494,50.4249],[-119.44494,50.42906]]]}},{"type":"Feature","properties":{"c":"1104951","o":"HIGGINS, WILLIAM HOWARD","e":"2027-06-26Z"},"geometry":{"type":"Polygon","coordinates":[[[-119.18868,50.18739],[-119.18868,50.19155],[-119.18243,50.19155],[-119.18243,50.18739],[-119.18868,50.18739]]]}},{"type":"Feature","properties":{"c":"1104905","o":"HIGGINS, WILLIAM HOWARD","e":"2027-08-30Z"},"geometry":{"type":"Polygon","coordinates":[[[-119.18868,50.19155],[-119.18243,50.19155],[-119.18243,50.18739],[-119.18243,50.18322],[-119.18868,50.18322],[-119.18868,50.18739],[-119.18868,50.19155]]]}},{"type":"Feature","properties":{"c":"1119504","o":"SHEARER, JOHAN THOM","e":"2029-10-05Z"},"geometry":{"type":"Polygon","coordinates":[[[-119.50119,50.4749],[-119.49494,50.4749],[-119.48869,50.4749],[-119.48244,50.4749],[-119.48244,50.47073],[-119.48244,50.46656],[-119.48869,50.46656],[-119.49494,50.46656],[-119.50119,50.46656],[-119.50119,50.47073],[-119.50119,50.4749]]]}},{"type":"Feature","properties":{"c":"1121138","o":"BAUMANN, CHRISTOPHER  RYAN","e":"2027-02-25Z"},"geometry":{"type":"Polygon","coordinates":[[[-119.49494,50.21656],[-119.49494,50.22073],[-119.48869,50.22073],[-119.48869,50.21656],[-119.49494,50.21656]]]}},{"type":"Feature","properties":{"c":"1131231","o":"COTE, TRAVIS MICHAEL","e":"2027-03-17Z"},"geometry":{"type":"Polygon","coordinates":[[[-119.01992,50.15405],[-119.01992,50.15822],[-119.01367,50.15822],[-119.01367,50.15405],[-119.01992,50.15405]]]}},{"type":"Feature","properties":{"c":"1125823","o":"DORNAN, BARRIE JAMES","e":"2034-02-24Z"},"geometry":{"type":"Polygon","coordinates":[[[-119.11368,50.09988],[-119.11368,50.10405],[-119.10743,50.10405],[-119.10743,50.09988],[-119.11368,50.09988]]]}},{"type":"Feature","properties":{"c":"1135420","o":"WONG, LAUREL LYNN","e":"2027-07-16Z"},"geometry":{"type":"Polygon","coordinates":[[[-119.00116,50.39156],[-119.00116,50.39573],[-118.99491,50.39573],[-118.99491,50.39156],[-119.00116,50.39156]]]}},{"type":"Feature","properties":{"c":"1135477","o":"GUNNING, MITCHELL TOMAS","e":"2027-07-16Z"},"geometry":{"type":"Polygon","coordinates":[[[-119.39494,50.44157],[-119.38869,50.44157],[-119.38244,50.44157],[-119.38243,50.4374],[-119.38243,50.43323],[-119.38869,50.43323],[-119.39494,50.43323],[-119.39494,50.4374],[-119.39494,50.44157]]]}},{"type":"Feature","properties":{"c":"1135480","o":"WATSON, WAYNE MILES","e":"2027-07-16Z"},"geometry":{"type":"Polygon","coordinates":[[[-119.40744,50.4249],[-119.40744,50.42906],[-119.40119,50.42906],[-119.40119,50.4249],[-119.40744,50.4249]]]}},{"type":"Feature","properties":{"c":"1135601","o":"MCKINNON, DUSTY RAYNIER","e":"2027-07-16Z"},"geometry":{"type":"Polygon","coordinates":[[[-119.40744,50.42073],[-119.40744,50.4249],[-119.40119,50.4249],[-119.40119,50.42073],[-119.40744,50.42073]]]}},{"type":"Feature","properties":{"c":"1135602","o":"MCKINNON, DUSTY RAYNIER","e":"2027-07-16Z"},"geometry":{"type":"Polygon","coordinates":[[[-119.41369,50.41656],[-119.41369,50.42073],[-119.40744,50.42073],[-119.40744,50.41656],[-119.41369,50.41656]]]}},{"type":"Feature","properties":{"c":"1135603","o":"MCKINNON, DUSTY RAYNIER","e":"2027-07-16Z"},"geometry":{"type":"Polygon","coordinates":[[[-119.41369,50.42073],[-119.41369,50.4249],[-119.40744,50.4249],[-119.40744,50.42073],[-119.41369,50.42073]]]}},{"type":"Feature","properties":{"c":"1135604","o":"MCKINNON, DUSTY RAYNIER","e":"2027-07-16Z"},"geometry":{"type":"Polygon","coordinates":[[[-119.38243,50.43323],[-119.38243,50.4374],[-119.37618,50.4374],[-119.37618,50.43323],[-119.38243,50.43323]]]}},{"type":"Feature","properties":{"c":"1135605","o":"MCKINNON, DUSTY RAYNIER","e":"2027-07-16Z"},"geometry":{"type":"Polygon","coordinates":[[[-119.39494,50.42907],[-119.39494,50.43323],[-119.38869,50.43323],[-119.38869,50.42906],[-119.39494,50.42907]]]}},{"type":"Feature","properties":{"c":"1135606","o":"MCKINNON, DUSTY RAYNIER","e":"2027-07-16Z"},"geometry":{"type":"Polygon","coordinates":[[[-119.40119,50.42906],[-119.40119,50.43323],[-119.39494,50.43323],[-119.39494,50.42907],[-119.40119,50.42906]]]}},{"type":"Feature","properties":{"c":"1135607","o":"MCKINNON, DUSTY RAYNIER","e":"2027-07-16Z"},"geometry":{"type":"Polygon","coordinates":[[[-119.40119,50.4249],[-119.40119,50.42906],[-119.39494,50.42907],[-119.39494,50.4249],[-119.40119,50.4249]]]}},{"type":"Feature","properties":{"c":"1135608","o":"MCKINNON, DUSTY RAYNIER","e":"2027-07-16Z"},"geometry":{"type":"Polygon","coordinates":[[[-119.41994,50.41656],[-119.41994,50.42073],[-119.41369,50.42073],[-119.41369,50.41656],[-119.41994,50.41656]]]}},{"type":"Feature","properties":{"c":"1135609","o":"MCKINNON, DUSTY RAYNIER","e":"2027-07-16Z"},"geometry":{"type":"Polygon","coordinates":[[[-119.38869,50.42906],[-119.38869,50.43323],[-119.38243,50.43323],[-119.38243,50.42907],[-119.38869,50.42906]]]}},{"type":"Feature","properties":{"c":"1135610","o":"MCKINNON, DUSTY RAYNIER","e":"2027-07-16Z"},"geometry":{"type":"Polygon","coordinates":[[[-119.38243,50.42907],[-119.38243,50.43323],[-119.37618,50.43323],[-119.37618,50.42907],[-119.38243,50.42907]]]}},{"type":"Feature","properties":{"c":"1135611","o":"MCKINNON, DUSTY RAYNIER","e":"2027-07-16Z"},"geometry":{"type":"Polygon","coordinates":[[[-119.38243,50.4374],[-119.38244,50.44157],[-119.37618,50.44157],[-119.37618,50.4374],[-119.38243,50.4374]]]}},{"type":"Feature","properties":{"c":"1135612","o":"MCKINNON, DUSTY RAYNIER","e":"2027-07-16Z"},"geometry":{"type":"Polygon","coordinates":[[[-119.38244,50.44157],[-119.38244,50.44573],[-119.37618,50.44573],[-119.37618,50.44157],[-119.38244,50.44157]]]}},{"type":"Feature","properties":{"c":"1135691","o":"DODD, EUGENE A.","e":"2027-07-16Z"},"geometry":{"type":"Polygon","coordinates":[[[-119.40118,50.35823],[-119.39493,50.35823],[-119.38868,50.35823],[-119.38868,50.35406],[-119.38868,50.3499],[-119.39493,50.3499],[-119.40118,50.3499],[-119.40118,50.35406],[-119.40118,50.35823]]]}},{"type":"Feature","properties":{"c":"1135757","o":"PUT, JARED GUSTAF","e":"2027-07-16Z"},"geometry":{"type":"Polygon","coordinates":[[[-119.36368,50.35823],[-119.35743,50.35823],[-119.35743,50.35406],[-119.35118,50.35406],[-119.35118,50.3499],[-119.35743,50.3499],[-119.36368,50.3499],[-119.36368,50.35406],[-119.36368,50.35823]]]}},{"type":"Feature","properties":{"c":"1135760","o":"LANGILLE, MICHEAL SCOTT","e":"2027-07-16Z"},"geometry":{"type":"Polygon","coordinates":[[[-119.48244,50.22073],[-119.48244,50.22489],[-119.47619,50.22489],[-119.47619,50.22073],[-119.48244,50.22073]]]}},{"type":"Feature","properties":{"c":"1135761","o":"ADAM, ANDREA LYNN","e":"2027-07-16Z"},"geometry":{"type":"Polygon","coordinates":[[[-119.47619,50.30823],[-119.47619,50.31239],[-119.46994,50.31239],[-119.46994,50.30823],[-119.47619,50.30823]]]}},{"type":"Feature","properties":{"c":"1135762","o":"ADAM, ANDREA LYNN","e":"2027-07-16Z"},"geometry":{"type":"Polygon","coordinates":[[[-119.46994,50.30823],[-119.46994,50.31239],[-119.46369,50.31239],[-119.46369,50.30823],[-119.46994,50.30823]]]}},{"type":"Feature","properties":{"c":"1135787","o":"BROOKES, CLIVE GERRARD","e":"2027-07-16Z"},"geometry":{"type":"Polygon","coordinates":[[[-119.36993,50.3624],[-119.36368,50.3624],[-119.35743,50.3624],[-119.35743,50.35823],[-119.36368,50.35823],[-119.36368,50.35406],[-119.36993,50.35406],[-119.36993,50.35823],[-119.36993,50.3624]]]}},{"type":"Feature","properties":{"c":"1135828","o":"BIRD, BEVERLY ANN","e":"2027-07-16Z"},"geometry":{"type":"Polygon","coordinates":[[[-119.19492,50.3749],[-119.18867,50.3749],[-119.18242,50.3749],[-119.17617,50.3749],[-119.16992,50.3749],[-119.16992,50.37073],[-119.16992,50.36656],[-119.16992,50.3624],[-119.17617,50.3624],[-119.18242,50.3624],[-119.18867,50.3624],[-119.19492,50.3624],[-119.19492,50.36656],[-119.19492,50.37073],[-119.19492,50.3749]]]}},{"type":"Feature","properties":{"c":"1135878","o":"RYDE, NICHOLAS JAMES","e":"2027-07-16Z"},"geometry":{"type":"Polygon","coordinates":[[[-119.48869,50.21239],[-119.48869,50.21656],[-119.48244,50.21656],[-119.48244,50.21239],[-119.48869,50.21239]]]}},{"type":"Feature","properties":{"c":"1135927","o":"HURD, DANIEL GORDON","e":"2027-07-16Z"},"geometry":{"type":"Polygon","coordinates":[[[-119.10118,50.04988],[-119.10118,50.05405],[-119.09493,50.05405],[-119.09493,50.04988],[-119.10118,50.04988]]]}},{"type":"Feature","properties":{"c":"1135954","o":"ADAM, DYLAN","e":"2027-07-16Z"},"geometry":{"type":"Polygon","coordinates":[[[-119.47619,50.29989],[-119.47619,50.30406],[-119.46994,50.30406],[-119.46994,50.29989],[-119.47619,50.29989]]]}},{"type":"Feature","properties":{"c":"1135955","o":"ADAM, DYLAN","e":"2027-07-16Z"},"geometry":{"type":"Polygon","coordinates":[[[-119.46994,50.30406],[-119.46994,50.30823],[-119.46369,50.30823],[-119.46369,50.30406],[-119.46994,50.30406]]]}},{"type":"Feature","properties":{"c":"1135961","o":"ADAM, DAKOTA LYNDON MATTHEW","e":"2027-07-16Z"},"geometry":{"type":"Polygon","coordinates":[[[-119.47619,50.30406],[-119.47619,50.30823],[-119.46994,50.30823],[-119.46994,50.30406],[-119.47619,50.30406]]]}},{"type":"Feature","properties":{"c":"1136757","o":"DODD, EUGENE A.","e":"2027-07-29Z"},"geometry":{"type":"Polygon","coordinates":[[[-119.06992,50.45407],[-119.06367,50.45407],[-119.06367,50.4499],[-119.05742,50.4499],[-119.05117,50.4499],[-119.05117,50.44573],[-119.05117,50.44157],[-119.05742,50.44157],[-119.06367,50.44157],[-119.06992,50.44157],[-119.06992,50.44573],[-119.06992,50.4499],[-119.06992,50.45407]]]}},{"type":"Feature","properties":{"c":"1136758","o":"DODD, EUGENE A.","e":"2027-07-29Z"},"geometry":{"type":"Polygon","coordinates":[[[-119.07617,50.44157],[-119.06992,50.44157],[-119.06367,50.44157],[-119.05742,50.44157],[-119.05117,50.44157],[-119.05117,50.4374],[-119.05117,50.43323],[-119.05742,50.43323],[-119.06367,50.43323],[-119.06992,50.43323],[-119.07617,50.43323],[-119.07617,50.4374],[-119.07617,50.44157]]]}},{"type":"Feature","properties":{"c":"1135972","o":"MT. WILSON SILICA VENTURES LTD","e":"2027-07-16Z"},"geometry":{"type":"Polygon","coordinates":[[[-119.08867,50.42907],[-119.08242,50.42907],[-119.08242,50.43323],[-119.07617,50.43323],[-119.06992,50.43323],[-119.06367,50.43323],[-119.05742,50.43323],[-119.05117,50.43323],[-119.04492,50.43323],[-119.04492,50.42907],[-119.04492,50.4249],[-119.04492,50.42073],[-119.04492,50.41656],[-119.05117,50.41656],[-119.05742,50.41656],[-119.05742,50.42073],[-119.05742,50.4249],[-119.06367,50.4249],[-119.06992,50.4249],[-119.06992,50.42073],[-119.06992,50.41656],[-119.07617,50.41656],[-119.08242,50.41656],[-119.08242,50.42073],[-119.08867,50.42073],[-119.08867,50.4249],[-119.08867,50.42907]]]}},{"type":"Feature","properties":{"c":"1135987","o":"REIBIN, DEANNE MICHELLE","e":"2027-07-16Z"},"geometry":{"type":"Polygon","coordinates":[[[-119.11368,50.10405],[-119.11368,50.09988],[-119.11993,50.09988],[-119.12618,50.09988],[-119.12618,50.10405],[-119.11993,50.10405],[-119.11368,50.10405]]]}},{"type":"Feature","properties":{"c":"1135988","o":"REIBIN, DEANNE MICHELLE","e":"2027-07-16Z"},"geometry":{"type":"Polygon","coordinates":[[[-119.11368,50.10822],[-119.11368,50.10405],[-119.11993,50.10405],[-119.12618,50.10405],[-119.12618,50.10822],[-119.11993,50.10822],[-119.11368,50.10822]]]}},{"type":"Feature","properties":{"c":"1135989","o":"REIBIN, DEANNE MICHELLE","e":"2027-07-16Z"},"geometry":{"type":"Polygon","coordinates":[[[-119.17618,50.09155],[-119.16993,50.09155],[-119.16993,50.08739],[-119.16993,50.08322],[-119.17618,50.08322],[-119.17618,50.08739],[-119.17618,50.09155]]]}},{"type":"Feature","properties":{"c":"1135990","o":"REIBIN, DEANNE MICHELLE","e":"2027-07-16Z"},"geometry":{"type":"Polygon","coordinates":[[[-119.16993,50.09155],[-119.16368,50.09155],[-119.16368,50.08739],[-119.16368,50.08322],[-119.16993,50.08322],[-119.16993,50.08739],[-119.16993,50.09155]]]}},{"type":"Feature","properties":{"c":"1135994","o":"SARGEANT, KEVIN JAMES","e":"2027-07-16Z"},"geometry":{"type":"Polygon","coordinates":[[[-119.44494,50.4374],[-119.44494,50.44156],[-119.43869,50.44156],[-119.43869,50.4374],[-119.44494,50.4374]]]}},{"type":"Feature","properties":{"c":"1136022","o":"PREVOST, MILAN EMILE","e":"2027-07-16Z"},"geometry":{"type":"Polygon","coordinates":[[[-119.50119,50.20823],[-119.50119,50.21239],[-119.49494,50.21239],[-119.49494,50.20823],[-119.50119,50.20823]]]}},{"type":"Feature","properties":{"c":"1136023","o":"PREVOST, MILAN EMILE","e":"2027-07-16Z"},"geometry":{"type":"Polygon","coordinates":[[[-119.10118,50.06655],[-119.09493,50.06655],[-119.08867,50.06655],[-119.08867,50.06238],[-119.09493,50.06238],[-119.09493,50.05822],[-119.09493,50.05405],[-119.10118,50.05405],[-119.10118,50.05822],[-119.10118,50.06238],[-119.10118,50.06655]]]}},{"type":"Feature","properties":{"c":"1136025","o":"PREVOST, MILAN EMILE","e":"2027-07-16Z"},"geometry":{"type":"Polygon","coordinates":[[[-119.13868,50.06655],[-119.13243,50.06655],[-119.13243,50.06238],[-119.13243,50.05822],[-119.13243,50.05405],[-119.13868,50.05405],[-119.13868,50.05822],[-119.14493,50.05822],[-119.14493,50.06238],[-119.13868,50.06238],[-119.13868,50.06655]]]}},{"type":"Feature","properties":{"c":"1136027","o":"PREVOST, MILAN EMILE","e":"2027-07-16Z"},"geometry":{"type":"Polygon","coordinates":[[[-119.00742,50.14988],[-119.00742,50.14572],[-119.01367,50.14572],[-119.01992,50.14572],[-119.01992,50.14988],[-119.01367,50.14988],[-119.00742,50.14988]]]}},{"type":"Feature","properties":{"c":"1136028","o":"PREVOST, MILAN EMILE","e":"2027-07-16Z"},"geometry":{"type":"Polygon","coordinates":[[[-119.15118,50.06238],[-119.15118,50.06655],[-119.14493,50.06655],[-119.14493,50.06238],[-119.15118,50.06238]]]}},{"type":"Feature","properties":{"c":"1136041","o":"MOREL, PETER","e":"2027-07-16Z"},"geometry":{"type":"Polygon","coordinates":[[[-119.25743,50.06239],[-119.25743,50.06655],[-119.25118,50.06655],[-119.25118,50.06239],[-119.25743,50.06239]]]}},{"type":"Feature","properties":{"c":"1136043","o":"MCEWEN, ALLANDALE","e":"2027-07-16Z"},"geometry":{"type":"Polygon","coordinates":[[[-119.29493,50.27073],[-119.28868,50.27073],[-119.28868,50.26656],[-119.28868,50.26239],[-119.29493,50.26239],[-119.29493,50.26656],[-119.29493,50.27073]]]}},{"type":"Feature","properties":{"c":"1138141","o":"ESSINGTON, LEROY BRUCE","e":"2027-08-28Z"},"geometry":{"type":"Polygon","coordinates":[[[-119.25118,50.09989],[-119.24493,50.09989],[-119.23868,50.09989],[-119.23243,50.09989],[-119.23243,50.09572],[-119.23243,50.09155],[-119.23868,50.09155],[-119.23868,50.08739],[-119.24493,50.08739],[-119.24493,50.09155],[-119.25118,50.09155],[-119.25118,50.09572],[-119.25118,50.09989]]]}},{"type":"Feature","properties":{"c":"1137287","o":"CZEPIL, JEFFREY RANDAL","e":"2027-08-16Z"},"geometry":{"type":"Polygon","coordinates":[[[-119.09492,50.4249],[-119.08867,50.4249],[-119.08867,50.42073],[-119.08242,50.42073],[-119.08242,50.41656],[-119.07617,50.41656],[-119.06992,50.41656],[-119.06367,50.41656],[-119.05742,50.41656],[-119.05117,50.41656],[-119.04492,50.41656],[-119.04492,50.4124],[-119.05117,50.4124],[-119.05742,50.4124],[-119.06367,50.4124],[-119.06992,50.4124],[-119.07617,50.4124],[-119.08242,50.4124],[-119.08867,50.4124],[-119.09492,50.4124],[-119.09492,50.41656],[-119.09492,50.42073],[-119.09492,50.4249]]]}},{"type":"Feature","properties":{"c":"1139899","o":"DORNAN, BARRIE JAMES","e":"2027-09-28Z"},"geometry":{"type":"Polygon","coordinates":[[[-119.47619,50.22073],[-119.47619,50.21656],[-119.48244,50.21656],[-119.48869,50.21656],[-119.48869,50.22073],[-119.48244,50.22073],[-119.47619,50.22073]]]}},{"type":"Feature","properties":{"c":"1139900","o":"DORNAN, BARRIE JAMES","e":"2027-09-28Z"},"geometry":{"type":"Polygon","coordinates":[[[-119.48244,50.21239],[-119.48244,50.21656],[-119.47619,50.21656],[-119.47619,50.21239],[-119.48244,50.21239]]]}},{"type":"Feature","properties":{"c":"1131057","o":"COTE, TRAVIS MICHAEL","e":"2027-03-11Z"},"geometry":{"type":"Polygon","coordinates":[[[-119.01992,50.14988],[-119.01992,50.15405],[-119.01367,50.15405],[-119.01367,50.14988],[-119.01992,50.14988]]]}},{"type":"Feature","properties":{"c":"1116596","o":"TREEN, GORDON ALLAN","e":"2027-10-08Z"},"geometry":{"type":"Polygon","coordinates":[[[-119.00742,50.19572],[-119.00742,50.19989],[-119.00117,50.19989],[-119.00117,50.19572],[-119.00742,50.19572]]]}},{"type":"Feature","properties":{"c":"1067762","o":"MCKAY, WILLIAM JAMIE","e":"2027-06-10Z"},"geometry":{"type":"Polygon","coordinates":[[[-119.49494,50.22073],[-119.49494,50.22489],[-119.48869,50.22489],[-119.48869,50.22073],[-119.49494,50.22073]]]}},{"type":"Feature","properties":{"c":"1101255","o":"MCKAY, WILLIAM JAMIE","e":"2027-06-10Z"},"geometry":{"type":"Polygon","coordinates":[[[-119.48869,50.22073],[-119.48869,50.22489],[-119.48244,50.22489],[-119.48244,50.22073],[-119.48869,50.22073]]]}},{"type":"Feature","properties":{"c":"1139812","o":"LONGWORTH, CATHERINE TANIS","e":"2027-09-29Z"},"geometry":{"type":"Polygon","coordinates":[[[-119.49494,50.21239],[-119.48869,50.21239],[-119.48244,50.21239],[-119.48244,50.20823],[-119.48244,50.20406],[-119.48869,50.20406],[-119.49494,50.20406],[-119.50119,50.20406],[-119.50119,50.20823],[-119.49494,50.20823],[-119.49494,50.21239]]]}},{"type":"Feature","properties":{"c":"1112962","o":"DAVIS, DARREL WAYNE","e":"2027-06-10Z"},"geometry":{"type":"Polygon","coordinates":[[[-119.48244,50.22906],[-119.48244,50.22489],[-119.48869,50.22489],[-119.49494,50.22489],[-119.49494,50.22906],[-119.48869,50.22906],[-119.48244,50.22906]]]}},{"type":"Feature","properties":{"c":"1113633","o":"HURD, DANIEL GORDON","e":"2030-07-16Z"},"geometry":{"type":"Polygon","coordinates":[[[-119.01992,50.14572],[-119.01367,50.14572],[-119.01367,50.14155],[-119.01367,50.13738],[-119.01992,50.13738],[-119.01992,50.14155],[-119.01992,50.14572]]]}},{"type":"Feature","properties":{"c":"1113635","o":"HART, DAYNA","e":"2030-07-16Z"},"geometry":{"type":"Polygon","coordinates":[[[-119.01367,50.14572],[-119.00742,50.14572],[-119.00742,50.14155],[-119.00742,50.13738],[-119.01367,50.13738],[-119.01367,50.14155],[-119.01367,50.14572]]]}},{"type":"Feature","properties":{"c":"1138671","o":"MT. WILSON SILICA VENTURES LTD","e":"2027-09-10Z"},"geometry":{"type":"Polygon","coordinates":[[[-119.10117,50.44157],[-119.09492,50.44157],[-119.09492,50.44573],[-119.08867,50.44573],[-119.08242,50.44573],[-119.08242,50.4499],[-119.07617,50.4499],[-119.07617,50.44573],[-119.07617,50.44157],[-119.08242,50.44157],[-119.08867,50.44157],[-119.08867,50.4374],[-119.09492,50.4374],[-119.09492,50.43323],[-119.10117,50.43323],[-119.10117,50.4374],[-119.10117,50.44157]]]}},{"type":"Feature","properties":{"c":"1138672","o":"MT. WILSON SILICA VENTURES LTD","e":"2027-09-10Z"},"geometry":{"type":"Polygon","coordinates":[[[-119.04492,50.44157],[-119.03867,50.44157],[-119.03242,50.44157],[-119.02617,50.44157],[-119.01992,50.44157],[-119.01367,50.44157],[-119.01367,50.4374],[-119.01367,50.43323],[-119.01992,50.43323],[-119.02617,50.43323],[-119.03242,50.43323],[-119.03867,50.43323],[-119.04492,50.43323],[-119.04492,50.4374],[-119.04492,50.44157]]]}},{"type":"Feature","properties":{"c":"1119470","o":"SHEARER, JOHAN THOM","e":"2029-10-05Z"},"geometry":{"type":"Polygon","coordinates":[[[-119.50744,50.46656],[-119.50119,50.46656],[-119.49494,50.46656],[-119.48869,50.46656],[-119.48869,50.4624],[-119.48869,50.45823],[-119.49494,50.45823],[-119.50119,50.45823],[-119.50744,50.45823],[-119.50744,50.4624],[-119.50744,50.46656]]]}},{"type":"Feature","properties":{"c":"1120877","o":"PUT, JARED GUSTAF","e":"2027-03-19Z"},"geometry":{"type":"Polygon","coordinates":[[[-119.35743,50.35406],[-119.35743,50.35823],[-119.35118,50.35823],[-119.35118,50.35406],[-119.35743,50.35406]]]}}]}