{"type":"FeatureCollection","features":[{"type":"Feature","properties":{"c":"1061759","o":"COAST MOUNTAIN GEOLOGICAL LTD.","e":"2030-11-28Z"},"geometry":{"type":"Polygon","coordinates":[[[-119.99496,49.80405],[-119.98871,49.80405],[-119.98246,49.80405],[-119.98246,49.79988],[-119.98246,49.79572],[-119.98246,49.79155],[-119.98246,49.78738],[-119.98871,49.78738],[-119.98871,49.79155],[-119.99496,49.79155],[-119.99496,49.79571],[-119.99496,49.79988],[-119.99496,49.80405]]]}},{"type":"Feature","properties":{"c":"1072076","o":"COAST MOUNTAIN GEOLOGICAL LTD.","e":"2030-11-28Z"},"geometry":{"type":"MultiPolygon","coordinates":[[[[-120.00746,49.74155],[-120.01371,49.74155],[-120.01996,49.74155],[-120.02622,49.74155],[-120.03247,49.74155],[-120.03246,49.74572],[-120.03246,49.74988],[-120.03246,49.75405],[-120.02621,49.75405],[-120.01996,49.75405],[-120.01371,49.75405],[-120.00746,49.75405],[-120.00121,49.75405],[-120.00121,49.74988],[-119.99496,49.74988],[-119.98871,49.74988],[-119.98246,49.74988],[-119.98246,49.74572],[-119.97621,49.74572],[-119.96996,49.74572],[-119.96371,49.74572],[-119.95746,49.74572],[-119.95746,49.74155],[-119.96371,49.74155],[-119.96996,49.74155],[-119.97621,49.74155],[-119.98246,49.74155],[-119.98871,49.74155],[-119.99496,49.74155],[-120.00121,49.74155],[-120.00746,49.74155]]]]}},{"type":"Feature","properties":{"c":"1008202","o":"HART, DAYNA","e":"2035-07-15Z"},"geometry":{"type":"Polygon","coordinates":[[[-119.6262,49.97072],[-119.6262,49.97489],[-119.61995,49.97489],[-119.61995,49.97072],[-119.6262,49.97072]]]}},{"type":"Feature","properties":{"c":"941108","o":"ALMADEX MINERALS LTD.","e":"2028-06-14Z"},"geometry":{"type":"Polygon","coordinates":[[[-119.91371,49.74989],[-119.90746,49.74989],[-119.90121,49.74989],[-119.90121,49.74572],[-119.90121,49.74155],[-119.90121,49.73739],[-119.90746,49.73739],[-119.91371,49.73739],[-119.91371,49.74155],[-119.91371,49.74572],[-119.91371,49.74989]]]}},{"type":"Feature","properties":{"c":"1047438","o":"COAST MOUNTAIN GEOLOGICAL LTD.","e":"2030-11-28Z"},"geometry":{"type":"Polygon","coordinates":[[[-119.98871,49.78738],[-119.98246,49.78738],[-119.97621,49.78738],[-119.96996,49.78738],[-119.96371,49.78738],[-119.95746,49.78738],[-119.95121,49.78738],[-119.94496,49.78738],[-119.93871,49.78738],[-119.93246,49.78738],[-119.93246,49.79155],[-119.92621,49.79155],[-119.91996,49.79155],[-119.91996,49.79572],[-119.91371,49.79572],[-119.90746,49.79572],[-119.90121,49.79572],[-119.89495,49.79572],[-119.8887,49.79572],[-119.88245,49.79572],[-119.88245,49.79155],[-119.88245,49.78738],[-119.88245,49.78322],[-119.88245,49.77905],[-119.88245,49.77489],[-119.88245,49.77072],[-119.8887,49.77072],[-119.89496,49.77072],[-119.90121,49.77072],[-119.90746,49.77072],[-119.91371,49.77072],[-119.91996,49.77072],[-119.92621,49.77072],[-119.93246,49.77072],[-119.93871,49.77072],[-119.94496,49.77072],[-119.94496,49.77488],[-119.94496,49.77905],[-119.94496,49.78322],[-119.95121,49.78322],[-119.95746,49.78322],[-119.96371,49.78322],[-119.96371,49.77905],[-119.96996,49.77905],[-119.97621,49.77905],[-119.98246,49.77905],[-119.98246,49.77488],[-119.98246,49.77072],[-119.98246,49.76655],[-119.98871,49.76655],[-119.98871,49.77072],[-119.98871,49.77488],[-119.98871,49.77905],[-119.98871,49.78322],[-119.98871,49.78738]]]}},{"type":"Feature","properties":{"c":"1047439","o":"COAST MOUNTAIN GEOLOGICAL LTD.","e":"2030-11-28Z"},"geometry":{"type":"Polygon","coordinates":[[[-119.99496,49.80405],[-119.99496,49.79988],[-119.99496,49.79571],[-119.99496,49.79155],[-119.98871,49.79155],[-119.98871,49.78738],[-119.98871,49.78322],[-119.98871,49.77905],[-119.98871,49.77488],[-119.98871,49.77072],[-119.98871,49.76655],[-119.98871,49.76238],[-119.98871,49.75822],[-119.98871,49.75405],[-119.98246,49.75405],[-119.97621,49.75405],[-119.96996,49.75405],[-119.96996,49.75822],[-119.96996,49.76238],[-119.96996,49.76655],[-119.96371,49.76655],[-119.96371,49.77072],[-119.95746,49.77072],[-119.95746,49.76655],[-119.95746,49.76238],[-119.95746,49.75822],[-119.95746,49.75405],[-119.95746,49.74989],[-119.95746,49.74572],[-119.96371,49.74572],[-119.96996,49.74572],[-119.97621,49.74572],[-119.98246,49.74572],[-119.98246,49.74988],[-119.98871,49.74988],[-119.99496,49.74988],[-120.00121,49.74988],[-120.00121,49.75405],[-120.00746,49.75405],[-120.01371,49.75405],[-120.01371,49.75822],[-120.01371,49.76238],[-120.01371,49.76655],[-120.01371,49.77072],[-120.01371,49.77488],[-120.01371,49.77905],[-120.01371,49.78321],[-120.01371,49.78738],[-120.01371,49.79155],[-120.01371,49.79571],[-120.01371,49.79988],[-120.01371,49.80405],[-120.00746,49.80405],[-120.00121,49.80405],[-119.99496,49.80405]]]}},{"type":"Feature","properties":{"c":"1020454","o":"COAST MOUNTAIN GEOLOGICAL LTD.","e":"2030-11-28Z"},"geometry":{"type":"Polygon","coordinates":[[[-119.98871,49.76655],[-119.98246,49.76655],[-119.97621,49.76655],[-119.96996,49.76655],[-119.96996,49.76238],[-119.96996,49.75822],[-119.96996,49.75405],[-119.97621,49.75405],[-119.98246,49.75405],[-119.98871,49.75405],[-119.98871,49.75822],[-119.98871,49.76238],[-119.98871,49.76655]]]}},{"type":"Feature","properties":{"c":"1047064","o":"COAST MOUNTAIN GEOLOGICAL LTD.","e":"2030-11-28Z"},"geometry":{"type":"Polygon","coordinates":[[[-119.98246,49.77905],[-119.97621,49.77905],[-119.96996,49.77905],[-119.96371,49.77905],[-119.96371,49.77488],[-119.96371,49.77072],[-119.96371,49.76655],[-119.96996,49.76655],[-119.97621,49.76655],[-119.98246,49.76655],[-119.98246,49.77072],[-119.98246,49.77488],[-119.98246,49.77905]]]}},{"type":"Feature","properties":{"c":"1047065","o":"COAST MOUNTAIN GEOLOGICAL LTD.","e":"2030-11-28Z"},"geometry":{"type":"Polygon","coordinates":[[[-119.96371,49.78322],[-119.95746,49.78322],[-119.95121,49.78322],[-119.94496,49.78322],[-119.94496,49.77905],[-119.94496,49.77488],[-119.94496,49.77072],[-119.95121,49.77072],[-119.95746,49.77072],[-119.96371,49.77072],[-119.96371,49.77488],[-119.96371,49.77905],[-119.96371,49.78322]]]}},{"type":"Feature","properties":{"c":"1073800","o":"COAST MOUNTAIN GEOLOGICAL LTD.","e":"2029-09-28Z"},"geometry":{"type":"Polygon","coordinates":[[[-120.00747,49.72905],[-120.01372,49.72905],[-120.01997,49.72905],[-120.02622,49.72905],[-120.03247,49.72905],[-120.03247,49.73322],[-120.03247,49.73738],[-120.03247,49.74155],[-120.02622,49.74155],[-120.01996,49.74155],[-120.01371,49.74155],[-120.00746,49.74155],[-120.00121,49.74155],[-119.99496,49.74155],[-119.98871,49.74155],[-119.98246,49.74155],[-119.97621,49.74155],[-119.96996,49.74155],[-119.96371,49.74155],[-119.95746,49.74155],[-119.95746,49.73739],[-119.95746,49.73322],[-119.95746,49.72905],[-119.96371,49.72905],[-119.96996,49.72905],[-119.97621,49.72905],[-119.98246,49.72905],[-119.98872,49.72905],[-119.99497,49.72905],[-120.00122,49.72905],[-120.00747,49.72905]]]}},{"type":"Feature","properties":{"c":"1064645","o":"GREIG, CHARLES JAMES","e":"2028-05-31Z"},"geometry":{"type":"Polygon","coordinates":[[[-120.00122,49.94571],[-119.99497,49.94571],[-119.98872,49.94571],[-119.98872,49.94155],[-119.98872,49.93738],[-119.98872,49.93321],[-119.98872,49.92905],[-119.98872,49.92488],[-119.99497,49.92488],[-120.00122,49.92488],[-120.00122,49.92905],[-120.00122,49.93321],[-120.00122,49.93738],[-120.00122,49.94155],[-120.00122,49.94571]]]}},{"type":"Feature","properties":{"c":"247409","o":"GLENCORE CANADA CORPORATION","e":"2027-11-04Z"},"geometry":{"type":"Polygon","coordinates":[[[-120.01546,49.87019],[-120.0121,49.87317],[-120.0161,49.87468],[-120.00979,49.88164],[-120.0077,49.88085],[-120.01019,49.88195],[-120.00691,49.88505],[-120.00386,49.88376],[-120.00031,49.88226],[-119.99648,49.8804],[-119.99865,49.87834],[-119.99616,49.87623],[-119.998,49.87532],[-119.99999,49.87433],[-120.0,49.87433],[-120.00402,49.87209],[-120.00405,49.87207],[-120.00514,49.87144],[-120.00478,49.87118],[-120.00668,49.87118],[-120.0076,49.87118],[-120.00726,49.87097],[-120.01079,49.86869],[-120.01092,49.86877],[-120.01092,49.86743],[-120.0159,49.8698],[-120.01546,49.87019]]]}},{"type":"Feature","properties":{"c":"247413","o":"GLENCORE CANADA CORPORATION","e":"2028-01-21Z"},"geometry":{"type":"Polygon","coordinates":[[[-119.99861,49.86973],[-119.99807,49.87069],[-120.00405,49.87207],[-120.00402,49.87209],[-119.99791,49.87099],[-119.9962,49.87495],[-119.99806,49.87529],[-119.99616,49.87623],[-119.99865,49.87834],[-119.99648,49.8804],[-119.99746,49.88087],[-119.99429,49.88103],[-119.99427,49.88091],[-119.98991,49.88117],[-119.98652,49.88155],[-119.98651,49.88152],[-119.98017,49.88186],[-119.97383,49.88219],[-119.97334,49.87831],[-119.97236,49.87443],[-119.97827,49.8738],[-119.97765,49.87381],[-119.97746,49.87068],[-119.97746,49.8697],[-119.9775,49.86726],[-119.98218,49.86741],[-119.98804,49.86743],[-119.99327,49.8678],[-119.99409,49.86781],[-119.9999,49.86745],[-119.99861,49.86973]]]}},{"type":"Feature","properties":{"c":"247450","o":"GLENCORE CANADA CORPORATION","e":"2028-02-22Z"},"geometry":{"type":"Polygon","coordinates":[[[-120.00402,49.87209],[-120.0,49.87433],[-119.99999,49.87433],[-119.99806,49.87529],[-119.9962,49.87495],[-119.99791,49.87099],[-120.00402,49.87209]]]}},{"type":"Feature","properties":{"c":"247457","o":"GLENCORE CANADA CORPORATION","e":"2028-02-22Z"},"geometry":{"type":"Polygon","coordinates":[[[-119.98804,49.86743],[-119.98218,49.86741],[-119.98214,49.86231],[-119.98804,49.86231],[-119.98804,49.86743]]]}},{"type":"Feature","properties":{"c":"247458","o":"GLENCORE CANADA CORPORATION","e":"2028-02-22Z"},"geometry":{"type":"Polygon","coordinates":[[[-119.98218,49.86741],[-119.9775,49.86726],[-119.97747,49.86232],[-119.98214,49.86231],[-119.98218,49.86741]]]}},{"type":"Feature","properties":{"c":"247459","o":"GLENCORE CANADA CORPORATION","e":"2028-02-22Z"},"geometry":{"type":"Polygon","coordinates":[[[-119.9586,49.87196],[-119.95854,49.87569],[-119.95286,49.87568],[-119.9524,49.87567],[-119.95243,49.87189],[-119.9586,49.87196]]]}},{"type":"Feature","properties":{"c":"247601","o":"GLENCORE CANADA CORPORATION","e":"2028-02-22Z"},"geometry":{"type":"Polygon","coordinates":[[[-119.96428,49.87155],[-119.96419,49.87194],[-119.9586,49.87196],[-119.95243,49.87189],[-119.95245,49.87147],[-119.95286,49.87147],[-119.96428,49.87155]]]}},{"type":"Feature","properties":{"c":"306901","o":"GLENCORE CANADA CORPORATION","e":"2027-12-24Z"},"geometry":{"type":"Polygon","coordinates":[[[-120.01211,49.89017],[-120.01744,49.89242],[-120.00796,49.89237],[-120.0078,49.88841],[-120.0,49.88859],[-119.99525,49.8888],[-119.99547,49.89264],[-119.99834,49.89257],[-119.99836,49.89275],[-119.99201,49.89303],[-119.98569,49.89351],[-119.98569,49.89346],[-119.98181,49.89366],[-119.97647,49.89409],[-119.97549,49.89417],[-119.97383,49.88219],[-119.98017,49.88186],[-119.98651,49.88152],[-119.98652,49.88155],[-119.98991,49.88117],[-119.99427,49.88091],[-119.99429,49.88103],[-119.99746,49.88087],[-120.00031,49.88226],[-119.99986,49.88377],[-120.00314,49.88421],[-120.0031,49.88424],[-120.00755,49.88717],[-120.00787,49.88697],[-120.0134,49.88889],[-120.01211,49.89017]]]}},{"type":"Feature","properties":{"c":"306903","o":"GLENCORE CANADA CORPORATION","e":"2027-09-05Z"},"geometry":{"type":"Polygon","coordinates":[[[-120.00314,49.88421],[-119.99986,49.88377],[-120.0,49.88328],[-120.00031,49.88226],[-120.00386,49.88376],[-120.00314,49.88421]]]}},{"type":"Feature","properties":{"c":"352993","o":"GLENCORE CANADA CORPORATION","e":"2028-02-22Z"},"geometry":{"type":"Polygon","coordinates":[[[-119.95286,49.88104],[-119.95286,49.87568],[-119.95854,49.87569],[-119.9586,49.87196],[-119.96419,49.87194],[-119.96428,49.87155],[-119.95286,49.87147],[-119.95285,49.86306],[-119.97747,49.86306],[-119.9775,49.86726],[-119.97746,49.8697],[-119.97746,49.87068],[-119.97765,49.87381],[-119.97827,49.8738],[-119.97236,49.87443],[-119.97334,49.87831],[-119.97369,49.88104],[-119.95286,49.88104]]]}},{"type":"Feature","properties":{"c":"352994","o":"GLENCORE CANADA CORPORATION","e":"2028-02-22Z"},"geometry":{"type":"Polygon","coordinates":[[[-119.92504,49.86306],[-119.92507,49.86306],[-119.95285,49.86306],[-119.95286,49.87147],[-119.95245,49.87147],[-119.95243,49.87189],[-119.9524,49.87567],[-119.95286,49.87568],[-119.95286,49.88104],[-119.92503,49.88104],[-119.92504,49.86306]]]}},{"type":"Feature","properties":{"c":"352995","o":"GLENCORE CANADA CORPORATION","e":"2028-02-22Z"},"geometry":{"type":"Polygon","coordinates":[[[-119.98763,49.84508],[-119.98765,49.86231],[-119.97747,49.86232],[-119.97747,49.86306],[-119.95288,49.86306],[-119.95288,49.84509],[-119.98763,49.84508]]]}},{"type":"Feature","properties":{"c":"352996","o":"GLENCORE CANADA CORPORATION","e":"2028-02-22Z"},"geometry":{"type":"Polygon","coordinates":[[[-119.92508,49.84508],[-119.95288,49.84509],[-119.95288,49.86306],[-119.95285,49.86306],[-119.92507,49.86306],[-119.92508,49.84508]]]}},{"type":"Feature","properties":{"c":"352997","o":"GLENCORE CANADA CORPORATION","e":"2028-02-22Z"},"geometry":{"type":"MultiPolygon","coordinates":[[[[-120.01882,49.87099],[-120.01546,49.87019],[-120.0159,49.8698],[-120.01092,49.86743],[-120.01092,49.86877],[-120.01079,49.86869],[-120.00974,49.86937],[-120.00726,49.87097],[-120.0076,49.87118],[-120.00668,49.87118],[-120.00758,49.87014],[-120.00748,49.86839],[-120.0073,49.86635],[-120.00618,49.86837],[-120.00244,49.86751],[-120.00616,49.86839],[-120.00614,49.86844],[-120.00405,49.87207],[-119.99807,49.87069],[-119.99861,49.86973],[-119.9999,49.86745],[-119.99409,49.86781],[-119.99327,49.8678],[-119.98804,49.86743],[-119.98804,49.86135],[-120.0228,49.86135],[-120.02281,49.87211],[-120.01882,49.87099]]],[[[-120.02134,49.87617],[-120.02281,49.87399],[-120.02281,49.877],[-120.02134,49.87617]]]]}},{"type":"Feature","properties":{"c":"1083164","o":"RM EXPLORATIONS INC.","e":"2035-06-25Z"},"geometry":{"type":"Polygon","coordinates":[[[-119.53869,49.98739],[-119.53244,49.98739],[-119.52619,49.98739],[-119.52619,49.98322],[-119.52619,49.97906],[-119.53244,49.97906],[-119.53869,49.97906],[-119.53869,49.98322],[-119.53869,49.98739]]]}},{"type":"Feature","properties":{"c":"1083165","o":"RM EXPLORATIONS INC.","e":"2035-06-25Z"},"geometry":{"type":"Polygon","coordinates":[[[-119.55119,49.98739],[-119.54494,49.98739],[-119.53869,49.98739],[-119.53869,49.98322],[-119.53869,49.97906],[-119.54494,49.97906],[-119.55119,49.97906],[-119.55119,49.98322],[-119.55119,49.98739]]]}},{"type":"Feature","properties":{"c":"1083166","o":"RM EXPLORATIONS INC.","e":"2035-06-25Z"},"geometry":{"type":"Polygon","coordinates":[[[-119.55119,49.99572],[-119.54494,49.99572],[-119.53869,49.99572],[-119.53869,49.99156],[-119.53869,49.98739],[-119.54494,49.98739],[-119.55119,49.98739],[-119.55119,49.99156],[-119.55119,49.99572]]]}},{"type":"Feature","properties":{"c":"1083167","o":"RM EXPLORATIONS INC.","e":"2035-06-25Z"},"geometry":{"type":"Polygon","coordinates":[[[-119.53869,49.99572],[-119.53244,49.99572],[-119.52619,49.99572],[-119.52619,49.99156],[-119.52619,49.98739],[-119.53244,49.98739],[-119.53869,49.98739],[-119.53869,49.99156],[-119.53869,49.99572]]]}},{"type":"Feature","properties":{"c":"1083168","o":"RM EXPLORATIONS INC.","e":"2035-06-25Z"},"geometry":{"type":"Polygon","coordinates":[[[-119.52619,49.99572],[-119.51994,49.99572],[-119.51369,49.99572],[-119.51369,49.99156],[-119.51369,49.98739],[-119.51994,49.98739],[-119.52619,49.98739],[-119.52619,49.99156],[-119.52619,49.99572]]]}},{"type":"Feature","properties":{"c":"1083169","o":"RM EXPLORATIONS INC.","e":"2034-06-25Z"},"geometry":{"type":"Polygon","coordinates":[[[-119.53244,49.99989],[-119.52619,49.99989],[-119.51994,49.99989],[-119.51994,49.99572],[-119.52619,49.99572],[-119.53244,49.99572],[-119.53869,49.99572],[-119.54494,49.99572],[-119.54494,49.99989],[-119.53869,49.99989],[-119.53244,49.99989]]]}},{"type":"Feature","properties":{"c":"1083170","o":"RM EXPLORATIONS INC.","e":"2034-06-25Z"},"geometry":{"type":"Polygon","coordinates":[[[-119.53869,50.00822],[-119.53244,50.00822],[-119.52619,50.00822],[-119.52619,50.00406],[-119.52619,49.99989],[-119.53244,49.99989],[-119.53869,49.99989],[-119.53869,50.00406],[-119.53869,50.00822]]]}},{"type":"Feature","properties":{"c":"1097899","o":"BILLINGSLEY, RICHARD JOHN","e":"2026-10-15Z"},"geometry":{"type":"MultiPolygon","coordinates":[[[[-119.97622,49.65822],[-119.96997,49.65822],[-119.96372,49.65822],[-119.95747,49.65822],[-119.95122,49.65822],[-119.95122,49.65406],[-119.95122,49.64989],[-119.95122,49.64572],[-119.95122,49.64156],[-119.95747,49.64156],[-119.96372,49.64156],[-119.96998,49.64156],[-119.97623,49.64156],[-119.97623,49.64572],[-119.97623,49.64989],[-119.97622,49.65406],[-119.97622,49.65822]],[[-119.96997,49.64989],[-119.96997,49.64572],[-119.96372,49.64572],[-119.95747,49.64572],[-119.95747,49.64989],[-119.95747,49.65406],[-119.96372,49.65406],[-119.96997,49.65406],[-119.96997,49.64989]]]]}},{"type":"Feature","properties":{"c":"1097900","o":"BILLINGSLEY, RICHARD JOHN","e":"2027-05-30Z"},"geometry":{"type":"Polygon","coordinates":[[[-119.96997,49.65406],[-119.96372,49.65406],[-119.95747,49.65406],[-119.95747,49.64989],[-119.95747,49.64572],[-119.96372,49.64572],[-119.96997,49.64572],[-119.96997,49.64989],[-119.96997,49.65406]]]}},{"type":"Feature","properties":{"c":"1099608","o":"ZOOBKOFF, COLIN","e":"2026-12-02Z"},"geometry":{"type":"Polygon","coordinates":[[[-119.50744,49.77489],[-119.50744,49.77072],[-119.51369,49.77072],[-119.51994,49.77072],[-119.51994,49.77489],[-119.51369,49.77489],[-119.50744,49.77489]]]}},{"type":"Feature","properties":{"c":"1099612","o":"ZOOBKOFF, COLIN","e":"2026-12-02Z"},"geometry":{"type":"Polygon","coordinates":[[[-119.51369,49.78322],[-119.50744,49.78322],[-119.50744,49.77905],[-119.50744,49.77489],[-119.51369,49.77489],[-119.51369,49.77905],[-119.51369,49.78322]]]}},{"type":"Feature","properties":{"c":"1104480","o":"BROOKES, CLIVE GERRARD","e":"2031-03-01Z"},"geometry":{"type":"Polygon","coordinates":[[[-119.81997,50.00822],[-119.81371,50.00822],[-119.80746,50.00822],[-119.80746,50.00405],[-119.80747,49.99988],[-119.81372,49.99988],[-119.81997,49.99988],[-119.81997,50.00405],[-119.81997,50.00822]]]}},{"type":"Feature","properties":{"c":"1094882","o":"RM EXPLORATIONS INC.","e":"2035-04-03Z"},"geometry":{"type":"Polygon","coordinates":[[[-119.52619,49.98739],[-119.51994,49.98739],[-119.51369,49.98739],[-119.51369,49.98322],[-119.51369,49.97906],[-119.51994,49.97906],[-119.52619,49.97906],[-119.52619,49.98322],[-119.52619,49.98739]]]}},{"type":"Feature","properties":{"c":"518238","o":"NEWTERRA RESOURCES INC","e":"2027-03-15Z"},"geometry":{"type":"Polygon","coordinates":[[[-119.92621,49.81655],[-119.91996,49.81655],[-119.91371,49.81655],[-119.90746,49.81655],[-119.9012,49.81655],[-119.89495,49.81655],[-119.8887,49.81655],[-119.88245,49.81655],[-119.88245,49.81238],[-119.88245,49.80822],[-119.88245,49.80405],[-119.88245,49.79988],[-119.88245,49.79572],[-119.8887,49.79572],[-119.89495,49.79572],[-119.90121,49.79572],[-119.90746,49.79572],[-119.91371,49.79572],[-119.91996,49.79572],[-119.91996,49.79988],[-119.91996,49.80405],[-119.91996,49.80822],[-119.92621,49.80822],[-119.92621,49.81238],[-119.92621,49.81655]]]}},{"type":"Feature","properties":{"c":"518239","o":"NEWTERRA RESOURCES INC","e":"2027-03-15Z"},"geometry":{"type":"Polygon","coordinates":[[[-119.95746,49.81238],[-119.95121,49.81238],[-119.94496,49.81238],[-119.93871,49.81238],[-119.93246,49.81238],[-119.92621,49.81238],[-119.92621,49.80822],[-119.91996,49.80822],[-119.91996,49.80405],[-119.91996,49.79988],[-119.91996,49.79572],[-119.91996,49.79155],[-119.92621,49.79155],[-119.93246,49.79155],[-119.93871,49.79155],[-119.94496,49.79155],[-119.95121,49.79155],[-119.95746,49.79155],[-119.95746,49.79572],[-119.95746,49.79988],[-119.95746,49.80405],[-119.95746,49.80822],[-119.95746,49.81238]]]}},{"type":"Feature","properties":{"c":"557832","o":"NEWTERRA RESOURCES INC","e":"2027-03-15Z"},"geometry":{"type":"Polygon","coordinates":[[[-119.98246,49.81238],[-119.97621,49.81238],[-119.96996,49.81238],[-119.96371,49.81238],[-119.95746,49.81238],[-119.95746,49.80822],[-119.95746,49.80405],[-119.95746,49.79988],[-119.95746,49.79572],[-119.95746,49.79155],[-119.95746,49.78738],[-119.96371,49.78738],[-119.96996,49.78738],[-119.97621,49.78738],[-119.97621,49.79155],[-119.97621,49.79572],[-119.97621,49.79988],[-119.98246,49.79988],[-119.98246,49.80405],[-119.98246,49.80821],[-119.98246,49.81238]]]}},{"type":"Feature","properties":{"c":"581151","o":"NEWTERRA RESOURCES INC","e":"2027-03-15Z"},"geometry":{"type":"Polygon","coordinates":[[[-119.88245,49.80822],[-119.8762,49.80822],[-119.8762,49.80405],[-119.86995,49.80405],[-119.86995,49.79988],[-119.86995,49.79572],[-119.8762,49.79572],[-119.88245,49.79572],[-119.88245,49.79988],[-119.88245,49.80405],[-119.88245,49.80822]]]}},{"type":"Feature","properties":{"c":"1035584","o":"NEWTERRA RESOURCES INC","e":"2027-03-15Z"},"geometry":{"type":"Polygon","coordinates":[[[-119.98246,49.79988],[-119.97621,49.79988],[-119.97621,49.79572],[-119.97621,49.79155],[-119.97621,49.78738],[-119.98246,49.78738],[-119.98246,49.79155],[-119.98246,49.79572],[-119.98246,49.79988]]]}},{"type":"Feature","properties":{"c":"1082488","o":"NEWTERRA RESOURCES INC","e":"2027-03-15Z"},"geometry":{"type":"Polygon","coordinates":[[[-119.94496,49.82072],[-119.93871,49.82072],[-119.93246,49.82072],[-119.92621,49.82072],[-119.91996,49.82072],[-119.91371,49.82072],[-119.90746,49.82072],[-119.9012,49.82072],[-119.89495,49.82072],[-119.89495,49.81655],[-119.9012,49.81655],[-119.90746,49.81655],[-119.91371,49.81655],[-119.91996,49.81655],[-119.92621,49.81655],[-119.92621,49.81238],[-119.93246,49.81238],[-119.93871,49.81238],[-119.94496,49.81238],[-119.94496,49.81655],[-119.94496,49.82072]]]}},{"type":"Feature","properties":{"c":"1082489","o":"NEWTERRA RESOURCES INC","e":"2027-03-15Z"},"geometry":{"type":"Polygon","coordinates":[[[-119.88245,49.79572],[-119.8762,49.79572],[-119.86995,49.79572],[-119.86995,49.79155],[-119.86995,49.78738],[-119.8762,49.78738],[-119.88245,49.78738],[-119.88245,49.79155],[-119.88245,49.79572]]]}},{"type":"Feature","properties":{"c":"1082490","o":"NEWTERRA RESOURCES INC","e":"2027-03-15Z"},"geometry":{"type":"Polygon","coordinates":[[[-119.98246,49.82071],[-119.97621,49.82071],[-119.96996,49.82071],[-119.96371,49.82071],[-119.95746,49.82071],[-119.95746,49.81655],[-119.95121,49.81655],[-119.94496,49.81655],[-119.94496,49.81238],[-119.95121,49.81238],[-119.95746,49.81238],[-119.96371,49.81238],[-119.96996,49.81238],[-119.97621,49.81238],[-119.98246,49.81238],[-119.98246,49.81655],[-119.98246,49.82071]]]}},{"type":"Feature","properties":{"c":"1082514","o":"NEWTERRA RESOURCES INC","e":"2027-03-15Z"},"geometry":{"type":"Polygon","coordinates":[[[-119.94496,49.82072],[-119.94496,49.81655],[-119.95121,49.81655],[-119.95746,49.81655],[-119.95746,49.82071],[-119.95121,49.82071],[-119.94496,49.82072]]]}},{"type":"Feature","properties":{"c":"1109369","o":"ZOOBKOFF, COLIN","e":"2026-12-02Z"},"geometry":{"type":"Polygon","coordinates":[[[-119.50744,49.77072],[-119.50744,49.76655],[-119.51369,49.76655],[-119.51994,49.76655],[-119.51994,49.77072],[-119.51369,49.77072],[-119.50744,49.77072]]]}},{"type":"Feature","properties":{"c":"1130743","o":"THOMPSON, TRACY JONATHAN","e":"2027-02-27Z"},"geometry":{"type":"Polygon","coordinates":[[[-119.65746,49.56655],[-119.65746,49.57072],[-119.65121,49.57072],[-119.65121,49.56655],[-119.65746,49.56655]]]}},{"type":"Feature","properties":{"c":"1103258","o":"GLENROSA GOLD MINING CORP.","e":"2030-03-27Z"},"geometry":{"type":"Polygon","coordinates":[[[-119.7262,49.97905],[-119.71995,49.97905],[-119.7137,49.97905],[-119.70745,49.97905],[-119.7012,49.97905],[-119.69495,49.97905],[-119.69495,49.97489],[-119.69495,49.97072],[-119.69495,49.96655],[-119.69495,49.96239],[-119.69495,49.95822],[-119.7012,49.95822],[-119.70745,49.95822],[-119.7137,49.95822],[-119.71995,49.95822],[-119.7262,49.95822],[-119.7262,49.96239],[-119.7262,49.96655],[-119.7262,49.97072],[-119.7262,49.97489],[-119.7262,49.97905]]]}},{"type":"Feature","properties":{"c":"1103259","o":"GLENROSA GOLD MINING CORP.","e":"2030-03-27Z"},"geometry":{"type":"Polygon","coordinates":[[[-119.7262,49.99989],[-119.71995,49.99989],[-119.7137,49.99989],[-119.70745,49.99989],[-119.7012,49.99989],[-119.69495,49.99989],[-119.69495,49.99572],[-119.69495,49.99155],[-119.69495,49.98739],[-119.69495,49.98322],[-119.69495,49.97905],[-119.7012,49.97905],[-119.70745,49.97905],[-119.7137,49.97905],[-119.71995,49.97905],[-119.7262,49.97905],[-119.7262,49.98322],[-119.7262,49.98739],[-119.7262,49.99155],[-119.7262,49.99572],[-119.7262,49.99989]]]}},{"type":"Feature","properties":{"c":"1109470","o":"GLENROSA GOLD MINING CORP.","e":"2030-03-27Z"},"geometry":{"type":"Polygon","coordinates":[[[-119.7262,50.02905],[-119.71995,50.02905],[-119.7137,50.02905],[-119.70745,50.02906],[-119.7012,50.02906],[-119.69495,50.02906],[-119.69495,50.02489],[-119.69495,50.02072],[-119.69495,50.01656],[-119.69495,50.01239],[-119.69495,50.00822],[-119.69495,50.00405],[-119.69495,49.99989],[-119.7012,49.99989],[-119.70745,49.99989],[-119.7137,49.99989],[-119.71995,49.99989],[-119.7262,49.99989],[-119.7262,50.00405],[-119.7262,50.00822],[-119.7262,50.01239],[-119.7262,50.01655],[-119.7262,50.02072],[-119.7262,50.02489],[-119.7262,50.02905]]]}},{"type":"Feature","properties":{"c":"1111624","o":"GLENROSA GOLD MINING CORP.","e":"2030-03-27Z"},"geometry":{"type":"Polygon","coordinates":[[[-119.7512,50.01239],[-119.74495,50.01239],[-119.7387,50.01239],[-119.73245,50.01239],[-119.7262,50.01239],[-119.7262,50.00822],[-119.7262,50.00405],[-119.7262,49.99989],[-119.7262,49.99572],[-119.7262,49.99155],[-119.7262,49.98739],[-119.73245,49.98739],[-119.7387,49.98739],[-119.74496,49.98739],[-119.75121,49.98739],[-119.75121,49.99155],[-119.75121,49.99572],[-119.75121,49.99989],[-119.75121,50.00405],[-119.75121,50.00822],[-119.7512,50.01239]]]}},{"type":"Feature","properties":{"c":"1111625","o":"GLENROSA GOLD MINING CORP.","e":"2030-03-27Z"},"geometry":{"type":"Polygon","coordinates":[[[-119.75121,49.98739],[-119.74496,49.98739],[-119.7387,49.98739],[-119.73245,49.98739],[-119.7262,49.98739],[-119.7262,49.98322],[-119.7262,49.97905],[-119.7262,49.97489],[-119.73245,49.97489],[-119.7387,49.97489],[-119.74495,49.97489],[-119.75121,49.97488],[-119.75121,49.97905],[-119.75121,49.98322],[-119.75121,49.98739]]]}},{"type":"Feature","properties":{"c":"601325","o":"LEONG, ROCKLAND KERRY HOCEVAR","e":"2027-03-19Z"},"geometry":{"type":"Polygon","coordinates":[[[-119.51994,49.78739],[-119.51369,49.78739],[-119.51369,49.78322],[-119.51369,49.77905],[-119.51369,49.77489],[-119.51994,49.77489],[-119.51994,49.77905],[-119.51994,49.78322],[-119.51994,49.78739]]]}},{"type":"Feature","properties":{"c":"1139634","o":"GREIG, CHARLES JAMES","e":"2027-09-27Z"},"geometry":{"type":"Polygon","coordinates":[[[-119.98872,49.92488],[-119.98247,49.92488],[-119.97622,49.92488],[-119.97622,49.92071],[-119.97622,49.91655],[-119.98247,49.91655],[-119.98247,49.92071],[-119.98872,49.92071],[-119.98872,49.92488]]]}},{"type":"Feature","properties":{"c":"1139750","o":"RYDE, NATHAN MARK","e":"2027-09-28Z"},"geometry":{"type":"Polygon","coordinates":[[[-119.7762,49.82905],[-119.7762,49.82488],[-119.7762,49.82072],[-119.78245,49.82072],[-119.78245,49.82488],[-119.7887,49.82488],[-119.7887,49.82905],[-119.78245,49.82905],[-119.7762,49.82905]]]}},{"type":"Feature","properties":{"c":"1139756","o":"BURKE, SCOTT ANDREW","e":"2027-09-28Z"},"geometry":{"type":"Polygon","coordinates":[[[-119.51994,50.02072],[-119.51369,50.02072],[-119.51369,50.02489],[-119.50744,50.02489],[-119.50744,50.02072],[-119.50119,50.02072],[-119.50119,50.01656],[-119.50119,50.01239],[-119.50119,50.00822],[-119.50119,50.00406],[-119.50119,49.99989],[-119.50119,49.99572],[-119.50744,49.99572],[-119.51369,49.99572],[-119.51369,49.99989],[-119.51994,49.99989],[-119.52619,49.99989],[-119.52619,50.00406],[-119.51994,50.00406],[-119.51369,50.00406],[-119.51369,50.00822],[-119.51994,50.00822],[-119.51994,50.01239],[-119.51994,50.01656],[-119.51994,50.02072]]]}},{"type":"Feature","properties":{"c":"1139763","o":"DUMAINE, MYLES JAY","e":"2027-09-28Z"},"geometry":{"type":"Polygon","coordinates":[[[-119.8137,49.79572],[-119.80745,49.79572],[-119.80745,49.79155],[-119.80745,49.78739],[-119.8137,49.78739],[-119.8137,49.79155],[-119.8137,49.79572]]]}},{"type":"Feature","properties":{"c":"1139764","o":"MARTINEAU, FRANCOIS JEAN","e":"2027-09-28Z"},"geometry":{"type":"Polygon","coordinates":[[[-119.91371,49.72489],[-119.90746,49.72489],[-119.90121,49.72489],[-119.90121,49.72072],[-119.89496,49.72072],[-119.88871,49.72072],[-119.88246,49.72072],[-119.88246,49.71655],[-119.88246,49.71239],[-119.88871,49.71239],[-119.89496,49.71239],[-119.89496,49.71655],[-119.90121,49.71655],[-119.90746,49.71655],[-119.91371,49.71655],[-119.91371,49.72072],[-119.91371,49.72489]]]}},{"type":"Feature","properties":{"c":"1139765","o":"MARTINEAU, FRANCOIS JEAN","e":"2027-09-28Z"},"geometry":{"type":"Polygon","coordinates":[[[-119.88246,49.71655],[-119.88246,49.72072],[-119.87621,49.72072],[-119.87621,49.71655],[-119.88246,49.71655]]]}},{"type":"Feature","properties":{"c":"1139766","o":"MARTINEAU, FRANCOIS JEAN","e":"2027-09-28Z"},"geometry":{"type":"Polygon","coordinates":[[[-119.96372,49.69989],[-119.96372,49.70405],[-119.95747,49.70405],[-119.95747,49.69989],[-119.96372,49.69989]]]}},{"type":"Feature","properties":{"c":"1122026","o":"KOLEBABA, MARK ROBERT","e":"2028-12-10Z"},"geometry":{"type":"Polygon","coordinates":[[[-119.88247,50.02072],[-119.87622,50.02072],[-119.86997,50.02072],[-119.86372,50.02072],[-119.85747,50.02072],[-119.85122,50.02072],[-119.85122,50.01655],[-119.85122,50.01238],[-119.85122,50.00822],[-119.85122,50.00405],[-119.85122,49.99988],[-119.85122,49.99571],[-119.85747,49.99571],[-119.86372,49.99571],[-119.86997,49.99571],[-119.87622,49.99571],[-119.88247,49.99571],[-119.88247,49.99988],[-119.88247,50.00405],[-119.88247,50.00821],[-119.88247,50.01238],[-119.88247,50.01655],[-119.88247,50.02072]]]}},{"type":"Feature","properties":{"c":"1121607","o":"CASCADE COPPER CORP.","e":"2027-12-31Z"},"geometry":{"type":"Polygon","coordinates":[[[-120.00748,49.49989],[-120.01373,49.49989],[-120.01998,49.49989],[-120.02623,49.49989],[-120.02623,49.50405],[-120.02623,49.50822],[-120.02623,49.51239],[-120.02623,49.51655],[-120.02623,49.52072],[-120.02623,49.52489],[-120.01998,49.52489],[-120.01373,49.52489],[-120.00748,49.52489],[-120.00123,49.52489],[-119.99498,49.52489],[-119.99498,49.52072],[-119.99498,49.51655],[-119.98873,49.51655],[-119.98873,49.51239],[-119.98873,49.50822],[-119.98873,49.50405],[-119.98873,49.49989],[-119.99498,49.49989],[-120.00123,49.49989],[-120.00748,49.49989]]]}},{"type":"Feature","properties":{"c":"1121611","o":"CASCADE COPPER CORP.","e":"2027-12-31Z"},"geometry":{"type":"MultiPolygon","coordinates":[[[[-120.00748,49.52489],[-120.00748,49.52905],[-120.00748,49.53322],[-120.00748,49.53739],[-120.00748,49.54155],[-120.01373,49.54155],[-120.01998,49.54155],[-120.02623,49.54155],[-120.03248,49.54155],[-120.03248,49.54572],[-120.02623,49.54572],[-120.01998,49.54572],[-120.01998,49.54989],[-120.02623,49.54989],[-120.02623,49.55405],[-120.02623,49.55822],[-120.01998,49.55822],[-120.01373,49.55822],[-120.00748,49.55822],[-120.00123,49.55822],[-119.99498,49.55822],[-119.99498,49.55406],[-119.99498,49.54989],[-119.99498,49.54572],[-119.99498,49.54156],[-119.99498,49.53739],[-119.99498,49.53322],[-119.99498,49.52905],[-119.99498,49.52489],[-120.00123,49.52489],[-120.00748,49.52489]]]]}},{"type":"Feature","properties":{"c":"1140078","o":"MARTINEAU, FRANCOIS JEAN","e":"2027-10-08Z"},"geometry":{"type":"Polygon","coordinates":[[[-119.90121,49.71655],[-119.89496,49.71655],[-119.89496,49.71239],[-119.90121,49.71239],[-119.90746,49.71239],[-119.91371,49.71239],[-119.91371,49.71655],[-119.90746,49.71655],[-119.90121,49.71655]]]}},{"type":"Feature","properties":{"c":"1113823","o":"GLENROSA GOLD MINING CORP.","e":"2030-03-27Z"},"geometry":{"type":"Polygon","coordinates":[[[-119.78871,49.98738],[-119.78246,49.98738],[-119.77621,49.98738],[-119.76996,49.98738],[-119.76371,49.98738],[-119.75746,49.98739],[-119.75746,49.99155],[-119.75121,49.99155],[-119.75121,49.98739],[-119.75121,49.98322],[-119.75121,49.97905],[-119.75121,49.97488],[-119.75121,49.97072],[-119.7512,49.96655],[-119.75746,49.96655],[-119.76371,49.96655],[-119.76996,49.96655],[-119.77621,49.96655],[-119.78246,49.96655],[-119.78871,49.96655],[-119.78871,49.97072],[-119.78871,49.97488],[-119.78871,49.97905],[-119.78871,49.98322],[-119.78871,49.98738]]]}},{"type":"Feature","properties":{"c":"1113824","o":"GLENROSA GOLD MINING CORP.","e":"2030-03-27Z"},"geometry":{"type":"Polygon","coordinates":[[[-119.75121,49.97488],[-119.74495,49.97489],[-119.7387,49.97489],[-119.73245,49.97489],[-119.7262,49.97489],[-119.7262,49.97072],[-119.7262,49.96655],[-119.7262,49.96239],[-119.7262,49.95822],[-119.7262,49.95405],[-119.73245,49.95405],[-119.7387,49.95405],[-119.74495,49.95405],[-119.7512,49.95405],[-119.7512,49.95822],[-119.7512,49.96238],[-119.7512,49.96655],[-119.75121,49.97072],[-119.75121,49.97488]]]}},{"type":"Feature","properties":{"c":"1113825","o":"GLENROSA GOLD MINING CORP.","e":"2030-03-27Z"},"geometry":{"type":"Polygon","coordinates":[[[-119.79496,49.98322],[-119.78871,49.98322],[-119.78871,49.97905],[-119.78871,49.97488],[-119.78871,49.97072],[-119.78871,49.96655],[-119.78246,49.96655],[-119.77621,49.96655],[-119.76996,49.96655],[-119.76371,49.96655],[-119.75746,49.96655],[-119.7512,49.96655],[-119.7512,49.96238],[-119.7512,49.95822],[-119.7512,49.95405],[-119.75746,49.95405],[-119.76371,49.95405],[-119.76996,49.95405],[-119.77621,49.95405],[-119.78246,49.95405],[-119.78871,49.95405],[-119.79496,49.95405],[-119.79496,49.95822],[-119.79496,49.96238],[-119.79496,49.96655],[-119.79496,49.97072],[-119.79496,49.97488],[-119.79496,49.97905],[-119.79496,49.98322]]]}},{"type":"Feature","properties":{"c":"1135727","o":"SCOTT, BRIAN WILLIAM","e":"2027-07-16Z"},"geometry":{"type":"Polygon","coordinates":[[[-119.58246,49.51655],[-119.57621,49.51655],[-119.57621,49.51239],[-119.56996,49.51239],[-119.56996,49.50822],[-119.56371,49.50822],[-119.56372,49.50405],[-119.55747,49.50405],[-119.55747,49.49989],[-119.56372,49.49989],[-119.56997,49.49989],[-119.57621,49.49989],[-119.57621,49.50405],[-119.58246,49.50405],[-119.58246,49.50822],[-119.58246,49.51239],[-119.58246,49.51655]]]}},{"type":"Feature","properties":{"c":"1135758","o":"BROOKES, CLIVE GERRARD","e":"2027-07-16Z"},"geometry":{"type":"Polygon","coordinates":[[[-119.80746,50.01238],[-119.80121,50.01238],[-119.80121,50.00822],[-119.80121,50.00405],[-119.80121,49.99988],[-119.80121,49.99572],[-119.80747,49.99572],[-119.81372,49.99572],[-119.81372,49.99988],[-119.80747,49.99988],[-119.80746,50.00405],[-119.80746,50.00822],[-119.80746,50.01238]]]}},{"type":"Feature","properties":{"c":"1135781","o":"APPEL, DOUGLAS LLOYD","e":"2027-07-16Z"},"geometry":{"type":"Polygon","coordinates":[[[-119.53244,49.77489],[-119.52619,49.77489],[-119.51994,49.77489],[-119.51994,49.77072],[-119.51994,49.76655],[-119.52619,49.76655],[-119.53244,49.76655],[-119.53244,49.77072],[-119.53244,49.77489]]]}},{"type":"Feature","properties":{"c":"1135783","o":"BILLINGSLEY, RICHARD JOHN","e":"2027-07-16Z"},"geometry":{"type":"MultiPolygon","coordinates":[[[[-119.99498,49.67072],[-119.98872,49.67072],[-119.98247,49.67072],[-119.97622,49.67072],[-119.96997,49.67072],[-119.96372,49.67072],[-119.95747,49.67072],[-119.95122,49.67072],[-119.94497,49.67072],[-119.93872,49.67072],[-119.93872,49.66656],[-119.93872,49.66239],[-119.93872,49.65822],[-119.93872,49.65406],[-119.93872,49.64989],[-119.93872,49.64572],[-119.93872,49.64156],[-119.93872,49.63739],[-119.93872,49.63322],[-119.94497,49.63322],[-119.95122,49.63322],[-119.95747,49.63322],[-119.96373,49.63322],[-119.96998,49.63322],[-119.97623,49.63322],[-119.98248,49.63322],[-119.98248,49.63739],[-119.98248,49.64156],[-119.98873,49.64156],[-119.99498,49.64156],[-120.00123,49.64156],[-120.00748,49.64156],[-120.01373,49.64156],[-120.01998,49.64156],[-120.02623,49.64156],[-120.02623,49.64572],[-120.02623,49.64989],[-120.02623,49.65405],[-120.02623,49.65822],[-120.02623,49.66239],[-120.02623,49.66655],[-120.02623,49.67072],[-120.01998,49.67072],[-120.01373,49.67072],[-120.00748,49.67072],[-120.00123,49.67072],[-119.99498,49.67072]],[[-119.97622,49.65406],[-119.97623,49.64989],[-119.97623,49.64572],[-119.97623,49.64156],[-119.96998,49.64156],[-119.96372,49.64156],[-119.95747,49.64156],[-119.95122,49.64156],[-119.95122,49.64572],[-119.95122,49.64989],[-119.95122,49.65406],[-119.95122,49.65822],[-119.95747,49.65822],[-119.96372,49.65822],[-119.96997,49.65822],[-119.97622,49.65822],[-119.97622,49.65406]]]]}},{"type":"Feature","properties":{"c":"1135805","o":"GREIG, CHARLES JAMES","e":"2027-07-16Z"},"geometry":{"type":"Polygon","coordinates":[[[-120.00122,49.92488],[-119.99497,49.92488],[-119.98872,49.92488],[-119.98872,49.92071],[-119.98247,49.92071],[-119.98247,49.91655],[-119.97622,49.91655],[-119.97622,49.91238],[-119.97622,49.90821],[-119.98247,49.90821],[-119.98872,49.90821],[-119.98872,49.90405],[-119.99497,49.90405],[-120.00122,49.90405],[-120.00122,49.90821],[-120.00122,49.91238],[-119.99497,49.91238],[-119.99497,49.91655],[-120.00122,49.91655],[-120.00122,49.92071],[-120.00122,49.92488]]]}},{"type":"Feature","properties":{"c":"1135806","o":"GREIG, CHARLES JAMES","e":"2027-07-16Z"},"geometry":{"type":"Polygon","coordinates":[[[-119.98872,49.94571],[-119.98247,49.94571],[-119.97622,49.94571],[-119.97622,49.94155],[-119.97622,49.93738],[-119.97622,49.93321],[-119.97622,49.92905],[-119.97622,49.92488],[-119.98247,49.92488],[-119.98872,49.92488],[-119.98872,49.92905],[-119.98872,49.93321],[-119.98872,49.93738],[-119.98872,49.94155],[-119.98872,49.94571]]]}},{"type":"Feature","properties":{"c":"1135919","o":"HYDE, MARSHALL LIONEL","e":"2027-07-16Z"},"geometry":{"type":"Polygon","coordinates":[[[-119.74494,49.77489],[-119.74494,49.77905],[-119.73869,49.77905],[-119.73869,49.77489],[-119.74494,49.77489]]]}},{"type":"Feature","properties":{"c":"1133433","o":"MACKENZIE, MICHAEL JAMES","e":"2027-05-28Z"},"geometry":{"type":"Polygon","coordinates":[[[-119.6137,49.96655],[-119.6137,49.96239],[-119.61995,49.96239],[-119.6262,49.96239],[-119.6262,49.96655],[-119.61995,49.96655],[-119.6137,49.96655]]]}},{"type":"Feature","properties":{"c":"1136035","o":"HANSON, KRISTOPHER CARL","e":"2027-07-16Z"},"geometry":{"type":"Polygon","coordinates":[[[-119.90747,49.63322],[-119.90747,49.63739],[-119.90122,49.63739],[-119.90122,49.63322],[-119.90747,49.63322]]]}},{"type":"Feature","properties":{"c":"1136036","o":"HANSON, KRISTOPHER CARL","e":"2027-07-16Z"},"geometry":{"type":"Polygon","coordinates":[[[-119.92622,49.64572],[-119.92622,49.64989],[-119.91997,49.64989],[-119.91997,49.64572],[-119.92622,49.64572]]]}},{"type":"Feature","properties":{"c":"1138985","o":"LANGILLE, MICHEAL SCOTT","e":"2027-09-14Z"},"geometry":{"type":"Polygon","coordinates":[[[-119.51369,49.97072],[-119.51369,49.96656],[-119.51994,49.96656],[-119.52619,49.96656],[-119.52619,49.97072],[-119.51994,49.97072],[-119.51369,49.97072]]]}},{"type":"Feature","properties":{"c":"1139601","o":"GRYMONPRE, MARCUS DANIEL IAN","e":"2027-09-27Z"},"geometry":{"type":"Polygon","coordinates":[[[-119.7512,49.66238],[-119.74495,49.66239],[-119.7387,49.66238],[-119.7387,49.65822],[-119.7387,49.65405],[-119.74495,49.65405],[-119.7512,49.65405],[-119.7512,49.65822],[-119.7512,49.66238]]]}},{"type":"Feature","properties":{"c":"1139602","o":"GREIG, CHARLES JAMES","e":"2027-09-27Z"},"geometry":{"type":"Polygon","coordinates":[[[-120.00122,49.91655],[-119.99497,49.91655],[-119.99497,49.91238],[-120.00122,49.91238],[-120.00747,49.91238],[-120.01372,49.91238],[-120.01997,49.91238],[-120.01997,49.91655],[-120.01997,49.92071],[-120.01997,49.92488],[-120.01997,49.92905],[-120.01372,49.92905],[-120.00747,49.92905],[-120.00122,49.92905],[-120.00122,49.92488],[-120.00122,49.92071],[-120.00122,49.91655]]]}},{"type":"Feature","properties":{"c":"1122587","o":"BROOKES, CLIVE GERRARD","e":"2028-11-01Z"},"geometry":{"type":"Polygon","coordinates":[[[-119.81997,49.99155],[-119.81372,49.99155],[-119.80746,49.99155],[-119.80121,49.99155],[-119.80121,49.98738],[-119.80121,49.98322],[-119.80746,49.98322],[-119.81372,49.98322],[-119.81997,49.98322],[-119.81997,49.98738],[-119.81997,49.99155]]]}},{"type":"Feature","properties":{"c":"1122712","o":"FAGE, ADAM","e":"2028-02-07Z"},"geometry":{"type":"Polygon","coordinates":[[[-119.84495,49.82488],[-119.8387,49.82488],[-119.83245,49.82488],[-119.8262,49.82488],[-119.8262,49.82072],[-119.8262,49.81655],[-119.8262,49.81238],[-119.8262,49.80822],[-119.8262,49.80405],[-119.83245,49.80405],[-119.8387,49.80405],[-119.84495,49.80405],[-119.84495,49.80822],[-119.84495,49.81238],[-119.84495,49.81655],[-119.84495,49.82072],[-119.84495,49.82488]]]}},{"type":"Feature","properties":{"c":"1122591","o":"BROOKES, CLIVE GERRARD","e":"2028-11-01Z"},"geometry":{"type":"Polygon","coordinates":[[[-119.80121,49.99155],[-119.79496,49.99155],[-119.78871,49.99155],[-119.78246,49.99155],[-119.77621,49.99155],[-119.76996,49.99155],[-119.76371,49.99155],[-119.76371,49.99572],[-119.76371,49.99988],[-119.76371,50.00405],[-119.76371,50.00822],[-119.76371,50.01239],[-119.75746,50.01239],[-119.7512,50.01239],[-119.75121,50.00822],[-119.75121,50.00405],[-119.75121,49.99989],[-119.75121,49.99572],[-119.75121,49.99155],[-119.75746,49.99155],[-119.75746,49.98739],[-119.76371,49.98738],[-119.76996,49.98738],[-119.77621,49.98738],[-119.78246,49.98738],[-119.78871,49.98738],[-119.78871,49.98322],[-119.79496,49.98322],[-119.80121,49.98322],[-119.80121,49.98738],[-119.80121,49.99155]]]}},{"type":"Feature","properties":{"c":"1122595","o":"BROOKES, CLIVE GERRARD","e":"2028-11-01Z"},"geometry":{"type":"Polygon","coordinates":[[[-119.81371,50.03738],[-119.80746,50.03739],[-119.80121,50.03739],[-119.79496,50.03739],[-119.78871,50.03739],[-119.78246,50.03739],[-119.7762,50.03739],[-119.76995,50.03739],[-119.76995,50.03322],[-119.76996,50.02905],[-119.76996,50.02489],[-119.76996,50.02072],[-119.76996,50.01655],[-119.76371,50.01655],[-119.76371,50.01239],[-119.76371,50.00822],[-119.76371,50.00405],[-119.76371,49.99988],[-119.76371,49.99572],[-119.76371,49.99155],[-119.76996,49.99155],[-119.77621,49.99155],[-119.78246,49.99155],[-119.78871,49.99155],[-119.79496,49.99155],[-119.80121,49.99155],[-119.80121,49.99572],[-119.80121,49.99988],[-119.80121,50.00405],[-119.80121,50.00822],[-119.80121,50.01238],[-119.80746,50.01238],[-119.80746,50.01655],[-119.80121,50.01655],[-119.80121,50.02072],[-119.80121,50.02488],[-119.80746,50.02488],[-119.81371,50.02488],[-119.81371,50.02905],[-119.81371,50.03322],[-119.81371,50.03738]]]}}]}