{"type":"FeatureCollection","features":[{"type":"Feature","properties":{"c":"1131406","o":"2132561 ALBERTA LTD.","e":"2027-03-20Z"},"geometry":{"type":"Polygon","coordinates":[[[-120.26393,55.18328],[-120.25768,55.18328],[-120.25143,55.18328],[-120.24518,55.18328],[-120.23893,55.18328],[-120.23268,55.18328],[-120.22643,55.18328],[-120.22643,55.17911],[-120.22643,55.17494],[-120.23268,55.17494],[-120.23893,55.17494],[-120.24518,55.17494],[-120.24518,55.17078],[-120.24518,55.16661],[-120.24518,55.16244],[-120.24518,55.15828],[-120.24518,55.15411],[-120.24518,55.14994],[-120.23893,55.14994],[-120.23268,55.14994],[-120.22643,55.14994],[-120.22643,55.14578],[-120.22643,55.14161],[-120.22643,55.13744],[-120.22643,55.13328],[-120.22643,55.12911],[-120.23268,55.12911],[-120.23893,55.12911],[-120.24518,55.12911],[-120.25143,55.12911],[-120.25143,55.13328],[-120.25143,55.13744],[-120.25768,55.13744],[-120.26393,55.13744],[-120.26393,55.14161],[-120.26393,55.14578],[-120.26393,55.14994],[-120.26393,55.15411],[-120.26393,55.15828],[-120.26393,55.16244],[-120.26393,55.16661],[-120.26393,55.17078],[-120.26393,55.17494],[-120.26393,55.17911],[-120.26393,55.18328]]]}},{"type":"Feature","properties":{"c":"1139770","o":"2132561 ALBERTA LTD.","e":"2027-09-28Z"},"geometry":{"type":"Polygon","coordinates":[[[-120.28268,55.14161],[-120.27643,55.14161],[-120.27018,55.14161],[-120.26393,55.14161],[-120.26393,55.13744],[-120.25768,55.13744],[-120.25143,55.13744],[-120.25143,55.13328],[-120.25143,55.12911],[-120.24518,55.12911],[-120.24518,55.12494],[-120.25143,55.12494],[-120.25768,55.12494],[-120.26393,55.12494],[-120.27018,55.12494],[-120.27643,55.12494],[-120.28268,55.12494],[-120.28268,55.12911],[-120.28268,55.13328],[-120.28268,55.13744],[-120.28268,55.14161]]]}},{"type":"Feature","properties":{"c":"1139771","o":"2132561 ALBERTA LTD.","e":"2027-09-28Z"},"geometry":{"type":"Polygon","coordinates":[[[-120.32643,55.14994],[-120.32018,55.14994],[-120.31393,55.14994],[-120.31393,55.15411],[-120.30768,55.15411],[-120.30768,55.15828],[-120.30143,55.15828],[-120.30143,55.16244],[-120.29518,55.16244],[-120.28893,55.16244],[-120.28268,55.16244],[-120.27643,55.16244],[-120.27018,55.16244],[-120.26393,55.16244],[-120.26393,55.15828],[-120.26393,55.15411],[-120.26393,55.14994],[-120.26393,55.14578],[-120.26393,55.14161],[-120.27018,55.14161],[-120.27643,55.14161],[-120.28268,55.14161],[-120.28893,55.14161],[-120.29518,55.14161],[-120.30143,55.14161],[-120.30768,55.14161],[-120.31393,55.14161],[-120.32018,55.14161],[-120.32643,55.14161],[-120.32643,55.14578],[-120.32643,55.14994]]]}},{"type":"Feature","properties":{"c":"1139772","o":"2132561 ALBERTA LTD.","e":"2027-09-28Z"},"geometry":{"type":"Polygon","coordinates":[[[-120.27018,55.22494],[-120.26393,55.22494],[-120.26393,55.22911],[-120.25768,55.22911],[-120.25768,55.23328],[-120.25143,55.23328],[-120.25143,55.23744],[-120.24518,55.23744],[-120.23893,55.23744],[-120.23268,55.23744],[-120.22643,55.23744],[-120.22018,55.23744],[-120.21393,55.23744],[-120.20768,55.23744],[-120.20143,55.23744],[-120.19518,55.23744],[-120.18893,55.23744],[-120.18268,55.23744],[-120.18268,55.24161],[-120.18268,55.24578],[-120.18268,55.24994],[-120.17643,55.24994],[-120.17018,55.24994],[-120.16393,55.24994],[-120.15768,55.24994],[-120.15768,55.24578],[-120.15768,55.24161],[-120.15768,55.23744],[-120.15768,55.23328],[-120.15768,55.22911],[-120.15768,55.22494],[-120.15768,55.22078],[-120.15768,55.21661],[-120.16393,55.21661],[-120.17018,55.21661],[-120.17643,55.21661],[-120.18268,55.21661],[-120.18893,55.21661],[-120.19518,55.21661],[-120.20143,55.21661],[-120.20768,55.21661],[-120.21393,55.21661],[-120.22018,55.21661],[-120.22643,55.21661],[-120.23268,55.21661],[-120.23893,55.21661],[-120.24518,55.21661],[-120.25143,55.21661],[-120.25768,55.21661],[-120.25768,55.21244],[-120.26393,55.21244],[-120.26393,55.20828],[-120.27018,55.20828],[-120.27018,55.21244],[-120.27018,55.21661],[-120.27018,55.22078],[-120.27018,55.22494]]]}},{"type":"Feature","properties":{"c":"1139773","o":"2132561 ALBERTA LTD.","e":"2027-09-28Z"},"geometry":{"type":"Polygon","coordinates":[[[-120.45143,55.22078],[-120.44518,55.22078],[-120.43893,55.22078],[-120.43268,55.22078],[-120.43268,55.22494],[-120.42643,55.22494],[-120.42018,55.22494],[-120.42018,55.22911],[-120.42018,55.23328],[-120.42018,55.23744],[-120.41393,55.23744],[-120.40768,55.23744],[-120.40143,55.23744],[-120.39518,55.23744],[-120.39518,55.23328],[-120.39518,55.22911],[-120.39518,55.22494],[-120.39518,55.22078],[-120.39518,55.21661],[-120.38893,55.21661],[-120.38268,55.21661],[-120.37643,55.21661],[-120.37018,55.21661],[-120.36393,55.21661],[-120.36393,55.21244],[-120.36393,55.20828],[-120.37018,55.20828],[-120.37643,55.20828],[-120.38268,55.20828],[-120.38893,55.20828],[-120.39518,55.20828],[-120.40143,55.20828],[-120.40768,55.20828],[-120.41393,55.20828],[-120.42018,55.20828],[-120.42643,55.20828],[-120.43268,55.20828],[-120.43893,55.20828],[-120.44518,55.20828],[-120.45143,55.20828],[-120.45143,55.21244],[-120.45143,55.21661],[-120.45143,55.22078]]]}},{"type":"Feature","properties":{"c":"1139774","o":"2132561 ALBERTA LTD.","e":"2027-09-28Z"},"geometry":{"type":"Polygon","coordinates":[[[-120.35768,55.17078],[-120.35143,55.17078],[-120.34518,55.17078],[-120.33893,55.17078],[-120.33893,55.17494],[-120.33268,55.17494],[-120.32643,55.17494],[-120.32018,55.17494],[-120.31393,55.17494],[-120.30768,55.17494],[-120.30143,55.17494],[-120.29518,55.17494],[-120.28893,55.17494],[-120.28268,55.17494],[-120.28268,55.17911],[-120.28268,55.18328],[-120.27643,55.18328],[-120.27018,55.18328],[-120.26393,55.18328],[-120.26393,55.17911],[-120.26393,55.17494],[-120.26393,55.17078],[-120.26393,55.16661],[-120.26393,55.16244],[-120.27018,55.16244],[-120.27643,55.16244],[-120.28268,55.16244],[-120.28893,55.16244],[-120.29518,55.16244],[-120.30143,55.16244],[-120.30143,55.15828],[-120.30768,55.15828],[-120.30768,55.15411],[-120.31393,55.15411],[-120.31393,55.14994],[-120.32018,55.14994],[-120.32643,55.14994],[-120.32643,55.14578],[-120.32643,55.14161],[-120.33268,55.14161],[-120.33893,55.14161],[-120.34518,55.14161],[-120.35143,55.14161],[-120.35768,55.14161],[-120.35768,55.14578],[-120.35768,55.14994],[-120.35768,55.15411],[-120.35768,55.15828],[-120.35768,55.16244],[-120.35768,55.16661],[-120.35768,55.17078]]]}},{"type":"Feature","properties":{"c":"1137585","o":"2132561 ALBERTA LTD.","e":"2027-08-24Z"},"geometry":{"type":"Polygon","coordinates":[[[-120.23268,55.12911],[-120.22643,55.12911],[-120.22018,55.12911],[-120.21393,55.12911],[-120.20768,55.12911],[-120.20143,55.12911],[-120.19518,55.12911],[-120.18893,55.12911],[-120.18268,55.12911],[-120.17643,55.12911],[-120.17017,55.12911],[-120.16392,55.12911],[-120.16392,55.12494],[-120.16392,55.12078],[-120.16392,55.11661],[-120.16392,55.11245],[-120.16392,55.10828],[-120.16392,55.10411],[-120.16392,55.09995],[-120.17017,55.09995],[-120.17642,55.09995],[-120.18267,55.09995],[-120.18892,55.09994],[-120.19517,55.09994],[-120.20142,55.09994],[-120.20767,55.09994],[-120.21392,55.09994],[-120.22017,55.09994],[-120.22643,55.09994],[-120.22643,55.10411],[-120.23268,55.10411],[-120.23268,55.10828],[-120.23268,55.11244],[-120.23268,55.11661],[-120.23893,55.11661],[-120.23893,55.12078],[-120.23893,55.12494],[-120.24518,55.12494],[-120.24518,55.12911],[-120.23893,55.12911],[-120.23268,55.12911]]]}},{"type":"Feature","properties":{"c":"1137586","o":"2132561 ALBERTA LTD.","e":"2027-08-24Z"},"geometry":{"type":"Polygon","coordinates":[[[-120.28893,55.10411],[-120.28268,55.10411],[-120.27643,55.10411],[-120.27018,55.10411],[-120.26393,55.10411],[-120.25768,55.10411],[-120.25143,55.10411],[-120.24518,55.10411],[-120.23893,55.10411],[-120.23268,55.10411],[-120.22643,55.10411],[-120.22643,55.09994],[-120.23268,55.09994],[-120.23893,55.09994],[-120.24518,55.09994],[-120.24518,55.09578],[-120.25143,55.09578],[-120.25768,55.09578],[-120.25768,55.09161],[-120.25768,55.08744],[-120.25768,55.08328],[-120.26393,55.08328],[-120.27018,55.08328],[-120.27643,55.08328],[-120.28268,55.08328],[-120.28893,55.08328],[-120.28893,55.08744],[-120.28893,55.09161],[-120.28893,55.09578],[-120.28893,55.09994],[-120.28893,55.10411]]]}},{"type":"Feature","properties":{"c":"1137587","o":"2132561 ALBERTA LTD.","e":"2027-08-24Z"},"geometry":{"type":"Polygon","coordinates":[[[-120.16392,55.11661],[-120.15767,55.11661],[-120.15142,55.11661],[-120.15142,55.11245],[-120.15142,55.10828],[-120.15142,55.10411],[-120.15142,55.09995],[-120.15142,55.09578],[-120.15142,55.09161],[-120.14517,55.09161],[-120.14517,55.08745],[-120.14517,55.08328],[-120.14517,55.07912],[-120.14517,55.07495],[-120.14516,55.07078],[-120.13891,55.07078],[-120.13266,55.07078],[-120.12641,55.07078],[-120.12016,55.07078],[-120.11391,55.07079],[-120.10766,55.07079],[-120.10141,55.07079],[-120.09516,55.07079],[-120.09516,55.06662],[-120.09515,55.06245],[-120.09515,55.05829],[-120.09515,55.05412],[-120.09515,55.04996],[-120.09515,55.04579],[-120.1014,55.04579],[-120.10766,55.04579],[-120.11391,55.04579],[-120.12016,55.04579],[-120.12641,55.04579],[-120.13266,55.04579],[-120.13891,55.04579],[-120.14516,55.04578],[-120.15141,55.04578],[-120.15767,55.04578],[-120.16392,55.04578],[-120.16392,55.04995],[-120.16392,55.05412],[-120.16392,55.05828],[-120.16392,55.06245],[-120.16392,55.06661],[-120.16392,55.07078],[-120.16392,55.07495],[-120.16392,55.07911],[-120.16392,55.08328],[-120.16392,55.08745],[-120.16392,55.09161],[-120.16392,55.09578],[-120.16392,55.09995],[-120.16392,55.10411],[-120.16392,55.10828],[-120.16392,55.11245],[-120.16392,55.11661]]]}},{"type":"Feature","properties":{"c":"1137588","o":"2132561 ALBERTA LTD.","e":"2027-08-24Z"},"geometry":{"type":"Polygon","coordinates":[[[-120.16392,55.04578],[-120.15767,55.04578],[-120.15141,55.04578],[-120.14516,55.04578],[-120.13891,55.04579],[-120.13266,55.04579],[-120.12641,55.04579],[-120.12016,55.04579],[-120.11391,55.04579],[-120.11391,55.04162],[-120.11391,55.03746],[-120.11391,55.03329],[-120.11391,55.02912],[-120.1139,55.02496],[-120.1139,55.02079],[-120.12016,55.02079],[-120.12641,55.02079],[-120.12641,55.01662],[-120.13266,55.01662],[-120.13266,55.01246],[-120.13266,55.00829],[-120.13266,55.00412],[-120.13266,54.99996],[-120.13266,54.99579],[-120.13891,54.99579],[-120.14516,54.99579],[-120.14516,54.99996],[-120.14516,55.00412],[-120.14516,55.00829],[-120.14516,55.01245],[-120.14516,55.01662],[-120.15141,55.01662],[-120.15767,55.01662],[-120.16392,55.01662],[-120.16392,55.02078],[-120.16392,55.02495],[-120.16392,55.02912],[-120.16392,55.03328],[-120.16392,55.03745],[-120.16392,55.04162],[-120.16392,55.04578]]]}},{"type":"Feature","properties":{"c":"1137589","o":"2132561 ALBERTA LTD.","e":"2027-08-24Z"},"geometry":{"type":"Polygon","coordinates":[[[-120.13266,55.01662],[-120.12641,55.01662],[-120.12641,55.02079],[-120.12016,55.02079],[-120.1139,55.02079],[-120.1139,55.02496],[-120.11391,55.02912],[-120.11391,55.03329],[-120.11391,55.03746],[-120.11391,55.04162],[-120.11391,55.04579],[-120.10766,55.04579],[-120.1014,55.04579],[-120.09515,55.04579],[-120.0889,55.04579],[-120.08265,55.04579],[-120.0764,55.04579],[-120.07015,55.04579],[-120.0639,55.04579],[-120.05765,55.04579],[-120.05765,55.04163],[-120.05765,55.03746],[-120.05765,55.03329],[-120.05765,55.02913],[-120.0639,55.02913],[-120.07015,55.02913],[-120.0764,55.02913],[-120.0764,55.02496],[-120.0764,55.02079],[-120.08265,55.02079],[-120.08265,55.01663],[-120.08265,55.01246],[-120.0889,55.01246],[-120.0889,55.00829],[-120.09515,55.00829],[-120.09515,55.00413],[-120.09515,54.99996],[-120.1014,54.99996],[-120.1014,54.99579],[-120.10765,54.99579],[-120.1139,54.99579],[-120.12015,54.99579],[-120.12641,54.99579],[-120.13266,54.99579],[-120.13266,54.99996],[-120.13266,55.00412],[-120.13266,55.00829],[-120.13266,55.01246],[-120.13266,55.01662]]]}},{"type":"Feature","properties":{"c":"1139775","o":"2132561 ALBERTA LTD.","e":"2027-09-28Z"},"geometry":{"type":"Polygon","coordinates":[[[-120.28268,55.20411],[-120.27643,55.20411],[-120.27018,55.20411],[-120.26393,55.20411],[-120.25768,55.20411],[-120.25143,55.20411],[-120.24518,55.20411],[-120.23893,55.20411],[-120.23268,55.20411],[-120.22643,55.20411],[-120.22018,55.20411],[-120.21393,55.20411],[-120.20768,55.20411],[-120.20768,55.19994],[-120.20768,55.19578],[-120.20768,55.19161],[-120.20768,55.18744],[-120.20768,55.18328],[-120.20768,55.17911],[-120.20768,55.17494],[-120.20768,55.17078],[-120.20768,55.16661],[-120.20768,55.16244],[-120.20768,55.15828],[-120.21393,55.15828],[-120.22018,55.15828],[-120.22643,55.15828],[-120.22643,55.16244],[-120.22643,55.16661],[-120.22643,55.17078],[-120.22643,55.17494],[-120.22643,55.17911],[-120.22643,55.18328],[-120.23268,55.18328],[-120.23893,55.18328],[-120.24518,55.18328],[-120.25143,55.18328],[-120.25768,55.18328],[-120.26393,55.18328],[-120.27018,55.18328],[-120.27643,55.18328],[-120.28268,55.18328],[-120.28268,55.18744],[-120.28268,55.19161],[-120.28268,55.19578],[-120.28268,55.19994],[-120.28268,55.20411]]]}},{"type":"Feature","properties":{"c":"1139776","o":"2132561 ALBERTA LTD.","e":"2027-09-28Z"},"geometry":{"type":"Polygon","coordinates":[[[-120.30768,55.21244],[-120.30143,55.21244],[-120.29518,55.21244],[-120.28893,55.21244],[-120.28268,55.21244],[-120.27643,55.21244],[-120.27018,55.21244],[-120.27018,55.20828],[-120.27018,55.20411],[-120.27643,55.20411],[-120.28268,55.20411],[-120.28268,55.19994],[-120.28268,55.19578],[-120.28268,55.19161],[-120.28268,55.18744],[-120.28268,55.18328],[-120.28268,55.17911],[-120.28268,55.17494],[-120.28893,55.17494],[-120.29518,55.17494],[-120.30143,55.17494],[-120.30768,55.17494],[-120.30768,55.17911],[-120.30768,55.18328],[-120.30768,55.18744],[-120.30768,55.19161],[-120.30768,55.19578],[-120.30768,55.19994],[-120.30768,55.20411],[-120.30768,55.20828],[-120.30768,55.21244]]]}},{"type":"Feature","properties":{"c":"1139777","o":"2132561 ALBERTA LTD.","e":"2027-09-28Z"},"geometry":{"type":"Polygon","coordinates":[[[-120.36393,55.21661],[-120.35768,55.21661],[-120.35143,55.21661],[-120.34518,55.21661],[-120.33893,55.21661],[-120.33268,55.21661],[-120.32643,55.21661],[-120.32018,55.21661],[-120.31393,55.21661],[-120.30768,55.21661],[-120.30143,55.21661],[-120.29518,55.21661],[-120.28893,55.21661],[-120.28268,55.21661],[-120.27643,55.21661],[-120.27643,55.22078],[-120.27018,55.22078],[-120.27018,55.21661],[-120.27018,55.21244],[-120.27643,55.21244],[-120.28268,55.21244],[-120.28893,55.21244],[-120.29518,55.21244],[-120.30143,55.21244],[-120.30768,55.21244],[-120.30768,55.20828],[-120.30768,55.20411],[-120.30768,55.19994],[-120.30768,55.19578],[-120.30768,55.19161],[-120.30768,55.18744],[-120.30768,55.18328],[-120.30768,55.17911],[-120.30768,55.17494],[-120.31393,55.17494],[-120.32018,55.17494],[-120.32643,55.17494],[-120.33268,55.17494],[-120.33893,55.17494],[-120.33893,55.17078],[-120.34518,55.17078],[-120.35143,55.17078],[-120.35768,55.17078],[-120.36393,55.17078],[-120.36393,55.17494],[-120.36393,55.17911],[-120.35768,55.17911],[-120.35768,55.18328],[-120.35768,55.18744],[-120.35143,55.18744],[-120.35143,55.19161],[-120.34518,55.19161],[-120.34518,55.19578],[-120.33893,55.19578],[-120.33893,55.19994],[-120.33893,55.20411],[-120.33893,55.20828],[-120.34518,55.20828],[-120.35143,55.20828],[-120.35768,55.20828],[-120.36393,55.20828],[-120.36393,55.21244],[-120.36393,55.21661]]]}},{"type":"Feature","properties":{"c":"1139778","o":"2132561 ALBERTA LTD.","e":"2027-09-28Z"},"geometry":{"type":"Polygon","coordinates":[[[-120.50144,55.23744],[-120.49519,55.23744],[-120.48893,55.23744],[-120.48268,55.23744],[-120.47643,55.23744],[-120.47018,55.23744],[-120.46393,55.23744],[-120.45768,55.23744],[-120.45143,55.23744],[-120.44518,55.23744],[-120.43893,55.23744],[-120.43268,55.23744],[-120.42643,55.23744],[-120.42018,55.23744],[-120.42018,55.23328],[-120.42018,55.22911],[-120.42018,55.22494],[-120.42643,55.22494],[-120.43268,55.22494],[-120.43268,55.22078],[-120.43893,55.22078],[-120.44518,55.22078],[-120.45143,55.22078],[-120.45143,55.21661],[-120.45143,55.21244],[-120.45143,55.20828],[-120.45768,55.20828],[-120.46393,55.20828],[-120.47018,55.20828],[-120.47643,55.20828],[-120.48268,55.20828],[-120.48893,55.20828],[-120.49518,55.20828],[-120.50144,55.20828],[-120.50144,55.21244],[-120.50144,55.21661],[-120.50144,55.22078],[-120.50144,55.22494],[-120.50144,55.22911],[-120.50144,55.23328],[-120.50144,55.23744]]]}}]}