{"type":"FeatureCollection","features":[{"type":"Feature","properties":{"c":"9325030226","o":"ATHABASCA MINERALS INC.","e":""},"geometry":{"type":"MultiPolygon","coordinates":[[[[-119.90569,55.81067],[-119.9315,55.81068],[-119.93154,55.83971],[-119.9057,55.83971],[-119.90569,55.81435],[-119.90569,55.81067]]],[[[-119.87955,55.81065],[-119.90537,55.81067],[-119.90537,55.83971],[-119.87958,55.83971],[-119.87955,55.81434],[-119.87955,55.81065]]],[[[-119.93182,55.81068],[-119.95763,55.81068],[-119.95767,55.83972],[-119.93186,55.83971],[-119.93183,55.81435],[-119.93182,55.81068]]],[[[-119.95795,55.81068],[-119.98378,55.81067],[-119.98375,55.83973],[-119.95799,55.83972],[-119.95796,55.81436],[-119.95795,55.81068]]],[[[-119.9841,55.81067],[-120.00136,55.81067],[-120.00135,55.83972],[-119.98408,55.83973],[-119.98409,55.81436],[-119.9841,55.81067]]],[[[-119.87958,55.83989],[-119.90537,55.83989],[-119.9054,55.86879],[-119.87961,55.86879],[-119.87958,55.8435],[-119.87958,55.83989]]],[[[-119.9057,55.83989],[-119.93154,55.83989],[-119.93154,55.8688],[-119.90572,55.86879],[-119.9057,55.8435],[-119.9057,55.83989]]],[[[-119.93186,55.83989],[-119.95767,55.8399],[-119.95766,55.86881],[-119.93186,55.8688],[-119.93186,55.84351],[-119.93186,55.83989]]],[[[-119.95799,55.8399],[-119.98375,55.83991],[-119.98377,55.86881],[-119.95799,55.86881],[-119.95799,55.84351],[-119.95799,55.8399]]],[[[-119.98408,55.83991],[-120.00135,55.8399],[-120.00135,55.8688],[-119.99699,55.86881],[-119.99698,55.86158],[-119.98409,55.86158],[-119.98408,55.84352],[-119.98408,55.83991]]],[[[-119.87961,55.86897],[-119.9054,55.86897],[-119.90543,55.89788],[-119.87963,55.89788],[-119.87961,55.87258],[-119.87961,55.86897]]],[[[-119.90572,55.86897],[-119.93154,55.86898],[-119.93154,55.89789],[-119.90575,55.89788],[-119.90573,55.87259],[-119.90572,55.86897]]],[[[-119.93186,55.86898],[-119.95766,55.86899],[-119.95766,55.8979],[-119.93187,55.89789],[-119.93186,55.8726],[-119.93186,55.86898]]],[[[-119.95799,55.86899],[-119.98377,55.86899],[-119.98379,55.89789],[-119.95798,55.8979],[-119.95799,55.8726],[-119.95799,55.86899]]],[[[-119.98409,55.86899],[-120.00135,55.86899],[-120.00135,55.89789],[-119.98411,55.89789],[-119.9841,55.8726],[-119.98409,55.86899]]]]}},{"type":"Feature","properties":{"c":"9325030228","o":"ATHABASCA MINERALS INC.","e":""},"geometry":{"type":"MultiPolygon","coordinates":[[[[-119.87963,55.89806],[-119.90543,55.89806],[-119.90554,55.92698],[-119.87968,55.92696],[-119.87964,55.90167],[-119.87963,55.89806]]],[[[-119.90576,55.89806],[-119.93155,55.89807],[-119.93153,55.927],[-119.90586,55.92698],[-119.90578,55.90167],[-119.90576,55.89806]]],[[[-119.93187,55.89807],[-119.95766,55.89808],[-119.95765,55.92701],[-119.93185,55.927],[-119.93191,55.9017],[-119.93187,55.89807]]],[[[-119.95798,55.89808],[-119.98379,55.89807],[-119.98376,55.927],[-119.95797,55.92701],[-119.95797,55.90171],[-119.95798,55.89808]]],[[[-119.98411,55.89807],[-120.00135,55.89807],[-120.00135,55.92698],[-119.98408,55.927],[-119.98411,55.90169],[-119.98411,55.89807]]],[[[-119.87968,55.92714],[-119.90554,55.92716],[-119.90552,55.95606],[-119.8797,55.95607],[-119.87968,55.93076],[-119.87968,55.92714]]],[[[-119.90586,55.92716],[-119.93153,55.92718],[-119.93159,55.95607],[-119.90584,55.95606],[-119.90586,55.93077],[-119.90586,55.92716]]],[[[-119.93185,55.92718],[-119.95765,55.92719],[-119.95766,55.95609],[-119.93192,55.95607],[-119.93186,55.93079],[-119.93185,55.92718]]],[[[-119.95797,55.92719],[-119.98376,55.92718],[-119.98374,55.95608],[-119.95798,55.95609],[-119.95798,55.9308],[-119.95797,55.92719]]],[[[-119.98408,55.92718],[-120.00135,55.92716],[-120.00134,55.95609],[-119.98406,55.95608],[-119.98407,55.93079],[-119.98408,55.92718]]],[[[-119.8797,55.95625],[-119.90552,55.95624],[-119.90552,55.98515],[-119.87973,55.98514],[-119.87971,55.95986],[-119.8797,55.95625]]],[[[-119.90584,55.95624],[-119.93159,55.95625],[-119.93159,55.98515],[-119.90584,55.98515],[-119.90584,55.95985],[-119.90584,55.95624]]],[[[-119.93192,55.95625],[-119.95766,55.95627],[-119.9577,55.98515],[-119.93191,55.98515],[-119.9319,55.95986],[-119.93192,55.95625]]],[[[-119.95798,55.95627],[-119.98374,55.95626],[-119.9838,55.98516],[-119.95802,55.98515],[-119.95798,55.95988],[-119.95798,55.95627]]],[[[-119.98406,55.95626],[-120.00134,55.95627],[-120.00135,55.98515],[-119.98413,55.98516],[-119.98407,55.95988],[-119.98406,55.95626]]]]}},{"type":"Feature","properties":{"c":"9325030230","o":"ATHABASCA MINERALS INC.","e":""},"geometry":{"type":"MultiPolygon","coordinates":[[[[-119.95802,55.98533],[-119.9838,55.98534],[-119.98385,56.01426],[-119.95804,56.01426],[-119.95803,55.98895],[-119.95802,55.98533]]],[[[-119.87973,55.98532],[-119.90552,55.98533],[-119.90552,56.01424],[-119.87972,56.01419],[-119.87973,55.98894],[-119.87973,55.98532]]],[[[-119.90584,55.98533],[-119.93159,55.98533],[-119.93161,56.01425],[-119.90584,56.01424],[-119.90583,55.98895],[-119.90584,55.98533]]],[[[-119.93191,55.98533],[-119.9577,55.98533],[-119.95772,56.01426],[-119.93193,56.01425],[-119.93192,55.98894],[-119.93191,55.98533]]],[[[-119.98413,55.98534],[-120.00135,55.98533],[-120.00135,56.01426],[-119.98417,56.01426],[-119.98414,55.98896],[-119.98413,55.98534]]],[[[-119.87972,56.01437],[-119.90552,56.01442],[-119.90546,56.04334],[-119.87972,56.04326],[-119.87972,56.01798],[-119.87972,56.01437]]],[[[-119.90584,56.01442],[-119.93161,56.01443],[-119.93161,56.04335],[-119.90579,56.04334],[-119.90584,56.01804],[-119.90584,56.01442]]],[[[-119.93193,56.01443],[-119.95772,56.01444],[-119.95773,56.04335],[-119.93193,56.04335],[-119.93193,56.01804],[-119.93193,56.01443]]],[[[-119.95804,56.01444],[-119.98385,56.01444],[-119.98384,56.04335],[-119.95805,56.04335],[-119.95804,56.01805],[-119.95804,56.01444]]],[[[-119.98417,56.01444],[-120.00135,56.01444],[-120.00134,56.04335],[-119.98416,56.04335],[-119.98417,56.01805],[-119.98417,56.01444]]],[[[-119.87972,56.04344],[-119.90546,56.04352],[-119.90551,56.05798],[-119.87972,56.05789],[-119.87972,56.04705],[-119.87972,56.04344]]],[[[-119.90579,56.04352],[-119.93161,56.04353],[-119.93161,56.07244],[-119.90583,56.07244],[-119.90581,56.04714],[-119.90579,56.04352]]],[[[-119.93193,56.04353],[-119.95773,56.04353],[-119.95772,56.07245],[-119.93193,56.07244],[-119.93193,56.04714],[-119.93193,56.04353]]],[[[-119.95805,56.04353],[-119.98384,56.04353],[-119.98384,56.07244],[-119.95804,56.07245],[-119.95805,56.04715],[-119.95805,56.04353]]],[[[-119.98416,56.04353],[-120.00134,56.04353],[-120.00133,56.07244],[-119.98416,56.07244],[-119.98416,56.04715],[-119.98416,56.04353]]]]}},{"type":"Feature","properties":{"c":"9326040069","o":"HIGHWOOD ASSET MANAGEMENT LTD.","e":""},"geometry":{"type":"MultiPolygon","coordinates":[[[[-119.96569,55.78141],[-119.99117,55.78139],[-119.99138,55.81048],[-119.96582,55.8105],[-119.96569,55.78502],[-119.96569,55.78141]]],[[[-119.96568,55.73769],[-119.99123,55.73768],[-119.99121,55.75213],[-119.96568,55.75214],[-119.96568,55.7413],[-119.96568,55.73769]]],[[[-119.99157,55.72323],[-120.00136,55.72322],[-120.00136,55.75213],[-119.99153,55.75213],[-119.99157,55.72684],[-119.99157,55.72323]]],[[[-119.93979,55.76678],[-119.96537,55.76677],[-119.96537,55.78123],[-119.93979,55.78123],[-119.93979,55.77039],[-119.93979,55.76678]]],[[[-119.96568,55.75232],[-119.99121,55.75231],[-119.99117,55.78121],[-119.96569,55.78123],[-119.96568,55.75593],[-119.96568,55.75232]]],[[[-119.99153,55.75231],[-120.00136,55.75231],[-120.00136,55.78121],[-119.99149,55.78121],[-119.99153,55.75592],[-119.99153,55.75231]]],[[[-119.93979,55.78863],[-119.95258,55.78863],[-119.95258,55.78141],[-119.96537,55.78141],[-119.9655,55.8105],[-119.93991,55.8105],[-119.9398,55.79225],[-119.93979,55.78863]]],[[[-119.9915,55.78139],[-120.00136,55.7814],[-120.00136,55.81047],[-119.9917,55.81048],[-119.99152,55.78501],[-119.9915,55.78139]]]]}},{"type":"Feature","properties":{"c":"9326040081","o":"HIGHWOOD ASSET MANAGEMENT LTD.","e":""},"geometry":{"type":"MultiPolygon","coordinates":[[[[-119.91386,55.636],[-119.93943,55.636],[-119.93946,55.6649],[-119.91385,55.6649],[-119.91386,55.63961],[-119.91386,55.636]]],[[[-119.8621,55.63598],[-119.88766,55.63599],[-119.88764,55.6649],[-119.8621,55.66489],[-119.8621,55.63959],[-119.8621,55.63598]]],[[[-119.88798,55.63599],[-119.91354,55.636],[-119.91353,55.6649],[-119.88796,55.6649],[-119.88798,55.6396],[-119.88798,55.63599]]],[[[-119.93975,55.636],[-119.96535,55.636],[-119.96534,55.6649],[-119.93978,55.6649],[-119.93976,55.63961],[-119.93975,55.636]]],[[[-119.96567,55.636],[-119.99125,55.63599],[-119.99124,55.66489],[-119.96566,55.6649],[-119.96567,55.63961],[-119.96567,55.636]]],[[[-119.99157,55.63599],[-120.00136,55.63598],[-120.00136,55.66488],[-119.99156,55.66489],[-119.99157,55.6396],[-119.99157,55.63599]]],[[[-119.91385,55.66508],[-119.93946,55.66509],[-119.93948,55.67954],[-119.91384,55.67954],[-119.91385,55.6687],[-119.91385,55.66508]]],[[[-119.93978,55.66509],[-119.96534,55.66508],[-119.96534,55.67954],[-119.9398,55.67954],[-119.93979,55.6687],[-119.93978,55.66509]]],[[[-119.96566,55.66508],[-119.99124,55.66507],[-119.99124,55.67953],[-119.96566,55.67954],[-119.96566,55.6687],[-119.96566,55.66508]]],[[[-119.99156,55.66507],[-120.00136,55.66506],[-120.00136,55.67952],[-119.99156,55.67953],[-119.99156,55.66869],[-119.99156,55.66507]]],[[[-119.88764,55.66508],[-119.88762,55.69398],[-119.86211,55.69398],[-119.8621,55.66516],[-119.88764,55.66508]]],[[[-119.88796,55.66508],[-119.91353,55.66508],[-119.91351,55.69399],[-119.88794,55.69398],[-119.88796,55.66869],[-119.88796,55.66508]]],[[[-119.88794,55.69416],[-119.91351,55.69417],[-119.91351,55.70862],[-119.88793,55.70861],[-119.88794,55.69777],[-119.88794,55.69416]]],[[[-119.88762,55.69416],[-119.88768,55.72308],[-119.86211,55.72307],[-119.86211,55.69425],[-119.88762,55.69416]]]]}}]}