{"type":"FeatureCollection","features":[{"type":"Feature","properties":{"c":"311040","o":"TILAVA MINING CORPORATION","e":"1999-07-08Z"},"geometry":{"type":"Polygon","coordinates":[[[-120.39268,51.45752],[-120.39268,51.45808],[-120.3985,51.45808],[-120.39878,51.46182],[-120.39159,51.46203],[-120.39126,51.45756],[-120.39268,51.45752]]]}},{"type":"Feature","properties":{"c":"311033","o":"TILAVA MINING CORPORATION","e":"1999-07-09Z"},"geometry":{"type":"Polygon","coordinates":[[[-120.37403,51.45642],[-120.38082,51.45647],[-120.38096,51.45647],[-120.38094,51.46096],[-120.38088,51.46096],[-120.37369,51.46091],[-120.37402,51.45643],[-120.37389,51.45642],[-120.37403,51.45642]]]}},{"type":"Feature","properties":{"c":"311041","o":"TILAVA MINING CORPORATION","e":"1999-07-08Z"},"geometry":{"type":"Polygon","coordinates":[[[-120.3866,51.45769],[-120.391,51.45756],[-120.39126,51.45756],[-120.39159,51.46203],[-120.38693,51.46217],[-120.38683,51.46079],[-120.3866,51.45769]]]}},{"type":"Feature","properties":{"c":"311034","o":"TILAVA MINING CORPORATION","e":"1999-07-09Z"},"geometry":{"type":"Polygon","coordinates":[[[-120.38683,51.46079],[-120.38693,51.46217],[-120.38693,51.46218],[-120.38715,51.46528],[-120.38437,51.46536],[-120.38127,51.46545],[-120.38094,51.46096],[-120.38683,51.46079]]]}},{"type":"Feature","properties":{"c":"311035","o":"TILAVA MINING CORPORATION","e":"1999-07-09Z"},"geometry":{"type":"Polygon","coordinates":[[[-120.38123,51.45645],[-120.3865,51.45631],[-120.38659,51.45757],[-120.3866,51.45769],[-120.38683,51.46079],[-120.38094,51.46096],[-120.38096,51.45647],[-120.38082,51.45647],[-120.38123,51.45645]]]}},{"type":"Feature","properties":{"c":"311038","o":"TILAVA MINING CORPORATION","e":"1999-07-08Z"},"geometry":{"type":"Polygon","coordinates":[[[-120.39268,51.45358],[-120.39602,51.45358],[-120.39987,51.45358],[-120.39987,51.45808],[-120.3985,51.45808],[-120.39268,51.45808],[-120.39268,51.45752],[-120.39268,51.45358]]]}},{"type":"Feature","properties":{"c":"311030","o":"TILAVA MINING CORPORATION","e":"1999-07-09Z"},"geometry":{"type":"Polygon","coordinates":[[[-120.36687,51.4652],[-120.36663,51.46197],[-120.36653,51.46071],[-120.37369,51.46091],[-120.37336,51.4654],[-120.36658,51.46521],[-120.36687,51.4652]]]}},{"type":"Feature","properties":{"c":"357946","o":"KANSPAR INDUSTRIES INC","e":"2026-10-16Z"},"geometry":{"type":"Polygon","coordinates":[[[-120.2535,51.20902],[-120.23204,51.20902],[-120.23204,51.18206],[-120.25349,51.18206],[-120.2535,51.20902]]]}},{"type":"Feature","properties":{"c":"311043","o":"TILAVA MINING CORPORATION","e":"1999-07-08Z"},"geometry":{"type":"Polygon","coordinates":[[[-120.38715,51.46528],[-120.38693,51.46218],[-120.39159,51.46203],[-120.39156,51.46644],[-120.38436,51.46642],[-120.38437,51.46536],[-120.38715,51.46528]]]}},{"type":"Feature","properties":{"c":"311031","o":"TILAVA MINING CORPORATION","e":"1999-07-09Z"},"geometry":{"type":"Polygon","coordinates":[[[-120.37402,51.45643],[-120.37369,51.46091],[-120.36653,51.46071],[-120.36677,51.45748],[-120.36684,51.45652],[-120.36686,51.45622],[-120.37389,51.45642],[-120.37402,51.45643]]]}},{"type":"Feature","properties":{"c":"311028","o":"TILAVA MINING CORPORATION","e":"1999-07-07Z"},"geometry":{"type":"Polygon","coordinates":[[[-120.35935,51.46197],[-120.35926,51.46098],[-120.35965,51.46096],[-120.36644,51.46071],[-120.36656,51.46197],[-120.36687,51.4652],[-120.36658,51.46521],[-120.36604,51.46523],[-120.35968,51.46546],[-120.3596,51.4646],[-120.35935,51.46197]]]}},{"type":"Feature","properties":{"c":"311032","o":"TILAVA MINING CORPORATION","e":"1999-07-09Z"},"geometry":{"type":"Polygon","coordinates":[[[-120.38088,51.46096],[-120.38081,51.46545],[-120.37362,51.46541],[-120.37369,51.46091],[-120.38088,51.46096]]]}},{"type":"Feature","properties":{"c":"311042","o":"TILAVA MINING CORPORATION","e":"1999-07-08Z"},"geometry":{"type":"Polygon","coordinates":[[[-120.39879,51.46206],[-120.39875,51.46646],[-120.39156,51.46644],[-120.39159,51.46203],[-120.39879,51.46206]]]}},{"type":"Feature","properties":{"c":"1075133","o":"ELLERBECK, KENNETH CECIL","e":"2030-12-04Z"},"geometry":{"type":"Polygon","coordinates":[[[-120.10124,51.34991],[-120.09499,51.34991],[-120.08874,51.34991],[-120.08874,51.35408],[-120.08874,51.35825],[-120.08249,51.35825],[-120.07624,51.35825],[-120.06999,51.35825],[-120.06374,51.35825],[-120.06374,51.36241],[-120.06374,51.36658],[-120.05749,51.36658],[-120.05124,51.36658],[-120.05124,51.36241],[-120.04499,51.36242],[-120.04499,51.35825],[-120.04499,51.35408],[-120.05124,51.35408],[-120.05749,51.35408],[-120.06374,51.35408],[-120.06374,51.34991],[-120.06999,51.34991],[-120.07624,51.34991],[-120.08249,51.34991],[-120.08249,51.34574],[-120.08874,51.34574],[-120.09499,51.34574],[-120.09499,51.34158],[-120.10124,51.34158],[-120.10124,51.34574],[-120.10124,51.34991]]]}},{"type":"Feature","properties":{"c":"523841","o":"ELLERBECK, KENNETH CECIL","e":"2030-12-04Z"},"geometry":{"type":"Polygon","coordinates":[[[-120.06374,51.38325],[-120.06999,51.38325],[-120.06999,51.38742],[-120.06374,51.38742],[-120.06374,51.38325]]]}},{"type":"Feature","properties":{"c":"529300","o":"NEWPORT EXPLORATION LTD.","e":"2027-03-31Z"},"geometry":{"type":"Polygon","coordinates":[[[-120.08249,51.38325],[-120.07624,51.38325],[-120.06999,51.38325],[-120.06374,51.38325],[-120.05749,51.38325],[-120.05749,51.37908],[-120.05749,51.37492],[-120.06374,51.37492],[-120.06999,51.37492],[-120.07624,51.37492],[-120.08249,51.37492],[-120.08249,51.37908],[-120.08249,51.38325]]]}},{"type":"Feature","properties":{"c":"529301","o":"NEWPORT EXPLORATION LTD.","e":"2027-03-31Z"},"geometry":{"type":"Polygon","coordinates":[[[-120.08249,51.37492],[-120.07624,51.37492],[-120.06999,51.37492],[-120.06374,51.37492],[-120.06374,51.37075],[-120.06374,51.36658],[-120.06999,51.36658],[-120.07624,51.36658],[-120.08249,51.36658],[-120.08249,51.37075],[-120.08249,51.37492]]]}},{"type":"Feature","properties":{"c":"612004","o":"BILQUIST, RONALD JOHN","e":"2027-04-12Z"},"geometry":{"type":"Polygon","coordinates":[[[-120.27,51.25823],[-120.26375,51.25823],[-120.2575,51.25823],[-120.25125,51.25823],[-120.245,51.25823],[-120.245,51.25407],[-120.245,51.2499],[-120.245,51.24573],[-120.245,51.24156],[-120.25125,51.24156],[-120.2575,51.24157],[-120.26375,51.24157],[-120.27,51.24157],[-120.27,51.24573],[-120.27,51.2499],[-120.27,51.25407],[-120.27,51.25823]]]}},{"type":"Feature","properties":{"c":"509726","o":"AMERICAN CREEK RESOURCES LTD.","e":"2026-11-01Z"},"geometry":{"type":"Polygon","coordinates":[[[-120.45751,51.01658],[-120.45126,51.01658],[-120.44501,51.01658],[-120.44501,51.01241],[-120.44501,51.00824],[-120.45126,51.00824],[-120.45126,51.00408],[-120.45751,51.00408],[-120.45751,51.00824],[-120.45751,51.01241],[-120.45751,51.01658]]]}},{"type":"Feature","properties":{"c":"1033059","o":"TILAVA MINING CORPORATION","e":"2027-05-20Z"},"geometry":{"type":"Polygon","coordinates":[[[-120.28876,51.49576],[-120.28251,51.49576],[-120.27626,51.49576],[-120.27001,51.49576],[-120.27001,51.49159],[-120.27001,51.48743],[-120.27001,51.48326],[-120.27001,51.47909],[-120.27626,51.47909],[-120.28251,51.47909],[-120.28876,51.47909],[-120.28876,51.48326],[-120.28876,51.48743],[-120.28876,51.49159],[-120.28876,51.49576]]]}},{"type":"Feature","properties":{"c":"1033061","o":"TILAVA MINING CORPORATION","e":"2027-05-20Z"},"geometry":{"type":"Polygon","coordinates":[[[-120.29501,51.49159],[-120.28876,51.49159],[-120.28876,51.48743],[-120.28876,51.48326],[-120.28876,51.47909],[-120.29501,51.47909],[-120.29501,51.48326],[-120.29501,51.48743],[-120.29501,51.49159]]]}},{"type":"Feature","properties":{"c":"1029016","o":"ELLERBECK, KENNETH CECIL","e":"2030-12-04Z"},"geometry":{"type":"Polygon","coordinates":[[[-120.06374,51.37492],[-120.05749,51.37492],[-120.05124,51.37492],[-120.05124,51.37075],[-120.05124,51.36658],[-120.05749,51.36658],[-120.06374,51.36658],[-120.06374,51.37075],[-120.06374,51.37492]]]}},{"type":"Feature","properties":{"c":"1029450","o":"GROSVENOR RESOURCE CORPORATION","e":"2035-09-01Z"},"geometry":{"type":"Polygon","coordinates":[[[-120.2075,51.32074],[-120.20125,51.32074],[-120.195,51.32074],[-120.195,51.31657],[-120.195,51.3124],[-120.20125,51.3124],[-120.2075,51.3124],[-120.2075,51.31657],[-120.2075,51.32074]]]}},{"type":"Feature","properties":{"c":"1029467","o":"GROSVENOR RESOURCE CORPORATION","e":"2035-09-01Z"},"geometry":{"type":"Polygon","coordinates":[[[-120.195,51.32074],[-120.18875,51.32074],[-120.18875,51.31657],[-120.18875,51.3124],[-120.195,51.3124],[-120.195,51.31657],[-120.195,51.32074]]]}},{"type":"Feature","properties":{"c":"1074164","o":"FENNELL, THOMAS CHARLES","e":"2027-01-28Z"},"geometry":{"type":"Polygon","coordinates":[[[-120.10124,51.40825],[-120.10124,51.40409],[-120.10749,51.40409],[-120.11374,51.40409],[-120.11374,51.40825],[-120.10749,51.40825],[-120.10124,51.40825]]]}},{"type":"Feature","properties":{"c":"1055177","o":"ELLERBECK, KENNETH CECIL","e":"2030-12-04Z"},"geometry":{"type":"Polygon","coordinates":[[[-120.05749,51.38325],[-120.06374,51.38325],[-120.06374,51.38742],[-120.05749,51.38742],[-120.05749,51.38325]]]}},{"type":"Feature","properties":{"c":"1055261","o":"PRIOR, GLEN J","e":"2028-10-01Z"},"geometry":{"type":"Polygon","coordinates":[[[-119.98874,51.34992],[-119.98874,51.34575],[-119.99499,51.34575],[-120.00124,51.34575],[-120.00124,51.34991],[-119.99499,51.34992],[-119.98874,51.34992]]]}},{"type":"Feature","properties":{"c":"1078704","o":"BILQUIST, RONALD JOHN","e":"2027-04-12Z"},"geometry":{"type":"MultiPolygon","coordinates":[[[[-120.30751,51.2624],[-120.30126,51.2624],[-120.29501,51.2624],[-120.28876,51.2624],[-120.2825,51.2624],[-120.27625,51.2624],[-120.27,51.2624],[-120.26375,51.2624],[-120.2575,51.2624],[-120.25125,51.2624],[-120.245,51.2624],[-120.23875,51.2624],[-120.23875,51.25823],[-120.23875,51.25407],[-120.23875,51.2499],[-120.23875,51.24573],[-120.23875,51.24156],[-120.23875,51.2374],[-120.23875,51.23323],[-120.23875,51.22906],[-120.23875,51.2249],[-120.23875,51.22073],[-120.23875,51.21656],[-120.245,51.21656],[-120.25125,51.21656],[-120.2575,51.21656],[-120.26375,51.21656],[-120.26375,51.22073],[-120.27,51.22073],[-120.27625,51.22073],[-120.2825,51.22073],[-120.28875,51.22073],[-120.28875,51.2249],[-120.28875,51.22907],[-120.28875,51.23323],[-120.28875,51.2374],[-120.28875,51.24157],[-120.28875,51.24573],[-120.28875,51.2499],[-120.28875,51.25407],[-120.29501,51.25407],[-120.30126,51.25407],[-120.30751,51.25407],[-120.30751,51.25824],[-120.30751,51.2624]],[[-120.27,51.25407],[-120.27,51.2499],[-120.27,51.24573],[-120.27,51.24157],[-120.26375,51.24157],[-120.2575,51.24157],[-120.25125,51.24156],[-120.245,51.24156],[-120.245,51.24573],[-120.245,51.2499],[-120.245,51.25407],[-120.245,51.25823],[-120.25125,51.25823],[-120.2575,51.25823],[-120.26375,51.25823],[-120.27,51.25823],[-120.27,51.25407]]]]}},{"type":"Feature","properties":{"c":"1072311","o":"RHOADES, KYLE ALEXANDER","e":"2028-12-01Z"},"geometry":{"type":"Polygon","coordinates":[[[-120.09499,51.12073],[-120.10124,51.12073],[-120.10124,51.12489],[-120.09499,51.12489],[-120.09499,51.12073]]]}},{"type":"Feature","properties":{"c":"1063445","o":"TILAVA MINING CORPORATION","e":"2027-05-20Z"},"geometry":{"type":"Polygon","coordinates":[[[-120.30126,51.48743],[-120.29501,51.48743],[-120.29501,51.48326],[-120.29501,51.47909],[-120.30126,51.47909],[-120.30126,51.48326],[-120.30126,51.48743]]]}},{"type":"Feature","properties":{"c":"1091263","o":"TRAILBREAKER RESOURCES LTD.","e":"2031-02-01Z"},"geometry":{"type":"Polygon","coordinates":[[[-120.32626,51.48742],[-120.32001,51.48742],[-120.32001,51.48326],[-120.32626,51.48326],[-120.33251,51.48326],[-120.33876,51.48326],[-120.33876,51.48742],[-120.33251,51.48742],[-120.32626,51.48742]]]}},{"type":"Feature","properties":{"c":"1091250","o":"TRAILBREAKER RESOURCES LTD.","e":"2031-02-01Z"},"geometry":{"type":"Polygon","coordinates":[[[-120.35126,51.49576],[-120.34501,51.49576],[-120.33876,51.49576],[-120.33876,51.49159],[-120.33876,51.48742],[-120.33876,51.48326],[-120.33876,51.47909],[-120.33251,51.47909],[-120.32626,51.47909],[-120.32001,51.47909],[-120.31376,51.47909],[-120.30751,51.47909],[-120.30126,51.47909],[-120.30126,51.47492],[-120.30751,51.47492],[-120.31376,51.47492],[-120.32001,51.47492],[-120.32626,51.47492],[-120.33251,51.47492],[-120.33876,51.47492],[-120.34501,51.47492],[-120.35126,51.47492],[-120.35126,51.47909],[-120.35126,51.48326],[-120.35126,51.48742],[-120.35126,51.49159],[-120.35126,51.49576]]]}},{"type":"Feature","properties":{"c":"1090717","o":"TRAILBREAKER RESOURCES LTD.","e":"2031-02-01Z"},"geometry":{"type":"Polygon","coordinates":[[[-120.36377,51.49576],[-120.35752,51.49576],[-120.35752,51.49159],[-120.35752,51.48742],[-120.35752,51.48326],[-120.35752,51.47909],[-120.35752,51.47492],[-120.35752,51.47076],[-120.35752,51.46659],[-120.36377,51.46659],[-120.36377,51.47076],[-120.36377,51.47492],[-120.36377,51.47909],[-120.36377,51.48326],[-120.36377,51.48742],[-120.36377,51.49159],[-120.36377,51.49576]]]}},{"type":"Feature","properties":{"c":"1090695","o":"TRAILBREAKER RESOURCES LTD.","e":"2031-02-01Z"},"geometry":{"type":"Polygon","coordinates":[[[-120.35752,51.49576],[-120.35126,51.49576],[-120.35126,51.49159],[-120.35126,51.48742],[-120.35126,51.48326],[-120.35126,51.47909],[-120.35126,51.47492],[-120.34501,51.47492],[-120.33876,51.47492],[-120.33251,51.47492],[-120.33251,51.47076],[-120.33876,51.47076],[-120.34501,51.47076],[-120.34501,51.46659],[-120.35126,51.46659],[-120.35752,51.46659],[-120.35752,51.47076],[-120.35752,51.47492],[-120.35752,51.47909],[-120.35752,51.48326],[-120.35752,51.48742],[-120.35752,51.49159],[-120.35752,51.49576]]]}},{"type":"Feature","properties":{"c":"1091262","o":"TRAILBREAKER RESOURCES LTD.","e":"2031-02-01Z"},"geometry":{"type":"Polygon","coordinates":[[[-120.33251,51.48742],[-120.33876,51.48742],[-120.33876,51.49159],[-120.33251,51.49159],[-120.33251,51.48742]]]}},{"type":"Feature","properties":{"c":"1091270","o":"TRAILBREAKER RESOURCES LTD.","e":"2031-02-01Z"},"geometry":{"type":"Polygon","coordinates":[[[-120.32626,51.48326],[-120.32001,51.48326],[-120.32001,51.47909],[-120.32626,51.47909],[-120.33251,51.47909],[-120.33876,51.47909],[-120.33876,51.48326],[-120.33251,51.48326],[-120.32626,51.48326]]]}},{"type":"Feature","properties":{"c":"1091241","o":"TRAILBREAKER RESOURCES LTD.","e":"2031-02-01Z"},"geometry":{"type":"Polygon","coordinates":[[[-120.29501,51.51243],[-120.28876,51.51243],[-120.28876,51.50826],[-120.28876,51.50409],[-120.28251,51.50409],[-120.28251,51.49993],[-120.27626,51.49993],[-120.27001,51.49993],[-120.26376,51.49993],[-120.26376,51.49576],[-120.26376,51.49159],[-120.26376,51.48743],[-120.26376,51.48326],[-120.26376,51.47909],[-120.26376,51.47492],[-120.27001,51.47492],[-120.27626,51.47492],[-120.28251,51.47492],[-120.28876,51.47492],[-120.29501,51.47492],[-120.30126,51.47492],[-120.30126,51.47909],[-120.29501,51.47909],[-120.28876,51.47909],[-120.28251,51.47909],[-120.27626,51.47909],[-120.27001,51.47909],[-120.27001,51.48326],[-120.27001,51.48743],[-120.27001,51.49159],[-120.27001,51.49576],[-120.27626,51.49576],[-120.28251,51.49576],[-120.28876,51.49576],[-120.28876,51.49993],[-120.29501,51.49993],[-120.29501,51.50409],[-120.29501,51.50826],[-120.29501,51.51243]]]}},{"type":"Feature","properties":{"c":"1091249","o":"TRAILBREAKER RESOURCES LTD.","e":"2031-02-01Z"},"geometry":{"type":"Polygon","coordinates":[[[-120.32001,51.49993],[-120.31376,51.49993],[-120.30751,51.49993],[-120.30126,51.49993],[-120.29501,51.49993],[-120.28876,51.49993],[-120.28876,51.49576],[-120.28876,51.49159],[-120.29501,51.49159],[-120.29501,51.48743],[-120.30126,51.48743],[-120.30126,51.48326],[-120.30751,51.48326],[-120.30751,51.48743],[-120.30751,51.49159],[-120.31376,51.49159],[-120.31376,51.48742],[-120.31376,51.48326],[-120.32001,51.48326],[-120.32001,51.48742],[-120.32001,51.49159],[-120.32001,51.49576],[-120.32001,51.49993]]]}},{"type":"Feature","properties":{"c":"1091213","o":"TRAILBREAKER RESOURCES LTD.","e":"2031-02-01Z"},"geometry":{"type":"Polygon","coordinates":[[[-120.32626,51.49576],[-120.32001,51.49576],[-120.32001,51.49159],[-120.32001,51.48742],[-120.32626,51.48742],[-120.33251,51.48742],[-120.33251,51.49159],[-120.33876,51.49159],[-120.33876,51.49576],[-120.33251,51.49576],[-120.32626,51.49576]]]}},{"type":"Feature","properties":{"c":"1101235","o":"AMERICAN CREEK RESOURCES LTD.","e":"2026-11-01Z"},"geometry":{"type":"Polygon","coordinates":[[[-120.44501,51.02074],[-120.45126,51.02074],[-120.45126,51.02491],[-120.44501,51.02491],[-120.44501,51.02074]]]}},{"type":"Feature","properties":{"c":"1101292","o":"AMERICAN CREEK RESOURCES LTD.","e":"2026-11-01Z"},"geometry":{"type":"Polygon","coordinates":[[[-120.46376,51.02908],[-120.45751,51.02908],[-120.45126,51.02908],[-120.44501,51.02908],[-120.44501,51.02491],[-120.45126,51.02491],[-120.45126,51.02074],[-120.45751,51.02074],[-120.46376,51.02074],[-120.46376,51.02491],[-120.46376,51.02908]]]}},{"type":"Feature","properties":{"c":"1101297","o":"AMERICAN CREEK RESOURCES LTD.","e":"2026-11-01Z"},"geometry":{"type":"Polygon","coordinates":[[[-120.43876,51.02491],[-120.44501,51.02491],[-120.44501,51.02908],[-120.43876,51.02908],[-120.43876,51.02491]]]}},{"type":"Feature","properties":{"c":"1102455","o":"FUNK, KELLY BRENT","e":"2027-11-30Z"},"geometry":{"type":"Polygon","coordinates":[[[-120.46376,50.99157],[-120.45751,50.99157],[-120.45126,50.99157],[-120.44501,50.99157],[-120.43875,50.99157],[-120.4325,50.99157],[-120.42625,50.99157],[-120.42,50.99158],[-120.41375,50.99157],[-120.41375,50.99574],[-120.41375,50.99991],[-120.41375,51.00408],[-120.41375,51.00824],[-120.41375,51.01241],[-120.41375,51.01658],[-120.41375,51.02074],[-120.42,51.02074],[-120.42625,51.02074],[-120.43251,51.02074],[-120.43251,51.02491],[-120.43251,51.02908],[-120.42625,51.02908],[-120.42,51.02908],[-120.42,51.03325],[-120.42,51.03741],[-120.41375,51.03741],[-120.4075,51.03741],[-120.40125,51.03741],[-120.40125,51.03324],[-120.40125,51.02908],[-120.40125,51.02491],[-120.40125,51.02074],[-120.40125,51.01658],[-120.40125,51.01241],[-120.40125,51.00824],[-120.40125,51.00408],[-120.40125,50.99991],[-120.40125,50.99574],[-120.40125,50.99157],[-120.40125,50.98741],[-120.40125,50.98324],[-120.4075,50.98324],[-120.41375,50.98324],[-120.42,50.98324],[-120.42625,50.98324],[-120.4325,50.98324],[-120.43875,50.98324],[-120.445,50.98324],[-120.45126,50.98324],[-120.45751,50.98324],[-120.46376,50.98324],[-120.46376,50.98741],[-120.46376,50.99157]]]}},{"type":"Feature","properties":{"c":"1064600","o":"KEATING, BEVERLEY KENT LAURENCE","e":"2028-05-15Z"},"geometry":{"type":"Polygon","coordinates":[[[-120.28876,51.47076],[-120.28251,51.47076],[-120.28251,51.46659],[-120.28251,51.46242],[-120.28876,51.46242],[-120.28876,51.46659],[-120.28876,51.47076]]]}},{"type":"Feature","properties":{"c":"1062345","o":"KEATING, BEVERLEY KENT LAURENCE","e":"2028-05-15Z"},"geometry":{"type":"Polygon","coordinates":[[[-120.27626,51.46242],[-120.28251,51.46242],[-120.28251,51.46659],[-120.27626,51.46659],[-120.27626,51.46242]]]}},{"type":"Feature","properties":{"c":"1096572","o":"ELLERBECK, KENNETH CECIL","e":"2029-10-05Z"},"geometry":{"type":"Polygon","coordinates":[[[-120.00749,51.30824],[-120.00124,51.30824],[-119.99499,51.30824],[-119.99499,51.30408],[-119.99499,51.29991],[-119.98874,51.29991],[-119.98874,51.29574],[-119.98874,51.29157],[-119.99499,51.29157],[-119.99499,51.28741],[-119.99499,51.28324],[-119.99499,51.27907],[-119.99499,51.27491],[-120.00124,51.27491],[-120.00124,51.27907],[-120.00124,51.28324],[-120.00124,51.28741],[-120.00749,51.28741],[-120.01374,51.28741],[-120.01374,51.29157],[-120.00749,51.29157],[-120.00749,51.29574],[-120.00749,51.29991],[-120.00749,51.30408],[-120.00749,51.30824]]]}},{"type":"Feature","properties":{"c":"1101242","o":"AMERICAN CREEK RESOURCES LTD.","e":"2026-11-01Z"},"geometry":{"type":"Polygon","coordinates":[[[-120.46376,51.02074],[-120.45751,51.02074],[-120.45126,51.02074],[-120.45126,51.01658],[-120.45751,51.01658],[-120.45751,51.01241],[-120.45751,51.00824],[-120.45751,51.00408],[-120.46376,51.00407],[-120.46376,51.00824],[-120.46376,51.01241],[-120.46376,51.01658],[-120.46376,51.02074]]]}},{"type":"Feature","properties":{"c":"1102501","o":"FUNK, KELLY BRENT","e":"2027-11-30Z"},"geometry":{"type":"Polygon","coordinates":[[[-120.46376,50.98324],[-120.45751,50.98324],[-120.45126,50.98324],[-120.445,50.98324],[-120.43875,50.98324],[-120.4325,50.98324],[-120.42625,50.98324],[-120.42,50.98324],[-120.41375,50.98324],[-120.4075,50.98324],[-120.40125,50.98324],[-120.40125,50.98741],[-120.40125,50.99157],[-120.40125,50.99574],[-120.40125,50.99991],[-120.40125,51.00408],[-120.40125,51.00824],[-120.40125,51.01241],[-120.40125,51.01658],[-120.40125,51.02074],[-120.40125,51.02491],[-120.40125,51.02908],[-120.40125,51.03324],[-120.40125,51.03741],[-120.395,51.03741],[-120.38875,51.03741],[-120.38875,51.03324],[-120.38875,51.02908],[-120.38875,51.02491],[-120.38875,51.02074],[-120.38875,51.01658],[-120.38875,51.01241],[-120.38875,51.00824],[-120.38875,51.00407],[-120.38875,50.99991],[-120.38875,50.99574],[-120.38875,50.99157],[-120.38875,50.98741],[-120.38875,50.98324],[-120.38875,50.97907],[-120.38875,50.9749],[-120.395,50.97491],[-120.40125,50.97491],[-120.4075,50.97491],[-120.41375,50.97491],[-120.42,50.97491],[-120.42625,50.97491],[-120.4325,50.97491],[-120.43875,50.97491],[-120.445,50.97491],[-120.45126,50.97491],[-120.45751,50.97491],[-120.46376,50.9749],[-120.46376,50.97907],[-120.46376,50.98324]]]}},{"type":"Feature","properties":{"c":"1066752","o":"HALCRO, KEVIN JAMES","e":"2027-11-01Z"},"geometry":{"type":"Polygon","coordinates":[[[-120.23875,51.44992],[-120.2325,51.44992],[-120.2325,51.44576],[-120.23875,51.44576],[-120.245,51.44576],[-120.25126,51.44575],[-120.25126,51.44992],[-120.245,51.44992],[-120.23875,51.44992]]]}},{"type":"Feature","properties":{"c":"1098413","o":"ELLERBECK, KENNETH CECIL","e":"2035-10-20Z"},"geometry":{"type":"Polygon","coordinates":[[[-120.05124,51.37492],[-120.05749,51.37492],[-120.05749,51.37908],[-120.05124,51.37908],[-120.05124,51.37492]]]}},{"type":"Feature","properties":{"c":"1101276","o":"AMERICAN CREEK RESOURCES LTD.","e":"2026-11-01Z"},"geometry":{"type":"Polygon","coordinates":[[[-120.45751,50.99991],[-120.46376,50.99991],[-120.46376,51.00407],[-120.45751,51.00408],[-120.45751,50.99991]]]}},{"type":"Feature","properties":{"c":"1095830","o":"CUNNING, TERRY DAVID","e":"2028-02-25Z"},"geometry":{"type":"Polygon","coordinates":[[[-120.11999,51.12489],[-120.12624,51.12489],[-120.12624,51.12906],[-120.11999,51.12906],[-120.11999,51.12489]]]}},{"type":"Feature","properties":{"c":"1094459","o":"KEATING, BEVERLEY KENT LAURENCE","e":"2028-05-15Z"},"geometry":{"type":"Polygon","coordinates":[[[-120.27626,51.46659],[-120.27001,51.46659],[-120.27001,51.46242],[-120.27001,51.45826],[-120.27626,51.45826],[-120.27626,51.46242],[-120.27626,51.46659]]]}},{"type":"Feature","properties":{"c":"1065878","o":"NEW GOLD INC.","e":"2028-04-30Z"},"geometry":{"type":"Polygon","coordinates":[[[-120.29501,51.50409],[-120.29501,51.49993],[-120.30126,51.49993],[-120.30751,51.49993],[-120.30751,51.50409],[-120.30126,51.50409],[-120.29501,51.50409]]]}},{"type":"Feature","properties":{"c":"1066592","o":"NEW GOLD INC.","e":"2028-04-30Z"},"geometry":{"type":"Polygon","coordinates":[[[-120.30751,51.49993],[-120.31376,51.49993],[-120.31376,51.50409],[-120.30751,51.50409],[-120.30751,51.49993]]]}},{"type":"Feature","properties":{"c":"1066664","o":"NEW GOLD INC.","e":"2028-04-30Z"},"geometry":{"type":"Polygon","coordinates":[[[-120.32626,51.51243],[-120.32001,51.51243],[-120.32001,51.50826],[-120.32001,51.50409],[-120.31376,51.50409],[-120.31376,51.49993],[-120.32001,51.49993],[-120.32626,51.49993],[-120.32626,51.50409],[-120.32626,51.50826],[-120.32626,51.51243]]]}},{"type":"Feature","properties":{"c":"1091124","o":"KEATING, BEVERLEY KENT LAURENCE","e":"2028-05-15Z"},"geometry":{"type":"Polygon","coordinates":[[[-120.28876,51.46659],[-120.29501,51.46659],[-120.29501,51.47076],[-120.28876,51.47076],[-120.28876,51.46659]]]}},{"type":"Feature","properties":{"c":"1060668","o":"TRAILBREAKER RESOURCES LTD.","e":"2031-02-01Z"},"geometry":{"type":"Polygon","coordinates":[[[-120.31376,51.49159],[-120.30751,51.49159],[-120.30751,51.48743],[-120.30751,51.48326],[-120.31376,51.48326],[-120.31376,51.48742],[-120.31376,51.49159]]]}},{"type":"Feature","properties":{"c":"1091115","o":"TRAILBREAKER RESOURCES LTD.","e":"2031-02-01Z"},"geometry":{"type":"Polygon","coordinates":[[[-120.30751,51.48326],[-120.30126,51.48326],[-120.30126,51.47909],[-120.30751,51.47909],[-120.31376,51.47909],[-120.32001,51.47909],[-120.32001,51.48326],[-120.31376,51.48326],[-120.30751,51.48326]]]}},{"type":"Feature","properties":{"c":"1095454","o":"LEBLANC, DAVID GLENN","e":"2030-05-31Z"},"geometry":{"type":"Polygon","coordinates":[[[-120.00124,51.07489],[-120.00749,51.07489],[-120.00749,51.07906],[-120.00124,51.07906],[-120.00124,51.07489]]]}},{"type":"Feature","properties":{"c":"1091210","o":"WOODWORTH, BRYAN ALAN","e":"2026-12-25Z"},"geometry":{"type":"Polygon","coordinates":[[[-120.06374,51.11656],[-120.06374,51.11239],[-120.06374,51.10823],[-120.06999,51.10823],[-120.06999,51.11239],[-120.07624,51.11239],[-120.07624,51.11656],[-120.06999,51.11656],[-120.06374,51.11656]]]}},{"type":"Feature","properties":{"c":"1082677","o":"WOODWORTH, BRYAN ALAN","e":"2027-04-14Z"},"geometry":{"type":"Polygon","coordinates":[[[-120.08249,51.12489],[-120.08249,51.12073],[-120.07624,51.12073],[-120.07624,51.11656],[-120.08249,51.11656],[-120.08874,51.11656],[-120.08874,51.12073],[-120.09499,51.12073],[-120.09499,51.12489],[-120.08874,51.12489],[-120.08249,51.12489]]]}},{"type":"Feature","properties":{"c":"1101232","o":"AMERICAN CREEK RESOURCES LTD.","e":"2026-11-01Z"},"geometry":{"type":"Polygon","coordinates":[[[-120.44501,51.01658],[-120.45126,51.01658],[-120.45126,51.02074],[-120.44501,51.02074],[-120.44501,51.01658]]]}},{"type":"Feature","properties":{"c":"1102471","o":"FUNK, KELLY BRENT","e":"2027-11-30Z"},"geometry":{"type":"Polygon","coordinates":[[[-120.47001,50.99991],[-120.46376,50.99991],[-120.45751,50.99991],[-120.45751,51.00408],[-120.45126,51.00408],[-120.45126,51.00824],[-120.44501,51.00824],[-120.44501,51.01241],[-120.44501,51.01658],[-120.44501,51.02074],[-120.43876,51.02074],[-120.43251,51.02074],[-120.42625,51.02074],[-120.42,51.02074],[-120.41375,51.02074],[-120.41375,51.01658],[-120.41375,51.01241],[-120.41375,51.00824],[-120.41375,51.00408],[-120.41375,50.99991],[-120.41375,50.99574],[-120.41375,50.99157],[-120.42,50.99158],[-120.42625,50.99157],[-120.4325,50.99157],[-120.43875,50.99157],[-120.44501,50.99157],[-120.45126,50.99157],[-120.45751,50.99157],[-120.46376,50.99157],[-120.47001,50.99157],[-120.47001,50.99574],[-120.47001,50.99991]]]}},{"type":"Feature","properties":{"c":"1112808","o":"CHAPPELLE, KENNETH WILLIAM","e":"2026-11-06Z"},"geometry":{"type":"Polygon","coordinates":[[[-120.42001,51.12491],[-120.42626,51.12491],[-120.42626,51.12908],[-120.42001,51.12908],[-120.42001,51.12491]]]}},{"type":"Feature","properties":{"c":"1106797","o":"EAGLE PLAINS RESOURCES LTD.","e":"2027-02-22Z"},"geometry":{"type":"Polygon","coordinates":[[[-120.34501,51.52076],[-120.33876,51.52076],[-120.33251,51.52076],[-120.32626,51.52076],[-120.32001,51.52076],[-120.32001,51.51659],[-120.32001,51.51243],[-120.32626,51.51243],[-120.32626,51.50826],[-120.32626,51.50409],[-120.32626,51.49993],[-120.32001,51.49993],[-120.32001,51.49576],[-120.32626,51.49576],[-120.33251,51.49576],[-120.33876,51.49576],[-120.34501,51.49576],[-120.34501,51.49993],[-120.34501,51.50409],[-120.34501,51.50826],[-120.34501,51.51243],[-120.34501,51.51659],[-120.34501,51.52076]]]}},{"type":"Feature","properties":{"c":"1112760","o":"REIBIN, LANCE CHRISTOPHER","e":"2032-08-18Z"},"geometry":{"type":"Polygon","coordinates":[[[-120.25126,51.44575],[-120.25751,51.44576],[-120.25751,51.44992],[-120.25126,51.44992],[-120.25126,51.44575]]]}},{"type":"Feature","properties":{"c":"1106809","o":"ADAMSON, CHRISTOPHER","e":"2025-03-01Z"},"geometry":{"type":"Polygon","coordinates":[[[-120.28876,51.51659],[-120.28251,51.51659],[-120.27626,51.51659],[-120.27001,51.51659],[-120.26376,51.51659],[-120.25751,51.51659],[-120.25751,51.51243],[-120.25751,51.50826],[-120.25751,51.50409],[-120.26376,51.50409],[-120.26376,51.49993],[-120.27001,51.49993],[-120.27626,51.49993],[-120.28251,51.49993],[-120.28251,51.50409],[-120.28876,51.50409],[-120.28876,51.50826],[-120.28876,51.51243],[-120.28876,51.51659]]]}},{"type":"Feature","properties":{"c":"1123665","o":"SELLINGER, ROBERT FULTON","e":"2032-01-04Z"},"geometry":{"type":"Polygon","coordinates":[[[-120.22,51.45826],[-120.21375,51.45826],[-120.21375,51.45409],[-120.21375,51.44992],[-120.22,51.44992],[-120.22,51.45409],[-120.22,51.45826]]]}},{"type":"Feature","properties":{"c":"1106834","o":"EAGLE PLAINS RESOURCES LTD.","e":"2027-02-22Z"},"geometry":{"type":"Polygon","coordinates":[[[-120.37002,51.51243],[-120.36377,51.51243],[-120.35752,51.51243],[-120.35126,51.51243],[-120.34501,51.51243],[-120.34501,51.50826],[-120.34501,51.50409],[-120.34501,51.49993],[-120.35126,51.49992],[-120.35126,51.50409],[-120.35752,51.50409],[-120.36377,51.50409],[-120.37002,51.50409],[-120.37627,51.50409],[-120.37627,51.50826],[-120.38252,51.50826],[-120.38252,51.51242],[-120.37627,51.51242],[-120.37002,51.51243]]]}},{"type":"Feature","properties":{"c":"1112348","o":"PUT, JARED GUSTAF","e":"2029-03-05Z"},"geometry":{"type":"Polygon","coordinates":[[[-120.00749,51.36242],[-120.00749,51.36658],[-120.00749,51.37075],[-120.00749,51.37492],[-120.00124,51.37492],[-120.00124,51.37075],[-120.00124,51.36658],[-119.99499,51.36658],[-119.98874,51.36658],[-119.98249,51.36658],[-119.97624,51.36658],[-119.97624,51.36242],[-119.98249,51.36242],[-119.98874,51.36242],[-119.99499,51.36242],[-120.00124,51.36242],[-120.00749,51.36242]]]}},{"type":"Feature","properties":{"c":"1107416","o":"HARTFIELD, JASON EDWARD","e":"2027-09-26Z"},"geometry":{"type":"Polygon","coordinates":[[[-120.27001,51.46242],[-120.26376,51.46242],[-120.26376,51.45826],[-120.26376,51.45409],[-120.25751,51.45409],[-120.25751,51.44992],[-120.25751,51.44576],[-120.26376,51.44575],[-120.26376,51.44992],[-120.27001,51.44992],[-120.27001,51.45409],[-120.27001,51.45826],[-120.27001,51.46242]]]}},{"type":"Feature","properties":{"c":"1125933","o":"TURNAGAIN RESOURCES INC.","e":"2029-09-03Z"},"geometry":{"type":"Polygon","coordinates":[[[-120.10749,51.41659],[-120.10124,51.41659],[-120.09499,51.41659],[-120.09499,51.41242],[-120.10124,51.41242],[-120.10124,51.40825],[-120.10749,51.40825],[-120.10749,51.41242],[-120.10749,51.41659]]]}},{"type":"Feature","properties":{"c":"1125929","o":"TURNAGAIN RESOURCES INC.","e":"2029-09-03Z"},"geometry":{"type":"Polygon","coordinates":[[[-120.10124,51.44159],[-120.09499,51.44159],[-120.09499,51.44576],[-120.08874,51.44576],[-120.08874,51.44992],[-120.08249,51.44992],[-120.07624,51.44992],[-120.07624,51.45409],[-120.06999,51.45409],[-120.06999,51.44992],[-120.06999,51.44576],[-120.06999,51.44159],[-120.06999,51.43742],[-120.06999,51.43326],[-120.07624,51.43326],[-120.07624,51.42909],[-120.08249,51.42909],[-120.08874,51.42909],[-120.09499,51.42909],[-120.09499,51.43326],[-120.10124,51.43326],[-120.10124,51.43742],[-120.10124,51.44159]]]}},{"type":"Feature","properties":{"c":"1113164","o":"REIBIN, LANCE CHRISTOPHER","e":"2028-01-03Z"},"geometry":{"type":"Polygon","coordinates":[[[-120.27626,51.47076],[-120.27001,51.47076],[-120.27001,51.46659],[-120.26376,51.46659],[-120.26376,51.46242],[-120.26376,51.45826],[-120.27001,51.45826],[-120.27001,51.46242],[-120.27626,51.46242],[-120.27626,51.46659],[-120.27626,51.47076]]]}},{"type":"Feature","properties":{"c":"1132350","o":"FUNK, KELLY BRENT","e":"2027-04-20Z"},"geometry":{"type":"Polygon","coordinates":[[[-120.05124,51.38742],[-120.04499,51.38742],[-120.04499,51.38325],[-120.04499,51.37908],[-120.04499,51.37492],[-120.05124,51.37492],[-120.05124,51.37908],[-120.05124,51.38325],[-120.05124,51.38742]]]}},{"type":"Feature","properties":{"c":"1132706","o":"MILLAR, STEPHEN ALEXANDER","e":"2027-05-01Z"},"geometry":{"type":"Polygon","coordinates":[[[-120.1325,51.44992],[-120.13875,51.44992],[-120.13875,51.45409],[-120.1325,51.45409],[-120.1325,51.44992]]]}},{"type":"Feature","properties":{"c":"1118947","o":"PUT, JARED GUSTAF","e":"2029-03-05Z"},"geometry":{"type":"Polygon","coordinates":[[[-120.01374,51.38742],[-120.00749,51.38742],[-120.00124,51.38742],[-120.00124,51.38325],[-120.00124,51.37909],[-120.00124,51.37492],[-120.00749,51.37492],[-120.01374,51.37492],[-120.01374,51.37909],[-120.01374,51.38325],[-120.01374,51.38742]]]}},{"type":"Feature","properties":{"c":"1138528","o":"EAGLE PLAINS RESOURCES LTD.","e":"2027-09-03Z"},"geometry":{"type":"Polygon","coordinates":[[[-120.44502,51.51659],[-120.43877,51.51659],[-120.43252,51.51659],[-120.43252,51.51242],[-120.42627,51.51242],[-120.42627,51.50826],[-120.42002,51.50826],[-120.41377,51.50826],[-120.40752,51.50826],[-120.40752,51.50409],[-120.40127,51.50409],[-120.39502,51.50409],[-120.38877,51.50409],[-120.38252,51.50409],[-120.38252,51.49992],[-120.38252,51.49576],[-120.38877,51.49576],[-120.39502,51.49576],[-120.40127,51.49576],[-120.40752,51.49576],[-120.40752,51.49159],[-120.41377,51.49159],[-120.41377,51.49576],[-120.42002,51.49576],[-120.42627,51.49576],[-120.43252,51.49576],[-120.43877,51.49576],[-120.44502,51.49576],[-120.45127,51.49576],[-120.45127,51.49992],[-120.45127,51.50409],[-120.45127,51.50826],[-120.45127,51.51242],[-120.45752,51.51242],[-120.45752,51.51659],[-120.45127,51.51659],[-120.44502,51.51659]]]}},{"type":"Feature","properties":{"c":"1138560","o":"REIBIN, LANCE CHRISTOPHER","e":"2027-09-03Z"},"geometry":{"type":"Polygon","coordinates":[[[-120.27001,51.45826],[-120.27626,51.45826],[-120.27626,51.46242],[-120.27001,51.46242],[-120.27001,51.45826]]]}},{"type":"Feature","properties":{"c":"1138561","o":"REIBIN, LANCE CHRISTOPHER","e":"2027-09-03Z"},"geometry":{"type":"Polygon","coordinates":[[[-120.27626,51.45826],[-120.28251,51.45826],[-120.28251,51.46242],[-120.27626,51.46242],[-120.27626,51.45826]]]}},{"type":"Feature","properties":{"c":"1138562","o":"REIBIN, LANCE CHRISTOPHER","e":"2027-09-03Z"},"geometry":{"type":"Polygon","coordinates":[[[-120.27001,51.47492],[-120.26376,51.47492],[-120.26376,51.47076],[-120.26376,51.46659],[-120.27001,51.46659],[-120.27001,51.47076],[-120.27001,51.47492]]]}},{"type":"Feature","properties":{"c":"1138563","o":"REIBIN, LANCE CHRISTOPHER","e":"2027-09-03Z"},"geometry":{"type":"Polygon","coordinates":[[[-120.27001,51.47492],[-120.27001,51.47076],[-120.27626,51.47076],[-120.28251,51.47076],[-120.28251,51.47492],[-120.27626,51.47492],[-120.27001,51.47492]]]}},{"type":"Feature","properties":{"c":"1135101","o":"RICHARDSON, WAYNE DOUGLAS","e":"2027-07-08Z"},"geometry":{"type":"Polygon","coordinates":[[[-120.09499,51.40825],[-120.10124,51.40825],[-120.10124,51.41242],[-120.09499,51.41242],[-120.09499,51.40825]]]}},{"type":"Feature","properties":{"c":"1135104","o":"FINDLAY , SIMON","e":"2027-07-08Z"},"geometry":{"type":"Polygon","coordinates":[[[-120.42625,50.99991],[-120.4325,50.99991],[-120.4325,51.00408],[-120.42625,51.00408],[-120.42625,50.99991]]]}},{"type":"Feature","properties":{"c":"1135105","o":"FINDLAY , SIMON","e":"2027-07-08Z"},"geometry":{"type":"Polygon","coordinates":[[[-120.4325,50.99991],[-120.43875,50.99991],[-120.43875,51.00408],[-120.4325,51.00408],[-120.4325,50.99991]]]}},{"type":"Feature","properties":{"c":"1135106","o":"FINDLAY , SIMON","e":"2027-07-08Z"},"geometry":{"type":"Polygon","coordinates":[[[-120.43875,51.00408],[-120.44501,51.00408],[-120.44501,51.00824],[-120.43876,51.00824],[-120.43875,51.00408]]]}},{"type":"Feature","properties":{"c":"1135107","o":"ALEXANDER, CHRISTOPHER KEVIN","e":"2027-07-08Z"},"geometry":{"type":"Polygon","coordinates":[[[-120.22625,51.44576],[-120.2325,51.44576],[-120.2325,51.44992],[-120.22625,51.44992],[-120.22625,51.44576]]]}},{"type":"Feature","properties":{"c":"1135119","o":"ELLERBECK, KENNETH CECIL","e":"2027-07-08Z"},"geometry":{"type":"Polygon","coordinates":[[[-120.00124,51.32908],[-119.99499,51.32908],[-119.98874,51.32908],[-119.98249,51.32908],[-119.98249,51.32491],[-119.97624,51.32491],[-119.96999,51.32491],[-119.96374,51.32491],[-119.96374,51.32075],[-119.96374,51.31658],[-119.96374,51.31241],[-119.96374,51.30824],[-119.96374,51.30408],[-119.96374,51.29991],[-119.96374,51.29574],[-119.96374,51.29158],[-119.96999,51.29158],[-119.97624,51.29158],[-119.98249,51.29158],[-119.98249,51.29574],[-119.97624,51.29574],[-119.96999,51.29574],[-119.96999,51.29991],[-119.97624,51.29991],[-119.98249,51.29991],[-119.98874,51.29991],[-119.98874,51.30408],[-119.98874,51.30824],[-119.98874,51.31241],[-119.98249,51.31241],[-119.97624,51.31241],[-119.96999,51.31241],[-119.96999,51.31658],[-119.96999,51.32075],[-119.97624,51.32075],[-119.98249,51.32075],[-119.98874,51.32074],[-119.98874,51.32491],[-119.99499,51.32491],[-119.99499,51.32074],[-120.00124,51.32074],[-120.00124,51.32491],[-120.00124,51.32908]]]}},{"type":"Feature","properties":{"c":"1135143","o":"BOT, JOHN CHRISOSTOM","e":"2027-07-08Z"},"geometry":{"type":"Polygon","coordinates":[[[-120.26375,51.15823],[-120.27,51.15823],[-120.27,51.1624],[-120.26375,51.1624],[-120.26375,51.15823]]]}},{"type":"Feature","properties":{"c":"1135154","o":"MARKO, RANDY JOHN","e":"2027-07-08Z"},"geometry":{"type":"Polygon","coordinates":[[[-120.50126,51.00824],[-120.49501,51.00824],[-120.48876,51.00824],[-120.48876,51.00407],[-120.48876,50.99991],[-120.48876,50.99574],[-120.49501,50.99574],[-120.50126,50.99574],[-120.50126,50.99991],[-120.50126,51.00407],[-120.50126,51.00824]]]}},{"type":"Feature","properties":{"c":"1136601","o":"THOMPSON, LYNELL EMBER","e":"2027-07-22Z"},"geometry":{"type":"Polygon","coordinates":[[[-120.11374,51.14156],[-120.10749,51.14156],[-120.10124,51.14156],[-120.10124,51.13739],[-120.10124,51.13323],[-120.10124,51.12906],[-120.09499,51.12906],[-120.09499,51.12489],[-120.08874,51.12489],[-120.08874,51.12073],[-120.09499,51.12073],[-120.10124,51.12073],[-120.10124,51.12489],[-120.10749,51.12489],[-120.10749,51.12906],[-120.10749,51.13323],[-120.11374,51.13323],[-120.11374,51.13739],[-120.11374,51.14156]]]}},{"type":"Feature","properties":{"c":"1135310","o":"ELLERBECK, KENNETH CECIL","e":"2027-07-12Z"},"geometry":{"type":"Polygon","coordinates":[[[-120.245,51.28324],[-120.23875,51.28324],[-120.2325,51.28324],[-120.22625,51.28324],[-120.22,51.28324],[-120.22,51.27907],[-120.22,51.2749],[-120.22,51.27073],[-120.22625,51.27073],[-120.22625,51.2749],[-120.22625,51.27907],[-120.2325,51.27907],[-120.23875,51.27907],[-120.23875,51.2749],[-120.23875,51.27073],[-120.23875,51.26657],[-120.23875,51.2624],[-120.245,51.2624],[-120.245,51.26657],[-120.245,51.27073],[-120.245,51.2749],[-120.245,51.27907],[-120.245,51.28324]]]}},{"type":"Feature","properties":{"c":"1127007","o":"TURNAGAIN RESOURCES INC.","e":"2026-10-23Z"},"geometry":{"type":"Polygon","coordinates":[[[-120.10749,51.43326],[-120.10124,51.43326],[-120.09499,51.43326],[-120.09499,51.42909],[-120.08874,51.42909],[-120.08874,51.42492],[-120.09499,51.42492],[-120.09499,51.42075],[-120.10124,51.42075],[-120.10124,51.41659],[-120.10749,51.41659],[-120.10749,51.42075],[-120.10749,51.42492],[-120.10749,51.42909],[-120.10749,51.43326]]]}},{"type":"Feature","properties":{"c":"1127008","o":"TURNAGAIN RESOURCES INC.","e":"2029-09-03Z"},"geometry":{"type":"Polygon","coordinates":[[[-120.09499,51.41659],[-120.10124,51.41659],[-120.10124,51.42075],[-120.09499,51.42075],[-120.09499,51.41659]]]}},{"type":"Feature","properties":{"c":"1121372","o":"CHAPPELLE, KENNETH WILLIAM","e":"2027-09-03Z"},"geometry":{"type":"Polygon","coordinates":[[[-120.345,51.09991],[-120.35125,51.09991],[-120.35125,51.10407],[-120.345,51.10407],[-120.345,51.09991]]]}},{"type":"Feature","properties":{"c":"1124539","o":"ELLERBECK, KENNETH CECIL","e":"2027-12-31Z"},"geometry":{"type":"Polygon","coordinates":[[[-120.19499,51.05406],[-120.18874,51.05406],[-120.18249,51.05406],[-120.17624,51.05406],[-120.17624,51.04989],[-120.17624,51.04573],[-120.17624,51.04156],[-120.18249,51.04156],[-120.18874,51.04156],[-120.18874,51.03739],[-120.19499,51.03739],[-120.20124,51.03739],[-120.20124,51.04156],[-120.19499,51.04156],[-120.19499,51.04573],[-120.19499,51.04989],[-120.19499,51.05406]]]}},{"type":"Feature","properties":{"c":"1138064","o":"PUT, JARED GUSTAF","e":"2027-08-28Z"},"geometry":{"type":"Polygon","coordinates":[[[-120.01999,51.39575],[-120.01374,51.39575],[-120.00749,51.39575],[-120.00749,51.39159],[-120.00749,51.38742],[-120.01374,51.38742],[-120.01374,51.38325],[-120.01999,51.38325],[-120.01999,51.38742],[-120.01999,51.39159],[-120.01999,51.39575]]]}},{"type":"Feature","properties":{"c":"1138302","o":"MARKO, RANDY JOHN","e":"2027-09-01Z"},"geometry":{"type":"Polygon","coordinates":[[[-120.50126,51.02491],[-120.49501,51.02491],[-120.48876,51.02491],[-120.48876,51.02074],[-120.48876,51.01658],[-120.48876,51.01241],[-120.48876,51.00824],[-120.49501,51.00824],[-120.50126,51.00824],[-120.50126,51.01241],[-120.50126,51.01657],[-120.50126,51.02074],[-120.50126,51.02491]]]}},{"type":"Feature","properties":{"c":"1138303","o":"MARKO, RANDY JOHN","e":"2027-09-01Z"},"geometry":{"type":"Polygon","coordinates":[[[-120.50126,51.04575],[-120.49501,51.04575],[-120.48876,51.04575],[-120.48876,51.04158],[-120.48876,51.03741],[-120.48876,51.03324],[-120.48876,51.02908],[-120.48876,51.02491],[-120.49501,51.02491],[-120.50126,51.02491],[-120.50126,51.02908],[-120.50126,51.03324],[-120.50126,51.03741],[-120.50126,51.04158],[-120.50126,51.04575]]]}},{"type":"Feature","properties":{"c":"1138642","o":"SCOTT, STEVEN JEFFREY","e":"2027-09-11Z"},"geometry":{"type":"Polygon","coordinates":[[[-120.05749,51.38742],[-120.05124,51.38742],[-120.05124,51.38325],[-120.05124,51.37908],[-120.05749,51.37908],[-120.05749,51.38325],[-120.05749,51.38742]]]}},{"type":"Feature","properties":{"c":"1138656","o":"MARKO, RANDY JOHN","e":"2027-09-09Z"},"geometry":{"type":"Polygon","coordinates":[[[-120.37625,51.02074],[-120.37,51.02074],[-120.36375,51.02074],[-120.3575,51.02074],[-120.3575,51.01657],[-120.3575,51.01241],[-120.3575,51.00824],[-120.3575,51.00407],[-120.3575,50.99991],[-120.3575,50.99574],[-120.3575,50.99157],[-120.36375,50.99157],[-120.37,50.99157],[-120.37625,50.99157],[-120.37625,50.99574],[-120.37625,50.99991],[-120.37625,51.00407],[-120.37625,51.00824],[-120.37625,51.01241],[-120.37625,51.01657],[-120.37625,51.02074]]]}},{"type":"Feature","properties":{"c":"1140098","o":"BILQUIST, RONALD JOHN","e":"2027-10-09Z"},"geometry":{"type":"Polygon","coordinates":[[[-120.33876,51.2249],[-120.33251,51.2249],[-120.32626,51.2249],[-120.32001,51.2249],[-120.31376,51.2249],[-120.30751,51.2249],[-120.30125,51.2249],[-120.295,51.2249],[-120.28875,51.2249],[-120.28875,51.22073],[-120.28875,51.21657],[-120.28875,51.2124],[-120.28875,51.20823],[-120.28875,51.20407],[-120.295,51.20407],[-120.30125,51.20407],[-120.3075,51.20407],[-120.31376,51.20407],[-120.32001,51.20407],[-120.32626,51.20407],[-120.33251,51.20407],[-120.33876,51.20407],[-120.33876,51.20824],[-120.33876,51.2124],[-120.33876,51.21657],[-120.33876,51.22074],[-120.33876,51.2249]]]}},{"type":"Feature","properties":{"c":"1116890","o":"TURNAGAIN RESOURCES INC.","e":"2029-09-03Z"},"geometry":{"type":"Polygon","coordinates":[[[-120.09499,51.42492],[-120.08874,51.42492],[-120.08874,51.42909],[-120.08249,51.42909],[-120.07624,51.42909],[-120.07624,51.42492],[-120.07624,51.42076],[-120.07624,51.41659],[-120.08249,51.41659],[-120.08874,51.41659],[-120.09499,51.41659],[-120.09499,51.42075],[-120.09499,51.42492]]]}},{"type":"Feature","properties":{"c":"1124054","o":"ELLERBECK, KENNETH CECIL","e":"2029-10-05Z"},"geometry":{"type":"Polygon","coordinates":[[[-120.00749,51.32908],[-120.00124,51.32908],[-120.00124,51.32491],[-120.00124,51.32074],[-119.99499,51.32074],[-119.98874,51.32074],[-119.98249,51.32075],[-119.97624,51.32075],[-119.96999,51.32075],[-119.96999,51.31658],[-119.96999,51.31241],[-119.97624,51.31241],[-119.98249,51.31241],[-119.98874,51.31241],[-119.98874,51.30824],[-119.98874,51.30408],[-119.98874,51.29991],[-119.99499,51.29991],[-119.99499,51.30408],[-119.99499,51.30824],[-120.00124,51.30824],[-120.00749,51.30824],[-120.00749,51.31241],[-120.00749,51.31658],[-120.00749,51.32074],[-120.00749,51.32491],[-120.00749,51.32908]]]}},{"type":"Feature","properties":{"c":"1124055","o":"ELLERBECK, KENNETH CECIL","e":"2029-10-05Z"},"geometry":{"type":"MultiPolygon","coordinates":[[[[-120.03874,51.32074],[-120.03249,51.32074],[-120.02624,51.32074],[-120.02624,51.31658],[-120.02624,51.31241],[-120.01999,51.31241],[-120.01999,51.30824],[-120.01374,51.30824],[-120.00749,51.30824],[-120.00749,51.30408],[-120.00749,51.29991],[-120.00749,51.29574],[-120.00749,51.29157],[-120.01374,51.29157],[-120.01374,51.28741],[-120.00749,51.28741],[-120.00124,51.28741],[-120.00124,51.28324],[-120.00124,51.27907],[-120.00124,51.27491],[-119.99499,51.27491],[-119.99499,51.27907],[-119.99499,51.28324],[-119.99499,51.28741],[-119.99499,51.29157],[-119.98874,51.29157],[-119.98874,51.29574],[-119.98874,51.29991],[-119.98249,51.29991],[-119.97624,51.29991],[-119.96999,51.29991],[-119.96999,51.29574],[-119.97624,51.29574],[-119.98249,51.29574],[-119.98249,51.29158],[-119.98249,51.28741],[-119.98874,51.28741],[-119.98874,51.28324],[-119.98874,51.27907],[-119.98874,51.27491],[-119.98874,51.27074],[-119.98874,51.26657],[-119.98874,51.26241],[-119.98874,51.25824],[-119.98874,51.25407],[-119.98874,51.2499],[-119.98874,51.24574],[-119.98874,51.24157],[-119.99499,51.24157],[-120.00124,51.24157],[-120.00749,51.24157],[-120.01374,51.24157],[-120.01999,51.24157],[-120.01999,51.24574],[-120.02624,51.24574],[-120.03249,51.24574],[-120.03249,51.2499],[-120.03249,51.25407],[-120.03249,51.25824],[-120.03249,51.2624],[-120.03249,51.26657],[-120.03249,51.27074],[-120.03249,51.2749],[-120.03249,51.27907],[-120.03249,51.28324],[-120.02624,51.28324],[-120.01999,51.28324],[-120.01999,51.28741],[-120.01999,51.29157],[-120.01999,51.29574],[-120.01999,51.29991],[-120.02624,51.29991],[-120.02624,51.30407],[-120.02624,51.30824],[-120.03249,51.30824],[-120.03249,51.31241],[-120.03874,51.31241],[-120.03874,51.31658],[-120.03874,51.32074]]]]}},{"type":"Feature","properties":{"c":"1132311","o":"TILAVA MINING CORPORATION","e":"2027-07-25Z"},"geometry":{"type":"Polygon","coordinates":[[[-120.22625,51.42075],[-120.22,51.42075],[-120.22,51.41659],[-120.21375,51.41659],[-120.21375,51.41242],[-120.21375,51.40825],[-120.22,51.40825],[-120.22625,51.40825],[-120.22625,51.41242],[-120.22625,51.41659],[-120.22625,51.42075]]]}},{"type":"Feature","properties":{"c":"1132312","o":"TILAVA MINING CORPORATION","e":"2027-07-25Z"},"geometry":{"type":"Polygon","coordinates":[[[-120.26376,51.46242],[-120.25751,51.46242],[-120.25126,51.46242],[-120.245,51.46242],[-120.23875,51.46242],[-120.23875,51.45826],[-120.23875,51.45409],[-120.23875,51.44992],[-120.23875,51.44576],[-120.23875,51.44159],[-120.245,51.44159],[-120.25126,51.44159],[-120.25126,51.44575],[-120.25751,51.44576],[-120.25751,51.44992],[-120.26376,51.44992],[-120.26376,51.45409],[-120.26376,51.45826],[-120.26376,51.46242]]]}},{"type":"Feature","properties":{"c":"1132313","o":"TILAVA MINING CORPORATION","e":"2027-07-25Z"},"geometry":{"type":"Polygon","coordinates":[[[-120.26376,51.44992],[-120.25751,51.44992],[-120.25751,51.44576],[-120.25126,51.44575],[-120.25126,51.44159],[-120.25126,51.43742],[-120.25751,51.43742],[-120.26376,51.43742],[-120.27001,51.43742],[-120.27001,51.44159],[-120.26376,51.44159],[-120.26376,51.44575],[-120.26376,51.44992]]]}},{"type":"Feature","properties":{"c":"1132314","o":"TILAVA MINING CORPORATION","e":"2027-07-25Z"},"geometry":{"type":"Polygon","coordinates":[[[-120.25125,51.39575],[-120.245,51.39575],[-120.23875,51.39575],[-120.2325,51.39575],[-120.2325,51.39992],[-120.22625,51.39992],[-120.22625,51.40408],[-120.22625,51.40825],[-120.22,51.40825],[-120.21375,51.40825],[-120.21375,51.40408],[-120.21375,51.39992],[-120.21375,51.39575],[-120.2075,51.39575],[-120.2075,51.39158],[-120.20125,51.39158],[-120.20125,51.38741],[-120.20125,51.38325],[-120.2075,51.38325],[-120.21375,51.38325],[-120.22,51.38325],[-120.22625,51.38325],[-120.2325,51.38325],[-120.23875,51.38325],[-120.245,51.38325],[-120.25125,51.38325],[-120.25125,51.38741],[-120.25125,51.39158],[-120.25125,51.39575]]]}},{"type":"Feature","properties":{"c":"1132315","o":"TILAVA MINING CORPORATION","e":"2027-07-25Z"},"geometry":{"type":"Polygon","coordinates":[[[-120.245,51.39992],[-120.245,51.40408],[-120.245,51.40825],[-120.245,51.41242],[-120.245,51.41659],[-120.245,51.42075],[-120.245,51.42492],[-120.245,51.42909],[-120.245,51.43325],[-120.245,51.43742],[-120.245,51.44159],[-120.23875,51.44159],[-120.2325,51.44159],[-120.22625,51.44159],[-120.22625,51.43742],[-120.22625,51.43325],[-120.22625,51.42909],[-120.22625,51.42492],[-120.22625,51.42075],[-120.22625,51.41659],[-120.22625,51.41242],[-120.22625,51.40825],[-120.22625,51.40408],[-120.22625,51.39992],[-120.2325,51.39992],[-120.2325,51.39575],[-120.23875,51.39575],[-120.245,51.39575],[-120.25125,51.39575],[-120.25751,51.39575],[-120.25751,51.39992],[-120.25125,51.39992],[-120.245,51.39992]]]}},{"type":"Feature","properties":{"c":"1132316","o":"TILAVA MINING CORPORATION","e":"2027-07-25Z"},"geometry":{"type":"Polygon","coordinates":[[[-120.28251,51.45826],[-120.27626,51.45826],[-120.27001,51.45826],[-120.26376,51.45826],[-120.26376,51.45409],[-120.26376,51.44992],[-120.26376,51.44575],[-120.26376,51.44159],[-120.27001,51.44159],[-120.27001,51.43742],[-120.27626,51.43742],[-120.28251,51.43742],[-120.28251,51.44159],[-120.28251,51.44576],[-120.28251,51.44992],[-120.28251,51.45409],[-120.28251,51.45826]]]}},{"type":"Feature","properties":{"c":"1132317","o":"TILAVA MINING CORPORATION","e":"2027-11-15Z"},"geometry":{"type":"Polygon","coordinates":[[[-120.28251,51.43742],[-120.27626,51.43742],[-120.27001,51.43742],[-120.26376,51.43742],[-120.25751,51.43742],[-120.25126,51.43742],[-120.25126,51.44159],[-120.245,51.44159],[-120.245,51.43742],[-120.245,51.43325],[-120.245,51.42909],[-120.245,51.42492],[-120.245,51.42075],[-120.245,51.41659],[-120.245,51.41242],[-120.245,51.40825],[-120.245,51.40408],[-120.245,51.39992],[-120.25125,51.39992],[-120.25751,51.39992],[-120.26376,51.39992],[-120.27001,51.39992],[-120.27626,51.39992],[-120.28251,51.39992],[-120.28251,51.40408],[-120.28251,51.40825],[-120.28251,51.41242],[-120.28251,51.41659],[-120.28251,51.42075],[-120.28251,51.42492],[-120.28251,51.42909],[-120.28251,51.43325],[-120.28251,51.43742]]]}},{"type":"Feature","properties":{"c":"1132318","o":"TILAVA MINING CORPORATION","e":"2027-07-25Z"},"geometry":{"type":"Polygon","coordinates":[[[-120.30126,51.47076],[-120.29501,51.47076],[-120.28876,51.47076],[-120.28251,51.47076],[-120.28251,51.46659],[-120.28251,51.46242],[-120.28876,51.46242],[-120.29501,51.46242],[-120.30126,51.46242],[-120.30126,51.46659],[-120.30126,51.47076]]]}},{"type":"Feature","properties":{"c":"1132319","o":"TILAVA MINING CORPORATION","e":"2027-07-25Z"},"geometry":{"type":"Polygon","coordinates":[[[-120.31376,51.47076],[-120.30751,51.47076],[-120.30126,51.47076],[-120.30126,51.46659],[-120.30126,51.46242],[-120.29501,51.46242],[-120.28876,51.46242],[-120.28251,51.46242],[-120.28251,51.45826],[-120.28251,51.45409],[-120.28876,51.45409],[-120.29501,51.45409],[-120.30126,51.45409],[-120.30751,51.45409],[-120.30751,51.45826],[-120.31376,51.45826],[-120.31376,51.46242],[-120.31376,51.46659],[-120.32001,51.46659],[-120.32626,51.46659],[-120.32626,51.47076],[-120.32001,51.47076],[-120.31376,51.47076]]]}},{"type":"Feature","properties":{"c":"1132320","o":"TILAVA MINING CORPORATION","e":"2027-07-25Z"},"geometry":{"type":"Polygon","coordinates":[[[-120.31376,51.45826],[-120.30751,51.45826],[-120.30751,51.45409],[-120.30126,51.45409],[-120.29501,51.45409],[-120.28876,51.45409],[-120.28251,51.45409],[-120.28251,51.44992],[-120.28251,51.44576],[-120.28251,51.44159],[-120.28251,51.43742],[-120.28251,51.43325],[-120.28251,51.42909],[-120.28251,51.42492],[-120.28251,51.42075],[-120.28876,51.42075],[-120.29501,51.42075],[-120.30126,51.42075],[-120.30751,51.42075],[-120.31376,51.42075],[-120.31376,51.42492],[-120.31376,51.42909],[-120.31376,51.43325],[-120.31376,51.43742],[-120.31376,51.44159],[-120.31376,51.44575],[-120.31376,51.44992],[-120.31376,51.45409],[-120.31376,51.45826]]]}},{"type":"Feature","properties":{"c":"1132321","o":"TILAVA MINING CORPORATION","e":"2027-07-25Z"},"geometry":{"type":"Polygon","coordinates":[[[-120.37002,51.46242],[-120.36377,51.46242],[-120.36377,51.46659],[-120.35752,51.46659],[-120.35126,51.46659],[-120.34501,51.46659],[-120.33876,51.46659],[-120.33251,51.46659],[-120.32626,51.46659],[-120.32001,51.46659],[-120.31376,51.46659],[-120.31376,51.46242],[-120.31376,51.45826],[-120.32001,51.45826],[-120.32626,51.45826],[-120.33251,51.45826],[-120.33876,51.45826],[-120.34501,51.45826],[-120.35126,51.45826],[-120.35126,51.45409],[-120.35126,51.44992],[-120.35752,51.44992],[-120.36377,51.44992],[-120.36377,51.45409],[-120.37002,51.45409],[-120.37002,51.45826],[-120.37002,51.46242]]]}},{"type":"Feature","properties":{"c":"1132322","o":"TILAVA MINING CORPORATION","e":"2027-07-25Z"},"geometry":{"type":"Polygon","coordinates":[[[-120.36377,51.44992],[-120.35752,51.44992],[-120.35126,51.44992],[-120.35126,51.45409],[-120.35126,51.45826],[-120.34501,51.45826],[-120.33876,51.45826],[-120.33251,51.45826],[-120.32626,51.45826],[-120.32001,51.45826],[-120.31376,51.45826],[-120.31376,51.45409],[-120.31376,51.44992],[-120.31376,51.44575],[-120.31376,51.44159],[-120.31376,51.43742],[-120.31376,51.43325],[-120.31376,51.42909],[-120.31376,51.42492],[-120.31376,51.42075],[-120.32001,51.42075],[-120.32626,51.42075],[-120.33251,51.42075],[-120.33876,51.42075],[-120.34501,51.42075],[-120.35126,51.42075],[-120.35126,51.42492],[-120.35126,51.42909],[-120.35126,51.43325],[-120.35752,51.43325],[-120.36377,51.43325],[-120.36377,51.43742],[-120.36377,51.44159],[-120.36377,51.44575],[-120.36377,51.44992]]]}},{"type":"Feature","properties":{"c":"1132323","o":"TILAVA MINING CORPORATION","e":"2027-07-25Z"},"geometry":{"type":"Polygon","coordinates":[[[-120.33876,51.42075],[-120.33251,51.42075],[-120.32626,51.42075],[-120.32001,51.42075],[-120.31376,51.42075],[-120.30751,51.42075],[-120.30126,51.42075],[-120.29501,51.42075],[-120.28876,51.42075],[-120.28251,51.42075],[-120.28251,51.41659],[-120.28251,51.41242],[-120.28251,51.40825],[-120.28251,51.40408],[-120.28251,51.39992],[-120.28876,51.39992],[-120.29501,51.39992],[-120.30126,51.39992],[-120.30751,51.39992],[-120.31376,51.39992],[-120.32001,51.39992],[-120.32626,51.39992],[-120.33251,51.39992],[-120.33876,51.39992],[-120.33876,51.40408],[-120.33876,51.40825],[-120.33876,51.41242],[-120.33876,51.41659],[-120.33876,51.42075]]]}},{"type":"Feature","properties":{"c":"1132324","o":"TILAVA MINING CORPORATION","e":"2027-07-25Z"},"geometry":{"type":"Polygon","coordinates":[[[-120.36377,51.43325],[-120.35752,51.43325],[-120.35126,51.43325],[-120.35126,51.42909],[-120.35126,51.42492],[-120.35126,51.42075],[-120.34501,51.42075],[-120.33876,51.42075],[-120.33876,51.41659],[-120.33876,51.41242],[-120.33876,51.40825],[-120.34501,51.40825],[-120.35126,51.40825],[-120.35752,51.40825],[-120.35752,51.41242],[-120.35752,51.41659],[-120.35752,51.42075],[-120.36377,51.42075],[-120.36377,51.42492],[-120.36377,51.42909],[-120.36377,51.43325]]]}},{"type":"Feature","properties":{"c":"1106830","o":"BOT, JOHN CHRISOSTOM","e":"2028-07-01Z"},"geometry":{"type":"Polygon","coordinates":[[[-120.38252,51.50826],[-120.37627,51.50826],[-120.37627,51.50409],[-120.37002,51.50409],[-120.36377,51.50409],[-120.35752,51.50409],[-120.35126,51.50409],[-120.35126,51.49992],[-120.34501,51.49993],[-120.34501,51.49576],[-120.35126,51.49576],[-120.35752,51.49576],[-120.36377,51.49576],[-120.37002,51.49576],[-120.37627,51.49576],[-120.38252,51.49576],[-120.38252,51.49992],[-120.38252,51.50409],[-120.38252,51.50826]]]}},{"type":"Feature","properties":{"c":"1106789","o":"BOT, JOHN CHRISOSTOM","e":"2028-07-01Z"},"geometry":{"type":"Polygon","coordinates":[[[-120.42002,51.46659],[-120.41377,51.46659],[-120.41377,51.46242],[-120.40752,51.46242],[-120.40752,51.45826],[-120.40127,51.45826],[-120.40127,51.45409],[-120.40127,51.44992],[-120.40752,51.44992],[-120.41377,51.44992],[-120.42002,51.44992],[-120.42002,51.45409],[-120.42627,51.45409],[-120.42627,51.45825],[-120.42002,51.45826],[-120.42002,51.46242],[-120.42002,51.46659]]]}},{"type":"Feature","properties":{"c":"1106831","o":"BOT, JOHN CHRISOSTOM","e":"2028-07-01Z"},"geometry":{"type":"Polygon","coordinates":[[[-120.37002,51.49576],[-120.36377,51.49576],[-120.36377,51.49159],[-120.36377,51.48742],[-120.36377,51.48326],[-120.37002,51.48326],[-120.37002,51.48742],[-120.37002,51.49159],[-120.37002,51.49576]]]}},{"type":"Feature","properties":{"c":"1106784","o":"BOT, JOHN CHRISOSTOM","e":"2028-07-01Z"},"geometry":{"type":"Polygon","coordinates":[[[-120.49503,51.50826],[-120.48878,51.50826],[-120.48253,51.50826],[-120.47627,51.50826],[-120.47002,51.50826],[-120.46377,51.50826],[-120.45752,51.50826],[-120.45127,51.50826],[-120.45127,51.50409],[-120.45127,51.49992],[-120.45127,51.49576],[-120.45752,51.49576],[-120.46377,51.49576],[-120.47002,51.49576],[-120.47628,51.49576],[-120.47628,51.49992],[-120.48253,51.49992],[-120.48878,51.49992],[-120.49503,51.49992],[-120.49503,51.50409],[-120.49503,51.50826]]]}},{"type":"Feature","properties":{"c":"1106785","o":"BOT, JOHN CHRISOSTOM","e":"2028-07-01Z"},"geometry":{"type":"Polygon","coordinates":[[[-120.45127,51.49576],[-120.44502,51.49576],[-120.43877,51.49576],[-120.43877,51.49159],[-120.43877,51.48742],[-120.43252,51.48742],[-120.43252,51.48326],[-120.43877,51.48326],[-120.44502,51.48326],[-120.45127,51.48326],[-120.45127,51.48742],[-120.45752,51.48742],[-120.45752,51.49159],[-120.46377,51.49159],[-120.46377,51.49576],[-120.45752,51.49576],[-120.45127,51.49576]]]}},{"type":"Feature","properties":{"c":"1106786","o":"BOT, JOHN CHRISOSTOM","e":"2028-07-01Z"},"geometry":{"type":"Polygon","coordinates":[[[-120.45127,51.48326],[-120.44502,51.48326],[-120.43877,51.48326],[-120.43877,51.47909],[-120.43877,51.47492],[-120.43877,51.47076],[-120.43252,51.47076],[-120.42627,51.47076],[-120.42002,51.47076],[-120.42002,51.46659],[-120.42002,51.46242],[-120.42002,51.45826],[-120.42627,51.45825],[-120.43252,51.45825],[-120.43877,51.45825],[-120.44502,51.45825],[-120.45127,51.45825],[-120.45127,51.46242],[-120.45127,51.46659],[-120.45127,51.47076],[-120.45127,51.47492],[-120.45127,51.47909],[-120.45127,51.48326]]]}},{"type":"Feature","properties":{"c":"1131693","o":"REIBIN, LANCE CHRISTOPHER","e":"2027-03-26Z"},"geometry":{"type":"Polygon","coordinates":[[[-120.22625,51.44992],[-120.2325,51.44992],[-120.2325,51.45409],[-120.22625,51.45409],[-120.22625,51.44992]]]}},{"type":"Feature","properties":{"c":"1132066","o":"KANSPAR INDUSTRIES INC","e":"2027-04-07Z"},"geometry":{"type":"Polygon","coordinates":[[[-120.2325,51.1999],[-120.22625,51.1999],[-120.22625,51.19573],[-120.22625,51.19156],[-120.22,51.19156],[-120.22,51.18739],[-120.22,51.18323],[-120.22,51.17906],[-120.22,51.17489],[-120.22625,51.17489],[-120.2325,51.17489],[-120.2325,51.17906],[-120.2325,51.18323],[-120.2325,51.18739],[-120.2325,51.19156],[-120.2325,51.19573],[-120.2325,51.1999]]]}},{"type":"Feature","properties":{"c":"1137624","o":"ELLERBECK, KENNETH CECIL","e":"2027-08-25Z"},"geometry":{"type":"Polygon","coordinates":[[[-120.1325,51.32074],[-120.12625,51.32074],[-120.12,51.32074],[-120.11999,51.31657],[-120.12,51.31241],[-120.12625,51.31241],[-120.12625,51.30824],[-120.12625,51.30407],[-120.12625,51.2999],[-120.12625,51.29574],[-120.12625,51.29157],[-120.12625,51.2874],[-120.12625,51.28324],[-120.12625,51.27907],[-120.12,51.27907],[-120.11374,51.27907],[-120.10749,51.27907],[-120.10749,51.2749],[-120.10124,51.2749],[-120.10124,51.27907],[-120.10124,51.28324],[-120.09499,51.28324],[-120.09499,51.27907],[-120.09499,51.2749],[-120.09499,51.27074],[-120.10124,51.27074],[-120.10749,51.27074],[-120.11374,51.27073],[-120.12,51.27073],[-120.12625,51.27073],[-120.1325,51.27073],[-120.1325,51.2749],[-120.1325,51.27907],[-120.1325,51.28324],[-120.1325,51.2874],[-120.1325,51.29157],[-120.1325,51.29574],[-120.1325,51.2999],[-120.1325,51.30407],[-120.1325,51.30824],[-120.1325,51.31241],[-120.1325,51.31657],[-120.1325,51.32074]]]}},{"type":"Feature","properties":{"c":"1101300","o":"BLADE RESOURCES INC.","e":"2026-12-24Z"},"geometry":{"type":"Polygon","coordinates":[[[-120.48876,51.03741],[-120.48251,51.03741],[-120.47626,51.03741],[-120.47001,51.03741],[-120.46376,51.03741],[-120.45751,51.03741],[-120.45126,51.03741],[-120.44501,51.03741],[-120.43876,51.03741],[-120.43251,51.03741],[-120.43251,51.03325],[-120.43251,51.02908],[-120.43251,51.02491],[-120.43251,51.02074],[-120.43876,51.02074],[-120.44501,51.02074],[-120.44501,51.02491],[-120.43876,51.02491],[-120.43876,51.02908],[-120.44501,51.02908],[-120.45126,51.02908],[-120.45751,51.02908],[-120.46376,51.02908],[-120.46376,51.02491],[-120.46376,51.02074],[-120.46376,51.01658],[-120.46376,51.01241],[-120.46376,51.00824],[-120.46376,51.00407],[-120.46376,50.99991],[-120.47001,50.99991],[-120.47626,50.99991],[-120.48251,50.99991],[-120.48876,50.99991],[-120.48876,51.00407],[-120.48876,51.00824],[-120.48876,51.01241],[-120.48876,51.01658],[-120.48876,51.02074],[-120.48876,51.02491],[-120.48876,51.02908],[-120.48876,51.03324],[-120.48876,51.03741]]]}},{"type":"Feature","properties":{"c":"1102418","o":"BLADE RESOURCES INC.","e":"2026-12-24Z"},"geometry":{"type":"Polygon","coordinates":[[[-120.43251,51.03741],[-120.42626,51.03741],[-120.42,51.03741],[-120.42,51.03325],[-120.42,51.02908],[-120.42625,51.02908],[-120.43251,51.02908],[-120.43251,51.03325],[-120.43251,51.03741]]]}},{"type":"Feature","properties":{"c":"1103359","o":"BLADE RESOURCES INC.","e":"2026-12-24Z"},"geometry":{"type":"Polygon","coordinates":[[[-120.48876,51.04575],[-120.48251,51.04575],[-120.47626,51.04575],[-120.47001,51.04575],[-120.46376,51.04575],[-120.45751,51.04575],[-120.45751,51.04158],[-120.45751,51.03741],[-120.46376,51.03741],[-120.47001,51.03741],[-120.47626,51.03741],[-120.48251,51.03741],[-120.48876,51.03741],[-120.48876,51.04158],[-120.48876,51.04575]]]}},{"type":"Feature","properties":{"c":"1132560","o":"ARSENAULT, MICHEL","e":"2027-04-24Z"},"geometry":{"type":"Polygon","coordinates":[[[-120.12624,51.10406],[-120.12624,51.09989],[-120.12624,51.09572],[-120.13249,51.09572],[-120.13249,51.09989],[-120.13874,51.09989],[-120.13874,51.10406],[-120.13249,51.10406],[-120.12624,51.10406]]]}},{"type":"Feature","properties":{"c":"1113169","o":"REIBIN, LANCE CHRISTOPHER","e":"2028-01-03Z"},"geometry":{"type":"Polygon","coordinates":[[[-120.28251,51.47076],[-120.27626,51.47076],[-120.27626,51.46659],[-120.27626,51.46242],[-120.28251,51.46242],[-120.28251,51.46659],[-120.28251,51.47076]]]}},{"type":"Feature","properties":{"c":"1137733","o":"BOT, JOHN CHRISOSTOM","e":"2027-08-27Z"},"geometry":{"type":"Polygon","coordinates":[[[-120.10749,51.42492],[-120.11374,51.42492],[-120.11374,51.42909],[-120.10749,51.42909],[-120.10749,51.42492]]]}},{"type":"Feature","properties":{"c":"1124614","o":"TORNROOS, NEIL ERIC","e":"2027-09-05Z"},"geometry":{"type":"Polygon","coordinates":[[[-120.08874,51.38325],[-120.08249,51.38325],[-120.08249,51.37908],[-120.08249,51.37492],[-120.08249,51.37075],[-120.08249,51.36658],[-120.07624,51.36658],[-120.06999,51.36658],[-120.06374,51.36658],[-120.06374,51.36241],[-120.06374,51.35825],[-120.06999,51.35825],[-120.07624,51.35825],[-120.08249,51.35825],[-120.08874,51.35825],[-120.08874,51.36241],[-120.08874,51.36658],[-120.08874,51.37075],[-120.08874,51.37492],[-120.08874,51.37908],[-120.08874,51.38325]]]}},{"type":"Feature","properties":{"c":"1124615","o":"TORNROOS, NEIL ERIC","e":"2027-09-05Z"},"geometry":{"type":"Polygon","coordinates":[[[-120.07624,51.38742],[-120.07624,51.39158],[-120.06999,51.39159],[-120.06374,51.39159],[-120.05749,51.39159],[-120.05124,51.39159],[-120.04499,51.39159],[-120.03874,51.39159],[-120.03874,51.38742],[-120.03874,51.38325],[-120.03874,51.37908],[-120.03874,51.37492],[-120.03874,51.37075],[-120.04499,51.37075],[-120.05124,51.37075],[-120.05124,51.37492],[-120.04499,51.37492],[-120.04499,51.37908],[-120.04499,51.38325],[-120.04499,51.38742],[-120.05124,51.38742],[-120.05749,51.38742],[-120.06374,51.38742],[-120.06999,51.38742],[-120.06999,51.38325],[-120.07624,51.38325],[-120.08249,51.38325],[-120.08874,51.38325],[-120.08874,51.38742],[-120.08249,51.38742],[-120.07624,51.38742]]]}},{"type":"Feature","properties":{"c":"1124616","o":"TORNROOS, NEIL ERIC","e":"2027-09-05Z"},"geometry":{"type":"Polygon","coordinates":[[[-120.08249,51.34574],[-120.08249,51.34991],[-120.07624,51.34991],[-120.06999,51.34991],[-120.06374,51.34991],[-120.06374,51.35408],[-120.05749,51.35408],[-120.05124,51.35408],[-120.04499,51.35408],[-120.04499,51.35825],[-120.04499,51.36242],[-120.05124,51.36241],[-120.05124,51.36658],[-120.05124,51.37075],[-120.04499,51.37075],[-120.03874,51.37075],[-120.03874,51.37492],[-120.03874,51.37908],[-120.03874,51.38325],[-120.03874,51.38742],[-120.03874,51.39159],[-120.03249,51.39159],[-120.03249,51.38742],[-120.03249,51.38325],[-120.03249,51.37908],[-120.03249,51.37492],[-120.03249,51.37075],[-120.03249,51.36658],[-120.03249,51.36242],[-120.03249,51.35825],[-120.03249,51.35408],[-120.03249,51.34991],[-120.03249,51.34575],[-120.03249,51.34158],[-120.03249,51.33741],[-120.03249,51.33324],[-120.02624,51.33324],[-120.02624,51.32908],[-120.01999,51.32908],[-120.01374,51.32908],[-120.00749,51.32908],[-120.00749,51.32491],[-120.00749,51.32074],[-120.00749,51.31658],[-120.00749,51.31241],[-120.00749,51.30824],[-120.01374,51.30824],[-120.01999,51.30824],[-120.01999,51.31241],[-120.02624,51.31241],[-120.02624,51.31658],[-120.02624,51.32074],[-120.03249,51.32074],[-120.03874,51.32074],[-120.04499,51.32074],[-120.04499,51.32491],[-120.04499,51.32908],[-120.05124,51.32908],[-120.05749,51.32908],[-120.06374,51.32908],[-120.06999,51.32908],[-120.07624,51.32908],[-120.08249,51.32908],[-120.08249,51.33324],[-120.08249,51.33741],[-120.08874,51.33741],[-120.08874,51.34158],[-120.09499,51.34158],[-120.09499,51.34574],[-120.08874,51.34574],[-120.08249,51.34574]]]}},{"type":"Feature","properties":{"c":"1124617","o":"TORNROOS, NEIL ERIC","e":"2027-09-05Z"},"geometry":{"type":"Polygon","coordinates":[[[-120.12,51.32074],[-120.11374,51.32074],[-120.10749,51.32074],[-120.10749,51.32491],[-120.10749,51.32908],[-120.10749,51.33324],[-120.10749,51.33741],[-120.10749,51.34158],[-120.10124,51.34158],[-120.09499,51.34158],[-120.08874,51.34158],[-120.08874,51.33741],[-120.08249,51.33741],[-120.08249,51.33324],[-120.08249,51.32908],[-120.07624,51.32908],[-120.06999,51.32908],[-120.06374,51.32908],[-120.05749,51.32908],[-120.05124,51.32908],[-120.04499,51.32908],[-120.04499,51.32491],[-120.04499,51.32074],[-120.03874,51.32074],[-120.03874,51.31658],[-120.03874,51.31241],[-120.03249,51.31241],[-120.03249,51.30824],[-120.02624,51.30824],[-120.02624,51.30407],[-120.02624,51.29991],[-120.01999,51.29991],[-120.01999,51.29574],[-120.01999,51.29157],[-120.01999,51.28741],[-120.01999,51.28324],[-120.02624,51.28324],[-120.03249,51.28324],[-120.03874,51.28324],[-120.04499,51.28324],[-120.05124,51.28324],[-120.05749,51.28324],[-120.06374,51.28324],[-120.06999,51.28324],[-120.07624,51.28324],[-120.08249,51.28324],[-120.08874,51.28324],[-120.09499,51.28324],[-120.10124,51.28324],[-120.10749,51.28324],[-120.11374,51.28324],[-120.12,51.28324],[-120.12,51.2874],[-120.12,51.29157],[-120.12,51.29574],[-120.12,51.2999],[-120.11374,51.2999],[-120.10749,51.29991],[-120.10749,51.30407],[-120.10749,51.30824],[-120.10749,51.31241],[-120.11374,51.31241],[-120.12,51.31241],[-120.11999,51.31657],[-120.12,51.32074]]]}},{"type":"Feature","properties":{"c":"1131711","o":"DECADE RESOURCES LTD.","e":"2027-03-26Z"},"geometry":{"type":"Polygon","coordinates":[[[-120.46376,50.9749],[-120.45751,50.97491],[-120.45126,50.97491],[-120.445,50.97491],[-120.43875,50.97491],[-120.4325,50.97491],[-120.42625,50.97491],[-120.42,50.97491],[-120.41375,50.97491],[-120.4075,50.97491],[-120.40125,50.97491],[-120.395,50.97491],[-120.38875,50.9749],[-120.38875,50.97907],[-120.38875,50.98324],[-120.38875,50.98741],[-120.38875,50.99157],[-120.38875,50.99574],[-120.38875,50.99991],[-120.38875,51.00407],[-120.38875,51.00824],[-120.38875,51.01241],[-120.38875,51.01658],[-120.38875,51.02074],[-120.38875,51.02491],[-120.38875,51.02908],[-120.38875,51.03324],[-120.38875,51.03741],[-120.3825,51.03741],[-120.37625,51.03741],[-120.37625,51.03324],[-120.37625,51.02907],[-120.37625,51.02491],[-120.37625,51.02074],[-120.37625,51.01657],[-120.37625,51.01241],[-120.37625,51.00824],[-120.37625,51.00407],[-120.37625,50.99991],[-120.37625,50.99574],[-120.37625,50.99157],[-120.37625,50.98741],[-120.37625,50.98324],[-120.37625,50.97907],[-120.37625,50.9749],[-120.37625,50.97074],[-120.37625,50.96657],[-120.3825,50.96657],[-120.38875,50.96657],[-120.395,50.96657],[-120.40125,50.96657],[-120.4075,50.96657],[-120.41375,50.96657],[-120.42,50.96657],[-120.42625,50.96657],[-120.4325,50.96657],[-120.43875,50.96657],[-120.445,50.96657],[-120.45126,50.96657],[-120.45751,50.96657],[-120.46376,50.96657],[-120.46376,50.97074],[-120.46376,50.9749]]]}},{"type":"Feature","properties":{"c":"1140059","o":"PARISH, MICHAEL DENNIS","e":"2027-10-06Z"},"geometry":{"type":"Polygon","coordinates":[[[-120.10749,51.13739],[-120.11374,51.13739],[-120.11374,51.14156],[-120.10749,51.14156],[-120.10749,51.13739]]]}},{"type":"Feature","properties":{"c":"1131037","o":"KANSPAR INDUSTRIES INC","e":"2027-03-11Z"},"geometry":{"type":"Polygon","coordinates":[[[-120.2575,51.18323],[-120.25125,51.18323],[-120.245,51.18323],[-120.23875,51.18323],[-120.2325,51.18323],[-120.2325,51.17906],[-120.2325,51.17489],[-120.23875,51.17489],[-120.245,51.17489],[-120.25125,51.17489],[-120.2575,51.1749],[-120.2575,51.17906],[-120.2575,51.18323]]]}},{"type":"Feature","properties":{"c":"1139934","o":"PARISH, MICHAEL DENNIS","e":"2027-10-04Z"},"geometry":{"type":"Polygon","coordinates":[[[-120.10124,51.13323],[-120.10749,51.13323],[-120.10749,51.13739],[-120.10124,51.13739],[-120.10124,51.13323]]]}},{"type":"Feature","properties":{"c":"1116594","o":"IMBUE CAPITAL INC.","e":"2027-11-03Z"},"geometry":{"type":"Polygon","coordinates":[[[-120.2575,51.11656],[-120.25125,51.11656],[-120.245,51.11656],[-120.23875,51.11656],[-120.23875,51.11239],[-120.23875,51.10823],[-120.2325,51.10823],[-120.2325,51.10406],[-120.2325,51.09989],[-120.23875,51.09989],[-120.245,51.09989],[-120.25125,51.09989],[-120.2575,51.0999],[-120.2575,51.10406],[-120.2575,51.10823],[-120.2575,51.1124],[-120.2575,51.11656]]]}},{"type":"Feature","properties":{"c":"1121056","o":"FUNK, KELLY BRENT","e":"2027-02-22Z"},"geometry":{"type":"Polygon","coordinates":[[[-120.00124,51.34991],[-120.00124,51.35408],[-119.99499,51.35408],[-119.99499,51.34992],[-120.00124,51.34991]]]}},{"type":"Feature","properties":{"c":"1124220","o":"ELLERBECK, KENNETH CECIL","e":"2027-10-01Z"},"geometry":{"type":"Polygon","coordinates":[[[-120.12625,51.31241],[-120.12,51.31241],[-120.11374,51.31241],[-120.10749,51.31241],[-120.10749,51.30824],[-120.10749,51.30407],[-120.10749,51.29991],[-120.11374,51.2999],[-120.12,51.2999],[-120.12,51.29574],[-120.12,51.29157],[-120.12,51.2874],[-120.12,51.28324],[-120.11374,51.28324],[-120.10749,51.28324],[-120.10124,51.28324],[-120.10124,51.27907],[-120.10124,51.2749],[-120.10749,51.2749],[-120.10749,51.27907],[-120.11374,51.27907],[-120.12,51.27907],[-120.12625,51.27907],[-120.12625,51.28324],[-120.12625,51.2874],[-120.12625,51.29157],[-120.12625,51.29574],[-120.12625,51.2999],[-120.12625,51.30407],[-120.12625,51.30824],[-120.12625,51.31241]]]}},{"type":"Feature","properties":{"c":"1126205","o":"GILLAM, ROBERT JOHN","e":"2028-09-24Z"},"geometry":{"type":"Polygon","coordinates":[[[-120.10749,51.13323],[-120.11374,51.13323],[-120.11374,51.13739],[-120.10749,51.13739],[-120.10749,51.13323]]]}},{"type":"Feature","properties":{"c":"1139541","o":"DUBE, SETH","e":"2027-09-25Z"},"geometry":{"type":"Polygon","coordinates":[[[-120.11374,51.13739],[-120.11999,51.13739],[-120.11999,51.14156],[-120.11374,51.14156],[-120.11374,51.13739]]]}},{"type":"Feature","properties":{"c":"1113549","o":"ELLERBECK, KENNETH CECIL","e":"2027-12-30Z"},"geometry":{"type":"Polygon","coordinates":[[[-120.23875,51.27907],[-120.2325,51.27907],[-120.22625,51.27907],[-120.22625,51.2749],[-120.22625,51.27073],[-120.22,51.27073],[-120.22,51.26657],[-120.22,51.2624],[-120.22,51.25823],[-120.22,51.25407],[-120.22625,51.25407],[-120.22625,51.25823],[-120.2325,51.25823],[-120.2325,51.2624],[-120.23875,51.2624],[-120.23875,51.26657],[-120.23875,51.27073],[-120.23875,51.2749],[-120.23875,51.27907]]]}},{"type":"Feature","properties":{"c":"1111302","o":"PARISH, MICHAEL DENNIS","e":"2027-02-16Z"},"geometry":{"type":"Polygon","coordinates":[[[-120.10749,51.13323],[-120.10124,51.13323],[-120.10124,51.12906],[-120.09499,51.12906],[-120.09499,51.12489],[-120.10124,51.12489],[-120.10749,51.12489],[-120.10749,51.12906],[-120.10749,51.13323]]]}}]}