{"type":"FeatureCollection","features":[{"type":"Feature","properties":{"c":"348482","o":"REYNOLDS, PAUL STUART","e":"2029-02-15Z"},"geometry":{"type":"Polygon","coordinates":[[[-121.24971,51.94399],[-121.24969,51.94848],[-121.24739,51.94848],[-121.24242,51.94848],[-121.24243,51.94402],[-121.24243,51.94399],[-121.24971,51.94399]]]}},{"type":"Feature","properties":{"c":"208337","o":"ENGOLD MINES LTD.","e":"2034-08-31Z"},"geometry":{"type":"Polygon","coordinates":[[[-121.34452,51.98228],[-121.34452,51.97817],[-121.35117,51.97817],[-121.35117,51.98228],[-121.34452,51.98228]]]}},{"type":"Feature","properties":{"c":"373378","o":"ENGOLD MINES LTD.","e":"2034-08-31Z"},"geometry":{"type":"Polygon","coordinates":[[[-121.24954,51.99631],[-121.2495,51.99631],[-121.24829,51.99631],[-121.24829,51.99182],[-121.2483,51.98755],[-121.2483,51.98733],[-121.2483,51.97834],[-121.27741,51.97834],[-121.27742,51.99631],[-121.27742,51.99632],[-121.25097,51.99631],[-121.24954,51.99631]]]}},{"type":"Feature","properties":{"c":"373379","o":"ENGOLD MINES LTD.","e":"2034-08-31Z"},"geometry":{"type":"Polygon","coordinates":[[[-121.27649,51.9631],[-121.27649,51.96036],[-121.27741,51.96036],[-121.27741,51.9756],[-121.27741,51.97834],[-121.2483,51.97834],[-121.24831,51.96311],[-121.27649,51.9631]]]}},{"type":"Feature","properties":{"c":"208336","o":"ENGOLD MINES LTD.","e":"2034-08-31Z"},"geometry":{"type":"Polygon","coordinates":[[[-121.33786,51.98228],[-121.33786,51.97817],[-121.34452,51.97817],[-121.34452,51.98228],[-121.33786,51.98228]]]}},{"type":"Feature","properties":{"c":"348485","o":"REYNOLDS, PAUL STUART","e":"2029-02-15Z"},"geometry":{"type":"Polygon","coordinates":[[[-121.27649,51.94962],[-121.27649,51.96036],[-121.27649,51.9631],[-121.24831,51.96311],[-121.24739,51.96311],[-121.24739,51.94962],[-121.27649,51.94962]]]}},{"type":"Feature","properties":{"c":"348486","o":"REYNOLDS, PAUL STUART","e":"2029-02-15Z"},"geometry":{"type":"MultiPolygon","coordinates":[[[[-121.24963,51.935],[-121.24739,51.935],[-121.24739,51.92715],[-121.27647,51.92715],[-121.27649,51.94962],[-121.24739,51.94962],[-121.24739,51.94848],[-121.24969,51.94848],[-121.24971,51.94399],[-121.24961,51.9395],[-121.24963,51.935]]],[[[-121.24739,51.93952],[-121.24739,51.93949],[-121.24961,51.9395],[-121.24739,51.93952]]]]}},{"type":"Feature","properties":{"c":"373380","o":"ENGOLD MINES LTD.","e":"2034-08-31Z"},"geometry":{"type":"Polygon","coordinates":[[[-121.30653,51.99631],[-121.30653,51.97834],[-121.31306,51.97834],[-121.32034,51.97834],[-121.32287,51.97834],[-121.33015,51.97834],[-121.33564,51.97834],[-121.33565,51.99632],[-121.31392,51.99632],[-121.30653,51.99632],[-121.30653,51.99631]]]}},{"type":"Feature","properties":{"c":"348483","o":"REYNOLDS, PAUL STUART","e":"2029-02-15Z"},"geometry":{"type":"Polygon","coordinates":[[[-121.24961,51.9395],[-121.24971,51.94399],[-121.24243,51.94406],[-121.24243,51.94402],[-121.24234,51.93956],[-121.24739,51.93952],[-121.24961,51.9395]]]}},{"type":"Feature","properties":{"c":"348484","o":"REYNOLDS, PAUL STUART","e":"2029-02-15Z"},"geometry":{"type":"Polygon","coordinates":[[[-121.24963,51.935],[-121.24961,51.9395],[-121.24739,51.93949],[-121.24233,51.93948],[-121.24236,51.93499],[-121.24739,51.935],[-121.24963,51.935]]]}},{"type":"Feature","properties":{"c":"208375","o":"ENGOLD MINES LTD.","e":"2034-08-31Z"},"geometry":{"type":"Polygon","coordinates":[[[-121.35431,51.98253],[-121.35117,51.98253],[-121.35117,51.98228],[-121.35117,51.97817],[-121.35184,51.97817],[-121.35198,51.97817],[-121.35213,51.97817],[-121.35431,51.97817],[-121.35431,51.98253]]]}},{"type":"Feature","properties":{"c":"208311","o":"ENGOLD MINES LTD.","e":"2034-08-31Z"},"geometry":{"type":"Polygon","coordinates":[[[-121.35926,51.97817],[-121.36654,51.97817],[-121.39071,51.97816],[-121.39071,51.97932],[-121.39072,51.98831],[-121.39072,51.99281],[-121.39072,51.99588],[-121.39072,51.99614],[-121.36493,51.99615],[-121.3649,51.99615],[-121.35432,51.99615],[-121.35431,51.99601],[-121.3576,51.99601],[-121.35759,51.98252],[-121.35431,51.98253],[-121.35431,51.97817],[-121.35926,51.97817]]]}},{"type":"Feature","properties":{"c":"309368","o":"ENGOLD MINES LTD.","e":"2034-08-31Z"},"geometry":{"type":"Polygon","coordinates":[[[-121.33664,51.95408],[-121.3357,51.95408],[-121.3357,51.94335],[-121.3357,51.94221],[-121.34048,51.94221],[-121.34775,51.94221],[-121.34959,51.94223],[-121.34969,51.93801],[-121.35364,51.93801],[-121.35373,51.94221],[-121.36471,51.9422],[-121.36472,51.94336],[-121.36473,51.94535],[-121.3648,51.96048],[-121.36473,51.96048],[-121.33664,51.96048],[-121.33664,51.95408]]]}},{"type":"Feature","properties":{"c":"208312","o":"ENGOLD MINES LTD.","e":"2034-08-31Z"},"geometry":{"type":"Polygon","coordinates":[[[-121.33742,51.98253],[-121.35117,51.98253],[-121.35431,51.98253],[-121.35759,51.98252],[-121.3576,51.99601],[-121.34306,51.99601],[-121.34305,51.99601],[-121.33576,51.99601],[-121.33576,51.98253],[-121.33742,51.98253]]]}},{"type":"Feature","properties":{"c":"373381","o":"ENGOLD MINES LTD.","e":"2034-08-31Z"},"geometry":{"type":"Polygon","coordinates":[[[-121.30654,51.99631],[-121.30653,51.99631],[-121.28502,51.99632],[-121.2801,51.99632],[-121.27742,51.99632],[-121.27742,51.99631],[-121.27741,51.97834],[-121.28394,51.97834],[-121.29122,51.97834],[-121.2985,51.97834],[-121.30578,51.97834],[-121.30653,51.97833],[-121.30653,51.97834],[-121.30654,51.99631]]]}},{"type":"Feature","properties":{"c":"208335","o":"ENGOLD MINES LTD.","e":"2034-08-31Z"},"geometry":{"type":"Polygon","coordinates":[[[-121.37935,51.96047],[-121.37936,51.96584],[-121.37937,51.97396],[-121.37929,51.97396],[-121.36654,51.97396],[-121.35926,51.97396],[-121.35198,51.97396],[-121.33743,51.97397],[-121.33665,51.97397],[-121.33664,51.96048],[-121.36473,51.96048],[-121.3648,51.96048],[-121.37935,51.96047]]]}},{"type":"Feature","properties":{"c":"577235","o":"ENGOLD MINES LTD.","e":"2034-08-31Z"},"geometry":{"type":"Polygon","coordinates":[[[-121.30757,51.97909],[-121.30132,51.97909],[-121.29507,51.97909],[-121.28882,51.97909],[-121.28257,51.97909],[-121.27632,51.97909],[-121.27632,51.97492],[-121.28257,51.97492],[-121.28257,51.97076],[-121.28257,51.96659],[-121.28257,51.96242],[-121.28257,51.95826],[-121.28257,51.95409],[-121.28882,51.95409],[-121.29507,51.95409],[-121.30132,51.95409],[-121.30757,51.95409],[-121.30757,51.95826],[-121.30757,51.96242],[-121.30757,51.96659],[-121.30757,51.97076],[-121.30757,51.97492],[-121.30757,51.97909]]]}},{"type":"Feature","properties":{"c":"577236","o":"ENGOLD MINES LTD.","e":"2034-08-31Z"},"geometry":{"type":"Polygon","coordinates":[[[-121.33882,51.97076],[-121.33257,51.97076],[-121.33257,51.97492],[-121.33257,51.97909],[-121.32632,51.97909],[-121.32007,51.97909],[-121.31382,51.97909],[-121.30757,51.97909],[-121.30757,51.97492],[-121.30757,51.97076],[-121.30757,51.96659],[-121.30757,51.96242],[-121.30757,51.95826],[-121.30757,51.95409],[-121.31382,51.95409],[-121.32007,51.95409],[-121.32632,51.95409],[-121.33257,51.95409],[-121.33882,51.95409],[-121.33882,51.95826],[-121.33882,51.96242],[-121.33882,51.96659],[-121.33882,51.97076]]]}},{"type":"Feature","properties":{"c":"577237","o":"ENGOLD MINES LTD.","e":"2034-08-31Z"},"geometry":{"type":"Polygon","coordinates":[[[-121.32007,51.95409],[-121.31382,51.95409],[-121.30757,51.95409],[-121.30132,51.95409],[-121.29507,51.95409],[-121.28882,51.95409],[-121.28882,51.94992],[-121.29507,51.94992],[-121.30132,51.94992],[-121.30757,51.94992],[-121.31382,51.94992],[-121.32007,51.94992],[-121.32632,51.94992],[-121.33257,51.94992],[-121.33257,51.95409],[-121.32632,51.95409],[-121.32007,51.95409]]]}},{"type":"Feature","properties":{"c":"577238","o":"ENGOLD MINES LTD.","e":"2034-08-31Z"},"geometry":{"type":"Polygon","coordinates":[[[-121.33257,51.94992],[-121.32632,51.94992],[-121.32007,51.94992],[-121.31382,51.94992],[-121.30757,51.94992],[-121.30132,51.94992],[-121.29507,51.94992],[-121.28882,51.94992],[-121.28882,51.94576],[-121.28882,51.94159],[-121.28882,51.93742],[-121.29507,51.93742],[-121.30132,51.93742],[-121.30757,51.93742],[-121.31382,51.93742],[-121.32007,51.93742],[-121.32632,51.93742],[-121.33257,51.93742],[-121.33257,51.94159],[-121.33257,51.94576],[-121.33257,51.94992]]]}},{"type":"Feature","properties":{"c":"577239","o":"ENGOLD MINES LTD.","e":"2034-08-31Z"},"geometry":{"type":"Polygon","coordinates":[[[-121.28882,51.95409],[-121.28257,51.95409],[-121.28257,51.94992],[-121.28257,51.94576],[-121.28257,51.94159],[-121.28882,51.94159],[-121.28882,51.94576],[-121.28882,51.94992],[-121.28882,51.95409]]]}},{"type":"Feature","properties":{"c":"577241","o":"ENGOLD MINES LTD.","e":"2034-08-31Z"},"geometry":{"type":"Polygon","coordinates":[[[-121.36382,51.97909],[-121.35757,51.97909],[-121.35132,51.97909],[-121.35132,51.98326],[-121.34507,51.98326],[-121.33882,51.98326],[-121.33257,51.98326],[-121.33257,51.97909],[-121.33257,51.97492],[-121.33257,51.97076],[-121.33882,51.97076],[-121.34507,51.97076],[-121.35132,51.97076],[-121.35757,51.97076],[-121.36382,51.97076],[-121.36382,51.97492],[-121.36382,51.97909]]]}},{"type":"Feature","properties":{"c":"520226","o":"ENGOLD MINES LTD.","e":"2034-08-31Z"},"geometry":{"type":"Polygon","coordinates":[[[-121.35132,51.94576],[-121.34507,51.94576],[-121.33882,51.94576],[-121.33882,51.94992],[-121.33882,51.95409],[-121.33257,51.95409],[-121.33257,51.94992],[-121.33257,51.94576],[-121.33257,51.94159],[-121.33257,51.93742],[-121.33882,51.93742],[-121.33882,51.94159],[-121.34507,51.94159],[-121.34507,51.93742],[-121.35132,51.93742],[-121.35757,51.93742],[-121.35757,51.94159],[-121.36382,51.94159],[-121.36382,51.94575],[-121.35757,51.94576],[-121.35132,51.94576]]]}},{"type":"Feature","properties":{"c":"520227","o":"ENGOLD MINES LTD.","e":"2034-08-31Z"},"geometry":{"type":"Polygon","coordinates":[[[-121.28257,51.97492],[-121.27632,51.97492],[-121.27632,51.97076],[-121.27632,51.96659],[-121.27632,51.96242],[-121.27632,51.95826],[-121.27632,51.95409],[-121.27632,51.94992],[-121.27632,51.94576],[-121.27632,51.94159],[-121.27632,51.93742],[-121.28257,51.93742],[-121.28882,51.93742],[-121.28882,51.94159],[-121.28257,51.94159],[-121.28257,51.94576],[-121.28257,51.94992],[-121.28257,51.95409],[-121.28257,51.95826],[-121.28257,51.96242],[-121.28257,51.96659],[-121.28257,51.97076],[-121.28257,51.97492]]]}},{"type":"Feature","properties":{"c":"515410","o":"ENGOLD MINES LTD.","e":"2034-08-31Z"},"geometry":{"type":"Polygon","coordinates":[[[-121.25132,51.98742],[-121.24507,51.98742],[-121.23882,51.98742],[-121.23257,51.98742],[-121.22632,51.98742],[-121.22632,51.98326],[-121.22632,51.97909],[-121.22632,51.97492],[-121.22632,51.97076],[-121.23257,51.97076],[-121.23882,51.97076],[-121.24507,51.97076],[-121.25132,51.97076],[-121.25132,51.97492],[-121.25132,51.97909],[-121.25132,51.98326],[-121.25132,51.98742]]]}},{"type":"Feature","properties":{"c":"697623","o":"ENGOLD MINES LTD.","e":"2034-08-31Z"},"geometry":{"type":"Polygon","coordinates":[[[-121.22632,51.98742],[-121.22007,51.98742],[-121.21382,51.98742],[-121.21382,51.98326],[-121.21382,51.97909],[-121.21382,51.97492],[-121.21382,51.97076],[-121.22007,51.97076],[-121.22632,51.97076],[-121.22632,51.97492],[-121.22632,51.97909],[-121.22632,51.98326],[-121.22632,51.98742]]]}},{"type":"Feature","properties":{"c":"836886","o":"ENGOLD MINES LTD.","e":"2034-08-31Z"},"geometry":{"type":"Polygon","coordinates":[[[-121.22007,51.99159],[-121.21382,51.99159],[-121.20757,51.99159],[-121.20757,51.98742],[-121.20757,51.98326],[-121.20757,51.97909],[-121.20757,51.97492],[-121.20757,51.97076],[-121.20757,51.96659],[-121.20757,51.96242],[-121.21382,51.96242],[-121.21382,51.96659],[-121.21382,51.97076],[-121.21382,51.97492],[-121.21382,51.97909],[-121.21382,51.98326],[-121.21382,51.98742],[-121.22007,51.98742],[-121.22632,51.98742],[-121.23257,51.98742],[-121.23257,51.99159],[-121.22632,51.99159],[-121.22007,51.99159]]]}},{"type":"Feature","properties":{"c":"857467","o":"ENGOLD MINES LTD.","e":"2034-08-31Z"},"geometry":{"type":"Polygon","coordinates":[[[-121.23257,51.97076],[-121.22632,51.97076],[-121.22007,51.97076],[-121.21382,51.97076],[-121.21382,51.96659],[-121.22007,51.96659],[-121.22632,51.96659],[-121.23257,51.96659],[-121.23882,51.96659],[-121.24507,51.96659],[-121.24507,51.97076],[-121.23882,51.97076],[-121.23257,51.97076]]]}},{"type":"Feature","properties":{"c":"899790","o":"ENGOLD MINES LTD.","e":"2034-08-31Z"},"geometry":{"type":"Polygon","coordinates":[[[-121.23257,51.96659],[-121.22632,51.96659],[-121.22007,51.96659],[-121.21382,51.96659],[-121.21382,51.96242],[-121.22007,51.96242],[-121.22632,51.96242],[-121.23257,51.96242],[-121.23882,51.96242],[-121.24507,51.96242],[-121.24507,51.96659],[-121.23882,51.96659],[-121.23257,51.96659]]]}},{"type":"Feature","properties":{"c":"899791","o":"ENGOLD MINES LTD.","e":"2034-08-31Z"},"geometry":{"type":"Polygon","coordinates":[[[-121.24507,51.96242],[-121.25132,51.96242],[-121.25132,51.96659],[-121.24507,51.96659],[-121.24507,51.96242]]]}},{"type":"Feature","properties":{"c":"606965","o":"ENGOLD MINES LTD.","e":"2034-08-31Z"},"geometry":{"type":"Polygon","coordinates":[[[-121.40758,51.92909],[-121.41383,51.92909],[-121.41383,51.93325],[-121.40758,51.93325],[-121.40758,51.92909]]]}},{"type":"Feature","properties":{"c":"854474","o":"ENGOLD MINES LTD.","e":"2034-08-31Z"},"geometry":{"type":"Polygon","coordinates":[[[-121.32632,51.93742],[-121.32007,51.93742],[-121.31382,51.93742],[-121.30757,51.93742],[-121.30132,51.93742],[-121.29507,51.93742],[-121.29507,51.93326],[-121.29507,51.92909],[-121.30132,51.92909],[-121.30757,51.92909],[-121.31382,51.92909],[-121.32007,51.92909],[-121.32632,51.92909],[-121.32632,51.93326],[-121.32632,51.93742]]]}},{"type":"Feature","properties":{"c":"854476","o":"ENGOLD MINES LTD.","e":"2034-08-31Z"},"geometry":{"type":"Polygon","coordinates":[[[-121.34507,51.94159],[-121.33882,51.94159],[-121.33882,51.93742],[-121.33257,51.93742],[-121.32632,51.93742],[-121.32632,51.93326],[-121.32632,51.92909],[-121.33257,51.92909],[-121.33882,51.92909],[-121.34507,51.92909],[-121.34507,51.93326],[-121.34507,51.93742],[-121.34507,51.94159]]]}},{"type":"Feature","properties":{"c":"399332","o":"ENGOLD MINES LTD.","e":"2034-08-31Z"},"geometry":{"type":"Polygon","coordinates":[[[-121.44478,51.96583],[-121.44478,51.96668],[-121.44478,51.97086],[-121.44478,51.97225],[-121.44478,51.97782],[-121.44478,51.97848],[-121.44478,51.98747],[-121.44478,51.98831],[-121.4375,51.98831],[-121.41568,51.9883],[-121.41566,51.9883],[-121.41567,51.97932],[-121.41567,51.97336],[-121.41567,51.96584],[-121.41567,51.96583],[-121.42295,51.96583],[-121.43023,51.96583],[-121.43433,51.96583],[-121.43882,51.96583],[-121.43884,51.96583],[-121.44478,51.96583]]]}},{"type":"Feature","properties":{"c":"399333","o":"ENGOLD MINES LTD.","e":"2034-08-31Z"},"geometry":{"type":"Polygon","coordinates":[[[-121.43022,51.95235],[-121.43022,51.95685],[-121.42295,51.95685],[-121.42295,51.95235],[-121.43022,51.95235]]]}},{"type":"Feature","properties":{"c":"399334","o":"ENGOLD MINES LTD.","e":"2034-08-31Z"},"geometry":{"type":"Polygon","coordinates":[[[-121.42295,51.95235],[-121.42295,51.95685],[-121.41567,51.95685],[-121.41567,51.95235],[-121.42295,51.95235]]]}},{"type":"Feature","properties":{"c":"399335","o":"ENGOLD MINES LTD.","e":"2034-08-31Z"},"geometry":{"type":"Polygon","coordinates":[[[-121.43022,51.95685],[-121.43023,51.96134],[-121.42295,51.96134],[-121.42295,51.95685],[-121.43022,51.95685]]]}},{"type":"Feature","properties":{"c":"399336","o":"ENGOLD MINES LTD.","e":"2034-08-31Z"},"geometry":{"type":"Polygon","coordinates":[[[-121.42295,51.95685],[-121.42295,51.96134],[-121.41567,51.96134],[-121.41567,51.95685],[-121.42295,51.95685]]]}},{"type":"Feature","properties":{"c":"399337","o":"ENGOLD MINES LTD.","e":"2034-08-31Z"},"geometry":{"type":"Polygon","coordinates":[[[-121.43023,51.96134],[-121.43023,51.96184],[-121.43023,51.96186],[-121.43023,51.96212],[-121.43023,51.96583],[-121.43023,51.96584],[-121.42295,51.96584],[-121.42295,51.96583],[-121.42295,51.96134],[-121.43023,51.96134]]]}},{"type":"Feature","properties":{"c":"399338","o":"ENGOLD MINES LTD.","e":"2034-08-31Z"},"geometry":{"type":"Polygon","coordinates":[[[-121.42295,51.96134],[-121.42295,51.96583],[-121.42295,51.96584],[-121.41567,51.96584],[-121.41567,51.96583],[-121.41567,51.96134],[-121.42295,51.96134]]]}},{"type":"Feature","properties":{"c":"407790","o":"ENGOLD MINES LTD.","e":"2034-08-31Z"},"geometry":{"type":"Polygon","coordinates":[[[-121.43886,51.95823],[-121.43298,51.96088],[-121.43023,51.96212],[-121.43023,51.96186],[-121.43023,51.96184],[-121.43023,51.95235],[-121.43023,51.95234],[-121.45205,51.95234],[-121.46661,51.95234],[-121.46661,51.96499],[-121.46661,51.96583],[-121.46021,51.96583],[-121.45293,51.96583],[-121.44784,51.96583],[-121.44744,51.96549],[-121.44315,51.96186],[-121.43886,51.95823]]]}},{"type":"Feature","properties":{"c":"407791","o":"ENGOLD MINES LTD.","e":"2034-08-31Z"},"geometry":{"type":"Polygon","coordinates":[[[-121.45203,51.93437],[-121.45205,51.95234],[-121.45205,51.95235],[-121.43023,51.95235],[-121.43022,51.95235],[-121.42295,51.95235],[-121.41567,51.95235],[-121.41567,51.93437],[-121.45203,51.93437]]]}},{"type":"Feature","properties":{"c":"407800","o":"ENGOLD MINES LTD.","e":"2034-08-31Z"},"geometry":{"type":"Polygon","coordinates":[[[-121.44478,51.98831],[-121.44478,51.98747],[-121.44478,51.97848],[-121.44856,51.98168],[-121.45285,51.98531],[-121.45873,51.98266],[-121.46461,51.98],[-121.46281,51.97848],[-121.48117,51.97848],[-121.48119,51.99646],[-121.44478,51.99646],[-121.44478,51.99197],[-121.44478,51.98831]]]}},{"type":"Feature","properties":{"c":"407801","o":"ENGOLD MINES LTD.","e":"2034-08-31Z"},"geometry":{"type":"Polygon","coordinates":[[[-121.44478,51.99197],[-121.44478,51.99646],[-121.4375,51.99646],[-121.4375,51.99197],[-121.44478,51.99197]]]}},{"type":"Feature","properties":{"c":"407802","o":"ENGOLD MINES LTD.","e":"2034-08-31Z"},"geometry":{"type":"Polygon","coordinates":[[[-121.44478,51.98831],[-121.44478,51.99197],[-121.4375,51.99197],[-121.4375,51.98831],[-121.44478,51.98831]]]}},{"type":"Feature","properties":{"c":"407803","o":"ENGOLD MINES LTD.","e":"2034-08-31Z"},"geometry":{"type":"Polygon","coordinates":[[[-121.46021,51.97629],[-121.46021,51.97398],[-121.46749,51.97398],[-121.46749,51.97848],[-121.46281,51.97848],[-121.46032,51.97637],[-121.46021,51.97629]]]}},{"type":"Feature","properties":{"c":"407804","o":"ENGOLD MINES LTD.","e":"2034-08-31Z"},"geometry":{"type":"Polygon","coordinates":[[[-121.46749,51.96949],[-121.46749,51.97398],[-121.46021,51.97398],[-121.46021,51.96949],[-121.46749,51.96949]]]}},{"type":"Feature","properties":{"c":"407805","o":"ENGOLD MINES LTD.","e":"2034-08-31Z"},"geometry":{"type":"Polygon","coordinates":[[[-121.46661,51.96583],[-121.46661,51.96499],[-121.46749,51.96499],[-121.46749,51.96949],[-121.46021,51.96949],[-121.46021,51.96583],[-121.46661,51.96583]]]}},{"type":"Feature","properties":{"c":"407806","o":"ENGOLD MINES LTD.","e":"2034-08-31Z"},"geometry":{"type":"Polygon","coordinates":[[[-121.45293,51.97013],[-121.45293,51.96949],[-121.46021,51.96949],[-121.46021,51.97398],[-121.45749,51.97398],[-121.45602,51.97275],[-121.45293,51.97013]]]}},{"type":"Feature","properties":{"c":"407807","o":"ENGOLD MINES LTD.","e":"2034-08-31Z"},"geometry":{"type":"Polygon","coordinates":[[[-121.46021,51.96583],[-121.46021,51.96949],[-121.45293,51.96949],[-121.45293,51.96583],[-121.46021,51.96583]]]}},{"type":"Feature","properties":{"c":"520034","o":"ENGOLD MINES LTD.","e":"2034-08-31Z"},"geometry":{"type":"Polygon","coordinates":[[[-121.45133,52.00826],[-121.44508,52.00826],[-121.43883,52.00826],[-121.43258,52.00826],[-121.42633,52.00826],[-121.42008,52.00826],[-121.42008,52.00409],[-121.42008,51.99992],[-121.42008,51.99576],[-121.41383,51.99576],[-121.40758,51.99576],[-121.40133,51.99576],[-121.39508,51.99576],[-121.39508,51.99159],[-121.40133,51.99159],[-121.40758,51.99159],[-121.41383,51.99159],[-121.42008,51.99159],[-121.42008,51.98742],[-121.42633,51.98742],[-121.43258,51.98742],[-121.43883,51.98742],[-121.43883,51.99159],[-121.43883,51.99576],[-121.44508,51.99576],[-121.45133,51.99575],[-121.45133,51.99992],[-121.45133,52.00409],[-121.45133,52.00826]]]}},{"type":"Feature","properties":{"c":"520198","o":"ENGOLD MINES LTD.","e":"2034-08-31Z"},"geometry":{"type":"Polygon","coordinates":[[[-121.28257,51.93742],[-121.27632,51.93742],[-121.27632,51.93326],[-121.27632,51.92909],[-121.28257,51.92909],[-121.28257,51.93326],[-121.28257,51.93742]]]}},{"type":"Feature","properties":{"c":"520229","o":"ENGOLD MINES LTD.","e":"2034-08-31Z"},"geometry":{"type":"Polygon","coordinates":[[[-121.43883,51.93742],[-121.43258,51.93742],[-121.42633,51.93742],[-121.42008,51.93742],[-121.42008,51.94159],[-121.41383,51.94159],[-121.41383,51.93742],[-121.41383,51.93325],[-121.42008,51.93325],[-121.42633,51.93325],[-121.43258,51.93325],[-121.43883,51.93325],[-121.44508,51.93325],[-121.45133,51.93325],[-121.45133,51.93742],[-121.44508,51.93742],[-121.43883,51.93742]]]}},{"type":"Feature","properties":{"c":"527632","o":"ENGOLD MINES LTD.","e":"2034-08-31Z"},"geometry":{"type":"Polygon","coordinates":[[[-121.39508,52.00409],[-121.38883,52.00409],[-121.38257,52.00409],[-121.37632,52.00409],[-121.37007,52.00409],[-121.36382,52.00409],[-121.36382,51.99992],[-121.36382,51.99576],[-121.37007,51.99576],[-121.37632,51.99576],[-121.38258,51.99576],[-121.38883,51.99576],[-121.39508,51.99576],[-121.39508,51.99992],[-121.39508,52.00409]]]}},{"type":"Feature","properties":{"c":"527633","o":"ENGOLD MINES LTD.","e":"2034-08-31Z"},"geometry":{"type":"Polygon","coordinates":[[[-121.36382,52.00409],[-121.35757,52.00409],[-121.35132,52.00409],[-121.34507,52.00409],[-121.33882,52.00409],[-121.33882,51.99992],[-121.33882,51.99576],[-121.34507,51.99576],[-121.35132,51.99576],[-121.35757,51.99576],[-121.36382,51.99576],[-121.36382,51.99992],[-121.36382,52.00409]]]}},{"type":"Feature","properties":{"c":"527634","o":"ENGOLD MINES LTD.","e":"2034-08-31Z"},"geometry":{"type":"Polygon","coordinates":[[[-121.33882,52.00409],[-121.33257,52.00409],[-121.32632,52.00409],[-121.32007,52.00409],[-121.31382,52.00409],[-121.31382,51.99992],[-121.31382,51.99576],[-121.32007,51.99576],[-121.32632,51.99576],[-121.33257,51.99576],[-121.33882,51.99576],[-121.33882,51.99992],[-121.33882,52.00409]]]}},{"type":"Feature","properties":{"c":"527636","o":"ENGOLD MINES LTD.","e":"2034-08-31Z"},"geometry":{"type":"Polygon","coordinates":[[[-121.31382,52.00409],[-121.30757,52.00409],[-121.30132,52.00409],[-121.29507,52.00409],[-121.28882,52.00409],[-121.28257,52.00409],[-121.28257,51.99992],[-121.28257,51.99576],[-121.28882,51.99576],[-121.29507,51.99576],[-121.30132,51.99576],[-121.30757,51.99576],[-121.31382,51.99576],[-121.31382,51.99992],[-121.31382,52.00409]]]}},{"type":"Feature","properties":{"c":"527637","o":"ENGOLD MINES LTD.","e":"2034-08-31Z"},"geometry":{"type":"Polygon","coordinates":[[[-121.42008,52.02076],[-121.41383,52.02076],[-121.40758,52.02076],[-121.40133,52.02076],[-121.39508,52.02076],[-121.39508,52.01659],[-121.39508,52.01242],[-121.39508,52.00826],[-121.39508,52.00409],[-121.39508,51.99992],[-121.39508,51.99576],[-121.40133,51.99576],[-121.40758,51.99576],[-121.41383,51.99576],[-121.42008,51.99576],[-121.42008,51.99992],[-121.42008,52.00409],[-121.42008,52.00826],[-121.42008,52.01242],[-121.42008,52.01659],[-121.42008,52.02076]]]}},{"type":"Feature","properties":{"c":"528085","o":"ENGOLD MINES LTD.","e":"2034-08-31Z"},"geometry":{"type":"Polygon","coordinates":[[[-121.27632,51.99992],[-121.28257,51.99992],[-121.28257,52.00409],[-121.27632,52.00409],[-121.27632,51.99992]]]}},{"type":"Feature","properties":{"c":"854520","o":"ENGOLD MINES LTD.","e":"2034-08-31Z"},"geometry":{"type":"Polygon","coordinates":[[[-121.40133,51.93742],[-121.39508,51.93742],[-121.38883,51.93742],[-121.38258,51.93742],[-121.38258,51.94159],[-121.37633,51.94159],[-121.37007,51.94159],[-121.36382,51.94159],[-121.35757,51.94159],[-121.35757,51.93742],[-121.35132,51.93742],[-121.34507,51.93742],[-121.34507,51.93326],[-121.34507,51.92909],[-121.35132,51.92909],[-121.35757,51.92909],[-121.36382,51.92909],[-121.37007,51.92909],[-121.37633,51.92909],[-121.38258,51.92909],[-121.38883,51.92909],[-121.39508,51.92909],[-121.40133,51.92909],[-121.40758,51.92909],[-121.40758,51.93325],[-121.41383,51.93325],[-121.41383,51.93742],[-121.40758,51.93742],[-121.40133,51.93742]]]}},{"type":"Feature","properties":{"c":"941549","o":"ENGOLD MINES LTD.","e":"2034-08-31Z"},"geometry":{"type":"Polygon","coordinates":[[[-121.24507,51.96659],[-121.25132,51.96659],[-121.25132,51.97076],[-121.24507,51.97076],[-121.24507,51.96659]]]}},{"type":"Feature","properties":{"c":"832351","o":"ENGOLD MINES LTD.","e":"2034-08-31Z"},"geometry":{"type":"Polygon","coordinates":[[[-121.29507,51.93742],[-121.28882,51.93742],[-121.28257,51.93742],[-121.28257,51.93326],[-121.28257,51.92909],[-121.28882,51.92909],[-121.29507,51.92909],[-121.29507,51.93326],[-121.29507,51.93742]]]}},{"type":"Feature","properties":{"c":"862634","o":"ENGOLD MINES LTD.","e":"2034-08-31Z"},"geometry":{"type":"Polygon","coordinates":[[[-121.27632,52.00409],[-121.27007,52.00409],[-121.27007,52.00826],[-121.27007,52.01242],[-121.27007,52.01659],[-121.27007,52.02076],[-121.26382,52.02076],[-121.25757,52.02076],[-121.25132,52.02076],[-121.25132,52.01659],[-121.25132,52.01242],[-121.25132,52.00826],[-121.25132,52.00409],[-121.25132,51.99992],[-121.25132,51.99576],[-121.25757,51.99576],[-121.26382,51.99576],[-121.27007,51.99576],[-121.27632,51.99576],[-121.27632,51.99992],[-121.27632,52.00409]]]}},{"type":"Feature","properties":{"c":"865254","o":"ENGOLD MINES LTD.","e":"2034-08-31Z"},"geometry":{"type":"Polygon","coordinates":[[[-121.27632,51.99576],[-121.28257,51.99576],[-121.28257,51.99992],[-121.27632,51.99992],[-121.27632,51.99576]]]}},{"type":"Feature","properties":{"c":"1034358","o":"ENGOLD MINES LTD.","e":"2034-08-31Z"},"geometry":{"type":"Polygon","coordinates":[[[-121.40758,51.97076],[-121.40133,51.97076],[-121.40133,51.97492],[-121.39508,51.97492],[-121.38883,51.97492],[-121.38883,51.97076],[-121.38258,51.97076],[-121.38258,51.96659],[-121.38258,51.96242],[-121.38258,51.95826],[-121.38258,51.95409],[-121.38883,51.95409],[-121.38883,51.94992],[-121.39508,51.94992],[-121.40133,51.94992],[-121.40133,51.95409],[-121.40133,51.95825],[-121.40133,51.96242],[-121.40758,51.96242],[-121.40758,51.96659],[-121.40758,51.97076]]]}},{"type":"Feature","properties":{"c":"1040124","o":"ENGOLD MINES LTD.","e":"2034-08-31Z"},"geometry":{"type":"Polygon","coordinates":[[[-121.36382,51.95826],[-121.37007,51.95826],[-121.37007,51.96242],[-121.36382,51.96242],[-121.36382,51.95826]]]}},{"type":"Feature","properties":{"c":"1040127","o":"ENGOLD MINES LTD.","e":"2034-08-31Z"},"geometry":{"type":"Polygon","coordinates":[[[-121.37007,51.97909],[-121.36382,51.97909],[-121.36382,51.97492],[-121.36382,51.97076],[-121.37007,51.97076],[-121.37007,51.97492],[-121.37007,51.97909]]]}},{"type":"Feature","properties":{"c":"1066315","o":"ENGOLD MINES LTD.","e":"2034-08-31Z"},"geometry":{"type":"Polygon","coordinates":[[[-121.30757,51.92909],[-121.30132,51.92909],[-121.29507,51.92909],[-121.28882,51.92909],[-121.28882,51.92492],[-121.28882,51.92076],[-121.28882,51.91659],[-121.28882,51.91242],[-121.28882,51.90826],[-121.28882,51.90409],[-121.29507,51.90409],[-121.30132,51.90409],[-121.30757,51.90409],[-121.30757,51.90826],[-121.30757,51.91242],[-121.30757,51.91659],[-121.30757,51.92076],[-121.30757,51.92492],[-121.30757,51.92909]]]}},{"type":"Feature","properties":{"c":"1066316","o":"ENGOLD MINES LTD.","e":"2034-08-31Z"},"geometry":{"type":"Polygon","coordinates":[[[-121.33257,51.92909],[-121.32632,51.92909],[-121.32007,51.92909],[-121.31382,51.92909],[-121.31382,51.92492],[-121.31382,51.92076],[-121.30757,51.92076],[-121.30757,51.91659],[-121.30757,51.91242],[-121.30757,51.90826],[-121.30757,51.90409],[-121.31382,51.90409],[-121.32007,51.90409],[-121.32632,51.90409],[-121.33257,51.90409],[-121.33257,51.90825],[-121.33257,51.91242],[-121.33257,51.91659],[-121.33257,51.92076],[-121.33257,51.92492],[-121.33257,51.92909]]]}},{"type":"Feature","properties":{"c":"1066317","o":"ENGOLD MINES LTD.","e":"2034-08-31Z"},"geometry":{"type":"Polygon","coordinates":[[[-121.35132,51.92909],[-121.34507,51.92909],[-121.33882,51.92909],[-121.33257,51.92909],[-121.33257,51.92492],[-121.33257,51.92076],[-121.33257,51.91659],[-121.33257,51.91242],[-121.33257,51.90825],[-121.33257,51.90409],[-121.33882,51.90409],[-121.34507,51.90409],[-121.35132,51.90409],[-121.35132,51.90825],[-121.35132,51.91242],[-121.35132,51.91659],[-121.35132,51.92075],[-121.35132,51.92492],[-121.35132,51.92909]]]}},{"type":"Feature","properties":{"c":"1066318","o":"ENGOLD MINES LTD.","e":"2034-08-31Z"},"geometry":{"type":"Polygon","coordinates":[[[-121.37007,51.92909],[-121.36382,51.92909],[-121.35757,51.92909],[-121.35132,51.92909],[-121.35132,51.92492],[-121.35132,51.92075],[-121.35132,51.91659],[-121.35132,51.91242],[-121.35132,51.90825],[-121.35132,51.90409],[-121.35757,51.90409],[-121.36382,51.90409],[-121.37007,51.90409],[-121.37008,51.90825],[-121.37008,51.91242],[-121.37008,51.91659],[-121.37008,51.92075],[-121.37007,51.92492],[-121.37007,51.92909]]]}},{"type":"Feature","properties":{"c":"1066319","o":"ENGOLD MINES LTD.","e":"2034-08-31Z"},"geometry":{"type":"Polygon","coordinates":[[[-121.38883,51.92909],[-121.38258,51.92909],[-121.37633,51.92909],[-121.37007,51.92909],[-121.37007,51.92492],[-121.37008,51.92075],[-121.37008,51.91659],[-121.37008,51.91242],[-121.37008,51.90825],[-121.37007,51.90409],[-121.37633,51.90409],[-121.38258,51.90409],[-121.38883,51.90409],[-121.38883,51.90825],[-121.38883,51.91242],[-121.38883,51.91659],[-121.38883,51.92075],[-121.38883,51.92492],[-121.38883,51.92909]]]}},{"type":"Feature","properties":{"c":"1066320","o":"ENGOLD MINES LTD.","e":"2034-08-31Z"},"geometry":{"type":"Polygon","coordinates":[[[-121.40758,51.92909],[-121.40133,51.92909],[-121.39508,51.92909],[-121.38883,51.92909],[-121.38883,51.92492],[-121.38883,51.92075],[-121.38883,51.91659],[-121.38883,51.91242],[-121.38883,51.90825],[-121.38883,51.90409],[-121.39508,51.90409],[-121.40133,51.90409],[-121.40758,51.90409],[-121.40758,51.90825],[-121.40758,51.91242],[-121.40758,51.91659],[-121.40758,51.92075],[-121.40758,51.92492],[-121.40758,51.92909]]]}},{"type":"Feature","properties":{"c":"1066321","o":"ENGOLD MINES LTD.","e":"2034-08-31Z"},"geometry":{"type":"Polygon","coordinates":[[[-121.42008,51.93325],[-121.41383,51.93325],[-121.41383,51.92909],[-121.40758,51.92909],[-121.40758,51.92492],[-121.40758,51.92075],[-121.40758,51.91659],[-121.40758,51.91242],[-121.40758,51.90825],[-121.40758,51.90409],[-121.41383,51.90409],[-121.42008,51.90409],[-121.42008,51.90825],[-121.42008,51.91242],[-121.42008,51.91659],[-121.42008,51.92075],[-121.42008,51.92492],[-121.42008,51.92909],[-121.42008,51.93325]]]}},{"type":"Feature","properties":{"c":"1066314","o":"ENGOLD MINES LTD.","e":"2034-08-31Z"},"geometry":{"type":"Polygon","coordinates":[[[-121.28882,51.92909],[-121.28257,51.92909],[-121.27632,51.92909],[-121.27007,51.92909],[-121.27007,51.92492],[-121.27007,51.92076],[-121.27007,51.91659],[-121.27007,51.91242],[-121.27007,51.90826],[-121.27007,51.90409],[-121.27632,51.90409],[-121.28257,51.90409],[-121.28882,51.90409],[-121.28882,51.90826],[-121.28882,51.91242],[-121.28882,51.91659],[-121.28882,51.92076],[-121.28882,51.92492],[-121.28882,51.92909]]]}},{"type":"Feature","properties":{"c":"1061089","o":"ENGOLD MINES LTD.","e":"2034-08-31Z"},"geometry":{"type":"Polygon","coordinates":[[[-121.46383,51.98325],[-121.45758,51.98325],[-121.45758,51.98742],[-121.45133,51.98742],[-121.45133,51.98325],[-121.44508,51.98326],[-121.44508,51.97909],[-121.44508,51.97492],[-121.44508,51.97075],[-121.44508,51.96659],[-121.43883,51.96659],[-121.43258,51.96659],[-121.42633,51.96659],[-121.42633,51.96242],[-121.42633,51.95825],[-121.43258,51.95825],[-121.43883,51.95825],[-121.44508,51.95825],[-121.44508,51.96242],[-121.45133,51.96242],[-121.45133,51.96659],[-121.45758,51.96659],[-121.45758,51.97075],[-121.46383,51.97075],[-121.46383,51.97492],[-121.46383,51.97909],[-121.46383,51.98325]]]}},{"type":"Feature","properties":{"c":"1066864","o":"ENGOLD MINES LTD.","e":"2034-08-31Z"},"geometry":{"type":"Polygon","coordinates":[[[-121.42008,51.98742],[-121.41383,51.98742],[-121.41383,51.98326],[-121.41383,51.97909],[-121.41383,51.97492],[-121.41383,51.97075],[-121.41383,51.96659],[-121.41383,51.96242],[-121.41383,51.95825],[-121.41383,51.95409],[-121.41383,51.94992],[-121.41383,51.94575],[-121.41383,51.94159],[-121.42008,51.94159],[-121.42008,51.94575],[-121.42008,51.94992],[-121.42008,51.95409],[-121.42008,51.95825],[-121.42008,51.96242],[-121.42008,51.96659],[-121.42008,51.97076],[-121.42008,51.97492],[-121.42008,51.97909],[-121.42008,51.98326],[-121.42008,51.98742]]]}},{"type":"Feature","properties":{"c":"1058852","o":"ENGOLD MINES LTD.","e":"2034-08-31Z"},"geometry":{"type":"Polygon","coordinates":[[[-121.31382,51.92909],[-121.30757,51.92909],[-121.30757,51.92492],[-121.30757,51.92076],[-121.31382,51.92076],[-121.31382,51.92492],[-121.31382,51.92909]]]}},{"type":"Feature","properties":{"c":"1034474","o":"ENGOLD MINES LTD.","e":"2034-08-31Z"},"geometry":{"type":"MultiPolygon","coordinates":[[[[-121.40758,51.99159],[-121.40133,51.99159],[-121.39508,51.99159],[-121.39508,51.99576],[-121.38883,51.99576],[-121.38883,51.99159],[-121.38883,51.98742],[-121.38883,51.98326],[-121.38883,51.97909],[-121.38258,51.97909],[-121.37632,51.97909],[-121.37007,51.97909],[-121.37007,51.97492],[-121.37007,51.97076],[-121.37632,51.97076],[-121.37632,51.96659],[-121.37633,51.96242],[-121.37007,51.96242],[-121.37007,51.95826],[-121.36382,51.95826],[-121.36382,51.95409],[-121.36382,51.94992],[-121.36382,51.94575],[-121.36382,51.94159],[-121.37007,51.94159],[-121.37633,51.94159],[-121.38258,51.94159],[-121.38258,51.93742],[-121.38883,51.93742],[-121.39508,51.93742],[-121.40133,51.93742],[-121.40758,51.93742],[-121.41383,51.93742],[-121.41383,51.94159],[-121.41383,51.94575],[-121.41383,51.94992],[-121.41383,51.95409],[-121.41383,51.95825],[-121.41383,51.96242],[-121.41383,51.96659],[-121.41383,51.97075],[-121.41383,51.97492],[-121.41383,51.97909],[-121.41383,51.98326],[-121.41383,51.98742],[-121.42008,51.98742],[-121.42008,51.99159],[-121.41383,51.99159],[-121.40758,51.99159]],[[-121.40133,51.97076],[-121.40758,51.97076],[-121.40758,51.96659],[-121.40758,51.96242],[-121.40133,51.96242],[-121.40133,51.95825],[-121.40133,51.95409],[-121.40133,51.94992],[-121.39508,51.94992],[-121.38883,51.94992],[-121.38883,51.95409],[-121.38258,51.95409],[-121.38258,51.95826],[-121.38258,51.96242],[-121.38258,51.96659],[-121.38258,51.97076],[-121.38883,51.97076],[-121.38883,51.97492],[-121.39508,51.97492],[-121.40133,51.97492],[-121.40133,51.97076]]]]}},{"type":"Feature","properties":{"c":"1103059","o":"RYAN, BENJAMEN OLE","e":"2027-03-15Z"},"geometry":{"type":"Polygon","coordinates":[[[-121.33257,51.76242],[-121.32632,51.76242],[-121.32007,51.76242],[-121.32007,51.75825],[-121.32007,51.75408],[-121.32632,51.75408],[-121.33257,51.75408],[-121.33257,51.75825],[-121.33257,51.76242]]]}},{"type":"Feature","properties":{"c":"1091383","o":"PARRY, JODY JOHN HENRY","e":"2027-01-26Z"},"geometry":{"type":"Polygon","coordinates":[[[-121.12631,51.77075],[-121.13256,51.77075],[-121.13257,51.77492],[-121.12632,51.77492],[-121.12631,51.77075]]]}},{"type":"Feature","properties":{"c":"1133124","o":"ALLEN, BYRON JOHN","e":"2027-05-19Z"},"geometry":{"type":"Polygon","coordinates":[[[-121.08257,51.98742],[-121.08882,51.98742],[-121.08882,51.99159],[-121.08257,51.99159],[-121.08257,51.98742]]]}},{"type":"Feature","properties":{"c":"1132834","o":"ALLEN, BYRON JOHN","e":"2027-05-05Z"},"geometry":{"type":"Polygon","coordinates":[[[-121.07007,51.99993],[-121.06382,51.99993],[-121.06382,51.99576],[-121.05757,51.99576],[-121.05757,51.99159],[-121.06382,51.99159],[-121.07007,51.99159],[-121.07007,51.99576],[-121.07007,51.99993]]]}},{"type":"Feature","properties":{"c":"1132835","o":"ALLEN, BYRON JOHN","e":"2027-05-05Z"},"geometry":{"type":"Polygon","coordinates":[[[-121.02007,51.97493],[-121.01382,51.97493],[-121.01382,51.97076],[-121.01382,51.96659],[-121.02007,51.96659],[-121.02007,51.97076],[-121.02007,51.97493]]]}},{"type":"Feature","properties":{"c":"1138866","o":"GROPP, PHILIP BRADIC","e":"2027-09-11Z"},"geometry":{"type":"Polygon","coordinates":[[[-121.25757,51.84159],[-121.25132,51.84159],[-121.25132,51.84575],[-121.25132,51.84992],[-121.24507,51.84992],[-121.24507,51.84575],[-121.24507,51.84159],[-121.24507,51.83742],[-121.25132,51.83742],[-121.25132,51.83325],[-121.25132,51.82909],[-121.25757,51.82909],[-121.25757,51.83325],[-121.25757,51.83742],[-121.25757,51.84159]]]}},{"type":"Feature","properties":{"c":"1138557","o":"LANGILLE, MICHEAL SCOTT","e":"2027-09-03Z"},"geometry":{"type":"Polygon","coordinates":[[[-121.25757,51.89992],[-121.26382,51.89992],[-121.26382,51.90409],[-121.25757,51.90409],[-121.25757,51.89992]]]}},{"type":"Feature","properties":{"c":"1137025","o":"WALL, LEANNE MARIE","e":"2027-08-12Z"},"geometry":{"type":"Polygon","coordinates":[[[-121.45758,51.72075],[-121.45133,51.72075],[-121.45133,51.71658],[-121.45133,51.71241],[-121.45758,51.71241],[-121.45758,51.71658],[-121.45758,51.72075]]]}},{"type":"Feature","properties":{"c":"1113921","o":"FORTESCUE CANADA RESOURCES LTD.","e":"2028-04-17Z"},"geometry":{"type":"Polygon","coordinates":[[[-121.56383,51.88742],[-121.55758,51.88742],[-121.55133,51.88742],[-121.54508,51.88742],[-121.53883,51.88742],[-121.53258,51.88742],[-121.52633,51.88742],[-121.52008,51.88742],[-121.52008,51.88325],[-121.51383,51.88325],[-121.50758,51.88325],[-121.50133,51.88325],[-121.50133,51.87909],[-121.50133,51.87492],[-121.50133,51.87075],[-121.50133,51.86659],[-121.50133,51.86242],[-121.50133,51.85825],[-121.50133,51.85408],[-121.50133,51.84992],[-121.50133,51.84575],[-121.49508,51.84575],[-121.49508,51.84158],[-121.49508,51.83742],[-121.49508,51.83325],[-121.49508,51.82908],[-121.49508,51.82492],[-121.49508,51.82075],[-121.50133,51.82075],[-121.50758,51.82075],[-121.50758,51.82492],[-121.51383,51.82492],[-121.52008,51.82492],[-121.52633,51.82492],[-121.52633,51.82908],[-121.52633,51.83325],[-121.52633,51.83742],[-121.52633,51.84158],[-121.52633,51.84575],[-121.52633,51.84992],[-121.53258,51.84992],[-121.53258,51.85408],[-121.53258,51.85825],[-121.53258,51.86242],[-121.53258,51.86659],[-121.53883,51.86658],[-121.54508,51.86659],[-121.55133,51.86658],[-121.55758,51.86658],[-121.55758,51.87075],[-121.56383,51.87075],[-121.56383,51.87492],[-121.56383,51.87909],[-121.56383,51.88325],[-121.56383,51.88742]]]}},{"type":"Feature","properties":{"c":"1138836","o":"GROPP, PHILIP BRADIC","e":"2027-09-11Z"},"geometry":{"type":"Polygon","coordinates":[[[-121.30757,51.77075],[-121.30132,51.77075],[-121.29507,51.77075],[-121.28882,51.77075],[-121.28882,51.76658],[-121.28882,51.76242],[-121.29507,51.76242],[-121.30132,51.76242],[-121.30757,51.76242],[-121.30757,51.76658],[-121.30757,51.77075]]]}},{"type":"Feature","properties":{"c":"1113893","o":"FORTESCUE CANADA RESOURCES LTD.","e":"2028-04-17Z"},"geometry":{"type":"Polygon","coordinates":[[[-121.28256,51.56241],[-121.27631,51.56241],[-121.27006,51.56241],[-121.26381,51.56241],[-121.26381,51.56658],[-121.25756,51.56658],[-121.25756,51.57074],[-121.25131,51.57074],[-121.25131,51.57491],[-121.25131,51.57908],[-121.24506,51.57908],[-121.24506,51.58324],[-121.23881,51.58324],[-121.23881,51.58741],[-121.23256,51.58741],[-121.22631,51.58741],[-121.22006,51.58741],[-121.21381,51.58741],[-121.21381,51.58324],[-121.21381,51.57908],[-121.21381,51.57491],[-121.21381,51.57074],[-121.21381,51.56658],[-121.21381,51.56241],[-121.21381,51.55824],[-121.21381,51.55408],[-121.21381,51.54991],[-121.21381,51.54574],[-121.21381,51.54158],[-121.22006,51.54158],[-121.22631,51.54158],[-121.23256,51.54158],[-121.23881,51.54158],[-121.24506,51.54158],[-121.25131,51.54158],[-121.25131,51.54574],[-121.25756,51.54574],[-121.26381,51.54574],[-121.27006,51.54574],[-121.27631,51.54574],[-121.28256,51.54574],[-121.28256,51.54991],[-121.28256,51.55408],[-121.28256,51.55824],[-121.28256,51.56241]]]}},{"type":"Feature","properties":{"c":"1113894","o":"FORTESCUE CANADA RESOURCES LTD.","e":"2028-04-17Z"},"geometry":{"type":"Polygon","coordinates":[[[-121.09505,51.57491],[-121.0888,51.57491],[-121.08255,51.57491],[-121.0763,51.57491],[-121.07005,51.57491],[-121.0638,51.57491],[-121.0638,51.57075],[-121.05755,51.57075],[-121.05755,51.56658],[-121.05755,51.56241],[-121.0513,51.56241],[-121.04505,51.56241],[-121.04505,51.55825],[-121.0388,51.55825],[-121.0388,51.55408],[-121.0388,51.54991],[-121.0388,51.54575],[-121.0388,51.54158],[-121.0388,51.53741],[-121.0388,51.53325],[-121.0388,51.52908],[-121.04505,51.52908],[-121.0513,51.52908],[-121.0513,51.52491],[-121.05755,51.52491],[-121.0638,51.52491],[-121.0638,51.52075],[-121.07005,51.52075],[-121.0763,51.52075],[-121.08255,51.52075],[-121.0888,51.52075],[-121.0888,51.52491],[-121.0888,51.52908],[-121.09505,51.52908],[-121.09505,51.53325],[-121.09505,51.53741],[-121.09505,51.54158],[-121.09505,51.54575],[-121.09505,51.54991],[-121.09505,51.55408],[-121.09505,51.55825],[-121.09505,51.56241],[-121.09505,51.56658],[-121.09505,51.57075],[-121.09505,51.57491]]]}},{"type":"Feature","properties":{"c":"1113895","o":"FORTESCUE CANADA RESOURCES LTD.","e":"2028-04-17Z"},"geometry":{"type":"Polygon","coordinates":[[[-121.08255,51.58325],[-121.0763,51.58325],[-121.07005,51.58325],[-121.07005,51.58741],[-121.0638,51.58741],[-121.05755,51.58741],[-121.0513,51.58741],[-121.0513,51.59158],[-121.04505,51.59158],[-121.04505,51.59575],[-121.0388,51.59575],[-121.0388,51.59991],[-121.0388,51.60408],[-121.03255,51.60408],[-121.0263,51.60408],[-121.0263,51.59991],[-121.02005,51.59991],[-121.02005,51.59575],[-121.0138,51.59575],[-121.0138,51.59158],[-121.00755,51.59158],[-121.00755,51.58741],[-121.0013,51.58741],[-121.0013,51.58325],[-120.99505,51.58325],[-120.99505,51.57908],[-120.9888,51.57908],[-120.9888,51.57491],[-120.98255,51.57491],[-120.98255,51.57075],[-120.9763,51.57075],[-120.9763,51.56658],[-120.98255,51.56658],[-120.9888,51.56658],[-120.99505,51.56658],[-120.99505,51.56241],[-121.0013,51.56241],[-121.0013,51.55825],[-121.00755,51.55825],[-121.0138,51.55825],[-121.02005,51.55825],[-121.0263,51.55825],[-121.03255,51.55825],[-121.0388,51.55825],[-121.04505,51.55825],[-121.04505,51.56241],[-121.0513,51.56241],[-121.05755,51.56241],[-121.05755,51.56658],[-121.05755,51.57075],[-121.0638,51.57075],[-121.0638,51.57491],[-121.07005,51.57491],[-121.0763,51.57491],[-121.08255,51.57491],[-121.08255,51.57908],[-121.08255,51.58325]]]}},{"type":"Feature","properties":{"c":"1113896","o":"FORTESCUE CANADA RESOURCES LTD.","e":"2028-04-17Z"},"geometry":{"type":"Polygon","coordinates":[[[-121.0388,51.55825],[-121.03255,51.55825],[-121.0263,51.55825],[-121.02005,51.55825],[-121.0138,51.55825],[-121.00755,51.55825],[-121.0013,51.55825],[-121.0013,51.56241],[-120.99505,51.56241],[-120.99505,51.56658],[-120.9888,51.56658],[-120.98255,51.56658],[-120.9763,51.56658],[-120.97005,51.56658],[-120.97005,51.56241],[-120.9638,51.56241],[-120.95755,51.56241],[-120.95754,51.55825],[-120.95754,51.55408],[-120.9638,51.55408],[-120.96379,51.54991],[-120.96379,51.54575],[-120.96379,51.54158],[-120.97004,51.54158],[-120.97004,51.53741],[-120.97004,51.53325],[-120.97004,51.52908],[-120.97004,51.52491],[-120.97004,51.52075],[-120.97629,51.52075],[-120.98254,51.52075],[-120.98879,51.52075],[-120.9888,51.52491],[-120.99505,51.52491],[-121.0013,51.52491],[-121.00755,51.52491],[-121.00755,51.52908],[-121.0138,51.52908],[-121.0138,51.53325],[-121.02005,51.53325],[-121.0263,51.53325],[-121.03255,51.53325],[-121.0388,51.53325],[-121.0388,51.53741],[-121.0388,51.54158],[-121.0388,51.54575],[-121.0388,51.54991],[-121.0388,51.55408],[-121.0388,51.55825]]]}},{"type":"Feature","properties":{"c":"1113897","o":"FORTESCUE CANADA RESOURCES LTD.","e":"2028-04-17Z"},"geometry":{"type":"Polygon","coordinates":[[[-121.28256,51.54574],[-121.27631,51.54574],[-121.27006,51.54574],[-121.26381,51.54574],[-121.25756,51.54574],[-121.25131,51.54574],[-121.25131,51.54158],[-121.24506,51.54158],[-121.23881,51.54158],[-121.23256,51.54158],[-121.22631,51.54158],[-121.22006,51.54158],[-121.21381,51.54158],[-121.20756,51.54158],[-121.20131,51.54158],[-121.20131,51.53741],[-121.20756,51.53741],[-121.20756,51.53324],[-121.20756,51.52908],[-121.21381,51.52908],[-121.21381,51.52491],[-121.21381,51.52074],[-121.22006,51.52074],[-121.22006,51.51658],[-121.22006,51.51241],[-121.21381,51.51241],[-121.21381,51.50824],[-121.21381,51.50408],[-121.22006,51.50408],[-121.22631,51.50408],[-121.23256,51.50408],[-121.23881,51.50408],[-121.24506,51.50408],[-121.25131,51.50408],[-121.25756,51.50408],[-121.26381,51.50408],[-121.27006,51.50408],[-121.27006,51.50824],[-121.27006,51.51241],[-121.27006,51.51658],[-121.27631,51.51658],[-121.28256,51.51658],[-121.28256,51.52074],[-121.28256,51.52491],[-121.28256,51.52908],[-121.28256,51.53324],[-121.28256,51.53741],[-121.28256,51.54158],[-121.28256,51.54574]]]}},{"type":"Feature","properties":{"c":"1113883","o":"FORTESCUE CANADA RESOURCES LTD.","e":"2028-04-17Z"},"geometry":{"type":"Polygon","coordinates":[[[-121.0513,51.52908],[-121.04505,51.52908],[-121.0388,51.52908],[-121.0388,51.53325],[-121.03255,51.53325],[-121.0263,51.53325],[-121.02005,51.53325],[-121.0138,51.53325],[-121.0138,51.52908],[-121.00755,51.52908],[-121.00755,51.52491],[-121.0013,51.52491],[-120.99505,51.52491],[-120.9888,51.52491],[-120.98879,51.52075],[-120.98254,51.52075],[-120.97629,51.52075],[-120.97004,51.52075],[-120.97004,51.51658],[-120.97004,51.51241],[-120.97004,51.50825],[-120.97629,51.50825],[-120.97629,51.50408],[-120.97629,51.49991],[-120.98254,51.49991],[-120.98254,51.49575],[-120.98879,51.49575],[-120.99504,51.49575],[-121.00129,51.49575],[-121.00754,51.49575],[-121.0138,51.49575],[-121.02005,51.49575],[-121.0263,51.49575],[-121.03255,51.49575],[-121.03255,51.49158],[-121.0388,51.49158],[-121.04505,51.49158],[-121.0513,51.49158],[-121.0513,51.49575],[-121.0513,51.49991],[-121.0513,51.50408],[-121.0513,51.50825],[-121.0513,51.51241],[-121.0513,51.51658],[-121.0513,51.52075],[-121.0513,51.52491],[-121.0513,51.52908]]]}},{"type":"Feature","properties":{"c":"1113885","o":"FORTESCUE CANADA RESOURCES LTD.","e":"2028-04-17Z"},"geometry":{"type":"Polygon","coordinates":[[[-121.26381,51.50408],[-121.25756,51.50408],[-121.25131,51.50408],[-121.24506,51.50408],[-121.23881,51.50408],[-121.23256,51.50408],[-121.22631,51.50408],[-121.22006,51.50408],[-121.21381,51.50408],[-121.21381,51.49991],[-121.20756,51.49991],[-121.20131,51.49991],[-121.19506,51.49991],[-121.1888,51.49991],[-121.18255,51.49991],[-121.1763,51.49991],[-121.1763,51.49574],[-121.1763,51.49158],[-121.1763,51.48741],[-121.18255,51.48741],[-121.18255,51.48324],[-121.18255,51.47908],[-121.1888,51.47908],[-121.1888,51.47491],[-121.19505,51.47491],[-121.2013,51.47491],[-121.20755,51.47491],[-121.2138,51.47491],[-121.22006,51.47491],[-121.22005,51.47074],[-121.22631,51.47074],[-121.2263,51.46658],[-121.23256,51.46658],[-121.23881,51.46658],[-121.24506,51.46658],[-121.25131,51.46658],[-121.25131,51.47074],[-121.25756,51.47074],[-121.25756,51.47491],[-121.25756,51.47908],[-121.25756,51.48324],[-121.26381,51.48324],[-121.26381,51.48741],[-121.26381,51.49158],[-121.26381,51.49574],[-121.26381,51.49991],[-121.26381,51.50408]]]}},{"type":"Feature","properties":{"c":"1113998","o":"FORTESCUE CANADA RESOURCES LTD.","e":"2028-04-17Z"},"geometry":{"type":"Polygon","coordinates":[[[-121.50133,51.89159],[-121.49508,51.89159],[-121.49508,51.88742],[-121.48883,51.88742],[-121.48883,51.88325],[-121.48258,51.88325],[-121.48258,51.87909],[-121.48258,51.87492],[-121.47633,51.87492],[-121.47633,51.87075],[-121.47008,51.87075],[-121.47008,51.86659],[-121.46383,51.86659],[-121.46383,51.86242],[-121.45758,51.86242],[-121.45758,51.85825],[-121.45133,51.85825],[-121.45133,51.85409],[-121.44508,51.85409],[-121.44508,51.84992],[-121.44508,51.84575],[-121.43883,51.84575],[-121.43883,51.84159],[-121.43258,51.84159],[-121.43258,51.83742],[-121.42633,51.83742],[-121.42633,51.83325],[-121.42633,51.82908],[-121.43258,51.82909],[-121.43883,51.82908],[-121.44508,51.82908],[-121.45133,51.82908],[-121.45758,51.82908],[-121.46383,51.82908],[-121.47008,51.82908],[-121.47633,51.82908],[-121.48258,51.82908],[-121.48883,51.82908],[-121.49508,51.82908],[-121.49508,51.83325],[-121.49508,51.83742],[-121.49508,51.84158],[-121.49508,51.84575],[-121.50133,51.84575],[-121.50133,51.84992],[-121.50133,51.85408],[-121.50133,51.85825],[-121.50133,51.86242],[-121.50133,51.86659],[-121.50133,51.87075],[-121.50133,51.87492],[-121.50133,51.87909],[-121.50133,51.88325],[-121.50133,51.88742],[-121.50133,51.89159]]]}},{"type":"Feature","properties":{"c":"1114003","o":"FORTESCUE CANADA RESOURCES LTD.","e":"2028-04-17Z"},"geometry":{"type":"MultiPolygon","coordinates":[[[[-121.51383,51.79992],[-121.50758,51.79992],[-121.50758,51.79575],[-121.50133,51.79575],[-121.49508,51.79575],[-121.48883,51.79575],[-121.48258,51.79575],[-121.48258,51.79158],[-121.47633,51.79158],[-121.47008,51.79158],[-121.47008,51.79575],[-121.46383,51.79575],[-121.45758,51.79575],[-121.45758,51.79158],[-121.45758,51.78742],[-121.45758,51.78325],[-121.45758,51.77908],[-121.45758,51.77492],[-121.45758,51.77075],[-121.45758,51.76658],[-121.45758,51.76241],[-121.46383,51.76241],[-121.47008,51.76241],[-121.47008,51.75825],[-121.47008,51.75408],[-121.47008,51.74991],[-121.47008,51.74575],[-121.47633,51.74575],[-121.48258,51.74575],[-121.48883,51.74575],[-121.49508,51.74575],[-121.50133,51.74575],[-121.50758,51.74575],[-121.50758,51.74991],[-121.50758,51.75408],[-121.50758,51.75825],[-121.50758,51.76241],[-121.50758,51.76658],[-121.51383,51.76658],[-121.51383,51.77075],[-121.51383,51.77492],[-121.51383,51.77908],[-121.51383,51.78325],[-121.50758,51.78325],[-121.50133,51.78325],[-121.49508,51.78325],[-121.48883,51.78325],[-121.48258,51.78325],[-121.48258,51.78742],[-121.48883,51.78742],[-121.49508,51.78742],[-121.50133,51.78742],[-121.50758,51.78742],[-121.51383,51.78742],[-121.51383,51.79158],[-121.51383,51.79575],[-121.51383,51.79992]],[[-121.47008,51.78325],[-121.46383,51.78325],[-121.46383,51.78742],[-121.47008,51.78742],[-121.47008,51.78325]]]]}},{"type":"Feature","properties":{"c":"1114004","o":"FORTESCUE CANADA RESOURCES LTD.","e":"2028-04-17Z"},"geometry":{"type":"Polygon","coordinates":[[[-121.47633,51.74575],[-121.47008,51.74575],[-121.47008,51.74991],[-121.47008,51.75408],[-121.47008,51.75825],[-121.47008,51.76241],[-121.46383,51.76241],[-121.45758,51.76241],[-121.45758,51.76658],[-121.45758,51.77075],[-121.45758,51.77492],[-121.45758,51.77908],[-121.45758,51.78325],[-121.45758,51.78742],[-121.45133,51.78742],[-121.44508,51.78742],[-121.43883,51.78742],[-121.43258,51.78742],[-121.42633,51.78742],[-121.42008,51.78742],[-121.41383,51.78742],[-121.41383,51.78325],[-121.41383,51.77908],[-121.41383,51.77492],[-121.41383,51.77075],[-121.41383,51.76658],[-121.41383,51.76241],[-121.41382,51.75825],[-121.41382,51.75408],[-121.41382,51.74991],[-121.41382,51.74575],[-121.41382,51.74158],[-121.41382,51.73741],[-121.42008,51.73741],[-121.42633,51.73741],[-121.43258,51.73741],[-121.43883,51.73741],[-121.44508,51.73741],[-121.45133,51.73741],[-121.45758,51.73741],[-121.46383,51.73741],[-121.47008,51.73741],[-121.47633,51.73741],[-121.47633,51.74158],[-121.47633,51.74575]]]}},{"type":"Feature","properties":{"c":"1114005","o":"FORTESCUE CANADA RESOURCES LTD.","e":"2028-04-17Z"},"geometry":{"type":"Polygon","coordinates":[[[-121.55134,51.73325],[-121.54508,51.73325],[-121.54508,51.73742],[-121.54508,51.74158],[-121.53883,51.74158],[-121.53883,51.74575],[-121.53258,51.74575],[-121.52633,51.74575],[-121.52008,51.74575],[-121.51383,51.74575],[-121.50758,51.74575],[-121.50133,51.74575],[-121.49508,51.74575],[-121.48883,51.74575],[-121.48258,51.74575],[-121.47633,51.74575],[-121.47633,51.74158],[-121.47633,51.73741],[-121.47633,51.73325],[-121.47633,51.72908],[-121.47633,51.72491],[-121.47633,51.72075],[-121.47633,51.71658],[-121.47633,51.71241],[-121.48258,51.71241],[-121.48883,51.71241],[-121.49508,51.71241],[-121.50133,51.71241],[-121.50133,51.70825],[-121.50758,51.70825],[-121.51383,51.70825],[-121.52008,51.70825],[-121.52633,51.70825],[-121.53258,51.70825],[-121.53258,51.71241],[-121.53883,51.71241],[-121.53883,51.71658],[-121.54508,51.71658],[-121.54508,51.72075],[-121.55134,51.72075],[-121.55134,51.72491],[-121.55134,51.72908],[-121.55134,51.73325]]]}},{"type":"Feature","properties":{"c":"1114007","o":"FORTESCUE CANADA RESOURCES LTD.","e":"2028-04-17Z"},"geometry":{"type":"Polygon","coordinates":[[[-121.50758,51.70825],[-121.50133,51.70825],[-121.50133,51.71241],[-121.49508,51.71241],[-121.48883,51.71241],[-121.48258,51.71241],[-121.47633,51.71241],[-121.47008,51.71241],[-121.46383,51.71241],[-121.46383,51.70825],[-121.46383,51.70408],[-121.45758,51.70408],[-121.45758,51.69991],[-121.45758,51.69575],[-121.45758,51.69158],[-121.45758,51.68741],[-121.45133,51.68741],[-121.45133,51.68325],[-121.45133,51.67908],[-121.45133,51.67491],[-121.45133,51.67075],[-121.45133,51.66658],[-121.45133,51.66241],[-121.45133,51.65825],[-121.45758,51.65825],[-121.46383,51.65825],[-121.47008,51.65825],[-121.47633,51.65825],[-121.48258,51.65825],[-121.48258,51.66241],[-121.48883,51.66241],[-121.49508,51.66241],[-121.50133,51.66241],[-121.50133,51.66658],[-121.50133,51.67075],[-121.50133,51.67491],[-121.50133,51.67908],[-121.50758,51.67908],[-121.50758,51.68325],[-121.50758,51.68741],[-121.50758,51.69158],[-121.50758,51.69575],[-121.50758,51.69991],[-121.50758,51.70408],[-121.50758,51.70825]]]}},{"type":"Feature","properties":{"c":"1114008","o":"FORTESCUE CANADA RESOURCES LTD.","e":"2028-04-17Z"},"geometry":{"type":"Polygon","coordinates":[[[-121.47633,51.73741],[-121.47008,51.73741],[-121.46383,51.73741],[-121.45758,51.73741],[-121.45133,51.73741],[-121.44508,51.73741],[-121.43883,51.73741],[-121.43258,51.73741],[-121.42633,51.73741],[-121.42008,51.73741],[-121.41382,51.73741],[-121.41382,51.73325],[-121.41382,51.72908],[-121.41382,51.72491],[-121.41382,51.72075],[-121.41382,51.71658],[-121.41382,51.71241],[-121.41382,51.70825],[-121.42007,51.70825],[-121.42007,51.70408],[-121.42633,51.70408],[-121.42633,51.69991],[-121.42633,51.69575],[-121.42633,51.69158],[-121.42633,51.68741],[-121.42632,51.68325],[-121.43258,51.68325],[-121.43883,51.68325],[-121.44508,51.68325],[-121.45133,51.68325],[-121.45133,51.68741],[-121.45758,51.68741],[-121.45758,51.69158],[-121.45758,51.69575],[-121.45758,51.69991],[-121.45758,51.70408],[-121.46383,51.70408],[-121.46383,51.70825],[-121.46383,51.71241],[-121.47008,51.71241],[-121.47633,51.71241],[-121.47633,51.71658],[-121.47633,51.72075],[-121.47633,51.72491],[-121.47633,51.72908],[-121.47633,51.73325],[-121.47633,51.73741]]]}},{"type":"Feature","properties":{"c":"1114031","o":"FORTESCUE CANADA RESOURCES LTD.","e":"2028-04-17Z"},"geometry":{"type":"Polygon","coordinates":[[[-121.45133,51.68325],[-121.44508,51.68325],[-121.43883,51.68325],[-121.43258,51.68325],[-121.42632,51.68325],[-121.42633,51.68741],[-121.42633,51.69158],[-121.42633,51.69575],[-121.42633,51.69991],[-121.42633,51.70408],[-121.42007,51.70408],[-121.42007,51.70825],[-121.41382,51.70825],[-121.40757,51.70825],[-121.40132,51.70825],[-121.39507,51.70825],[-121.38882,51.70825],[-121.38882,51.70408],[-121.38882,51.69991],[-121.38882,51.69575],[-121.38882,51.69158],[-121.38257,51.69158],[-121.38257,51.68741],[-121.38257,51.68325],[-121.38257,51.67908],[-121.38257,51.67491],[-121.38257,51.67075],[-121.38257,51.66658],[-121.38882,51.66658],[-121.39507,51.66658],[-121.40132,51.66658],[-121.40132,51.66241],[-121.40757,51.66241],[-121.41382,51.66241],[-121.42007,51.66241],[-121.42007,51.65825],[-121.42632,51.65825],[-121.43258,51.65825],[-121.43883,51.65825],[-121.44508,51.65825],[-121.45133,51.65825],[-121.45133,51.66241],[-121.45133,51.66658],[-121.45133,51.67075],[-121.45133,51.67491],[-121.45133,51.67908],[-121.45133,51.68325]]]}},{"type":"Feature","properties":{"c":"1114034","o":"FORTESCUE CANADA RESOURCES LTD.","e":"2028-04-17Z"},"geometry":{"type":"Polygon","coordinates":[[[-121.53258,51.64991],[-121.52633,51.64991],[-121.52633,51.65408],[-121.52633,51.65825],[-121.52008,51.65825],[-121.52008,51.66241],[-121.51383,51.66241],[-121.50758,51.66241],[-121.50133,51.66241],[-121.49508,51.66241],[-121.48883,51.66241],[-121.48258,51.66241],[-121.48258,51.65825],[-121.48258,51.65408],[-121.48258,51.64991],[-121.48258,51.64575],[-121.48258,51.64158],[-121.48258,51.63741],[-121.48258,51.63325],[-121.48258,51.62908],[-121.48258,51.62491],[-121.48258,51.62075],[-121.48258,51.61658],[-121.48258,51.61241],[-121.48883,51.61241],[-121.49508,51.61241],[-121.50133,51.61241],[-121.50758,51.61241],[-121.51383,51.61241],[-121.52008,51.61241],[-121.52633,51.61241],[-121.53258,51.61241],[-121.53258,51.61658],[-121.53258,51.62075],[-121.53258,51.62491],[-121.53258,51.62908],[-121.53258,51.63325],[-121.53258,51.63741],[-121.53258,51.64158],[-121.53258,51.64575],[-121.53258,51.64991]]]}},{"type":"Feature","properties":{"c":"1114035","o":"FORTESCUE CANADA RESOURCES LTD.","e":"2028-04-17Z"},"geometry":{"type":"Polygon","coordinates":[[[-121.48258,51.65825],[-121.47633,51.65825],[-121.47008,51.65825],[-121.46383,51.65825],[-121.45758,51.65825],[-121.45133,51.65825],[-121.44508,51.65825],[-121.43883,51.65825],[-121.43258,51.65825],[-121.42632,51.65825],[-121.42632,51.65408],[-121.42632,51.64991],[-121.42632,51.64574],[-121.42632,51.64158],[-121.42632,51.63741],[-121.42632,51.63324],[-121.42632,51.62908],[-121.42632,51.62491],[-121.42632,51.62074],[-121.42632,51.61658],[-121.43257,51.61658],[-121.43883,51.61658],[-121.44508,51.61658],[-121.45133,51.61658],[-121.45758,51.61658],[-121.45758,51.61241],[-121.46383,51.61241],[-121.47008,51.61241],[-121.47633,51.61241],[-121.48258,51.61241],[-121.48258,51.61658],[-121.48258,51.62075],[-121.48258,51.62491],[-121.48258,51.62908],[-121.48258,51.63325],[-121.48258,51.63741],[-121.48258,51.64158],[-121.48258,51.64575],[-121.48258,51.64991],[-121.48258,51.65408],[-121.48258,51.65825]]]}},{"type":"Feature","properties":{"c":"1132207","o":"SCOTT, STEVEN JEFFREY","e":"2027-04-13Z"},"geometry":{"type":"Polygon","coordinates":[[[-121.25132,51.79575],[-121.25132,51.79159],[-121.25757,51.79159],[-121.26382,51.79159],[-121.26382,51.79575],[-121.25757,51.79575],[-121.25132,51.79575]]]}},{"type":"Feature","properties":{"c":"1132209","o":"SCOTT, STEVEN JEFFREY","e":"2027-04-13Z"},"geometry":{"type":"Polygon","coordinates":[[[-121.25132,51.79992],[-121.25132,51.79575],[-121.25757,51.79575],[-121.26382,51.79575],[-121.26382,51.79992],[-121.25757,51.79992],[-121.25132,51.79992]]]}},{"type":"Feature","properties":{"c":"1131707","o":"SCOTT, STEVEN JEFFREY","e":"2027-03-26Z"},"geometry":{"type":"Polygon","coordinates":[[[-121.25132,51.84159],[-121.25757,51.84159],[-121.25757,51.84575],[-121.25132,51.84575],[-121.25132,51.84159]]]}},{"type":"Feature","properties":{"c":"1137721","o":"GROPP, PHILIP BRADIC","e":"2027-08-27Z"},"geometry":{"type":"Polygon","coordinates":[[[-121.30132,51.77075],[-121.29507,51.77075],[-121.28882,51.77075],[-121.28882,51.76658],[-121.28882,51.76242],[-121.29507,51.76242],[-121.30132,51.76242],[-121.30757,51.76242],[-121.30757,51.76658],[-121.30132,51.76658],[-121.30132,51.77075]]]}},{"type":"Feature","properties":{"c":"1113769","o":"FORTESCUE CANADA RESOURCES LTD.","e":"2028-04-17Z"},"geometry":{"type":"Polygon","coordinates":[[[-121.22006,51.52074],[-121.21381,51.52074],[-121.21381,51.52491],[-121.21381,51.52908],[-121.20756,51.52908],[-121.20756,51.53324],[-121.20756,51.53741],[-121.20131,51.53741],[-121.19506,51.53741],[-121.18881,51.53741],[-121.18256,51.53741],[-121.17631,51.53741],[-121.17006,51.53741],[-121.16381,51.53741],[-121.15755,51.53741],[-121.1513,51.53741],[-121.14505,51.53741],[-121.1388,51.53741],[-121.1388,51.53325],[-121.1388,51.52908],[-121.1388,51.52491],[-121.1388,51.52075],[-121.1388,51.51658],[-121.14505,51.51658],[-121.1513,51.51658],[-121.15755,51.51658],[-121.15755,51.51241],[-121.15755,51.50825],[-121.15755,51.50408],[-121.15755,51.49991],[-121.1638,51.49991],[-121.17005,51.49991],[-121.1763,51.49991],[-121.18255,51.49991],[-121.1888,51.49991],[-121.19506,51.49991],[-121.20131,51.49991],[-121.20756,51.49991],[-121.21381,51.49991],[-121.21381,51.50408],[-121.21381,51.50824],[-121.21381,51.51241],[-121.22006,51.51241],[-121.22006,51.51658],[-121.22006,51.52074]]]}},{"type":"Feature","properties":{"c":"1113770","o":"FORTESCUE CANADA RESOURCES LTD.","e":"2028-04-17Z"},"geometry":{"type":"Polygon","coordinates":[[[-121.1388,51.52491],[-121.13255,51.52491],[-121.1263,51.52491],[-121.1263,51.52908],[-121.12005,51.52908],[-121.1138,51.52908],[-121.10755,51.52908],[-121.10755,51.53325],[-121.1013,51.53325],[-121.09505,51.53325],[-121.09505,51.52908],[-121.0888,51.52908],[-121.0888,51.52491],[-121.0888,51.52075],[-121.08255,51.52075],[-121.0763,51.52075],[-121.07005,51.52075],[-121.0638,51.52075],[-121.0638,51.52491],[-121.05755,51.52491],[-121.0513,51.52491],[-121.0513,51.52075],[-121.0513,51.51658],[-121.0513,51.51241],[-121.0513,51.50825],[-121.05755,51.50825],[-121.0638,51.50825],[-121.0638,51.50408],[-121.07005,51.50408],[-121.07005,51.49991],[-121.07005,51.49575],[-121.07005,51.49158],[-121.07005,51.48741],[-121.07005,51.48325],[-121.07005,51.47908],[-121.0763,51.47908],[-121.08255,51.47908],[-121.0888,51.47908],[-121.09505,51.47908],[-121.09505,51.48325],[-121.09505,51.48741],[-121.1013,51.48741],[-121.1013,51.49158],[-121.10755,51.49158],[-121.10755,51.49575],[-121.10755,51.49991],[-121.1138,51.49991],[-121.12005,51.49991],[-121.12005,51.50408],[-121.1263,51.50408],[-121.1263,51.50825],[-121.1263,51.51241],[-121.13255,51.51241],[-121.13255,51.51658],[-121.1388,51.51658],[-121.1388,51.52075],[-121.1388,51.52491]]]}},{"type":"Feature","properties":{"c":"1113771","o":"FORTESCUE CANADA RESOURCES LTD.","e":"2028-04-17Z"},"geometry":{"type":"Polygon","coordinates":[[[-121.1888,51.47908],[-121.18255,51.47908],[-121.18255,51.48324],[-121.18255,51.48741],[-121.1763,51.48741],[-121.1763,51.49158],[-121.1763,51.49574],[-121.1763,51.49991],[-121.17005,51.49991],[-121.1638,51.49991],[-121.15755,51.49991],[-121.15755,51.50408],[-121.15755,51.50825],[-121.15755,51.51241],[-121.15755,51.51658],[-121.1513,51.51658],[-121.14505,51.51658],[-121.1388,51.51658],[-121.13255,51.51658],[-121.13255,51.51241],[-121.1263,51.51241],[-121.1263,51.50825],[-121.1263,51.50408],[-121.12005,51.50408],[-121.12005,51.49991],[-121.1138,51.49991],[-121.10755,51.49991],[-121.10755,51.49575],[-121.10755,51.49158],[-121.1138,51.49158],[-121.1138,51.48741],[-121.12005,51.48741],[-121.12005,51.48325],[-121.1263,51.48325],[-121.1263,51.47908],[-121.13255,51.47908],[-121.13255,51.47491],[-121.13255,51.47075],[-121.1388,51.47075],[-121.14505,51.47075],[-121.1513,51.47075],[-121.15755,51.47075],[-121.1638,51.47074],[-121.1638,51.46658],[-121.1638,51.46241],[-121.17005,51.46241],[-121.1763,51.46241],[-121.18255,51.46241],[-121.1888,51.46241],[-121.1888,51.46658],[-121.1888,51.47074],[-121.1888,51.47491],[-121.1888,51.47908]]]}},{"type":"Feature","properties":{"c":"1113773","o":"FORTESCUE CANADA RESOURCES LTD.","e":"2028-04-17Z"},"geometry":{"type":"Polygon","coordinates":[[[-121.08255,51.47908],[-121.0763,51.47908],[-121.07005,51.47908],[-121.07005,51.48325],[-121.07005,51.48741],[-121.07005,51.49158],[-121.07005,51.49575],[-121.07005,51.49991],[-121.07005,51.50408],[-121.0638,51.50408],[-121.0638,51.50825],[-121.05755,51.50825],[-121.0513,51.50825],[-121.0513,51.50408],[-121.0513,51.49991],[-121.0513,51.49575],[-121.0513,51.49158],[-121.04505,51.49158],[-121.0388,51.49158],[-121.03255,51.49158],[-121.03255,51.49575],[-121.0263,51.49575],[-121.02005,51.49575],[-121.0138,51.49575],[-121.01379,51.49158],[-121.01379,51.48741],[-121.01379,51.48325],[-121.01379,51.47908],[-121.01379,51.47491],[-121.01379,51.47075],[-121.01379,51.46658],[-121.01379,51.46241],[-121.01379,51.45825],[-121.01379,51.45408],[-121.02004,51.45408],[-121.02629,51.45408],[-121.03254,51.45408],[-121.03879,51.45408],[-121.04504,51.45408],[-121.05129,51.45408],[-121.05754,51.45408],[-121.05755,51.45825],[-121.0638,51.45825],[-121.0638,51.46241],[-121.07005,51.46241],[-121.0763,51.46241],[-121.08255,51.46241],[-121.08255,51.46658],[-121.08255,51.47075],[-121.08255,51.47491],[-121.08255,51.47908]]]}},{"type":"Feature","properties":{"c":"1113778","o":"FORTESCUE CANADA RESOURCES LTD.","e":"2028-04-17Z"},"geometry":{"type":"Polygon","coordinates":[[[-121.21381,51.58741],[-121.20756,51.58741],[-121.20131,51.58741],[-121.19506,51.58741],[-121.19506,51.58325],[-121.19506,51.57908],[-121.18881,51.57908],[-121.18881,51.57491],[-121.18256,51.57491],[-121.17631,51.57491],[-121.17006,51.57491],[-121.16381,51.57491],[-121.15756,51.57491],[-121.15131,51.57491],[-121.15131,51.57075],[-121.15131,51.56658],[-121.15131,51.56241],[-121.15131,51.55825],[-121.15131,51.55408],[-121.1513,51.54991],[-121.1513,51.54575],[-121.1513,51.54158],[-121.1513,51.53741],[-121.15755,51.53741],[-121.16381,51.53741],[-121.17006,51.53741],[-121.17631,51.53741],[-121.18256,51.53741],[-121.18881,51.53741],[-121.19506,51.53741],[-121.20131,51.53741],[-121.20131,51.54158],[-121.20756,51.54158],[-121.21381,51.54158],[-121.21381,51.54574],[-121.21381,51.54991],[-121.21381,51.55408],[-121.21381,51.55824],[-121.21381,51.56241],[-121.21381,51.56658],[-121.21381,51.57074],[-121.21381,51.57491],[-121.21381,51.57908],[-121.21381,51.58324],[-121.21381,51.58741]]]}},{"type":"Feature","properties":{"c":"1113779","o":"FORTESCUE CANADA RESOURCES LTD.","e":"2028-04-17Z"},"geometry":{"type":"Polygon","coordinates":[[[-121.15131,51.57491],[-121.14506,51.57491],[-121.13881,51.57491],[-121.13255,51.57491],[-121.13255,51.57075],[-121.1263,51.57075],[-121.12005,51.57075],[-121.12005,51.57491],[-121.1138,51.57491],[-121.10755,51.57491],[-121.1013,51.57491],[-121.09505,51.57491],[-121.09505,51.57075],[-121.09505,51.56658],[-121.09505,51.56241],[-121.09505,51.55825],[-121.09505,51.55408],[-121.09505,51.54991],[-121.09505,51.54575],[-121.09505,51.54158],[-121.09505,51.53741],[-121.09505,51.53325],[-121.1013,51.53325],[-121.10755,51.53325],[-121.10755,51.52908],[-121.1138,51.52908],[-121.12005,51.52908],[-121.1263,51.52908],[-121.1263,51.52491],[-121.13255,51.52491],[-121.1388,51.52491],[-121.1388,51.52908],[-121.1388,51.53325],[-121.1388,51.53741],[-121.14505,51.53741],[-121.1513,51.53741],[-121.1513,51.54158],[-121.1513,51.54575],[-121.1513,51.54991],[-121.15131,51.55408],[-121.15131,51.55825],[-121.15131,51.56241],[-121.15131,51.56658],[-121.15131,51.57075],[-121.15131,51.57491]]]}},{"type":"Feature","properties":{"c":"1114038","o":"FORTESCUE CANADA RESOURCES LTD.","e":"2028-04-17Z"},"geometry":{"type":"Polygon","coordinates":[[[-121.42632,51.65825],[-121.42007,51.65825],[-121.42007,51.66241],[-121.41382,51.66241],[-121.40757,51.66241],[-121.40132,51.66241],[-121.40132,51.65824],[-121.40132,51.65408],[-121.40132,51.64991],[-121.40132,51.64574],[-121.40132,51.64158],[-121.39507,51.64158],[-121.38882,51.64158],[-121.38257,51.64158],[-121.38257,51.63741],[-121.37632,51.63741],[-121.37007,51.63741],[-121.36382,51.63741],[-121.35757,51.63741],[-121.35757,51.63324],[-121.35757,51.62908],[-121.35757,51.62491],[-121.35757,51.62074],[-121.35757,51.61658],[-121.35757,51.61241],[-121.36382,51.61241],[-121.37007,51.61241],[-121.37632,51.61241],[-121.38257,51.61241],[-121.38882,51.61241],[-121.39507,51.61241],[-121.40132,51.61241],[-121.40757,51.61241],[-121.41382,51.61241],[-121.42007,51.61241],[-121.42632,51.61241],[-121.42632,51.61658],[-121.42632,51.62074],[-121.42632,51.62491],[-121.42632,51.62908],[-121.42632,51.63324],[-121.42632,51.63741],[-121.42632,51.64158],[-121.42632,51.64574],[-121.42632,51.64991],[-121.42632,51.65408],[-121.42632,51.65825]]]}},{"type":"Feature","properties":{"c":"1114040","o":"FORTESCUE CANADA RESOURCES LTD.","e":"2028-04-17Z"},"geometry":{"type":"Polygon","coordinates":[[[-121.55134,51.60408],[-121.54508,51.60408],[-121.54508,51.60825],[-121.54508,51.61241],[-121.53883,51.61241],[-121.53258,51.61241],[-121.52633,51.61241],[-121.52008,51.61241],[-121.51383,51.61241],[-121.50758,51.61241],[-121.50133,51.61241],[-121.49508,51.61241],[-121.48883,51.61241],[-121.48258,51.61241],[-121.47633,51.61241],[-121.47633,51.60825],[-121.47633,51.60408],[-121.47633,51.59991],[-121.47633,51.59575],[-121.47633,51.59158],[-121.47633,51.58741],[-121.47633,51.58324],[-121.47633,51.57908],[-121.47633,51.57491],[-121.48258,51.57491],[-121.48883,51.57491],[-121.49508,51.57491],[-121.50133,51.57491],[-121.50758,51.57491],[-121.50758,51.57075],[-121.51383,51.57075],[-121.52008,51.57075],[-121.52633,51.57075],[-121.52633,51.57491],[-121.52633,51.57908],[-121.52633,51.58325],[-121.52633,51.58741],[-121.53258,51.58741],[-121.53883,51.58741],[-121.54508,51.58741],[-121.55134,51.58741],[-121.55134,51.59158],[-121.55134,51.59575],[-121.55134,51.59991],[-121.55134,51.60408]]]}},{"type":"Feature","properties":{"c":"1114041","o":"FORTESCUE CANADA RESOURCES LTD.","e":"2028-04-17Z"},"geometry":{"type":"Polygon","coordinates":[[[-121.47633,51.61241],[-121.47008,51.61241],[-121.46383,51.61241],[-121.45758,51.61241],[-121.45758,51.61658],[-121.45133,51.61658],[-121.44508,51.61658],[-121.43883,51.61658],[-121.43257,51.61658],[-121.42632,51.61658],[-121.42632,51.61241],[-121.42632,51.60824],[-121.42632,51.60408],[-121.42007,51.60408],[-121.42007,51.59991],[-121.42007,51.59574],[-121.42007,51.59158],[-121.42007,51.58741],[-121.42007,51.58324],[-121.42007,51.57908],[-121.42007,51.57491],[-121.42007,51.57074],[-121.42007,51.56658],[-121.42632,51.56658],[-121.43257,51.56658],[-121.43882,51.56658],[-121.44507,51.56658],[-121.45133,51.56658],[-121.45758,51.56658],[-121.45758,51.57074],[-121.46383,51.57074],[-121.47008,51.57074],[-121.47633,51.57074],[-121.47633,51.57491],[-121.47633,51.57908],[-121.47633,51.58324],[-121.47633,51.58741],[-121.47633,51.59158],[-121.47633,51.59575],[-121.47633,51.59991],[-121.47633,51.60408],[-121.47633,51.60825],[-121.47633,51.61241]]]}},{"type":"Feature","properties":{"c":"1114042","o":"FORTESCUE CANADA RESOURCES LTD.","e":"2028-04-17Z"},"geometry":{"type":"Polygon","coordinates":[[[-121.42632,51.61241],[-121.42007,51.61241],[-121.41382,51.61241],[-121.40757,51.61241],[-121.40132,51.61241],[-121.39507,51.61241],[-121.38882,51.61241],[-121.38257,51.61241],[-121.37632,51.61241],[-121.37007,51.61241],[-121.36382,51.61241],[-121.35757,51.61241],[-121.35132,51.61241],[-121.35132,51.60824],[-121.35132,51.60408],[-121.35132,51.59991],[-121.35132,51.59574],[-121.35132,51.59158],[-121.35132,51.58741],[-121.35132,51.58324],[-121.35132,51.57908],[-121.35757,51.57908],[-121.36382,51.57908],[-121.37007,51.57908],[-121.37632,51.57908],[-121.38257,51.57908],[-121.38882,51.57908],[-121.39507,51.57908],[-121.40132,51.57908],[-121.40132,51.57491],[-121.40757,51.57491],[-121.41382,51.57491],[-121.42007,51.57491],[-121.42007,51.57908],[-121.42007,51.58324],[-121.42007,51.58741],[-121.42007,51.59158],[-121.42007,51.59574],[-121.42007,51.59991],[-121.42007,51.60408],[-121.42632,51.60408],[-121.42632,51.60824],[-121.42632,51.61241]]]}},{"type":"Feature","properties":{"c":"1114043","o":"FORTESCUE CANADA RESOURCES LTD.","e":"2028-04-17Z"},"geometry":{"type":"Polygon","coordinates":[[[-121.35132,51.61241],[-121.34507,51.61241],[-121.33882,51.61241],[-121.33257,51.61241],[-121.32632,51.61241],[-121.32007,51.61241],[-121.31382,51.61241],[-121.30757,51.61241],[-121.30132,51.61241],[-121.29507,51.61241],[-121.28881,51.61241],[-121.28881,51.60824],[-121.28881,51.60408],[-121.28881,51.59991],[-121.29507,51.59991],[-121.29507,51.59574],[-121.30132,51.59574],[-121.30132,51.59158],[-121.30757,51.59158],[-121.30757,51.58741],[-121.30757,51.58324],[-121.31382,51.58324],[-121.32007,51.58324],[-121.32007,51.57908],[-121.32632,51.57908],[-121.32632,51.57491],[-121.32632,51.57074],[-121.33257,51.57074],[-121.33882,51.57074],[-121.34507,51.57074],[-121.35132,51.57074],[-121.35132,51.57491],[-121.35132,51.57908],[-121.35132,51.58324],[-121.35132,51.58741],[-121.35132,51.59158],[-121.35132,51.59574],[-121.35132,51.59991],[-121.35132,51.60408],[-121.35132,51.60824],[-121.35132,51.61241]]]}},{"type":"Feature","properties":{"c":"1114044","o":"FORTESCUE CANADA RESOURCES LTD.","e":"2028-04-17Z"},"geometry":{"type":"Polygon","coordinates":[[[-121.58884,51.54575],[-121.58259,51.54575],[-121.58259,51.54991],[-121.57634,51.54991],[-121.57009,51.54991],[-121.56384,51.54991],[-121.55759,51.54991],[-121.55133,51.54991],[-121.54508,51.54991],[-121.53883,51.54991],[-121.53258,51.54991],[-121.52633,51.54991],[-121.52633,51.54575],[-121.52633,51.54158],[-121.52633,51.53741],[-121.52633,51.53325],[-121.52008,51.53325],[-121.51383,51.53325],[-121.50758,51.53325],[-121.50133,51.53324],[-121.50133,51.52908],[-121.49508,51.52908],[-121.48883,51.52908],[-121.48258,51.52908],[-121.48258,51.52491],[-121.48258,51.52074],[-121.48258,51.51658],[-121.48883,51.51658],[-121.49508,51.51658],[-121.49508,51.51241],[-121.49508,51.50824],[-121.50133,51.50824],[-121.50758,51.50824],[-121.50758,51.51241],[-121.51383,51.51241],[-121.52008,51.51241],[-121.52633,51.51241],[-121.53258,51.51241],[-121.53883,51.51241],[-121.53883,51.51658],[-121.54508,51.51658],[-121.54508,51.52075],[-121.55133,51.52075],[-121.55758,51.52075],[-121.55758,51.52491],[-121.56384,51.52491],[-121.57009,51.52491],[-121.57634,51.52491],[-121.57634,51.52908],[-121.58259,51.52908],[-121.58259,51.53325],[-121.58884,51.53325],[-121.58884,51.53741],[-121.58884,51.54158],[-121.58884,51.54575]]]}},{"type":"Feature","properties":{"c":"1114045","o":"FORTESCUE CANADA RESOURCES LTD.","e":"2028-04-17Z"},"geometry":{"type":"Polygon","coordinates":[[[-121.52633,51.57075],[-121.52008,51.57075],[-121.51383,51.57075],[-121.50758,51.57075],[-121.50758,51.57491],[-121.50133,51.57491],[-121.49508,51.57491],[-121.48883,51.57491],[-121.48258,51.57491],[-121.47633,51.57491],[-121.47633,51.57074],[-121.47008,51.57074],[-121.46383,51.57074],[-121.45758,51.57074],[-121.45758,51.56658],[-121.45758,51.56241],[-121.45758,51.55824],[-121.45758,51.55408],[-121.45758,51.54991],[-121.45758,51.54574],[-121.45758,51.54158],[-121.46383,51.54158],[-121.47008,51.54158],[-121.47633,51.54158],[-121.48258,51.54158],[-121.48258,51.53741],[-121.48258,51.53324],[-121.48258,51.52908],[-121.48883,51.52908],[-121.49508,51.52908],[-121.50133,51.52908],[-121.50133,51.53324],[-121.50758,51.53325],[-121.51383,51.53325],[-121.52008,51.53325],[-121.52633,51.53325],[-121.52633,51.53741],[-121.52633,51.54158],[-121.52633,51.54575],[-121.52633,51.54991],[-121.52633,51.55408],[-121.52633,51.55825],[-121.52633,51.56241],[-121.52633,51.56658],[-121.52633,51.57075]]]}},{"type":"Feature","properties":{"c":"1114046","o":"FORTESCUE CANADA RESOURCES LTD.","e":"2028-04-17Z"},"geometry":{"type":"Polygon","coordinates":[[[-121.49508,51.51658],[-121.48883,51.51658],[-121.48258,51.51658],[-121.48258,51.52074],[-121.48258,51.52491],[-121.48258,51.52908],[-121.48258,51.53324],[-121.48258,51.53741],[-121.48258,51.54158],[-121.47633,51.54158],[-121.47008,51.54158],[-121.46383,51.54158],[-121.45758,51.54158],[-121.45132,51.54158],[-121.44507,51.54158],[-121.43882,51.54158],[-121.43257,51.54158],[-121.42632,51.54158],[-121.42007,51.54158],[-121.41382,51.54158],[-121.40757,51.54158],[-121.40757,51.53741],[-121.40757,51.53324],[-121.40757,51.52908],[-121.40757,51.52491],[-121.40757,51.52074],[-121.40757,51.51658],[-121.41382,51.51658],[-121.41382,51.51241],[-121.42007,51.51241],[-121.42632,51.51241],[-121.43257,51.51241],[-121.43882,51.51241],[-121.44507,51.51241],[-121.45132,51.51241],[-121.45757,51.51241],[-121.45757,51.50824],[-121.46382,51.50824],[-121.46382,51.50408],[-121.47008,51.50408],[-121.47633,51.50408],[-121.48258,51.50408],[-121.48883,51.50408],[-121.49508,51.50408],[-121.49508,51.50824],[-121.49508,51.51241],[-121.49508,51.51658]]]}},{"type":"Feature","properties":{"c":"1114047","o":"FORTESCUE CANADA RESOURCES LTD.","e":"2028-04-17Z"},"geometry":{"type":"Polygon","coordinates":[[[-121.45758,51.56658],[-121.45133,51.56658],[-121.44507,51.56658],[-121.43882,51.56658],[-121.43257,51.56658],[-121.42632,51.56658],[-121.42007,51.56658],[-121.42007,51.57074],[-121.42007,51.57491],[-121.41382,51.57491],[-121.40757,51.57491],[-121.40132,51.57491],[-121.40132,51.57908],[-121.39507,51.57908],[-121.38882,51.57908],[-121.38257,51.57908],[-121.38257,51.57491],[-121.38257,51.57074],[-121.38257,51.56658],[-121.38257,51.56241],[-121.38257,51.55824],[-121.38257,51.55408],[-121.38257,51.54991],[-121.38257,51.54574],[-121.38882,51.54574],[-121.39507,51.54574],[-121.40132,51.54574],[-121.40757,51.54574],[-121.40757,51.54158],[-121.41382,51.54158],[-121.42007,51.54158],[-121.42632,51.54158],[-121.43257,51.54158],[-121.43882,51.54158],[-121.44507,51.54158],[-121.45132,51.54158],[-121.45758,51.54158],[-121.45758,51.54574],[-121.45758,51.54991],[-121.45758,51.55408],[-121.45758,51.55824],[-121.45758,51.56241],[-121.45758,51.56658]]]}},{"type":"Feature","properties":{"c":"1114048","o":"FORTESCUE CANADA RESOURCES LTD.","e":"2028-04-17Z"},"geometry":{"type":"Polygon","coordinates":[[[-121.38257,51.57908],[-121.37632,51.57908],[-121.37007,51.57908],[-121.36382,51.57908],[-121.35757,51.57908],[-121.35132,51.57908],[-121.35132,51.57491],[-121.35132,51.57074],[-121.34507,51.57074],[-121.33882,51.57074],[-121.33257,51.57074],[-121.33257,51.56658],[-121.33257,51.56241],[-121.33882,51.56241],[-121.34507,51.56241],[-121.34507,51.55824],[-121.33882,51.55824],[-121.33882,51.55408],[-121.34507,51.55408],[-121.35132,51.55408],[-121.35132,51.54991],[-121.34507,51.54991],[-121.33882,51.54991],[-121.33882,51.54574],[-121.33882,51.54158],[-121.33882,51.53741],[-121.33882,51.53324],[-121.33882,51.52908],[-121.34507,51.52908],[-121.35132,51.52908],[-121.35757,51.52908],[-121.36382,51.52908],[-121.37007,51.52908],[-121.37632,51.52908],[-121.37632,51.53324],[-121.37007,51.53324],[-121.36382,51.53324],[-121.36382,51.53741],[-121.35757,51.53741],[-121.35757,51.54158],[-121.35757,51.54574],[-121.35757,51.54991],[-121.36382,51.54991],[-121.36382,51.54574],[-121.37007,51.54574],[-121.37632,51.54574],[-121.38257,51.54574],[-121.38257,51.54991],[-121.38257,51.55408],[-121.38257,51.55824],[-121.38257,51.56241],[-121.38257,51.56658],[-121.38257,51.57074],[-121.38257,51.57491],[-121.38257,51.57908]]]}},{"type":"Feature","properties":{"c":"1114049","o":"FORTESCUE CANADA RESOURCES LTD.","e":"2028-04-17Z"},"geometry":{"type":"Polygon","coordinates":[[[-121.37632,51.51658],[-121.37007,51.51658],[-121.36382,51.51658],[-121.36382,51.52074],[-121.36382,51.52491],[-121.37007,51.52491],[-121.37632,51.52491],[-121.37632,51.52908],[-121.37007,51.52908],[-121.36382,51.52908],[-121.35757,51.52908],[-121.35132,51.52908],[-121.34507,51.52908],[-121.33882,51.52908],[-121.33257,51.52908],[-121.32631,51.52908],[-121.32006,51.52908],[-121.31381,51.52908],[-121.31381,51.52491],[-121.31381,51.52074],[-121.31381,51.51658],[-121.31381,51.51241],[-121.31381,51.50824],[-121.31381,51.50408],[-121.31381,51.49991],[-121.31381,51.49574],[-121.31381,51.49158],[-121.32006,51.49158],[-121.32631,51.49158],[-121.33256,51.49158],[-121.33881,51.49158],[-121.33881,51.49574],[-121.34506,51.49574],[-121.35132,51.49574],[-121.35757,51.49574],[-121.35757,51.49991],[-121.36382,51.49991],[-121.37007,51.49991],[-121.37007,51.50408],[-121.37007,51.50824],[-121.37632,51.50824],[-121.37632,51.51241],[-121.37632,51.51658]]]}},{"type":"Feature","properties":{"c":"1114050","o":"FORTESCUE CANADA RESOURCES LTD.","e":"2028-04-17Z"},"geometry":{"type":"Polygon","coordinates":[[[-121.33882,51.54991],[-121.33257,51.54991],[-121.32632,51.54991],[-121.32006,51.54991],[-121.32007,51.55408],[-121.32007,51.55824],[-121.32632,51.55824],[-121.33257,51.55824],[-121.33257,51.56241],[-121.33257,51.56658],[-121.33257,51.57074],[-121.32632,51.57074],[-121.32007,51.57074],[-121.31382,51.57074],[-121.30757,51.57074],[-121.30756,51.56658],[-121.30131,51.56658],[-121.29506,51.56658],[-121.28881,51.56658],[-121.28881,51.56241],[-121.28256,51.56241],[-121.28256,51.55824],[-121.28256,51.55408],[-121.28256,51.54991],[-121.28256,51.54574],[-121.28256,51.54158],[-121.28256,51.53741],[-121.28256,51.53324],[-121.28256,51.52908],[-121.28256,51.52491],[-121.28256,51.52074],[-121.28256,51.51658],[-121.28881,51.51658],[-121.29506,51.51658],[-121.30131,51.51658],[-121.30131,51.51241],[-121.30756,51.51241],[-121.31381,51.51241],[-121.31381,51.51658],[-121.31381,51.52074],[-121.31381,51.52491],[-121.31381,51.52908],[-121.32006,51.52908],[-121.32631,51.52908],[-121.33257,51.52908],[-121.33882,51.52908],[-121.33882,51.53324],[-121.33882,51.53741],[-121.33882,51.54158],[-121.33882,51.54574],[-121.33882,51.54991]]]}},{"type":"Feature","properties":{"c":"1114053","o":"FORTESCUE CANADA RESOURCES LTD.","e":"2028-04-17Z"},"geometry":{"type":"Polygon","coordinates":[[[-121.38882,51.48741],[-121.38257,51.48741],[-121.37632,51.48741],[-121.37632,51.49158],[-121.37007,51.49158],[-121.37007,51.49574],[-121.37632,51.49574],[-121.37632,51.49991],[-121.37632,51.50408],[-121.37632,51.50824],[-121.37007,51.50824],[-121.37007,51.50408],[-121.37007,51.49991],[-121.36382,51.49991],[-121.35757,51.49991],[-121.35757,51.49574],[-121.35757,51.49158],[-121.35757,51.48741],[-121.35756,51.48324],[-121.36382,51.48324],[-121.36382,51.47908],[-121.36381,51.47491],[-121.36381,51.47074],[-121.36381,51.46658],[-121.36381,51.46241],[-121.36381,51.45824],[-121.36381,51.45408],[-121.36381,51.44991],[-121.37006,51.44991],[-121.37631,51.44991],[-121.37631,51.45408],[-121.38257,51.45408],[-121.38882,51.45408],[-121.39507,51.45408],[-121.39507,51.45824],[-121.39507,51.46241],[-121.39507,51.46658],[-121.39507,51.47074],[-121.39507,51.47491],[-121.39507,51.47908],[-121.39507,51.48324],[-121.40132,51.48324],[-121.40132,51.48741],[-121.39507,51.48741],[-121.38882,51.48741]]]}},{"type":"Feature","properties":{"c":"1114054","o":"FORTESCUE CANADA RESOURCES LTD.","e":"2028-04-17Z"},"geometry":{"type":"Polygon","coordinates":[[[-121.42632,51.51241],[-121.42007,51.51241],[-121.41382,51.51241],[-121.40757,51.51241],[-121.40757,51.50824],[-121.40757,51.50408],[-121.41382,51.50408],[-121.41382,51.49991],[-121.40757,51.49991],[-121.40132,51.49991],[-121.39507,51.49991],[-121.39507,51.49574],[-121.39507,51.49158],[-121.40132,51.49158],[-121.40757,51.49158],[-121.41382,51.49158],[-121.41382,51.49574],[-121.42007,51.49574],[-121.42007,51.49991],[-121.42007,51.50408],[-121.42632,51.50408],[-121.42632,51.50824],[-121.42632,51.51241]]]}},{"type":"Feature","properties":{"c":"1114056","o":"FORTESCUE CANADA RESOURCES LTD.","e":"2028-04-17Z"},"geometry":{"type":"Polygon","coordinates":[[[-121.31381,51.51241],[-121.30756,51.51241],[-121.30131,51.51241],[-121.30131,51.51658],[-121.29506,51.51658],[-121.28881,51.51658],[-121.28256,51.51658],[-121.27631,51.51658],[-121.27006,51.51658],[-121.27006,51.51241],[-121.27006,51.50824],[-121.27006,51.50408],[-121.26381,51.50408],[-121.26381,51.49991],[-121.26381,51.49574],[-121.26381,51.49158],[-121.26381,51.48741],[-121.26381,51.48324],[-121.25756,51.48324],[-121.25756,51.47908],[-121.25756,51.47491],[-121.25756,51.47074],[-121.25131,51.47074],[-121.25131,51.46658],[-121.24506,51.46658],[-121.24506,51.46241],[-121.24506,51.45824],[-121.24506,51.45408],[-121.24505,51.44991],[-121.25131,51.44991],[-121.25756,51.44991],[-121.26381,51.44991],[-121.27006,51.44991],[-121.27631,51.44991],[-121.27631,51.45408],[-121.28256,51.45408],[-121.28256,51.45824],[-121.28256,51.46241],[-121.28256,51.46658],[-121.28256,51.47074],[-121.28256,51.47491],[-121.28256,51.47908],[-121.28881,51.47908],[-121.28881,51.48324],[-121.29506,51.48324],[-121.30131,51.48324],[-121.30756,51.48324],[-121.31381,51.48324],[-121.31381,51.48741],[-121.31381,51.49158],[-121.31381,51.49574],[-121.31381,51.49991],[-121.31381,51.50408],[-121.31381,51.50824],[-121.31381,51.51241]]]}}]}