{"type":"FeatureCollection","features":[{"type":"Feature","properties":{"c":"236585","o":"BARRICK GOLD INC.","e":"2027-08-26Z"},"geometry":{"type":"Polygon","coordinates":[[[-121.55331,49.46928],[-121.55213,49.47064],[-121.54208,49.46747],[-121.54337,49.46599],[-121.55331,49.46928]]]}},{"type":"Feature","properties":{"c":"236887","o":"BARRICK GOLD INC.","e":"2027-08-26Z"},"geometry":{"type":"Polygon","coordinates":[[[-121.53848,49.47526],[-121.53975,49.47561],[-121.54101,49.47376],[-121.54161,49.47287],[-121.54182,49.47257],[-121.54562,49.47365],[-121.5434,49.47697],[-121.53831,49.47553],[-121.53848,49.47526]]]}},{"type":"Feature","properties":{"c":"236891","o":"BARRICK GOLD INC.","e":"2027-08-26Z"},"geometry":{"type":"Polygon","coordinates":[[[-121.54562,49.47365],[-121.55071,49.47509],[-121.5485,49.47841],[-121.5434,49.47697],[-121.54562,49.47365]]]}},{"type":"Feature","properties":{"c":"236889","o":"BARRICK GOLD INC.","e":"2027-08-26Z"},"geometry":{"type":"Polygon","coordinates":[[[-121.53831,49.47553],[-121.5434,49.47697],[-121.54119,49.48029],[-121.5361,49.47884],[-121.53831,49.47553]]]}},{"type":"Feature","properties":{"c":"236890","o":"BARRICK GOLD INC.","e":"2027-08-26Z"},"geometry":{"type":"Polygon","coordinates":[[[-121.5434,49.47697],[-121.5485,49.47841],[-121.54628,49.48173],[-121.54119,49.48029],[-121.5434,49.47697]]]}},{"type":"Feature","properties":{"c":"236495","o":"BARRICK GOLD INC.","e":"2026-11-15Z"},"geometry":{"type":"Polygon","coordinates":[[[-121.49673,49.45897],[-121.49673,49.45896],[-121.49687,49.45845],[-121.49758,49.45597],[-121.50295,49.45816],[-121.50359,49.45749],[-121.50882,49.45807],[-121.51032,49.45795],[-121.51074,49.46025],[-121.51379,49.45983],[-121.51525,49.45963],[-121.5161,49.46225],[-121.51349,49.46235],[-121.51051,49.46173],[-121.51055,49.46127],[-121.50939,49.46124],[-121.50929,49.46092],[-121.50635,49.46115],[-121.50634,49.46115],[-121.50558,49.46113],[-121.50527,49.45939],[-121.50407,49.45937],[-121.50306,49.45935],[-121.50206,49.45932],[-121.50204,49.45957],[-121.50193,49.46177],[-121.50111,49.46326],[-121.50017,49.46304],[-121.49516,49.46189],[-121.49546,49.46133],[-121.49673,49.45897]]]}},{"type":"Feature","properties":{"c":"383452","o":"BARRICK GOLD INC.","e":"2027-08-26Z"},"geometry":{"type":"Polygon","coordinates":[[[-121.53796,49.45518],[-121.54451,49.4566],[-121.54286,49.45983],[-121.54028,49.45983],[-121.54028,49.46042],[-121.53579,49.45944],[-121.53796,49.45518]]]}},{"type":"Feature","properties":{"c":"236888","o":"BARRICK GOLD INC.","e":"2027-08-26Z"},"geometry":{"type":"Polygon","coordinates":[[[-121.53831,49.47553],[-121.5361,49.47884],[-121.5348,49.47848],[-121.53691,49.4765],[-121.53284,49.47465],[-121.53322,49.47408],[-121.53831,49.47553]]]}},{"type":"Feature","properties":{"c":"383450","o":"BARRICK GOLD INC.","e":"2027-08-26Z"},"geometry":{"type":"Polygon","coordinates":[[[-121.53579,49.45944],[-121.54028,49.46042],[-121.54028,49.46408],[-121.53523,49.46299],[-121.5359,49.46187],[-121.53473,49.46153],[-121.53579,49.45944]]]}},{"type":"Feature","properties":{"c":"383451","o":"BARRICK GOLD INC.","e":"2027-08-26Z"},"geometry":{"type":"Polygon","coordinates":[[[-121.55106,49.45801],[-121.55013,49.45983],[-121.54624,49.45983],[-121.54537,49.45951],[-121.545,49.45983],[-121.54286,49.45983],[-121.54451,49.4566],[-121.55106,49.45801]]]}},{"type":"Feature","properties":{"c":"504031","o":"BARRICK GOLD INC.","e":"2027-01-17Z"},"geometry":{"type":"Polygon","coordinates":[[[-121.52002,49.46235],[-121.51377,49.46235],[-121.50752,49.46235],[-121.50127,49.46235],[-121.49502,49.46235],[-121.48877,49.46235],[-121.48877,49.45818],[-121.48877,49.45402],[-121.48877,49.44985],[-121.48877,49.44568],[-121.49502,49.44568],[-121.50127,49.44568],[-121.50752,49.44568],[-121.51377,49.44568],[-121.51377,49.44985],[-121.51377,49.45402],[-121.52002,49.45402],[-121.52002,49.45818],[-121.52002,49.46235]]]}},{"type":"Feature","properties":{"c":"513790","o":"BARRICK GOLD INC.","e":"2027-08-26Z"},"geometry":{"type":"Polygon","coordinates":[[[-121.50127,49.48318],[-121.49502,49.48318],[-121.48877,49.48318],[-121.48252,49.48318],[-121.48252,49.48735],[-121.47627,49.48735],[-121.47627,49.48318],[-121.47002,49.48318],[-121.46377,49.48318],[-121.45752,49.48319],[-121.45127,49.48319],[-121.45127,49.47902],[-121.45752,49.47902],[-121.46377,49.47902],[-121.46377,49.47485],[-121.47002,49.47485],[-121.47002,49.47068],[-121.47627,49.47068],[-121.48252,49.47068],[-121.48252,49.46652],[-121.48877,49.46652],[-121.48877,49.47068],[-121.49502,49.47068],[-121.49502,49.47485],[-121.50127,49.47485],[-121.50127,49.47902],[-121.50127,49.48318]]]}},{"type":"Feature","properties":{"c":"513868","o":"BARRICK GOLD INC.","e":"2027-06-03Z"},"geometry":{"type":"Polygon","coordinates":[[[-121.52002,49.46652],[-121.51377,49.46652],[-121.50752,49.46652],[-121.50127,49.46652],[-121.50127,49.47068],[-121.49502,49.47068],[-121.48877,49.47068],[-121.48877,49.46652],[-121.48252,49.46652],[-121.48252,49.46235],[-121.48877,49.46235],[-121.49502,49.46235],[-121.50127,49.46235],[-121.50752,49.46235],[-121.51377,49.46235],[-121.52002,49.46235],[-121.52627,49.46235],[-121.53252,49.46235],[-121.53252,49.46652],[-121.52627,49.46652],[-121.52002,49.46652]]]}},{"type":"Feature","properties":{"c":"513869","o":"BARRICK GOLD INC.","e":"2027-06-03Z"},"geometry":{"type":"Polygon","coordinates":[[[-121.53252,49.46652],[-121.53877,49.46652],[-121.53877,49.47068],[-121.53252,49.47068],[-121.53252,49.46652]]]}},{"type":"Feature","properties":{"c":"525243","o":"BARRICK GOLD INC.","e":"2027-01-13Z"},"geometry":{"type":"Polygon","coordinates":[[[-121.50752,49.47902],[-121.50127,49.47902],[-121.50127,49.47485],[-121.49502,49.47485],[-121.49502,49.47068],[-121.50127,49.47068],[-121.50127,49.46652],[-121.50752,49.46652],[-121.50752,49.47068],[-121.50752,49.47485],[-121.50752,49.47902]]]}},{"type":"Feature","properties":{"c":"552287","o":"ARMSTRONG SAND & GRAVEL LTD.","e":"2028-02-19Z"},"geometry":{"type":"Polygon","coordinates":[[[-121.85753,49.26234],[-121.85128,49.26234],[-121.85128,49.25818],[-121.85128,49.25401],[-121.85753,49.25401],[-121.85753,49.25818],[-121.85753,49.26234]]]}},{"type":"Feature","properties":{"c":"576416","o":"SHEARER, JOHAN THOM","e":"2031-08-29Z"},"geometry":{"type":"Polygon","coordinates":[[[-121.72627,49.07485],[-121.72002,49.07485],[-121.72002,49.07068],[-121.72002,49.06651],[-121.72627,49.06651],[-121.72627,49.07068],[-121.72627,49.07485]]]}},{"type":"Feature","properties":{"c":"1019719","o":"BEAR MOUNTAIN GOLD MINES LTD","e":"2031-12-31Z"},"geometry":{"type":"Polygon","coordinates":[[[-121.67627,49.30401],[-121.68252,49.30401],[-121.68252,49.30818],[-121.67627,49.30818],[-121.67627,49.30401]]]}},{"type":"Feature","properties":{"c":"951229","o":"BEAR MOUNTAIN GOLD MINES LTD","e":"2031-12-31Z"},"geometry":{"type":"Polygon","coordinates":[[[-121.65127,49.34568],[-121.65127,49.34151],[-121.64502,49.34151],[-121.64502,49.33735],[-121.65127,49.33735],[-121.65752,49.33735],[-121.65752,49.34151],[-121.66377,49.34151],[-121.66377,49.34568],[-121.65752,49.34568],[-121.65127,49.34568]]]}},{"type":"Feature","properties":{"c":"1017121","o":"BEAR MOUNTAIN GOLD MINES LTD","e":"2031-12-31Z"},"geometry":{"type":"Polygon","coordinates":[[[-121.67628,49.35401],[-121.67003,49.35401],[-121.66377,49.35401],[-121.65752,49.35401],[-121.65752,49.34985],[-121.65752,49.34568],[-121.66377,49.34568],[-121.66377,49.34151],[-121.65752,49.34151],[-121.65752,49.33735],[-121.66377,49.33735],[-121.67002,49.33735],[-121.67627,49.33735],[-121.67628,49.34151],[-121.67628,49.34568],[-121.67628,49.34985],[-121.67628,49.35401]]]}},{"type":"Feature","properties":{"c":"1016752","o":"BEAR MOUNTAIN GOLD MINES LTD","e":"2031-12-31Z"},"geometry":{"type":"Polygon","coordinates":[[[-121.69503,49.32068],[-121.68878,49.32068],[-121.68878,49.31651],[-121.68878,49.31235],[-121.69503,49.31235],[-121.70128,49.31235],[-121.70128,49.31651],[-121.69503,49.31651],[-121.69503,49.32068]]]}},{"type":"Feature","properties":{"c":"1016754","o":"BEAR MOUNTAIN GOLD MINES LTD","e":"2031-12-31Z"},"geometry":{"type":"Polygon","coordinates":[[[-121.68252,49.30401],[-121.68877,49.30401],[-121.68878,49.30818],[-121.68252,49.30818],[-121.68252,49.30401]]]}},{"type":"Feature","properties":{"c":"1017622","o":"BEAR MOUNTAIN GOLD MINES LTD","e":"2031-12-31Z"},"geometry":{"type":"Polygon","coordinates":[[[-121.67627,49.33735],[-121.67002,49.33735],[-121.66377,49.33735],[-121.65752,49.33735],[-121.65127,49.33735],[-121.64502,49.33735],[-121.64502,49.33318],[-121.65127,49.33318],[-121.65752,49.33318],[-121.65752,49.32901],[-121.66377,49.32901],[-121.67002,49.32901],[-121.67002,49.32485],[-121.67627,49.32485],[-121.67627,49.32901],[-121.67627,49.33318],[-121.67627,49.33735]]]}},{"type":"Feature","properties":{"c":"1018277","o":"BEAR MOUNTAIN GOLD MINES LTD","e":"2031-12-31Z"},"geometry":{"type":"Polygon","coordinates":[[[-121.65752,49.35401],[-121.65127,49.35401],[-121.65127,49.34985],[-121.64502,49.34985],[-121.63877,49.34985],[-121.63877,49.34568],[-121.63877,49.34151],[-121.63877,49.33735],[-121.64502,49.33735],[-121.64502,49.34151],[-121.65127,49.34151],[-121.65127,49.34568],[-121.65752,49.34568],[-121.65752,49.34985],[-121.65752,49.35401]]]}},{"type":"Feature","properties":{"c":"567884","o":"SHEARER, JOHAN THOM","e":"2030-07-15Z"},"geometry":{"type":"Polygon","coordinates":[[[-121.70127,49.07485],[-121.70752,49.07485],[-121.70752,49.07901],[-121.70127,49.07901],[-121.70127,49.07485]]]}},{"type":"Feature","properties":{"c":"567887","o":"SHEARER, JOHAN THOM","e":"2030-07-16Z"},"geometry":{"type":"Polygon","coordinates":[[[-121.70752,49.07485],[-121.71377,49.07485],[-121.71377,49.07901],[-121.70752,49.07901],[-121.70752,49.07485]]]}},{"type":"Feature","properties":{"c":"573244","o":"ARMSTRONG SAND & GRAVEL LTD.","e":"2028-03-03Z"},"geometry":{"type":"Polygon","coordinates":[[[-121.85128,49.26651],[-121.84503,49.26651],[-121.83878,49.26651],[-121.83878,49.26234],[-121.83878,49.25818],[-121.84503,49.25818],[-121.85128,49.25818],[-121.85128,49.26234],[-121.85128,49.26651]]]}},{"type":"Feature","properties":{"c":"1082819","o":"SHEARER, JOHAN THOM","e":"2028-06-21Z"},"geometry":{"type":"Polygon","coordinates":[[[-121.71377,49.07068],[-121.72002,49.07068],[-121.72002,49.07485],[-121.71377,49.07485],[-121.71377,49.07068]]]}},{"type":"Feature","properties":{"c":"383387","o":"OMINECA MINING AND METALS LTD.","e":"2031-12-31Z"},"geometry":{"type":"Polygon","coordinates":[[[-121.72979,49.31383],[-121.72994,49.31385],[-121.73667,49.31383],[-121.73667,49.31642],[-121.73667,49.31707],[-121.72979,49.31707],[-121.72979,49.31642],[-121.72979,49.31383]]]}},{"type":"Feature","properties":{"c":"384244","o":"OMINECA MINING AND METALS LTD.","e":"2031-12-31Z"},"geometry":{"type":"Polygon","coordinates":[[[-121.71205,49.31642],[-121.70517,49.31642],[-121.70518,49.31193],[-121.71205,49.31193],[-121.71205,49.31642]]]}},{"type":"Feature","properties":{"c":"384241","o":"OMINECA MINING AND METALS LTD.","e":"2031-12-31Z"},"geometry":{"type":"Polygon","coordinates":[[[-121.71206,49.30293],[-121.72581,49.30293],[-121.72581,49.31642],[-121.71205,49.31642],[-121.71205,49.31193],[-121.71206,49.30293]]]}},{"type":"Feature","properties":{"c":"384242","o":"OMINECA MINING AND METALS LTD.","e":"2031-12-31Z"},"geometry":{"type":"Polygon","coordinates":[[[-121.6983,49.31642],[-121.70517,49.31642],[-121.71205,49.31642],[-121.72581,49.31642],[-121.72581,49.33891],[-121.71092,49.33891],[-121.71092,49.33538],[-121.70538,49.33538],[-121.70537,49.33176],[-121.69829,49.33176],[-121.6983,49.31642]]]}},{"type":"Feature","properties":{"c":"384245","o":"OMINECA MINING AND METALS LTD.","e":"2031-12-31Z"},"geometry":{"type":"Polygon","coordinates":[[[-121.73833,49.3389],[-121.73833,49.33895],[-121.73833,49.34225],[-121.73282,49.34225],[-121.73282,49.33891],[-121.73833,49.3389]]]}},{"type":"Feature","properties":{"c":"235557","o":"OMINECA MINING AND METALS LTD.","e":"2031-12-31Z"},"geometry":{"type":"Polygon","coordinates":[[[-121.74355,49.30483],[-121.74644,49.30483],[-121.75128,49.30483],[-121.7573,49.30483],[-121.75731,49.31833],[-121.75333,49.31833],[-121.75182,49.31833],[-121.75182,49.31707],[-121.75128,49.31707],[-121.74355,49.31707],[-121.74355,49.31642],[-121.74355,49.30483]]]}},{"type":"Feature","properties":{"c":"384243","o":"OMINECA MINING AND METALS LTD.","e":"2031-12-31Z"},"geometry":{"type":"Polygon","coordinates":[[[-121.73279,49.34225],[-121.7328,49.34949],[-121.71646,49.34949],[-121.71645,49.34225],[-121.71091,49.34225],[-121.71092,49.33891],[-121.72581,49.33891],[-121.73282,49.33891],[-121.73288,49.33891],[-121.73288,49.34225],[-121.73279,49.34225]]]}},{"type":"Feature","properties":{"c":"382167","o":"OMINECA MINING AND METALS LTD.","e":"2031-12-31Z"},"geometry":{"type":"Polygon","coordinates":[[[-121.72581,49.33891],[-121.72581,49.31642],[-121.72979,49.31642],[-121.72979,49.31707],[-121.73667,49.31707],[-121.73667,49.31642],[-121.74355,49.31642],[-121.74355,49.31707],[-121.75128,49.31707],[-121.75182,49.31707],[-121.75182,49.31833],[-121.75333,49.31833],[-121.75334,49.33891],[-121.74387,49.33891],[-121.74387,49.33863],[-121.73833,49.33863],[-121.73833,49.33891],[-121.72581,49.33891]]]}},{"type":"Feature","properties":{"c":"382168","o":"OMINECA MINING AND METALS LTD.","e":"2031-12-31Z"},"geometry":{"type":"Polygon","coordinates":[[[-121.72581,49.31642],[-121.72581,49.30293],[-121.74644,49.30293],[-121.74644,49.30483],[-121.74355,49.30483],[-121.74355,49.31642],[-121.73667,49.31642],[-121.73667,49.31383],[-121.72994,49.31385],[-121.72979,49.31383],[-121.72979,49.31642],[-121.72581,49.31642]]]}},{"type":"Feature","properties":{"c":"529139","o":"OMINECA MINING AND METALS LTD.","e":"2031-12-31Z"},"geometry":{"type":"Polygon","coordinates":[[[-121.73253,49.30401],[-121.72628,49.30401],[-121.72003,49.30401],[-121.71378,49.30401],[-121.71378,49.30818],[-121.71378,49.31235],[-121.70753,49.31235],[-121.70753,49.31651],[-121.70128,49.31651],[-121.70128,49.31235],[-121.69503,49.31235],[-121.68878,49.31235],[-121.68878,49.30818],[-121.69503,49.30818],[-121.69503,49.30401],[-121.68877,49.30401],[-121.68877,49.29985],[-121.69503,49.29985],[-121.69502,49.29568],[-121.70128,49.29568],[-121.70753,49.29568],[-121.71378,49.29568],[-121.71378,49.29151],[-121.72003,49.29151],[-121.72628,49.29151],[-121.73253,49.29151],[-121.73253,49.29568],[-121.73253,49.29985],[-121.73253,49.30401]]]}},{"type":"Feature","properties":{"c":"529146","o":"OMINECA MINING AND METALS LTD.","e":"2031-12-31Z"},"geometry":{"type":"Polygon","coordinates":[[[-121.68877,49.30401],[-121.69503,49.30401],[-121.69503,49.30818],[-121.68878,49.30818],[-121.68877,49.30401]]]}},{"type":"Feature","properties":{"c":"851215","o":"CARLSON, GERALD GEORGE","e":"2030-05-05Z"},"geometry":{"type":"Polygon","coordinates":[[[-121.53877,49.46652],[-121.53252,49.46652],[-121.53252,49.46235],[-121.53252,49.45818],[-121.53252,49.45402],[-121.53877,49.45402],[-121.53877,49.45818],[-121.53877,49.46235],[-121.53877,49.46652]]]}},{"type":"Feature","properties":{"c":"851217","o":"CARLSON, GERALD GEORGE","e":"2030-05-05Z"},"geometry":{"type":"Polygon","coordinates":[[[-121.53252,49.46235],[-121.52627,49.46235],[-121.52002,49.46235],[-121.52002,49.45818],[-121.52002,49.45402],[-121.52627,49.45402],[-121.53252,49.45402],[-121.53252,49.45818],[-121.53252,49.46235]]]}},{"type":"Feature","properties":{"c":"851106","o":"CARLSON, GERALD GEORGE","e":"2030-05-05Z"},"geometry":{"type":"Polygon","coordinates":[[[-121.57002,49.45818],[-121.56377,49.45818],[-121.55752,49.45818],[-121.55127,49.45818],[-121.54502,49.45818],[-121.53877,49.45818],[-121.53877,49.45402],[-121.53877,49.44985],[-121.53877,49.44568],[-121.53877,49.44152],[-121.53877,49.43735],[-121.54502,49.43735],[-121.55127,49.43735],[-121.55752,49.43735],[-121.56377,49.43735],[-121.57002,49.43735],[-121.57002,49.44152],[-121.57002,49.44568],[-121.57002,49.44985],[-121.57002,49.45402],[-121.57002,49.45818]]]}},{"type":"Feature","properties":{"c":"851111","o":"CARLSON, GERALD GEORGE","e":"2030-05-05Z"},"geometry":{"type":"Polygon","coordinates":[[[-121.54502,49.41652],[-121.53877,49.41652],[-121.53252,49.41652],[-121.52627,49.41652],[-121.52627,49.42068],[-121.52627,49.42485],[-121.52627,49.42902],[-121.52627,49.43318],[-121.52627,49.43735],[-121.52002,49.43735],[-121.52002,49.44152],[-121.51377,49.44152],[-121.51377,49.44568],[-121.50752,49.44568],[-121.50752,49.44152],[-121.50752,49.43735],[-121.50752,49.43318],[-121.50752,49.42902],[-121.50752,49.42485],[-121.50752,49.42068],[-121.50752,49.41652],[-121.51377,49.41652],[-121.51377,49.41235],[-121.52002,49.41235],[-121.52627,49.41235],[-121.53252,49.41235],[-121.53877,49.41235],[-121.54502,49.41235],[-121.55127,49.41235],[-121.55752,49.41235],[-121.55752,49.41652],[-121.55127,49.41652],[-121.54502,49.41652]]]}},{"type":"Feature","properties":{"c":"1051097","o":"DYNOWSKI, ROBERT ANTONY","e":"2027-04-22Z"},"geometry":{"type":"Polygon","coordinates":[[[-121.80127,49.08318],[-121.80752,49.08318],[-121.80752,49.08734],[-121.80127,49.08734],[-121.80127,49.08318]]]}},{"type":"Feature","properties":{"c":"1044750","o":"RUBEN, ABRAHAM","e":"2026-11-14Z"},"geometry":{"type":"Polygon","coordinates":[[[-121.61377,49.28735],[-121.60752,49.28735],[-121.60752,49.28318],[-121.61377,49.28318],[-121.62002,49.28318],[-121.62627,49.28318],[-121.62627,49.28735],[-121.62002,49.28735],[-121.61377,49.28735]]]}},{"type":"Feature","properties":{"c":"1013819","o":"BEAR MOUNTAIN GOLD MINES LTD","e":"2031-12-31Z"},"geometry":{"type":"Polygon","coordinates":[[[-121.75128,49.36235],[-121.74503,49.36235],[-121.74503,49.36651],[-121.73878,49.36651],[-121.73253,49.36651],[-121.72628,49.36651],[-121.72628,49.36235],[-121.72003,49.36235],[-121.72003,49.35818],[-121.72003,49.35401],[-121.72628,49.35401],[-121.73253,49.35401],[-121.73878,49.35401],[-121.74503,49.35401],[-121.74503,49.34985],[-121.74503,49.34568],[-121.75128,49.34568],[-121.75128,49.34985],[-121.75128,49.35401],[-121.75128,49.35818],[-121.75128,49.36235]]]}},{"type":"Feature","properties":{"c":"1013821","o":"BEAR MOUNTAIN GOLD MINES LTD","e":"2031-12-31Z"},"geometry":{"type":"Polygon","coordinates":[[[-121.70128,49.33318],[-121.69503,49.33318],[-121.69503,49.33735],[-121.69503,49.34151],[-121.69503,49.34568],[-121.69503,49.34985],[-121.69503,49.35401],[-121.69503,49.35818],[-121.68878,49.35818],[-121.68253,49.35818],[-121.67628,49.35818],[-121.67628,49.35401],[-121.67628,49.34985],[-121.67628,49.34568],[-121.67628,49.34151],[-121.67627,49.33735],[-121.67627,49.33318],[-121.67627,49.32901],[-121.67627,49.32485],[-121.68252,49.32485],[-121.68878,49.32485],[-121.68878,49.32068],[-121.69503,49.32068],[-121.69503,49.31651],[-121.70128,49.31651],[-121.70128,49.32068],[-121.70128,49.32485],[-121.70128,49.32901],[-121.70128,49.33318]]]}},{"type":"Feature","properties":{"c":"834382","o":"BEAR MOUNTAIN GOLD MINES LTD","e":"2031-12-31Z"},"geometry":{"type":"Polygon","coordinates":[[[-121.75753,49.30818],[-121.75128,49.30818],[-121.74503,49.30818],[-121.74503,49.30401],[-121.73878,49.30401],[-121.73253,49.30401],[-121.73253,49.29985],[-121.73253,49.29568],[-121.73878,49.29568],[-121.74503,49.29568],[-121.75128,49.29568],[-121.75753,49.29568],[-121.75753,49.29985],[-121.75753,49.30401],[-121.75753,49.30818]]]}},{"type":"Feature","properties":{"c":"1012805","o":"BEAR MOUNTAIN GOLD MINES LTD","e":"2031-12-31Z"},"geometry":{"type":"Polygon","coordinates":[[[-121.73878,49.28735],[-121.73253,49.28735],[-121.73253,49.29151],[-121.72628,49.29151],[-121.72628,49.28735],[-121.72628,49.28318],[-121.73253,49.28318],[-121.73253,49.27901],[-121.73878,49.27901],[-121.74503,49.27901],[-121.74503,49.28318],[-121.73878,49.28318],[-121.73878,49.28735]]]}},{"type":"Feature","properties":{"c":"951791","o":"BEAR MOUNTAIN GOLD MINES LTD","e":"2031-12-31Z"},"geometry":{"type":"Polygon","coordinates":[[[-121.76378,49.31651],[-121.75753,49.31651],[-121.75753,49.31235],[-121.75753,49.30818],[-121.75753,49.30401],[-121.75753,49.29985],[-121.75753,49.29568],[-121.75128,49.29568],[-121.74503,49.29568],[-121.73878,49.29568],[-121.73253,49.29568],[-121.73253,49.29151],[-121.73253,49.28735],[-121.73878,49.28735],[-121.74503,49.28735],[-121.75128,49.28735],[-121.75128,49.28318],[-121.75753,49.28318],[-121.76378,49.28318],[-121.76378,49.28735],[-121.76378,49.29151],[-121.76378,49.29568],[-121.76378,49.29985],[-121.76378,49.30401],[-121.76378,49.30818],[-121.76378,49.31235],[-121.76378,49.31651]]]}},{"type":"Feature","properties":{"c":"1040968","o":"METCALFE, PAUL","e":"2030-07-31Z"},"geometry":{"type":"Polygon","coordinates":[[[-121.74503,49.27901],[-121.75128,49.27901],[-121.75128,49.28318],[-121.74503,49.28318],[-121.74503,49.27901]]]}},{"type":"Feature","properties":{"c":"1041694","o":"METCALFE, PAUL","e":"2030-07-31Z"},"geometry":{"type":"Polygon","coordinates":[[[-121.74503,49.28318],[-121.75128,49.28318],[-121.75128,49.28735],[-121.74503,49.28735],[-121.74503,49.28318]]]}},{"type":"Feature","properties":{"c":"1040351","o":"RUBEN, ABRAHAM","e":"2026-11-14Z"},"geometry":{"type":"Polygon","coordinates":[[[-121.63252,49.31651],[-121.62627,49.31651],[-121.62002,49.31651],[-121.62002,49.31235],[-121.62002,49.30818],[-121.62627,49.30818],[-121.63252,49.30818],[-121.63252,49.31235],[-121.63252,49.31651]]]}},{"type":"Feature","properties":{"c":"1021114","o":"SHEARER, JOHAN THOM","e":"2032-07-18Z"},"geometry":{"type":"Polygon","coordinates":[[[-121.70752,49.07068],[-121.71377,49.07068],[-121.71377,49.07485],[-121.70752,49.07485],[-121.70752,49.07068]]]}},{"type":"Feature","properties":{"c":"1035351","o":"BEAR MOUNTAIN GOLD MINES LTD","e":"2031-12-31Z"},"geometry":{"type":"Polygon","coordinates":[[[-121.68878,49.31651],[-121.68252,49.31651],[-121.67627,49.31651],[-121.67002,49.31651],[-121.67002,49.31235],[-121.67627,49.31235],[-121.67627,49.30818],[-121.68252,49.30818],[-121.68878,49.30818],[-121.68878,49.31235],[-121.68878,49.31651]]]}},{"type":"Feature","properties":{"c":"1027708","o":"BEAR MOUNTAIN GOLD MINES LTD","e":"2031-12-31Z"},"geometry":{"type":"Polygon","coordinates":[[[-121.72628,49.37068],[-121.72003,49.37068],[-121.72003,49.36651],[-121.72003,49.36235],[-121.72628,49.36235],[-121.72628,49.36651],[-121.73253,49.36651],[-121.73878,49.36651],[-121.73878,49.37068],[-121.73253,49.37068],[-121.72628,49.37068]]]}},{"type":"Feature","properties":{"c":"993682","o":"BEAR MOUNTAIN GOLD MINES LTD","e":"2031-12-31Z"},"geometry":{"type":"Polygon","coordinates":[[[-121.75128,49.27901],[-121.75753,49.27901],[-121.75753,49.28318],[-121.75128,49.28318],[-121.75128,49.27901]]]}},{"type":"Feature","properties":{"c":"983427","o":"BEAR MOUNTAIN GOLD MINES LTD","e":"2031-12-31Z"},"geometry":{"type":"Polygon","coordinates":[[[-121.73878,49.28318],[-121.74503,49.28318],[-121.74503,49.28735],[-121.73878,49.28735],[-121.73878,49.28318]]]}},{"type":"Feature","properties":{"c":"1027878","o":"BARRICK GOLD INC.","e":"2027-04-28Z"},"geometry":{"type":"Polygon","coordinates":[[[-121.49502,49.49152],[-121.50127,49.49152],[-121.50127,49.49568],[-121.49502,49.49568],[-121.49502,49.49152]]]}},{"type":"Feature","properties":{"c":"1079264","o":"GRACE, ANDREW JORDAN","e":"2028-06-24Z"},"geometry":{"type":"Polygon","coordinates":[[[-121.67002,49.23735],[-121.66377,49.23735],[-121.66377,49.23318],[-121.66377,49.22901],[-121.67002,49.22901],[-121.67002,49.23318],[-121.67002,49.23735]]]}},{"type":"Feature","properties":{"c":"1047317","o":"BEAR MOUNTAIN GOLD MINES LTD","e":"2031-12-31Z"},"geometry":{"type":"Polygon","coordinates":[[[-121.75753,49.34985],[-121.75128,49.34985],[-121.75128,49.34568],[-121.75128,49.34151],[-121.75128,49.33735],[-121.75753,49.33735],[-121.75753,49.34151],[-121.75753,49.34568],[-121.75753,49.34985]]]}},{"type":"Feature","properties":{"c":"1048946","o":"RUBEN, ABRAHAM","e":"2028-01-04Z"},"geometry":{"type":"Polygon","coordinates":[[[-121.63877,49.29151],[-121.63252,49.29151],[-121.63252,49.29568],[-121.63252,49.29985],[-121.62627,49.29985],[-121.62627,49.29568],[-121.62627,49.29151],[-121.62627,49.28735],[-121.63252,49.28735],[-121.63252,49.28318],[-121.63877,49.28318],[-121.63877,49.28735],[-121.63877,49.29151]]]}},{"type":"Feature","properties":{"c":"1048947","o":"RUBEN, ABRAHAM","e":"2028-01-04Z"},"geometry":{"type":"Polygon","coordinates":[[[-121.63877,49.28318],[-121.63252,49.28318],[-121.63252,49.27901],[-121.62627,49.27901],[-121.62002,49.27901],[-121.61377,49.27901],[-121.60752,49.27901],[-121.60127,49.27901],[-121.60127,49.27485],[-121.60127,49.27068],[-121.60127,49.26651],[-121.60752,49.26651],[-121.61377,49.26651],[-121.61377,49.27068],[-121.61377,49.27485],[-121.62002,49.27485],[-121.62627,49.27485],[-121.63252,49.27485],[-121.63877,49.27485],[-121.63877,49.27901],[-121.63877,49.28318]]]}},{"type":"Feature","properties":{"c":"1048918","o":"RUBEN, ABRAHAM","e":"2026-11-14Z"},"geometry":{"type":"Polygon","coordinates":[[[-121.62627,49.30818],[-121.62002,49.30818],[-121.62002,49.30401],[-121.61377,49.30401],[-121.61377,49.29985],[-121.61377,49.29568],[-121.61377,49.29151],[-121.61377,49.28735],[-121.62002,49.28735],[-121.62627,49.28735],[-121.62627,49.29151],[-121.62627,49.29568],[-121.62627,49.29985],[-121.62627,49.30401],[-121.62627,49.30818]]]}},{"type":"Feature","properties":{"c":"1046544","o":"RUBEN, ABRAHAM","e":"2026-11-14Z"},"geometry":{"type":"Polygon","coordinates":[[[-121.61377,49.30401],[-121.62002,49.30401],[-121.62002,49.30818],[-121.61377,49.30818],[-121.61377,49.30401]]]}},{"type":"Feature","properties":{"c":"1103855","o":"DEVEAULT, JUSTIN RON","e":"2027-06-05Z"},"geometry":{"type":"Polygon","coordinates":[[[-121.65127,49.03735],[-121.65127,49.03318],[-121.64502,49.03318],[-121.63877,49.03318],[-121.63252,49.03318],[-121.62627,49.03318],[-121.62627,49.02901],[-121.63252,49.02901],[-121.63252,49.02485],[-121.62627,49.02485],[-121.62627,49.02068],[-121.62627,49.01651],[-121.63252,49.01651],[-121.63877,49.01651],[-121.64502,49.01651],[-121.64502,49.01235],[-121.65127,49.01235],[-121.65127,49.01651],[-121.65127,49.02068],[-121.65752,49.02068],[-121.65752,49.02485],[-121.65752,49.02901],[-121.65752,49.03318],[-121.66377,49.03318],[-121.66377,49.03735],[-121.65752,49.03735],[-121.65127,49.03735]]]}},{"type":"Feature","properties":{"c":"1103856","o":"DEVEAULT, JUSTIN RON","e":"2027-06-05Z"},"geometry":{"type":"Polygon","coordinates":[[[-121.62002,49.02901],[-121.61377,49.02901],[-121.61377,49.02485],[-121.61377,49.02068],[-121.60752,49.02068],[-121.60752,49.01651],[-121.60751,49.01235],[-121.60126,49.01235],[-121.60126,49.00818],[-121.60751,49.00818],[-121.61376,49.00818],[-121.61377,49.01235],[-121.61377,49.01651],[-121.62002,49.01651],[-121.62002,49.02068],[-121.62002,49.02485],[-121.62002,49.02901]]]}},{"type":"Feature","properties":{"c":"1095865","o":"CARLSON, GERALD GEORGE","e":"2030-05-05Z"},"geometry":{"type":"Polygon","coordinates":[[[-121.58252,49.43735],[-121.57627,49.43735],[-121.57002,49.43735],[-121.56377,49.43735],[-121.55752,49.43735],[-121.55127,49.43735],[-121.54502,49.43735],[-121.53877,49.43735],[-121.53877,49.44152],[-121.53877,49.44568],[-121.53877,49.44985],[-121.53877,49.45402],[-121.53252,49.45402],[-121.52627,49.45402],[-121.52002,49.45402],[-121.52002,49.44985],[-121.51377,49.44985],[-121.51377,49.44568],[-121.51377,49.44152],[-121.52002,49.44152],[-121.52002,49.43735],[-121.52627,49.43735],[-121.52627,49.43318],[-121.52627,49.42902],[-121.52627,49.42485],[-121.52627,49.42068],[-121.52627,49.41652],[-121.53252,49.41652],[-121.53877,49.41652],[-121.54502,49.41652],[-121.55127,49.41652],[-121.55752,49.41652],[-121.56377,49.41652],[-121.57002,49.41652],[-121.57627,49.41652],[-121.58252,49.41652],[-121.58252,49.42068],[-121.58252,49.42485],[-121.58252,49.42902],[-121.58252,49.43318],[-121.58252,49.43735]]]}},{"type":"Feature","properties":{"c":"1102836","o":"DEVEAULT, JUSTIN RON","e":"2027-06-05Z"},"geometry":{"type":"Polygon","coordinates":[[[-121.62627,49.03735],[-121.62002,49.03735],[-121.61377,49.03735],[-121.61377,49.03318],[-121.61377,49.02901],[-121.62002,49.02901],[-121.62002,49.02485],[-121.62002,49.02068],[-121.62002,49.01651],[-121.62627,49.01651],[-121.62627,49.02068],[-121.62627,49.02485],[-121.62627,49.02901],[-121.62627,49.03318],[-121.62627,49.03735]]]}},{"type":"Feature","properties":{"c":"1102837","o":"DEVEAULT, JUSTIN RON","e":"2027-06-05Z"},"geometry":{"type":"Polygon","coordinates":[[[-121.61377,49.01235],[-121.62002,49.01235],[-121.62002,49.01651],[-121.61377,49.01651],[-121.61377,49.01235]]]}},{"type":"Feature","properties":{"c":"1101878","o":"DEVEAULT, JUSTIN RON","e":"2027-06-05Z"},"geometry":{"type":"Polygon","coordinates":[[[-121.61376,49.00818],[-121.60751,49.00818],[-121.60126,49.00818],[-121.60126,49.00401],[-121.60126,48.99985],[-121.60751,48.99985],[-121.61376,48.99985],[-121.61376,49.00401],[-121.61376,49.00818]]]}},{"type":"Feature","properties":{"c":"1101879","o":"DEVEAULT, JUSTIN RON","e":"2027-06-05Z"},"geometry":{"type":"Polygon","coordinates":[[[-121.65127,49.00818],[-121.64502,49.00818],[-121.63877,49.00818],[-121.63877,49.00401],[-121.63876,48.99985],[-121.64502,48.99985],[-121.65127,48.99985],[-121.65127,49.00401],[-121.65127,49.00818]]]}},{"type":"Feature","properties":{"c":"1097805","o":"VON EINSIEDEL, CARL ALEXANDER","e":"2031-12-31Z"},"geometry":{"type":"Polygon","coordinates":[[[-121.66377,49.31235],[-121.67002,49.31235],[-121.67002,49.31651],[-121.66377,49.31651],[-121.66377,49.31235]]]}},{"type":"Feature","properties":{"c":"1102758","o":"DEVEAULT, JUSTIN RON","e":"2027-06-05Z"},"geometry":{"type":"Polygon","coordinates":[[[-121.64502,49.01651],[-121.63877,49.01651],[-121.63252,49.01651],[-121.62627,49.01651],[-121.62002,49.01651],[-121.62002,49.01235],[-121.62627,49.01235],[-121.63252,49.01235],[-121.63877,49.01235],[-121.63877,49.00818],[-121.64502,49.00818],[-121.64502,49.01235],[-121.64502,49.01651]]]}},{"type":"Feature","properties":{"c":"1102889","o":"DEVEAULT, JUSTIN RON","e":"2027-06-05Z"},"geometry":{"type":"Polygon","coordinates":[[[-121.62627,49.02485],[-121.63252,49.02485],[-121.63252,49.02901],[-121.62627,49.02901],[-121.62627,49.02485]]]}},{"type":"Feature","properties":{"c":"1101588","o":"DEVEAULT, JUSTIN RON","e":"2027-06-05Z"},"geometry":{"type":"Polygon","coordinates":[[[-121.63877,49.01235],[-121.63252,49.01235],[-121.62627,49.01235],[-121.62002,49.01235],[-121.61377,49.01235],[-121.61376,49.00818],[-121.61376,49.00401],[-121.61376,48.99985],[-121.62001,48.99985],[-121.62626,48.99985],[-121.63251,48.99985],[-121.63876,48.99985],[-121.63877,49.00401],[-121.63877,49.00818],[-121.63877,49.01235]]]}},{"type":"Feature","properties":{"c":"1129138","o":"PETERS, AMBER LEIGH","e":"2027-01-13Z"},"geometry":{"type":"Polygon","coordinates":[[[-121.65752,49.03735],[-121.66377,49.03735],[-121.66377,49.04151],[-121.65752,49.04151],[-121.65752,49.03735]]]}},{"type":"Feature","properties":{"c":"1129156","o":"LANGILLE, MICHEAL SCOTT","e":"2027-01-13Z"},"geometry":{"type":"Polygon","coordinates":[[[-121.57002,49.15818],[-121.57627,49.15818],[-121.57627,49.16235],[-121.57002,49.16235],[-121.57002,49.15818]]]}},{"type":"Feature","properties":{"c":"1104184","o":"DEVEAULT, JUSTIN RON","e":"2027-06-05Z"},"geometry":{"type":"Polygon","coordinates":[[[-121.63877,49.03735],[-121.63252,49.03735],[-121.62627,49.03735],[-121.62627,49.03318],[-121.63252,49.03318],[-121.63877,49.03318],[-121.64502,49.03318],[-121.65127,49.03318],[-121.65127,49.03735],[-121.64502,49.03735],[-121.63877,49.03735]]]}},{"type":"Feature","properties":{"c":"1104185","o":"DEVEAULT, JUSTIN RON","e":"2027-06-05Z"},"geometry":{"type":"Polygon","coordinates":[[[-121.60127,49.02485],[-121.60127,49.02068],[-121.60126,49.01651],[-121.59501,49.01651],[-121.59501,49.01235],[-121.59501,49.00818],[-121.59501,49.00401],[-121.59501,48.99985],[-121.60126,48.99985],[-121.60126,49.00401],[-121.60126,49.00818],[-121.60126,49.01235],[-121.60751,49.01235],[-121.60752,49.01651],[-121.60752,49.02068],[-121.61377,49.02068],[-121.61377,49.02485],[-121.60752,49.02485],[-121.60127,49.02485]]]}},{"type":"Feature","properties":{"c":"1111286","o":"BADGER MINERALS LTD","e":"2028-02-06Z"},"geometry":{"type":"Polygon","coordinates":[[[-121.68253,49.48735],[-121.67628,49.48735],[-121.67003,49.48735],[-121.66378,49.48735],[-121.65753,49.48735],[-121.65128,49.48735],[-121.64503,49.48735],[-121.63878,49.48735],[-121.63878,49.48318],[-121.63878,49.47901],[-121.63878,49.47485],[-121.64503,49.47485],[-121.64503,49.47068],[-121.65128,49.47068],[-121.65753,49.47068],[-121.66378,49.47068],[-121.67003,49.47068],[-121.67628,49.47068],[-121.68253,49.47068],[-121.68253,49.47485],[-121.68253,49.47901],[-121.68253,49.48318],[-121.68253,49.48735]]]}},{"type":"Feature","properties":{"c":"1111287","o":"BADGER MINERALS LTD","e":"2028-02-06Z"},"geometry":{"type":"Polygon","coordinates":[[[-121.70128,49.51651],[-121.69503,49.51651],[-121.68878,49.51651],[-121.68253,49.51651],[-121.67628,49.51651],[-121.67628,49.51235],[-121.67628,49.50818],[-121.67628,49.50401],[-121.67003,49.50401],[-121.66378,49.50401],[-121.65753,49.50401],[-121.65128,49.50401],[-121.64503,49.50401],[-121.63878,49.50401],[-121.63878,49.49985],[-121.63878,49.49568],[-121.63878,49.49151],[-121.63878,49.48735],[-121.64503,49.48735],[-121.65128,49.48735],[-121.65753,49.48735],[-121.66378,49.48735],[-121.67003,49.48735],[-121.67628,49.48735],[-121.68253,49.48735],[-121.68878,49.48735],[-121.69503,49.48735],[-121.70128,49.48735],[-121.70128,49.49151],[-121.70128,49.49568],[-121.70128,49.49984],[-121.70128,49.50401],[-121.70128,49.50818],[-121.70128,49.51234],[-121.70128,49.51651]]]}},{"type":"Feature","properties":{"c":"1107285","o":"HURD, DANIEL GORDON","e":"2035-01-20Z"},"geometry":{"type":"Polygon","coordinates":[[[-121.62002,49.31651],[-121.61377,49.31651],[-121.60752,49.31651],[-121.60127,49.31651],[-121.60127,49.31235],[-121.60127,49.30818],[-121.60752,49.30818],[-121.61377,49.30818],[-121.62002,49.30818],[-121.62002,49.31235],[-121.62002,49.31651]]]}},{"type":"Feature","properties":{"c":"1106162","o":"KIRKNESS, BRYAN JAMES","e":"2027-07-20Z"},"geometry":{"type":"Polygon","coordinates":[[[-121.77628,49.17901],[-121.77003,49.17901],[-121.76378,49.17901],[-121.76378,49.18318],[-121.75753,49.18318],[-121.75753,49.17901],[-121.75753,49.17485],[-121.75753,49.17068],[-121.76378,49.17068],[-121.76378,49.16651],[-121.76378,49.16234],[-121.77003,49.16234],[-121.77628,49.16234],[-121.77628,49.16651],[-121.77628,49.17068],[-121.77628,49.17484],[-121.77628,49.17901]]]}},{"type":"Feature","properties":{"c":"1108404","o":"WOODBROOK AGGREGATES LTD.","e":"2026-10-21Z"},"geometry":{"type":"Polygon","coordinates":[[[-122.00128,49.33734],[-121.99503,49.33734],[-121.99503,49.34151],[-121.98878,49.34151],[-121.98253,49.34151],[-121.98253,49.33734],[-121.98253,49.33318],[-121.98253,49.32901],[-121.98878,49.32901],[-121.99503,49.32901],[-122.00128,49.32901],[-122.00128,49.33318],[-122.00128,49.33734]]]}},{"type":"Feature","properties":{"c":"1112357","o":"SAM, MURRAY","e":"2034-12-31Z"},"geometry":{"type":"Polygon","coordinates":[[[-121.68877,49.26651],[-121.68252,49.26651],[-121.67627,49.26651],[-121.67627,49.26235],[-121.67627,49.25818],[-121.67627,49.25402],[-121.68252,49.25401],[-121.68877,49.25401],[-121.68877,49.25818],[-121.68877,49.26235],[-121.68877,49.26651]]]}},{"type":"Feature","properties":{"c":"1138461","o":"TURNAGAIN RESOURCES INC.","e":"2028-10-16Z"},"geometry":{"type":"Polygon","coordinates":[[[-121.95753,49.32901],[-121.95128,49.32901],[-121.94503,49.32901],[-121.93878,49.32901],[-121.93253,49.32901],[-121.92628,49.32901],[-121.92628,49.32484],[-121.92628,49.32068],[-121.92628,49.31651],[-121.93253,49.31651],[-121.93253,49.31234],[-121.93878,49.31234],[-121.94503,49.31234],[-121.94503,49.30818],[-121.95128,49.30818],[-121.95128,49.31234],[-121.95128,49.31651],[-121.95753,49.31651],[-121.95753,49.32068],[-121.96378,49.32068],[-121.96378,49.32484],[-121.97003,49.32484],[-121.97003,49.32901],[-121.96378,49.32901],[-121.95753,49.32901]]]}},{"type":"Feature","properties":{"c":"1131554","o":"RUBEN, ABRAHAM","e":"2027-03-25Z"},"geometry":{"type":"Polygon","coordinates":[[[-121.63252,49.28735],[-121.62627,49.28735],[-121.62627,49.28318],[-121.62002,49.28318],[-121.62002,49.27901],[-121.62627,49.27901],[-121.63252,49.27901],[-121.63252,49.28318],[-121.63252,49.28735]]]}},{"type":"Feature","properties":{"c":"1128676","o":"ROUSSEAU, JESSY","e":"2026-12-25Z"},"geometry":{"type":"Polygon","coordinates":[[[-121.73253,49.38735],[-121.73878,49.38735],[-121.73878,49.39151],[-121.73253,49.39151],[-121.73253,49.38735]]]}},{"type":"Feature","properties":{"c":"1128998","o":"EVERDING, JOERG","e":"2027-01-08Z"},"geometry":{"type":"Polygon","coordinates":[[[-121.62628,49.50818],[-121.62003,49.50818],[-121.62003,49.50401],[-121.62003,49.49985],[-121.62628,49.49985],[-121.62628,49.50401],[-121.62628,49.50818]]]}},{"type":"Feature","properties":{"c":"1123801","o":"DEVEAULT, JUSTIN RON","e":"2026-06-05Z"},"geometry":{"type":"Polygon","coordinates":[[[-121.78877,49.01651],[-121.79502,49.01651],[-121.79502,49.02068],[-121.78877,49.02068],[-121.78877,49.01651]]]}},{"type":"Feature","properties":{"c":"1123802","o":"DEVEAULT, JUSTIN RON","e":"2026-06-05Z"},"geometry":{"type":"Polygon","coordinates":[[[-121.78252,49.01234],[-121.78877,49.01234],[-121.78877,49.01651],[-121.78252,49.01651],[-121.78252,49.01234]]]}},{"type":"Feature","properties":{"c":"236188","o":"PACIFIC BAY MINERALS LTD.","e":"2026-12-18Z"},"geometry":{"type":"Polygon","coordinates":[[[-121.84363,49.33673],[-121.80922,49.33673],[-121.80924,49.31874],[-121.83622,49.31874],[-121.83622,49.31929],[-121.84176,49.31929],[-121.84176,49.31874],[-121.84363,49.31874],[-121.84363,49.32324],[-121.84363,49.33673]]]}},{"type":"Feature","properties":{"c":"236189","o":"PACIFIC BAY MINERALS LTD.","e":"2026-12-18Z"},"geometry":{"type":"Polygon","coordinates":[[[-121.86427,49.32324],[-121.86431,49.33581],[-121.85743,49.33581],[-121.85743,49.33673],[-121.85716,49.33673],[-121.85643,49.33453],[-121.85066,49.33535],[-121.84716,49.33584],[-121.8456,49.33606],[-121.84581,49.33669],[-121.84583,49.33673],[-121.84575,49.33673],[-121.84363,49.33673],[-121.84363,49.32324],[-121.86427,49.32324]]]}},{"type":"Feature","properties":{"c":"1128737","o":"PAWELEC, PIOTR PRZEMYSLAW","e":"2026-12-26Z"},"geometry":{"type":"Polygon","coordinates":[[[-121.68252,49.23735],[-121.67627,49.23735],[-121.67002,49.23735],[-121.67002,49.23318],[-121.67002,49.22901],[-121.67627,49.22901],[-121.68252,49.22901],[-121.68252,49.23318],[-121.68252,49.23735]]]}},{"type":"Feature","properties":{"c":"1136775","o":"PEDROSA, GRAHAM","e":"2027-07-29Z"},"geometry":{"type":"Polygon","coordinates":[[[-121.77002,49.07484],[-121.77627,49.07484],[-121.77627,49.07901],[-121.77002,49.07901],[-121.77002,49.07484]]]}},{"type":"Feature","properties":{"c":"1138402","o":"DEVEAULT, JUSTIN RON","e":"2027-09-02Z"},"geometry":{"type":"Polygon","coordinates":[[[-121.80127,49.00818],[-121.80752,49.00818],[-121.80752,49.01234],[-121.80127,49.01234],[-121.80127,49.00818]]]}},{"type":"Feature","properties":{"c":"1138403","o":"DEVEAULT, JUSTIN RON","e":"2027-09-02Z"},"geometry":{"type":"Polygon","coordinates":[[[-121.82627,49.02484],[-121.82002,49.02484],[-121.82002,49.02068],[-121.82627,49.02068],[-121.83252,49.02068],[-121.83877,49.02068],[-121.83877,49.02484],[-121.83252,49.02484],[-121.82627,49.02484]]]}},{"type":"Feature","properties":{"c":"1138404","o":"DEVEAULT, JUSTIN RON","e":"2027-09-02Z"},"geometry":{"type":"Polygon","coordinates":[[[-121.78877,49.00401],[-121.79502,49.00401],[-121.79502,49.00818],[-121.78877,49.00818],[-121.78877,49.00401]]]}},{"type":"Feature","properties":{"c":"1138405","o":"DEVEAULT, JUSTIN RON","e":"2027-09-02Z"},"geometry":{"type":"Polygon","coordinates":[[[-121.77627,48.99984],[-121.78252,48.99984],[-121.78252,49.00401],[-121.77627,49.00401],[-121.77627,48.99984]]]}},{"type":"Feature","properties":{"c":"1137251","o":"CORDILLERAN PROPERTIES","e":"2027-08-14Z"},"geometry":{"type":"Polygon","coordinates":[[[-121.60752,49.07901],[-121.60127,49.07901],[-121.60127,49.07485],[-121.60752,49.07485],[-121.61377,49.07485],[-121.62002,49.07485],[-121.62002,49.07901],[-121.61377,49.07901],[-121.60752,49.07901]]]}},{"type":"Feature","properties":{"c":"1139789","o":"HARRIS, BARBARA JEANNE","e":"2027-09-28Z"},"geometry":{"type":"Polygon","coordinates":[[[-121.70127,49.09985],[-121.70127,49.09568],[-121.69502,49.09568],[-121.69502,49.09151],[-121.70127,49.09151],[-121.70752,49.09151],[-121.70752,49.09568],[-121.71377,49.09568],[-121.71377,49.09985],[-121.70752,49.09985],[-121.70127,49.09985]]]}},{"type":"Feature","properties":{"c":"1121274","o":"KIRKNESS, BRYAN JAMES","e":"2027-04-08Z"},"geometry":{"type":"Polygon","coordinates":[[[-122.01378,49.08734],[-122.00753,49.08734],[-122.00753,49.09151],[-122.00128,49.09151],[-121.99503,49.09151],[-121.98878,49.09151],[-121.98253,49.09151],[-121.98253,49.08734],[-121.98253,49.08317],[-121.98253,49.07901],[-121.98253,49.07484],[-121.98878,49.07484],[-121.98878,49.07901],[-121.99503,49.07901],[-122.00128,49.07901],[-122.00753,49.07901],[-122.01378,49.07901],[-122.01378,49.08317],[-122.01378,49.08734]]]}},{"type":"Feature","properties":{"c":"1123807","o":"DEVEAULT, JUSTIN RON","e":"2026-06-05Z"},"geometry":{"type":"Polygon","coordinates":[[[-121.77002,49.00818],[-121.77627,49.00818],[-121.77627,49.01234],[-121.77002,49.01234],[-121.77002,49.00818]]]}},{"type":"Feature","properties":{"c":"1129665","o":"MONTGOMERY, DARCY THOMAS","e":"2027-01-29Z"},"geometry":{"type":"Polygon","coordinates":[[[-121.62627,49.07901],[-121.62002,49.07901],[-121.62002,49.07485],[-121.61377,49.07485],[-121.60752,49.07485],[-121.60127,49.07485],[-121.60127,49.07068],[-121.60127,49.06651],[-121.60752,49.06651],[-121.61377,49.06651],[-121.62002,49.06651],[-121.62627,49.06651],[-121.62627,49.07068],[-121.62627,49.07485],[-121.62627,49.07901]]]}},{"type":"Feature","properties":{"c":"1137636","o":"GROPP, PHILIP BRADIC","e":"2027-08-25Z"},"geometry":{"type":"Polygon","coordinates":[[[-121.60127,49.32068],[-121.60127,49.32485],[-121.59502,49.32485],[-121.58877,49.32485],[-121.58877,49.32068],[-121.58877,49.31651],[-121.58877,49.31235],[-121.59502,49.31235],[-121.60127,49.31235],[-121.60127,49.31651],[-121.60752,49.31651],[-121.61377,49.31651],[-121.61377,49.32068],[-121.60752,49.32068],[-121.60127,49.32068]]]}},{"type":"Feature","properties":{"c":"1135821","o":"CARLSON, GRANT GERALD","e":"2027-07-16Z"},"geometry":{"type":"Polygon","coordinates":[[[-121.58252,49.44985],[-121.57627,49.44985],[-121.57002,49.44985],[-121.57002,49.44568],[-121.57002,49.44152],[-121.57002,49.43735],[-121.57627,49.43735],[-121.58252,49.43735],[-121.58252,49.44152],[-121.58252,49.44568],[-121.58252,49.44985]]]}},{"type":"Feature","properties":{"c":"1139891","o":"TURNAGAIN RESOURCES INC.","e":"2028-10-16Z"},"geometry":{"type":"Polygon","coordinates":[[[-121.93253,49.31234],[-121.93253,49.30818],[-121.93878,49.30818],[-121.94503,49.30818],[-121.94503,49.31234],[-121.93878,49.31234],[-121.93253,49.31234]]]}},{"type":"Feature","properties":{"c":"1139892","o":"TEUTON RESOURCES CORP.","e":"2027-10-02Z"},"geometry":{"type":"Polygon","coordinates":[[[-121.75127,49.52067],[-121.74502,49.52068],[-121.74502,49.52484],[-121.73877,49.52484],[-121.73877,49.52068],[-121.73253,49.52068],[-121.73253,49.51651],[-121.73252,49.51234],[-121.72628,49.51234],[-121.72003,49.51234],[-121.72003,49.50818],[-121.71378,49.50818],[-121.70753,49.50818],[-121.70128,49.50818],[-121.70128,49.50401],[-121.70128,49.49984],[-121.70128,49.49568],[-121.70128,49.49151],[-121.70753,49.49151],[-121.71378,49.49151],[-121.72003,49.49151],[-121.72628,49.49151],[-121.73253,49.49151],[-121.73877,49.49151],[-121.73877,49.49568],[-121.73877,49.49984],[-121.74502,49.49984],[-121.75127,49.49984],[-121.75127,49.50401],[-121.75127,49.50817],[-121.75127,49.51234],[-121.75127,49.51651],[-121.75127,49.52067]]]}},{"type":"Feature","properties":{"c":"1130936","o":"TURNAGAIN RESOURCES INC.","e":"2028-10-16Z"},"geometry":{"type":"Polygon","coordinates":[[[-121.98253,49.34151],[-121.97628,49.34151],[-121.97003,49.34151],[-121.96378,49.34151],[-121.95753,49.34151],[-121.95128,49.34151],[-121.95128,49.33734],[-121.95128,49.33318],[-121.94503,49.33318],[-121.94503,49.32901],[-121.95128,49.32901],[-121.95753,49.32901],[-121.96378,49.32901],[-121.97003,49.32901],[-121.97628,49.32901],[-121.98253,49.32901],[-121.98253,49.33318],[-121.98253,49.33734],[-121.98253,49.34151]]]}},{"type":"Feature","properties":{"c":"1130937","o":"TURNAGAIN RESOURCES INC.","e":"2028-10-16Z"},"geometry":{"type":"Polygon","coordinates":[[[-121.97003,49.34568],[-121.96378,49.34568],[-121.96378,49.34151],[-121.97003,49.34151],[-121.97628,49.34151],[-121.98253,49.34151],[-121.98253,49.34568],[-121.97628,49.34568],[-121.97003,49.34568]]]}},{"type":"Feature","properties":{"c":"1128632","o":"EVERDING, JOERG","e":"2026-12-22Z"},"geometry":{"type":"Polygon","coordinates":[[[-121.60128,49.49985],[-121.59503,49.49985],[-121.59503,49.49568],[-121.58878,49.49568],[-121.58253,49.49568],[-121.58253,49.49152],[-121.58253,49.48735],[-121.58878,49.48735],[-121.59503,49.48735],[-121.60128,49.48735],[-121.60128,49.49151],[-121.60753,49.49151],[-121.60753,49.49568],[-121.61378,49.49568],[-121.61378,49.49985],[-121.60753,49.49985],[-121.60128,49.49985]]]}},{"type":"Feature","properties":{"c":"1127107","o":"JONES, DUSTIN ERICH","e":"2026-10-22Z"},"geometry":{"type":"Polygon","coordinates":[[[-121.74503,49.40401],[-121.74503,49.39985],[-121.75128,49.39985],[-121.75753,49.39985],[-121.75753,49.40401],[-121.75128,49.40401],[-121.74503,49.40401]]]}},{"type":"Feature","properties":{"c":"1134193","o":"GEOMAP EXPLORATION INC.","e":"2027-06-10Z"},"geometry":{"type":"Polygon","coordinates":[[[-121.68878,49.32485],[-121.68252,49.32485],[-121.67627,49.32485],[-121.67002,49.32485],[-121.67002,49.32901],[-121.66377,49.32901],[-121.65752,49.32901],[-121.65752,49.33318],[-121.65127,49.33318],[-121.64502,49.33318],[-121.64502,49.33735],[-121.63877,49.33735],[-121.63877,49.33318],[-121.63877,49.32901],[-121.64502,49.32901],[-121.64502,49.32485],[-121.65127,49.32485],[-121.65127,49.32068],[-121.65752,49.32068],[-121.65752,49.31651],[-121.66377,49.31651],[-121.67002,49.31651],[-121.67627,49.31651],[-121.68252,49.31651],[-121.68878,49.31651],[-121.68878,49.32068],[-121.68878,49.32485]]]}},{"type":"Feature","properties":{"c":"1108877","o":"SUMER, SUMEET SINGH","e":"2026-11-04Z"},"geometry":{"type":"Polygon","coordinates":[[[-122.02628,49.34567],[-122.02003,49.34567],[-122.01378,49.34567],[-122.00753,49.34567],[-122.00128,49.34567],[-121.99503,49.34568],[-121.99503,49.34151],[-121.99503,49.33734],[-122.00128,49.33734],[-122.00128,49.33318],[-122.00128,49.32901],[-122.00753,49.32901],[-122.00753,49.33318],[-122.01378,49.33317],[-122.02003,49.33317],[-122.02003,49.33734],[-122.02628,49.33734],[-122.02628,49.34151],[-122.02628,49.34567]]]}},{"type":"Feature","properties":{"c":"1109070","o":"SUMER, SUMEET SINGH","e":"2026-11-13Z"},"geometry":{"type":"Polygon","coordinates":[[[-121.97628,49.28734],[-121.97003,49.28734],[-121.96378,49.28734],[-121.96378,49.28318],[-121.96378,49.27901],[-121.97003,49.27901],[-121.97628,49.27901],[-121.97628,49.28318],[-121.97628,49.28734]]]}},{"type":"Feature","properties":{"c":"1128582","o":"EVERDING, JOERG","e":"2026-12-19Z"},"geometry":{"type":"Polygon","coordinates":[[[-121.61378,49.50818],[-121.60753,49.50818],[-121.60753,49.50401],[-121.60753,49.49985],[-121.61378,49.49985],[-121.62003,49.49985],[-121.62003,49.50401],[-121.61378,49.50401],[-121.61378,49.50818]]]}},{"type":"Feature","properties":{"c":"1121620","o":"KIRKNESS, BRYAN JAMES","e":"2027-03-12Z"},"geometry":{"type":"Polygon","coordinates":[[[-121.98253,49.08734],[-121.97628,49.08734],[-121.97003,49.08734],[-121.97003,49.08317],[-121.97628,49.08317],[-121.97628,49.07901],[-121.98253,49.07901],[-121.98253,49.08317],[-121.98253,49.08734]]]}},{"type":"Feature","properties":{"c":"1121623","o":"KIRKNESS, BRYAN JAMES","e":"2027-03-12Z"},"geometry":{"type":"Polygon","coordinates":[[[-121.76378,49.16234],[-121.76378,49.15818],[-121.77003,49.15818],[-121.77628,49.15818],[-121.77628,49.16234],[-121.77003,49.16234],[-121.76378,49.16234]]]}},{"type":"Feature","properties":{"c":"1127757","o":"DEVEAULT, JUSTIN RON","e":"2026-11-20Z"},"geometry":{"type":"Polygon","coordinates":[[[-121.62002,49.06235],[-121.61377,49.06235],[-121.60752,49.06235],[-121.60752,49.05818],[-121.60752,49.05401],[-121.61377,49.05401],[-121.62002,49.05401],[-121.62002,49.05818],[-121.62002,49.06235]]]}},{"type":"Feature","properties":{"c":"1127758","o":"DEVEAULT, JUSTIN RON","e":"2026-11-20Z"},"geometry":{"type":"Polygon","coordinates":[[[-121.60127,49.06651],[-121.60127,49.06235],[-121.60127,49.05818],[-121.60752,49.05818],[-121.60752,49.06235],[-121.61377,49.06235],[-121.61377,49.06651],[-121.60752,49.06651],[-121.60127,49.06651]]]}},{"type":"Feature","properties":{"c":"1121164","o":"STRICKLAND, DERRICK","e":"2035-06-24Z"},"geometry":{"type":"Polygon","coordinates":[[[-121.80753,49.37068],[-121.80128,49.37068],[-121.80128,49.36651],[-121.80128,49.36234],[-121.80753,49.36234],[-121.80753,49.36651],[-121.80753,49.37068]]]}},{"type":"Feature","properties":{"c":"1116213","o":"DEVEAULT, JUSTIN RON","e":"2029-02-19Z"},"geometry":{"type":"Polygon","coordinates":[[[-121.83877,49.02068],[-121.83252,49.02068],[-121.82627,49.02068],[-121.82002,49.02068],[-121.81377,49.02068],[-121.80752,49.02068],[-121.80752,49.02484],[-121.80127,49.02484],[-121.80127,49.02068],[-121.79502,49.02068],[-121.79502,49.01651],[-121.78877,49.01651],[-121.78877,49.01234],[-121.78252,49.01234],[-121.77627,49.01234],[-121.77627,49.00818],[-121.77002,49.00818],[-121.76377,49.00818],[-121.76377,49.00401],[-121.76377,48.99984],[-121.77002,48.99984],[-121.77627,48.99984],[-121.77627,49.00401],[-121.78252,49.00401],[-121.78877,49.00401],[-121.78877,49.00818],[-121.79502,49.00818],[-121.80127,49.00818],[-121.80127,49.01234],[-121.80752,49.01234],[-121.81377,49.01234],[-121.82002,49.01234],[-121.82627,49.01234],[-121.83252,49.01234],[-121.83877,49.01234],[-121.83877,49.01651],[-121.83877,49.02068]]]}},{"type":"Feature","properties":{"c":"1119720","o":"SHEARER, JOHAN THOM","e":"2027-01-31Z"},"geometry":{"type":"Polygon","coordinates":[[[-121.62627,49.36235],[-121.62002,49.36235],[-121.61377,49.36235],[-121.61377,49.35818],[-121.61377,49.35401],[-121.62002,49.35401],[-121.62627,49.35401],[-121.62627,49.35818],[-121.62627,49.36235]]]}},{"type":"Feature","properties":{"c":"1127764","o":"DEVEAULT, JUSTIN RON","e":"2026-11-21Z"},"geometry":{"type":"Polygon","coordinates":[[[-121.62627,49.06651],[-121.62002,49.06651],[-121.61377,49.06651],[-121.61377,49.06235],[-121.62002,49.06235],[-121.62002,49.05818],[-121.62002,49.05401],[-121.61377,49.05401],[-121.60752,49.05401],[-121.60752,49.04985],[-121.61377,49.04985],[-121.61377,49.04568],[-121.61377,49.04151],[-121.61377,49.03735],[-121.62002,49.03735],[-121.62627,49.03735],[-121.62627,49.04151],[-121.62627,49.04568],[-121.62627,49.04985],[-121.62627,49.05401],[-121.62627,49.05818],[-121.62627,49.06235],[-121.62627,49.06651]]]}},{"type":"Feature","properties":{"c":"1128598","o":"EVERDING, JOERG","e":"2026-12-20Z"},"geometry":{"type":"Polygon","coordinates":[[[-121.60128,49.49985],[-121.60753,49.49985],[-121.60753,49.50401],[-121.60128,49.50401],[-121.60128,49.49985]]]}}]}