{"type":"FeatureCollection","features":[{"type":"Feature","properties":{"c":"839283","o":"1050852 B.C. LTD","e":"2027-05-07Z"},"geometry":{"type":"Polygon","coordinates":[[[-122.6951,50.47069],[-122.69509,50.46653],[-122.70134,50.46653],[-122.70759,50.46653],[-122.7076,50.47069],[-122.70135,50.47069],[-122.6951,50.47069]]]}},{"type":"Feature","properties":{"c":"831521","o":"1050852 B.C. LTD","e":"2027-05-07Z"},"geometry":{"type":"Polygon","coordinates":[[[-122.7076,50.47903],[-122.70135,50.47903],[-122.6951,50.47903],[-122.6951,50.47486],[-122.70135,50.47486],[-122.70135,50.47069],[-122.7076,50.47069],[-122.7076,50.47486],[-122.7076,50.47903]]]}},{"type":"Feature","properties":{"c":"1028090","o":"1050852 B.C. LTD","e":"2027-05-07Z"},"geometry":{"type":"Polygon","coordinates":[[[-122.7076,50.47486],[-122.71385,50.47486],[-122.71385,50.47903],[-122.7076,50.47903],[-122.7076,50.47486]]]}},{"type":"Feature","properties":{"c":"1036548","o":"1050852 B.C. LTD","e":"2027-05-07Z"},"geometry":{"type":"Polygon","coordinates":[[[-122.7076,50.49153],[-122.70135,50.49153],[-122.6951,50.49153],[-122.6951,50.48736],[-122.70135,50.48736],[-122.7076,50.48736],[-122.71385,50.48736],[-122.7201,50.48736],[-122.7201,50.49153],[-122.71385,50.49153],[-122.7076,50.49153]]]}},{"type":"Feature","properties":{"c":"1052369","o":"1052267 B.C. UNLIMITED LIABILITY COMPANY","e":"2027-05-07Z"},"geometry":{"type":"Polygon","coordinates":[[[-122.71385,50.48736],[-122.7076,50.48736],[-122.70135,50.48736],[-122.6951,50.48736],[-122.6951,50.48319],[-122.6951,50.47903],[-122.70135,50.47903],[-122.7076,50.47903],[-122.71385,50.47903],[-122.7201,50.47903],[-122.7201,50.48319],[-122.72635,50.48319],[-122.72635,50.48736],[-122.7201,50.48736],[-122.71385,50.48736]]]}},{"type":"Feature","properties":{"c":"1098989","o":"TRC MINING INC","e":"2027-04-07Z"},"geometry":{"type":"Polygon","coordinates":[[[-122.54504,50.02069],[-122.53879,50.02069],[-122.53879,50.01652],[-122.53254,50.01652],[-122.53254,50.01235],[-122.53254,50.00819],[-122.53254,50.00402],[-122.52629,50.00402],[-122.52629,49.99985],[-122.52004,49.99985],[-122.52004,49.99568],[-122.52004,49.99152],[-122.51379,49.99152],[-122.50754,49.99152],[-122.50129,49.99152],[-122.49504,49.99152],[-122.48879,49.99152],[-122.48255,49.99152],[-122.48255,49.98735],[-122.4763,49.98735],[-122.47005,49.98735],[-122.47005,49.98318],[-122.47005,49.97902],[-122.4638,49.97902],[-122.4638,49.97485],[-122.4638,49.97068],[-122.4638,49.96652],[-122.47005,49.96652],[-122.4763,49.96652],[-122.4763,49.97068],[-122.48255,49.97068],[-122.4888,49.97068],[-122.49505,49.97068],[-122.50129,49.97068],[-122.50754,49.97068],[-122.51379,49.97068],[-122.52004,49.97068],[-122.52629,49.97068],[-122.53254,49.97068],[-122.53879,49.97068],[-122.54504,49.97068],[-122.55129,49.97068],[-122.55129,49.97485],[-122.55129,49.97902],[-122.55129,49.98318],[-122.55129,49.98735],[-122.55129,49.99152],[-122.55129,49.99568],[-122.55129,49.99985],[-122.55129,50.00402],[-122.55129,50.00819],[-122.55129,50.01235],[-122.55129,50.01652],[-122.55754,50.01652],[-122.55754,50.02069],[-122.55129,50.02069],[-122.54504,50.02069]]]}},{"type":"Feature","properties":{"c":"1098990","o":"TRC MINING INC","e":"2027-04-07Z"},"geometry":{"type":"Polygon","coordinates":[[[-122.57629,50.02069],[-122.57004,50.02069],[-122.56379,50.02069],[-122.56379,50.01652],[-122.56379,50.01235],[-122.55754,50.01235],[-122.55754,50.00819],[-122.55754,50.00402],[-122.55754,49.99985],[-122.55754,49.99568],[-122.55754,49.99152],[-122.55754,49.98735],[-122.55754,49.98318],[-122.55754,49.97902],[-122.55754,49.97485],[-122.55754,49.97068],[-122.55754,49.96652],[-122.55129,49.96652],[-122.54504,49.96652],[-122.53879,49.96652],[-122.53254,49.96652],[-122.52629,49.96652],[-122.52004,49.96652],[-122.51379,49.96652],[-122.50754,49.96652],[-122.50129,49.96652],[-122.49505,49.96652],[-122.4888,49.96652],[-122.48255,49.96652],[-122.48255,49.96235],[-122.4763,49.96235],[-122.47005,49.96235],[-122.47005,49.95818],[-122.47005,49.95401],[-122.47005,49.94985],[-122.47005,49.94568],[-122.47005,49.94151],[-122.47005,49.93735],[-122.47005,49.93318],[-122.47005,49.92901],[-122.47005,49.92485],[-122.47005,49.92068],[-122.4763,49.92068],[-122.48255,49.92068],[-122.4888,49.92068],[-122.4888,49.92485],[-122.4888,49.92901],[-122.4888,49.93318],[-122.4888,49.93735],[-122.4888,49.94151],[-122.4888,49.94568],[-122.4888,49.94985],[-122.4888,49.95401],[-122.4888,49.95818],[-122.4888,49.96235],[-122.49505,49.96235],[-122.50129,49.96235],[-122.50754,49.96235],[-122.51379,49.96235],[-122.52004,49.96235],[-122.52629,49.96235],[-122.53254,49.96235],[-122.53879,49.96235],[-122.54504,49.96235],[-122.55129,49.96235],[-122.55754,49.96235],[-122.56379,49.96235],[-122.57004,49.96235],[-122.57629,49.96235],[-122.57629,49.96652],[-122.57629,49.97068],[-122.57629,49.97485],[-122.57629,49.97902],[-122.57629,49.98318],[-122.57629,49.98735],[-122.57629,49.99152],[-122.57629,49.99568],[-122.57629,49.99985],[-122.57629,50.00402],[-122.57629,50.00818],[-122.57629,50.01235],[-122.57629,50.01652],[-122.57629,50.02069]]]}},{"type":"Feature","properties":{"c":"368580","o":"TRC MINING INC","e":"2027-06-01Z"},"geometry":{"type":"MultiPolygon","coordinates":[[[[-122.50482,49.99773],[-122.5106,49.9885],[-122.51103,49.98861],[-122.51171,49.98235],[-122.51078,49.98234],[-122.51087,49.97335],[-122.51241,49.97336],[-122.51147,49.9732],[-122.51495,49.96444],[-122.52846,49.96675],[-122.52497,49.97545],[-122.5248,49.97543],[-122.52473,49.98223],[-122.5257,49.98228],[-122.52473,49.99125],[-122.52187,49.99112],[-122.52233,49.99064],[-122.52091,49.99007],[-122.52125,49.98183],[-122.51428,49.98171],[-122.51392,49.99085],[-122.50904,49.9959],[-122.51496,49.99828],[-122.52168,49.9914],[-122.52354,49.99186],[-122.51854,49.99985],[-122.51672,50.00275],[-122.50427,50.0024],[-122.50427,50.00249],[-122.50426,50.00263],[-122.50267,50.00222],[-122.50211,50.00207],[-122.5035,49.99985],[-122.50482,49.99773]]],[[[-122.50418,50.00543],[-122.50416,50.00622],[-122.50375,50.00611],[-122.50418,50.00543]]]]}},{"type":"Feature","properties":{"c":"1102430","o":"TRC MINING INC","e":"2027-04-07Z"},"geometry":{"type":"Polygon","coordinates":[[[-122.56379,50.02069],[-122.55754,50.02069],[-122.55754,50.01652],[-122.55129,50.01652],[-122.55129,50.01235],[-122.55129,50.00819],[-122.55129,50.00402],[-122.55129,49.99985],[-122.55129,49.99568],[-122.55129,49.99152],[-122.55129,49.98735],[-122.55129,49.98318],[-122.55129,49.97902],[-122.55129,49.97485],[-122.55129,49.97068],[-122.54504,49.97068],[-122.53879,49.97068],[-122.53254,49.97068],[-122.52629,49.97068],[-122.52004,49.97068],[-122.51379,49.97068],[-122.50754,49.97068],[-122.50129,49.97068],[-122.49505,49.97068],[-122.4888,49.97068],[-122.48255,49.97068],[-122.4763,49.97068],[-122.4763,49.96652],[-122.47005,49.96652],[-122.4638,49.96652],[-122.4638,49.96235],[-122.4638,49.95818],[-122.4638,49.95401],[-122.4638,49.94985],[-122.4638,49.94568],[-122.4638,49.94151],[-122.4638,49.93735],[-122.4638,49.93318],[-122.4638,49.92901],[-122.4638,49.92484],[-122.4638,49.92068],[-122.47005,49.92068],[-122.47005,49.92485],[-122.47005,49.92901],[-122.47005,49.93318],[-122.47005,49.93735],[-122.47005,49.94151],[-122.47005,49.94568],[-122.47005,49.94985],[-122.47005,49.95401],[-122.47005,49.95818],[-122.47005,49.96235],[-122.4763,49.96235],[-122.48255,49.96235],[-122.48255,49.96652],[-122.4888,49.96652],[-122.49505,49.96652],[-122.50129,49.96652],[-122.50754,49.96652],[-122.51379,49.96652],[-122.52004,49.96652],[-122.52629,49.96652],[-122.53254,49.96652],[-122.53879,49.96652],[-122.54504,49.96652],[-122.55129,49.96652],[-122.55754,49.96652],[-122.55754,49.97068],[-122.55754,49.97485],[-122.55754,49.97902],[-122.55754,49.98318],[-122.55754,49.98735],[-122.55754,49.99152],[-122.55754,49.99568],[-122.55754,49.99985],[-122.55754,50.00402],[-122.55754,50.00819],[-122.55754,50.01235],[-122.56379,50.01235],[-122.56379,50.01652],[-122.56379,50.02069]]]}},{"type":"Feature","properties":{"c":"1099559","o":"KOLEBABA, MARK ROBERT","e":"2028-01-14Z"},"geometry":{"type":"MultiPolygon","coordinates":[[[[-122.77011,50.54152],[-122.76386,50.54152],[-122.75761,50.54152],[-122.75136,50.54152],[-122.74511,50.54152],[-122.74511,50.53736],[-122.74511,50.53319],[-122.74511,50.52902],[-122.74511,50.52486],[-122.74511,50.52069],[-122.73886,50.52069],[-122.73886,50.51652],[-122.73886,50.51236],[-122.73886,50.50819],[-122.73885,50.50402],[-122.73885,50.49986],[-122.7326,50.49986],[-122.72635,50.49986],[-122.7201,50.49986],[-122.7201,50.49569],[-122.7201,50.49153],[-122.7201,50.48736],[-122.72635,50.48736],[-122.72635,50.48319],[-122.7201,50.48319],[-122.7201,50.47903],[-122.71385,50.47903],[-122.71385,50.47486],[-122.7201,50.47486],[-122.72635,50.47486],[-122.7326,50.47486],[-122.73885,50.47486],[-122.73885,50.47903],[-122.73885,50.48319],[-122.7451,50.48319],[-122.7451,50.48736],[-122.75135,50.48736],[-122.75135,50.49153],[-122.75135,50.49569],[-122.7576,50.49569],[-122.75761,50.49986],[-122.75761,50.50402],[-122.75136,50.50402],[-122.75136,50.50819],[-122.75136,50.51236],[-122.75136,50.51652],[-122.75761,50.51652],[-122.75761,50.52069],[-122.76386,50.52069],[-122.76386,50.52486],[-122.77011,50.52486],[-122.77011,50.52902],[-122.77636,50.52902],[-122.77636,50.53319],[-122.77011,50.53319],[-122.77011,50.53736],[-122.77011,50.54152]],[[-122.76386,50.53319],[-122.75761,50.53319],[-122.75136,50.53319],[-122.75136,50.53736],[-122.75761,50.53736],[-122.76386,50.53736],[-122.76386,50.53319]]]]}},{"type":"Feature","properties":{"c":"1104522","o":"TRC MINING INC","e":"2027-04-07Z"},"geometry":{"type":"Polygon","coordinates":[[[-122.57629,50.07069],[-122.57004,50.07069],[-122.56379,50.07069],[-122.55754,50.07069],[-122.55129,50.07069],[-122.55129,50.06653],[-122.55129,50.06236],[-122.55129,50.05819],[-122.55129,50.05402],[-122.55129,50.04986],[-122.55129,50.04569],[-122.55129,50.04152],[-122.55129,50.03736],[-122.54504,50.03736],[-122.54504,50.03319],[-122.54504,50.02902],[-122.54504,50.02485],[-122.53879,50.02485],[-122.53879,50.02069],[-122.54504,50.02069],[-122.55129,50.02069],[-122.55754,50.02069],[-122.56379,50.02069],[-122.57004,50.02069],[-122.57629,50.02069],[-122.57629,50.02485],[-122.57629,50.02902],[-122.57629,50.03319],[-122.57629,50.03735],[-122.57629,50.04152],[-122.57629,50.04569],[-122.57629,50.04986],[-122.57629,50.05402],[-122.57629,50.05819],[-122.57629,50.06236],[-122.57629,50.06652],[-122.57629,50.07069]]]}},{"type":"Feature","properties":{"c":"1080482","o":"AMRIZE CANADA INC.","e":"2027-01-07Z"},"geometry":{"type":"Polygon","coordinates":[[[-122.74508,50.36653],[-122.73883,50.36653],[-122.73257,50.36653],[-122.72632,50.36653],[-122.72632,50.36237],[-122.73257,50.36237],[-122.73257,50.3582],[-122.73882,50.3582],[-122.74507,50.3582],[-122.74507,50.36236],[-122.74508,50.36653]]]}},{"type":"Feature","properties":{"c":"1128366","o":"HARPER, KENNETH","e":"2026-12-17Z"},"geometry":{"type":"Polygon","coordinates":[[[-122.67005,50.27487],[-122.6638,50.27487],[-122.65755,50.27487],[-122.6513,50.27487],[-122.6513,50.27904],[-122.64505,50.27904],[-122.64505,50.27487],[-122.6388,50.27487],[-122.63255,50.27487],[-122.63255,50.2707],[-122.6388,50.2707],[-122.64505,50.2707],[-122.64505,50.26654],[-122.6513,50.26654],[-122.6513,50.26237],[-122.65755,50.26237],[-122.6638,50.26237],[-122.6638,50.26654],[-122.67005,50.26653],[-122.67005,50.2707],[-122.67005,50.27487]]]}},{"type":"Feature","properties":{"c":"1128374","o":"HASON, JAMES MILLER","e":"2026-12-17Z"},"geometry":{"type":"Polygon","coordinates":[[[-122.66382,50.35403],[-122.65757,50.35403],[-122.65757,50.34987],[-122.65132,50.34987],[-122.65132,50.3457],[-122.65131,50.34154],[-122.65756,50.34154],[-122.66382,50.34153],[-122.66382,50.3457],[-122.67007,50.3457],[-122.67007,50.34987],[-122.66382,50.34987],[-122.66382,50.35403]]]}},{"type":"Feature","properties":{"c":"1133877","o":"SIMARD-MAHEUX, FRANCOIS","e":"2027-06-08Z"},"geometry":{"type":"Polygon","coordinates":[[[-122.74508,50.36653],[-122.73883,50.36653],[-122.73257,50.36653],[-122.73257,50.36237],[-122.73257,50.3582],[-122.73882,50.3582],[-122.74507,50.3582],[-122.74507,50.36236],[-122.74508,50.36653]]]}},{"type":"Feature","properties":{"c":"1133945","o":"HASON, JAMES MILLER","e":"2027-06-08Z"},"geometry":{"type":"Polygon","coordinates":[[[-122.61381,50.2957],[-122.60756,50.2957],[-122.60755,50.29154],[-122.60755,50.28737],[-122.6138,50.28737],[-122.6138,50.29154],[-122.61381,50.2957]]]}},{"type":"Feature","properties":{"c":"1133946","o":"HASON, JAMES MILLER","e":"2027-06-08Z"},"geometry":{"type":"Polygon","coordinates":[[[-122.62006,50.29987],[-122.62006,50.2957],[-122.62631,50.2957],[-122.63256,50.2957],[-122.63256,50.29987],[-122.62631,50.29987],[-122.62006,50.29987]]]}},{"type":"Feature","properties":{"c":"1133949","o":"ADAMOWICZ, ROBERT JOHN","e":"2027-06-08Z"},"geometry":{"type":"Polygon","coordinates":[[[-122.75133,50.40403],[-122.74508,50.40403],[-122.74508,50.39986],[-122.73883,50.39986],[-122.73883,50.3957],[-122.74508,50.3957],[-122.75133,50.3957],[-122.75133,50.39986],[-122.75133,50.40403]]]}},{"type":"Feature","properties":{"c":"1133950","o":"ADAMOWICZ, ROBERT JOHN","e":"2027-06-08Z"},"geometry":{"type":"Polygon","coordinates":[[[-122.73883,50.39986],[-122.74508,50.39986],[-122.74508,50.40403],[-122.73883,50.40403],[-122.73883,50.39986]]]}},{"type":"Feature","properties":{"c":"1133958","o":"BOT, JOHN CHRISOSTOM","e":"2027-06-08Z"},"geometry":{"type":"Polygon","coordinates":[[[-122.84511,50.50402],[-122.83886,50.50402],[-122.83261,50.50402],[-122.83261,50.49986],[-122.83261,50.49569],[-122.83886,50.49569],[-122.84511,50.49569],[-122.84511,50.49986],[-122.84511,50.50402]]]}},{"type":"Feature","properties":{"c":"1133959","o":"BOT, JOHN CHRISOSTOM","e":"2027-06-08Z"},"geometry":{"type":"Polygon","coordinates":[[[-122.83261,50.50402],[-122.82636,50.50402],[-122.82011,50.50402],[-122.82011,50.49986],[-122.82011,50.49569],[-122.82636,50.49569],[-122.83261,50.49569],[-122.83261,50.49986],[-122.83261,50.50402]]]}},{"type":"Feature","properties":{"c":"1133983","o":"TUPPER, DAVID WILSON","e":"2027-06-08Z"},"geometry":{"type":"Polygon","coordinates":[[[-122.5951,50.50403],[-122.58885,50.50403],[-122.5826,50.50403],[-122.57635,50.50403],[-122.57635,50.49986],[-122.57635,50.49569],[-122.5826,50.49569],[-122.58885,50.49569],[-122.5951,50.49569],[-122.5951,50.49986],[-122.5951,50.50403]]]}},{"type":"Feature","properties":{"c":"1134035","o":"0946940 BC LTD","e":"2027-06-08Z"},"geometry":{"type":"Polygon","coordinates":[[[-122.71385,50.47486],[-122.7076,50.47486],[-122.7076,50.47069],[-122.71385,50.47069],[-122.7201,50.47069],[-122.72635,50.47069],[-122.72635,50.47486],[-122.7201,50.47486],[-122.71385,50.47486]]]}},{"type":"Feature","properties":{"c":"1118214","o":"NEWELL, EDWARD PAUL","e":"2026-12-20Z"},"geometry":{"type":"Polygon","coordinates":[[[-122.93262,50.48319],[-122.92637,50.48319],[-122.92011,50.48319],[-122.92011,50.47902],[-122.92636,50.47902],[-122.92636,50.47485],[-122.93261,50.47485],[-122.93886,50.47485],[-122.93887,50.47902],[-122.93261,50.47902],[-122.93262,50.48319]]]}},{"type":"Feature","properties":{"c":"1137348","o":"SCOTT, STEVEN JEFFREY","e":"2027-02-20Z"},"geometry":{"type":"Polygon","coordinates":[[[-122.78884,50.40403],[-122.78884,50.39986],[-122.79509,50.39986],[-122.80134,50.39986],[-122.80134,50.40403],[-122.79509,50.40403],[-122.78884,50.40403]]]}},{"type":"Feature","properties":{"c":"1122014","o":"KOLEBABA, MARK ROBERT","e":"2029-11-04Z"},"geometry":{"type":"Polygon","coordinates":[[[-123.02631,50.22485],[-123.02006,50.22485],[-123.02006,50.22901],[-123.01381,50.22901],[-123.00756,50.22901],[-123.00131,50.22901],[-122.99506,50.22901],[-122.98881,50.22901],[-122.98256,50.22902],[-122.97631,50.22902],[-122.97006,50.22902],[-122.97006,50.22485],[-122.96381,50.22485],[-122.95756,50.22485],[-122.95131,50.22485],[-122.95131,50.22068],[-122.95131,50.21652],[-122.95756,50.21652],[-122.96381,50.21652],[-122.96381,50.21235],[-122.96381,50.20818],[-122.96381,50.20401],[-122.96381,50.19985],[-122.96381,50.19568],[-122.96381,50.19151],[-122.97006,50.19151],[-122.97631,50.19151],[-122.97631,50.19568],[-122.97631,50.19985],[-122.97631,50.20401],[-122.98256,50.20401],[-122.98256,50.20818],[-122.98256,50.21235],[-122.98881,50.21235],[-122.99506,50.21235],[-123.00131,50.21235],[-123.00756,50.21235],[-123.01381,50.21235],[-123.02006,50.21235],[-123.02631,50.21235],[-123.02631,50.21651],[-123.02631,50.22068],[-123.02631,50.22485]]]}},{"type":"Feature","properties":{"c":"1139919","o":"KOLEBABA, MARK ROBERT","e":"2027-10-03Z"},"geometry":{"type":"Polygon","coordinates":[[[-123.00756,50.23318],[-123.00131,50.23318],[-122.99506,50.23318],[-122.98881,50.23318],[-122.98256,50.23318],[-122.97631,50.23318],[-122.97006,50.23318],[-122.96381,50.23318],[-122.95756,50.23318],[-122.95131,50.23318],[-122.94506,50.23318],[-122.93881,50.23318],[-122.93256,50.23318],[-122.93256,50.22902],[-122.92631,50.22902],[-122.92631,50.22485],[-122.92631,50.22068],[-122.92631,50.21652],[-122.92631,50.21235],[-122.92631,50.20818],[-122.93256,50.20818],[-122.93256,50.20402],[-122.93881,50.20402],[-122.94506,50.20402],[-122.95131,50.20402],[-122.95756,50.20402],[-122.96381,50.20401],[-122.96381,50.20818],[-122.96381,50.21235],[-122.96381,50.21652],[-122.95756,50.21652],[-122.95131,50.21652],[-122.95131,50.22068],[-122.95131,50.22485],[-122.95756,50.22485],[-122.96381,50.22485],[-122.97006,50.22485],[-122.97006,50.22902],[-122.97631,50.22902],[-122.98256,50.22902],[-122.98881,50.22901],[-122.99506,50.22901],[-123.00131,50.22901],[-123.00756,50.22901],[-123.01381,50.22901],[-123.02006,50.22901],[-123.02006,50.23318],[-123.01381,50.23318],[-123.00756,50.23318]]]}},{"type":"Feature","properties":{"c":"1126251","o":"SCOTT, STEVEN JEFFREY","e":"2027-03-24Z"},"geometry":{"type":"Polygon","coordinates":[[[-122.75758,50.37903],[-122.76383,50.37903],[-122.76383,50.3832],[-122.75758,50.3832],[-122.75758,50.37903]]]}},{"type":"Feature","properties":{"c":"1127981","o":"BEYOND MINERALS INC.","e":"2026-12-02Z"},"geometry":{"type":"MultiPolygon","coordinates":[[[[-122.80759,50.40819],[-122.80134,50.40819],[-122.79509,50.40819],[-122.78884,50.40819],[-122.78259,50.4082],[-122.78259,50.40403],[-122.78259,50.39986],[-122.77634,50.39986],[-122.77009,50.39986],[-122.76383,50.39986],[-122.76383,50.3957],[-122.75758,50.3957],[-122.75758,50.39153],[-122.75133,50.39153],[-122.74508,50.39153],[-122.74508,50.38736],[-122.73883,50.38736],[-122.73883,50.3832],[-122.73258,50.3832],[-122.73258,50.37903],[-122.73258,50.37486],[-122.73258,50.3707],[-122.73883,50.3707],[-122.73883,50.36653],[-122.74508,50.36653],[-122.74507,50.36236],[-122.74507,50.3582],[-122.75132,50.3582],[-122.75758,50.3582],[-122.76383,50.3582],[-122.76383,50.36236],[-122.76383,50.36653],[-122.77008,50.36653],[-122.77008,50.3707],[-122.77633,50.3707],[-122.77633,50.37486],[-122.78258,50.37486],[-122.78258,50.37903],[-122.78883,50.37903],[-122.79508,50.37903],[-122.79508,50.38319],[-122.80134,50.38319],[-122.80134,50.38736],[-122.80759,50.38736],[-122.80759,50.39153],[-122.80759,50.39569],[-122.80759,50.39986],[-122.80759,50.40403],[-122.80759,50.40819]],[[-122.76383,50.37903],[-122.75758,50.37903],[-122.75758,50.3832],[-122.76383,50.3832],[-122.76383,50.37903]],[[-122.80134,50.39986],[-122.79509,50.39986],[-122.78884,50.39986],[-122.78884,50.40403],[-122.79509,50.40403],[-122.80134,50.40403],[-122.80134,50.39986]]]]}},{"type":"Feature","properties":{"c":"1134975","o":"BEYOND MINERALS INC.","e":"2027-07-07Z"},"geometry":{"type":"Polygon","coordinates":[[[-122.87635,50.42902],[-122.8701,50.42902],[-122.8701,50.43319],[-122.86385,50.43319],[-122.86385,50.43736],[-122.8576,50.43736],[-122.85135,50.43736],[-122.8451,50.43736],[-122.83885,50.43736],[-122.8326,50.43736],[-122.82635,50.43736],[-122.8201,50.43736],[-122.81385,50.43736],[-122.81385,50.43319],[-122.8076,50.43319],[-122.80135,50.43319],[-122.80134,50.42903],[-122.79509,50.42903],[-122.79509,50.42486],[-122.78884,50.42486],[-122.78884,50.42069],[-122.78884,50.41653],[-122.78259,50.41653],[-122.78259,50.41236],[-122.78259,50.4082],[-122.78884,50.40819],[-122.79509,50.40819],[-122.80134,50.40819],[-122.80759,50.40819],[-122.80759,50.40403],[-122.80759,50.39986],[-122.80759,50.39569],[-122.80759,50.39153],[-122.81384,50.39153],[-122.81384,50.39569],[-122.82009,50.39569],[-122.82009,50.39986],[-122.82634,50.39986],[-122.82634,50.40403],[-122.83259,50.40403],[-122.83259,50.40819],[-122.83884,50.40819],[-122.8451,50.40819],[-122.8451,50.41236],[-122.85135,50.41236],[-122.8576,50.41236],[-122.86385,50.41236],[-122.8701,50.41236],[-122.87635,50.41236],[-122.87635,50.41652],[-122.87635,50.42069],[-122.87635,50.42486],[-122.87635,50.42902]]]}},{"type":"Feature","properties":{"c":"1137012","o":"BROHM LAKE CONTRACTING INC.","e":"2027-08-11Z"},"geometry":{"type":"Polygon","coordinates":[[[-122.98881,50.24151],[-122.98256,50.24152],[-122.97631,50.24152],[-122.97006,50.24152],[-122.96381,50.24152],[-122.95756,50.24152],[-122.95131,50.24152],[-122.94506,50.24152],[-122.94506,50.23735],[-122.94506,50.23318],[-122.95131,50.23318],[-122.95756,50.23318],[-122.96381,50.23318],[-122.97006,50.23318],[-122.97631,50.23318],[-122.98256,50.23318],[-122.98881,50.23318],[-122.98881,50.23735],[-122.98881,50.24151]]]}},{"type":"Feature","properties":{"c":"1134203","o":"0946940 BC LTD","e":"2027-06-10Z"},"geometry":{"type":"Polygon","coordinates":[[[-122.7076,50.47069],[-122.70759,50.46653],[-122.70134,50.46653],[-122.69509,50.46653],[-122.68884,50.46653],[-122.68259,50.46653],[-122.68259,50.46236],[-122.68259,50.4582],[-122.68259,50.45403],[-122.68884,50.45403],[-122.69509,50.45403],[-122.70134,50.45403],[-122.70759,50.45403],[-122.70759,50.4582],[-122.71384,50.45819],[-122.71384,50.46236],[-122.71385,50.46653],[-122.7201,50.46653],[-122.7201,50.47069],[-122.71385,50.47069],[-122.7076,50.47069]]]}},{"type":"Feature","properties":{"c":"1122802","o":"KOLEBABA, MARK ROBERT","e":"2028-01-14Z"},"geometry":{"type":"Polygon","coordinates":[[[-122.77011,50.50402],[-122.76386,50.50402],[-122.76386,50.50819],[-122.76386,50.51236],[-122.75761,50.51236],[-122.75136,50.51236],[-122.75136,50.50819],[-122.75136,50.50402],[-122.75761,50.50402],[-122.75761,50.49986],[-122.7576,50.49569],[-122.75135,50.49569],[-122.75135,50.49153],[-122.7576,50.49153],[-122.76385,50.49152],[-122.76386,50.49569],[-122.77011,50.49569],[-122.77011,50.49986],[-122.77011,50.50402]]]}}]}