{"type":"FeatureCollection","features":[{"type":"Feature","properties":{"c":"508640","o":"ABBOTT, STEVEN RICHARD","e":"2027-03-10Z"},"geometry":{"type":"Polygon","coordinates":[[[-122.72025,53.79578],[-122.72025,53.79162],[-122.7265,53.79162],[-122.73275,53.79162],[-122.73275,53.79578],[-122.7265,53.79578],[-122.72025,53.79578]]]}},{"type":"Feature","properties":{"c":"939077","o":"ABBOTT, STEVEN RICHARD","e":"2026-12-27Z"},"geometry":{"type":"Polygon","coordinates":[[[-122.73275,53.77912],[-122.7265,53.77912],[-122.7265,53.77495],[-122.7265,53.77078],[-122.73275,53.77078],[-122.73275,53.77495],[-122.73275,53.77912]]]}},{"type":"Feature","properties":{"c":"1033145","o":"ABBOTT, STEVEN RICHARD","e":"2027-05-27Z"},"geometry":{"type":"Polygon","coordinates":[[[-122.73275,53.79162],[-122.7265,53.79162],[-122.72025,53.79162],[-122.714,53.79162],[-122.714,53.78745],[-122.714,53.78328],[-122.72025,53.78328],[-122.7265,53.78328],[-122.73275,53.78328],[-122.73275,53.78745],[-122.73275,53.79162]]]}},{"type":"Feature","properties":{"c":"1033146","o":"ABBOTT, STEVEN RICHARD","e":"2027-01-05Z"},"geometry":{"type":"Polygon","coordinates":[[[-122.739,53.79578],[-122.73275,53.79578],[-122.73275,53.79162],[-122.73275,53.78745],[-122.73275,53.78328],[-122.739,53.78328],[-122.739,53.78745],[-122.739,53.79162],[-122.739,53.79578]]]}},{"type":"Feature","properties":{"c":"1037144","o":"ABBOTT, STEVEN RICHARD","e":"2027-07-06Z"},"geometry":{"type":"Polygon","coordinates":[[[-122.714,53.78328],[-122.70775,53.78328],[-122.70775,53.77912],[-122.714,53.77912],[-122.72025,53.77912],[-122.7265,53.77912],[-122.7265,53.78328],[-122.72025,53.78328],[-122.714,53.78328]]]}},{"type":"Feature","properties":{"c":"1068510","o":"ABBOTT, STEVEN RICHARD","e":"2027-05-27Z"},"geometry":{"type":"Polygon","coordinates":[[[-122.7265,53.78328],[-122.7265,53.77912],[-122.73275,53.77912],[-122.739,53.77912],[-122.739,53.78328],[-122.73275,53.78328],[-122.7265,53.78328]]]}},{"type":"Feature","properties":{"c":"568874","o":"PAWLUK, MARTIN DARRELL","e":"2029-05-15Z"},"geometry":{"type":"Polygon","coordinates":[[[-122.52649,53.89579],[-122.52024,53.89579],[-122.52024,53.89162],[-122.52024,53.88746],[-122.52649,53.88746],[-122.52649,53.89162],[-122.52649,53.89579]]]}},{"type":"Feature","properties":{"c":"1042427","o":"BARKERVILLE GOLD MINES LTD.","e":"2035-11-13Z"},"geometry":{"type":"Polygon","coordinates":[[[-122.60148,53.51661],[-122.59523,53.51661],[-122.58898,53.51661],[-122.58273,53.51662],[-122.57648,53.51662],[-122.57023,53.51662],[-122.56398,53.51662],[-122.55773,53.51662],[-122.55148,53.51662],[-122.54523,53.51662],[-122.54522,53.51245],[-122.54522,53.50828],[-122.54522,53.50412],[-122.55147,53.50412],[-122.55148,53.50828],[-122.55773,53.50828],[-122.55773,53.50412],[-122.55772,53.49995],[-122.55772,53.49578],[-122.55772,53.49162],[-122.55772,53.48745],[-122.55772,53.48328],[-122.55772,53.47911],[-122.55147,53.47911],[-122.55147,53.48328],[-122.54522,53.48328],[-122.54522,53.47912],[-122.54522,53.47495],[-122.54522,53.47078],[-122.53897,53.47078],[-122.53897,53.46662],[-122.53897,53.46245],[-122.53897,53.45828],[-122.54522,53.45828],[-122.54522,53.46245],[-122.55147,53.46245],[-122.55147,53.45828],[-122.55147,53.45411],[-122.55147,53.44995],[-122.55147,53.44578],[-122.55772,53.44578],[-122.55772,53.44995],[-122.55772,53.45411],[-122.56397,53.45411],[-122.56397,53.45828],[-122.57023,53.45828],[-122.57648,53.45828],[-122.57648,53.46245],[-122.57648,53.46661],[-122.57648,53.47078],[-122.58273,53.47078],[-122.58273,53.47495],[-122.58273,53.47911],[-122.58898,53.47911],[-122.58898,53.48328],[-122.58898,53.48745],[-122.59523,53.48745],[-122.59523,53.49161],[-122.59523,53.49578],[-122.60148,53.49578],[-122.60148,53.49995],[-122.60148,53.50411],[-122.60773,53.50411],[-122.60773,53.50828],[-122.60773,53.51245],[-122.61398,53.51245],[-122.61398,53.51661],[-122.60773,53.51661],[-122.60148,53.51661]]]}},{"type":"Feature","properties":{"c":"1042433","o":"BARKERVILLE GOLD MINES LTD.","e":"2035-11-13Z"},"geometry":{"type":"Polygon","coordinates":[[[-122.54522,53.50828],[-122.53897,53.50828],[-122.53272,53.50828],[-122.53272,53.50412],[-122.52647,53.50412],[-122.52647,53.49995],[-122.52022,53.49995],[-122.51397,53.49995],[-122.51397,53.49578],[-122.50772,53.49578],[-122.50772,53.49162],[-122.50147,53.49162],[-122.50147,53.48745],[-122.50772,53.48745],[-122.51397,53.48745],[-122.52022,53.48745],[-122.52647,53.48745],[-122.53272,53.48745],[-122.53897,53.48745],[-122.54522,53.48745],[-122.54522,53.49162],[-122.54522,53.49578],[-122.54522,53.49995],[-122.54522,53.50412],[-122.54522,53.50828]]]}},{"type":"Feature","properties":{"c":"1042436","o":"BARKERVILLE GOLD MINES LTD.","e":"2035-11-13Z"},"geometry":{"type":"Polygon","coordinates":[[[-122.63273,53.55411],[-122.62648,53.55411],[-122.62023,53.55411],[-122.62023,53.55828],[-122.61398,53.55828],[-122.61398,53.56245],[-122.60773,53.56245],[-122.60148,53.56245],[-122.60148,53.55828],[-122.59523,53.55828],[-122.59523,53.55412],[-122.58898,53.55412],[-122.58898,53.54995],[-122.58273,53.54995],[-122.58273,53.54578],[-122.57648,53.54578],[-122.57648,53.54162],[-122.57023,53.54162],[-122.57023,53.53745],[-122.56398,53.53745],[-122.56398,53.53328],[-122.55773,53.53328],[-122.55773,53.52912],[-122.55148,53.52912],[-122.55148,53.52495],[-122.54523,53.52495],[-122.54523,53.52078],[-122.55148,53.52078],[-122.55148,53.51662],[-122.55773,53.51662],[-122.56398,53.51662],[-122.57023,53.51662],[-122.57648,53.51662],[-122.58273,53.51662],[-122.58898,53.51661],[-122.59523,53.51661],[-122.60148,53.51661],[-122.60773,53.51661],[-122.61398,53.51661],[-122.61398,53.52078],[-122.62023,53.52078],[-122.62023,53.52495],[-122.62023,53.52911],[-122.62648,53.52911],[-122.62648,53.53328],[-122.62648,53.53745],[-122.63273,53.53745],[-122.63273,53.54161],[-122.63273,53.54578],[-122.63898,53.54578],[-122.63898,53.54995],[-122.63273,53.54995],[-122.63273,53.55411]]]}},{"type":"Feature","properties":{"c":"1016991","o":"PAWLUK, MARTIN DARRELL","e":"2028-08-30Z"},"geometry":{"type":"Polygon","coordinates":[[[-122.53899,53.89579],[-122.54524,53.89579],[-122.54524,53.89996],[-122.53899,53.89996],[-122.53899,53.89579]]]}},{"type":"Feature","properties":{"c":"1068920","o":"BARKERVILLE GOLD MINES LTD.","e":"2035-11-13Z"},"geometry":{"type":"Polygon","coordinates":[[[-122.53272,53.51662],[-122.52647,53.51662],[-122.52022,53.51662],[-122.52022,53.52078],[-122.51397,53.52078],[-122.51397,53.51662],[-122.50772,53.51662],[-122.50147,53.51662],[-122.49522,53.51662],[-122.49522,53.51245],[-122.48897,53.51245],[-122.48897,53.50829],[-122.48272,53.50829],[-122.47647,53.50829],[-122.47647,53.50412],[-122.47022,53.50412],[-122.47022,53.49995],[-122.46397,53.49995],[-122.46397,53.49579],[-122.45772,53.49579],[-122.45772,53.49162],[-122.45147,53.49162],[-122.45147,53.48745],[-122.44522,53.48745],[-122.43897,53.48745],[-122.43897,53.48329],[-122.43272,53.48329],[-122.43272,53.47912],[-122.42647,53.47912],[-122.42647,53.47495],[-122.42022,53.47495],[-122.42022,53.47079],[-122.41397,53.47079],[-122.41397,53.46662],[-122.42022,53.46662],[-122.42647,53.46662],[-122.43272,53.46662],[-122.43897,53.46662],[-122.43897,53.46245],[-122.44522,53.46245],[-122.45147,53.46245],[-122.45147,53.46662],[-122.45772,53.46662],[-122.46397,53.46662],[-122.47022,53.46662],[-122.47022,53.47078],[-122.47022,53.47495],[-122.47647,53.47495],[-122.47647,53.47912],[-122.48272,53.47912],[-122.48272,53.48328],[-122.48897,53.48328],[-122.49522,53.48328],[-122.49522,53.48745],[-122.50147,53.48745],[-122.50147,53.49162],[-122.50772,53.49162],[-122.50772,53.49578],[-122.51397,53.49578],[-122.51397,53.49995],[-122.52022,53.49995],[-122.52647,53.49995],[-122.52647,53.50412],[-122.53272,53.50412],[-122.53272,53.50828],[-122.53272,53.51245],[-122.53272,53.51662]]]}},{"type":"Feature","properties":{"c":"1069985","o":"HALL, BRIAN JOHN","e":"2030-11-30Z"},"geometry":{"type":"Polygon","coordinates":[[[-122.57649,53.88329],[-122.58274,53.88329],[-122.58274,53.88746],[-122.57649,53.88746],[-122.57649,53.88329]]]}},{"type":"Feature","properties":{"c":"1069986","o":"HALL, BRIAN JOHN","e":"2030-11-30Z"},"geometry":{"type":"Polygon","coordinates":[[[-122.57024,53.87912],[-122.57649,53.87912],[-122.57649,53.88329],[-122.57024,53.88329],[-122.57024,53.87912]]]}},{"type":"Feature","properties":{"c":"1069987","o":"HALL, BRIAN JOHN","e":"2030-11-30Z"},"geometry":{"type":"Polygon","coordinates":[[[-122.57024,53.88329],[-122.57649,53.88329],[-122.57649,53.88746],[-122.57024,53.88746],[-122.57024,53.88329]]]}},{"type":"Feature","properties":{"c":"1060480","o":"ABBOTT, STEVEN RICHARD","e":"2027-05-07Z"},"geometry":{"type":"Polygon","coordinates":[[[-122.70775,53.78328],[-122.714,53.78328],[-122.714,53.78745],[-122.70775,53.78745],[-122.70775,53.78328]]]}},{"type":"Feature","properties":{"c":"1037623","o":"SIMS, WILLARD NEIL","e":"2027-07-02Z"},"geometry":{"type":"Polygon","coordinates":[[[-122.51399,53.89162],[-122.50774,53.89162],[-122.50774,53.88746],[-122.50774,53.88329],[-122.50149,53.88329],[-122.50149,53.87912],[-122.50774,53.87912],[-122.51399,53.87912],[-122.51399,53.88329],[-122.52024,53.88329],[-122.52024,53.88746],[-122.51399,53.88746],[-122.51399,53.89162]]]}},{"type":"Feature","properties":{"c":"1049870","o":"PERREAULT, RAY G","e":"2029-09-23Z"},"geometry":{"type":"Polygon","coordinates":[[[-122.49524,53.88746],[-122.49524,53.88329],[-122.50149,53.88329],[-122.50774,53.88329],[-122.50774,53.88746],[-122.50149,53.88746],[-122.49524,53.88746]]]}},{"type":"Feature","properties":{"c":"1061983","o":"BLANEY, DARREN RAY","e":"2026-11-15Z"},"geometry":{"type":"Polygon","coordinates":[[[-123.00149,53.50827],[-122.99524,53.50827],[-122.98899,53.50827],[-122.98274,53.50827],[-122.97649,53.50827],[-122.97649,53.5041],[-122.97649,53.49993],[-122.97649,53.49577],[-122.98274,53.49577],[-122.98899,53.49577],[-122.99524,53.49577],[-123.00149,53.49577],[-123.00149,53.49993],[-123.00149,53.5041],[-123.00149,53.50827]]]}},{"type":"Feature","properties":{"c":"1061984","o":"BLANEY, DARREN RAY","e":"2026-11-15Z"},"geometry":{"type":"Polygon","coordinates":[[[-122.98899,53.51243],[-122.98274,53.51243],[-122.97649,53.51243],[-122.97649,53.50827],[-122.98274,53.50827],[-122.98899,53.50827],[-122.99524,53.50827],[-123.00149,53.50827],[-123.00149,53.51243],[-122.99524,53.51243],[-122.98899,53.51243]]]}},{"type":"Feature","properties":{"c":"928930","o":"MARSHALL, OWEN","e":"2029-03-10Z"},"geometry":{"type":"Polygon","coordinates":[[[-122.55773,53.50412],[-122.55147,53.50412],[-122.55147,53.49995],[-122.55147,53.49578],[-122.55147,53.49162],[-122.55147,53.48745],[-122.55147,53.48328],[-122.55772,53.48328],[-122.55772,53.48745],[-122.55772,53.49162],[-122.55772,53.49578],[-122.55772,53.49995],[-122.55773,53.50412]]]}},{"type":"Feature","properties":{"c":"962909","o":"MARSHALL, OWEN","e":"2029-03-10Z"},"geometry":{"type":"Polygon","coordinates":[[[-122.55147,53.50412],[-122.55773,53.50412],[-122.55773,53.50828],[-122.55148,53.50828],[-122.55147,53.50412]]]}},{"type":"Feature","properties":{"c":"1012697","o":"MARSHALL, OWEN","e":"2029-03-10Z"},"geometry":{"type":"Polygon","coordinates":[[[-122.54522,53.50412],[-122.55147,53.50412],[-122.55148,53.50828],[-122.54522,53.50828],[-122.54522,53.50412]]]}},{"type":"Feature","properties":{"c":"1017058","o":"MARSHALL, OWEN","e":"2029-03-10Z"},"geometry":{"type":"Polygon","coordinates":[[[-122.54522,53.49995],[-122.55147,53.49995],[-122.55147,53.50412],[-122.54522,53.50412],[-122.54522,53.49995]]]}},{"type":"Feature","properties":{"c":"1065368","o":"MARSHALL, OWEN","e":"2030-03-31Z"},"geometry":{"type":"Polygon","coordinates":[[[-122.53897,53.51245],[-122.53897,53.50828],[-122.54522,53.50828],[-122.55148,53.50828],[-122.55148,53.51245],[-122.54522,53.51245],[-122.53897,53.51245]]]}},{"type":"Feature","properties":{"c":"1081511","o":"HALL, BRIAN JOHN","e":"2030-11-30Z"},"geometry":{"type":"Polygon","coordinates":[[[-122.58274,53.87912],[-122.58899,53.87912],[-122.58899,53.88329],[-122.58274,53.88329],[-122.58274,53.87912]]]}},{"type":"Feature","properties":{"c":"1093673","o":"REYNOLDS, PAUL STUART","e":"2027-05-12Z"},"geometry":{"type":"Polygon","coordinates":[[[-122.55773,53.61662],[-122.55148,53.61662],[-122.54523,53.61662],[-122.54523,53.61245],[-122.54523,53.60829],[-122.55148,53.60829],[-122.55773,53.60829],[-122.55773,53.61245],[-122.55773,53.61662]]]}},{"type":"Feature","properties":{"c":"1093784","o":"DEVINE, JEFFREY WILLIAM","e":"2030-03-13Z"},"geometry":{"type":"Polygon","coordinates":[[[-122.72025,53.81662],[-122.7265,53.81662],[-122.7265,53.82079],[-122.72025,53.82079],[-122.72025,53.81662]]]}},{"type":"Feature","properties":{"c":"1093785","o":"DEVINE, JEFFREY WILLIAM","e":"2028-06-11Z"},"geometry":{"type":"Polygon","coordinates":[[[-122.74525,53.88745],[-122.7515,53.88745],[-122.7515,53.89162],[-122.74525,53.89162],[-122.74525,53.88745]]]}},{"type":"Feature","properties":{"c":"1133498","o":"BLANEY, DARREN RAY","e":"2027-05-29Z"},"geometry":{"type":"Polygon","coordinates":[[[-122.99524,53.52077],[-122.98899,53.52077],[-122.98899,53.5166],[-122.98274,53.5166],[-122.97649,53.5166],[-122.97649,53.51243],[-122.98274,53.51243],[-122.98899,53.51243],[-122.99524,53.51243],[-122.99524,53.5166],[-122.99524,53.52077]]]}},{"type":"Feature","properties":{"c":"1069984","o":"CARPENTER, ROBERT REX","e":"2030-11-30Z"},"geometry":{"type":"Polygon","coordinates":[[[-122.57649,53.87912],[-122.58274,53.87912],[-122.58274,53.88329],[-122.57649,53.88329],[-122.57649,53.87912]]]}},{"type":"Feature","properties":{"c":"1091681","o":"BARKERVILLE GOLD MINES LTD.","e":"2035-11-13Z"},"geometry":{"type":"Polygon","coordinates":[[[-122.55773,53.50828],[-122.55148,53.50828],[-122.55147,53.50412],[-122.54522,53.50412],[-122.54522,53.49995],[-122.54522,53.49578],[-122.54522,53.49162],[-122.54522,53.48745],[-122.54522,53.48328],[-122.55147,53.48328],[-122.55147,53.47911],[-122.55772,53.47911],[-122.55772,53.48328],[-122.55772,53.48745],[-122.55772,53.49162],[-122.55772,53.49578],[-122.55772,53.49995],[-122.55773,53.50412],[-122.55773,53.50828]]]}},{"type":"Feature","properties":{"c":"1046995","o":"PAWLUK, MARTIN DARRELL","e":"2028-07-25Z"},"geometry":{"type":"Polygon","coordinates":[[[-122.52649,53.89162],[-122.53274,53.89162],[-122.53274,53.89579],[-122.52649,53.89579],[-122.52649,53.89162]]]}},{"type":"Feature","properties":{"c":"1103762","o":"DEVINE, JEFFREY WILLIAM","e":"2029-05-14Z"},"geometry":{"type":"Polygon","coordinates":[[[-122.7265,53.81662],[-122.73275,53.81662],[-122.73275,53.82079],[-122.7265,53.82079],[-122.7265,53.81662]]]}},{"type":"Feature","properties":{"c":"1111648","o":"SADOWICK, MERVIN STEVE","e":"2028-02-07Z"},"geometry":{"type":"Polygon","coordinates":[[[-122.55149,53.90412],[-122.54524,53.90412],[-122.54524,53.90829],[-122.53899,53.90829],[-122.53899,53.90412],[-122.53899,53.89996],[-122.54524,53.89996],[-122.54524,53.89579],[-122.53899,53.89579],[-122.53899,53.89162],[-122.54524,53.89162],[-122.55149,53.89162],[-122.55149,53.89579],[-122.55149,53.89996],[-122.55149,53.90412]]]}},{"type":"Feature","properties":{"c":"1106403","o":"HALL, BRIAN JOHN","e":"2026-11-01Z"},"geometry":{"type":"Polygon","coordinates":[[[-122.57649,53.88746],[-122.57024,53.88746],[-122.56399,53.88746],[-122.56399,53.88329],[-122.56399,53.87912],[-122.57024,53.87912],[-122.57649,53.87912],[-122.57649,53.88329],[-122.57649,53.88746]]]}},{"type":"Feature","properties":{"c":"1106404","o":"HALL, BRIAN JOHN","e":"2026-11-01Z"},"geometry":{"type":"Polygon","coordinates":[[[-122.57649,53.88329],[-122.58274,53.88329],[-122.58274,53.88746],[-122.57649,53.88746],[-122.57649,53.88329]]]}},{"type":"Feature","properties":{"c":"1106405","o":"HALL, BRIAN JOHN","e":"2026-11-01Z"},"geometry":{"type":"Polygon","coordinates":[[[-122.57024,53.87496],[-122.57649,53.87496],[-122.57649,53.87912],[-122.57024,53.87912],[-122.57024,53.87496]]]}},{"type":"Feature","properties":{"c":"1106406","o":"HALL, BRIAN JOHN","e":"2026-11-01Z"},"geometry":{"type":"Polygon","coordinates":[[[-122.56399,53.87496],[-122.57024,53.87496],[-122.57024,53.87912],[-122.56399,53.87912],[-122.56399,53.87496]]]}},{"type":"Feature","properties":{"c":"1106407","o":"HALL, BRIAN JOHN","e":"2026-11-01Z"},"geometry":{"type":"Polygon","coordinates":[[[-122.57649,53.87496],[-122.58274,53.87496],[-122.58274,53.87912],[-122.57649,53.87912],[-122.57649,53.87496]]]}},{"type":"Feature","properties":{"c":"1108299","o":"SCHENKEL, PAUL","e":"2026-11-21Z"},"geometry":{"type":"Polygon","coordinates":[[[-122.7015,53.69162],[-122.70775,53.69162],[-122.70775,53.69578],[-122.7015,53.69578],[-122.7015,53.69162]]]}},{"type":"Feature","properties":{"c":"1105811","o":"HIGGINS, CHRISTOPHER NEIL","e":"2027-10-10Z"},"geometry":{"type":"Polygon","coordinates":[[[-122.90776,53.97495],[-122.91401,53.97495],[-122.91401,53.97912],[-122.90776,53.97912],[-122.90776,53.97495]]]}},{"type":"Feature","properties":{"c":"955709","o":"1559791 BC LTD","e":"2027-03-06Z"},"geometry":{"type":"Polygon","coordinates":[[[-122.67649,53.64578],[-122.67024,53.64578],[-122.66399,53.64578],[-122.66399,53.64162],[-122.66399,53.63745],[-122.67024,53.63745],[-122.67649,53.63745],[-122.67649,53.64162],[-122.67649,53.64578]]]}},{"type":"Feature","properties":{"c":"1022276","o":"1559791 BC LTD","e":"2027-09-12Z"},"geometry":{"type":"Polygon","coordinates":[[[-122.7015,53.66662],[-122.69525,53.66662],[-122.69524,53.66245],[-122.69524,53.65828],[-122.68899,53.65828],[-122.68899,53.65412],[-122.68274,53.65412],[-122.68274,53.64995],[-122.67649,53.64995],[-122.67649,53.64578],[-122.67649,53.64162],[-122.67649,53.63745],[-122.67649,53.63328],[-122.68274,53.63328],[-122.68899,53.63328],[-122.68899,53.63745],[-122.68899,53.64161],[-122.68899,53.64578],[-122.68899,53.64995],[-122.69524,53.64995],[-122.69524,53.65412],[-122.70149,53.65411],[-122.70149,53.65828],[-122.70149,53.66245],[-122.7015,53.66662]]]}},{"type":"Feature","properties":{"c":"1026463","o":"1559791 BC LTD","e":"2027-03-03Z"},"geometry":{"type":"Polygon","coordinates":[[[-122.69524,53.64995],[-122.68899,53.64995],[-122.68899,53.64578],[-122.68899,53.64161],[-122.69524,53.64161],[-122.69524,53.64578],[-122.69524,53.64995]]]}},{"type":"Feature","properties":{"c":"1133707","o":"SCHRUM, DUSTIN FREDRICK","e":"2027-06-03Z"},"geometry":{"type":"Polygon","coordinates":[[[-122.7265,53.80412],[-122.73275,53.80412],[-122.73275,53.80828],[-122.7265,53.80828],[-122.7265,53.80412]]]}},{"type":"Feature","properties":{"c":"1133708","o":"TURCOTTE, DYLAN","e":"2027-06-03Z"},"geometry":{"type":"Polygon","coordinates":[[[-122.70775,53.80412],[-122.714,53.80412],[-122.714,53.80829],[-122.70775,53.80829],[-122.70775,53.80412]]]}},{"type":"Feature","properties":{"c":"1133717","o":"ST PIERRE, BRANDON","e":"2027-06-03Z"},"geometry":{"type":"Polygon","coordinates":[[[-122.74525,53.86662],[-122.7515,53.86662],[-122.7515,53.87079],[-122.74525,53.87079],[-122.74525,53.86662]]]}},{"type":"Feature","properties":{"c":"1133718","o":"JESSEN, AUSTIN LORENZ","e":"2027-06-03Z"},"geometry":{"type":"Polygon","coordinates":[[[-122.714,53.80412],[-122.72025,53.80412],[-122.72025,53.80829],[-122.714,53.80829],[-122.714,53.80412]]]}},{"type":"Feature","properties":{"c":"1133741","o":"MOLNAR, ANDREW WILLIAM","e":"2027-06-03Z"},"geometry":{"type":"Polygon","coordinates":[[[-122.53274,53.91246],[-122.52649,53.91246],[-122.52024,53.91246],[-122.51399,53.91246],[-122.50774,53.91246],[-122.50149,53.91246],[-122.49524,53.91246],[-122.48899,53.91246],[-122.48899,53.90829],[-122.48899,53.90413],[-122.48899,53.89996],[-122.48899,53.89579],[-122.48899,53.89162],[-122.48899,53.88746],[-122.49524,53.88746],[-122.50149,53.88746],[-122.50774,53.88746],[-122.51399,53.88746],[-122.52024,53.88746],[-122.52649,53.88746],[-122.53274,53.88746],[-122.53274,53.89162],[-122.53274,53.89579],[-122.53274,53.89996],[-122.53274,53.90412],[-122.53274,53.90829],[-122.53274,53.91246]]]}},{"type":"Feature","properties":{"c":"1133742","o":"MOLNAR, ANDREW WILLIAM","e":"2027-06-03Z"},"geometry":{"type":"Polygon","coordinates":[[[-122.53274,53.88746],[-122.52649,53.88746],[-122.52024,53.88746],[-122.51399,53.88746],[-122.50774,53.88746],[-122.50149,53.88746],[-122.49524,53.88746],[-122.48899,53.88746],[-122.48899,53.88329],[-122.48899,53.87912],[-122.48899,53.87496],[-122.48899,53.87079],[-122.48899,53.86662],[-122.48899,53.86246],[-122.49524,53.86246],[-122.50149,53.86246],[-122.50774,53.86246],[-122.51399,53.86246],[-122.52024,53.86246],[-122.52649,53.86246],[-122.53274,53.86246],[-122.53274,53.86662],[-122.53274,53.87079],[-122.53274,53.87496],[-122.53274,53.87912],[-122.53274,53.88329],[-122.53274,53.88746]]]}},{"type":"Feature","properties":{"c":"1132800","o":"PAOLUCCI, JOHN","e":"2027-05-05Z"},"geometry":{"type":"Polygon","coordinates":[[[-122.83901,53.96245],[-122.83901,53.95829],[-122.83276,53.95829],[-122.83276,53.95412],[-122.82651,53.95412],[-122.82651,53.95829],[-122.82651,53.96245],[-122.82026,53.96245],[-122.81401,53.96245],[-122.81401,53.95829],[-122.81401,53.95412],[-122.81401,53.94995],[-122.81401,53.94579],[-122.82026,53.94579],[-122.82026,53.94162],[-122.82651,53.94162],[-122.82651,53.94579],[-122.83276,53.94579],[-122.83276,53.94995],[-122.83901,53.94995],[-122.83901,53.95412],[-122.84526,53.95412],[-122.84526,53.95829],[-122.85151,53.95829],[-122.85151,53.96245],[-122.84526,53.96245],[-122.83901,53.96245]]]}},{"type":"Feature","properties":{"c":"1132801","o":"PAOLUCCI, JOHN","e":"2027-05-05Z"},"geometry":{"type":"Polygon","coordinates":[[[-122.85151,53.95829],[-122.85776,53.95829],[-122.85776,53.96245],[-122.85151,53.96245],[-122.85151,53.95829]]]}},{"type":"Feature","properties":{"c":"1137459","o":"JOHNSON, BRANDON RUSSELL","e":"2027-08-22Z"},"geometry":{"type":"Polygon","coordinates":[[[-122.70775,53.69578],[-122.714,53.69578],[-122.714,53.69995],[-122.70775,53.69995],[-122.70775,53.69578]]]}},{"type":"Feature","properties":{"c":"1139166","o":"THEBERGE, JONATHAN DAVID","e":"2027-09-18Z"},"geometry":{"type":"Polygon","coordinates":[[[-122.71398,53.53327],[-122.70773,53.53327],[-122.70773,53.52911],[-122.70773,53.52494],[-122.71398,53.52494],[-122.71398,53.52911],[-122.71398,53.53327]]]}},{"type":"Feature","properties":{"c":"1139167","o":"THEBERGE, JONATHAN DAVID","e":"2027-09-18Z"},"geometry":{"type":"Polygon","coordinates":[[[-122.68899,53.59578],[-122.68899,53.59161],[-122.69524,53.59161],[-122.70149,53.59161],[-122.70149,53.59578],[-122.69524,53.59578],[-122.68899,53.59578]]]}},{"type":"Feature","properties":{"c":"1139172","o":"PARSONS, SCOTT EDWARD","e":"2027-09-18Z"},"geometry":{"type":"Polygon","coordinates":[[[-122.69524,53.60411],[-122.68899,53.60411],[-122.68899,53.59995],[-122.68899,53.59578],[-122.69524,53.59578],[-122.70149,53.59578],[-122.70149,53.59995],[-122.69524,53.59995],[-122.69524,53.60411]]]}},{"type":"Feature","properties":{"c":"1126040","o":"ABBOTT, STEVEN RICHARD","e":"2027-09-18Z"},"geometry":{"type":"Polygon","coordinates":[[[-122.77025,53.79578],[-122.764,53.79578],[-122.75775,53.79578],[-122.7515,53.79578],[-122.74525,53.79578],[-122.739,53.79578],[-122.739,53.79162],[-122.739,53.78745],[-122.739,53.78328],[-122.739,53.77912],[-122.73275,53.77912],[-122.73275,53.77495],[-122.739,53.77495],[-122.74525,53.77495],[-122.7515,53.77495],[-122.75775,53.77495],[-122.764,53.77495],[-122.77025,53.77495],[-122.77025,53.77912],[-122.77025,53.78328],[-122.77025,53.78745],[-122.77025,53.79162],[-122.77025,53.79578]]]}},{"type":"Feature","properties":{"c":"1139223","o":"WEBERG, MICHAEL JAMES","e":"2027-09-18Z"},"geometry":{"type":"Polygon","coordinates":[[[-122.764,53.87912],[-122.75775,53.87912],[-122.75775,53.87495],[-122.75775,53.87079],[-122.764,53.87079],[-122.764,53.87495],[-122.764,53.87912]]]}},{"type":"Feature","properties":{"c":"1116693","o":"JAGO, CHRISTOPHER PAUL","e":"2028-04-18Z"},"geometry":{"type":"Polygon","coordinates":[[[-122.78274,53.55411],[-122.77649,53.55411],[-122.77024,53.55411],[-122.76399,53.55411],[-122.76399,53.55827],[-122.76399,53.56244],[-122.75774,53.56244],[-122.75149,53.56244],[-122.74524,53.56244],[-122.73899,53.56244],[-122.73274,53.56244],[-122.72649,53.56244],[-122.72649,53.55828],[-122.72649,53.55411],[-122.72649,53.54994],[-122.73274,53.54994],[-122.73274,53.54577],[-122.73899,53.54577],[-122.74524,53.54577],[-122.75149,53.54577],[-122.75149,53.54161],[-122.75774,53.54161],[-122.76399,53.54161],[-122.77024,53.54161],[-122.77649,53.5416],[-122.78274,53.5416],[-122.78274,53.54577],[-122.78274,53.54994],[-122.78274,53.55411]]]}},{"type":"Feature","properties":{"c":"1113412","o":"BLANEY, DARREN RAY","e":"2026-11-15Z"},"geometry":{"type":"Polygon","coordinates":[[[-123.00149,53.52077],[-122.99524,53.52077],[-122.99524,53.5166],[-122.99524,53.51243],[-123.00149,53.51243],[-123.00149,53.5166],[-123.00149,53.52077]]]}},{"type":"Feature","properties":{"c":"1113438","o":"BLANEY, DARREN RAY","e":"2026-11-15Z"},"geometry":{"type":"Polygon","coordinates":[[[-123.0015,53.5291],[-122.99524,53.5291],[-122.99524,53.52493],[-122.99524,53.52077],[-123.00149,53.52077],[-123.00149,53.52493],[-123.0015,53.5291]]]}},{"type":"Feature","properties":{"c":"1115864","o":"GOLDEN CARIBOO RESOURCES LTD.","e":"2027-04-15Z"},"geometry":{"type":"Polygon","coordinates":[[[-122.54523,53.61662],[-122.53898,53.61662],[-122.53273,53.61662],[-122.53273,53.62079],[-122.52648,53.62079],[-122.52648,53.62495],[-122.52023,53.62495],[-122.51398,53.62495],[-122.50773,53.62495],[-122.50148,53.62495],[-122.50148,53.62912],[-122.49523,53.62912],[-122.49523,53.62495],[-122.49523,53.62079],[-122.49523,53.61662],[-122.50148,53.61662],[-122.50148,53.61245],[-122.50773,53.61245],[-122.50773,53.60829],[-122.51398,53.60829],[-122.51398,53.60412],[-122.52023,53.60412],[-122.52648,53.60412],[-122.52648,53.59995],[-122.53273,53.59995],[-122.53273,53.59579],[-122.53898,53.59579],[-122.54523,53.59579],[-122.54523,53.59995],[-122.54523,53.60412],[-122.54523,53.60829],[-122.54523,53.61245],[-122.54523,53.61662]]]}},{"type":"Feature","properties":{"c":"1115865","o":"GOLDEN CARIBOO RESOURCES LTD.","e":"2027-04-15Z"},"geometry":{"type":"Polygon","coordinates":[[[-122.58274,53.65828],[-122.57649,53.65828],[-122.57024,53.65829],[-122.56399,53.65829],[-122.56399,53.66245],[-122.55774,53.66245],[-122.55149,53.66245],[-122.55149,53.66662],[-122.54524,53.66662],[-122.53898,53.66662],[-122.53273,53.66662],[-122.52648,53.66662],[-122.52023,53.66662],[-122.52023,53.67079],[-122.51398,53.67079],[-122.50773,53.67079],[-122.50148,53.67079],[-122.50148,53.66662],[-122.50148,53.66245],[-122.50148,53.65829],[-122.50773,53.65829],[-122.51398,53.65829],[-122.52023,53.65829],[-122.52023,53.65412],[-122.52648,53.65412],[-122.53273,53.65412],[-122.53898,53.65412],[-122.54523,53.65412],[-122.55148,53.65412],[-122.55148,53.64995],[-122.55774,53.64995],[-122.56399,53.64995],[-122.57024,53.64995],[-122.57024,53.64579],[-122.57649,53.64578],[-122.58274,53.64578],[-122.58274,53.64995],[-122.58274,53.65412],[-122.58274,53.65828]]]}},{"type":"Feature","properties":{"c":"1115866","o":"GOLDEN CARIBOO RESOURCES LTD.","e":"2027-04-15Z"},"geometry":{"type":"Polygon","coordinates":[[[-122.50148,53.67495],[-122.49523,53.67496],[-122.48898,53.67496],[-122.48898,53.67912],[-122.48273,53.67912],[-122.47648,53.67912],[-122.47023,53.67912],[-122.47023,53.68329],[-122.46398,53.68329],[-122.45773,53.68329],[-122.45773,53.67912],[-122.45773,53.67496],[-122.45773,53.67079],[-122.45773,53.66662],[-122.45773,53.66246],[-122.46398,53.66246],[-122.47023,53.66246],[-122.47648,53.66246],[-122.48273,53.66246],[-122.48898,53.66246],[-122.49523,53.66246],[-122.50148,53.66245],[-122.50148,53.66662],[-122.50148,53.67079],[-122.50148,53.67495]]]}},{"type":"Feature","properties":{"c":"1115870","o":"GOLDEN CARIBOO RESOURCES LTD.","e":"2027-04-15Z"},"geometry":{"type":"Polygon","coordinates":[[[-122.50773,53.65829],[-122.50148,53.65829],[-122.50148,53.66245],[-122.49523,53.66246],[-122.48898,53.66246],[-122.48273,53.66246],[-122.47648,53.66246],[-122.47023,53.66246],[-122.46398,53.66246],[-122.46398,53.65829],[-122.46398,53.65412],[-122.46398,53.64996],[-122.46398,53.64579],[-122.47023,53.64579],[-122.47648,53.64579],[-122.48273,53.64579],[-122.48898,53.64579],[-122.49523,53.64579],[-122.50148,53.64579],[-122.50148,53.64995],[-122.50148,53.65412],[-122.50773,53.65412],[-122.51398,53.65412],[-122.52023,53.65412],[-122.52023,53.65829],[-122.51398,53.65829],[-122.50773,53.65829]]]}},{"type":"Feature","properties":{"c":"1115871","o":"GOLDEN CARIBOO RESOURCES LTD.","e":"2027-04-15Z"},"geometry":{"type":"Polygon","coordinates":[[[-122.50148,53.64579],[-122.49523,53.64579],[-122.48898,53.64579],[-122.48273,53.64579],[-122.47648,53.64579],[-122.47023,53.64579],[-122.47023,53.64162],[-122.47023,53.63746],[-122.47023,53.63329],[-122.47648,53.63329],[-122.47648,53.62912],[-122.48273,53.62912],[-122.48273,53.62495],[-122.48898,53.62495],[-122.48898,53.62079],[-122.49523,53.62079],[-122.49523,53.62495],[-122.49523,53.62912],[-122.50148,53.62912],[-122.50148,53.63329],[-122.50148,53.63745],[-122.50148,53.64162],[-122.50148,53.64579]]]}},{"type":"Feature","properties":{"c":"1115872","o":"GOLDEN CARIBOO RESOURCES LTD.","e":"2027-04-15Z"},"geometry":{"type":"Polygon","coordinates":[[[-122.55148,53.65412],[-122.54523,53.65412],[-122.53898,53.65412],[-122.53273,53.65412],[-122.52648,53.65412],[-122.52023,53.65412],[-122.51398,53.65412],[-122.50773,53.65412],[-122.50148,53.65412],[-122.50148,53.64995],[-122.50148,53.64579],[-122.50148,53.64162],[-122.50148,53.63745],[-122.50773,53.63745],[-122.51398,53.63745],[-122.52023,53.63745],[-122.52648,53.63745],[-122.53273,53.63745],[-122.53898,53.63745],[-122.54523,53.63745],[-122.55148,53.63745],[-122.55148,53.64162],[-122.55148,53.64579],[-122.55148,53.64995],[-122.55148,53.65412]]]}},{"type":"Feature","properties":{"c":"1115873","o":"GOLDEN CARIBOO RESOURCES LTD.","e":"2027-04-15Z"},"geometry":{"type":"Polygon","coordinates":[[[-122.55148,53.63745],[-122.54523,53.63745],[-122.53898,53.63745],[-122.53273,53.63745],[-122.52648,53.63745],[-122.52023,53.63745],[-122.51398,53.63745],[-122.50773,53.63745],[-122.50148,53.63745],[-122.50148,53.63329],[-122.50148,53.62912],[-122.50148,53.62495],[-122.50773,53.62495],[-122.51398,53.62495],[-122.52023,53.62495],[-122.52648,53.62495],[-122.52648,53.62079],[-122.53273,53.62079],[-122.53273,53.61662],[-122.53898,53.61662],[-122.54523,53.61662],[-122.55148,53.61662],[-122.55148,53.62079],[-122.55148,53.62495],[-122.55148,53.62912],[-122.55148,53.63329],[-122.55148,53.63745]]]}},{"type":"Feature","properties":{"c":"1115876","o":"GOLDEN CARIBOO RESOURCES LTD.","e":"2027-04-15Z"},"geometry":{"type":"Polygon","coordinates":[[[-122.62649,53.62078],[-122.62024,53.62078],[-122.61399,53.62078],[-122.60774,53.62078],[-122.60149,53.62078],[-122.60149,53.61662],[-122.59524,53.61662],[-122.58898,53.61662],[-122.58273,53.61662],[-122.57648,53.61662],[-122.57648,53.61245],[-122.57648,53.60828],[-122.57648,53.60412],[-122.57648,53.59995],[-122.57648,53.59578],[-122.58273,53.59578],[-122.58898,53.59578],[-122.59523,53.59578],[-122.60148,53.59578],[-122.60773,53.59578],[-122.61398,53.59578],[-122.62023,53.59578],[-122.62648,53.59578],[-122.62649,53.59995],[-122.62649,53.60412],[-122.62649,53.60828],[-122.62649,53.61245],[-122.62649,53.61662],[-122.62649,53.62078]]]}},{"type":"Feature","properties":{"c":"1115877","o":"GOLDEN CARIBOO RESOURCES LTD.","e":"2027-04-15Z"},"geometry":{"type":"Polygon","coordinates":[[[-122.57648,53.61662],[-122.57023,53.61662],[-122.56398,53.61662],[-122.55773,53.61662],[-122.55773,53.61245],[-122.55773,53.60829],[-122.55148,53.60829],[-122.54523,53.60829],[-122.54523,53.60412],[-122.54523,53.59995],[-122.54523,53.59579],[-122.55148,53.59579],[-122.55773,53.59579],[-122.56398,53.59578],[-122.57023,53.59578],[-122.57648,53.59578],[-122.57648,53.59995],[-122.57648,53.60412],[-122.57648,53.60828],[-122.57648,53.61245],[-122.57648,53.61662]]]}},{"type":"Feature","properties":{"c":"1115878","o":"GOLDEN CARIBOO RESOURCES LTD.","e":"2027-04-15Z"},"geometry":{"type":"Polygon","coordinates":[[[-122.62649,53.63745],[-122.62024,53.63745],[-122.62024,53.64162],[-122.61399,53.64162],[-122.60774,53.64162],[-122.60149,53.64162],[-122.60149,53.64578],[-122.59524,53.64578],[-122.58899,53.64578],[-122.58274,53.64578],[-122.58274,53.64162],[-122.58274,53.63745],[-122.58274,53.63328],[-122.58899,53.63328],[-122.58899,53.62912],[-122.58899,53.62495],[-122.58899,53.62078],[-122.58898,53.61662],[-122.59524,53.61662],[-122.60149,53.61662],[-122.60149,53.62078],[-122.60774,53.62078],[-122.61399,53.62078],[-122.62024,53.62078],[-122.62649,53.62078],[-122.62649,53.62495],[-122.62649,53.62912],[-122.62649,53.63328],[-122.62649,53.63745]]]}},{"type":"Feature","properties":{"c":"1115879","o":"GOLDEN CARIBOO RESOURCES LTD.","e":"2027-04-15Z"},"geometry":{"type":"Polygon","coordinates":[[[-122.58899,53.63328],[-122.58274,53.63328],[-122.57649,53.63328],[-122.57024,53.63329],[-122.56398,53.63329],[-122.55773,53.63329],[-122.55148,53.63329],[-122.55148,53.62912],[-122.55148,53.62495],[-122.55148,53.62079],[-122.55148,53.61662],[-122.55773,53.61662],[-122.56398,53.61662],[-122.57023,53.61662],[-122.57648,53.61662],[-122.58273,53.61662],[-122.58898,53.61662],[-122.58899,53.62078],[-122.58899,53.62495],[-122.58899,53.62912],[-122.58899,53.63328]]]}},{"type":"Feature","properties":{"c":"1115880","o":"GOLDEN CARIBOO RESOURCES LTD.","e":"2027-04-15Z"},"geometry":{"type":"Polygon","coordinates":[[[-122.58274,53.64578],[-122.57649,53.64578],[-122.57024,53.64579],[-122.57024,53.64995],[-122.56399,53.64995],[-122.55774,53.64995],[-122.55148,53.64995],[-122.55148,53.64579],[-122.55148,53.64162],[-122.55148,53.63745],[-122.55148,53.63329],[-122.55773,53.63329],[-122.56398,53.63329],[-122.57024,53.63329],[-122.57649,53.63328],[-122.58274,53.63328],[-122.58274,53.63745],[-122.58274,53.64162],[-122.58274,53.64578]]]}},{"type":"Feature","properties":{"c":"1115881","o":"GOLDEN CARIBOO RESOURCES LTD.","e":"2027-04-15Z"},"geometry":{"type":"Polygon","coordinates":[[[-122.59523,53.57495],[-122.58898,53.57495],[-122.58273,53.57495],[-122.57648,53.57495],[-122.57023,53.57495],[-122.56398,53.57495],[-122.55773,53.57495],[-122.55773,53.57078],[-122.55773,53.56662],[-122.55773,53.56245],[-122.55773,53.55828],[-122.56398,53.55828],[-122.57023,53.55828],[-122.57648,53.55828],[-122.58273,53.55828],[-122.58898,53.55828],[-122.59523,53.55828],[-122.60148,53.55828],[-122.60148,53.56245],[-122.59523,53.56245],[-122.59523,53.56662],[-122.59523,53.57078],[-122.59523,53.57495]]]}},{"type":"Feature","properties":{"c":"1115882","o":"GOLDEN CARIBOO RESOURCES LTD.","e":"2027-04-15Z"},"geometry":{"type":"Polygon","coordinates":[[[-122.58273,53.55828],[-122.57648,53.55828],[-122.57023,53.55828],[-122.56398,53.55828],[-122.55773,53.55828],[-122.55773,53.55412],[-122.55773,53.54995],[-122.55773,53.54578],[-122.56398,53.54578],[-122.56398,53.54162],[-122.55773,53.54162],[-122.55773,53.53745],[-122.55148,53.53745],[-122.54523,53.53745],[-122.54523,53.53328],[-122.53898,53.53328],[-122.53898,53.52912],[-122.53898,53.52495],[-122.53898,53.52078],[-122.53897,53.51662],[-122.54523,53.51662],[-122.55148,53.51662],[-122.55148,53.52078],[-122.54523,53.52078],[-122.54523,53.52495],[-122.55148,53.52495],[-122.55148,53.52912],[-122.55773,53.52912],[-122.55773,53.53328],[-122.56398,53.53328],[-122.56398,53.53745],[-122.57023,53.53745],[-122.57023,53.54162],[-122.57648,53.54162],[-122.57648,53.54578],[-122.58273,53.54578],[-122.58273,53.54995],[-122.58898,53.54995],[-122.58898,53.55412],[-122.59523,53.55412],[-122.59523,53.55828],[-122.58898,53.55828],[-122.58273,53.55828]]]}},{"type":"Feature","properties":{"c":"1115883","o":"GOLDEN CARIBOO RESOURCES LTD.","e":"2027-04-15Z"},"geometry":{"type":"Polygon","coordinates":[[[-122.59523,53.58745],[-122.58898,53.58745],[-122.58273,53.58745],[-122.57648,53.58745],[-122.57648,53.58328],[-122.57648,53.57912],[-122.57648,53.57495],[-122.58273,53.57495],[-122.58898,53.57495],[-122.59523,53.57495],[-122.59523,53.57912],[-122.59523,53.58328],[-122.59523,53.58745]]]}},{"type":"Feature","properties":{"c":"1115885","o":"GOLDEN CARIBOO RESOURCES LTD.","e":"2027-04-15Z"},"geometry":{"type":"Polygon","coordinates":[[[-122.55773,53.57495],[-122.55148,53.57495],[-122.54523,53.57495],[-122.54523,53.57078],[-122.54523,53.56662],[-122.54523,53.56245],[-122.54523,53.55828],[-122.54523,53.55412],[-122.55148,53.55412],[-122.55773,53.55412],[-122.55773,53.55828],[-122.55773,53.56245],[-122.55773,53.56662],[-122.55773,53.57078],[-122.55773,53.57495]]]}},{"type":"Feature","properties":{"c":"1115886","o":"GOLDEN CARIBOO RESOURCES LTD.","e":"2027-04-15Z"},"geometry":{"type":"Polygon","coordinates":[[[-122.57648,53.59578],[-122.57023,53.59578],[-122.56398,53.59578],[-122.55773,53.59579],[-122.55148,53.59579],[-122.54523,53.59579],[-122.53898,53.59579],[-122.53898,53.59162],[-122.53898,53.58745],[-122.54523,53.58745],[-122.54523,53.58329],[-122.54523,53.57912],[-122.54523,53.57495],[-122.55148,53.57495],[-122.55773,53.57495],[-122.56398,53.57495],[-122.57023,53.57495],[-122.57648,53.57495],[-122.57648,53.57912],[-122.57648,53.58328],[-122.57648,53.58745],[-122.57648,53.59162],[-122.57648,53.59578]]]}},{"type":"Feature","properties":{"c":"1115887","o":"GOLDEN CARIBOO RESOURCES LTD.","e":"2027-04-15Z"},"geometry":{"type":"Polygon","coordinates":[[[-122.62648,53.59578],[-122.62023,53.59578],[-122.61398,53.59578],[-122.60773,53.59578],[-122.60148,53.59578],[-122.59523,53.59578],[-122.58898,53.59578],[-122.58273,53.59578],[-122.57648,53.59578],[-122.57648,53.59162],[-122.57648,53.58745],[-122.58273,53.58745],[-122.58898,53.58745],[-122.59523,53.58745],[-122.60148,53.58745],[-122.60773,53.58745],[-122.61398,53.58745],[-122.62023,53.58745],[-122.62648,53.58745],[-122.62648,53.59162],[-122.62648,53.59578]]]}},{"type":"Feature","properties":{"c":"1115888","o":"GOLDEN CARIBOO RESOURCES LTD.","e":"2027-04-15Z"},"geometry":{"type":"Polygon","coordinates":[[[-122.60773,53.58328],[-122.60148,53.58328],[-122.59523,53.58328],[-122.59523,53.57912],[-122.59523,53.57495],[-122.59523,53.57078],[-122.60148,53.57078],[-122.60773,53.57078],[-122.60773,53.57495],[-122.60773,53.57912],[-122.60773,53.58328]]]}},{"type":"Feature","properties":{"c":"1115889","o":"GOLDEN CARIBOO RESOURCES LTD.","e":"2027-04-15Z"},"geometry":{"type":"Polygon","coordinates":[[[-122.62023,53.58745],[-122.61398,53.58745],[-122.60773,53.58745],[-122.60148,53.58745],[-122.59523,53.58745],[-122.59523,53.58328],[-122.60148,53.58328],[-122.60773,53.58328],[-122.60773,53.57912],[-122.60773,53.57495],[-122.60773,53.57078],[-122.60148,53.57078],[-122.59523,53.57078],[-122.59523,53.56662],[-122.59523,53.56245],[-122.60148,53.56245],[-122.60773,53.56245],[-122.61398,53.56245],[-122.61398,53.55828],[-122.62023,53.55828],[-122.62023,53.56245],[-122.62023,53.56662],[-122.62023,53.57078],[-122.62023,53.57495],[-122.62023,53.57912],[-122.62023,53.58328],[-122.62023,53.58745]]]}},{"type":"Feature","properties":{"c":"1133557","o":"SCOTT, LISA ELIZABETH","e":"2027-05-29Z"},"geometry":{"type":"Polygon","coordinates":[[[-122.739,53.81245],[-122.73275,53.81245],[-122.73275,53.81662],[-122.7265,53.81662],[-122.7265,53.81245],[-122.7265,53.80828],[-122.73275,53.80828],[-122.73275,53.80412],[-122.739,53.80412],[-122.739,53.80828],[-122.739,53.81245]]]}},{"type":"Feature","properties":{"c":"1133558","o":"PARSONS, SCOTT EDWARD","e":"2027-05-29Z"},"geometry":{"type":"Polygon","coordinates":[[[-122.68899,53.60411],[-122.68274,53.60411],[-122.67649,53.60411],[-122.67024,53.60411],[-122.67024,53.59995],[-122.67024,53.59578],[-122.67649,53.59578],[-122.67649,53.59161],[-122.68274,53.59161],[-122.68899,53.59161],[-122.68899,53.59578],[-122.68899,53.59995],[-122.68899,53.60411]]]}},{"type":"Feature","properties":{"c":"1133578","o":"MALMGREN, PAIGE DANIELLE","e":"2027-05-29Z"},"geometry":{"type":"Polygon","coordinates":[[[-122.65149,53.62495],[-122.65774,53.62495],[-122.65774,53.62912],[-122.65149,53.62912],[-122.65149,53.62495]]]}},{"type":"Feature","properties":{"c":"1135492","o":"HOURIE, RAYMOND ALFRED","e":"2027-07-16Z"},"geometry":{"type":"Polygon","coordinates":[[[-122.7515,53.80828],[-122.74525,53.80828],[-122.739,53.80828],[-122.739,53.80412],[-122.74525,53.80412],[-122.74525,53.79995],[-122.7515,53.79995],[-122.7515,53.80412],[-122.7515,53.80828]]]}},{"type":"Feature","properties":{"c":"1135493","o":"HOURIE, RAYMOND ALFRED","e":"2027-07-16Z"},"geometry":{"type":"Polygon","coordinates":[[[-122.739,53.80828],[-122.74525,53.80828],[-122.74525,53.81245],[-122.739,53.81245],[-122.739,53.80828]]]}},{"type":"Feature","properties":{"c":"1135571","o":"SAARELA, MEGAN LEILA","e":"2027-07-16Z"},"geometry":{"type":"Polygon","coordinates":[[[-122.73275,53.81662],[-122.73275,53.81245],[-122.739,53.81245],[-122.74525,53.81245],[-122.74525,53.81662],[-122.739,53.81662],[-122.73275,53.81662]]]}},{"type":"Feature","properties":{"c":"1135594","o":"BREITKREUTZ, JEREMY","e":"2027-07-16Z"},"geometry":{"type":"Polygon","coordinates":[[[-122.789,53.92912],[-122.79525,53.92912],[-122.79525,53.93329],[-122.789,53.93329],[-122.789,53.92912]]]}},{"type":"Feature","properties":{"c":"1135613","o":"DEANE, COLTON","e":"2027-07-16Z"},"geometry":{"type":"Polygon","coordinates":[[[-122.90776,53.97912],[-122.91401,53.97912],[-122.91401,53.98329],[-122.90776,53.98329],[-122.90776,53.97912]]]}},{"type":"Feature","properties":{"c":"1132509","o":"LITKE, MARK ASHLEY","e":"2027-04-24Z"},"geometry":{"type":"Polygon","coordinates":[[[-122.71399,53.56244],[-122.71399,53.55828],[-122.72024,53.55828],[-122.72649,53.55828],[-122.72649,53.56244],[-122.72024,53.56244],[-122.71399,53.56244]]]}},{"type":"Feature","properties":{"c":"1132548","o":"LAYE-KEITSCH, MICHAEL RICHARD ALAN","e":"2027-04-24Z"},"geometry":{"type":"Polygon","coordinates":[[[-122.51399,53.89162],[-122.52024,53.89162],[-122.52024,53.89579],[-122.51399,53.89579],[-122.51399,53.89162]]]}},{"type":"Feature","properties":{"c":"1132549","o":"LAYE-KEITSCH, MICHAEL RICHARD ALAN","e":"2027-04-24Z"},"geometry":{"type":"Polygon","coordinates":[[[-122.50774,53.89162],[-122.51399,53.89162],[-122.51399,53.89579],[-122.50774,53.89579],[-122.50774,53.89162]]]}},{"type":"Feature","properties":{"c":"1106401","o":"HALL, BRIAN JOHN","e":"2026-11-01Z"},"geometry":{"type":"Polygon","coordinates":[[[-122.57649,53.87912],[-122.58274,53.87912],[-122.58274,53.88329],[-122.57649,53.88329],[-122.57649,53.87912]]]}},{"type":"Feature","properties":{"c":"1137269","o":"HOURIE, RAYMOND ALFRED","e":"2027-08-15Z"},"geometry":{"type":"Polygon","coordinates":[[[-122.7515,53.79995],[-122.75775,53.79995],[-122.75775,53.80412],[-122.7515,53.80412],[-122.7515,53.79995]]]}},{"type":"Feature","properties":{"c":"1139441","o":"MURRAY, COLE","e":"2027-09-21Z"},"geometry":{"type":"Polygon","coordinates":[[[-122.78275,53.92912],[-122.789,53.92912],[-122.789,53.93329],[-122.78275,53.93329],[-122.78275,53.92912]]]}},{"type":"Feature","properties":{"c":"1139488","o":"2 BUDS GOLD","e":"2027-09-23Z"},"geometry":{"type":"Polygon","coordinates":[[[-122.65149,53.63328],[-122.65149,53.62912],[-122.65774,53.62912],[-122.66399,53.62912],[-122.66399,53.63328],[-122.65774,53.63328],[-122.65149,53.63328]]]}},{"type":"Feature","properties":{"c":"1139493","o":"THEBERGE, JONATHAN DAVID","e":"2027-09-23Z"},"geometry":{"type":"Polygon","coordinates":[[[-122.69525,53.94579],[-122.689,53.94579],[-122.689,53.94162],[-122.689,53.93746],[-122.69525,53.93746],[-122.69525,53.94162],[-122.69525,53.94579]]]}},{"type":"Feature","properties":{"c":"1139494","o":"THEBERGE, JONATHAN DAVID","e":"2027-09-23Z"},"geometry":{"type":"Polygon","coordinates":[[[-122.6765,53.92912],[-122.68275,53.92912],[-122.68275,53.93329],[-122.6765,53.93329],[-122.6765,53.92912]]]}},{"type":"Feature","properties":{"c":"1139495","o":"THEBERGE, JONATHAN DAVID","e":"2027-09-23Z"},"geometry":{"type":"Polygon","coordinates":[[[-122.7015,53.95829],[-122.70775,53.95829],[-122.70775,53.96246],[-122.7015,53.96246],[-122.7015,53.95829]]]}},{"type":"Feature","properties":{"c":"1139496","o":"THEBERGE, JONATHAN DAVID","e":"2027-09-23Z"},"geometry":{"type":"Polygon","coordinates":[[[-122.64525,53.96662],[-122.6515,53.96662],[-122.6515,53.97079],[-122.64525,53.97079],[-122.64525,53.96662]]]}},{"type":"Feature","properties":{"c":"1134967","o":"SHAFIEISARVESTANI, ALIMOHAMMAD","e":"2027-07-07Z"},"geometry":{"type":"Polygon","coordinates":[[[-122.74524,53.54577],[-122.73899,53.54577],[-122.73274,53.54577],[-122.73274,53.54161],[-122.73274,53.53744],[-122.73899,53.53744],[-122.74524,53.53744],[-122.75149,53.53744],[-122.75149,53.54161],[-122.74524,53.54161],[-122.74524,53.54577]]]}},{"type":"Feature","properties":{"c":"1134968","o":"SHAFIEISARVESTANI, ALIMOHAMMAD","e":"2027-07-07Z"},"geometry":{"type":"Polygon","coordinates":[[[-122.74524,53.54161],[-122.75149,53.54161],[-122.75149,53.54577],[-122.74524,53.54577],[-122.74524,53.54161]]]}},{"type":"Feature","properties":{"c":"1134971","o":"SHAFIEISARVESTANI, ALIMOHAMMAD","e":"2027-07-07Z"},"geometry":{"type":"Polygon","coordinates":[[[-122.75774,53.54161],[-122.75149,53.54161],[-122.75149,53.53744],[-122.74524,53.53744],[-122.73899,53.53744],[-122.73899,53.53327],[-122.73899,53.52911],[-122.74524,53.52911],[-122.75149,53.5291],[-122.75774,53.5291],[-122.75774,53.53327],[-122.75774,53.53744],[-122.75774,53.54161]]]}},{"type":"Feature","properties":{"c":"1134982","o":"LITKE, MARK ASHLEY","e":"2027-07-07Z"},"geometry":{"type":"Polygon","coordinates":[[[-122.70775,53.70828],[-122.7015,53.70828],[-122.69525,53.70828],[-122.69525,53.70412],[-122.69525,53.69995],[-122.7015,53.69995],[-122.70775,53.69995],[-122.70775,53.70412],[-122.70775,53.70828]]]}},{"type":"Feature","properties":{"c":"1134986","o":"SCHIELE, GARTH LYLE","e":"2027-07-07Z"},"geometry":{"type":"Polygon","coordinates":[[[-122.714,53.66245],[-122.71399,53.65828],[-122.70774,53.65828],[-122.70149,53.65828],[-122.70149,53.65411],[-122.70774,53.65411],[-122.71399,53.65411],[-122.72024,53.65411],[-122.72024,53.65828],[-122.72649,53.65828],[-122.7265,53.66245],[-122.72025,53.66245],[-122.714,53.66245]]]}},{"type":"Feature","properties":{"c":"1135015","o":"BENDICKSON, KEVIN RODGER","e":"2027-07-07Z"},"geometry":{"type":"Polygon","coordinates":[[[-122.61399,53.62078],[-122.62024,53.62078],[-122.62024,53.62495],[-122.61399,53.62495],[-122.61399,53.62078]]]}},{"type":"Feature","properties":{"c":"1135038","o":"STEWART, JOHNATHON","e":"2027-07-07Z"},"geometry":{"type":"Polygon","coordinates":[[[-122.72025,53.80412],[-122.7265,53.80412],[-122.7265,53.80828],[-122.72025,53.80829],[-122.72025,53.80412]]]}},{"type":"Feature","properties":{"c":"1135039","o":"FEREC, MORGAN ELLIOT","e":"2027-07-07Z"},"geometry":{"type":"Polygon","coordinates":[[[-122.62649,53.62495],[-122.62024,53.62495],[-122.62024,53.62078],[-122.62024,53.61662],[-122.62649,53.61662],[-122.62649,53.62078],[-122.62649,53.62495]]]}},{"type":"Feature","properties":{"c":"1135041","o":"GARANT, MATTHEW","e":"2027-07-07Z"},"geometry":{"type":"Polygon","coordinates":[[[-122.74525,53.83745],[-122.7515,53.83745],[-122.7515,53.84162],[-122.74525,53.84162],[-122.74525,53.83745]]]}},{"type":"Feature","properties":{"c":"1135043","o":"HOURIE, JAMES MICHAEL","e":"2027-07-07Z"},"geometry":{"type":"Polygon","coordinates":[[[-122.74525,53.80412],[-122.739,53.80412],[-122.73275,53.80412],[-122.73275,53.79995],[-122.7265,53.79995],[-122.7265,53.79578],[-122.73275,53.79578],[-122.739,53.79578],[-122.74525,53.79578],[-122.7515,53.79578],[-122.7515,53.79995],[-122.74525,53.79995],[-122.74525,53.80412]]]}},{"type":"Feature","properties":{"c":"1140045","o":"THEBERGE, JONATHAN DAVID","e":"2027-10-06Z"},"geometry":{"type":"Polygon","coordinates":[[[-122.6515,53.96246],[-122.65775,53.96246],[-122.65775,53.96662],[-122.6515,53.96662],[-122.6515,53.96246]]]}},{"type":"Feature","properties":{"c":"1121945","o":"LITKE, MARK ASHLEY","e":"2028-11-01Z"},"geometry":{"type":"Polygon","coordinates":[[[-122.714,53.67078],[-122.714,53.66661],[-122.72025,53.66661],[-122.7265,53.66661],[-122.7265,53.67078],[-122.72025,53.67078],[-122.714,53.67078]]]}},{"type":"Feature","properties":{"c":"1125126","o":"LITKE, MARK ASHLEY","e":"2027-08-21Z"},"geometry":{"type":"Polygon","coordinates":[[[-122.7265,53.66661],[-122.73275,53.66661],[-122.73275,53.67078],[-122.7265,53.67078],[-122.7265,53.66661]]]}},{"type":"Feature","properties":{"c":"1125749","o":"LITKE, MARK ASHLEY","e":"2027-09-17Z"},"geometry":{"type":"Polygon","coordinates":[[[-122.7265,53.66245],[-122.73275,53.66245],[-122.73275,53.66661],[-122.7265,53.66661],[-122.7265,53.66245]]]}},{"type":"Feature","properties":{"c":"1133565","o":"PAWLUK, MARTIN DARRELL","e":"2027-05-29Z"},"geometry":{"type":"Polygon","coordinates":[[[-122.53899,53.89996],[-122.53274,53.89996],[-122.53274,53.89579],[-122.53274,53.89162],[-122.53899,53.89162],[-122.53899,53.89579],[-122.53899,53.89996]]]}},{"type":"Feature","properties":{"c":"1109777","o":"KEITSCH, MIKE","e":"2035-12-30Z"},"geometry":{"type":"Polygon","coordinates":[[[-122.51399,53.88746],[-122.52024,53.88746],[-122.52024,53.89162],[-122.51399,53.89162],[-122.51399,53.88746]]]}},{"type":"Feature","properties":{"c":"1134263","o":"LITKE, MARK ASHLEY","e":"2027-06-10Z"},"geometry":{"type":"Polygon","coordinates":[[[-122.714,53.66661],[-122.70775,53.66662],[-122.7015,53.66662],[-122.70149,53.66245],[-122.70149,53.65828],[-122.70774,53.65828],[-122.71399,53.65828],[-122.714,53.66245],[-122.72025,53.66245],[-122.7265,53.66245],[-122.7265,53.66661],[-122.72025,53.66661],[-122.714,53.66661]]]}}]}