{"type":"FeatureCollection","features":[{"type":"Feature","properties":{"c":"1092093","o":"JD DISCOVERY CORP","e":"2033-03-20Z"},"geometry":{"type":"Polygon","coordinates":[[[-122.90153,55.03744],[-122.89528,55.03744],[-122.89528,55.03327],[-122.89528,55.0291],[-122.90153,55.0291],[-122.90153,55.03327],[-122.90153,55.03744]]]}},{"type":"Feature","properties":{"c":"1093360","o":"JD DISCOVERY CORP","e":"2033-03-20Z"},"geometry":{"type":"Polygon","coordinates":[[[-122.90153,55.03327],[-122.90778,55.03327],[-122.90778,55.03744],[-122.90153,55.03744],[-122.90153,55.03327]]]}},{"type":"Feature","properties":{"c":"1130265","o":"SCOTT, STEVEN JEFFREY","e":"2027-02-18Z"},"geometry":{"type":"Polygon","coordinates":[[[-122.90153,55.0291],[-122.90778,55.0291],[-122.90778,55.03327],[-122.90153,55.03327],[-122.90153,55.0291]]]}},{"type":"Feature","properties":{"c":"1060107","o":"CLEVOR QUARTZ QUARRY CORPORATION","e":"2027-04-17Z"},"geometry":{"type":"Polygon","coordinates":[[[-122.77654,55.48743],[-122.77029,55.48743],[-122.77029,55.4916],[-122.76404,55.4916],[-122.76404,55.48743],[-122.76404,55.48326],[-122.76404,55.4791],[-122.77029,55.4791],[-122.77029,55.47493],[-122.77654,55.47493],[-122.77654,55.4791],[-122.77654,55.48326],[-122.77654,55.48743]]]}},{"type":"Feature","properties":{"c":"1011025","o":"CLEVOR QUARTZ QUARRY CORPORATION","e":"2027-07-10Z"},"geometry":{"type":"Polygon","coordinates":[[[-122.78279,55.48326],[-122.77654,55.48326],[-122.77654,55.4791],[-122.77654,55.47493],[-122.77029,55.47493],[-122.77028,55.47076],[-122.77653,55.47076],[-122.78279,55.47076],[-122.78279,55.47493],[-122.78279,55.4791],[-122.78279,55.48326]]]}},{"type":"Feature","properties":{"c":"1011026","o":"CLEVOR QUARTZ QUARRY CORPORATION","e":"2027-07-10Z"},"geometry":{"type":"Polygon","coordinates":[[[-122.77654,55.48326],[-122.78279,55.48326],[-122.78279,55.48743],[-122.77654,55.48743],[-122.77654,55.48326]]]}},{"type":"Feature","properties":{"c":"1038433","o":"CLEVOR QUARTZ QUARRY CORPORATION","e":"2027-09-07Z"},"geometry":{"type":"Polygon","coordinates":[[[-122.76403,55.47493],[-122.77029,55.47493],[-122.77029,55.4791],[-122.76404,55.4791],[-122.76403,55.47493]]]}},{"type":"Feature","properties":{"c":"1031106","o":"CLEVOR QUARTZ QUARRY CORPORATION","e":"2027-09-22Z"},"geometry":{"type":"Polygon","coordinates":[[[-122.77028,55.47076],[-122.77028,55.4666],[-122.77653,55.4666],[-122.78278,55.4666],[-122.78279,55.47076],[-122.77653,55.47076],[-122.77028,55.47076]]]}},{"type":"Feature","properties":{"c":"1063747","o":"CLEVOR QUARTZ QUARRY CORPORATION","e":"2027-10-12Z"},"geometry":{"type":"Polygon","coordinates":[[[-122.78904,55.4791],[-122.78279,55.4791],[-122.78279,55.47493],[-122.78279,55.47076],[-122.78278,55.4666],[-122.78903,55.4666],[-122.78904,55.47076],[-122.78904,55.47493],[-122.78904,55.4791]]]}}]}