{"type":"FeatureCollection","features":[{"type":"Feature","properties":{"c":"1136502","o":"BAKUS, JOHN NICK","e":"2027-07-22Z"},"geometry":{"type":"Polygon","coordinates":[[[-123.18282,56.00411],[-123.17657,56.00411],[-123.17032,56.00411],[-123.17032,55.99994],[-123.17032,55.99578],[-123.17032,55.99161],[-123.17657,55.99161],[-123.18282,55.99161],[-123.18282,55.99578],[-123.18282,55.99994],[-123.18282,56.00411]]]}},{"type":"Feature","properties":{"c":"1136504","o":"BAKUS, JOHN NICK","e":"2027-07-22Z"},"geometry":{"type":"Polygon","coordinates":[[[-123.17032,56.00827],[-123.17032,56.00411],[-123.17657,56.00411],[-123.18282,56.00411],[-123.18282,56.00828],[-123.17657,56.00827],[-123.17032,56.00827]]]}},{"type":"Feature","properties":{"c":"1136505","o":"BAKUS, JOHN NICK","e":"2027-07-22Z"},"geometry":{"type":"Polygon","coordinates":[[[-123.18907,56.01244],[-123.18282,56.01244],[-123.17657,56.01244],[-123.17657,56.00827],[-123.18282,56.00828],[-123.18282,56.00411],[-123.18907,56.00411],[-123.18907,56.00828],[-123.18907,56.01244]]]}}]}