{"type":"FeatureCollection","features":[{"type":"Feature","properties":{"c":"365620","o":"ALPINE MINING LTD.","e":"2027-09-16Z"},"geometry":{"type":"Polygon","coordinates":[[[-123.32636,50.24331],[-123.32636,50.23432],[-123.34038,50.23432],[-123.34038,50.24331],[-123.32636,50.24331]]]}},{"type":"Feature","properties":{"c":"364851","o":"ALPINE MINING LTD.","e":"2027-08-19Z"},"geometry":{"type":"Polygon","coordinates":[[[-123.34148,50.08346],[-123.34587,50.08346],[-123.34587,50.08755],[-123.34587,50.08795],[-123.33888,50.08795],[-123.33888,50.08346],[-123.34148,50.08346]]]}},{"type":"Feature","properties":{"c":"367031","o":"ALPINE MINING LTD.","e":"2027-11-08Z"},"geometry":{"type":"Polygon","coordinates":[[[-123.32342,50.07486],[-123.32342,50.07036],[-123.3304,50.07036],[-123.3304,50.07486],[-123.32342,50.07486]]]}},{"type":"Feature","properties":{"c":"513461","o":"NORTHWEST LANDSCAPE SUPPLY LTD.","e":"2027-05-27Z"},"geometry":{"type":"Polygon","coordinates":[[[-123.40135,50.13317],[-123.3951,50.13317],[-123.3951,50.12901],[-123.3951,50.12484],[-123.40135,50.12484],[-123.40135,50.12901],[-123.40135,50.13317]]]}},{"type":"Feature","properties":{"c":"518746","o":"ALPINE MINING LTD.","e":"2027-08-04Z"},"geometry":{"type":"Polygon","coordinates":[[[-123.35134,50.09151],[-123.34509,50.09151],[-123.33884,50.09151],[-123.33259,50.09151],[-123.33259,50.08734],[-123.33259,50.08317],[-123.33259,50.07901],[-123.33884,50.07901],[-123.34509,50.07901],[-123.35135,50.07901],[-123.35135,50.08317],[-123.35134,50.08734],[-123.35134,50.09151]]]}},{"type":"Feature","properties":{"c":"518747","o":"ALPINE MINING LTD.","e":"2027-08-04Z"},"geometry":{"type":"Polygon","coordinates":[[[-123.32009,50.07901],[-123.32009,50.07484],[-123.32634,50.07484],[-123.33259,50.07484],[-123.33259,50.07901],[-123.32634,50.07901],[-123.32009,50.07901]]]}},{"type":"Feature","properties":{"c":"374271","o":"NORTHWEST LANDSCAPE SUPPLY LTD.","e":"2027-03-26Z"},"geometry":{"type":"Polygon","coordinates":[[[-123.09403,50.0668],[-123.09896,50.06936],[-123.09458,50.07286],[-123.08914,50.07004],[-123.09353,50.06654],[-123.09403,50.0668]]]}},{"type":"Feature","properties":{"c":"379862","o":"NORTHWEST LANDSCAPE SUPPLY LTD.","e":"2027-03-26Z"},"geometry":{"type":"Polygon","coordinates":[[[-123.09434,50.06654],[-123.09659,50.06654],[-123.09674,50.06644],[-123.09769,50.06644],[-123.0995,50.06527],[-123.10136,50.06645],[-123.10321,50.06654],[-123.09948,50.06961],[-123.09403,50.0668],[-123.09434,50.06654]]]}},{"type":"Feature","properties":{"c":"324714","o":"NORTHWEST LANDSCAPE SUPPLY LTD.","e":"2027-11-14Z"},"geometry":{"type":"Polygon","coordinates":[[[-123.07451,50.04317],[-123.07451,50.04767],[-123.06753,50.04767],[-123.06753,50.04317],[-123.07451,50.04317]]]}},{"type":"Feature","properties":{"c":"325877","o":"NORTHWEST LANDSCAPE SUPPLY LTD.","e":"2027-11-14Z"},"geometry":{"type":"Polygon","coordinates":[[[-123.08149,50.04767],[-123.08149,50.04649],[-123.08402,50.04939],[-123.07792,50.05159],[-123.07451,50.04767],[-123.08149,50.04767]]]}},{"type":"Feature","properties":{"c":"325878","o":"NORTHWEST LANDSCAPE SUPPLY LTD.","e":"2027-11-14Z"},"geometry":{"type":"Polygon","coordinates":[[[-123.07792,50.05159],[-123.07183,50.05379],[-123.06842,50.04986],[-123.07451,50.04767],[-123.07792,50.05159]]]}},{"type":"Feature","properties":{"c":"332479","o":"NORTHWEST LANDSCAPE SUPPLY LTD.","e":"2027-11-14Z"},"geometry":{"type":"Polygon","coordinates":[[[-123.07676,50.03431],[-123.07676,50.0343],[-123.07896,50.03004],[-123.08559,50.03146],[-123.08338,50.03573],[-123.08117,50.03526],[-123.07676,50.03431]]]}},{"type":"Feature","properties":{"c":"337488","o":"NORTHWEST LANDSCAPE SUPPLY LTD.","e":"2027-11-14Z"},"geometry":{"type":"Polygon","coordinates":[[[-123.08172,50.02458],[-123.08314,50.02146],[-123.08984,50.02273],[-123.08899,50.02458],[-123.08787,50.02704],[-123.08117,50.02578],[-123.08172,50.02458]]]}},{"type":"Feature","properties":{"c":"337489","o":"NORTHWEST LANDSCAPE SUPPLY LTD.","e":"2027-11-14Z"},"geometry":{"type":"Polygon","coordinates":[[[-123.08511,50.01715],[-123.0918,50.01841],[-123.08984,50.02273],[-123.08314,50.02146],[-123.08511,50.01715]]]}},{"type":"Feature","properties":{"c":"337490","o":"NORTHWEST LANDSCAPE SUPPLY LTD.","e":"2027-11-14Z"},"geometry":{"type":"Polygon","coordinates":[[[-123.08708,50.01283],[-123.09287,50.01393],[-123.09287,50.01608],[-123.0918,50.01841],[-123.08511,50.01715],[-123.08708,50.01283]]]}},{"type":"Feature","properties":{"c":"337491","o":"NORTHWEST LANDSCAPE SUPPLY LTD.","e":"2027-11-14Z"},"geometry":{"type":"Polygon","coordinates":[[[-123.08904,50.00852],[-123.09574,50.00979],[-123.09455,50.01239],[-123.09287,50.01239],[-123.09287,50.01393],[-123.08708,50.01283],[-123.08904,50.00852]]]}},{"type":"Feature","properties":{"c":"338964","o":"NORTHWEST LANDSCAPE SUPPLY LTD.","e":"2027-11-14Z"},"geometry":{"type":"Polygon","coordinates":[[[-123.07909,50.0298],[-123.08117,50.02578],[-123.08779,50.0272],[-123.08559,50.03146],[-123.07896,50.03004],[-123.07909,50.0298]]]}},{"type":"Feature","properties":{"c":"511363","o":"NORTHWEST LANDSCAPE SUPPLY LTD.","e":"2027-11-14Z"},"geometry":{"type":"Polygon","coordinates":[[[-123.08256,50.04985],[-123.07631,50.04985],[-123.07006,50.04985],[-123.07006,50.04568],[-123.06381,50.04568],[-123.06381,50.04151],[-123.06381,50.03735],[-123.06381,50.03318],[-123.07006,50.03318],[-123.07006,50.02901],[-123.07631,50.02901],[-123.08256,50.02901],[-123.08256,50.03318],[-123.08256,50.03735],[-123.08256,50.04151],[-123.08256,50.04568],[-123.08256,50.04985]]]}},{"type":"Feature","properties":{"c":"603456","o":"NORTHWEST LANDSCAPE SUPPLY LTD.","e":"2027-04-27Z"},"geometry":{"type":"Polygon","coordinates":[[[-123.06381,50.04151],[-123.05756,50.04151],[-123.05756,50.03735],[-123.05756,50.03318],[-123.06381,50.03318],[-123.06381,50.03735],[-123.06381,50.04151]]]}},{"type":"Feature","properties":{"c":"603459","o":"NORTHWEST LANDSCAPE SUPPLY LTD.","e":"2027-04-27Z"},"geometry":{"type":"Polygon","coordinates":[[[-123.08881,50.04151],[-123.08881,50.04568],[-123.08256,50.04568],[-123.08256,50.04151],[-123.08881,50.04151]]]}},{"type":"Feature","properties":{"c":"983062","o":"NORTHWEST LANDSCAPE SUPPLY LTD.","e":"2027-04-30Z"},"geometry":{"type":"Polygon","coordinates":[[[-123.40134,50.17901],[-123.40134,50.17484],[-123.40759,50.17484],[-123.41384,50.17484],[-123.41384,50.17901],[-123.40759,50.17901],[-123.40134,50.17901]]]}},{"type":"Feature","properties":{"c":"1025068","o":"TURNAGAIN RESOURCES INC.","e":"2030-09-25Z"},"geometry":{"type":"Polygon","coordinates":[[[-123.15756,50.06651],[-123.15756,50.07068],[-123.15131,50.07068],[-123.15131,50.06651],[-123.15756,50.06651]]]}},{"type":"Feature","properties":{"c":"1030954","o":"GREEN, DEREK","e":"2027-09-15Z"},"geometry":{"type":"Polygon","coordinates":[[[-123.10756,50.02901],[-123.10756,50.03318],[-123.10131,50.03318],[-123.10131,50.02901],[-123.10756,50.02901]]]}},{"type":"Feature","properties":{"c":"1041157","o":"TURNAGAIN RESOURCES INC.","e":"2030-09-25Z"},"geometry":{"type":"Polygon","coordinates":[[[-123.13881,50.06651],[-123.13881,50.06234],[-123.14506,50.06234],[-123.15131,50.06234],[-123.15131,50.06651],[-123.14506,50.06651],[-123.13881,50.06651]]]}},{"type":"Feature","properties":{"c":"1041158","o":"TURNAGAIN RESOURCES INC.","e":"2030-09-25Z"},"geometry":{"type":"Polygon","coordinates":[[[-123.13881,50.07068],[-123.13881,50.06651],[-123.14506,50.06651],[-123.15131,50.06651],[-123.15131,50.07068],[-123.14506,50.07068],[-123.13881,50.07068]]]}},{"type":"Feature","properties":{"c":"1041159","o":"TURNAGAIN RESOURCES INC.","e":"2030-09-25Z"},"geometry":{"type":"Polygon","coordinates":[[[-123.14506,50.05818],[-123.14506,50.06234],[-123.13881,50.06234],[-123.13881,50.05818],[-123.14506,50.05818]]]}},{"type":"Feature","properties":{"c":"1041160","o":"TURNAGAIN RESOURCES INC.","e":"2030-09-25Z"},"geometry":{"type":"Polygon","coordinates":[[[-123.13881,50.06234],[-123.13256,50.06234],[-123.13256,50.05818],[-123.12631,50.05818],[-123.12631,50.05401],[-123.13256,50.05401],[-123.13881,50.05401],[-123.13881,50.05818],[-123.13881,50.06234]]]}},{"type":"Feature","properties":{"c":"1045249","o":"MORTON, JAMES WILLIAM","e":"2027-12-31Z"},"geometry":{"type":"Polygon","coordinates":[[[-123.01382,50.28318],[-123.00757,50.28318],[-123.00132,50.28318],[-123.00132,50.27902],[-123.00132,50.27485],[-123.00757,50.27485],[-123.01382,50.27485],[-123.01382,50.27902],[-123.01382,50.28318]]]}},{"type":"Feature","properties":{"c":"1032326","o":"TURNAGAIN RESOURCES INC.","e":"2030-09-25Z"},"geometry":{"type":"Polygon","coordinates":[[[-123.1513,50.07901],[-123.14505,50.07901],[-123.14506,50.07484],[-123.13881,50.07484],[-123.13881,50.07068],[-123.14506,50.07068],[-123.15131,50.07068],[-123.15131,50.07484],[-123.1513,50.07901]]]}},{"type":"Feature","properties":{"c":"1047310","o":"NORTHWEST LANDSCAPE SUPPLY LTD.","e":"2027-10-18Z"},"geometry":{"type":"Polygon","coordinates":[[[-123.40759,50.15401],[-123.40134,50.15401],[-123.39509,50.15401],[-123.39509,50.14984],[-123.39509,50.14567],[-123.40135,50.14567],[-123.4076,50.14567],[-123.4076,50.14984],[-123.40759,50.15401]]]}},{"type":"Feature","properties":{"c":"1117804","o":"MORTON, JAMES WILLIAM","e":"2027-12-31Z"},"geometry":{"type":"Polygon","coordinates":[[[-123.01382,50.27485],[-123.00757,50.27485],[-123.00132,50.27485],[-123.00132,50.27068],[-123.00132,50.26652],[-123.00757,50.26652],[-123.01382,50.26651],[-123.01382,50.27068],[-123.01382,50.27485]]]}},{"type":"Feature","properties":{"c":"1060453","o":"CARTER, TIMOTHY BRIAN","e":"2028-05-05Z"},"geometry":{"type":"Polygon","coordinates":[[[-123.13257,50.02901],[-123.13257,50.03318],[-123.12632,50.03318],[-123.12632,50.02901],[-123.13257,50.02901]]]}},{"type":"Feature","properties":{"c":"1062234","o":"TURNAGAIN RESOURCES INC.","e":"2030-09-25Z"},"geometry":{"type":"Polygon","coordinates":[[[-123.1638,50.08734],[-123.15755,50.08734],[-123.15755,50.08318],[-123.1513,50.08318],[-123.14505,50.08318],[-123.1388,50.08318],[-123.1388,50.07901],[-123.13881,50.07484],[-123.14506,50.07484],[-123.14505,50.07901],[-123.1513,50.07901],[-123.15131,50.07484],[-123.15131,50.07068],[-123.15756,50.07068],[-123.16381,50.07068],[-123.16381,50.07484],[-123.16381,50.07901],[-123.1638,50.08318],[-123.1638,50.08734]]]}},{"type":"Feature","properties":{"c":"1062235","o":"TURNAGAIN RESOURCES INC.","e":"2030-09-25Z"},"geometry":{"type":"Polygon","coordinates":[[[-123.15756,50.06651],[-123.15131,50.06651],[-123.15131,50.06234],[-123.14506,50.06234],[-123.14506,50.05818],[-123.13881,50.05818],[-123.13881,50.05401],[-123.14506,50.05401],[-123.15131,50.05401],[-123.15131,50.05818],[-123.15756,50.05818],[-123.15756,50.06234],[-123.15756,50.06651]]]}},{"type":"Feature","properties":{"c":"1097617","o":"GREEN, DEREK","e":"2027-09-15Z"},"geometry":{"type":"Polygon","coordinates":[[[-123.10757,50.02485],[-123.10756,50.02901],[-123.10131,50.02901],[-123.10131,50.02484],[-123.10757,50.02485]]]}},{"type":"Feature","properties":{"c":"513676","o":"WHISTLER AGGREGATES LTD.","e":"2027-05-31Z"},"geometry":{"type":"Polygon","coordinates":[[[-123.0638,50.07485],[-123.05755,50.07485],[-123.0513,50.07485],[-123.0513,50.07068],[-123.0513,50.06651],[-123.05755,50.06651],[-123.0638,50.06651],[-123.0638,50.07068],[-123.0638,50.07485]]]}},{"type":"Feature","properties":{"c":"1107304","o":"NEWMAN, JOEY HOWARD","e":"2027-09-09Z"},"geometry":{"type":"Polygon","coordinates":[[[-123.33882,50.24984],[-123.33257,50.24984],[-123.32632,50.24984],[-123.32632,50.24568],[-123.32632,50.24151],[-123.33257,50.24151],[-123.33882,50.24151],[-123.33882,50.24568],[-123.33882,50.24984]]]}},{"type":"Feature","properties":{"c":"1112412","o":"NEWMAN, JOEY HOWARD","e":"2027-04-12Z"},"geometry":{"type":"Polygon","coordinates":[[[-123.36385,50.09151],[-123.36385,50.09567],[-123.35759,50.09567],[-123.3576,50.09151],[-123.36385,50.09151]]]}},{"type":"Feature","properties":{"c":"1130041","o":"ROSS, JUSTIN TRAVIS","e":"2027-02-10Z"},"geometry":{"type":"Polygon","coordinates":[[[-123.08883,50.32901],[-123.08258,50.32902],[-123.08258,50.32485],[-123.07633,50.32485],[-123.07633,50.32068],[-123.07633,50.31651],[-123.07633,50.31235],[-123.08258,50.31235],[-123.08883,50.31235],[-123.08883,50.31651],[-123.08883,50.32068],[-123.08883,50.32485],[-123.08883,50.32901]]]}},{"type":"Feature","properties":{"c":"1135243","o":"WALKER, ROBERT WILLIAM","e":"2027-07-10Z"},"geometry":{"type":"Polygon","coordinates":[[[-123.17006,50.06234],[-123.17006,50.06651],[-123.16381,50.06651],[-123.16381,50.06234],[-123.17006,50.06234]]]}},{"type":"Feature","properties":{"c":"1135244","o":"WALKER, ROBERT WILLIAM","e":"2027-07-10Z"},"geometry":{"type":"Polygon","coordinates":[[[-123.17631,50.06234],[-123.17631,50.06651],[-123.17006,50.06651],[-123.17006,50.06234],[-123.17631,50.06234]]]}},{"type":"Feature","properties":{"c":"1122014","o":"KOLEBABA, MARK ROBERT","e":"2029-11-04Z"},"geometry":{"type":"Polygon","coordinates":[[[-123.02631,50.22485],[-123.02006,50.22485],[-123.02006,50.22901],[-123.01381,50.22901],[-123.00756,50.22901],[-123.00131,50.22901],[-122.99506,50.22901],[-122.98881,50.22901],[-122.98256,50.22902],[-122.97631,50.22902],[-122.97006,50.22902],[-122.97006,50.22485],[-122.96381,50.22485],[-122.95756,50.22485],[-122.95131,50.22485],[-122.95131,50.22068],[-122.95131,50.21652],[-122.95756,50.21652],[-122.96381,50.21652],[-122.96381,50.21235],[-122.96381,50.20818],[-122.96381,50.20401],[-122.96381,50.19985],[-122.96381,50.19568],[-122.96381,50.19151],[-122.97006,50.19151],[-122.97631,50.19151],[-122.97631,50.19568],[-122.97631,50.19985],[-122.97631,50.20401],[-122.98256,50.20401],[-122.98256,50.20818],[-122.98256,50.21235],[-122.98881,50.21235],[-122.99506,50.21235],[-123.00131,50.21235],[-123.00756,50.21235],[-123.01381,50.21235],[-123.02006,50.21235],[-123.02631,50.21235],[-123.02631,50.21651],[-123.02631,50.22068],[-123.02631,50.22485]]]}},{"type":"Feature","properties":{"c":"1139499","o":"BEDROCK GRANITE SALES LTD.","e":"2027-09-30Z"},"geometry":{"type":"Polygon","coordinates":[[[-123.33258,50.09567],[-123.32633,50.09567],[-123.32008,50.09567],[-123.32008,50.09151],[-123.32633,50.09151],[-123.32633,50.08734],[-123.32634,50.08317],[-123.32634,50.07901],[-123.33259,50.07901],[-123.33259,50.08317],[-123.33259,50.08734],[-123.33259,50.09151],[-123.33258,50.09567]]]}},{"type":"Feature","properties":{"c":"1139919","o":"KOLEBABA, MARK ROBERT","e":"2027-10-03Z"},"geometry":{"type":"Polygon","coordinates":[[[-123.00756,50.23318],[-123.00131,50.23318],[-122.99506,50.23318],[-122.98881,50.23318],[-122.98256,50.23318],[-122.97631,50.23318],[-122.97006,50.23318],[-122.96381,50.23318],[-122.95756,50.23318],[-122.95131,50.23318],[-122.94506,50.23318],[-122.93881,50.23318],[-122.93256,50.23318],[-122.93256,50.22902],[-122.92631,50.22902],[-122.92631,50.22485],[-122.92631,50.22068],[-122.92631,50.21652],[-122.92631,50.21235],[-122.92631,50.20818],[-122.93256,50.20818],[-122.93256,50.20402],[-122.93881,50.20402],[-122.94506,50.20402],[-122.95131,50.20402],[-122.95756,50.20402],[-122.96381,50.20401],[-122.96381,50.20818],[-122.96381,50.21235],[-122.96381,50.21652],[-122.95756,50.21652],[-122.95131,50.21652],[-122.95131,50.22068],[-122.95131,50.22485],[-122.95756,50.22485],[-122.96381,50.22485],[-122.97006,50.22485],[-122.97006,50.22902],[-122.97631,50.22902],[-122.98256,50.22902],[-122.98881,50.22901],[-122.99506,50.22901],[-123.00131,50.22901],[-123.00756,50.22901],[-123.01381,50.22901],[-123.02006,50.22901],[-123.02006,50.23318],[-123.01381,50.23318],[-123.00756,50.23318]]]}},{"type":"Feature","properties":{"c":"1114566","o":"MORTON, JAMES WILLIAM","e":"2027-12-31Z"},"geometry":{"type":"Polygon","coordinates":[[[-123.02632,50.28735],[-123.02007,50.28735],[-123.01382,50.28735],[-123.01382,50.28318],[-123.01382,50.27902],[-123.02007,50.27902],[-123.02632,50.27901],[-123.02632,50.28318],[-123.02632,50.28735]]]}},{"type":"Feature","properties":{"c":"1135710","o":"CAZADOR RESOURCES LTD","e":"2027-07-16Z"},"geometry":{"type":"Polygon","coordinates":[[[-123.20136,50.43735],[-123.19511,50.43735],[-123.18886,50.43735],[-123.18261,50.43735],[-123.17636,50.43735],[-123.17011,50.43735],[-123.16386,50.43735],[-123.15761,50.43735],[-123.15136,50.43735],[-123.14511,50.43735],[-123.13886,50.43735],[-123.13886,50.43318],[-123.13886,50.42902],[-123.13886,50.42485],[-123.13886,50.42068],[-123.13886,50.41652],[-123.13886,50.41235],[-123.13885,50.40818],[-123.13885,50.40402],[-123.13885,50.39985],[-123.13885,50.39568],[-123.13885,50.39152],[-123.13885,50.38735],[-123.13885,50.38318],[-123.1451,50.38318],[-123.15135,50.38318],[-123.1576,50.38318],[-123.1576,50.38735],[-123.1576,50.39152],[-123.1576,50.39568],[-123.1576,50.39985],[-123.15135,50.39985],[-123.15135,50.40402],[-123.15135,50.40818],[-123.15136,50.41235],[-123.15136,50.41652],[-123.15136,50.42068],[-123.14511,50.42068],[-123.14511,50.42485],[-123.14511,50.42902],[-123.15136,50.42902],[-123.15761,50.42902],[-123.16386,50.42902],[-123.17011,50.42902],[-123.17636,50.42902],[-123.18261,50.42902],[-123.18261,50.43318],[-123.18886,50.43318],[-123.19511,50.43318],[-123.19511,50.42902],[-123.18886,50.42902],[-123.18886,50.42485],[-123.18886,50.42068],[-123.18886,50.41651],[-123.18886,50.41235],[-123.18886,50.40818],[-123.18885,50.40401],[-123.18885,50.39985],[-123.18885,50.39568],[-123.18885,50.39151],[-123.1826,50.39151],[-123.1826,50.38735],[-123.1826,50.38318],[-123.18885,50.38318],[-123.1951,50.38318],[-123.20135,50.38318],[-123.20135,50.38735],[-123.20135,50.39151],[-123.20135,50.39568],[-123.20135,50.39985],[-123.20135,50.40401],[-123.20136,50.40818],[-123.20136,50.41235],[-123.20136,50.41651],[-123.20136,50.42068],[-123.20136,50.42485],[-123.20136,50.42901],[-123.20136,50.43318],[-123.20136,50.43735]]]}},{"type":"Feature","properties":{"c":"1135750","o":"CAZADOR RESOURCES LTD","e":"2027-07-16Z"},"geometry":{"type":"Polygon","coordinates":[[[-123.18261,50.43318],[-123.18261,50.42902],[-123.17636,50.42902],[-123.17636,50.42485],[-123.17636,50.42068],[-123.17636,50.41652],[-123.17636,50.41235],[-123.17636,50.40818],[-123.17635,50.40401],[-123.17635,50.39985],[-123.1701,50.39985],[-123.16385,50.39985],[-123.1576,50.39985],[-123.1576,50.39568],[-123.1576,50.39152],[-123.1576,50.38735],[-123.1576,50.38318],[-123.16385,50.38318],[-123.1701,50.38318],[-123.17635,50.38318],[-123.1826,50.38318],[-123.1826,50.38735],[-123.1826,50.39151],[-123.18885,50.39151],[-123.18885,50.39568],[-123.18885,50.39985],[-123.18885,50.40401],[-123.18886,50.40818],[-123.18886,50.41235],[-123.18886,50.41651],[-123.18886,50.42068],[-123.18886,50.42485],[-123.18886,50.42902],[-123.19511,50.42902],[-123.19511,50.43318],[-123.18886,50.43318],[-123.18261,50.43318]]]}},{"type":"Feature","properties":{"c":"1135751","o":"CAZADOR RESOURCES LTD","e":"2027-07-16Z"},"geometry":{"type":"Polygon","coordinates":[[[-123.20762,50.45818],[-123.20137,50.45818],[-123.19512,50.45818],[-123.18887,50.45818],[-123.18262,50.45818],[-123.17637,50.45818],[-123.17012,50.45818],[-123.16387,50.45818],[-123.15762,50.45818],[-123.15137,50.45818],[-123.14512,50.45818],[-123.13887,50.45818],[-123.13887,50.45402],[-123.13886,50.44985],[-123.13886,50.44568],[-123.13886,50.44152],[-123.13886,50.43735],[-123.14511,50.43735],[-123.15136,50.43735],[-123.15761,50.43735],[-123.16386,50.43735],[-123.17011,50.43735],[-123.17636,50.43735],[-123.18261,50.43735],[-123.18886,50.43735],[-123.19511,50.43735],[-123.20136,50.43735],[-123.20136,50.43318],[-123.20136,50.42901],[-123.20761,50.42902],[-123.20761,50.43318],[-123.20761,50.43735],[-123.20761,50.44152],[-123.20761,50.44568],[-123.20762,50.44985],[-123.20762,50.45402],[-123.20762,50.45818]]]}},{"type":"Feature","properties":{"c":"1134798","o":"CARTER, TIMOTHY BRIAN","e":"2027-06-30Z"},"geometry":{"type":"Polygon","coordinates":[[[-123.10757,50.02068],[-123.10757,50.02485],[-123.10131,50.02484],[-123.10132,50.02068],[-123.10757,50.02068]]]}},{"type":"Feature","properties":{"c":"1136001","o":"CAZADOR RESOURCES LTD","e":"2027-07-16Z"},"geometry":{"type":"Polygon","coordinates":[[[-123.17636,50.42902],[-123.17011,50.42902],[-123.16386,50.42902],[-123.15761,50.42902],[-123.15136,50.42902],[-123.14511,50.42902],[-123.14511,50.42485],[-123.14511,50.42068],[-123.15136,50.42068],[-123.15136,50.41652],[-123.15136,50.41235],[-123.15135,50.40818],[-123.15135,50.40402],[-123.15135,50.39985],[-123.1576,50.39985],[-123.16385,50.39985],[-123.1701,50.39985],[-123.17635,50.39985],[-123.17635,50.40401],[-123.17636,50.40818],[-123.17636,50.41235],[-123.17636,50.41652],[-123.17636,50.42068],[-123.17636,50.42485],[-123.17636,50.42902]]]}},{"type":"Feature","properties":{"c":"1136973","o":"NEWMAN, JOEY HOWARD","e":"2027-08-07Z"},"geometry":{"type":"Polygon","coordinates":[[[-123.33886,50.02484],[-123.33261,50.02484],[-123.33261,50.02067],[-123.33261,50.01651],[-123.33886,50.01651],[-123.33886,50.02067],[-123.33886,50.02484]]]}},{"type":"Feature","properties":{"c":"1136974","o":"NEWMAN, JOEY HOWARD","e":"2027-08-07Z"},"geometry":{"type":"Polygon","coordinates":[[[-123.3951,50.12067],[-123.3951,50.12484],[-123.38885,50.12484],[-123.38885,50.12067],[-123.3951,50.12067]]]}},{"type":"Feature","properties":{"c":"1136975","o":"NEWMAN, JOEY HOWARD","e":"2027-08-07Z"},"geometry":{"type":"Polygon","coordinates":[[[-123.40136,50.11234],[-123.40136,50.11651],[-123.3951,50.11651],[-123.3951,50.11234],[-123.40136,50.11234]]]}},{"type":"Feature","properties":{"c":"1136997","o":"BROHM LAKE CONTRACTING INC.","e":"2027-08-10Z"},"geometry":{"type":"Polygon","coordinates":[[[-123.0888,50.08735],[-123.08255,50.08735],[-123.08255,50.09151],[-123.0763,50.09151],[-123.07005,50.09151],[-123.0638,50.09151],[-123.0638,50.08735],[-123.07005,50.08735],[-123.07005,50.08318],[-123.0763,50.08318],[-123.0763,50.07901],[-123.08255,50.07901],[-123.0888,50.07901],[-123.0888,50.08318],[-123.0888,50.08735]]]}},{"type":"Feature","properties":{"c":"1134680","o":"CARTER, TIMOTHY BRIAN","e":"2027-06-25Z"},"geometry":{"type":"Polygon","coordinates":[[[-123.13257,50.03318],[-123.13256,50.03734],[-123.12631,50.03734],[-123.12632,50.03318],[-123.13257,50.03318]]]}},{"type":"Feature","properties":{"c":"1139461","o":"HUNTER SCOUT RESOURCES","e":"2027-09-22Z"},"geometry":{"type":"Polygon","coordinates":[[[-123.32633,50.08734],[-123.32633,50.09151],[-123.32008,50.09151],[-123.32008,50.08734],[-123.32633,50.08734]]]}},{"type":"Feature","properties":{"c":"1139462","o":"REDDIT RESOURCES CO.","e":"2027-09-22Z"},"geometry":{"type":"Polygon","coordinates":[[[-123.32634,50.08317],[-123.32633,50.08734],[-123.32008,50.08734],[-123.32008,50.08317],[-123.32634,50.08317]]]}},{"type":"Feature","properties":{"c":"1067622","o":"BEDROCK GRANITE SALES LTD.","e":"2026-04-01Z"},"geometry":{"type":"Polygon","coordinates":[[[-123.32008,50.09151],[-123.31383,50.09151],[-123.31383,50.08734],[-123.31383,50.08317],[-123.32008,50.08317],[-123.32008,50.08734],[-123.32008,50.09151]]]}},{"type":"Feature","properties":{"c":"1139630","o":"BEDROCK GRANITE SALES LTD.","e":"2027-09-30Z"},"geometry":{"type":"Polygon","coordinates":[[[-123.31383,50.09567],[-123.30758,50.09568],[-123.30758,50.09151],[-123.30758,50.08734],[-123.31383,50.08734],[-123.31383,50.09151],[-123.31383,50.09567]]]}}]}