{"type":"FeatureCollection","features":[{"type":"Feature","properties":{"c":"501255","o":"BALLINTEER MANAGEMENT INC.","e":"2029-01-30Z"},"geometry":{"type":"Polygon","coordinates":[[[-123.93888,49.62483],[-123.93263,49.62483],[-123.92638,49.62483],[-123.92013,49.62483],[-123.92013,49.62066],[-123.92013,49.61649],[-123.92013,49.61233],[-123.92013,49.60816],[-123.92013,49.60399],[-123.91388,49.60399],[-123.90763,49.60399],[-123.90763,49.59983],[-123.91388,49.59983],[-123.92013,49.59983],[-123.92638,49.59983],[-123.93263,49.59983],[-123.93888,49.59983],[-123.93888,49.60399],[-123.93888,49.60816],[-123.93888,49.61233],[-123.93888,49.61649],[-123.93888,49.62066],[-123.93888,49.62483]]]}},{"type":"Feature","properties":{"c":"501331","o":"BALLINTEER MANAGEMENT INC.","e":"2029-01-30Z"},"geometry":{"type":"Polygon","coordinates":[[[-123.93888,49.58316],[-123.93263,49.58316],[-123.92638,49.58316],[-123.92013,49.58316],[-123.91388,49.58316],[-123.90763,49.58316],[-123.90763,49.57899],[-123.90762,49.57483],[-123.90762,49.57066],[-123.90762,49.56649],[-123.91387,49.56649],[-123.92012,49.56649],[-123.92637,49.56649],[-123.93262,49.56649],[-123.93888,49.56649],[-123.93888,49.57066],[-123.93888,49.57483],[-123.93888,49.57899],[-123.93888,49.58316]]]}},{"type":"Feature","properties":{"c":"501399","o":"BALLINTEER MANAGEMENT INC.","e":"2029-01-30Z"},"geometry":{"type":"Polygon","coordinates":[[[-123.87012,49.59983],[-123.86387,49.59983],[-123.85762,49.59983],[-123.85137,49.59983],[-123.84512,49.59983],[-123.83887,49.59983],[-123.83262,49.59983],[-123.82637,49.59983],[-123.82637,49.59566],[-123.82637,49.5915],[-123.82637,49.58733],[-123.83262,49.58733],[-123.83887,49.58733],[-123.84512,49.58733],[-123.85137,49.58733],[-123.85762,49.58733],[-123.86387,49.58733],[-123.87012,49.58733],[-123.87012,49.5915],[-123.87012,49.59566],[-123.87012,49.59983]]]}},{"type":"Feature","properties":{"c":"501436","o":"BALLINTEER MANAGEMENT INC.","e":"2029-01-30Z"},"geometry":{"type":"Polygon","coordinates":[[[-123.87012,49.58733],[-123.86387,49.58733],[-123.85762,49.58733],[-123.85137,49.58733],[-123.84512,49.58733],[-123.83887,49.58733],[-123.83262,49.58733],[-123.82637,49.58733],[-123.82012,49.58733],[-123.81387,49.58733],[-123.81387,49.58316],[-123.81387,49.579],[-123.82012,49.579],[-123.82637,49.579],[-123.83262,49.579],[-123.83887,49.579],[-123.84512,49.579],[-123.85137,49.579],[-123.85762,49.579],[-123.86387,49.579],[-123.87012,49.579],[-123.87012,49.58316],[-123.87012,49.58733]]]}},{"type":"Feature","properties":{"c":"501503","o":"BALLINTEER MANAGEMENT INC.","e":"2029-01-30Z"},"geometry":{"type":"Polygon","coordinates":[[[-123.85762,49.579],[-123.85137,49.579],[-123.84512,49.579],[-123.83887,49.579],[-123.83262,49.579],[-123.82637,49.579],[-123.82012,49.579],[-123.81387,49.579],[-123.80762,49.579],[-123.80762,49.57483],[-123.80762,49.57066],[-123.80137,49.57066],[-123.80137,49.5665],[-123.80137,49.56233],[-123.80762,49.56233],[-123.81387,49.56233],[-123.82012,49.56233],[-123.82637,49.56233],[-123.82637,49.5665],[-123.82637,49.57066],[-123.83262,49.57066],[-123.83887,49.57066],[-123.84512,49.57066],[-123.85137,49.57066],[-123.85762,49.57066],[-123.85762,49.57483],[-123.85762,49.579]]]}},{"type":"Feature","properties":{"c":"501668","o":"BALLINTEER MANAGEMENT INC.","e":"2029-01-30Z"},"geometry":{"type":"Polygon","coordinates":[[[-123.95138,49.62483],[-123.94513,49.62483],[-123.93888,49.62483],[-123.93888,49.62066],[-123.93888,49.61649],[-123.93888,49.61233],[-123.93888,49.60816],[-123.93888,49.60399],[-123.93888,49.59983],[-123.93888,49.59566],[-123.93888,49.59149],[-123.93888,49.58733],[-123.93888,49.58316],[-123.93888,49.57899],[-123.93888,49.57483],[-123.93888,49.57066],[-123.93888,49.56649],[-123.94513,49.56649],[-123.94513,49.57066],[-123.94513,49.57483],[-123.94513,49.57899],[-123.95138,49.57899],[-123.95138,49.58316],[-123.95138,49.58733],[-123.95138,49.59149],[-123.95138,49.59566],[-123.95138,49.59983],[-123.95138,49.60399],[-123.95138,49.60816],[-123.95138,49.61233],[-123.95138,49.61649],[-123.95138,49.62066],[-123.95138,49.62483]]]}},{"type":"Feature","properties":{"c":"501707","o":"BALLINTEER MANAGEMENT INC.","e":"2029-01-30Z"},"geometry":{"type":"Polygon","coordinates":[[[-123.96388,49.62483],[-123.95763,49.62483],[-123.95138,49.62483],[-123.95138,49.62066],[-123.95138,49.61649],[-123.95138,49.61233],[-123.95138,49.60816],[-123.95138,49.60399],[-123.95138,49.59983],[-123.95138,49.59566],[-123.95138,49.59149],[-123.95138,49.58733],[-123.95138,49.58316],[-123.95138,49.57899],[-123.94513,49.57899],[-123.94513,49.57483],[-123.94513,49.57066],[-123.94513,49.56649],[-123.94513,49.56233],[-123.95138,49.56233],[-123.95138,49.56649],[-123.95763,49.56649],[-123.96388,49.56649],[-123.96388,49.57066],[-123.96388,49.57483],[-123.95763,49.57483],[-123.95763,49.57899],[-123.95763,49.58316],[-123.95763,49.58733],[-123.95763,49.59149],[-123.95763,49.59566],[-123.95763,49.59983],[-123.95763,49.60399],[-123.96388,49.60399],[-123.96388,49.60816],[-123.96388,49.61233],[-123.96388,49.61649],[-123.96388,49.62066],[-123.96388,49.62483]]]}},{"type":"Feature","properties":{"c":"502278","o":"BALLINTEER MANAGEMENT INC.","e":"2029-01-30Z"},"geometry":{"type":"Polygon","coordinates":[[[-123.88262,49.51649],[-123.87637,49.51649],[-123.87637,49.51233],[-123.87012,49.51233],[-123.86387,49.51233],[-123.86387,49.50816],[-123.87012,49.50816],[-123.87637,49.50816],[-123.88262,49.50816],[-123.88262,49.51233],[-123.88262,49.51649]]]}},{"type":"Feature","properties":{"c":"502335","o":"BALLINTEER MANAGEMENT INC.","e":"2029-01-30Z"},"geometry":{"type":"Polygon","coordinates":[[[-123.95138,49.62899],[-123.94513,49.62899],[-123.93888,49.62899],[-123.93263,49.62899],[-123.92638,49.62899],[-123.92013,49.62899],[-123.92013,49.62483],[-123.92638,49.62483],[-123.93263,49.62483],[-123.93888,49.62483],[-123.94513,49.62483],[-123.95138,49.62483],[-123.95763,49.62483],[-123.96388,49.62483],[-123.96388,49.62899],[-123.95763,49.62899],[-123.95138,49.62899]]]}},{"type":"Feature","properties":{"c":"502353","o":"BALLINTEER MANAGEMENT INC.","e":"2029-01-30Z"},"geometry":{"type":"Polygon","coordinates":[[[-123.98263,49.56649],[-123.97638,49.56649],[-123.97013,49.56649],[-123.96388,49.56649],[-123.95763,49.56649],[-123.95763,49.56233],[-123.95763,49.55816],[-123.95763,49.55399],[-123.95762,49.54983],[-123.95762,49.54566],[-123.95762,49.54149],[-123.96387,49.54149],[-123.97012,49.54149],[-123.97638,49.54149],[-123.98263,49.54149],[-123.98263,49.54566],[-123.98263,49.54983],[-123.98263,49.55399],[-123.98263,49.55816],[-123.98263,49.56233],[-123.98263,49.56649]]]}},{"type":"Feature","properties":{"c":"502363","o":"BALLINTEER MANAGEMENT INC.","e":"2029-01-30Z"},"geometry":{"type":"Polygon","coordinates":[[[-124.00763,49.57066],[-124.00138,49.57066],[-123.99513,49.57066],[-123.98888,49.57066],[-123.98263,49.57066],[-123.97638,49.57066],[-123.97013,49.57066],[-123.96388,49.57066],[-123.96388,49.56649],[-123.97013,49.56649],[-123.97638,49.56649],[-123.98263,49.56649],[-123.98263,49.56233],[-123.98263,49.55816],[-123.98263,49.55399],[-123.98263,49.54983],[-123.98263,49.54566],[-123.98888,49.54566],[-123.99513,49.54566],[-123.99513,49.54982],[-124.00138,49.54982],[-124.00138,49.55399],[-124.00138,49.55816],[-124.00763,49.55816],[-124.00763,49.56232],[-124.00763,49.56649],[-124.00763,49.57066]]]}},{"type":"Feature","properties":{"c":"502370","o":"BALLINTEER MANAGEMENT INC.","e":"2029-01-30Z"},"geometry":{"type":"Polygon","coordinates":[[[-123.97638,49.57483],[-123.97638,49.57899],[-123.97638,49.58316],[-123.97638,49.58733],[-123.97638,49.59149],[-123.97638,49.59566],[-123.97638,49.59983],[-123.97638,49.60399],[-123.97013,49.60399],[-123.96388,49.60399],[-123.95763,49.60399],[-123.95763,49.59983],[-123.95763,49.59566],[-123.95763,49.59149],[-123.95763,49.58733],[-123.95763,49.58316],[-123.95763,49.57899],[-123.95763,49.57483],[-123.96388,49.57483],[-123.96388,49.57066],[-123.97013,49.57066],[-123.97638,49.57066],[-123.98263,49.57066],[-123.98888,49.57066],[-123.98888,49.57483],[-123.98263,49.57483],[-123.97638,49.57483]]]}},{"type":"Feature","properties":{"c":"502382","o":"BALLINTEER MANAGEMENT INC.","e":"2029-01-30Z"},"geometry":{"type":"Polygon","coordinates":[[[-124.01388,49.58732],[-124.00763,49.58733],[-124.00138,49.58733],[-123.99513,49.58733],[-123.98888,49.58733],[-123.98263,49.58733],[-123.97638,49.58733],[-123.97638,49.58316],[-123.97638,49.57899],[-123.97638,49.57483],[-123.98263,49.57483],[-123.98888,49.57483],[-123.98888,49.57066],[-123.99513,49.57066],[-123.99513,49.57483],[-124.00138,49.57482],[-124.00763,49.57482],[-124.01388,49.57482],[-124.01388,49.57899],[-124.01388,49.58316],[-124.02013,49.58316],[-124.02013,49.58733],[-124.01388,49.58732]]]}},{"type":"Feature","properties":{"c":"502387","o":"BALLINTEER MANAGEMENT INC.","e":"2029-01-30Z"},"geometry":{"type":"Polygon","coordinates":[[[-124.02638,49.59983],[-124.02013,49.59983],[-124.01388,49.59983],[-124.00763,49.59983],[-124.00138,49.59983],[-123.99513,49.59983],[-123.98888,49.59983],[-123.98263,49.59983],[-123.97638,49.59983],[-123.97638,49.59566],[-123.97638,49.59149],[-123.97638,49.58733],[-123.98263,49.58733],[-123.98888,49.58733],[-123.99513,49.58733],[-124.00138,49.58733],[-124.00763,49.58733],[-124.01388,49.58732],[-124.02013,49.58733],[-124.02013,49.59149],[-124.02013,49.59566],[-124.02638,49.59566],[-124.02638,49.59983]]]}},{"type":"Feature","properties":{"c":"502391","o":"BALLINTEER MANAGEMENT INC.","e":"2029-01-30Z"},"geometry":{"type":"Polygon","coordinates":[[[-124.02638,49.60816],[-124.02013,49.60816],[-124.01388,49.60816],[-124.00763,49.60816],[-124.00763,49.61233],[-124.00138,49.61233],[-123.99513,49.61233],[-123.98888,49.61233],[-123.98263,49.61233],[-123.97638,49.61233],[-123.97013,49.61233],[-123.96388,49.61233],[-123.96388,49.60816],[-123.96388,49.60399],[-123.97013,49.60399],[-123.97638,49.60399],[-123.97638,49.59983],[-123.98263,49.59983],[-123.98888,49.59983],[-123.99513,49.59983],[-124.00138,49.59983],[-124.00763,49.59983],[-124.01388,49.59983],[-124.02013,49.59983],[-124.02638,49.59983],[-124.02638,49.60399],[-124.02638,49.60816]]]}},{"type":"Feature","properties":{"c":"502395","o":"BALLINTEER MANAGEMENT INC.","e":"2029-01-30Z"},"geometry":{"type":"Polygon","coordinates":[[[-124.00763,49.62483],[-124.00138,49.62483],[-123.99513,49.62483],[-123.98888,49.62483],[-123.98263,49.62483],[-123.97638,49.62483],[-123.97013,49.62483],[-123.96388,49.62483],[-123.96388,49.62066],[-123.96388,49.61649],[-123.96388,49.61233],[-123.97013,49.61233],[-123.97638,49.61233],[-123.98263,49.61233],[-123.98888,49.61233],[-123.99513,49.61233],[-124.00138,49.61233],[-124.00763,49.61233],[-124.00763,49.61649],[-124.00763,49.62066],[-124.00763,49.62483]]]}},{"type":"Feature","properties":{"c":"503098","o":"BALLINTEER MANAGEMENT INC.","e":"2029-01-30Z"},"geometry":{"type":"Polygon","coordinates":[[[-123.89512,49.54149],[-123.88887,49.54149],[-123.88262,49.54149],[-123.87637,49.54149],[-123.87012,49.54149],[-123.86387,49.54149],[-123.86387,49.53733],[-123.86387,49.53316],[-123.86387,49.52899],[-123.86387,49.52483],[-123.87012,49.52483],[-123.87637,49.52483],[-123.88262,49.52483],[-123.88887,49.52483],[-123.89512,49.52483],[-123.89512,49.52899],[-123.89512,49.53316],[-123.89512,49.53733],[-123.89512,49.54149]]]}},{"type":"Feature","properties":{"c":"503099","o":"BALLINTEER MANAGEMENT INC.","e":"2029-01-30Z"},"geometry":{"type":"Polygon","coordinates":[[[-123.88262,49.52483],[-123.87637,49.52483],[-123.87012,49.52483],[-123.86387,49.52483],[-123.85762,49.52483],[-123.85137,49.52483],[-123.84512,49.52483],[-123.83887,49.52483],[-123.83887,49.52066],[-123.83887,49.51649],[-123.83887,49.51233],[-123.83887,49.50816],[-123.84512,49.50816],[-123.85137,49.50816],[-123.85762,49.50816],[-123.86387,49.50816],[-123.86387,49.51233],[-123.87012,49.51233],[-123.87637,49.51233],[-123.87637,49.51649],[-123.88262,49.51649],[-123.88262,49.52066],[-123.88262,49.52483]]]}},{"type":"Feature","properties":{"c":"503100","o":"BALLINTEER MANAGEMENT INC.","e":"2029-01-30Z"},"geometry":{"type":"Polygon","coordinates":[[[-123.92012,49.56649],[-123.91387,49.56649],[-123.90762,49.56649],[-123.90762,49.56233],[-123.90137,49.56233],[-123.89512,49.56233],[-123.89512,49.55816],[-123.89512,49.55399],[-123.89512,49.54983],[-123.89512,49.54566],[-123.89512,49.54149],[-123.90137,49.54149],[-123.90137,49.53733],[-123.90762,49.53733],[-123.91387,49.53733],[-123.92012,49.53733],[-123.92012,49.54149],[-123.92012,49.54566],[-123.92012,49.54983],[-123.92012,49.55399],[-123.92012,49.55816],[-123.92012,49.56233],[-123.92012,49.56649]]]}},{"type":"Feature","properties":{"c":"503102","o":"BALLINTEER MANAGEMENT INC.","e":"2029-01-30Z"},"geometry":{"type":"Polygon","coordinates":[[[-123.92012,49.53733],[-123.91387,49.53733],[-123.90762,49.53733],[-123.90137,49.53733],[-123.90137,49.54149],[-123.89512,49.54149],[-123.89512,49.53733],[-123.89512,49.53316],[-123.89512,49.52899],[-123.89512,49.52483],[-123.90137,49.52483],[-123.90762,49.52483],[-123.91387,49.52483],[-123.92012,49.52483],[-123.92012,49.52899],[-123.92012,49.53316],[-123.92012,49.53733]]]}},{"type":"Feature","properties":{"c":"503103","o":"BALLINTEER MANAGEMENT INC.","e":"2029-01-30Z"},"geometry":{"type":"Polygon","coordinates":[[[-123.85762,49.57066],[-123.85137,49.57066],[-123.84512,49.57066],[-123.83887,49.57066],[-123.83262,49.57066],[-123.82637,49.57066],[-123.82637,49.5665],[-123.82637,49.56233],[-123.82012,49.56233],[-123.81387,49.56233],[-123.80762,49.56233],[-123.80137,49.56233],[-123.80137,49.55816],[-123.80762,49.55816],[-123.81387,49.55816],[-123.82012,49.55816],[-123.82637,49.55816],[-123.83262,49.55816],[-123.83887,49.55816],[-123.84512,49.55816],[-123.85137,49.55816],[-123.85762,49.55816],[-123.86387,49.55816],[-123.86387,49.56233],[-123.85762,49.56233],[-123.85762,49.56649],[-123.85762,49.57066]]]}},{"type":"Feature","properties":{"c":"503105","o":"BALLINTEER MANAGEMENT INC.","e":"2029-01-30Z"},"geometry":{"type":"Polygon","coordinates":[[[-123.85137,49.55816],[-123.84512,49.55816],[-123.83887,49.55816],[-123.83262,49.55816],[-123.82637,49.55816],[-123.82012,49.55816],[-123.81387,49.55816],[-123.80762,49.55816],[-123.80137,49.55816],[-123.79512,49.55816],[-123.79512,49.554],[-123.79512,49.54983],[-123.80137,49.54983],[-123.80762,49.54983],[-123.80762,49.54566],[-123.81387,49.54566],[-123.82012,49.54566],[-123.82637,49.54566],[-123.83262,49.54566],[-123.83887,49.54566],[-123.84512,49.54566],[-123.85137,49.54566],[-123.85137,49.54983],[-123.85137,49.55399],[-123.85137,49.55816]]]}},{"type":"Feature","properties":{"c":"503109","o":"BALLINTEER MANAGEMENT INC.","e":"2029-01-30Z"},"geometry":{"type":"Polygon","coordinates":[[[-123.86387,49.50816],[-123.85762,49.50816],[-123.85137,49.50816],[-123.84512,49.50816],[-123.83887,49.50816],[-123.83887,49.50399],[-123.83887,49.49983],[-123.83262,49.49983],[-123.82637,49.49983],[-123.82637,49.49566],[-123.82637,49.49149],[-123.83262,49.49149],[-123.83887,49.49149],[-123.84512,49.49149],[-123.85137,49.49149],[-123.85762,49.49149],[-123.85762,49.49566],[-123.86387,49.49566],[-123.86387,49.49983],[-123.86387,49.50399],[-123.86387,49.50816]]]}},{"type":"Feature","properties":{"c":"503112","o":"BALLINTEER MANAGEMENT INC.","e":"2029-01-30Z"},"geometry":{"type":"Polygon","coordinates":[[[-123.85137,49.52899],[-123.84512,49.52899],[-123.83887,49.52899],[-123.83887,49.52483],[-123.84512,49.52483],[-123.85137,49.52483],[-123.85762,49.52483],[-123.86387,49.52483],[-123.86387,49.52899],[-123.85762,49.52899],[-123.85137,49.52899]]]}},{"type":"Feature","properties":{"c":"503120","o":"BALLINTEER MANAGEMENT INC.","e":"2029-01-30Z"},"geometry":{"type":"Polygon","coordinates":[[[-123.92013,49.62899],[-123.91388,49.62899],[-123.90763,49.629],[-123.90138,49.629],[-123.89513,49.629],[-123.88888,49.629],[-123.88263,49.629],[-123.87638,49.629],[-123.87638,49.62483],[-123.87638,49.62066],[-123.87638,49.6165],[-123.87638,49.61233],[-123.88263,49.61233],[-123.88888,49.61233],[-123.89513,49.61233],[-123.90138,49.61233],[-123.90763,49.61233],[-123.91388,49.61233],[-123.92013,49.61233],[-123.92013,49.61649],[-123.92013,49.62066],[-123.92013,49.62483],[-123.92013,49.62899]]]}},{"type":"Feature","properties":{"c":"503124","o":"BALLINTEER MANAGEMENT INC.","e":"2029-01-30Z"},"geometry":{"type":"Polygon","coordinates":[[[-123.87637,49.57899],[-123.87012,49.579],[-123.86387,49.579],[-123.85762,49.579],[-123.85762,49.57483],[-123.85762,49.57066],[-123.85762,49.56649],[-123.85762,49.56233],[-123.86387,49.56233],[-123.87012,49.56233],[-123.87637,49.56233],[-123.87637,49.56649],[-123.87637,49.57066],[-123.87637,49.57483],[-123.87637,49.57899]]]}},{"type":"Feature","properties":{"c":"503225","o":"BALLINTEER MANAGEMENT INC.","e":"2029-01-30Z"},"geometry":{"type":"Polygon","coordinates":[[[-123.90763,49.61233],[-123.90138,49.61233],[-123.89513,49.61233],[-123.88888,49.61233],[-123.88263,49.61233],[-123.87638,49.61233],[-123.87638,49.60816],[-123.87638,49.604],[-123.87638,49.59983],[-123.87637,49.59566],[-123.87637,49.5915],[-123.87637,49.58733],[-123.87637,49.58316],[-123.88262,49.58316],[-123.88887,49.58316],[-123.89512,49.58316],[-123.90138,49.58316],[-123.90763,49.58316],[-123.90763,49.58733],[-123.90763,49.59149],[-123.90763,49.59566],[-123.90763,49.59983],[-123.90763,49.60399],[-123.90763,49.60816],[-123.90763,49.61233]]]}},{"type":"Feature","properties":{"c":"517003","o":"BALLINTEER MANAGEMENT INC.","e":"2029-01-30Z"},"geometry":{"type":"Polygon","coordinates":[[[-123.90763,49.58316],[-123.90138,49.58316],[-123.90137,49.57899],[-123.90137,49.57483],[-123.90137,49.57066],[-123.90137,49.56649],[-123.89512,49.56649],[-123.89512,49.56233],[-123.90137,49.56233],[-123.90762,49.56233],[-123.90762,49.56649],[-123.90762,49.57066],[-123.90762,49.57483],[-123.90763,49.57899],[-123.90763,49.58316]]]}},{"type":"Feature","properties":{"c":"517046","o":"BALLINTEER MANAGEMENT INC.","e":"2029-01-30Z"},"geometry":{"type":"Polygon","coordinates":[[[-123.87012,49.56233],[-123.86387,49.56233],[-123.86387,49.55816],[-123.85762,49.55816],[-123.85137,49.55816],[-123.85137,49.55399],[-123.85137,49.54983],[-123.85137,49.54566],[-123.84512,49.54566],[-123.83887,49.54566],[-123.83262,49.54566],[-123.82637,49.54566],[-123.82637,49.54149],[-123.82637,49.53733],[-123.82637,49.53316],[-123.82012,49.53316],[-123.81387,49.53316],[-123.80762,49.53316],[-123.80137,49.53316],[-123.79512,49.53316],[-123.78887,49.53316],[-123.78887,49.52899],[-123.79512,49.52899],[-123.80137,49.52899],[-123.80762,49.52899],[-123.81387,49.52899],[-123.82012,49.52899],[-123.82637,49.52899],[-123.83262,49.52899],[-123.83262,49.53316],[-123.83262,49.53733],[-123.83262,49.54149],[-123.83887,49.54149],[-123.84512,49.54149],[-123.85137,49.54149],[-123.85762,49.54149],[-123.85762,49.54566],[-123.85762,49.54983],[-123.85762,49.55399],[-123.86387,49.55399],[-123.87012,49.55399],[-123.87012,49.55816],[-123.87012,49.56233]]]}},{"type":"Feature","properties":{"c":"517079","o":"BALLINTEER MANAGEMENT INC.","e":"2029-01-30Z"},"geometry":{"type":"Polygon","coordinates":[[[-123.87638,49.59983],[-123.87012,49.59983],[-123.87012,49.59566],[-123.87012,49.5915],[-123.87012,49.58733],[-123.87012,49.58316],[-123.87012,49.579],[-123.87637,49.57899],[-123.87637,49.58316],[-123.87637,49.58733],[-123.87637,49.5915],[-123.87637,49.59566],[-123.87638,49.59983]]]}},{"type":"Feature","properties":{"c":"517112","o":"BALLINTEER MANAGEMENT INC.","e":"2029-01-30Z"},"geometry":{"type":"Polygon","coordinates":[[[-123.92013,49.61233],[-123.91388,49.61233],[-123.91388,49.60816],[-123.90763,49.60816],[-123.90763,49.60399],[-123.91388,49.60399],[-123.92013,49.60399],[-123.92013,49.60816],[-123.92013,49.61233]]]}},{"type":"Feature","properties":{"c":"517122","o":"BALLINTEER MANAGEMENT INC.","e":"2029-01-30Z"},"geometry":{"type":"Polygon","coordinates":[[[-123.88262,49.54566],[-123.87637,49.54566],[-123.87012,49.54566],[-123.86387,49.54566],[-123.85762,49.54566],[-123.85762,49.54149],[-123.86387,49.54149],[-123.87012,49.54149],[-123.87637,49.54149],[-123.88262,49.54149],[-123.88887,49.54149],[-123.89512,49.54149],[-123.89512,49.54566],[-123.88887,49.54566],[-123.88262,49.54566]]]}},{"type":"Feature","properties":{"c":"517144","o":"BALLINTEER MANAGEMENT INC.","e":"2029-01-30Z"},"geometry":{"type":"Polygon","coordinates":[[[-123.78887,49.51233],[-123.78887,49.50816],[-123.78887,49.50399],[-123.78887,49.49983],[-123.79512,49.49983],[-123.80137,49.49983],[-123.80137,49.50399],[-123.79512,49.50399],[-123.79512,49.50816],[-123.80137,49.50816],[-123.80137,49.51233],[-123.79512,49.51233],[-123.78887,49.51233]]]}},{"type":"Feature","properties":{"c":"524122","o":"BALLINTEER MANAGEMENT INC.","e":"2029-01-30Z"},"geometry":{"type":"Polygon","coordinates":[[[-123.89512,49.56649],[-123.88887,49.56649],[-123.88262,49.56649],[-123.87637,49.56649],[-123.87637,49.56233],[-123.87012,49.56233],[-123.87012,49.55816],[-123.87012,49.55399],[-123.87637,49.55399],[-123.88262,49.55399],[-123.88887,49.55399],[-123.89512,49.55399],[-123.89512,49.55816],[-123.89512,49.56233],[-123.89512,49.56649]]]}},{"type":"Feature","properties":{"c":"540006","o":"BALLINTEER MANAGEMENT INC.","e":"2029-01-30Z"},"geometry":{"type":"Polygon","coordinates":[[[-123.91388,49.60816],[-123.91388,49.61233],[-123.90763,49.61233],[-123.90763,49.60816],[-123.91388,49.60816]]]}},{"type":"Feature","properties":{"c":"540010","o":"BALLINTEER MANAGEMENT INC.","e":"2029-01-30Z"},"geometry":{"type":"Polygon","coordinates":[[[-123.90138,49.58316],[-123.89512,49.58316],[-123.88887,49.58316],[-123.88262,49.58316],[-123.87637,49.58316],[-123.87637,49.57899],[-123.87637,49.57483],[-123.87637,49.57066],[-123.87637,49.56649],[-123.88262,49.56649],[-123.88887,49.56649],[-123.89512,49.56649],[-123.90137,49.56649],[-123.90137,49.57066],[-123.90137,49.57483],[-123.90137,49.57899],[-123.90138,49.58316]]]}},{"type":"Feature","properties":{"c":"540017","o":"BALLINTEER MANAGEMENT INC.","e":"2029-01-30Z"},"geometry":{"type":"Polygon","coordinates":[[[-123.83262,49.52899],[-123.82637,49.52899],[-123.82012,49.52899],[-123.81387,49.52899],[-123.80762,49.52899],[-123.80137,49.52899],[-123.79512,49.52899],[-123.79512,49.52483],[-123.79512,49.52066],[-123.79512,49.51649],[-123.80137,49.51649],[-123.80762,49.51649],[-123.81387,49.51649],[-123.82012,49.51649],[-123.82637,49.51649],[-123.83262,49.51649],[-123.83262,49.52066],[-123.83262,49.52483],[-123.83262,49.52899]]]}},{"type":"Feature","properties":{"c":"540216","o":"BALLINTEER MANAGEMENT INC.","e":"2029-01-30Z"},"geometry":{"type":"Polygon","coordinates":[[[-123.80762,49.50399],[-123.80137,49.50399],[-123.80137,49.49983],[-123.80762,49.49983],[-123.80762,49.49566],[-123.81387,49.49566],[-123.81387,49.49983],[-123.82012,49.49983],[-123.82012,49.50399],[-123.81387,49.50399],[-123.80762,49.50399]]]}},{"type":"Feature","properties":{"c":"540217","o":"BALLINTEER MANAGEMENT INC.","e":"2029-01-30Z"},"geometry":{"type":"Polygon","coordinates":[[[-123.83262,49.51649],[-123.82637,49.51649],[-123.82012,49.51649],[-123.82012,49.51233],[-123.81387,49.51233],[-123.81387,49.51649],[-123.80762,49.51649],[-123.80137,49.51649],[-123.80137,49.51233],[-123.80137,49.50816],[-123.80137,49.50399],[-123.80762,49.50399],[-123.81387,49.50399],[-123.82012,49.50399],[-123.82637,49.50399],[-123.83262,49.50399],[-123.83262,49.50816],[-123.83262,49.51233],[-123.83262,49.51649]]]}},{"type":"Feature","properties":{"c":"540218","o":"BALLINTEER MANAGEMENT INC.","e":"2029-01-30Z"},"geometry":{"type":"Polygon","coordinates":[[[-123.80137,49.51233],[-123.80137,49.51649],[-123.79512,49.51649],[-123.79512,49.51233],[-123.80137,49.51233]]]}},{"type":"Feature","properties":{"c":"540219","o":"BALLINTEER MANAGEMENT INC.","e":"2029-01-30Z"},"geometry":{"type":"Polygon","coordinates":[[[-123.80137,49.50399],[-123.80137,49.50816],[-123.79512,49.50816],[-123.79512,49.50399],[-123.80137,49.50399]]]}},{"type":"Feature","properties":{"c":"545126","o":"BALLINTEER MANAGEMENT INC.","e":"2029-01-30Z"},"geometry":{"type":"Polygon","coordinates":[[[-123.98888,49.54566],[-123.98263,49.54566],[-123.98263,49.54149],[-123.98263,49.53732],[-123.98888,49.53732],[-123.98888,49.54149],[-123.98888,49.54566]]]}},{"type":"Feature","properties":{"c":"545127","o":"BALLINTEER MANAGEMENT INC.","e":"2029-01-30Z"},"geometry":{"type":"Polygon","coordinates":[[[-123.94513,49.56649],[-123.93888,49.56649],[-123.93262,49.56649],[-123.92637,49.56649],[-123.92012,49.56649],[-123.92012,49.56233],[-123.92012,49.55816],[-123.92012,49.55399],[-123.92012,49.54983],[-123.92012,49.54566],[-123.92012,49.54149],[-123.92012,49.53733],[-123.92012,49.53316],[-123.92637,49.53316],[-123.93262,49.53316],[-123.93887,49.53316],[-123.94512,49.53316],[-123.94512,49.53733],[-123.94512,49.54149],[-123.94512,49.54566],[-123.94512,49.54983],[-123.94512,49.55399],[-123.94512,49.55816],[-123.94513,49.56233],[-123.94513,49.56649]]]}},{"type":"Feature","properties":{"c":"545130","o":"BALLINTEER MANAGEMENT INC.","e":"2029-01-30Z"},"geometry":{"type":"Polygon","coordinates":[[[-123.91388,49.63316],[-123.90763,49.63316],[-123.90138,49.63316],[-123.89513,49.63316],[-123.88888,49.63316],[-123.88888,49.63733],[-123.88888,49.6415],[-123.88263,49.6415],[-123.87638,49.6415],[-123.87013,49.6415],[-123.86388,49.6415],[-123.85763,49.6415],[-123.85138,49.6415],[-123.84513,49.6415],[-123.84513,49.63733],[-123.84513,49.63316],[-123.84513,49.629],[-123.85138,49.629],[-123.85763,49.629],[-123.86388,49.629],[-123.87013,49.629],[-123.87638,49.629],[-123.88263,49.629],[-123.88888,49.629],[-123.89513,49.629],[-123.90138,49.629],[-123.90763,49.629],[-123.91388,49.62899],[-123.92013,49.62899],[-123.92638,49.62899],[-123.92638,49.63316],[-123.92013,49.63316],[-123.91388,49.63316]]]}},{"type":"Feature","properties":{"c":"545131","o":"BALLINTEER MANAGEMENT INC.","e":"2029-01-30Z"},"geometry":{"type":"Polygon","coordinates":[[[-123.87638,49.629],[-123.87013,49.629],[-123.86388,49.629],[-123.85763,49.629],[-123.85138,49.629],[-123.84513,49.629],[-123.83888,49.629],[-123.83888,49.62483],[-123.83887,49.62066],[-123.83262,49.62066],[-123.83262,49.6165],[-123.83262,49.61233],[-123.83887,49.61233],[-123.84512,49.61233],[-123.85137,49.61233],[-123.85763,49.61233],[-123.86388,49.61233],[-123.87013,49.61233],[-123.87638,49.61233],[-123.87638,49.6165],[-123.87638,49.62066],[-123.87638,49.62483],[-123.87638,49.629]]]}},{"type":"Feature","properties":{"c":"545132","o":"BALLINTEER MANAGEMENT INC.","e":"2029-01-30Z"},"geometry":{"type":"Polygon","coordinates":[[[-123.87638,49.61233],[-123.87013,49.61233],[-123.86388,49.61233],[-123.85763,49.61233],[-123.85137,49.61233],[-123.84512,49.61233],[-123.83887,49.61233],[-123.83262,49.61233],[-123.82637,49.61233],[-123.82637,49.60816],[-123.82637,49.604],[-123.82637,49.59983],[-123.83262,49.59983],[-123.83887,49.59983],[-123.84512,49.59983],[-123.85137,49.59983],[-123.85762,49.59983],[-123.86387,49.59983],[-123.87012,49.59983],[-123.87638,49.59983],[-123.87638,49.604],[-123.87638,49.60816],[-123.87638,49.61233]]]}},{"type":"Feature","properties":{"c":"545134","o":"BALLINTEER MANAGEMENT INC.","e":"2029-01-30Z"},"geometry":{"type":"Polygon","coordinates":[[[-123.82637,49.60816],[-123.82012,49.60816],[-123.81387,49.60816],[-123.81387,49.604],[-123.81387,49.59983],[-123.81387,49.59566],[-123.81387,49.5915],[-123.81387,49.58733],[-123.82012,49.58733],[-123.82637,49.58733],[-123.82637,49.5915],[-123.82637,49.59566],[-123.82637,49.59983],[-123.82637,49.604],[-123.82637,49.60816]]]}},{"type":"Feature","properties":{"c":"545135","o":"BALLINTEER MANAGEMENT INC.","e":"2029-01-30Z"},"geometry":{"type":"Polygon","coordinates":[[[-123.82637,49.54566],[-123.82012,49.54566],[-123.81387,49.54566],[-123.80762,49.54566],[-123.80762,49.54983],[-123.80137,49.54983],[-123.79512,49.54983],[-123.78887,49.54983],[-123.78887,49.54566],[-123.79512,49.54566],[-123.79512,49.5415],[-123.78887,49.5415],[-123.78887,49.53733],[-123.78887,49.53316],[-123.79512,49.53316],[-123.80137,49.53316],[-123.80762,49.53316],[-123.81387,49.53316],[-123.82012,49.53316],[-123.82637,49.53316],[-123.82637,49.53733],[-123.82637,49.54149],[-123.82637,49.54566]]]}},{"type":"Feature","properties":{"c":"545136","o":"BALLINTEER MANAGEMENT INC.","e":"2029-01-30Z"},"geometry":{"type":"Polygon","coordinates":[[[-123.86387,49.54149],[-123.85762,49.54149],[-123.85762,49.53733],[-123.85762,49.53316],[-123.85137,49.53316],[-123.84512,49.53316],[-123.83887,49.53316],[-123.83262,49.53316],[-123.83262,49.52899],[-123.83262,49.52483],[-123.83262,49.52066],[-123.83262,49.51649],[-123.83262,49.51233],[-123.83262,49.50816],[-123.83262,49.50399],[-123.82637,49.50399],[-123.82012,49.50399],[-123.82012,49.49983],[-123.81387,49.49983],[-123.81387,49.49566],[-123.80762,49.49566],[-123.80762,49.49983],[-123.80137,49.49983],[-123.79512,49.49983],[-123.79512,49.49566],[-123.80137,49.49566],[-123.80137,49.49149],[-123.80762,49.49149],[-123.81387,49.49149],[-123.82012,49.49149],[-123.82637,49.49149],[-123.82637,49.49566],[-123.82637,49.49983],[-123.83262,49.49983],[-123.83887,49.49983],[-123.83887,49.50399],[-123.83887,49.50816],[-123.83887,49.51233],[-123.83887,49.51649],[-123.83887,49.52066],[-123.83887,49.52483],[-123.83887,49.52899],[-123.84512,49.52899],[-123.85137,49.52899],[-123.85762,49.52899],[-123.86387,49.52899],[-123.86387,49.53316],[-123.86387,49.53733],[-123.86387,49.54149]]]}},{"type":"Feature","properties":{"c":"545137","o":"BALLINTEER MANAGEMENT INC.","e":"2029-01-30Z"},"geometry":{"type":"Polygon","coordinates":[[[-123.97012,49.54149],[-123.96387,49.54149],[-123.95762,49.54149],[-123.95762,49.54566],[-123.95762,49.54983],[-123.95763,49.55399],[-123.95763,49.55816],[-123.95763,49.56233],[-123.95763,49.56649],[-123.95138,49.56649],[-123.95138,49.56233],[-123.94513,49.56233],[-123.94512,49.55816],[-123.94512,49.55399],[-123.94512,49.54983],[-123.94512,49.54566],[-123.94512,49.54149],[-123.94512,49.53733],[-123.95137,49.53733],[-123.95762,49.53733],[-123.96387,49.53733],[-123.97012,49.53733],[-123.97637,49.53732],[-123.98263,49.53732],[-123.98263,49.54149],[-123.97638,49.54149],[-123.97012,49.54149]]]}},{"type":"Feature","properties":{"c":"545138","o":"BALLINTEER MANAGEMENT INC.","e":"2029-01-30Z"},"geometry":{"type":"Polygon","coordinates":[[[-123.93888,49.59983],[-123.93263,49.59983],[-123.92638,49.59983],[-123.92013,49.59983],[-123.91388,49.59983],[-123.90763,49.59983],[-123.90763,49.59566],[-123.90763,49.59149],[-123.90763,49.58733],[-123.90763,49.58316],[-123.91388,49.58316],[-123.92013,49.58316],[-123.92638,49.58316],[-123.93263,49.58316],[-123.93888,49.58316],[-123.93888,49.58733],[-123.93888,49.59149],[-123.93888,49.59566],[-123.93888,49.59983]]]}},{"type":"Feature","properties":{"c":"391695","o":"BALLINTEER MANAGEMENT INC.","e":"2027-05-29Z"},"geometry":{"type":"Polygon","coordinates":[[[-123.81608,49.51048],[-123.81669,49.50912],[-123.81869,49.5095],[-123.81871,49.5095],[-123.81878,49.50921],[-123.81923,49.50721],[-123.82548,49.50782],[-123.82461,49.51159],[-123.82439,49.51156],[-123.82099,49.51123],[-123.82086,49.51152],[-123.82062,49.51203],[-123.82054,49.51213],[-123.81993,49.51289],[-123.81949,49.51344],[-123.82178,49.51423],[-123.82314,49.51525],[-123.82274,49.51547],[-123.82132,49.51627],[-123.82141,49.51632],[-123.82242,49.51684],[-123.82461,49.51796],[-123.82069,49.5212],[-123.82052,49.5211],[-123.81679,49.5192],[-123.81467,49.51811],[-123.81083,49.51615],[-123.81074,49.51611],[-123.81313,49.51412],[-123.81608,49.51048]]]}},{"type":"Feature","properties":{"c":"411733","o":"LARUE, JOHN PAUL","e":"2030-12-31Z"},"geometry":{"type":"Polygon","coordinates":[[[-123.96781,49.74893],[-123.9697,49.74983],[-123.97005,49.75],[-123.97341,49.75159],[-123.9693,49.75522],[-123.96371,49.75256],[-123.9668,49.74983],[-123.96781,49.74893]]]}},{"type":"Feature","properties":{"c":"411734","o":"LARUE, JOHN PAUL","e":"2030-12-31Z"},"geometry":{"type":"Polygon","coordinates":[[[-123.97588,49.74942],[-123.97674,49.74983],[-123.98147,49.75208],[-123.97901,49.75425],[-123.979,49.75425],[-123.97341,49.75159],[-123.97541,49.74983],[-123.97588,49.74942]]]}},{"type":"Feature","properties":{"c":"411732","o":"LARUE, JOHN PAUL","e":"2030-12-31Z"},"geometry":{"type":"Polygon","coordinates":[[[-123.9749,49.75788],[-123.9693,49.75522],[-123.97341,49.75159],[-123.979,49.75425],[-123.9749,49.75788]]]}},{"type":"Feature","properties":{"c":"411735","o":"LARUE, JOHN PAUL","e":"2030-12-31Z"},"geometry":{"type":"Polygon","coordinates":[[[-123.97249,49.74782],[-123.97586,49.74941],[-123.97539,49.74983],[-123.97341,49.75159],[-123.97004,49.75],[-123.97005,49.75],[-123.97024,49.74983],[-123.97249,49.74782]]]}},{"type":"Feature","properties":{"c":"509640","o":"AMRIZE CANADA INC.","e":"2026-10-26Z"},"geometry":{"type":"Polygon","coordinates":[[[-123.89513,49.75399],[-123.88888,49.75399],[-123.88263,49.75399],[-123.88263,49.74983],[-123.88263,49.74566],[-123.88263,49.74149],[-123.87638,49.74149],[-123.87013,49.74149],[-123.87013,49.73733],[-123.87013,49.73316],[-123.87638,49.73316],[-123.88263,49.73316],[-123.88888,49.73316],[-123.88888,49.73733],[-123.89513,49.73733],[-123.89513,49.74149],[-123.89513,49.74566],[-123.89513,49.74983],[-123.89513,49.75399]]]}},{"type":"Feature","properties":{"c":"1119859","o":"HALVORSON, ELAINE MELODY","e":"2027-02-03Z"},"geometry":{"type":"Polygon","coordinates":[[[-123.89512,49.55399],[-123.88887,49.55399],[-123.88262,49.55399],[-123.87637,49.55399],[-123.87012,49.55399],[-123.86387,49.55399],[-123.85762,49.55399],[-123.85762,49.54983],[-123.85762,49.54566],[-123.86387,49.54566],[-123.87012,49.54566],[-123.87637,49.54566],[-123.88262,49.54566],[-123.88887,49.54566],[-123.89512,49.54566],[-123.89512,49.54983],[-123.89512,49.55399]]]}},{"type":"Feature","properties":{"c":"1133988","o":"SHEARER, JOHAN THOM","e":"2027-06-08Z"},"geometry":{"type":"Polygon","coordinates":[[[-123.83262,49.53733],[-123.83262,49.53316],[-123.83887,49.53316],[-123.84512,49.53316],[-123.84512,49.53733],[-123.83887,49.53733],[-123.83262,49.53733]]]}},{"type":"Feature","properties":{"c":"1136456","o":"ASIABASEMETALS INC.","e":"2027-07-22Z"},"geometry":{"type":"MultiPolygon","coordinates":[[[[-123.87639,49.84149],[-123.87639,49.84566],[-123.87639,49.84983],[-123.87639,49.85399],[-123.87639,49.85816],[-123.87639,49.86233],[-123.87014,49.86233],[-123.86389,49.86233],[-123.86389,49.85816],[-123.85764,49.85816],[-123.85764,49.85399],[-123.85139,49.85399],[-123.85139,49.84983],[-123.84514,49.84983],[-123.84514,49.84566],[-123.83889,49.84566],[-123.83889,49.84149],[-123.83264,49.84149],[-123.82639,49.84149],[-123.82639,49.83733],[-123.82014,49.83733],[-123.82014,49.83316],[-123.82014,49.829],[-123.82014,49.82483],[-123.82014,49.82066],[-123.82639,49.82066],[-123.83264,49.82066],[-123.83889,49.82066],[-123.84514,49.82066],[-123.84514,49.82483],[-123.85139,49.82483],[-123.85139,49.82899],[-123.85139,49.83316],[-123.85764,49.83316],[-123.86389,49.83316],[-123.86389,49.83733],[-123.87014,49.83733],[-123.87014,49.84149],[-123.87639,49.84149]],[[-123.86389,49.84149],[-123.85764,49.84149],[-123.85764,49.83733],[-123.85139,49.83733],[-123.85139,49.84149],[-123.85139,49.84566],[-123.85764,49.84566],[-123.86389,49.84566],[-123.86389,49.84983],[-123.87014,49.84983],[-123.87014,49.84566],[-123.87014,49.84149],[-123.86389,49.84149]]]]}},{"type":"Feature","properties":{"c":"1122847","o":"MUYSHONDT, MICHAEL JEFFREY","e":"2030-10-01Z"},"geometry":{"type":"Polygon","coordinates":[[[-123.90137,49.51649],[-123.89512,49.51649],[-123.89512,49.51233],[-123.89512,49.50816],[-123.90137,49.50816],[-123.90137,49.51233],[-123.90137,49.51649]]]}},{"type":"Feature","properties":{"c":"1127469","o":"LARUE, JOHN PAUL","e":"2029-12-20Z"},"geometry":{"type":"MultiPolygon","coordinates":[[[[-124.00764,49.75399],[-124.00139,49.75399],[-123.99514,49.75399],[-123.98889,49.75399],[-123.98889,49.75816],[-123.98889,49.76233],[-123.98264,49.76233],[-123.98264,49.76649],[-123.97639,49.76649],[-123.97014,49.76649],[-123.96389,49.76649],[-123.95764,49.76649],[-123.95764,49.76233],[-123.95139,49.76233],[-123.94514,49.76233],[-123.94513,49.75816],[-123.93888,49.75816],[-123.93888,49.75399],[-123.93888,49.74983],[-123.93888,49.74566],[-123.94513,49.74566],[-123.95138,49.74566],[-123.95763,49.74566],[-123.96388,49.74566],[-123.97013,49.74566],[-123.97638,49.74566],[-123.97638,49.74149],[-123.98263,49.74149],[-123.98888,49.74149],[-123.99514,49.74149],[-124.00139,49.74149],[-124.00764,49.74149],[-124.00764,49.74566],[-124.00764,49.74983],[-124.00764,49.75399]],[[-123.97638,49.74983],[-123.97013,49.74983],[-123.97014,49.75399],[-123.97639,49.75399],[-123.97638,49.74983]]]]}},{"type":"Feature","properties":{"c":"1128088","o":"ASIABASEMETALS INC.","e":"2026-12-05Z"},"geometry":{"type":"Polygon","coordinates":[[[-123.87014,49.84983],[-123.86389,49.84983],[-123.86389,49.84566],[-123.85764,49.84566],[-123.85139,49.84566],[-123.85139,49.84149],[-123.85139,49.83733],[-123.85764,49.83733],[-123.85764,49.84149],[-123.86389,49.84149],[-123.87014,49.84149],[-123.87014,49.84566],[-123.87014,49.84983]]]}},{"type":"Feature","properties":{"c":"1134412","o":"HALVORSON, ELAINE MELODY","e":"2027-06-16Z"},"geometry":{"type":"Polygon","coordinates":[[[-123.85762,49.54149],[-123.85137,49.54149],[-123.84512,49.54149],[-123.83887,49.54149],[-123.83262,49.54149],[-123.83262,49.53733],[-123.83887,49.53733],[-123.84512,49.53733],[-123.84512,49.53316],[-123.85137,49.53316],[-123.85762,49.53316],[-123.85762,49.53733],[-123.85762,49.54149]]]}}]}