{"type":"FeatureCollection","features":[{"type":"Feature","properties":{"c":"1067846","o":"BERNIOLLES, FRANCOIS GUILLAUME","e":"2030-04-11Z"},"geometry":{"type":"Polygon","coordinates":[[[-124.37655,51.70405],[-124.37655,51.70821],[-124.3703,51.70821],[-124.3703,51.70405],[-124.37655,51.70405]]]}},{"type":"Feature","properties":{"c":"1055183","o":"BERNIOLLES, FRANCOIS GUILLAUME","e":"2029-09-28Z"},"geometry":{"type":"Polygon","coordinates":[[[-124.3828,51.70405],[-124.37655,51.70405],[-124.3703,51.70405],[-124.3703,51.69988],[-124.37655,51.69988],[-124.37655,51.69571],[-124.3828,51.69571],[-124.38905,51.69571],[-124.38905,51.69988],[-124.3828,51.69988],[-124.3828,51.70405]]]}},{"type":"Feature","properties":{"c":"1062341","o":"BERNIOLLES, FRANCOIS GUILLAUME","e":"2029-08-13Z"},"geometry":{"type":"Polygon","coordinates":[[[-124.3953,51.69571],[-124.3953,51.69988],[-124.38905,51.69988],[-124.38905,51.69571],[-124.3953,51.69571]]]}},{"type":"Feature","properties":{"c":"1086543","o":"BERNIOLLES, FRANCOIS GUILLAUME","e":"2026-12-20Z"},"geometry":{"type":"Polygon","coordinates":[[[-124.3953,51.69155],[-124.3953,51.69571],[-124.38905,51.69571],[-124.38905,51.69155],[-124.3953,51.69155]]]}},{"type":"Feature","properties":{"c":"1091044","o":"BERNIOLLES, FRANCOIS GUILLAUME","e":"2027-01-26Z"},"geometry":{"type":"Polygon","coordinates":[[[-124.38905,51.69155],[-124.38905,51.69571],[-124.3828,51.69571],[-124.3828,51.69155],[-124.38905,51.69155]]]}},{"type":"Feature","properties":{"c":"1119490","o":"BERNIOLLES, FRANCOIS GUILLAUME","e":"2027-01-27Z"},"geometry":{"type":"Polygon","coordinates":[[[-124.38905,51.68738],[-124.38905,51.69155],[-124.3828,51.69155],[-124.3828,51.68738],[-124.38905,51.68738]]]}}]}