{"type":"FeatureCollection","features":[{"type":"Feature","properties":{"c":"526811","o":"ECSTALL MINING CORPORATION","e":"2035-01-10Z"},"geometry":{"type":"Polygon","coordinates":[[[-124.98285,57.51233],[-124.9766,57.51233],[-124.97035,57.51233],[-124.9641,57.51233],[-124.95785,57.51233],[-124.9516,57.51233],[-124.9516,57.50816],[-124.9516,57.50399],[-124.9516,57.49983],[-124.9516,57.49566],[-124.95785,57.49566],[-124.9641,57.49566],[-124.97035,57.49566],[-124.9766,57.49566],[-124.98285,57.49566],[-124.98285,57.49983],[-124.98285,57.50399],[-124.98285,57.50816],[-124.9891,57.50816],[-124.99535,57.50816],[-124.99535,57.51233],[-124.9891,57.51233],[-124.98285,57.51233]]]}},{"type":"Feature","properties":{"c":"525682","o":"ECSTALL MINING CORPORATION","e":"2035-01-10Z"},"geometry":{"type":"Polygon","coordinates":[[[-125.0266,57.51233],[-125.02035,57.51233],[-125.0141,57.51233],[-125.00785,57.51233],[-125.0016,57.51233],[-124.99535,57.51233],[-124.99535,57.50816],[-124.9891,57.50816],[-124.98285,57.50816],[-124.98285,57.50399],[-124.98285,57.49983],[-124.98285,57.49566],[-124.9891,57.49566],[-124.99535,57.49566],[-125.0016,57.49566],[-125.00785,57.49566],[-125.01411,57.49566],[-125.02036,57.49566],[-125.02036,57.49983],[-125.02661,57.49983],[-125.02661,57.50399],[-125.0266,57.50816],[-125.0266,57.51233]]]}}]}