{"type":"FeatureCollection","features":[{"type":"Feature","properties":{"c":"232484","o":"ZYROX MINING COMPANY LTD.","e":"2033-08-30Z"},"geometry":{"type":"Polygon","coordinates":[[[-124.60376,49.77526],[-124.61003,49.77588],[-124.60945,49.77838],[-124.6094,49.77859],[-124.60908,49.77995],[-124.60907,49.77995],[-124.6028,49.77933],[-124.60376,49.77526]]]}},{"type":"Feature","properties":{"c":"232518","o":"ZYROX MINING COMPANY LTD.","e":"2033-08-30Z"},"geometry":{"type":"MultiPolygon","coordinates":[[[[-124.57231,49.76397],[-124.57245,49.7639],[-124.57256,49.76396],[-124.57275,49.76391],[-124.57295,49.76379],[-124.57299,49.76367],[-124.5731,49.76362],[-124.57328,49.76358],[-124.57328,49.76355],[-124.57338,49.76353],[-124.57383,49.7635],[-124.57396,49.76348],[-124.57413,49.76338],[-124.57416,49.76333],[-124.57413,49.76327],[-124.57409,49.76327],[-124.57405,49.76323],[-124.57405,49.76319],[-124.57407,49.76316],[-124.57438,49.76315],[-124.57452,49.76316],[-124.57485,49.76331],[-124.57503,49.7635],[-124.57522,49.76359],[-124.57556,49.76367],[-124.57591,49.7637],[-124.57619,49.76376],[-124.57644,49.76387],[-124.57671,49.76391],[-124.57676,49.7639],[-124.57676,49.76385],[-124.57672,49.76382],[-124.57667,49.76364],[-124.57668,49.76361],[-124.57679,49.76357],[-124.57703,49.76356],[-124.57707,49.76357],[-124.57714,49.76357],[-124.57741,49.76363],[-124.57774,49.76377],[-124.57797,49.7639],[-124.57829,49.76405],[-124.57848,49.76417],[-124.57856,49.76418],[-124.57874,49.76409],[-124.57886,49.76396],[-124.57886,49.76391],[-124.57879,49.76386],[-124.57863,49.7638],[-124.57848,49.76371],[-124.57822,49.76362],[-124.57807,49.7636],[-124.57783,49.76345],[-124.5777,49.76334],[-124.57765,49.76313],[-124.57761,49.76306],[-124.57849,49.76307],[-124.57963,49.76427],[-124.5776,49.76544],[-124.57514,49.767],[-124.57481,49.76675],[-124.57525,49.76647],[-124.57201,49.76437],[-124.57231,49.76397]]]]}},{"type":"Feature","properties":{"c":"231616","o":"LHOIST NORTH AMERICA OF CANADA, INC.","e":"2026-11-18Z"},"geometry":{"type":"Polygon","coordinates":[[[-124.50484,49.74006],[-124.50665,49.73672],[-124.51263,49.73808],[-124.51053,49.74196],[-124.50454,49.7406],[-124.50484,49.74006]]]}},{"type":"Feature","properties":{"c":"231705","o":"LHOIST NORTH AMERICA OF CANADA, INC.","e":"2026-11-18Z"},"geometry":{"type":"Polygon","coordinates":[[[-124.51694,49.72972],[-124.51684,49.72858],[-124.51746,49.72854],[-124.5238,49.72848],[-124.52389,49.73259],[-124.51868,49.73248],[-124.51705,49.73253],[-124.51694,49.72972]]]}},{"type":"Feature","properties":{"c":"231600","o":"LHOIST NORTH AMERICA OF CANADA, INC.","e":"2026-11-18Z"},"geometry":{"type":"Polygon","coordinates":[[[-124.51263,49.73808],[-124.51461,49.73433],[-124.51886,49.73535],[-124.51889,49.73595],[-124.5174,49.73529],[-124.51739,49.7353],[-124.51665,49.73601],[-124.51646,49.73785],[-124.51897,49.73846],[-124.51842,49.7394],[-124.51263,49.73808]]]}},{"type":"Feature","properties":{"c":"400122","o":"ZYROX MINING COMPANY LTD.","e":"2033-08-30Z"},"geometry":{"type":"Polygon","coordinates":[[[-124.59082,49.77709],[-124.59685,49.77733],[-124.59652,49.77871],[-124.59072,49.77813],[-124.59082,49.77709]]]}},{"type":"Feature","properties":{"c":"232558","o":"ZYROX MINING COMPANY LTD.","e":"2033-08-30Z"},"geometry":{"type":"Polygon","coordinates":[[[-124.58391,49.76483],[-124.58699,49.76521],[-124.58981,49.76556],[-124.58865,49.76947],[-124.58284,49.76878],[-124.58311,49.76776],[-124.58391,49.76483]]]}},{"type":"Feature","properties":{"c":"232560","o":"ZYROX MINING COMPANY LTD.","e":"2033-08-30Z"},"geometry":{"type":"Polygon","coordinates":[[[-124.58161,49.773],[-124.58284,49.76878],[-124.58865,49.76947],[-124.58742,49.77357],[-124.58544,49.7734],[-124.58423,49.77327],[-124.58161,49.773]]]}},{"type":"Feature","properties":{"c":"314112","o":"IMPERIAL LIMESTONE COMPANY LIMITED","e":"2027-04-08Z"},"geometry":{"type":"Polygon","coordinates":[[[-124.53244,49.73911],[-124.5309,49.73893],[-124.53018,49.74123],[-124.52678,49.74126],[-124.52676,49.74119],[-124.52778,49.73973],[-124.52846,49.73874],[-124.52881,49.73825],[-124.52888,49.73815],[-124.52924,49.73763],[-124.53145,49.73764],[-124.53244,49.73911]]]}},{"type":"Feature","properties":{"c":"232492","o":"ZYROX MINING COMPANY LTD.","e":"2033-08-30Z"},"geometry":{"type":"Polygon","coordinates":[[[-124.60436,49.79999],[-124.60387,49.79995],[-124.60479,49.79588],[-124.60563,49.79596],[-124.60565,49.79596],[-124.60582,49.79739],[-124.61093,49.7971],[-124.61045,49.79926],[-124.61,49.79948],[-124.60972,49.79968],[-124.60938,49.79995],[-124.60896,49.80012],[-124.60827,49.80036],[-124.60436,49.79999]]]}},{"type":"Feature","properties":{"c":"232493","o":"ZYROX MINING COMPANY LTD.","e":"2033-08-30Z"},"geometry":{"type":"Polygon","coordinates":[[[-124.59917,49.79947],[-124.59911,49.79911],[-124.59912,49.79905],[-124.59918,49.79901],[-124.59937,49.79898],[-124.59943,49.79893],[-124.59947,49.79852],[-124.59944,49.79849],[-124.59929,49.7985],[-124.59926,49.79847],[-124.59922,49.7983],[-124.59925,49.79822],[-124.59936,49.7981],[-124.5994,49.79809],[-124.59942,49.79787],[-124.59948,49.79776],[-124.59978,49.79755],[-124.6,49.79738],[-124.60012,49.79725],[-124.60012,49.79717],[-124.6,49.79711],[-124.59973,49.79692],[-124.59937,49.79672],[-124.59916,49.79649],[-124.59913,49.79642],[-124.59902,49.79628],[-124.59867,49.79598],[-124.59866,49.79593],[-124.59873,49.79588],[-124.59889,49.79582],[-124.59896,49.79568],[-124.59874,49.79545],[-124.59875,49.79531],[-124.60479,49.79588],[-124.60387,49.79995],[-124.5992,49.79951],[-124.59917,49.79947]]]}},{"type":"Feature","properties":{"c":"232488","o":"ZYROX MINING COMPANY LTD.","e":"2033-08-30Z"},"geometry":{"type":"Polygon","coordinates":[[[-124.60812,49.78401],[-124.60184,49.78339],[-124.6028,49.77933],[-124.60907,49.77995],[-124.60908,49.77995],[-124.60843,49.78272],[-124.60812,49.78401]]]}},{"type":"Feature","properties":{"c":"232556","o":"ZYROX MINING COMPANY LTD.","e":"2033-08-30Z"},"geometry":{"type":"Polygon","coordinates":[[[-124.58671,49.76094],[-124.59235,49.76159],[-124.59112,49.76571],[-124.58981,49.76556],[-124.58699,49.76521],[-124.58547,49.76501],[-124.58601,49.76322],[-124.58671,49.76094]]]}},{"type":"Feature","properties":{"c":"232490","o":"ZYROX MINING COMPANY LTD.","e":"2033-08-30Z"},"geometry":{"type":"Polygon","coordinates":[[[-124.60154,49.79168],[-124.60621,49.79214],[-124.60627,49.79186],[-124.60689,49.79192],[-124.60682,49.79202],[-124.60762,49.79216],[-124.60761,49.79221],[-124.60745,49.79317],[-124.60527,49.7933],[-124.60565,49.79596],[-124.60563,49.79596],[-124.60479,49.79588],[-124.60068,49.79549],[-124.60154,49.79168]]]}},{"type":"Feature","properties":{"c":"232563","o":"ZYROX MINING COMPANY LTD.","e":"2033-08-30Z"},"geometry":{"type":"Polygon","coordinates":[[[-124.58742,49.77357],[-124.58865,49.76947],[-124.59481,49.77026],[-124.59386,49.77338],[-124.59363,49.77428],[-124.5917,49.77408],[-124.59112,49.77401],[-124.58742,49.77357]]]}},{"type":"Feature","properties":{"c":"232570","o":"ZYROX MINING COMPANY LTD.","e":"2033-08-30Z"},"geometry":{"type":"Polygon","coordinates":[[[-124.58985,49.75537],[-124.59009,49.75474],[-124.59102,49.75413],[-124.59567,49.75462],[-124.5948,49.75765],[-124.59358,49.75753],[-124.58927,49.75693],[-124.58985,49.75537]]]}},{"type":"Feature","properties":{"c":"230429","o":"ZYROX MINING COMPANY LTD.","e":"2033-08-30Z"},"geometry":{"type":"Polygon","coordinates":[[[-124.61029,49.78679],[-124.6162,49.78814],[-124.61407,49.79202],[-124.61388,49.79238],[-124.61078,49.79165],[-124.61098,49.79131],[-124.61246,49.78873],[-124.60954,49.78804],[-124.6099,49.78744],[-124.61029,49.78679]]]}},{"type":"Feature","properties":{"c":"314317","o":"ZYROX MINING COMPANY LTD.","e":"2033-08-30Z"},"geometry":{"type":"Polygon","coordinates":[[[-124.62285,49.7934],[-124.6205,49.79315],[-124.62004,49.7931],[-124.62208,49.78972],[-124.61843,49.78875],[-124.61843,49.78874],[-124.61852,49.78841],[-124.62538,49.78911],[-124.62428,49.79355],[-124.62285,49.7934]]]}},{"type":"Feature","properties":{"c":"232519","o":"ZYROX MINING COMPANY LTD.","e":"2033-08-30Z"},"geometry":{"type":"Polygon","coordinates":[[[-124.58985,49.75537],[-124.58902,49.75757],[-124.58606,49.7571],[-124.58573,49.75705],[-124.58556,49.75751],[-124.58269,49.75706],[-124.58304,49.75613],[-124.58353,49.75483],[-124.58393,49.75377],[-124.58484,49.75391],[-124.58915,49.75459],[-124.59009,49.75474],[-124.58985,49.75537]]]}},{"type":"Feature","properties":{"c":"314316","o":"ZYROX MINING COMPANY LTD.","e":"2033-08-30Z"},"geometry":{"type":"Polygon","coordinates":[[[-124.62636,49.78922],[-124.6204,49.78857],[-124.62155,49.78414],[-124.6284,49.78488],[-124.62725,49.78931],[-124.62636,49.78922]]]}},{"type":"Feature","properties":{"c":"232553","o":"ZYROX MINING COMPANY LTD.","e":"2033-08-30Z"},"geometry":{"type":"Polygon","coordinates":[[[-124.61042,49.77424],[-124.61077,49.7743],[-124.61572,49.77489],[-124.61705,49.77124],[-124.61818,49.77137],[-124.61818,49.77138],[-124.61689,49.7754],[-124.61067,49.77456],[-124.60945,49.77838],[-124.60938,49.77859],[-124.61003,49.77588],[-124.61042,49.77424]]]}},{"type":"Feature","properties":{"c":"231599","o":"LHOIST NORTH AMERICA OF CANADA, INC.","e":"2026-11-18Z"},"geometry":{"type":"Polygon","coordinates":[[[-124.51842,49.7394],[-124.51675,49.74231],[-124.51721,49.74203],[-124.51652,49.74332],[-124.51053,49.74196],[-124.51263,49.73808],[-124.51842,49.7394]]]}},{"type":"Feature","properties":{"c":"232387","o":"LHOIST NORTH AMERICA OF CANADA, INC.","e":"2026-11-18Z"},"geometry":{"type":"Polygon","coordinates":[[[-124.51158,49.73006],[-124.51158,49.72997],[-124.51173,49.73001],[-124.51345,49.73037],[-124.51331,49.7307],[-124.5142,49.73069],[-124.51436,49.73169],[-124.51161,49.73171],[-124.51158,49.73006]]]}},{"type":"Feature","properties":{"c":"231706","o":"LHOIST NORTH AMERICA OF CANADA, INC.","e":"2026-11-18Z"},"geometry":{"type":"Polygon","coordinates":[[[-124.5238,49.72848],[-124.53014,49.72843],[-124.53002,49.73251],[-124.5294,49.73268],[-124.52394,49.73254],[-124.5238,49.72848]]]}},{"type":"Feature","properties":{"c":"230264","o":"LHOIST NORTH AMERICA OF CANADA, INC.","e":"2026-11-18Z"},"geometry":{"type":"Polygon","coordinates":[[[-124.51792,49.74424],[-124.51793,49.74633],[-124.51613,49.74524],[-124.51279,49.74752],[-124.51279,49.74751],[-124.51247,49.74747],[-124.51229,49.7475],[-124.51197,49.7475],[-124.51187,49.74748],[-124.51147,49.74728],[-124.51141,49.74722],[-124.51144,49.747],[-124.51143,49.74697],[-124.51134,49.74694],[-124.51133,49.74687],[-124.51137,49.74679],[-124.51137,49.74677],[-124.51156,49.74662],[-124.51173,49.74642],[-124.51173,49.7463],[-124.5117,49.74626],[-124.51154,49.74621],[-124.51151,49.74618],[-124.51151,49.74607],[-124.51188,49.74584],[-124.51201,49.74561],[-124.51204,49.74524],[-124.51202,49.74516],[-124.51176,49.74505],[-124.51163,49.74498],[-124.5116,49.74491],[-124.51173,49.7447],[-124.51202,49.74458],[-124.51206,49.74455],[-124.51275,49.74455],[-124.51275,49.74247],[-124.51652,49.74332],[-124.52053,49.74423],[-124.51792,49.74424]]]}},{"type":"Feature","properties":{"c":"230401","o":"ZYROX MINING COMPANY LTD.","e":"2033-08-30Z"},"geometry":{"type":"Polygon","coordinates":[[[-124.60409,49.77386],[-124.60029,49.77363],[-124.60104,49.77107],[-124.60105,49.77105],[-124.60152,49.76944],[-124.60532,49.76944],[-124.60532,49.77393],[-124.60409,49.77386]]]}},{"type":"Feature","properties":{"c":"232562","o":"ZYROX MINING COMPANY LTD.","e":"2033-08-30Z"},"geometry":{"type":"Polygon","coordinates":[[[-124.58981,49.76556],[-124.59598,49.76627],[-124.59481,49.77026],[-124.58865,49.76947],[-124.58981,49.76556]]]}},{"type":"Feature","properties":{"c":"232567","o":"ZYROX MINING COMPANY LTD.","e":"2033-08-30Z"},"geometry":{"type":"Polygon","coordinates":[[[-124.60482,49.76312],[-124.60342,49.76718],[-124.60222,49.76703],[-124.59727,49.76643],[-124.5985,49.76239],[-124.60482,49.76312]]]}},{"type":"Feature","properties":{"c":"232483","o":"ZYROX MINING COMPANY LTD.","e":"2033-08-30Z"},"geometry":{"type":"Polygon","coordinates":[[[-124.59412,49.78932],[-124.5944,49.78944],[-124.59444,49.78942],[-124.59464,49.78939],[-124.59466,49.78934],[-124.59447,49.78928],[-124.59437,49.78924],[-124.59428,49.78917],[-124.59414,49.78897],[-124.59461,49.78684],[-124.60089,49.78746],[-124.59993,49.79152],[-124.59507,49.79103],[-124.59507,49.79102],[-124.59469,49.79069],[-124.59453,49.7905],[-124.59452,49.79043],[-124.59454,49.79029],[-124.59468,49.7902],[-124.59466,49.79015],[-124.59432,49.79],[-124.59418,49.78996],[-124.59404,49.78987],[-124.59405,49.78976],[-124.59412,49.78967],[-124.59401,49.78957],[-124.59406,49.78932],[-124.59412,49.78932]]]}},{"type":"Feature","properties":{"c":"232487","o":"ZYROX MINING COMPANY LTD.","e":"2033-08-30Z"},"geometry":{"type":"Polygon","coordinates":[[[-124.59748,49.77464],[-124.59775,49.77348],[-124.60029,49.77363],[-124.60409,49.77386],[-124.60376,49.77526],[-124.60046,49.77494],[-124.59748,49.77464]]]}},{"type":"Feature","properties":{"c":"232498","o":"ZYROX MINING COMPANY LTD.","e":"2033-08-30Z"},"geometry":{"type":"Polygon","coordinates":[[[-124.61818,49.77137],[-124.62439,49.77221],[-124.6231,49.77624],[-124.61689,49.7754],[-124.61818,49.77138],[-124.61818,49.77137]]]}},{"type":"Feature","properties":{"c":"232491","o":"ZYROX MINING COMPANY LTD.","e":"2033-08-30Z"},"geometry":{"type":"Polygon","coordinates":[[[-124.59876,49.79512],[-124.5986,49.79494],[-124.59847,49.79482],[-124.59827,49.79471],[-124.59814,49.79464],[-124.5978,49.79462],[-124.59772,49.79451],[-124.59771,49.7944],[-124.59743,49.79418],[-124.59728,49.79406],[-124.59676,49.79381],[-124.59656,49.79374],[-124.5964,49.79358],[-124.59612,49.79338],[-124.59581,49.79302],[-124.59521,49.79238],[-124.59521,49.79232],[-124.59538,49.79211],[-124.59543,49.79208],[-124.59548,49.79193],[-124.59517,49.79149],[-124.59527,49.79105],[-124.60154,49.79168],[-124.60068,49.79549],[-124.59875,49.79531],[-124.59876,49.79512]]]}},{"type":"Feature","properties":{"c":"313536","o":"ZYROX MINING COMPANY LTD.","e":"2033-08-30Z"},"geometry":{"type":"Polygon","coordinates":[[[-124.60907,49.77995],[-124.60938,49.77859],[-124.6094,49.77859],[-124.6156,49.77942],[-124.61572,49.77944],[-124.6147,49.7834],[-124.60843,49.78272],[-124.60907,49.77995]]]}},{"type":"Feature","properties":{"c":"230428","o":"ZYROX MINING COMPANY LTD.","e":"2033-08-30Z"},"geometry":{"type":"Polygon","coordinates":[[[-124.5816,49.74755],[-124.58177,49.74319],[-124.58228,49.74347],[-124.58294,49.74383],[-124.5839,49.74309],[-124.58526,49.74435],[-124.58203,49.74772],[-124.5816,49.74755]]]}},{"type":"Feature","properties":{"c":"232481","o":"ZYROX MINING COMPANY LTD.","e":"2033-08-30Z"},"geometry":{"type":"Polygon","coordinates":[[[-124.59461,49.78684],[-124.59557,49.78277],[-124.60184,49.78339],[-124.60089,49.78746],[-124.59461,49.78684]]]}},{"type":"Feature","properties":{"c":"232486","o":"ZYROX MINING COMPANY LTD.","e":"2033-08-30Z"},"geometry":{"type":"Polygon","coordinates":[[[-124.61042,49.77424],[-124.61003,49.77588],[-124.60376,49.77526],[-124.60409,49.77386],[-124.60532,49.77393],[-124.61042,49.77424]]]}},{"type":"Feature","properties":{"c":"232497","o":"ZYROX MINING COMPANY LTD.","e":"2033-08-30Z"},"geometry":{"type":"Polygon","coordinates":[[[-124.6156,49.77942],[-124.61689,49.7754],[-124.6231,49.77624],[-124.62181,49.78026],[-124.61572,49.77944],[-124.6156,49.77942]]]}},{"type":"Feature","properties":{"c":"313535","o":"ZYROX MINING COMPANY LTD.","e":"2033-08-30Z"},"geometry":{"type":"Polygon","coordinates":[[[-124.61572,49.77944],[-124.62181,49.78026],[-124.62194,49.77992],[-124.62261,49.78001],[-124.62155,49.78414],[-124.6147,49.7834],[-124.61572,49.77944]]]}},{"type":"Feature","properties":{"c":"313537","o":"ZYROX MINING COMPANY LTD.","e":"2033-08-30Z"},"geometry":{"type":"Polygon","coordinates":[[[-124.61029,49.78679],[-124.60991,49.78744],[-124.6099,49.78744],[-124.60738,49.78716],[-124.60812,49.78401],[-124.60843,49.78272],[-124.6147,49.7834],[-124.61362,49.78755],[-124.61029,49.78679]]]}},{"type":"Feature","properties":{"c":"231615","o":"LHOIST NORTH AMERICA OF CANADA, INC.","e":"2026-11-18Z"},"geometry":{"type":"Polygon","coordinates":[[[-124.50769,49.73479],[-124.5144,49.73472],[-124.51263,49.73808],[-124.50665,49.73672],[-124.50769,49.73479]]]}},{"type":"Feature","properties":{"c":"231710","o":"LHOIST NORTH AMERICA OF CANADA, INC.","e":"2026-11-18Z"},"geometry":{"type":"Polygon","coordinates":[[[-124.51445,49.7343],[-124.51438,49.73182],[-124.51436,49.73169],[-124.5142,49.73069],[-124.51331,49.7307],[-124.51385,49.72966],[-124.51694,49.72972],[-124.51705,49.73253],[-124.51868,49.73248],[-124.51884,49.73535],[-124.51461,49.73433],[-124.51461,49.73434],[-124.51445,49.7343]]]}},{"type":"Feature","properties":{"c":"232101","o":"LHOIST NORTH AMERICA OF CANADA, INC.","e":"2026-11-18Z"},"geometry":{"type":"Polygon","coordinates":[[[-124.52341,49.73532],[-124.52343,49.73595],[-124.51889,49.73595],[-124.51867,49.7324],[-124.52394,49.73254],[-124.52516,49.73315],[-124.52341,49.73532]]]}},{"type":"Feature","properties":{"c":"232377","o":"LHOIST NORTH AMERICA OF CANADA, INC.","e":"2026-11-18Z"},"geometry":{"type":"Polygon","coordinates":[[[-124.51878,49.72067],[-124.52069,49.71958],[-124.5211,49.71959],[-124.52345,49.71964],[-124.52334,49.72436],[-124.51693,49.7244],[-124.51694,49.72392],[-124.51747,49.72299],[-124.51878,49.72067]]]}},{"type":"Feature","properties":{"c":"232389","o":"LHOIST NORTH AMERICA OF CANADA, INC.","e":"2026-11-18Z"},"geometry":{"type":"Polygon","coordinates":[[[-124.50597,49.72864],[-124.50612,49.72868],[-124.50792,49.72908],[-124.51013,49.72965],[-124.51147,49.72995],[-124.51158,49.72997],[-124.51158,49.73006],[-124.51161,49.73171],[-124.50597,49.73174],[-124.50597,49.72873],[-124.50597,49.72864]]]}},{"type":"Feature","properties":{"c":"232391","o":"LHOIST NORTH AMERICA OF CANADA, INC.","e":"2026-11-18Z"},"geometry":{"type":"Polygon","coordinates":[[[-124.49973,49.72807],[-124.50143,49.72811],[-124.50384,49.72817],[-124.50586,49.72862],[-124.50597,49.72864],[-124.50597,49.72873],[-124.50597,49.73174],[-124.5014,49.73177],[-124.49966,49.73169],[-124.49973,49.72807]]]}},{"type":"Feature","properties":{"c":"400119","o":"ZYROX MINING COMPANY LTD.","e":"2033-08-30Z"},"geometry":{"type":"Polygon","coordinates":[[[-124.58423,49.77327],[-124.58544,49.7734],[-124.58742,49.77357],[-124.59112,49.77401],[-124.59082,49.77709],[-124.58389,49.7768],[-124.58423,49.77327]]]}},{"type":"Feature","properties":{"c":"400120","o":"ZYROX MINING COMPANY LTD.","e":"2033-08-30Z"},"geometry":{"type":"Polygon","coordinates":[[[-124.59112,49.77401],[-124.5917,49.77408],[-124.59363,49.77428],[-124.59386,49.77338],[-124.59775,49.77348],[-124.59748,49.77464],[-124.59736,49.77516],[-124.59685,49.77733],[-124.59082,49.77709],[-124.59112,49.77401]]]}},{"type":"Feature","properties":{"c":"232559","o":"ZYROX MINING COMPANY LTD.","e":"2033-08-30Z"},"geometry":{"type":"Polygon","coordinates":[[[-124.57963,49.76427],[-124.58043,49.76438],[-124.58078,49.76442],[-124.58391,49.76483],[-124.58311,49.76776],[-124.58284,49.76878],[-124.57677,49.76814],[-124.57688,49.76779],[-124.57731,49.76639],[-124.5776,49.76544],[-124.57864,49.76484],[-124.57889,49.7647],[-124.57963,49.76427]]]}},{"type":"Feature","properties":{"c":"399053","o":"ZYROX MINING COMPANY LTD.","e":"2033-08-30Z"},"geometry":{"type":"Polygon","coordinates":[[[-124.57618,49.74884],[-124.57666,49.749],[-124.57651,49.74833],[-124.57649,49.74827],[-124.57674,49.74825],[-124.58159,49.74776],[-124.5816,49.74755],[-124.58203,49.74772],[-124.5853,49.7474],[-124.58549,49.74748],[-124.58307,49.74981],[-124.58161,49.75121],[-124.5784,49.74981],[-124.57618,49.74884]]]}},{"type":"Feature","properties":{"c":"400118","o":"ZYROX MINING COMPANY LTD.","e":"2033-08-30Z"},"geometry":{"type":"Polygon","coordinates":[[[-124.58382,49.77678],[-124.58362,49.77673],[-124.58354,49.77668],[-124.58352,49.77666],[-124.58354,49.77662],[-124.58367,49.77648],[-124.58367,49.77645],[-124.58356,49.77644],[-124.58351,49.77637],[-124.58353,49.77632],[-124.58376,49.77617],[-124.58378,49.77613],[-124.58359,49.77606],[-124.58345,49.77598],[-124.58337,49.77591],[-124.58337,49.77582],[-124.58344,49.77572],[-124.58327,49.77566],[-124.58313,49.77557],[-124.58286,49.77559],[-124.58274,49.77557],[-124.58271,49.77554],[-124.58275,49.77546],[-124.5828,49.77543],[-124.58282,49.7754],[-124.5828,49.77537],[-124.58275,49.77535],[-124.58234,49.77535],[-124.58216,49.77531],[-124.58184,49.77529],[-124.58171,49.77525],[-124.5812,49.77522],[-124.58085,49.77502],[-124.58082,49.77497],[-124.5808,49.77476],[-124.58068,49.77475],[-124.58051,49.77467],[-124.58033,49.77454],[-124.58014,49.77437],[-124.58005,49.7742],[-124.58001,49.77376],[-124.57969,49.77371],[-124.57951,49.77363],[-124.57928,49.77345],[-124.57911,49.77325],[-124.57908,49.77292],[-124.57908,49.77286],[-124.57914,49.77272],[-124.58161,49.773],[-124.58423,49.77327],[-124.58389,49.7768],[-124.58387,49.7768],[-124.58382,49.77678]]]}},{"type":"Feature","properties":{"c":"232561","o":"ZYROX MINING COMPANY LTD.","e":"2033-08-30Z"},"geometry":{"type":"Polygon","coordinates":[[[-124.57916,49.77268],[-124.57918,49.77207],[-124.57943,49.77168],[-124.57946,49.77157],[-124.57944,49.77141],[-124.57935,49.77126],[-124.57919,49.7711],[-124.57878,49.77083],[-124.57856,49.77081],[-124.57847,49.77083],[-124.57826,49.77097],[-124.57828,49.7712],[-124.57805,49.77136],[-124.57795,49.77151],[-124.57796,49.77161],[-124.57793,49.77169],[-124.57778,49.77182],[-124.57721,49.77222],[-124.57694,49.7723],[-124.57658,49.77231],[-124.57623,49.77228],[-124.57609,49.77222],[-124.57584,49.77214],[-124.57565,49.7721],[-124.57677,49.76814],[-124.58284,49.76878],[-124.58161,49.773],[-124.57914,49.77272],[-124.57916,49.77268]]]}},{"type":"Feature","properties":{"c":"316662","o":"LHOIST NORTH AMERICA OF CANADA, INC.","e":"2026-11-18Z"},"geometry":{"type":"Polygon","coordinates":[[[-124.51222,49.74421],[-124.5122,49.74413],[-124.51161,49.74374],[-124.51146,49.74367],[-124.51139,49.7436],[-124.51091,49.74329],[-124.51064,49.74321],[-124.51032,49.74316],[-124.51008,49.74304],[-124.51001,49.74298],[-124.50991,49.74273],[-124.50979,49.74262],[-124.50976,49.74239],[-124.50951,49.74228],[-124.50934,49.74224],[-124.5089,49.74201],[-124.50859,49.7419],[-124.50833,49.74184],[-124.50805,49.74182],[-124.50784,49.74182],[-124.50755,49.74176],[-124.50735,49.74169],[-124.5072,49.74171],[-124.50702,49.74164],[-124.50672,49.74156],[-124.5066,49.74154],[-124.50643,49.7416],[-124.50625,49.74157],[-124.50621,49.74156],[-124.50613,49.74136],[-124.50606,49.74131],[-124.50591,49.74128],[-124.50571,49.7412],[-124.50551,49.74115],[-124.5052,49.74115],[-124.50494,49.74104],[-124.50484,49.74097],[-124.50473,49.74098],[-124.50459,49.74093],[-124.50449,49.74086],[-124.50445,49.74078],[-124.50444,49.7406],[-124.50441,49.74048],[-124.50417,49.74031],[-124.50393,49.74021],[-124.50326,49.74015],[-124.50296,49.74009],[-124.50281,49.74005],[-124.50484,49.74006],[-124.50454,49.7406],[-124.51275,49.74247],[-124.51275,49.74455],[-124.51206,49.74455],[-124.51214,49.74449],[-124.51223,49.74432],[-124.51222,49.74421]]]}},{"type":"Feature","properties":{"c":"360859","o":"ZYROX MINING COMPANY LTD.","e":"2033-08-30Z"},"geometry":{"type":"Polygon","coordinates":[[[-124.57137,49.76973],[-124.576,49.77088],[-124.57565,49.7721],[-124.57554,49.77208],[-124.57514,49.77207],[-124.57511,49.7721],[-124.57513,49.77236],[-124.57507,49.77247],[-124.575,49.7725],[-124.57471,49.77253],[-124.57442,49.77254],[-124.57412,49.77248],[-124.57387,49.77235],[-124.57376,49.77225],[-124.5737,49.77215],[-124.57369,49.77205],[-124.57357,49.77195],[-124.57317,49.77175],[-124.57294,49.77159],[-124.57274,49.77139],[-124.5725,49.77119],[-124.57233,49.77097],[-124.572,49.77092],[-124.57191,49.77087],[-124.57186,49.77083],[-124.57186,49.77079],[-124.57194,49.77072],[-124.57212,49.77063],[-124.57212,49.77054],[-124.57203,49.77046],[-124.57193,49.77041],[-124.57167,49.77037],[-124.57162,49.77033],[-124.57163,49.77024],[-124.57162,49.77015],[-124.57142,49.77006],[-124.5712,49.77],[-124.57137,49.76973]]]}},{"type":"Feature","properties":{"c":"318647","o":"ZYROX MINING COMPANY LTD.","e":"2033-08-30Z"},"geometry":{"type":"Polygon","coordinates":[[[-124.60298,49.80302],[-124.60285,49.80286],[-124.60283,49.80268],[-124.60285,49.80248],[-124.603,49.80207],[-124.60236,49.80201],[-124.60204,49.8019],[-124.60194,49.80186],[-124.60178,49.80175],[-124.60156,49.80171],[-124.60132,49.80163],[-124.60102,49.80149],[-124.60057,49.80133],[-124.60019,49.80115],[-124.6,49.80109],[-124.59991,49.80106],[-124.59971,49.80092],[-124.59958,49.80078],[-124.59958,49.80067],[-124.59947,49.80064],[-124.59924,49.80054],[-124.59909,49.80046],[-124.59906,49.80042],[-124.59907,49.8003],[-124.59915,49.80014],[-124.59923,49.80012],[-124.59935,49.80012],[-124.59962,49.80017],[-124.59974,49.80017],[-124.5998,49.80015],[-124.59984,49.80012],[-124.59984,49.80004],[-124.59982,49.8],[-124.59981,49.79993],[-124.59973,49.79987],[-124.59964,49.79983],[-124.59934,49.79964],[-124.5992,49.79951],[-124.60436,49.79999],[-124.60436,49.80313],[-124.6032,49.80313],[-124.60298,49.80302]]]}},{"type":"Feature","properties":{"c":"232569","o":"ZYROX MINING COMPANY LTD.","e":"2033-08-30Z"},"geometry":{"type":"Polygon","coordinates":[[[-124.60743,49.75512],[-124.60231,49.75453],[-124.60309,49.75122],[-124.60557,49.75286],[-124.607,49.75187],[-124.60927,49.75218],[-124.60799,49.75619],[-124.60718,49.75612],[-124.60743,49.75512]]]}},{"type":"Feature","properties":{"c":"313538","o":"ZYROX MINING COMPANY LTD.","e":"2033-08-30Z"},"geometry":{"type":"Polygon","coordinates":[[[-124.61362,49.78755],[-124.6147,49.7834],[-124.62155,49.78414],[-124.6204,49.78857],[-124.6162,49.78814],[-124.61362,49.78755]]]}},{"type":"Feature","properties":{"c":"314315","o":"ZYROX MINING COMPANY LTD.","e":"2033-08-30Z"},"geometry":{"type":"Polygon","coordinates":[[[-124.62261,49.78001],[-124.62728,49.78067],[-124.62601,49.78426],[-124.62856,49.78423],[-124.6284,49.78488],[-124.62155,49.78414],[-124.62261,49.78001]]]}},{"type":"Feature","properties":{"c":"231707","o":"LHOIST NORTH AMERICA OF CANADA, INC.","e":"2026-11-18Z"},"geometry":{"type":"Polygon","coordinates":[[[-124.51737,49.72443],[-124.52371,49.72437],[-124.5238,49.72848],[-124.51746,49.72854],[-124.51684,49.72858],[-124.51693,49.7244],[-124.51737,49.72443]]]}},{"type":"Feature","properties":{"c":"399051","o":"ZYROX MINING COMPANY LTD.","e":"2033-08-30Z"},"geometry":{"type":"Polygon","coordinates":[[[-124.57588,49.74934],[-124.57572,49.74981],[-124.57444,49.7535],[-124.57316,49.75294],[-124.57339,49.75248],[-124.57476,49.74981],[-124.57481,49.74969],[-124.57583,49.74872],[-124.57618,49.74884],[-124.5784,49.74981],[-124.58161,49.75121],[-124.57774,49.75492],[-124.57772,49.75494],[-124.57763,49.7549],[-124.57654,49.75447],[-124.57657,49.75443],[-124.57759,49.75297],[-124.57685,49.74981],[-124.5768,49.74961],[-124.57588,49.74934]]]}},{"type":"Feature","properties":{"c":"231618","o":"LHOIST NORTH AMERICA OF CANADA, INC.","e":"2026-11-18Z"},"geometry":{"type":"Polygon","coordinates":[[[-124.50026,49.73486],[-124.5014,49.73484],[-124.50767,49.73479],[-124.50665,49.73672],[-124.5014,49.73555],[-124.50065,49.73538],[-124.49999,49.73523],[-124.50009,49.73506],[-124.50026,49.73486]]]}},{"type":"Feature","properties":{"c":"231708","o":"LHOIST NORTH AMERICA OF CANADA, INC.","e":"2026-11-18Z"},"geometry":{"type":"Polygon","coordinates":[[[-124.52371,49.72437],[-124.52764,49.72435],[-124.52767,49.72435],[-124.52754,49.72799],[-124.53022,49.72812],[-124.53014,49.72843],[-124.5238,49.72848],[-124.52371,49.72437]]]}},{"type":"Feature","properties":{"c":"387682","o":"ZYROX MINING COMPANY LTD.","e":"2033-08-30Z"},"geometry":{"type":"MultiPolygon","coordinates":[[[[-124.59481,49.77026],[-124.60105,49.77105],[-124.60104,49.77107],[-124.60029,49.77363],[-124.59775,49.77348],[-124.59386,49.77338],[-124.59481,49.77026]]],[[[-124.59748,49.77464],[-124.60046,49.77494],[-124.60028,49.77553],[-124.59736,49.77516],[-124.59748,49.77464]]]]}},{"type":"Feature","properties":{"c":"232489","o":"ZYROX MINING COMPANY LTD.","e":"2033-08-30Z"},"geometry":{"type":"Polygon","coordinates":[[[-124.60184,49.78339],[-124.59557,49.78277],[-124.59652,49.77871],[-124.6028,49.77933],[-124.60184,49.78339]]]}},{"type":"Feature","properties":{"c":"399052","o":"ZYROX MINING COMPANY LTD.","e":"2033-08-30Z"},"geometry":{"type":"Polygon","coordinates":[[[-124.59037,49.75033],[-124.58428,49.75083],[-124.58459,49.75252],[-124.58161,49.75121],[-124.58549,49.74748],[-124.59053,49.74969],[-124.59037,49.75033]]]}},{"type":"Feature","properties":{"c":"399374","o":"ZYROX MINING COMPANY LTD.","e":"2033-08-30Z"},"geometry":{"type":"Polygon","coordinates":[[[-124.62561,49.7633],[-124.62512,49.76393],[-124.62431,49.76509],[-124.62412,49.76533],[-124.62375,49.76588],[-124.62331,49.76673],[-124.62319,49.76706],[-124.62305,49.76737],[-124.62306,49.76769],[-124.62311,49.76802],[-124.62316,49.76817],[-124.62333,49.76833],[-124.62338,49.76851],[-124.6234,49.76873],[-124.62358,49.76957],[-124.62391,49.77075],[-124.62395,49.77111],[-124.6242,49.77135],[-124.62431,49.77142],[-124.62441,49.77149],[-124.62483,49.77194],[-124.62487,49.77196],[-124.62491,49.77194],[-124.62506,49.77194],[-124.62525,49.772],[-124.6253,49.77206],[-124.62545,49.77238],[-124.62551,49.77313],[-124.62556,49.77348],[-124.62582,49.7739],[-124.62599,49.77424],[-124.62616,49.77446],[-124.62616,49.77524],[-124.62347,49.7752],[-124.62439,49.77221],[-124.61705,49.77124],[-124.61572,49.77489],[-124.61042,49.77424],[-124.60532,49.77393],[-124.60532,49.76192],[-124.62615,49.76193],[-124.62615,49.76268],[-124.62561,49.7633]]]}},{"type":"Feature","properties":{"c":"232496","o":"ZYROX MINING COMPANY LTD.","e":"2033-08-30Z"},"geometry":{"type":"Polygon","coordinates":[[[-124.61067,49.77456],[-124.61689,49.7754],[-124.6156,49.77942],[-124.6094,49.77859],[-124.60938,49.77859],[-124.60945,49.77838],[-124.61067,49.77456]]]}},{"type":"Feature","properties":{"c":"229749","o":"ZYROX MINING COMPANY LTD.","e":"2033-08-30Z"},"geometry":{"type":"Polygon","coordinates":[[[-124.61117,49.79296],[-124.61168,49.7967],[-124.61173,49.79706],[-124.61093,49.7971],[-124.60582,49.79739],[-124.60563,49.79596],[-124.60527,49.7933],[-124.61117,49.79296]]]}},{"type":"Feature","properties":{"c":"314656","o":"LHOIST NORTH AMERICA OF CANADA, INC.","e":"2026-11-18Z"},"geometry":{"type":"Polygon","coordinates":[[[-124.49879,49.73474],[-124.49862,49.73168],[-124.49966,49.73169],[-124.5014,49.73177],[-124.50597,49.73174],[-124.51161,49.73171],[-124.51436,49.73169],[-124.51438,49.73182],[-124.51445,49.7343],[-124.51461,49.73434],[-124.5144,49.73472],[-124.50767,49.73479],[-124.5014,49.73484],[-124.50026,49.73486],[-124.50009,49.73506],[-124.49766,49.73506],[-124.49766,49.73476],[-124.49879,49.73474]]]}},{"type":"Feature","properties":{"c":"232564","o":"ZYROX MINING COMPANY LTD.","e":"2033-08-30Z"},"geometry":{"type":"Polygon","coordinates":[[[-124.59598,49.76627],[-124.59112,49.76571],[-124.59235,49.76159],[-124.5985,49.76239],[-124.59727,49.76643],[-124.59601,49.76627],[-124.59598,49.76627]]]}},{"type":"Feature","properties":{"c":"232482","o":"ZYROX MINING COMPANY LTD.","e":"2033-08-30Z"},"geometry":{"type":"Polygon","coordinates":[[[-124.60089,49.78746],[-124.60681,49.78804],[-124.60496,49.79135],[-124.60632,49.79167],[-124.60627,49.79186],[-124.60621,49.79214],[-124.60154,49.79168],[-124.59993,49.79152],[-124.60089,49.78746]]]}},{"type":"Feature","properties":{"c":"232485","o":"ZYROX MINING COMPANY LTD.","e":"2033-08-30Z"},"geometry":{"type":"Polygon","coordinates":[[[-124.59748,49.77464],[-124.60046,49.77494],[-124.60376,49.77526],[-124.6028,49.77933],[-124.59652,49.77871],[-124.59685,49.77733],[-124.59736,49.77516],[-124.59748,49.77464]]]}},{"type":"Feature","properties":{"c":"230403","o":"ZYROX MINING COMPANY LTD.","e":"2033-08-30Z"},"geometry":{"type":"Polygon","coordinates":[[[-124.60532,49.76192],[-124.60532,49.76944],[-124.60153,49.76942],[-124.60222,49.76703],[-124.60342,49.76718],[-124.60482,49.76312],[-124.60518,49.76191],[-124.60532,49.76192]]]}},{"type":"Feature","properties":{"c":"367494","o":"ZYROX MINING COMPANY LTD.","e":"2033-08-30Z"},"geometry":{"type":"Polygon","coordinates":[[[-124.58778,49.75738],[-124.58902,49.75757],[-124.58927,49.75693],[-124.59358,49.75753],[-124.59235,49.76159],[-124.58671,49.76094],[-124.58778,49.75738]]]}},{"type":"Feature","properties":{"c":"232565","o":"ZYROX MINING COMPANY LTD.","e":"2033-08-30Z"},"geometry":{"type":"Polygon","coordinates":[[[-124.59358,49.75753],[-124.59976,49.75833],[-124.5985,49.76239],[-124.59235,49.76159],[-124.59358,49.75753]]]}},{"type":"Feature","properties":{"c":"232480","o":"ZYROX MINING COMPANY LTD.","e":"2033-08-30Z"},"geometry":{"type":"Polygon","coordinates":[[[-124.60089,49.78746],[-124.60184,49.78339],[-124.60812,49.78401],[-124.60738,49.78716],[-124.60716,49.78808],[-124.60681,49.78804],[-124.60089,49.78746]]]}},{"type":"Feature","properties":{"c":"232494","o":"ZYROX MINING COMPANY LTD.","e":"2033-08-30Z"},"geometry":{"type":"Polygon","coordinates":[[[-124.59022,49.78217],[-124.59019,49.78214],[-124.58983,49.782],[-124.59069,49.77813],[-124.59652,49.77871],[-124.59557,49.78277],[-124.59023,49.78224],[-124.59022,49.78217]]]}},{"type":"Feature","properties":{"c":"318648","o":"ZYROX MINING COMPANY LTD.","e":"2033-08-30Z"},"geometry":{"type":"Polygon","coordinates":[[[-124.60883,49.80048],[-124.60873,49.80053],[-124.60857,49.80055],[-124.6082,49.80044],[-124.60809,49.80045],[-124.60786,49.80061],[-124.60781,49.80064],[-124.60775,49.8007],[-124.6077,49.80089],[-124.60769,49.80123],[-124.60766,49.8013],[-124.60743,49.80148],[-124.60718,49.8016],[-124.6071,49.80171],[-124.6069,49.80185],[-124.60673,49.80202],[-124.60657,49.80224],[-124.60627,49.80248],[-124.60624,49.80257],[-124.60616,49.80261],[-124.60589,49.80285],[-124.60585,49.80291],[-124.60569,49.80306],[-124.60568,49.80313],[-124.60528,49.80313],[-124.60527,49.80308],[-124.60525,49.80306],[-124.60516,49.80304],[-124.60505,49.80304],[-124.60503,49.80313],[-124.605,49.80313],[-124.60436,49.80313],[-124.60436,49.79999],[-124.60887,49.80042],[-124.60883,49.80048]]]}},{"type":"Feature","properties":{"c":"387683","o":"ZYROX MINING COMPANY LTD.","e":"2033-08-30Z"},"geometry":{"type":"Polygon","coordinates":[[[-124.59601,49.76627],[-124.59727,49.76643],[-124.60222,49.76703],[-124.60153,49.76942],[-124.60152,49.76944],[-124.60105,49.77105],[-124.59481,49.77026],[-124.59601,49.76627]]]}},{"type":"Feature","properties":{"c":"231617","o":"LHOIST NORTH AMERICA OF CANADA, INC.","e":"2026-11-18Z"},"geometry":{"type":"Polygon","coordinates":[[[-124.49999,49.73523],[-124.5014,49.73555],[-124.50665,49.73672],[-124.50484,49.74006],[-124.5028,49.74005],[-124.50189,49.73958],[-124.5014,49.73924],[-124.50077,49.73909],[-124.50024,49.73903],[-124.49977,49.73886],[-124.499,49.73819],[-124.49868,49.73801],[-124.49833,49.73787],[-124.49999,49.73523]]]}},{"type":"Feature","properties":{"c":"400121","o":"ZYROX MINING COMPANY LTD.","e":"2033-08-30Z"},"geometry":{"type":"Polygon","coordinates":[[[-124.58954,49.78151],[-124.58915,49.78127],[-124.58905,49.78117],[-124.58887,49.78088],[-124.58884,49.7805],[-124.58861,49.78042],[-124.58843,49.78027],[-124.58834,49.78023],[-124.58801,49.78017],[-124.5879,49.78011],[-124.58739,49.77968],[-124.5873,49.77949],[-124.58724,49.77942],[-124.58721,49.7789],[-124.58731,49.77872],[-124.58737,49.77869],[-124.58747,49.77868],[-124.58751,49.77864],[-124.58756,49.77854],[-124.5875,49.77852],[-124.58707,49.77852],[-124.58669,49.77841],[-124.58639,49.77837],[-124.58605,49.77824],[-124.58577,49.77819],[-124.58561,49.77811],[-124.58558,49.77806],[-124.58558,49.77795],[-124.58561,49.77792],[-124.58576,49.77789],[-124.5858,49.77785],[-124.5858,49.77781],[-124.58537,49.77775],[-124.58531,49.77772],[-124.58527,49.77766],[-124.58537,49.77757],[-124.58537,49.77753],[-124.58526,49.77745],[-124.58513,49.77741],[-124.58485,49.77732],[-124.58462,49.7772],[-124.58455,49.77714],[-124.58433,49.77703],[-124.58403,49.77687],[-124.58389,49.77681],[-124.58389,49.7768],[-124.59082,49.77709],[-124.59069,49.77813],[-124.58992,49.78157],[-124.58953,49.78155],[-124.58954,49.78151]]]}},{"type":"Feature","properties":{"c":"232571","o":"ZYROX MINING COMPANY LTD.","e":"2033-08-30Z"},"geometry":{"type":"Polygon","coordinates":[[[-124.5948,49.75765],[-124.59567,49.75462],[-124.5959,49.75425],[-124.60118,49.75478],[-124.60126,49.75478],[-124.60021,49.75837],[-124.59976,49.75833],[-124.5948,49.75765]]]}},{"type":"Feature","properties":{"c":"232378","o":"LHOIST NORTH AMERICA OF CANADA, INC.","e":"2026-11-18Z"},"geometry":{"type":"Polygon","coordinates":[[[-124.52345,49.71964],[-124.52776,49.71974],[-124.52768,49.72299],[-124.52766,49.72386],[-124.52767,49.72435],[-124.52764,49.72435],[-124.52371,49.72437],[-124.52334,49.72436],[-124.52345,49.71964]]]}},{"type":"Feature","properties":{"c":"232392","o":"LHOIST NORTH AMERICA OF CANADA, INC.","e":"2026-11-18Z"},"geometry":{"type":"Polygon","coordinates":[[[-124.4998,49.72446],[-124.50141,49.72445],[-124.50315,49.72444],[-124.50274,49.72518],[-124.50153,49.72767],[-124.50384,49.72817],[-124.50143,49.72811],[-124.49973,49.72807],[-124.4998,49.72446]]]}},{"type":"Feature","properties":{"c":"516744","o":"ZYROX MINING COMPANY LTD.","e":"2033-08-30Z"},"geometry":{"type":"Polygon","coordinates":[[[-124.55766,49.74566],[-124.55766,49.74982],[-124.55141,49.74982],[-124.55141,49.74566],[-124.55766,49.74566]]]}},{"type":"Feature","properties":{"c":"516904","o":"ZYROX MINING COMPANY LTD.","e":"2033-08-30Z"},"geometry":{"type":"Polygon","coordinates":[[[-124.59516,49.74982],[-124.58891,49.74982],[-124.58266,49.74982],[-124.58266,49.74566],[-124.58266,49.74149],[-124.58891,49.74149],[-124.59516,49.74149],[-124.59516,49.74566],[-124.59516,49.74982]]]}},{"type":"Feature","properties":{"c":"516905","o":"ZYROX MINING COMPANY LTD.","e":"2033-08-30Z"},"geometry":{"type":"Polygon","coordinates":[[[-124.59517,49.78316],[-124.59517,49.78733],[-124.58892,49.78733],[-124.58891,49.78316],[-124.59517,49.78316]]]}},{"type":"Feature","properties":{"c":"516908","o":"ZYROX MINING COMPANY LTD.","e":"2033-08-30Z"},"geometry":{"type":"Polygon","coordinates":[[[-124.58891,49.75816],[-124.58891,49.76232],[-124.58266,49.76232],[-124.58266,49.75816],[-124.58891,49.75816]]]}},{"type":"Feature","properties":{"c":"516910","o":"ZYROX MINING COMPANY LTD.","e":"2033-08-30Z"},"geometry":{"type":"Polygon","coordinates":[[[-124.58266,49.76649],[-124.57641,49.76649],[-124.57641,49.76232],[-124.57641,49.75816],[-124.58266,49.75816],[-124.58266,49.76232],[-124.58266,49.76649]]]}},{"type":"Feature","properties":{"c":"516912","o":"ZYROX MINING COMPANY LTD.","e":"2033-08-30Z"},"geometry":{"type":"Polygon","coordinates":[[[-124.60766,49.75816],[-124.60766,49.76232],[-124.60141,49.76232],[-124.60141,49.75816],[-124.60766,49.75816]]]}},{"type":"Feature","properties":{"c":"516913","o":"ZYROX MINING COMPANY LTD.","e":"2033-08-30Z"},"geometry":{"type":"Polygon","coordinates":[[[-124.60141,49.74982],[-124.60141,49.75399],[-124.59516,49.75399],[-124.59516,49.74982],[-124.60141,49.74982]]]}},{"type":"Feature","properties":{"c":"516914","o":"ZYROX MINING COMPANY LTD.","e":"2033-08-30Z"},"geometry":{"type":"Polygon","coordinates":[[[-124.60766,49.75399],[-124.60766,49.75816],[-124.60141,49.75816],[-124.60141,49.75399],[-124.60766,49.75399]]]}},{"type":"Feature","properties":{"c":"516916","o":"ZYROX MINING COMPANY LTD.","e":"2033-08-30Z"},"geometry":{"type":"Polygon","coordinates":[[[-124.59516,49.74982],[-124.59516,49.75399],[-124.58891,49.75399],[-124.58891,49.74982],[-124.59516,49.74982]]]}},{"type":"Feature","properties":{"c":"516918","o":"ZYROX MINING COMPANY LTD.","e":"2033-08-30Z"},"geometry":{"type":"Polygon","coordinates":[[[-124.63267,49.78732],[-124.63267,49.79149],[-124.62642,49.79149],[-124.62642,49.78732],[-124.63267,49.78732]]]}},{"type":"Feature","properties":{"c":"516919","o":"ZYROX MINING COMPANY LTD.","e":"2033-08-30Z"},"geometry":{"type":"Polygon","coordinates":[[[-124.62017,49.78732],[-124.62017,49.79149],[-124.61392,49.79149],[-124.61392,49.78732],[-124.62017,49.78732]]]}},{"type":"Feature","properties":{"c":"516922","o":"ZYROX MINING COMPANY LTD.","e":"2033-08-30Z"},"geometry":{"type":"Polygon","coordinates":[[[-124.57641,49.76649],[-124.57641,49.77066],[-124.57016,49.77066],[-124.57016,49.76649],[-124.57641,49.76649]]]}},{"type":"Feature","properties":{"c":"516923","o":"ZYROX MINING COMPANY LTD.","e":"2033-08-30Z"},"geometry":{"type":"Polygon","coordinates":[[[-124.57641,49.75399],[-124.57641,49.75816],[-124.57016,49.75816],[-124.57016,49.75399],[-124.57641,49.75399]]]}},{"type":"Feature","properties":{"c":"516924","o":"ZYROX MINING COMPANY LTD.","e":"2033-08-30Z"},"geometry":{"type":"Polygon","coordinates":[[[-124.57016,49.75399],[-124.57016,49.75816],[-124.56391,49.75816],[-124.56391,49.75399],[-124.57016,49.75399]]]}},{"type":"Feature","properties":{"c":"516927","o":"ZYROX MINING COMPANY LTD.","e":"2033-08-30Z"},"geometry":{"type":"Polygon","coordinates":[[[-124.58266,49.75399],[-124.58266,49.75816],[-124.57641,49.75816],[-124.57641,49.75399],[-124.58266,49.75399]]]}},{"type":"Feature","properties":{"c":"516929","o":"ZYROX MINING COMPANY LTD.","e":"2033-08-30Z"},"geometry":{"type":"Polygon","coordinates":[[[-124.58891,49.73732],[-124.58891,49.74149],[-124.58266,49.74149],[-124.58266,49.73732],[-124.58891,49.73732]]]}},{"type":"Feature","properties":{"c":"517482","o":"ZYROX MINING COMPANY LTD.","e":"2033-08-30Z"},"geometry":{"type":"Polygon","coordinates":[[[-124.55766,49.74982],[-124.55766,49.75399],[-124.55141,49.75399],[-124.55141,49.74982],[-124.55766,49.74982]]]}},{"type":"Feature","properties":{"c":"517488","o":"ZYROX MINING COMPANY LTD.","e":"2033-08-30Z"},"geometry":{"type":"Polygon","coordinates":[[[-124.59516,49.76649],[-124.59516,49.76232],[-124.59516,49.75816],[-124.58891,49.75816],[-124.58891,49.75399],[-124.59516,49.75399],[-124.60141,49.75399],[-124.60141,49.75816],[-124.60141,49.76232],[-124.60766,49.76232],[-124.60766,49.76649],[-124.60141,49.76649],[-124.59516,49.76649]]]}},{"type":"Feature","properties":{"c":"509845","o":"IMPERIAL LIMESTONE COMPANY LIMITED","e":"2027-03-30Z"},"geometry":{"type":"Polygon","coordinates":[[[-124.52641,49.73732],[-124.52641,49.74149],[-124.52016,49.74149],[-124.52016,49.73732],[-124.52641,49.73732]]]}},{"type":"Feature","properties":{"c":"519959","o":"ZYROX MINING COMPANY LTD.","e":"2033-08-30Z"},"geometry":{"type":"Polygon","coordinates":[[[-124.56391,49.74566],[-124.56391,49.74982],[-124.55766,49.74982],[-124.55766,49.74566],[-124.56391,49.74566]]]}},{"type":"Feature","properties":{"c":"519960","o":"ZYROX MINING COMPANY LTD.","e":"2033-08-30Z"},"geometry":{"type":"Polygon","coordinates":[[[-124.57641,49.74566],[-124.57641,49.74982],[-124.57016,49.74982],[-124.57016,49.74566],[-124.57641,49.74566]]]}},{"type":"Feature","properties":{"c":"519961","o":"ZYROX MINING COMPANY LTD.","e":"2033-08-30Z"},"geometry":{"type":"Polygon","coordinates":[[[-124.57016,49.74982],[-124.57016,49.75399],[-124.56391,49.75399],[-124.56391,49.74982],[-124.57016,49.74982]]]}},{"type":"Feature","properties":{"c":"408790","o":"ZYROX MINING COMPANY LTD.","e":"2033-08-30Z"},"geometry":{"type":"Polygon","coordinates":[[[-124.58442,49.75082],[-124.59037,49.75033],[-124.59061,49.75031],[-124.59133,49.75393],[-124.59009,49.75474],[-124.58484,49.75391],[-124.58441,49.75152],[-124.58442,49.75082]]]}},{"type":"Feature","properties":{"c":"399712","o":"ZYROX MINING COMPANY LTD.","e":"2033-08-30Z"},"geometry":{"type":"Polygon","coordinates":[[[-124.58172,49.74428],[-124.5816,49.74755],[-124.58159,49.74776],[-124.57644,49.74828],[-124.57661,49.74419],[-124.58172,49.74428]]]}},{"type":"Feature","properties":{"c":"345340","o":"ZYROX MINING COMPANY LTD.","e":"2026-11-26Z"},"geometry":{"type":"Polygon","coordinates":[[[-124.5632,49.74706],[-124.56319,49.7478],[-124.56219,49.7478],[-124.5619,49.74818],[-124.56054,49.74813],[-124.55943,49.74809],[-124.55546,49.74793],[-124.55547,49.74483],[-124.55547,49.74363],[-124.55972,49.74367],[-124.56327,49.74369],[-124.5632,49.74706]]]}},{"type":"Feature","properties":{"c":"399714","o":"ZYROX MINING COMPANY LTD.","e":"2033-08-30Z"},"geometry":{"type":"MultiPolygon","coordinates":[[[[-124.57646,49.74779],[-124.56952,49.74785],[-124.56967,49.74407],[-124.57661,49.74419],[-124.57646,49.74779]]],[[[-124.57534,49.74867],[-124.57557,49.74821],[-124.57489,49.74806],[-124.57571,49.74789],[-124.57611,49.74868],[-124.57534,49.74867]]]]}},{"type":"Feature","properties":{"c":"399715","o":"ZYROX MINING COMPANY LTD.","e":"2033-08-30Z"},"geometry":{"type":"Polygon","coordinates":[[[-124.57532,49.73967],[-124.57676,49.74046],[-124.57661,49.74419],[-124.56967,49.74407],[-124.56985,49.73958],[-124.57193,49.73962],[-124.57254,49.73984],[-124.57273,49.73963],[-124.57532,49.73967]]]}},{"type":"Feature","properties":{"c":"516721","o":"ZYROX MINING COMPANY LTD.","e":"2033-08-30Z"},"geometry":{"type":"Polygon","coordinates":[[[-124.57016,49.74566],[-124.57016,49.74982],[-124.56391,49.74982],[-124.56391,49.74566],[-124.57016,49.74566]]]}},{"type":"Feature","properties":{"c":"516724","o":"ZYROX MINING COMPANY LTD.","e":"2033-08-30Z"},"geometry":{"type":"Polygon","coordinates":[[[-124.58266,49.74149],[-124.58266,49.74566],[-124.57641,49.74566],[-124.57641,49.74149],[-124.58266,49.74149]]]}},{"type":"Feature","properties":{"c":"516730","o":"ZYROX MINING COMPANY LTD.","e":"2033-08-30Z"},"geometry":{"type":"Polygon","coordinates":[[[-124.55766,49.74149],[-124.55766,49.74566],[-124.55141,49.74566],[-124.55141,49.74149],[-124.55766,49.74149]]]}},{"type":"Feature","properties":{"c":"516735","o":"ZYROX MINING COMPANY LTD.","e":"2033-08-30Z"},"geometry":{"type":"Polygon","coordinates":[[[-124.55766,49.74566],[-124.55766,49.74149],[-124.56391,49.74149],[-124.57016,49.74149],[-124.57016,49.74566],[-124.56391,49.74566],[-124.55766,49.74566]]]}},{"type":"Feature","properties":{"c":"324151","o":"CRH CANADA GROUP INC.","e":"2027-06-15Z"},"geometry":{"type":"Polygon","coordinates":[[[-124.60954,49.78804],[-124.61246,49.78873],[-124.61078,49.79165],[-124.61302,49.79218],[-124.61303,49.79221],[-124.60761,49.79221],[-124.60762,49.79216],[-124.60682,49.79202],[-124.60689,49.79192],[-124.60627,49.79186],[-124.60632,49.79167],[-124.60496,49.79135],[-124.60681,49.78804],[-124.60716,49.78808],[-124.60738,49.78716],[-124.6099,49.78744],[-124.60954,49.78804]]]}},{"type":"Feature","properties":{"c":"327429","o":"CRH CANADA GROUP INC.","e":"2027-06-15Z"},"geometry":{"type":"Polygon","coordinates":[[[-124.61303,49.7985],[-124.61287,49.79866],[-124.61264,49.79863],[-124.6123,49.79868],[-124.61184,49.79905],[-124.61176,49.79909],[-124.61135,49.79929],[-124.61078,49.79954],[-124.61035,49.79971],[-124.61093,49.7971],[-124.61173,49.79706],[-124.61168,49.7967],[-124.61303,49.7967],[-124.61303,49.79812],[-124.613,49.79816],[-124.61301,49.79828],[-124.61303,49.79829],[-124.61303,49.7985]]]}},{"type":"Feature","properties":{"c":"514964","o":"CRH CANADA GROUP INC.","e":"2027-06-15Z"},"geometry":{"type":"Polygon","coordinates":[[[-124.63892,49.79982],[-124.63267,49.79982],[-124.63267,49.80399],[-124.62642,49.80399],[-124.62642,49.79982],[-124.62017,49.79983],[-124.62017,49.79566],[-124.62017,49.79149],[-124.62642,49.79149],[-124.63267,49.79149],[-124.63892,49.79149],[-124.63892,49.79566],[-124.63892,49.79982]]]}},{"type":"Feature","properties":{"c":"514965","o":"CRH CANADA GROUP INC.","e":"2027-06-15Z"},"geometry":{"type":"Polygon","coordinates":[[[-124.61392,49.79982],[-124.60767,49.79983],[-124.60767,49.79566],[-124.60142,49.79566],[-124.60142,49.79149],[-124.60767,49.79149],[-124.61392,49.79149],[-124.61392,49.79566],[-124.61392,49.79982]]]}},{"type":"Feature","properties":{"c":"537129","o":"CRH CANADA GROUP INC.","e":"2027-06-15Z"},"geometry":{"type":"Polygon","coordinates":[[[-124.62642,49.78732],[-124.62642,49.79149],[-124.62017,49.79149],[-124.62017,49.78732],[-124.62642,49.78732]]]}},{"type":"Feature","properties":{"c":"537130","o":"CRH CANADA GROUP INC.","e":"2027-06-15Z"},"geometry":{"type":"Polygon","coordinates":[[[-124.63267,49.78316],[-124.63267,49.78732],[-124.62642,49.78732],[-124.62642,49.78316],[-124.63267,49.78316]]]}},{"type":"Feature","properties":{"c":"537131","o":"CRH CANADA GROUP INC.","e":"2027-06-15Z"},"geometry":{"type":"Polygon","coordinates":[[[-124.60142,49.78732],[-124.59517,49.78733],[-124.59517,49.78316],[-124.58891,49.78316],[-124.58891,49.77899],[-124.59516,49.77899],[-124.60141,49.77899],[-124.60142,49.78316],[-124.60142,49.78732]]]}},{"type":"Feature","properties":{"c":"537135","o":"CRH CANADA GROUP INC.","e":"2027-06-15Z"},"geometry":{"type":"Polygon","coordinates":[[[-124.58891,49.76232],[-124.58891,49.76649],[-124.58266,49.76649],[-124.58266,49.76232],[-124.58891,49.76232]]]}},{"type":"Feature","properties":{"c":"537136","o":"CRH CANADA GROUP INC.","e":"2027-06-15Z"},"geometry":{"type":"Polygon","coordinates":[[[-124.58891,49.75816],[-124.58266,49.75816],[-124.58266,49.75399],[-124.57641,49.75399],[-124.57016,49.75399],[-124.57016,49.74982],[-124.57641,49.74982],[-124.58266,49.74982],[-124.58891,49.74982],[-124.58891,49.75399],[-124.58891,49.75816]]]}},{"type":"Feature","properties":{"c":"537137","o":"CRH CANADA GROUP INC.","e":"2027-06-15Z"},"geometry":{"type":"Polygon","coordinates":[[[-124.60766,49.74982],[-124.60766,49.75399],[-124.60141,49.75399],[-124.60141,49.74982],[-124.60766,49.74982]]]}},{"type":"Feature","properties":{"c":"537141","o":"CRH CANADA GROUP INC.","e":"2027-06-15Z"},"geometry":{"type":"Polygon","coordinates":[[[-124.59516,49.72899],[-124.59516,49.72482],[-124.59516,49.72066],[-124.60141,49.72066],[-124.60141,49.72482],[-124.60766,49.72482],[-124.60766,49.72899],[-124.60141,49.72899],[-124.59516,49.72899]]]}},{"type":"Feature","properties":{"c":"537192","o":"CRH CANADA GROUP INC.","e":"2027-06-15Z"},"geometry":{"type":"Polygon","coordinates":[[[-124.62017,49.79149],[-124.62017,49.79566],[-124.61392,49.79566],[-124.61392,49.79149],[-124.62017,49.79149]]]}},{"type":"Feature","properties":{"c":"554625","o":"CRH CANADA GROUP INC.","e":"2027-06-15Z"},"geometry":{"type":"Polygon","coordinates":[[[-124.55141,49.75399],[-124.54516,49.75399],[-124.53891,49.75399],[-124.53891,49.74982],[-124.53891,49.74566],[-124.53891,49.74149],[-124.54516,49.74149],[-124.55141,49.74149],[-124.55141,49.74566],[-124.55141,49.74982],[-124.55141,49.75399]]]}},{"type":"Feature","properties":{"c":"560698","o":"CRH CANADA GROUP INC.","e":"2027-06-15Z"},"geometry":{"type":"Polygon","coordinates":[[[-124.58266,49.76649],[-124.58266,49.77066],[-124.57641,49.77066],[-124.57641,49.76649],[-124.58266,49.76649]]]}},{"type":"Feature","properties":{"c":"562184","o":"CRH CANADA GROUP INC.","e":"2027-06-15Z"},"geometry":{"type":"Polygon","coordinates":[[[-124.57641,49.76649],[-124.57016,49.76649],[-124.57016,49.77066],[-124.56391,49.77066],[-124.56391,49.76649],[-124.55766,49.76649],[-124.55766,49.76233],[-124.55141,49.76232],[-124.54516,49.76233],[-124.54516,49.75816],[-124.55141,49.75816],[-124.55141,49.75399],[-124.55766,49.75399],[-124.56391,49.75399],[-124.56391,49.75816],[-124.57016,49.75816],[-124.57641,49.75816],[-124.57641,49.76232],[-124.57641,49.76649]]]}},{"type":"Feature","properties":{"c":"562189","o":"CRH CANADA GROUP INC.","e":"2027-06-15Z"},"geometry":{"type":"Polygon","coordinates":[[[-124.50141,49.73732],[-124.49516,49.73732],[-124.48891,49.73732],[-124.48266,49.73732],[-124.47641,49.73732],[-124.47641,49.73316],[-124.47641,49.72899],[-124.48266,49.72899],[-124.48891,49.72899],[-124.49516,49.72899],[-124.50141,49.72899],[-124.50141,49.73316],[-124.50141,49.73732]]]}},{"type":"Feature","properties":{"c":"586363","o":"CRH CANADA GROUP INC.","e":"2027-06-15Z"},"geometry":{"type":"Polygon","coordinates":[[[-124.61391,49.76232],[-124.60766,49.76232],[-124.60766,49.75816],[-124.60766,49.75399],[-124.60766,49.74982],[-124.60141,49.74982],[-124.60141,49.74566],[-124.60766,49.74566],[-124.61391,49.74566],[-124.61391,49.74982],[-124.61391,49.75399],[-124.61391,49.75816],[-124.61391,49.76232]]]}},{"type":"Feature","properties":{"c":"586364","o":"CRH CANADA GROUP INC.","e":"2027-06-15Z"},"geometry":{"type":"Polygon","coordinates":[[[-124.62642,49.78316],[-124.62642,49.77899],[-124.63267,49.77899],[-124.63892,49.77899],[-124.63892,49.78316],[-124.63267,49.78316],[-124.62642,49.78316]]]}},{"type":"Feature","properties":{"c":"586365","o":"CRH CANADA GROUP INC.","e":"2027-06-15Z"},"geometry":{"type":"Polygon","coordinates":[[[-124.62016,49.73732],[-124.61391,49.73732],[-124.61391,49.74149],[-124.60766,49.74149],[-124.60766,49.73732],[-124.60141,49.73732],[-124.60141,49.73316],[-124.60141,49.72899],[-124.60766,49.72899],[-124.60766,49.72482],[-124.61391,49.72482],[-124.62016,49.72482],[-124.62016,49.72899],[-124.62016,49.73316],[-124.62016,49.73732]]]}},{"type":"Feature","properties":{"c":"586369","o":"CRH CANADA GROUP INC.","e":"2027-06-15Z"},"geometry":{"type":"Polygon","coordinates":[[[-124.63892,49.77482],[-124.63892,49.77899],[-124.63267,49.77899],[-124.63267,49.77482],[-124.63892,49.77482]]]}},{"type":"Feature","properties":{"c":"586372","o":"CRH CANADA GROUP INC.","e":"2027-06-15Z"},"geometry":{"type":"Polygon","coordinates":[[[-124.60766,49.72482],[-124.60141,49.72482],[-124.60141,49.72066],[-124.60141,49.71649],[-124.60766,49.71649],[-124.60766,49.72066],[-124.60766,49.72482]]]}},{"type":"Feature","properties":{"c":"586374","o":"CRH CANADA GROUP INC.","e":"2027-06-15Z"},"geometry":{"type":"Polygon","coordinates":[[[-124.61391,49.71649],[-124.61391,49.72066],[-124.60766,49.72066],[-124.60766,49.71649],[-124.61391,49.71649]]]}},{"type":"Feature","properties":{"c":"586464","o":"CRH CANADA GROUP INC.","e":"2027-06-15Z"},"geometry":{"type":"Polygon","coordinates":[[[-124.62642,49.78316],[-124.62017,49.78316],[-124.62017,49.77899],[-124.62017,49.77482],[-124.62642,49.77482],[-124.62642,49.77899],[-124.62642,49.78316]]]}},{"type":"Feature","properties":{"c":"588223","o":"CRH CANADA GROUP INC.","e":"2027-06-15Z"},"geometry":{"type":"Polygon","coordinates":[[[-124.63891,49.75399],[-124.63266,49.75399],[-124.63266,49.75816],[-124.63267,49.76232],[-124.62641,49.76232],[-124.62016,49.76232],[-124.61391,49.76232],[-124.61391,49.75816],[-124.61391,49.75399],[-124.61391,49.74982],[-124.61391,49.74566],[-124.62016,49.74566],[-124.62641,49.74566],[-124.63266,49.74566],[-124.63891,49.74566],[-124.63891,49.74982],[-124.63891,49.75399]]]}},{"type":"Feature","properties":{"c":"369022","o":"CRH CANADA GROUP INC.","e":"2028-01-14Z"},"geometry":{"type":"MultiPolygon","coordinates":[[[[-124.58513,49.76276],[-124.58725,49.7628],[-124.5871,49.76569],[-124.58709,49.76583],[-124.58708,49.76605],[-124.587,49.76726],[-124.57436,49.76705],[-124.57525,49.76647],[-124.57201,49.76437],[-124.57222,49.76409],[-124.57224,49.76409],[-124.57225,49.76409],[-124.57226,49.76409],[-124.57228,49.76409],[-124.57231,49.76408],[-124.57233,49.76408],[-124.57235,49.76408],[-124.57237,49.76408],[-124.5724,49.76408],[-124.57242,49.76408],[-124.57244,49.76407],[-124.57246,49.76407],[-124.57248,49.76407],[-124.57251,49.76406],[-124.57253,49.76406],[-124.57255,49.76406],[-124.57257,49.76405],[-124.57259,49.76405],[-124.57261,49.76404],[-124.57263,49.76404],[-124.57265,49.76403],[-124.57267,49.76403],[-124.5727,49.76402],[-124.57272,49.76401],[-124.57276,49.764],[-124.57344,49.76378],[-124.57347,49.76377],[-124.5735,49.76377],[-124.57353,49.76376],[-124.57356,49.76375],[-124.57358,49.76374],[-124.57361,49.76373],[-124.57364,49.76373],[-124.57367,49.76372],[-124.5737,49.76372],[-124.57373,49.76371],[-124.57376,49.7637],[-124.57379,49.7637],[-124.57382,49.76369],[-124.57385,49.76369],[-124.57389,49.76369],[-124.57392,49.76368],[-124.57395,49.76368],[-124.57398,49.76367],[-124.57401,49.76367],[-124.57404,49.76367],[-124.57407,49.76367],[-124.5741,49.76367],[-124.57413,49.76366],[-124.57417,49.76366],[-124.5742,49.76366],[-124.57423,49.76366],[-124.57426,49.76366],[-124.57429,49.76366],[-124.57432,49.76366],[-124.57435,49.76366],[-124.57438,49.76367],[-124.57442,49.76367],[-124.57445,49.76367],[-124.57448,49.76367],[-124.57451,49.76368],[-124.57454,49.76368],[-124.57457,49.76368],[-124.5746,49.76369],[-124.57463,49.76369],[-124.57466,49.7637],[-124.57469,49.7637],[-124.57472,49.76371],[-124.57475,49.76371],[-124.57478,49.76372],[-124.57481,49.76372],[-124.57484,49.76373],[-124.57487,49.76374],[-124.5749,49.76374],[-124.57493,49.76375],[-124.57496,49.76376],[-124.57499,49.76377],[-124.57502,49.76378],[-124.57504,49.76379],[-124.57507,49.7638],[-124.5751,49.76381],[-124.57513,49.76382],[-124.57515,49.76383],[-124.57518,49.76384],[-124.57521,49.76385],[-124.57657,49.76441],[-124.57659,49.76442],[-124.57661,49.76443],[-124.57662,49.76444],[-124.57664,49.76444],[-124.57666,49.76445],[-124.57668,49.76446],[-124.5767,49.76446],[-124.57672,49.76447],[-124.57674,49.76448],[-124.57676,49.76448],[-124.57679,49.76449],[-124.57681,49.76449],[-124.57683,49.7645],[-124.57685,49.7645],[-124.57687,49.76451],[-124.57689,49.76451],[-124.57691,49.76452],[-124.57693,49.76452],[-124.57696,49.76452],[-124.57698,49.76453],[-124.577,49.76453],[-124.57702,49.76453],[-124.57704,49.76454],[-124.57707,49.76454],[-124.57709,49.76454],[-124.57711,49.76454],[-124.57713,49.76454],[-124.57715,49.76454],[-124.57718,49.76455],[-124.5772,49.76455],[-124.57722,49.76455],[-124.57724,49.76455],[-124.57727,49.76455],[-124.57729,49.76455],[-124.57731,49.76455],[-124.57733,49.76455],[-124.57736,49.76455],[-124.57738,49.76454],[-124.57741,49.76454],[-124.57898,49.76442],[-124.57906,49.76441],[-124.57915,49.76441],[-124.57923,49.7644],[-124.57932,49.76439],[-124.5794,49.76438],[-124.57949,49.76436],[-124.57957,49.76435],[-124.57965,49.76434],[-124.57974,49.76432],[-124.57982,49.76431],[-124.5799,49.76429],[-124.57998,49.76427],[-124.58006,49.76425],[-124.58014,49.76424],[-124.58022,49.76422],[-124.5803,49.76419],[-124.58038,49.76417],[-124.58046,49.76415],[-124.58059,49.76411],[-124.58476,49.76276],[-124.58483,49.76276],[-124.58513,49.76276]]],[[[-124.57761,49.76277],[-124.58115,49.76278],[-124.58118,49.7618],[-124.58142,49.7618],[-124.58261,49.76182],[-124.58342,49.76183],[-124.58451,49.76185],[-124.5845,49.76216],[-124.58449,49.76217],[-124.58448,49.7624],[-124.58448,49.76241],[-124.58447,49.76271],[-124.58447,49.76275],[-124.58053,49.76403],[-124.58046,49.76405],[-124.58038,49.76407],[-124.5803,49.76409],[-124.58023,49.76412],[-124.58015,49.76414],[-124.58007,49.76416],[-124.57999,49.76417],[-124.57992,49.76419],[-124.57984,49.76421],[-124.57976,49.76422],[-124.57968,49.76424],[-124.5796,49.76425],[-124.57951,49.76427],[-124.57943,49.76428],[-124.57935,49.76429],[-124.57927,49.7643],[-124.57919,49.76431],[-124.5791,49.76432],[-124.57896,49.76433],[-124.5774,49.76445],[-124.57738,49.76445],[-124.57736,49.76445],[-124.57734,49.76446],[-124.57732,49.76446],[-124.5773,49.76446],[-124.57728,49.76446],[-124.57726,49.76446],[-124.57724,49.76446],[-124.57722,49.76446],[-124.5772,49.76446],[-124.57718,49.76445],[-124.57716,49.76445],[-124.57714,49.76445],[-124.57712,49.76445],[-124.5771,49.76445],[-124.57708,49.76445],[-124.57706,49.76444],[-124.57704,49.76444],[-124.57702,49.76444],[-124.577,49.76444],[-124.57698,49.76443],[-124.57696,49.76443],[-124.57694,49.76443],[-124.57692,49.76442],[-124.5769,49.76442],[-124.57688,49.76442],[-124.57687,49.76441],[-124.57685,49.76441],[-124.57683,49.7644],[-124.57681,49.7644],[-124.57679,49.76439],[-124.57677,49.76439],[-124.57676,49.76438],[-124.57674,49.76437],[-124.57672,49.76437],[-124.5767,49.76436],[-124.57669,49.76436],[-124.57667,49.76435],[-124.57664,49.76434],[-124.57529,49.76377],[-124.57526,49.76376],[-124.57523,49.76375],[-124.5752,49.76374],[-124.57517,49.76373],[-124.57514,49.76372],[-124.57511,49.76371],[-124.57508,49.7637],[-124.57505,49.76369],[-124.57502,49.76368],[-124.57499,49.76367],[-124.57496,49.76366],[-124.57493,49.76365],[-124.57489,49.76365],[-124.57486,49.76364],[-124.57483,49.76363],[-124.5748,49.76363],[-124.57476,49.76362],[-124.57473,49.76361],[-124.5747,49.76361],[-124.57467,49.7636],[-124.57463,49.7636],[-124.5746,49.76359],[-124.57457,49.76359],[-124.57453,49.76359],[-124.5745,49.76358],[-124.57447,49.76358],[-124.57443,49.76358],[-124.5744,49.76358],[-124.57437,49.76358],[-124.57433,49.76357],[-124.5743,49.76357],[-124.57426,49.76357],[-124.57423,49.76357],[-124.5742,49.76357],[-124.57416,49.76357],[-124.57413,49.76357],[-124.5741,49.76358],[-124.57406,49.76358],[-124.57403,49.76358],[-124.574,49.76358],[-124.57396,49.76359],[-124.57393,49.76359],[-124.57389,49.76359],[-124.57386,49.7636],[-124.57383,49.7636],[-124.5738,49.76361],[-124.57376,49.76361],[-124.57373,49.76362],[-124.5737,49.76362],[-124.57367,49.76363],[-124.57363,49.76363],[-124.5736,49.76364],[-124.57357,49.76365],[-124.57354,49.76366],[-124.57351,49.76367],[-124.57347,49.76367],[-124.57344,49.76368],[-124.57341,49.76369],[-124.57338,49.7637],[-124.57269,49.76392],[-124.57268,49.76393],[-124.57266,49.76393],[-124.57264,49.76394],[-124.57262,49.76394],[-124.5726,49.76395],[-124.57258,49.76395],[-124.57257,49.76396],[-124.57255,49.76396],[-124.57253,49.76396],[-124.57251,49.76397],[-124.57249,49.76397],[-124.57247,49.76398],[-124.57245,49.76398],[-124.57243,49.76398],[-124.57241,49.76398],[-124.57239,49.76399],[-124.57237,49.76399],[-124.57235,49.76399],[-124.57233,49.76399],[-124.57232,49.76399],[-124.57231,49.76399],[-124.57229,49.764],[-124.57233,49.76393],[-124.57237,49.76393],[-124.5724,49.76393],[-124.57251,49.76392],[-124.57258,49.76391],[-124.57265,49.7639],[-124.57269,49.76388],[-124.57275,49.76382],[-124.57279,49.76375],[-124.57283,49.76368],[-124.57286,49.76366],[-124.57291,49.76363],[-124.57297,49.76361],[-124.57305,49.76358],[-124.57309,49.76357],[-124.57311,49.76356],[-124.57319,49.76354],[-124.57326,49.76353],[-124.57336,49.76353],[-124.57343,49.76352],[-124.57351,49.76349],[-124.57359,49.76344],[-124.57365,49.7634],[-124.57377,49.76334],[-124.57383,49.7633],[-124.57395,49.7633],[-124.57402,49.7633],[-124.57413,49.7633],[-124.57423,49.76329],[-124.57428,49.76327],[-124.57429,49.7632],[-124.57426,49.76317],[-124.5742,49.76315],[-124.57413,49.76313],[-124.5741,49.76313],[-124.57408,49.76312],[-124.57403,49.76309],[-124.57401,49.76306],[-124.57404,49.76302],[-124.57409,49.76299],[-124.57418,49.76298],[-124.57432,49.76298],[-124.57441,49.76299],[-124.57448,49.76302],[-124.57449,49.76303],[-124.57453,49.76308],[-124.5746,49.76315],[-124.57466,49.7632],[-124.57469,49.76321],[-124.57478,49.76318],[-124.57483,49.76321],[-124.57489,49.76325],[-124.57488,49.7633],[-124.57485,49.76331],[-124.57481,49.7633],[-124.57477,49.76331],[-124.57476,49.76334],[-124.57477,49.76338],[-124.57482,49.76341],[-124.57492,49.76344],[-124.57515,49.7635],[-124.57534,49.76355],[-124.5755,49.76359],[-124.57561,49.76363],[-124.57567,49.76364],[-124.57576,49.76363],[-124.57601,49.76366],[-124.5761,49.76366],[-124.57625,49.76367],[-124.57627,49.76367],[-124.57632,49.7637],[-124.57637,49.76374],[-124.5764,49.7638],[-124.57642,49.76384],[-124.57644,49.76386],[-124.57649,49.76389],[-124.57655,49.76391],[-124.57662,49.76392],[-124.5767,49.76392],[-124.57673,49.76389],[-124.57674,49.76384],[-124.57672,49.76379],[-124.57672,49.76377],[-124.57667,49.7637],[-124.57666,49.76366],[-124.57669,49.76362],[-124.5767,49.76361],[-124.57673,49.76358],[-124.57672,49.76353],[-124.57666,49.76349],[-124.57664,49.76346],[-124.57665,49.76342],[-124.5767,49.76343],[-124.57672,49.76344],[-124.57675,49.76346],[-124.57679,49.76348],[-124.57686,49.76347],[-124.57687,49.76345],[-124.57689,49.76343],[-124.57692,49.76338],[-124.57693,49.76337],[-124.57702,49.76334],[-124.57711,49.76335],[-124.57719,49.76338],[-124.57726,49.76341],[-124.57732,49.76343],[-124.57739,49.76345],[-124.57747,49.76349],[-124.57754,49.76352],[-124.5776,49.76355],[-124.57766,49.76358],[-124.57771,49.76365],[-124.57774,49.76369],[-124.57779,49.76375],[-124.57785,49.76381],[-124.57793,49.76386],[-124.57799,49.76389],[-124.57805,49.76393],[-124.5781,49.76396],[-124.57821,49.76401],[-124.57826,49.76405],[-124.57828,49.76405],[-124.57841,49.76412],[-124.57849,49.76414],[-124.57854,49.76414],[-124.57866,49.76411],[-124.57871,49.76409],[-124.57876,49.76406],[-124.5788,49.76401],[-124.57882,49.76396],[-124.57884,49.76392],[-124.57888,49.76387],[-124.57891,49.76383],[-124.57893,49.76378],[-124.57893,49.76375],[-124.57887,49.76372],[-124.57879,49.76372],[-124.57866,49.76374],[-124.5785,49.76367],[-124.57845,49.76359],[-124.57832,49.76352],[-124.57821,49.76347],[-124.57812,49.76345],[-124.57805,49.76344],[-124.57798,49.76345],[-124.57797,49.76346],[-124.57791,49.76346],[-124.57783,49.76344],[-124.57779,49.76338],[-124.57778,49.76331],[-124.57779,49.76319],[-124.57778,49.76315],[-124.57773,49.7631],[-124.57768,49.76306],[-124.57762,49.763],[-124.57759,49.76295],[-124.57757,49.7629],[-124.57756,49.76287],[-124.57755,49.76282],[-124.57753,49.76277],[-124.57761,49.76277]]],[[[-124.57482,49.76272],[-124.5748,49.76272],[-124.57466,49.76272],[-124.57451,49.7627],[-124.57437,49.76268],[-124.57426,49.76266],[-124.57419,49.76266],[-124.57412,49.76265],[-124.57398,49.76264],[-124.57381,49.76264],[-124.57368,49.76263],[-124.57355,49.76262],[-124.57346,49.7626],[-124.57338,49.76258],[-124.57336,49.76257],[-124.57335,49.76257],[-124.57349,49.76238],[-124.57401,49.76168],[-124.57484,49.76169],[-124.57482,49.76263],[-124.57482,49.76265],[-124.57482,49.76272]]]]}},{"type":"Feature","properties":{"c":"1100352","o":"IMPERIAL LIMESTONE COMPANY LIMITED","e":"2027-01-09Z"},"geometry":{"type":"Polygon","coordinates":[[[-124.54516,49.71232],[-124.53891,49.71232],[-124.53891,49.70816],[-124.54516,49.70816],[-124.55141,49.70816],[-124.55766,49.70816],[-124.55766,49.71232],[-124.55141,49.71232],[-124.54516,49.71232]]]}},{"type":"Feature","properties":{"c":"1100359","o":"IMPERIAL LIMESTONE COMPANY LIMITED","e":"2027-01-10Z"},"geometry":{"type":"Polygon","coordinates":[[[-124.52016,49.73316],[-124.51391,49.73316],[-124.50766,49.73316],[-124.50766,49.72899],[-124.50766,49.72482],[-124.50766,49.72066],[-124.50141,49.72066],[-124.50141,49.71649],[-124.50141,49.71232],[-124.50141,49.70816],[-124.50141,49.70399],[-124.50141,49.69982],[-124.49516,49.69982],[-124.49515,49.69566],[-124.50141,49.69566],[-124.50766,49.69566],[-124.51391,49.69566],[-124.51391,49.69982],[-124.51391,49.70399],[-124.51391,49.70816],[-124.51391,49.71232],[-124.51391,49.71649],[-124.51391,49.72066],[-124.51391,49.72482],[-124.52016,49.72482],[-124.52016,49.72899],[-124.52016,49.73316]]]}},{"type":"Feature","properties":{"c":"1080210","o":"ACORN, NICOLE","e":"2027-01-15Z"},"geometry":{"type":"Polygon","coordinates":[[[-124.57016,49.72899],[-124.57016,49.72482],[-124.57641,49.72482],[-124.58266,49.72482],[-124.58266,49.72899],[-124.57641,49.72899],[-124.57016,49.72899]]]}},{"type":"Feature","properties":{"c":"1080874","o":"ACORN, NICOLE","e":"2027-01-31Z"},"geometry":{"type":"Polygon","coordinates":[[[-124.56391,49.74982],[-124.56391,49.75399],[-124.55766,49.75399],[-124.55766,49.74982],[-124.56391,49.74982]]]}},{"type":"Feature","properties":{"c":"231450","o":"AMRIZE CANADA INC.","e":"2027-03-12Z"},"geometry":{"type":"Polygon","coordinates":[[[-124.52218,49.71271],[-124.52397,49.71357],[-124.5241,49.71363],[-124.527,49.71502],[-124.52722,49.71513],[-124.52728,49.71515],[-124.52655,49.71581],[-124.52501,49.71719],[-124.52362,49.71845],[-124.51847,49.71605],[-124.51942,49.71518],[-124.5214,49.7134],[-124.52164,49.71319],[-124.52218,49.71271]]]}},{"type":"Feature","properties":{"c":"231464","o":"AMRIZE CANADA INC.","e":"2027-01-14Z"},"geometry":{"type":"MultiPolygon","coordinates":[[[[-124.54898,49.73394],[-124.55066,49.73526],[-124.54893,49.73619],[-124.54885,49.73956],[-124.54282,49.7397],[-124.53727,49.73968],[-124.5376,49.73942],[-124.53726,49.73848],[-124.5378,49.73776],[-124.53745,49.73753],[-124.53798,49.73718],[-124.53779,49.73691],[-124.53819,49.73704],[-124.54191,49.7346],[-124.5462,49.73231],[-124.54642,49.7322],[-124.5468,49.73256],[-124.54903,49.73155],[-124.54898,49.73394]]],[[[-124.535,49.73295],[-124.5365,49.73508],[-124.5349,49.73557],[-124.53082,49.7368],[-124.53083,49.73269],[-124.5294,49.73268],[-124.53387,49.73134],[-124.535,49.73295]]]]}},{"type":"Feature","properties":{"c":"301554","o":"AMRIZE CANADA INC.","e":"2027-03-23Z"},"geometry":{"type":"Polygon","coordinates":[[[-124.52969,49.74298],[-124.53122,49.74317],[-124.5363,49.74377],[-124.53616,49.7472],[-124.5292,49.74704],[-124.52306,49.74689],[-124.52306,49.74527],[-124.52607,49.74679],[-124.52894,49.74441],[-124.52568,49.7438],[-124.52665,49.74158],[-124.52678,49.74126],[-124.53018,49.74123],[-124.52969,49.74298]]]}},{"type":"Feature","properties":{"c":"301555","o":"AMRIZE CANADA INC.","e":"2027-03-23Z"},"geometry":{"type":"Polygon","coordinates":[[[-124.53779,49.73691],[-124.53798,49.73718],[-124.53745,49.73753],[-124.5378,49.73776],[-124.53726,49.73848],[-124.5376,49.73942],[-124.53727,49.73968],[-124.53647,49.73967],[-124.53646,49.74258],[-124.53514,49.74151],[-124.53421,49.74097],[-124.53279,49.73993],[-124.5319,49.73905],[-124.53244,49.73911],[-124.53145,49.73764],[-124.53102,49.73706],[-124.53082,49.7368],[-124.5365,49.73508],[-124.53779,49.73691]]]}},{"type":"Feature","properties":{"c":"301563","o":"AMRIZE CANADA INC.","e":"2027-03-23Z"},"geometry":{"type":"Polygon","coordinates":[[[-124.53279,49.73993],[-124.53313,49.74018],[-124.53421,49.74097],[-124.53514,49.74151],[-124.53636,49.7425],[-124.53646,49.74258],[-124.53645,49.74378],[-124.53643,49.74789],[-124.53642,49.74902],[-124.53616,49.7472],[-124.5363,49.74377],[-124.52969,49.74298],[-124.53018,49.74123],[-124.5309,49.73893],[-124.53098,49.73894],[-124.53151,49.739],[-124.5319,49.73905],[-124.53279,49.73993]]]}},{"type":"Feature","properties":{"c":"301564","o":"AMRIZE CANADA INC.","e":"2027-03-23Z"},"geometry":{"type":"Polygon","coordinates":[[[-124.53082,49.7368],[-124.53145,49.73764],[-124.52924,49.73763],[-124.52343,49.73595],[-124.52341,49.73532],[-124.52516,49.73315],[-124.52394,49.73254],[-124.52925,49.73268],[-124.53083,49.73269],[-124.53082,49.7368]]]}},{"type":"Feature","properties":{"c":"306291","o":"AMRIZE CANADA INC.","e":"2026-09-01Z"},"geometry":{"type":"MultiPolygon","coordinates":[[[[-124.55662,49.72437],[-124.55657,49.72432],[-124.55503,49.72313],[-124.55512,49.72307],[-124.55415,49.72242],[-124.54722,49.72243],[-124.53446,49.72235],[-124.53452,49.71877],[-124.53457,49.71551],[-124.53457,49.71539],[-124.54123,49.71552],[-124.54114,49.71917],[-124.54559,49.71926],[-124.54567,49.71649],[-124.54586,49.71957],[-124.55163,49.71942],[-124.55741,49.71939],[-124.55737,49.71584],[-124.55737,49.71558],[-124.55748,49.71558],[-124.5574,49.71146],[-124.55149,49.71152],[-124.55155,49.71454],[-124.55145,49.71453],[-124.55131,49.71152],[-124.54923,49.71156],[-124.54923,49.71134],[-124.54922,49.70906],[-124.55161,49.70847],[-124.55171,49.70844],[-124.55342,49.70848],[-124.5602,49.70858],[-124.56024,49.71066],[-124.56033,49.71479],[-124.56737,49.71525],[-124.56739,49.71613],[-124.56447,49.71603],[-124.56035,49.7159],[-124.56032,49.71649],[-124.55994,49.72241],[-124.56296,49.72271],[-124.56443,49.72486],[-124.56026,49.72613],[-124.55868,49.72661],[-124.55863,49.72653],[-124.55763,49.72515],[-124.5572,49.72481],[-124.55709,49.72473],[-124.55685,49.72454],[-124.55676,49.72447],[-124.55662,49.72437]]],[[[-124.53271,49.70825],[-124.53271,49.70833],[-124.53269,49.7105],[-124.52772,49.71027],[-124.52716,49.71024],[-124.52709,49.70832],[-124.52714,49.70827],[-124.52719,49.70819],[-124.5272,49.70813],[-124.52721,49.70808],[-124.52717,49.70802],[-124.52715,49.70796],[-124.52714,49.70792],[-124.53266,49.70825],[-124.53271,49.70825]]]]}},{"type":"Feature","properties":{"c":"306295","o":"AMRIZE CANADA INC.","e":"2026-09-01Z"},"geometry":{"type":"MultiPolygon","coordinates":[[[[-124.55685,49.72454],[-124.55709,49.72473],[-124.5572,49.72481],[-124.55763,49.72515],[-124.55863,49.72653],[-124.55653,49.72767],[-124.55648,49.72769],[-124.55647,49.7277],[-124.55625,49.72782],[-124.55597,49.72797],[-124.55589,49.72801],[-124.55522,49.72837],[-124.55474,49.72863],[-124.55435,49.72884],[-124.55071,49.72599],[-124.55069,49.726],[-124.54627,49.72304],[-124.54722,49.72243],[-124.55415,49.72242],[-124.55512,49.72307],[-124.55503,49.72313],[-124.55657,49.72432],[-124.55662,49.72437],[-124.55676,49.72447],[-124.55685,49.72454]]],[[[-124.56024,49.71066],[-124.56285,49.71084],[-124.56732,49.71314],[-124.56737,49.71525],[-124.56033,49.71479],[-124.56024,49.71066]]]]}},{"type":"Feature","properties":{"c":"401594","o":"AMRIZE CANADA INC.","e":"2026-06-18Z"},"geometry":{"type":"Polygon","coordinates":[[[-124.52881,49.71551],[-124.53457,49.71551],[-124.53452,49.71877],[-124.53022,49.71877],[-124.52881,49.71877],[-124.52881,49.71551]]]}},{"type":"Feature","properties":{"c":"401595","o":"AMRIZE CANADA INC.","e":"2026-06-18Z"},"geometry":{"type":"Polygon","coordinates":[[[-124.52764,49.71551],[-124.52771,49.71129],[-124.52772,49.71027],[-124.53269,49.7105],[-124.53271,49.70833],[-124.53468,49.70834],[-124.53464,49.71134],[-124.53457,49.71539],[-124.53457,49.71551],[-124.52881,49.71551],[-124.52764,49.71551]]]}},{"type":"Feature","properties":{"c":"509819","o":"AMRIZE CANADA INC.","e":"2026-10-26Z"},"geometry":{"type":"Polygon","coordinates":[[[-124.53891,49.75816],[-124.53266,49.75816],[-124.52641,49.75816],[-124.52641,49.75399],[-124.52016,49.75399],[-124.51391,49.75399],[-124.51391,49.74983],[-124.51391,49.74566],[-124.52016,49.74566],[-124.52641,49.74566],[-124.52641,49.74149],[-124.52641,49.73732],[-124.53266,49.73732],[-124.53891,49.73732],[-124.53891,49.74149],[-124.53891,49.74566],[-124.53891,49.74982],[-124.53891,49.75399],[-124.53891,49.75816]]]}},{"type":"Feature","properties":{"c":"509822","o":"AMRIZE CANADA INC.","e":"2026-10-26Z"},"geometry":{"type":"Polygon","coordinates":[[[-124.55766,49.74149],[-124.55141,49.74149],[-124.54516,49.74149],[-124.53891,49.74149],[-124.53891,49.73732],[-124.53266,49.73732],[-124.52641,49.73732],[-124.52016,49.73732],[-124.52016,49.73316],[-124.52016,49.72899],[-124.52641,49.72899],[-124.52641,49.72482],[-124.53266,49.72482],[-124.53891,49.72482],[-124.54516,49.72482],[-124.55141,49.72482],[-124.55766,49.72482],[-124.55766,49.72899],[-124.55766,49.73316],[-124.55766,49.73732],[-124.55766,49.74149]]]}},{"type":"Feature","properties":{"c":"509825","o":"AMRIZE CANADA INC.","e":"2026-10-26Z"},"geometry":{"type":"Polygon","coordinates":[[[-124.58266,49.72482],[-124.57641,49.72482],[-124.57016,49.72482],[-124.57016,49.72899],[-124.57016,49.73316],[-124.57016,49.73732],[-124.57016,49.74149],[-124.56391,49.74149],[-124.55766,49.74149],[-124.55766,49.73732],[-124.55766,49.73316],[-124.55766,49.72899],[-124.55766,49.72482],[-124.55766,49.72066],[-124.55766,49.71649],[-124.56391,49.71649],[-124.57016,49.71649],[-124.57016,49.71232],[-124.57016,49.70816],[-124.56391,49.70816],[-124.55766,49.70816],[-124.55141,49.70816],[-124.54516,49.70816],[-124.54516,49.70399],[-124.55141,49.70399],[-124.55766,49.70399],[-124.56391,49.70399],[-124.57016,49.70399],[-124.57641,49.70399],[-124.57641,49.70816],[-124.58266,49.70816],[-124.58266,49.71232],[-124.58266,49.71649],[-124.58266,49.72066],[-124.58266,49.72482]]]}},{"type":"Feature","properties":{"c":"509827","o":"AMRIZE CANADA INC.","e":"2026-10-26Z"},"geometry":{"type":"Polygon","coordinates":[[[-124.55141,49.70399],[-124.54516,49.70399],[-124.54516,49.70816],[-124.53891,49.70816],[-124.53266,49.70816],[-124.52641,49.70816],[-124.52016,49.70816],[-124.51391,49.70816],[-124.51391,49.70399],[-124.51391,49.69982],[-124.51391,49.69566],[-124.52016,49.69566],[-124.52641,49.69566],[-124.53266,49.69566],[-124.53266,49.69149],[-124.53891,49.69149],[-124.53891,49.69566],[-124.54516,49.69566],[-124.55141,49.69566],[-124.55141,49.69982],[-124.55766,49.69982],[-124.56391,49.69982],[-124.56391,49.70399],[-124.55766,49.70399],[-124.55141,49.70399]]]}},{"type":"Feature","properties":{"c":"509829","o":"AMRIZE CANADA INC.","e":"2026-10-26Z"},"geometry":{"type":"Polygon","coordinates":[[[-124.53891,49.72482],[-124.53266,49.72482],[-124.52641,49.72482],[-124.52641,49.72066],[-124.52016,49.72066],[-124.52016,49.72482],[-124.51391,49.72482],[-124.51391,49.72066],[-124.51391,49.71649],[-124.51391,49.71232],[-124.51391,49.70816],[-124.52016,49.70816],[-124.52641,49.70816],[-124.53266,49.70816],[-124.53266,49.71232],[-124.53266,49.71649],[-124.53891,49.71649],[-124.53891,49.72066],[-124.54516,49.72066],[-124.55141,49.72066],[-124.55141,49.72482],[-124.54516,49.72482],[-124.53891,49.72482]]]}},{"type":"Feature","properties":{"c":"517073","o":"AMRIZE CANADA INC.","e":"2026-10-26Z"},"geometry":{"type":"Polygon","coordinates":[[[-124.59516,49.72482],[-124.58891,49.72482],[-124.58266,49.72482],[-124.58266,49.72066],[-124.58266,49.71649],[-124.58891,49.71649],[-124.58891,49.71232],[-124.59516,49.71232],[-124.59516,49.71649],[-124.59516,49.72066],[-124.59516,49.72482]]]}},{"type":"Feature","properties":{"c":"517120","o":"AMRIZE CANADA INC.","e":"2026-10-26Z"},"geometry":{"type":"Polygon","coordinates":[[[-124.59516,49.72482],[-124.59516,49.72899],[-124.58891,49.72899],[-124.58891,49.72482],[-124.59516,49.72482]]]}},{"type":"Feature","properties":{"c":"517138","o":"AMRIZE CANADA INC.","e":"2026-10-26Z"},"geometry":{"type":"Polygon","coordinates":[[[-124.58891,49.72899],[-124.58891,49.73316],[-124.58266,49.73316],[-124.58266,49.72899],[-124.58891,49.72899]]]}},{"type":"Feature","properties":{"c":"517175","o":"AMRIZE CANADA INC.","e":"2026-10-26Z"},"geometry":{"type":"Polygon","coordinates":[[[-124.55766,49.72066],[-124.55141,49.72066],[-124.54516,49.72066],[-124.53891,49.72066],[-124.53891,49.71649],[-124.54516,49.71649],[-124.54516,49.71232],[-124.55141,49.71232],[-124.55766,49.71232],[-124.55766,49.71649],[-124.55766,49.72066]]]}},{"type":"Feature","properties":{"c":"519313","o":"AMRIZE CANADA INC.","e":"2026-10-26Z"},"geometry":{"type":"Polygon","coordinates":[[[-124.53891,49.75816],[-124.53891,49.75399],[-124.54516,49.75399],[-124.55141,49.75399],[-124.55141,49.75816],[-124.54516,49.75816],[-124.53891,49.75816]]]}},{"type":"Feature","properties":{"c":"552803","o":"AMRIZE CANADA INC.","e":"2027-02-26Z"},"geometry":{"type":"Polygon","coordinates":[[[-124.60141,49.72066],[-124.59516,49.72066],[-124.59516,49.71649],[-124.59516,49.71232],[-124.60141,49.71232],[-124.60141,49.71649],[-124.60141,49.72066]]]}},{"type":"Feature","properties":{"c":"1035780","o":"AMRIZE CANADA INC.","e":"2027-04-29Z"},"geometry":{"type":"MultiPolygon","coordinates":[[[[-124.53266,49.70816],[-124.53891,49.70816],[-124.54071,49.70816],[-124.54107,49.70857],[-124.5422,49.70816],[-124.54516,49.70816],[-124.54603,49.70816],[-124.54616,49.70837],[-124.54617,49.70838],[-124.54631,49.70862],[-124.5469,49.70963],[-124.54922,49.70906],[-124.54923,49.71134],[-124.54923,49.71156],[-124.54566,49.71163],[-124.54566,49.71143],[-124.54132,49.71139],[-124.54036,49.71238],[-124.53975,49.71534],[-124.54123,49.71547],[-124.54123,49.71552],[-124.53457,49.71539],[-124.53464,49.71134],[-124.53468,49.70834],[-124.53271,49.70833],[-124.53271,49.70825],[-124.53266,49.70825],[-124.53266,49.70816]]],[[[-124.55179,49.70843],[-124.55282,49.70817],[-124.55281,49.70816],[-124.55766,49.70816],[-124.56391,49.70816],[-124.57016,49.70816],[-124.57016,49.71232],[-124.57016,49.71649],[-124.56391,49.71649],[-124.56032,49.71649],[-124.56035,49.7159],[-124.56447,49.71603],[-124.56739,49.71613],[-124.56737,49.71525],[-124.56732,49.71314],[-124.56285,49.71084],[-124.56024,49.71066],[-124.5602,49.70858],[-124.55342,49.70848],[-124.55171,49.70844],[-124.55179,49.70843]]]]}},{"type":"Feature","properties":{"c":"1112377","o":"IMPERIAL LIMESTONE COMPANY LIMITED","e":"2027-04-10Z"},"geometry":{"type":"Polygon","coordinates":[[[-124.54516,49.71232],[-124.54516,49.71649],[-124.53891,49.71649],[-124.53891,49.71232],[-124.54516,49.71232]]]}},{"type":"Feature","properties":{"c":"1112141","o":"IMPERIAL LIMESTONE COMPANY LIMITED","e":"2027-03-28Z"},"geometry":{"type":"Polygon","coordinates":[[[-124.58266,49.73316],[-124.58266,49.73732],[-124.57641,49.73732],[-124.57641,49.73316],[-124.58266,49.73316]]]}},{"type":"Feature","properties":{"c":"1108844","o":"IMPERIAL LIMESTONE COMPANY LIMITED","e":"2027-11-03Z"},"geometry":{"type":"Polygon","coordinates":[[[-124.51391,49.74566],[-124.51391,49.74983],[-124.50766,49.74983],[-124.50766,49.74566],[-124.51391,49.74566]]]}},{"type":"Feature","properties":{"c":"1108846","o":"IMPERIAL LIMESTONE COMPANY LIMITED","e":"2027-11-03Z"},"geometry":{"type":"Polygon","coordinates":[[[-124.63267,49.77482],[-124.63267,49.77899],[-124.62642,49.77899],[-124.62642,49.77482],[-124.63267,49.77482]]]}},{"type":"Feature","properties":{"c":"1139868","o":"BROMLEY, JOSHUA WILLIAM","e":"2027-10-01Z"},"geometry":{"type":"Polygon","coordinates":[[[-124.58891,49.71649],[-124.58266,49.71649],[-124.58266,49.71232],[-124.58266,49.70816],[-124.58891,49.70816],[-124.58891,49.71232],[-124.58891,49.71649]]]}},{"type":"Feature","properties":{"c":"1136344","o":"DELORME, GUY RICHARD","e":"2027-07-22Z"},"geometry":{"type":"Polygon","coordinates":[[[-124.57641,49.72899],[-124.57641,49.73316],[-124.57016,49.73316],[-124.57016,49.72899],[-124.57641,49.72899]]]}},{"type":"Feature","properties":{"c":"1136592","o":"NORRIS, JEFFREY WAYNE","e":"2027-07-22Z"},"geometry":{"type":"Polygon","coordinates":[[[-124.51392,49.89566],[-124.50767,49.89566],[-124.50142,49.89566],[-124.50142,49.89149],[-124.50142,49.88733],[-124.50767,49.88733],[-124.51392,49.88733],[-124.51392,49.89149],[-124.51392,49.89566]]]}},{"type":"Feature","properties":{"c":"1136733","o":"CRITCHLEY, CHARLES FRANCIS","e":"2027-07-27Z"},"geometry":{"type":"Polygon","coordinates":[[[-124.58266,49.73732],[-124.58266,49.74149],[-124.57641,49.74149],[-124.57641,49.73732],[-124.58266,49.73732]]]}},{"type":"Feature","properties":{"c":"1113736","o":"QUADRA COASTAL RESOURCES LTD.","e":"2026-11-30Z"},"geometry":{"type":"MultiPolygon","coordinates":[[[[-124.49516,49.72482],[-124.48891,49.72482],[-124.48891,49.72899],[-124.48266,49.72899],[-124.48266,49.72482],[-124.48266,49.72066],[-124.47641,49.72066],[-124.47016,49.72066],[-124.46391,49.72066],[-124.45765,49.72066],[-124.45765,49.71649],[-124.45765,49.71232],[-124.4514,49.71232],[-124.4514,49.70816],[-124.44515,49.70816],[-124.44515,49.70399],[-124.44515,49.69982],[-124.4514,49.69982],[-124.45765,49.69982],[-124.4639,49.69982],[-124.47015,49.69982],[-124.47015,49.70399],[-124.4764,49.70399],[-124.4764,49.70816],[-124.48266,49.70816],[-124.48266,49.71232],[-124.48891,49.71232],[-124.49516,49.71232],[-124.49516,49.71649],[-124.50141,49.71649],[-124.50141,49.72066],[-124.50766,49.72066],[-124.50766,49.72482],[-124.50141,49.72482],[-124.49516,49.72482]],[[-124.47641,49.71232],[-124.47015,49.71232],[-124.4639,49.71232],[-124.4639,49.71649],[-124.47016,49.71649],[-124.47641,49.71649],[-124.47641,49.71232]]]]}},{"type":"Feature","properties":{"c":"1138829","o":"ANDERSON, JEFFREY DAVID","e":"2027-09-11Z"},"geometry":{"type":"Polygon","coordinates":[[[-124.63266,49.73316],[-124.63266,49.73732],[-124.62641,49.73732],[-124.62641,49.73316],[-124.63266,49.73316]]]}},{"type":"Feature","properties":{"c":"1136725","o":"DE CASTRO, ANTONIO","e":"2027-07-27Z"},"geometry":{"type":"Polygon","coordinates":[[[-125.00142,49.75398],[-124.99517,49.75399],[-124.99517,49.74982],[-124.99517,49.74565],[-125.00142,49.74565],[-125.00142,49.74982],[-125.00142,49.75398]]]}},{"type":"Feature","properties":{"c":"1138655","o":"IMPERIAL LIMESTONE COMPANY LIMITED","e":"2027-09-09Z"},"geometry":{"type":"Polygon","coordinates":[[[-124.51391,49.74566],[-124.51391,49.74149],[-124.51391,49.73732],[-124.51391,49.73316],[-124.52016,49.73316],[-124.52016,49.73732],[-124.52016,49.74149],[-124.52641,49.74149],[-124.52641,49.74566],[-124.52016,49.74566],[-124.51391,49.74566]]]}},{"type":"Feature","properties":{"c":"1136472","o":"ANDERSON, JEFFREY DAVID","e":"2027-07-22Z"},"geometry":{"type":"Polygon","coordinates":[[[-124.63891,49.73316],[-124.63891,49.73732],[-124.63266,49.73732],[-124.63266,49.73316],[-124.63891,49.73316]]]}},{"type":"Feature","properties":{"c":"1134923","o":"DELORME, GUY RICHARD","e":"2027-07-07Z"},"geometry":{"type":"Polygon","coordinates":[[[-124.53891,49.73316],[-124.53891,49.73732],[-124.53266,49.73732],[-124.53266,49.73316],[-124.53891,49.73316]]]}},{"type":"Feature","properties":{"c":"1134955","o":"CRITCHLEY, CHARLES FRANCIS","e":"2027-07-07Z"},"geometry":{"type":"Polygon","coordinates":[[[-124.57641,49.73316],[-124.57641,49.73732],[-124.57016,49.73732],[-124.57016,49.73316],[-124.57641,49.73316]]]}},{"type":"Feature","properties":{"c":"1134964","o":"SCOTT, STEVEN JEFFREY","e":"2027-07-07Z"},"geometry":{"type":"Polygon","coordinates":[[[-124.70143,49.94566],[-124.70143,49.94983],[-124.69517,49.94983],[-124.69517,49.94566],[-124.70143,49.94566]]]}},{"type":"Feature","properties":{"c":"1114338","o":"IMPERIAL LIMESTONE COMPANY LIMITED","e":"2027-07-10Z"},"geometry":{"type":"Polygon","coordinates":[[[-124.50141,49.71649],[-124.49516,49.71649],[-124.49516,49.71232],[-124.49516,49.70816],[-124.49516,49.70399],[-124.49516,49.69982],[-124.50141,49.69982],[-124.50141,49.70399],[-124.50141,49.70816],[-124.50141,49.71232],[-124.50141,49.71649]]]}},{"type":"Feature","properties":{"c":"504530","o":"ALPHA COPPER CORP","e":"2028-11-25Z"},"geometry":{"type":"Polygon","coordinates":[[[-124.67018,50.00399],[-124.66393,50.00399],[-124.65768,50.00399],[-124.65142,50.00399],[-124.64517,50.00399],[-124.63892,50.00399],[-124.63267,50.00399],[-124.62642,50.00399],[-124.62017,50.00399],[-124.61392,50.00399],[-124.61392,49.99983],[-124.61392,49.99566],[-124.61392,49.99149],[-124.62017,49.99149],[-124.62642,49.99149],[-124.63267,49.99149],[-124.63892,49.99149],[-124.64517,49.99149],[-124.65142,49.99149],[-124.65767,49.99149],[-124.65767,49.99566],[-124.66393,49.99566],[-124.67018,49.99566],[-124.67018,49.99983],[-124.67018,50.00399]]]}},{"type":"Feature","properties":{"c":"543424","o":"ALPHA COPPER CORP","e":"2028-11-25Z"},"geometry":{"type":"Polygon","coordinates":[[[-124.62017,50.01233],[-124.61392,50.01233],[-124.60767,50.01233],[-124.60142,50.01233],[-124.59517,50.01233],[-124.59517,50.00816],[-124.59517,50.00399],[-124.59517,49.99983],[-124.60142,49.99983],[-124.60767,49.99983],[-124.61392,49.99983],[-124.61392,50.00399],[-124.62017,50.00399],[-124.62017,50.00816],[-124.62017,50.01233]]]}},{"type":"Feature","properties":{"c":"558043","o":"ALPHA COPPER CORP","e":"2028-11-25Z"},"geometry":{"type":"Polygon","coordinates":[[[-124.68893,50.03316],[-124.68268,50.03316],[-124.67643,50.03316],[-124.67018,50.03316],[-124.67018,50.02899],[-124.67018,50.02483],[-124.67018,50.02066],[-124.67018,50.01649],[-124.67018,50.01233],[-124.67018,50.00816],[-124.67018,50.00399],[-124.67018,49.99983],[-124.67643,49.99983],[-124.67643,50.00399],[-124.68268,50.00399],[-124.68268,50.00816],[-124.68268,50.01233],[-124.68268,50.01649],[-124.68893,50.01649],[-124.68893,50.02066],[-124.68893,50.02483],[-124.68893,50.02899],[-124.68893,50.03316]]]}}]}