{"type":"FeatureCollection","features":[{"type":"Feature","properties":{"c":"1060061","o":"BENZ, DIANA MARIE","e":"2027-01-26Z"},"geometry":{"type":"Polygon","coordinates":[[[-125.04535,53.95408],[-125.0391,53.95408],[-125.03285,53.95408],[-125.0266,53.95408],[-125.02035,53.95408],[-125.0141,53.95408],[-125.00785,53.95408],[-125.0016,53.95408],[-124.99535,53.95408],[-124.9891,53.95408],[-124.98285,53.95408],[-124.98285,53.94992],[-124.98285,53.94575],[-124.9891,53.94575],[-124.99535,53.94575],[-125.0016,53.94575],[-125.00785,53.94575],[-125.0141,53.94575],[-125.02035,53.94575],[-125.0266,53.94575],[-125.03285,53.94575],[-125.0391,53.94575],[-125.04535,53.94575],[-125.04535,53.94992],[-125.04535,53.95408]]]}},{"type":"Feature","properties":{"c":"1071291","o":"EVERGOLD CORP.","e":"2033-07-10Z"},"geometry":{"type":"Polygon","coordinates":[[[-125.00784,53.78325],[-125.00159,53.78325],[-124.99534,53.78325],[-124.98909,53.78325],[-124.98284,53.78325],[-124.97659,53.78325],[-124.97034,53.78325],[-124.97034,53.77908],[-124.97034,53.77492],[-124.97659,53.77492],[-124.98284,53.77492],[-124.98284,53.77075],[-124.98284,53.76658],[-124.98284,53.76242],[-124.98284,53.75825],[-124.98284,53.75408],[-124.98909,53.75408],[-124.99534,53.75408],[-125.00159,53.75408],[-125.00784,53.75408],[-125.00784,53.75825],[-125.00784,53.76242],[-125.00784,53.76658],[-125.00784,53.77075],[-125.00784,53.77492],[-125.00784,53.77908],[-125.00784,53.78325]]]}},{"type":"Feature","properties":{"c":"1062808","o":"BENZ, DIANA MARIE","e":"2027-01-26Z"},"geometry":{"type":"Polygon","coordinates":[[[-125.0141,53.95825],[-125.00785,53.95825],[-125.0016,53.95825],[-124.99535,53.95825],[-124.99535,53.95408],[-125.0016,53.95408],[-125.00785,53.95408],[-125.0141,53.95408],[-125.02035,53.95408],[-125.0266,53.95408],[-125.0266,53.95825],[-125.02035,53.95825],[-125.0141,53.95825]]]}},{"type":"Feature","properties":{"c":"1062809","o":"BENZ, DIANA MARIE","e":"2027-01-26Z"},"geometry":{"type":"Polygon","coordinates":[[[-125.0516,53.95825],[-125.04535,53.95825],[-125.0391,53.95825],[-125.03285,53.95825],[-125.0266,53.95825],[-125.0266,53.95408],[-125.03285,53.95408],[-125.0391,53.95408],[-125.04535,53.95408],[-125.04535,53.94992],[-125.04535,53.94575],[-125.0391,53.94575],[-125.03285,53.94575],[-125.0266,53.94575],[-125.02035,53.94575],[-125.0141,53.94575],[-125.00785,53.94575],[-125.0016,53.94575],[-124.99535,53.94575],[-124.9891,53.94575],[-124.98285,53.94575],[-124.98285,53.94158],[-124.98285,53.93742],[-124.9891,53.93742],[-124.99535,53.93742],[-125.0016,53.93742],[-125.00785,53.93742],[-125.0141,53.93742],[-125.02035,53.93742],[-125.0266,53.93742],[-125.0266,53.94158],[-125.03285,53.94158],[-125.0391,53.94158],[-125.04535,53.94158],[-125.0516,53.94158],[-125.0516,53.94575],[-125.0516,53.94992],[-125.0516,53.95408],[-125.0516,53.95825]]]}},{"type":"Feature","properties":{"c":"1041877","o":"EVERGOLD CORP.","e":"2033-07-10Z"},"geometry":{"type":"Polygon","coordinates":[[[-125.00784,53.79158],[-125.00159,53.79158],[-124.99534,53.79158],[-124.99534,53.78742],[-124.99534,53.78325],[-125.00159,53.78325],[-125.00784,53.78325],[-125.00784,53.78742],[-125.00784,53.79158]]]}},{"type":"Feature","properties":{"c":"1041881","o":"EVERGOLD CORP.","e":"2033-07-10Z"},"geometry":{"type":"Polygon","coordinates":[[[-125.00784,53.79992],[-125.00159,53.79992],[-124.99534,53.79992],[-124.99534,53.79575],[-124.99534,53.79158],[-125.00159,53.79158],[-125.00784,53.79158],[-125.00784,53.79575],[-125.00784,53.79992]]]}},{"type":"Feature","properties":{"c":"1041882","o":"EVERGOLD CORP.","e":"2033-07-10Z"},"geometry":{"type":"Polygon","coordinates":[[[-125.01409,53.80825],[-125.00784,53.80825],[-125.00159,53.80825],[-124.99534,53.80825],[-124.99534,53.80408],[-124.99534,53.79992],[-125.00159,53.79992],[-125.00784,53.79992],[-125.01409,53.79992],[-125.01409,53.80408],[-125.01409,53.80825]]]}},{"type":"Feature","properties":{"c":"1086528","o":"GALLANT, TYLER WILLIAM JOSEPH","e":"2027-12-17Z"},"geometry":{"type":"Polygon","coordinates":[[[-125.28285,53.76658],[-125.2766,53.76658],[-125.27035,53.76658],[-125.2641,53.76658],[-125.2641,53.76241],[-125.2641,53.75825],[-125.27035,53.75825],[-125.2766,53.75825],[-125.28285,53.75824],[-125.28285,53.76241],[-125.28285,53.76658]]]}},{"type":"Feature","properties":{"c":"1056844","o":"FRASER, MATTHEW BRYAN","e":"2029-06-20Z"},"geometry":{"type":"Polygon","coordinates":[[[-125.04535,53.88742],[-125.0391,53.88742],[-125.03285,53.88742],[-125.0266,53.88742],[-125.02035,53.88742],[-125.02035,53.88325],[-125.02035,53.87908],[-125.02035,53.87492],[-125.0266,53.87492],[-125.03285,53.87492],[-125.0391,53.87492],[-125.04535,53.87492],[-125.04535,53.87908],[-125.04535,53.88325],[-125.04535,53.88742]]]}},{"type":"Feature","properties":{"c":"1056852","o":"FRASER, MATTHEW BRYAN","e":"2029-06-20Z"},"geometry":{"type":"Polygon","coordinates":[[[-125.02035,53.88742],[-125.0141,53.88742],[-125.0141,53.88325],[-125.0141,53.87908],[-125.0141,53.87492],[-125.02035,53.87492],[-125.02035,53.87908],[-125.02035,53.88325],[-125.02035,53.88742]]]}},{"type":"Feature","properties":{"c":"1059178","o":"FRASER, MATTHEW BRYAN","e":"2029-06-20Z"},"geometry":{"type":"Polygon","coordinates":[[[-125.0516,53.89992],[-125.04535,53.89992],[-125.0391,53.89992],[-125.03285,53.89992],[-125.0266,53.89992],[-125.02035,53.89992],[-125.0141,53.89992],[-125.0141,53.89575],[-125.0141,53.89158],[-125.0141,53.88742],[-125.02035,53.88742],[-125.0266,53.88742],[-125.03285,53.88742],[-125.0391,53.88742],[-125.04535,53.88742],[-125.04535,53.88325],[-125.04535,53.87908],[-125.04535,53.87492],[-125.0516,53.87492],[-125.0516,53.87908],[-125.0516,53.88325],[-125.0516,53.88742],[-125.0516,53.89158],[-125.0516,53.89575],[-125.0516,53.89992]]]}},{"type":"Feature","properties":{"c":"1060649","o":"FRASER, MATTHEW BRYAN","e":"2029-06-20Z"},"geometry":{"type":"Polygon","coordinates":[[[-125.05785,53.90408],[-125.0516,53.90408],[-125.04535,53.90408],[-125.0391,53.90408],[-125.03285,53.90408],[-125.0266,53.90408],[-125.02035,53.90408],[-125.0141,53.90408],[-125.00785,53.90408],[-125.00785,53.89992],[-125.00785,53.89575],[-125.00785,53.89158],[-125.00785,53.88742],[-125.00785,53.88325],[-125.00785,53.87908],[-125.0141,53.87908],[-125.0141,53.88325],[-125.0141,53.88742],[-125.0141,53.89158],[-125.0141,53.89575],[-125.0141,53.89992],[-125.02035,53.89992],[-125.0266,53.89992],[-125.03285,53.89992],[-125.0391,53.89992],[-125.04535,53.89992],[-125.0516,53.89992],[-125.0516,53.89575],[-125.0516,53.89158],[-125.0516,53.88742],[-125.0516,53.88325],[-125.0516,53.87908],[-125.0516,53.87492],[-125.04535,53.87492],[-125.0391,53.87492],[-125.03285,53.87492],[-125.0266,53.87492],[-125.02035,53.87492],[-125.02035,53.87075],[-125.0266,53.87075],[-125.03285,53.87075],[-125.0391,53.87075],[-125.04535,53.87075],[-125.0516,53.87075],[-125.05785,53.87075],[-125.05785,53.87492],[-125.05785,53.87908],[-125.05785,53.88325],[-125.05785,53.88742],[-125.05785,53.89158],[-125.05785,53.89575],[-125.05785,53.89992],[-125.05785,53.90408]]]}},{"type":"Feature","properties":{"c":"1060859","o":"FRASER, MATTHEW BRYAN","e":"2029-06-20Z"},"geometry":{"type":"Polygon","coordinates":[[[-125.03285,53.87075],[-125.0266,53.87075],[-125.02035,53.87075],[-125.02035,53.87492],[-125.0141,53.87492],[-125.00785,53.87492],[-125.00785,53.87075],[-125.00159,53.87075],[-124.99534,53.87075],[-124.99534,53.87492],[-124.98909,53.87492],[-124.98909,53.87075],[-124.98284,53.87075],[-124.97659,53.87075],[-124.97659,53.86658],[-124.97659,53.86242],[-124.97659,53.85825],[-124.97659,53.85408],[-124.98284,53.85408],[-124.98909,53.85408],[-124.99534,53.85408],[-125.00159,53.85408],[-125.00784,53.85408],[-125.01409,53.85408],[-125.02035,53.85408],[-125.0266,53.85408],[-125.03285,53.85408],[-125.03285,53.85825],[-125.03285,53.86242],[-125.03285,53.86658],[-125.03285,53.87075]]]}},{"type":"Feature","properties":{"c":"1096200","o":"FRASER, MATTHEW BRYAN","e":"2029-06-20Z"},"geometry":{"type":"Polygon","coordinates":[[[-125.05785,53.87075],[-125.0516,53.87075],[-125.04535,53.87075],[-125.0391,53.87075],[-125.03285,53.87075],[-125.03285,53.86658],[-125.03285,53.86242],[-125.03285,53.85825],[-125.03285,53.85408],[-125.0391,53.85408],[-125.04535,53.85408],[-125.04535,53.85825],[-125.0516,53.85825],[-125.05785,53.85825],[-125.05785,53.86242],[-125.05785,53.86658],[-125.05785,53.87075]]]}},{"type":"Feature","properties":{"c":"1026562","o":"KOOTENAY RESOURCES INC.","e":"2027-01-29Z"},"geometry":{"type":"Polygon","coordinates":[[[-125.32661,53.95824],[-125.32036,53.95824],[-125.31411,53.95824],[-125.30786,53.95824],[-125.30161,53.95824],[-125.29536,53.95825],[-125.28911,53.95825],[-125.28911,53.95408],[-125.28911,53.94991],[-125.28911,53.94575],[-125.28911,53.94158],[-125.28911,53.93741],[-125.29536,53.93741],[-125.30161,53.93741],[-125.30786,53.93741],[-125.31411,53.93741],[-125.32036,53.93741],[-125.32661,53.93741],[-125.32661,53.94158],[-125.32661,53.94574],[-125.32661,53.94991],[-125.32661,53.95408],[-125.32661,53.95824]]]}},{"type":"Feature","properties":{"c":"1104260","o":"TORR RESOURCES CORP.","e":"2027-05-31Z"},"geometry":{"type":"Polygon","coordinates":[[[-125.13908,53.49575],[-125.13283,53.49575],[-125.13283,53.49991],[-125.12658,53.49991],[-125.12033,53.49991],[-125.11408,53.49991],[-125.10783,53.49991],[-125.10783,53.50408],[-125.10158,53.50408],[-125.09533,53.50408],[-125.08908,53.50408],[-125.08283,53.50408],[-125.08283,53.49991],[-125.07658,53.49991],[-125.07033,53.49991],[-125.07033,53.49575],[-125.07033,53.49158],[-125.07658,53.49158],[-125.07658,53.48741],[-125.08283,53.48741],[-125.08908,53.48741],[-125.08908,53.48325],[-125.09533,53.48325],[-125.10158,53.48325],[-125.10158,53.47908],[-125.10783,53.47908],[-125.11408,53.47908],[-125.12033,53.47908],[-125.12658,53.47908],[-125.13283,53.47908],[-125.13908,53.47908],[-125.13908,53.48325],[-125.13908,53.48741],[-125.13908,53.49158],[-125.13908,53.49575]]]}},{"type":"Feature","properties":{"c":"1104262","o":"TORR RESOURCES CORP.","e":"2027-05-31Z"},"geometry":{"type":"Polygon","coordinates":[[[-125.08283,53.49991],[-125.08283,53.50408],[-125.07658,53.50408],[-125.07658,53.49991],[-125.08283,53.49991]]]}},{"type":"Feature","properties":{"c":"1017558","o":"THOMPSON CREEK METALS COMPANY INC.","e":"2028-01-02Z"},"geometry":{"type":"Polygon","coordinates":[[[-125.08285,54.02075],[-125.0766,54.02075],[-125.07035,54.02075],[-125.07035,54.02492],[-125.07035,54.02908],[-125.07035,54.03325],[-125.07036,54.03742],[-125.07036,54.04158],[-125.06411,54.04158],[-125.0641,54.03742],[-125.0641,54.03325],[-125.05785,54.03325],[-125.0516,54.03325],[-125.04535,54.03325],[-125.0391,54.03325],[-125.03285,54.03325],[-125.03285,54.02908],[-125.03285,54.02492],[-125.0391,54.02492],[-125.0391,54.02075],[-125.04535,54.02075],[-125.04535,54.01658],[-125.0516,54.01658],[-125.05785,54.01658],[-125.05785,54.01242],[-125.0516,54.01242],[-125.0516,54.00825],[-125.05785,54.00825],[-125.05785,54.00408],[-125.0641,54.00408],[-125.07035,54.00408],[-125.07035,53.99992],[-125.0766,53.99992],[-125.0766,54.00408],[-125.08285,54.00408],[-125.08285,54.00825],[-125.0766,54.00825],[-125.0766,54.01242],[-125.08285,54.01242],[-125.08285,54.01658],[-125.08285,54.02075]]]}},{"type":"Feature","properties":{"c":"1017562","o":"THOMPSON CREEK METALS COMPANY INC.","e":"2028-01-02Z"},"geometry":{"type":"Polygon","coordinates":[[[-125.13911,54.02491],[-125.13286,54.02491],[-125.12661,54.02491],[-125.12036,54.02492],[-125.11411,54.02492],[-125.10786,54.02492],[-125.10161,54.02492],[-125.09536,54.02492],[-125.08911,54.02492],[-125.08911,54.02908],[-125.08911,54.03325],[-125.08286,54.03325],[-125.07661,54.03325],[-125.07035,54.03325],[-125.07035,54.02908],[-125.07035,54.02492],[-125.07035,54.02075],[-125.0766,54.02075],[-125.08285,54.02075],[-125.08285,54.01658],[-125.08285,54.01242],[-125.0766,54.01242],[-125.0766,54.00825],[-125.08285,54.00825],[-125.08285,54.00408],[-125.0766,54.00408],[-125.0766,53.99992],[-125.08285,53.99992],[-125.08285,53.99575],[-125.0891,53.99575],[-125.09535,53.99575],[-125.1016,53.99575],[-125.10785,53.99575],[-125.11411,53.99575],[-125.12036,53.99575],[-125.12661,53.99575],[-125.13286,53.99575],[-125.13911,53.99575],[-125.13911,53.99991],[-125.13911,54.00408],[-125.13911,54.00825],[-125.13286,54.00825],[-125.13286,54.01241],[-125.13286,54.01658],[-125.13911,54.01658],[-125.13911,54.02075],[-125.13911,54.02491]]]}},{"type":"Feature","properties":{"c":"1080829","o":"THOMPSON CREEK METALS COMPANY INC.","e":"2028-04-02Z"},"geometry":{"type":"Polygon","coordinates":[[[-125.42035,53.60824],[-125.4141,53.60824],[-125.40785,53.60824],[-125.4016,53.60824],[-125.39535,53.60824],[-125.3891,53.60824],[-125.38285,53.60824],[-125.3766,53.60824],[-125.37035,53.60824],[-125.3641,53.60824],[-125.35785,53.60824],[-125.3516,53.60824],[-125.34535,53.60824],[-125.34535,53.60407],[-125.34535,53.59991],[-125.34535,53.59574],[-125.34535,53.59157],[-125.34535,53.58741],[-125.34535,53.58324],[-125.34534,53.57907],[-125.3516,53.57907],[-125.35785,53.57907],[-125.3641,53.57907],[-125.37035,53.57907],[-125.3766,53.57907],[-125.38285,53.57907],[-125.3891,53.57907],[-125.39535,53.57907],[-125.4016,53.57907],[-125.40785,53.57907],[-125.4141,53.57907],[-125.42035,53.57907],[-125.42035,53.58324],[-125.42035,53.58741],[-125.42035,53.59157],[-125.42035,53.59574],[-125.42035,53.59991],[-125.42035,53.60407],[-125.42035,53.60824]]]}},{"type":"Feature","properties":{"c":"1080830","o":"THOMPSON CREEK METALS COMPANY INC.","e":"2028-04-02Z"},"geometry":{"type":"Polygon","coordinates":[[[-125.34535,53.60824],[-125.3391,53.60824],[-125.33285,53.60824],[-125.3266,53.60824],[-125.32035,53.60824],[-125.3141,53.60824],[-125.30785,53.60824],[-125.30159,53.60824],[-125.29534,53.60824],[-125.28909,53.60824],[-125.28284,53.60824],[-125.27659,53.60824],[-125.27034,53.60824],[-125.27034,53.60408],[-125.27034,53.59991],[-125.27034,53.59574],[-125.27034,53.59158],[-125.27034,53.58741],[-125.27034,53.58324],[-125.27034,53.57908],[-125.27659,53.57908],[-125.28284,53.57908],[-125.28909,53.57908],[-125.29534,53.57908],[-125.30159,53.57908],[-125.30784,53.57908],[-125.31409,53.57908],[-125.32034,53.57908],[-125.32659,53.57907],[-125.33284,53.57907],[-125.33909,53.57907],[-125.34534,53.57907],[-125.34535,53.58324],[-125.34535,53.58741],[-125.34535,53.59157],[-125.34535,53.59574],[-125.34535,53.59991],[-125.34535,53.60407],[-125.34535,53.60824]]]}},{"type":"Feature","properties":{"c":"1080832","o":"THOMPSON CREEK METALS COMPANY INC.","e":"2028-04-02Z"},"geometry":{"type":"Polygon","coordinates":[[[-125.27034,53.60824],[-125.26409,53.60824],[-125.25784,53.60824],[-125.25159,53.60824],[-125.24534,53.60824],[-125.23909,53.60824],[-125.23284,53.60824],[-125.22659,53.60824],[-125.22034,53.60824],[-125.21409,53.60824],[-125.20784,53.60825],[-125.20159,53.60825],[-125.20159,53.60408],[-125.20159,53.59991],[-125.20159,53.59574],[-125.20159,53.59158],[-125.20159,53.58741],[-125.20159,53.58324],[-125.20159,53.57908],[-125.20784,53.57908],[-125.21409,53.57908],[-125.22034,53.57908],[-125.22659,53.57908],[-125.23284,53.57908],[-125.23909,53.57908],[-125.24534,53.57908],[-125.25159,53.57908],[-125.25784,53.57908],[-125.26409,53.57908],[-125.27034,53.57908],[-125.27034,53.58324],[-125.27034,53.58741],[-125.27034,53.59158],[-125.27034,53.59574],[-125.27034,53.59991],[-125.27034,53.60408],[-125.27034,53.60824]]]}},{"type":"Feature","properties":{"c":"1080833","o":"THOMPSON CREEK METALS COMPANY INC.","e":"2028-04-02Z"},"geometry":{"type":"Polygon","coordinates":[[[-125.42035,53.57907],[-125.4141,53.57907],[-125.40785,53.57907],[-125.4016,53.57907],[-125.39535,53.57907],[-125.3891,53.57907],[-125.38285,53.57907],[-125.3766,53.57907],[-125.37035,53.57907],[-125.3641,53.57907],[-125.35785,53.57907],[-125.3516,53.57907],[-125.34534,53.57907],[-125.34534,53.57491],[-125.34534,53.57074],[-125.34534,53.56657],[-125.34534,53.56241],[-125.34534,53.55824],[-125.34534,53.55407],[-125.34534,53.54991],[-125.34534,53.54574],[-125.35159,53.54574],[-125.35784,53.54574],[-125.36409,53.54574],[-125.37034,53.54574],[-125.37659,53.54574],[-125.38284,53.54574],[-125.38909,53.54574],[-125.39535,53.54574],[-125.4016,53.54574],[-125.40785,53.54574],[-125.40785,53.54991],[-125.40785,53.55407],[-125.40785,53.55824],[-125.4141,53.55824],[-125.4141,53.55407],[-125.4141,53.54991],[-125.4141,53.54574],[-125.42035,53.54574],[-125.42035,53.54991],[-125.42035,53.55407],[-125.42035,53.55824],[-125.42035,53.56241],[-125.42035,53.56657],[-125.42035,53.57074],[-125.42035,53.57491],[-125.42035,53.57907]]]}},{"type":"Feature","properties":{"c":"1080834","o":"THOMPSON CREEK METALS COMPANY INC.","e":"2028-04-02Z"},"geometry":{"type":"Polygon","coordinates":[[[-125.34534,53.57907],[-125.33909,53.57907],[-125.33284,53.57907],[-125.32659,53.57907],[-125.32034,53.57908],[-125.31409,53.57908],[-125.30784,53.57908],[-125.30159,53.57908],[-125.29534,53.57908],[-125.28909,53.57908],[-125.28284,53.57908],[-125.27659,53.57908],[-125.27034,53.57908],[-125.27034,53.57491],[-125.27034,53.57074],[-125.27034,53.56658],[-125.27034,53.56241],[-125.27034,53.55824],[-125.27034,53.55408],[-125.27034,53.54991],[-125.27034,53.54574],[-125.27659,53.54574],[-125.28284,53.54574],[-125.28909,53.54574],[-125.29534,53.54574],[-125.30159,53.54574],[-125.30784,53.54574],[-125.31409,53.54574],[-125.32034,53.54574],[-125.32659,53.54574],[-125.33284,53.54574],[-125.33909,53.54574],[-125.34534,53.54574],[-125.34534,53.54991],[-125.34534,53.55407],[-125.34534,53.55824],[-125.34534,53.56241],[-125.34534,53.56657],[-125.34534,53.57074],[-125.34534,53.57491],[-125.34534,53.57907]]]}},{"type":"Feature","properties":{"c":"1080835","o":"THOMPSON CREEK METALS COMPANY INC.","e":"2028-04-02Z"},"geometry":{"type":"Polygon","coordinates":[[[-125.27034,53.57908],[-125.26409,53.57908],[-125.25784,53.57908],[-125.25159,53.57908],[-125.24534,53.57908],[-125.23909,53.57908],[-125.23284,53.57908],[-125.22659,53.57908],[-125.22034,53.57908],[-125.21409,53.57908],[-125.20784,53.57908],[-125.20159,53.57908],[-125.20159,53.57491],[-125.20159,53.57074],[-125.20159,53.56658],[-125.20159,53.56241],[-125.20159,53.55824],[-125.20784,53.55824],[-125.21409,53.55824],[-125.21409,53.55408],[-125.21409,53.54991],[-125.20784,53.54991],[-125.20159,53.54991],[-125.20159,53.54574],[-125.20784,53.54574],[-125.21409,53.54574],[-125.22034,53.54574],[-125.22659,53.54574],[-125.23284,53.54574],[-125.23909,53.54574],[-125.24534,53.54574],[-125.25159,53.54574],[-125.25784,53.54574],[-125.26409,53.54574],[-125.27034,53.54574],[-125.27034,53.54991],[-125.27034,53.55408],[-125.27034,53.55824],[-125.27034,53.56241],[-125.27034,53.56658],[-125.27034,53.57074],[-125.27034,53.57491],[-125.27034,53.57908]]]}},{"type":"Feature","properties":{"c":"1080836","o":"THOMPSON CREEK METALS COMPANY INC.","e":"2028-04-02Z"},"geometry":{"type":"Polygon","coordinates":[[[-125.34534,53.54574],[-125.33909,53.54574],[-125.33284,53.54574],[-125.32659,53.54574],[-125.32034,53.54574],[-125.31409,53.54574],[-125.30784,53.54574],[-125.30159,53.54574],[-125.29534,53.54574],[-125.28909,53.54574],[-125.28284,53.54574],[-125.27659,53.54574],[-125.27034,53.54574],[-125.27034,53.54158],[-125.27034,53.53741],[-125.27034,53.53324],[-125.27034,53.52908],[-125.27034,53.52491],[-125.27034,53.52074],[-125.27034,53.51658],[-125.27659,53.51658],[-125.28284,53.51658],[-125.28909,53.51658],[-125.29534,53.51658],[-125.30159,53.51658],[-125.30784,53.51658],[-125.31409,53.51658],[-125.32034,53.51658],[-125.32659,53.51658],[-125.33284,53.51658],[-125.33909,53.51658],[-125.34534,53.51658],[-125.34534,53.52074],[-125.34534,53.52491],[-125.34534,53.52907],[-125.34534,53.53324],[-125.34534,53.53741],[-125.34534,53.54157],[-125.34534,53.54574]]]}},{"type":"Feature","properties":{"c":"1080837","o":"THOMPSON CREEK METALS COMPANY INC.","e":"2028-04-02Z"},"geometry":{"type":"Polygon","coordinates":[[[-125.27034,53.54574],[-125.26409,53.54574],[-125.25784,53.54574],[-125.25159,53.54574],[-125.24534,53.54574],[-125.23909,53.54574],[-125.23284,53.54574],[-125.22659,53.54574],[-125.22034,53.54574],[-125.21409,53.54574],[-125.20784,53.54574],[-125.20159,53.54574],[-125.20159,53.54158],[-125.20159,53.53741],[-125.20159,53.53324],[-125.20159,53.52908],[-125.20159,53.52491],[-125.20159,53.52074],[-125.20158,53.51658],[-125.20783,53.51658],[-125.21409,53.51658],[-125.22034,53.51658],[-125.22659,53.51658],[-125.23284,53.51658],[-125.23909,53.51658],[-125.24534,53.51658],[-125.25159,53.51658],[-125.25784,53.51658],[-125.26409,53.51658],[-125.27034,53.51658],[-125.27034,53.52074],[-125.27034,53.52491],[-125.27034,53.52908],[-125.27034,53.53324],[-125.27034,53.53741],[-125.27034,53.54158],[-125.27034,53.54574]]]}},{"type":"Feature","properties":{"c":"1080839","o":"THOMPSON CREEK METALS COMPANY INC.","e":"2028-04-02Z"},"geometry":{"type":"Polygon","coordinates":[[[-125.42035,53.54574],[-125.4141,53.54574],[-125.40785,53.54574],[-125.4016,53.54574],[-125.39535,53.54574],[-125.38909,53.54574],[-125.38284,53.54574],[-125.37659,53.54574],[-125.37034,53.54574],[-125.36409,53.54574],[-125.35784,53.54574],[-125.35159,53.54574],[-125.34534,53.54574],[-125.34534,53.54157],[-125.34534,53.53741],[-125.34534,53.53324],[-125.34534,53.52907],[-125.34534,53.52491],[-125.34534,53.52074],[-125.34534,53.51658],[-125.35159,53.51657],[-125.35784,53.51657],[-125.36409,53.51657],[-125.37034,53.51657],[-125.37659,53.51657],[-125.38284,53.51657],[-125.38909,53.51657],[-125.39534,53.51657],[-125.40159,53.51657],[-125.40784,53.51657],[-125.40784,53.52074],[-125.40784,53.52491],[-125.41409,53.52491],[-125.4141,53.52907],[-125.4141,53.53324],[-125.42035,53.53324],[-125.42035,53.53741],[-125.42035,53.54157],[-125.42035,53.54574]]]}},{"type":"Feature","properties":{"c":"1080840","o":"THOMPSON CREEK METALS COMPANY INC.","e":"2028-04-02Z"},"geometry":{"type":"Polygon","coordinates":[[[-125.39534,53.51657],[-125.38909,53.51657],[-125.38284,53.51657],[-125.37659,53.51657],[-125.37034,53.51657],[-125.36409,53.51657],[-125.35784,53.51657],[-125.35159,53.51657],[-125.34534,53.51658],[-125.34534,53.51241],[-125.34534,53.50824],[-125.34534,53.50408],[-125.34534,53.49991],[-125.34534,53.49574],[-125.34534,53.49158],[-125.34534,53.48741],[-125.35159,53.48741],[-125.35784,53.48741],[-125.35784,53.49157],[-125.36409,53.49157],[-125.37034,53.49157],[-125.37034,53.49574],[-125.37659,53.49574],[-125.37659,53.49991],[-125.38284,53.49991],[-125.38284,53.50407],[-125.38909,53.50407],[-125.38909,53.50824],[-125.39534,53.50824],[-125.40159,53.50824],[-125.40159,53.51241],[-125.40784,53.51241],[-125.40784,53.51657],[-125.40159,53.51657],[-125.39534,53.51657]]]}},{"type":"Feature","properties":{"c":"1080842","o":"THOMPSON CREEK METALS COMPANY INC.","e":"2028-04-02Z"},"geometry":{"type":"Polygon","coordinates":[[[-125.34534,53.51658],[-125.33909,53.51658],[-125.33284,53.51658],[-125.32659,53.51658],[-125.32034,53.51658],[-125.31409,53.51658],[-125.30784,53.51658],[-125.30159,53.51658],[-125.29534,53.51658],[-125.28909,53.51658],[-125.28284,53.51658],[-125.27659,53.51658],[-125.27034,53.51658],[-125.27034,53.51241],[-125.27034,53.50824],[-125.27034,53.50408],[-125.27034,53.49991],[-125.27034,53.49574],[-125.27659,53.49574],[-125.28284,53.49574],[-125.28909,53.49574],[-125.29534,53.49574],[-125.30159,53.49574],[-125.30784,53.49574],[-125.31409,53.49574],[-125.32034,53.49574],[-125.32659,53.49574],[-125.33284,53.49574],[-125.33909,53.49574],[-125.34534,53.49574],[-125.34534,53.49991],[-125.34534,53.50408],[-125.34534,53.50824],[-125.34534,53.51241],[-125.34534,53.51658]]]}},{"type":"Feature","properties":{"c":"1080844","o":"THOMPSON CREEK METALS COMPANY INC.","e":"2028-04-01Z"},"geometry":{"type":"Polygon","coordinates":[[[-125.27034,53.51658],[-125.26409,53.51658],[-125.25784,53.51658],[-125.25159,53.51658],[-125.24534,53.51658],[-125.23909,53.51658],[-125.23284,53.51658],[-125.22659,53.51658],[-125.22034,53.51658],[-125.21409,53.51658],[-125.20783,53.51658],[-125.20158,53.51658],[-125.20158,53.51241],[-125.20158,53.50824],[-125.20158,53.50408],[-125.20158,53.49991],[-125.20158,53.49574],[-125.20783,53.49575],[-125.21408,53.49574],[-125.22033,53.49574],[-125.22658,53.49574],[-125.23283,53.49574],[-125.23908,53.49574],[-125.24534,53.49574],[-125.25159,53.49574],[-125.25784,53.49574],[-125.26409,53.49574],[-125.27034,53.49574],[-125.27034,53.49991],[-125.27034,53.50408],[-125.27034,53.50824],[-125.27034,53.51241],[-125.27034,53.51658]]]}},{"type":"Feature","properties":{"c":"1083011","o":"THOMPSON CREEK METALS COMPANY INC.","e":"2027-08-13Z"},"geometry":{"type":"Polygon","coordinates":[[[-125.34535,53.65824],[-125.3391,53.65824],[-125.33285,53.65824],[-125.3266,53.65824],[-125.32035,53.65824],[-125.3141,53.65824],[-125.30785,53.65824],[-125.30785,53.65408],[-125.30785,53.64991],[-125.30785,53.64574],[-125.30785,53.64158],[-125.30785,53.63741],[-125.30785,53.63324],[-125.30785,53.62908],[-125.30785,53.62491],[-125.30785,53.62074],[-125.30785,53.61658],[-125.30785,53.61241],[-125.30785,53.60824],[-125.3141,53.60824],[-125.32035,53.60824],[-125.3266,53.60824],[-125.33285,53.60824],[-125.3391,53.60824],[-125.34535,53.60824],[-125.34535,53.61241],[-125.34535,53.61658],[-125.34535,53.62074],[-125.34535,53.62491],[-125.34535,53.62908],[-125.34535,53.63324],[-125.34535,53.63741],[-125.34535,53.64158],[-125.34535,53.64574],[-125.34535,53.64991],[-125.34535,53.65408],[-125.34535,53.65824]]]}},{"type":"Feature","properties":{"c":"1083012","o":"THOMPSON CREEK METALS COMPANY INC.","e":"2027-08-13Z"},"geometry":{"type":"Polygon","coordinates":[[[-125.30785,53.65824],[-125.3016,53.65824],[-125.29535,53.65824],[-125.2891,53.65824],[-125.28285,53.65824],[-125.2766,53.65824],[-125.27035,53.65824],[-125.27035,53.65408],[-125.27035,53.64991],[-125.27035,53.64574],[-125.27035,53.64158],[-125.27035,53.63741],[-125.27035,53.63324],[-125.27034,53.62908],[-125.27034,53.62491],[-125.27034,53.62074],[-125.27034,53.61658],[-125.27034,53.61241],[-125.27034,53.60824],[-125.27659,53.60824],[-125.28284,53.60824],[-125.28909,53.60824],[-125.29534,53.60824],[-125.30159,53.60824],[-125.30785,53.60824],[-125.30785,53.61241],[-125.30785,53.61658],[-125.30785,53.62074],[-125.30785,53.62491],[-125.30785,53.62908],[-125.30785,53.63324],[-125.30785,53.63741],[-125.30785,53.64158],[-125.30785,53.64574],[-125.30785,53.64991],[-125.30785,53.65408],[-125.30785,53.65824]]]}},{"type":"Feature","properties":{"c":"1083013","o":"THOMPSON CREEK METALS COMPANY INC.","e":"2027-08-13Z"},"geometry":{"type":"Polygon","coordinates":[[[-125.27035,53.63324],[-125.26409,53.63324],[-125.25784,53.63324],[-125.25159,53.63324],[-125.24534,53.63324],[-125.23909,53.63324],[-125.23284,53.63325],[-125.22659,53.63325],[-125.22034,53.63325],[-125.21409,53.63325],[-125.20784,53.63325],[-125.20159,53.63325],[-125.20159,53.62908],[-125.20159,53.62491],[-125.20159,53.62075],[-125.20159,53.61658],[-125.20159,53.61241],[-125.20159,53.60825],[-125.20784,53.60825],[-125.21409,53.60824],[-125.22034,53.60824],[-125.22659,53.60824],[-125.23284,53.60824],[-125.23909,53.60824],[-125.24534,53.60824],[-125.25159,53.60824],[-125.25784,53.60824],[-125.26409,53.60824],[-125.27034,53.60824],[-125.27034,53.61241],[-125.27034,53.61658],[-125.27034,53.62074],[-125.27034,53.62491],[-125.27034,53.62908],[-125.27035,53.63324]]]}},{"type":"Feature","properties":{"c":"1083014","o":"THOMPSON CREEK METALS COMPANY INC.","e":"2027-08-13Z"},"geometry":{"type":"Polygon","coordinates":[[[-125.20159,53.63325],[-125.19534,53.63325],[-125.19534,53.62908],[-125.18909,53.62908],[-125.18284,53.62908],[-125.18284,53.62491],[-125.17659,53.62491],[-125.17034,53.62491],[-125.17034,53.62075],[-125.16409,53.62075],[-125.16409,53.61658],[-125.15784,53.61658],[-125.15784,53.61241],[-125.16409,53.61241],[-125.17034,53.61241],[-125.17659,53.61241],[-125.18284,53.61241],[-125.18909,53.61241],[-125.19534,53.61241],[-125.20159,53.61241],[-125.20159,53.61658],[-125.20159,53.62075],[-125.20159,53.62491],[-125.20159,53.62908],[-125.20159,53.63325]]]}},{"type":"Feature","properties":{"c":"1083015","o":"THOMPSON CREEK METALS COMPANY INC.","e":"2027-08-13Z"},"geometry":{"type":"Polygon","coordinates":[[[-125.27035,53.65824],[-125.2641,53.65824],[-125.25785,53.65824],[-125.2516,53.65824],[-125.24535,53.65825],[-125.2391,53.65825],[-125.23285,53.65825],[-125.22659,53.65825],[-125.22034,53.65825],[-125.21409,53.65825],[-125.20784,53.65825],[-125.20159,53.65825],[-125.20159,53.65408],[-125.20159,53.64991],[-125.20159,53.64575],[-125.20159,53.64158],[-125.20159,53.63741],[-125.20159,53.63325],[-125.20784,53.63325],[-125.21409,53.63325],[-125.22034,53.63325],[-125.22659,53.63325],[-125.23284,53.63325],[-125.23909,53.63324],[-125.24534,53.63324],[-125.25159,53.63324],[-125.25784,53.63324],[-125.26409,53.63324],[-125.27035,53.63324],[-125.27035,53.63741],[-125.27035,53.64158],[-125.27035,53.64574],[-125.27035,53.64991],[-125.27035,53.65408],[-125.27035,53.65824]]]}},{"type":"Feature","properties":{"c":"1083016","o":"THOMPSON CREEK METALS COMPANY INC.","e":"2027-08-13Z"},"geometry":{"type":"Polygon","coordinates":[[[-125.20159,53.67075],[-125.19534,53.67075],[-125.18909,53.67075],[-125.18284,53.67075],[-125.17659,53.67075],[-125.17034,53.67075],[-125.16409,53.67075],[-125.15784,53.67075],[-125.15159,53.67075],[-125.14534,53.67075],[-125.13909,53.67075],[-125.13909,53.66658],[-125.13909,53.66241],[-125.13909,53.65825],[-125.13909,53.65408],[-125.13909,53.64991],[-125.13909,53.64575],[-125.14534,53.64575],[-125.15159,53.64575],[-125.15784,53.64575],[-125.16409,53.64575],[-125.17034,53.64575],[-125.17659,53.64575],[-125.18284,53.64575],[-125.18909,53.64575],[-125.18909,53.64158],[-125.19534,53.64158],[-125.20159,53.64158],[-125.20159,53.64575],[-125.20159,53.64991],[-125.20159,53.65408],[-125.20159,53.65825],[-125.20159,53.66241],[-125.20159,53.66658],[-125.20159,53.67075]]]}},{"type":"Feature","properties":{"c":"1083017","o":"THOMPSON CREEK METALS COMPANY INC.","e":"2027-08-13Z"},"geometry":{"type":"Polygon","coordinates":[[[-125.34535,53.69574],[-125.3391,53.69574],[-125.33285,53.69574],[-125.3266,53.69574],[-125.32035,53.69574],[-125.3141,53.69574],[-125.30785,53.69574],[-125.30785,53.69158],[-125.30785,53.68741],[-125.30785,53.68324],[-125.30785,53.67908],[-125.30785,53.67491],[-125.30785,53.67074],[-125.30785,53.66658],[-125.30785,53.66241],[-125.30785,53.65824],[-125.3141,53.65824],[-125.32035,53.65824],[-125.3266,53.65824],[-125.33285,53.65824],[-125.3391,53.65824],[-125.34535,53.65824],[-125.34535,53.66241],[-125.34535,53.66658],[-125.34535,53.67074],[-125.34535,53.67491],[-125.34535,53.67908],[-125.34535,53.68324],[-125.34535,53.68741],[-125.34535,53.69158],[-125.34535,53.69574]]]}},{"type":"Feature","properties":{"c":"1083018","o":"THOMPSON CREEK METALS COMPANY INC.","e":"2027-08-13Z"},"geometry":{"type":"Polygon","coordinates":[[[-125.30785,53.69574],[-125.3016,53.69574],[-125.29535,53.69574],[-125.2891,53.69574],[-125.28285,53.69574],[-125.2766,53.69574],[-125.27035,53.69574],[-125.27035,53.69158],[-125.27035,53.68741],[-125.27035,53.68324],[-125.27035,53.67908],[-125.27035,53.67491],[-125.27035,53.67074],[-125.27035,53.66658],[-125.27035,53.66241],[-125.27035,53.65824],[-125.2766,53.65824],[-125.28285,53.65824],[-125.2891,53.65824],[-125.29535,53.65824],[-125.3016,53.65824],[-125.30785,53.65824],[-125.30785,53.66241],[-125.30785,53.66658],[-125.30785,53.67074],[-125.30785,53.67491],[-125.30785,53.67908],[-125.30785,53.68324],[-125.30785,53.68741],[-125.30785,53.69158],[-125.30785,53.69574]]]}},{"type":"Feature","properties":{"c":"1083019","o":"THOMPSON CREEK METALS COMPANY INC.","e":"2027-08-13Z"},"geometry":{"type":"Polygon","coordinates":[[[-125.27035,53.69574],[-125.2641,53.69574],[-125.25785,53.69575],[-125.2516,53.69575],[-125.24535,53.69575],[-125.2391,53.69575],[-125.23285,53.69575],[-125.23285,53.69158],[-125.23285,53.68741],[-125.23285,53.68325],[-125.23285,53.67908],[-125.23285,53.67491],[-125.23285,53.67075],[-125.23285,53.66658],[-125.23285,53.66241],[-125.23285,53.65825],[-125.2391,53.65825],[-125.24535,53.65825],[-125.2516,53.65824],[-125.25785,53.65824],[-125.2641,53.65824],[-125.27035,53.65824],[-125.27035,53.66241],[-125.27035,53.66658],[-125.27035,53.67074],[-125.27035,53.67491],[-125.27035,53.67908],[-125.27035,53.68324],[-125.27035,53.68741],[-125.27035,53.69158],[-125.27035,53.69574]]]}},{"type":"Feature","properties":{"c":"1083020","o":"THOMPSON CREEK METALS COMPANY INC.","e":"2027-08-13Z"},"geometry":{"type":"Polygon","coordinates":[[[-125.23285,53.69575],[-125.2266,53.69575],[-125.22035,53.69575],[-125.2141,53.69575],[-125.20785,53.69575],[-125.2016,53.69575],[-125.2016,53.69158],[-125.2016,53.68741],[-125.2016,53.68325],[-125.2016,53.67908],[-125.20159,53.67491],[-125.20159,53.67075],[-125.20159,53.66658],[-125.20159,53.66241],[-125.20159,53.65825],[-125.20784,53.65825],[-125.21409,53.65825],[-125.22034,53.65825],[-125.22659,53.65825],[-125.23285,53.65825],[-125.23285,53.66241],[-125.23285,53.66658],[-125.23285,53.67075],[-125.23285,53.67491],[-125.23285,53.67908],[-125.23285,53.68325],[-125.23285,53.68741],[-125.23285,53.69158],[-125.23285,53.69575]]]}},{"type":"Feature","properties":{"c":"1083021","o":"THOMPSON CREEK METALS COMPANY INC.","e":"2027-08-13Z"},"geometry":{"type":"Polygon","coordinates":[[[-125.2016,53.68325],[-125.19535,53.68325],[-125.18909,53.68325],[-125.18284,53.68325],[-125.17659,53.68325],[-125.17034,53.68325],[-125.16409,53.68325],[-125.15784,53.68325],[-125.15159,53.68325],[-125.14534,53.68325],[-125.13909,53.68325],[-125.13909,53.67908],[-125.13909,53.67491],[-125.13909,53.67075],[-125.14534,53.67075],[-125.15159,53.67075],[-125.15784,53.67075],[-125.16409,53.67075],[-125.17034,53.67075],[-125.17659,53.67075],[-125.18284,53.67075],[-125.18909,53.67075],[-125.19534,53.67075],[-125.20159,53.67075],[-125.20159,53.67491],[-125.2016,53.67908],[-125.2016,53.68325]]]}},{"type":"Feature","properties":{"c":"1083022","o":"THOMPSON CREEK METALS COMPANY INC.","e":"2027-08-13Z"},"geometry":{"type":"Polygon","coordinates":[[[-125.2016,53.69575],[-125.19535,53.69575],[-125.1891,53.69575],[-125.18285,53.69575],[-125.17659,53.69575],[-125.17034,53.69575],[-125.16409,53.69575],[-125.15784,53.69575],[-125.15159,53.69575],[-125.14534,53.69575],[-125.13909,53.69575],[-125.13909,53.69158],[-125.13909,53.68741],[-125.13909,53.68325],[-125.14534,53.68325],[-125.15159,53.68325],[-125.15784,53.68325],[-125.16409,53.68325],[-125.17034,53.68325],[-125.17659,53.68325],[-125.18284,53.68325],[-125.18909,53.68325],[-125.19535,53.68325],[-125.2016,53.68325],[-125.2016,53.68741],[-125.2016,53.69158],[-125.2016,53.69575]]]}},{"type":"Feature","properties":{"c":"1094576","o":"THOMPSON CREEK METALS COMPANY INC.","e":"2027-09-01Z"},"geometry":{"type":"Polygon","coordinates":[[[-125.4141,53.55824],[-125.40785,53.55824],[-125.40785,53.55407],[-125.40785,53.54991],[-125.40785,53.54574],[-125.4141,53.54574],[-125.4141,53.54991],[-125.4141,53.55407],[-125.4141,53.55824]]]}},{"type":"Feature","properties":{"c":"1112890","o":"ROKMASTER RESOURCES CORP","e":"2027-01-29Z"},"geometry":{"type":"Polygon","coordinates":[[[-125.45162,53.93324],[-125.44537,53.93324],[-125.43912,53.93324],[-125.43912,53.93741],[-125.43287,53.93741],[-125.42662,53.93741],[-125.42662,53.94157],[-125.42037,53.94157],[-125.41412,53.94157],[-125.41412,53.94574],[-125.40787,53.94574],[-125.40162,53.94574],[-125.39537,53.94574],[-125.38912,53.94574],[-125.38912,53.94158],[-125.38912,53.93741],[-125.38912,53.93324],[-125.38912,53.92908],[-125.39537,53.92908],[-125.40162,53.92908],[-125.40787,53.92908],[-125.40787,53.92491],[-125.40787,53.92074],[-125.41412,53.92074],[-125.41412,53.91657],[-125.42037,53.91657],[-125.42037,53.91241],[-125.42662,53.91241],[-125.43287,53.91241],[-125.43912,53.91241],[-125.44537,53.91241],[-125.45162,53.91241],[-125.45162,53.91657],[-125.45162,53.92074],[-125.45162,53.92491],[-125.45162,53.92907],[-125.45162,53.93324]]]}},{"type":"Feature","properties":{"c":"1107217","o":"FRASER, MATTHEW BRYAN","e":"2029-06-20Z"},"geometry":{"type":"Polygon","coordinates":[[[-125.00784,53.85408],[-125.00159,53.85408],[-124.99534,53.85408],[-124.98909,53.85408],[-124.98284,53.85408],[-124.97659,53.85408],[-124.97659,53.84992],[-124.97659,53.84575],[-124.98284,53.84575],[-124.98909,53.84575],[-124.99534,53.84575],[-125.00159,53.84575],[-125.00784,53.84575],[-125.00784,53.84992],[-125.00784,53.85408]]]}},{"type":"Feature","properties":{"c":"1109861","o":"KOOTENAY RESOURCES INC.","e":"2027-01-29Z"},"geometry":{"type":"Polygon","coordinates":[[[-125.48287,53.91241],[-125.47662,53.91241],[-125.47037,53.91241],[-125.46412,53.91241],[-125.45787,53.91241],[-125.45162,53.91241],[-125.45162,53.90824],[-125.45162,53.90407],[-125.45162,53.89991],[-125.45787,53.89991],[-125.46412,53.89991],[-125.47037,53.89991],[-125.47662,53.89991],[-125.48287,53.89991],[-125.48287,53.90407],[-125.48287,53.90824],[-125.48912,53.90824],[-125.49537,53.90824],[-125.49537,53.9124],[-125.48912,53.9124],[-125.48287,53.91241]]]}},{"type":"Feature","properties":{"c":"1109864","o":"KOOTENAY RESOURCES INC.","e":"2027-01-29Z"},"geometry":{"type":"Polygon","coordinates":[[[-125.49537,53.92491],[-125.48912,53.92491],[-125.48287,53.92491],[-125.47662,53.92491],[-125.47037,53.92491],[-125.46412,53.92491],[-125.45787,53.92491],[-125.45162,53.92491],[-125.45162,53.92074],[-125.45162,53.91657],[-125.45162,53.91241],[-125.45787,53.91241],[-125.46412,53.91241],[-125.47037,53.91241],[-125.47662,53.91241],[-125.48287,53.91241],[-125.48912,53.9124],[-125.49537,53.9124],[-125.49537,53.91657],[-125.49537,53.92074],[-125.49537,53.92491]]]}},{"type":"Feature","properties":{"c":"1109866","o":"KOOTENAY RESOURCES INC.","e":"2027-01-29Z"},"geometry":{"type":"Polygon","coordinates":[[[-125.49537,53.93324],[-125.48912,53.93324],[-125.48287,53.93324],[-125.47662,53.93324],[-125.47037,53.93324],[-125.46412,53.93324],[-125.45787,53.93324],[-125.45162,53.93324],[-125.45162,53.92907],[-125.45162,53.92491],[-125.45787,53.92491],[-125.46412,53.92491],[-125.47037,53.92491],[-125.47662,53.92491],[-125.48287,53.92491],[-125.48912,53.92491],[-125.49537,53.92491],[-125.49537,53.92907],[-125.49537,53.93324]]]}},{"type":"Feature","properties":{"c":"1140025","o":"CASWELL, JERRY JAMES","e":"2027-10-05Z"},"geometry":{"type":"Polygon","coordinates":[[[-125.27035,53.77075],[-125.27035,53.76658],[-125.2766,53.76658],[-125.28285,53.76658],[-125.28285,53.77075],[-125.2766,53.77075],[-125.27035,53.77075]]]}},{"type":"Feature","properties":{"c":"1140026","o":"CASWELL, DIANE MARLENE","e":"2027-10-05Z"},"geometry":{"type":"Polygon","coordinates":[[[-125.27035,53.77491],[-125.27035,53.77075],[-125.2766,53.77075],[-125.28285,53.77075],[-125.28285,53.77491],[-125.2766,53.77491],[-125.27035,53.77491]]]}},{"type":"Feature","properties":{"c":"1115360","o":"KENNEDY, ROBERT DUNCAN CRAIG","e":"2027-01-07Z"},"geometry":{"type":"Polygon","coordinates":[[[-125.20785,53.84158],[-125.2016,53.84158],[-125.19535,53.84158],[-125.19535,53.84575],[-125.1891,53.84575],[-125.1891,53.84991],[-125.1891,53.85408],[-125.1891,53.85825],[-125.18285,53.85825],[-125.1766,53.85825],[-125.17035,53.85825],[-125.1641,53.85825],[-125.15785,53.85825],[-125.1516,53.85825],[-125.14535,53.85825],[-125.14535,53.85408],[-125.14535,53.84992],[-125.14535,53.84575],[-125.14535,53.84158],[-125.14535,53.83742],[-125.14535,53.83325],[-125.1516,53.83325],[-125.15785,53.83325],[-125.1641,53.83325],[-125.17035,53.83325],[-125.1766,53.83325],[-125.1766,53.82908],[-125.18285,53.82908],[-125.1891,53.82908],[-125.19535,53.82908],[-125.2016,53.82908],[-125.20785,53.82908],[-125.20785,53.83325],[-125.20785,53.83741],[-125.20785,53.84158]]]}},{"type":"Feature","properties":{"c":"1121769","o":"KENNEDY, ROBERT DUNCAN CRAIG","e":"2027-03-30Z"},"geometry":{"type":"Polygon","coordinates":[[[-125.53285,53.5249],[-125.5266,53.5249],[-125.52035,53.5249],[-125.5141,53.5249],[-125.50785,53.5249],[-125.5016,53.5249],[-125.49535,53.52491],[-125.49535,53.52074],[-125.49535,53.51657],[-125.49535,53.5124],[-125.49535,53.50824],[-125.49535,53.50407],[-125.49535,53.4999],[-125.49535,53.49574],[-125.49535,53.49157],[-125.49535,53.4874],[-125.5016,53.4874],[-125.50785,53.4874],[-125.5141,53.4874],[-125.52035,53.4874],[-125.5266,53.4874],[-125.53285,53.4874],[-125.53285,53.49157],[-125.53285,53.49574],[-125.53285,53.4999],[-125.53285,53.50407],[-125.53285,53.50824],[-125.53285,53.5124],[-125.53285,53.51657],[-125.53285,53.52074],[-125.53285,53.5249]]]}},{"type":"Feature","properties":{"c":"1121772","o":"KENNEDY, ROBERT DUNCAN CRAIG","e":"2027-03-30Z"},"geometry":{"type":"Polygon","coordinates":[[[-125.49535,53.50407],[-125.4891,53.50407],[-125.48285,53.50407],[-125.4766,53.50407],[-125.47035,53.50407],[-125.4641,53.50407],[-125.45785,53.50407],[-125.4516,53.50407],[-125.44535,53.50407],[-125.4391,53.50407],[-125.4391,53.49991],[-125.43909,53.49574],[-125.43909,53.49157],[-125.43909,53.48741],[-125.43909,53.48324],[-125.43909,53.47907],[-125.44534,53.47907],[-125.45159,53.47907],[-125.45784,53.47907],[-125.4641,53.47907],[-125.47035,53.47907],[-125.4766,53.47907],[-125.48285,53.47907],[-125.4891,53.47907],[-125.49535,53.47907],[-125.49535,53.48324],[-125.49535,53.4874],[-125.49535,53.49157],[-125.49535,53.49574],[-125.49535,53.4999],[-125.49535,53.50407]]]}},{"type":"Feature","properties":{"c":"1121773","o":"KENNEDY, ROBERT DUNCAN CRAIG","e":"2027-03-30Z"},"geometry":{"type":"Polygon","coordinates":[[[-125.49535,53.52491],[-125.4891,53.52491],[-125.48285,53.52491],[-125.4766,53.52491],[-125.47035,53.52491],[-125.4641,53.52491],[-125.45785,53.52491],[-125.4516,53.52491],[-125.4516,53.52074],[-125.4516,53.51657],[-125.4516,53.51241],[-125.4516,53.50824],[-125.4516,53.50407],[-125.45785,53.50407],[-125.4641,53.50407],[-125.47035,53.50407],[-125.4766,53.50407],[-125.48285,53.50407],[-125.4891,53.50407],[-125.49535,53.50407],[-125.49535,53.50824],[-125.49535,53.5124],[-125.49535,53.51657],[-125.49535,53.52074],[-125.49535,53.52491]]]}},{"type":"Feature","properties":{"c":"1133783","o":"GALLANT, TYLER WILLIAM JOSEPH","e":"2027-06-03Z"},"geometry":{"type":"Polygon","coordinates":[[[-125.13284,53.62908],[-125.13284,53.62491],[-125.13909,53.62491],[-125.14534,53.62491],[-125.14534,53.62908],[-125.13909,53.62908],[-125.13284,53.62908]]]}},{"type":"Feature","properties":{"c":"1115458","o":"KENNEDY, ROBERT DUNCAN CRAIG","e":"2027-01-07Z"},"geometry":{"type":"Polygon","coordinates":[[[-125.12035,53.87492],[-125.1141,53.87492],[-125.10785,53.87492],[-125.10785,53.87908],[-125.10785,53.88325],[-125.10785,53.88742],[-125.10785,53.89158],[-125.10785,53.89575],[-125.10785,53.89992],[-125.1016,53.89992],[-125.09535,53.89992],[-125.0891,53.89992],[-125.08285,53.89992],[-125.0766,53.89992],[-125.07035,53.89992],[-125.07035,53.89575],[-125.07035,53.89158],[-125.07035,53.88742],[-125.07035,53.88325],[-125.07035,53.87908],[-125.07035,53.87492],[-125.07035,53.87075],[-125.07035,53.86658],[-125.0766,53.86658],[-125.0766,53.86242],[-125.0766,53.85825],[-125.08285,53.85825],[-125.0891,53.85825],[-125.09535,53.85825],[-125.1016,53.85825],[-125.10785,53.85825],[-125.1141,53.85825],[-125.12035,53.85825],[-125.12035,53.86242],[-125.12035,53.86658],[-125.12035,53.87075],[-125.12035,53.87492]]]}},{"type":"Feature","properties":{"c":"1115459","o":"KENNEDY, ROBERT DUNCAN CRAIG","e":"2027-01-07Z"},"geometry":{"type":"Polygon","coordinates":[[[-125.18285,53.86658],[-125.1766,53.86658],[-125.17035,53.86658],[-125.1641,53.86658],[-125.15785,53.86658],[-125.1516,53.86658],[-125.14535,53.86658],[-125.1391,53.86658],[-125.13285,53.86658],[-125.1266,53.86658],[-125.12035,53.86658],[-125.12035,53.86242],[-125.12035,53.85825],[-125.1266,53.85825],[-125.13285,53.85825],[-125.1391,53.85825],[-125.14535,53.85825],[-125.1516,53.85825],[-125.15785,53.85825],[-125.1641,53.85825],[-125.17035,53.85825],[-125.1766,53.85825],[-125.18285,53.85825],[-125.18285,53.86241],[-125.18285,53.86658]]]}},{"type":"Feature","properties":{"c":"1135148","o":"ZIMMER, CHRISTOPHER JAMES","e":"2027-07-08Z"},"geometry":{"type":"Polygon","coordinates":[[[-125.3516,53.63324],[-125.3516,53.62907],[-125.35785,53.62907],[-125.3641,53.62907],[-125.3641,53.63324],[-125.35785,53.63324],[-125.3516,53.63324]]]}},{"type":"Feature","properties":{"c":"1135173","o":"SCOTT, STEVEN JEFFREY","e":"2027-07-08Z"},"geometry":{"type":"Polygon","coordinates":[[[-125.43285,53.58741],[-125.43285,53.59157],[-125.4266,53.59157],[-125.4266,53.58741],[-125.43285,53.58741]]]}},{"type":"Feature","properties":{"c":"1121559","o":"FOXTAIL RESOURCE CORP","e":"2028-02-15Z"},"geometry":{"type":"Polygon","coordinates":[[[-125.37662,53.97491],[-125.37662,53.97908],[-125.37037,53.97908],[-125.37037,53.97491],[-125.37662,53.97491]]]}},{"type":"Feature","properties":{"c":"1121560","o":"FOXTAIL RESOURCE CORP","e":"2028-02-15Z"},"geometry":{"type":"MultiPolygon","coordinates":[[[[-125.38287,53.98324],[-125.37662,53.98324],[-125.37037,53.98324],[-125.36412,53.98324],[-125.35787,53.98324],[-125.35787,53.97908],[-125.35787,53.97491],[-125.35787,53.97074],[-125.35787,53.96658],[-125.35787,53.96241],[-125.36412,53.96241],[-125.37037,53.96241],[-125.37662,53.96241],[-125.38287,53.96241],[-125.38287,53.96658],[-125.38287,53.97074],[-125.38287,53.97491],[-125.38287,53.97908],[-125.38287,53.98324]],[[-125.37662,53.97491],[-125.37037,53.97491],[-125.37037,53.97908],[-125.37662,53.97908],[-125.37662,53.97491]]]]}},{"type":"Feature","properties":{"c":"1139113","o":"BRUNETTE, HELENE MARIE","e":"2027-09-17Z"},"geometry":{"type":"Polygon","coordinates":[[[-125.3516,53.70824],[-125.3516,53.71241],[-125.34535,53.71241],[-125.34535,53.70824],[-125.3516,53.70824]]]}},{"type":"Feature","properties":{"c":"1139114","o":"BRUNETTE, HELENE MARIE","e":"2027-09-17Z"},"geometry":{"type":"Polygon","coordinates":[[[-125.34535,53.71241],[-125.3391,53.71241],[-125.3391,53.70824],[-125.3391,53.70408],[-125.34535,53.70408],[-125.3516,53.70408],[-125.3516,53.70824],[-125.34535,53.70824],[-125.34535,53.71241]]]}},{"type":"Feature","properties":{"c":"1139115","o":"BRUNETTE, HELENE MARIE","e":"2027-09-17Z"},"geometry":{"type":"Polygon","coordinates":[[[-125.33285,53.70824],[-125.33285,53.71241],[-125.3266,53.71241],[-125.3266,53.70824],[-125.33285,53.70824]]]}},{"type":"Feature","properties":{"c":"1116252","o":"ODELL, PAMELA DENISE","e":"2030-03-24Z"},"geometry":{"type":"Polygon","coordinates":[[[-125.27035,53.77491],[-125.2641,53.77491],[-125.25785,53.77491],[-125.25785,53.77075],[-125.25785,53.76658],[-125.2641,53.76658],[-125.27035,53.76658],[-125.27035,53.77075],[-125.27035,53.77491]]]}},{"type":"Feature","properties":{"c":"1113870","o":"KENNEDY, THOMAS PETER JAMES","e":"2027-01-07Z"},"geometry":{"type":"Polygon","coordinates":[[[-125.2641,53.83325],[-125.25785,53.83325],[-125.25785,53.82908],[-125.25785,53.82491],[-125.2641,53.82491],[-125.2641,53.82908],[-125.2641,53.83325]]]}},{"type":"Feature","properties":{"c":"1113874","o":"KENNEDY, THOMAS PETER JAMES","e":"2027-01-07Z"},"geometry":{"type":"Polygon","coordinates":[[[-125.25785,53.83325],[-125.2516,53.83325],[-125.24535,53.83325],[-125.24535,53.82908],[-125.24535,53.82491],[-125.2516,53.82491],[-125.25785,53.82491],[-125.25785,53.82908],[-125.25785,53.83325]]]}},{"type":"Feature","properties":{"c":"1113876","o":"KENNEDY, THOMAS PETER JAMES","e":"2027-01-07Z"},"geometry":{"type":"Polygon","coordinates":[[[-125.26411,53.84991],[-125.25786,53.84991],[-125.2516,53.84991],[-125.24535,53.84991],[-125.24535,53.84575],[-125.24535,53.84158],[-125.24535,53.83741],[-125.24535,53.83325],[-125.2516,53.83325],[-125.25785,53.83325],[-125.2641,53.83325],[-125.2641,53.83741],[-125.2641,53.84158],[-125.26411,53.84575],[-125.26411,53.84991]]]}},{"type":"Feature","properties":{"c":"1113878","o":"KENNEDY, THOMAS PETER JAMES","e":"2027-01-07Z"},"geometry":{"type":"Polygon","coordinates":[[[-125.24535,53.84991],[-125.2391,53.84991],[-125.2391,53.84575],[-125.2391,53.84158],[-125.23285,53.84158],[-125.2266,53.84158],[-125.22035,53.84158],[-125.2141,53.84158],[-125.20785,53.84158],[-125.20785,53.83741],[-125.2141,53.83741],[-125.22035,53.83741],[-125.2266,53.83741],[-125.23285,53.83741],[-125.2391,53.83741],[-125.24535,53.83741],[-125.24535,53.84158],[-125.24535,53.84575],[-125.24535,53.84991]]]}},{"type":"Feature","properties":{"c":"1113880","o":"KENNEDY, THOMAS PETER JAMES","e":"2027-01-07Z"},"geometry":{"type":"Polygon","coordinates":[[[-125.24535,53.83741],[-125.2391,53.83741],[-125.23285,53.83741],[-125.2266,53.83741],[-125.22035,53.83741],[-125.2141,53.83741],[-125.20785,53.83741],[-125.20785,53.83325],[-125.20785,53.82908],[-125.2141,53.82908],[-125.22035,53.82908],[-125.2266,53.82908],[-125.23285,53.82908],[-125.2391,53.82908],[-125.24535,53.82908],[-125.24535,53.83325],[-125.24535,53.83741]]]}},{"type":"Feature","properties":{"c":"1125851","o":"FOLK, DAVID","e":"2030-07-02Z"},"geometry":{"type":"Polygon","coordinates":[[[-125.17033,53.53325],[-125.17033,53.52908],[-125.17658,53.52908],[-125.18283,53.52908],[-125.18284,53.53325],[-125.17658,53.53325],[-125.17033,53.53325]]]}},{"type":"Feature","properties":{"c":"1134927","o":"KENNEDY, ROBERT DUNCAN CRAIG","e":"2027-07-07Z"},"geometry":{"type":"Polygon","coordinates":[[[-125.15784,53.60408],[-125.15159,53.60408],[-125.14534,53.60408],[-125.13909,53.60408],[-125.13909,53.60825],[-125.13909,53.61241],[-125.13909,53.61658],[-125.13909,53.62075],[-125.13909,53.62491],[-125.13284,53.62491],[-125.13284,53.62908],[-125.13284,53.63325],[-125.12659,53.63325],[-125.12034,53.63325],[-125.11409,53.63325],[-125.10784,53.63325],[-125.10159,53.63325],[-125.09534,53.63325],[-125.09534,53.62908],[-125.09534,53.62491],[-125.09534,53.62075],[-125.09534,53.61658],[-125.09534,53.61241],[-125.09534,53.60825],[-125.09534,53.60408],[-125.09534,53.59991],[-125.10159,53.59991],[-125.10784,53.59991],[-125.11409,53.59991],[-125.11409,53.59575],[-125.12034,53.59575],[-125.12659,53.59575],[-125.12659,53.59158],[-125.13284,53.59158],[-125.13909,53.59158],[-125.14534,53.59158],[-125.15159,53.59158],[-125.15784,53.59158],[-125.15784,53.59575],[-125.15784,53.59991],[-125.15784,53.60408]]]}},{"type":"Feature","properties":{"c":"1121670","o":"KOOTENAY RESOURCES INC.","e":"2027-01-29Z"},"geometry":{"type":"Polygon","coordinates":[[[-125.36412,53.95824],[-125.35787,53.95824],[-125.35162,53.95824],[-125.35162,53.96241],[-125.35162,53.96658],[-125.34537,53.96658],[-125.33912,53.96658],[-125.33287,53.96658],[-125.32662,53.96658],[-125.32036,53.96658],[-125.31411,53.96658],[-125.30786,53.96658],[-125.30161,53.96658],[-125.29536,53.96658],[-125.28911,53.96658],[-125.28286,53.96658],[-125.28286,53.96241],[-125.28286,53.95825],[-125.28286,53.95408],[-125.28286,53.94991],[-125.28286,53.94575],[-125.28286,53.94158],[-125.28286,53.93741],[-125.28286,53.93325],[-125.28911,53.93325],[-125.28911,53.93741],[-125.28911,53.94158],[-125.28911,53.94575],[-125.28911,53.94991],[-125.28911,53.95408],[-125.28911,53.95825],[-125.29536,53.95825],[-125.30161,53.95824],[-125.30786,53.95824],[-125.31411,53.95824],[-125.32036,53.95824],[-125.32661,53.95824],[-125.32661,53.95408],[-125.32661,53.94991],[-125.32661,53.94574],[-125.32661,53.94158],[-125.32661,53.93741],[-125.33286,53.93741],[-125.33911,53.93741],[-125.34536,53.93741],[-125.35161,53.93741],[-125.35787,53.93741],[-125.36412,53.93741],[-125.36412,53.94158],[-125.36412,53.94574],[-125.36412,53.94991],[-125.36412,53.95408],[-125.36412,53.95824]]]}},{"type":"Feature","properties":{"c":"1121671","o":"KOOTENAY RESOURCES INC.","e":"2027-01-29Z"},"geometry":{"type":"Polygon","coordinates":[[[-125.38912,53.95408],[-125.38287,53.95408],[-125.38287,53.95824],[-125.37662,53.95824],[-125.37662,53.96241],[-125.37037,53.96241],[-125.36412,53.96241],[-125.35787,53.96241],[-125.35162,53.96241],[-125.35162,53.95824],[-125.35787,53.95824],[-125.36412,53.95824],[-125.36412,53.95408],[-125.36412,53.94991],[-125.36412,53.94574],[-125.36412,53.94158],[-125.36412,53.93741],[-125.35787,53.93741],[-125.35161,53.93741],[-125.34536,53.93741],[-125.33911,53.93741],[-125.33286,53.93741],[-125.32661,53.93741],[-125.32036,53.93741],[-125.31411,53.93741],[-125.30786,53.93741],[-125.30161,53.93741],[-125.29536,53.93741],[-125.28911,53.93741],[-125.28911,53.93325],[-125.29536,53.93325],[-125.29536,53.92908],[-125.29536,53.92491],[-125.30161,53.92491],[-125.30786,53.92491],[-125.31411,53.92491],[-125.32036,53.92491],[-125.32661,53.92491],[-125.33286,53.92491],[-125.33911,53.92491],[-125.34536,53.92491],[-125.35161,53.92491],[-125.35786,53.92491],[-125.36411,53.92491],[-125.37037,53.92491],[-125.37662,53.92491],[-125.38287,53.92491],[-125.38912,53.92491],[-125.38912,53.92908],[-125.38912,53.93324],[-125.38912,53.93741],[-125.38912,53.94158],[-125.38912,53.94574],[-125.38912,53.94991],[-125.38912,53.95408]]]}},{"type":"Feature","properties":{"c":"1138270","o":"BRUNETTE, HELENE MARIE","e":"2027-08-30Z"},"geometry":{"type":"Polygon","coordinates":[[[-125.2891,53.76241],[-125.28285,53.76241],[-125.28285,53.75824],[-125.28285,53.75408],[-125.2891,53.75408],[-125.2891,53.75824],[-125.2891,53.76241]]]}},{"type":"Feature","properties":{"c":"1139558","o":"KENNEDY, THOMAS PETER JAMES","e":"2027-09-25Z"},"geometry":{"type":"Polygon","coordinates":[[[-125.28286,53.87491],[-125.27661,53.87491],[-125.27036,53.87491],[-125.26411,53.87491],[-125.25786,53.87491],[-125.25161,53.87491],[-125.25161,53.87075],[-125.25161,53.86658],[-125.25161,53.86241],[-125.25786,53.86241],[-125.26411,53.86241],[-125.26411,53.85825],[-125.26411,53.85408],[-125.27036,53.85408],[-125.27661,53.85408],[-125.28286,53.85408],[-125.28286,53.85825],[-125.28286,53.86241],[-125.28286,53.86658],[-125.28286,53.87075],[-125.28286,53.87491]]]}},{"type":"Feature","properties":{"c":"1117161","o":"KENNEDY, THOMAS PETER JAMES","e":"2027-01-07Z"},"geometry":{"type":"Polygon","coordinates":[[[-125.26411,53.86241],[-125.25786,53.86241],[-125.25161,53.86241],[-125.24536,53.86241],[-125.23911,53.86241],[-125.2391,53.85825],[-125.2391,53.85408],[-125.2391,53.84991],[-125.24535,53.84991],[-125.2516,53.84991],[-125.25786,53.84991],[-125.26411,53.84991],[-125.26411,53.85408],[-125.26411,53.85825],[-125.26411,53.86241]]]}}]}