{"type":"FeatureCollection","features":[{"type":"Feature","properties":{"c":"K08220","o":"Redbed Resources Corp. (100%)","e":"2027-11-28"},"geometry":{"type":"Polygon","coordinates":[[[-126.99814,63.44659],[-127.04823,63.44728],[-127.04517,63.49213],[-126.995,63.49144],[-126.99814,63.44659]]]}},{"type":"Feature","properties":{"c":"K08221","o":"Redbed Resources Corp. (100%)","e":"2027-11-28"},"geometry":{"type":"Polygon","coordinates":[[[-126.94805,63.44588],[-126.99814,63.44659],[-126.995,63.49144],[-126.94483,63.49073],[-126.94805,63.44588]]]}},{"type":"Feature","properties":{"c":"K08226","o":"Redbed Resources Corp. (100%)","e":"2027-11-28"},"geometry":{"type":"Polygon","coordinates":[[[-127.00126,63.40174],[-127.05128,63.40244],[-127.04823,63.44728],[-126.99814,63.44659],[-127.00126,63.40174]]]}},{"type":"Feature","properties":{"c":"K08227","o":"Redbed Resources Corp. (100%)","e":"2026-11-28"},"geometry":{"type":"Polygon","coordinates":[[[-126.95125,63.40104],[-127.00126,63.40174],[-126.99814,63.44659],[-126.94805,63.44588],[-126.95125,63.40104]]]}},{"type":"Feature","properties":{"c":"K08232","o":"Redbed Resources Corp. (100%)","e":"2028-11-28"},"geometry":{"type":"Polygon","coordinates":[[[-126.95445,63.35619],[-127.00438,63.3569],[-127.00126,63.40174],[-126.95125,63.40104],[-126.95445,63.35619]]]}},{"type":"Feature","properties":{"c":"K08234","o":"Redbed Resources Corp. (100%)","e":"2028-11-28"},"geometry":{"type":"Polygon","coordinates":[[[-127.05583,63.33516],[-127.05432,63.35759],[-127.03429,63.35731],[-126.95445,63.35619],[-126.95604,63.33377],[-127.05583,63.33516]]]}},{"type":"Feature","properties":{"c":"K08235","o":"Redbed Resources Corp. (100%)","e":"2028-11-28"},"geometry":{"type":"Polygon","coordinates":[[[-126.91982,63.05482],[-126.91604,63.10768],[-126.91603,63.10782],[-126.91602,63.10796],[-126.87642,63.10737],[-126.87643,63.10724],[-126.87679,63.10226],[-126.87708,63.09827],[-126.87691,63.09424],[-126.87744,63.08969],[-126.87744,63.08559],[-126.87972,63.05422],[-126.87972,63.05419],[-126.87972,63.05418],[-126.91983,63.05477],[-126.91982,63.05482]]]}},{"type":"Feature","properties":{"c":"K08236","o":"Redbed Resources Corp. (100%)","e":"2033-11-28"},"geometry":{"type":"Polygon","coordinates":[[[-126.84109,63.09756],[-126.84109,63.09752],[-126.84119,63.09752],[-126.84147,63.09752],[-126.85149,63.09768],[-126.85584,63.09802],[-126.857,63.09811],[-126.85898,63.09827],[-126.86784,63.09853],[-126.87175,63.09842],[-126.87586,63.0983],[-126.87708,63.09827],[-126.87707,63.09841],[-126.87704,63.09878],[-126.87698,63.09961],[-126.8769,63.10079],[-126.87689,63.10092],[-126.87685,63.10144],[-126.87679,63.10226],[-126.87643,63.10724],[-126.87642,63.10737],[-126.84579,63.10691],[-126.84385,63.10688],[-126.84078,63.10683],[-126.8405,63.10683],[-126.8404,63.10683],[-126.84042,63.10661],[-126.84045,63.10615],[-126.84109,63.09756]]]}},{"type":"Feature","properties":{"c":"K08237","o":"Redbed Resources Corp. (100%)","e":"2033-11-28"},"geometry":{"type":"Polygon","coordinates":[[[-126.84212,63.08505],[-126.85149,63.08537],[-126.85149,63.08947],[-126.85149,63.09357],[-126.85149,63.09768],[-126.84954,63.09765],[-126.84797,63.09762],[-126.8446,63.09757],[-126.84147,63.09752],[-126.84119,63.09752],[-126.84117,63.09752],[-126.84109,63.09752],[-126.84132,63.09444],[-126.84202,63.08508],[-126.84202,63.08505],[-126.84212,63.08505]]]}},{"type":"Feature","properties":{"c":"K08238","o":"Redbed Resources Corp. (100%)","e":"2031-11-28"},"geometry":{"type":"Polygon","coordinates":[[[-126.87972,63.05419],[-126.87972,63.05422],[-126.87966,63.05508],[-126.87964,63.05537],[-126.87926,63.06052],[-126.87749,63.08483],[-126.87747,63.08514],[-126.87745,63.08546],[-126.87744,63.08559],[-126.8765,63.08557],[-126.86845,63.0854],[-126.85959,63.08618],[-126.85149,63.08537],[-126.84212,63.08505],[-126.84208,63.08505],[-126.84202,63.08505],[-126.84232,63.08102],[-126.84434,63.05364],[-126.87972,63.05418],[-126.87972,63.05419]]]}},{"type":"Feature","properties":{"c":"K08252","o":"Redbed Resources Corp. (100%)","e":"2033-11-28"},"geometry":{"type":"Polygon","coordinates":[[[-126.64682,62.97188],[-126.64679,62.97224],[-126.64672,62.97307],[-126.64667,62.97368],[-126.64659,62.97469],[-126.64654,62.97538],[-126.64648,62.97612],[-126.64643,62.97674],[-126.64642,62.97691],[-126.6464,62.97708],[-126.64639,62.97724],[-126.64638,62.97739],[-126.64636,62.97756],[-126.64635,62.9777],[-126.64634,62.97779],[-126.64633,62.9779],[-126.64633,62.97802],[-126.64632,62.9781],[-126.64631,62.97818],[-126.64631,62.97825],[-126.64634,62.97829],[-126.64653,62.97852],[-126.64707,62.9792],[-126.64735,62.97955],[-126.64785,62.98018],[-126.6483,62.98074],[-126.64855,62.98106],[-126.64886,62.98144],[-126.64909,62.98172],[-126.6492,62.98186],[-126.64933,62.98202],[-126.64939,62.9821],[-126.64899,62.98218],[-126.64668,62.98266],[-126.64427,62.98317],[-126.64165,62.98371],[-126.63944,62.98417],[-126.63766,62.98452],[-126.63551,62.98498],[-126.63536,62.98501],[-126.63516,62.98505],[-126.635,62.98508],[-126.63484,62.98512],[-126.63477,62.98513],[-126.63479,62.98515],[-126.63503,62.98545],[-126.63562,62.9862],[-126.63651,62.98731],[-126.63747,62.98851],[-126.63835,62.98961],[-126.63911,62.99055],[-126.64001,62.99168],[-126.64083,62.99271],[-126.64147,62.99351],[-126.64182,62.99395],[-126.64214,62.99435],[-126.64246,62.99475],[-126.64288,62.99528],[-126.64328,62.99577],[-126.6437,62.9963],[-126.64401,62.99669],[-126.64353,63.0027],[-126.58928,63.00179],[-126.59187,62.9704],[-126.6445,62.97129],[-126.64606,62.97132],[-126.64686,62.97133],[-126.64685,62.97146],[-126.64685,62.97154],[-126.64685,62.97155],[-126.64682,62.97188]]]}},{"type":"Feature","properties":{"c":"M12414","o":"Integral Metals Corp. (100%)","e":"2026-02-08"},"geometry":{"type":"Polygon","coordinates":[[[-126.71233,63.30011],[-126.71591,63.25526],[-126.76567,63.25606],[-126.76217,63.3009],[-126.71233,63.30011]]]}},{"type":"Feature","properties":{"c":"M12415","o":"Integral Metals Corp. (100%)","e":"2026-02-08"},"geometry":{"type":"Polygon","coordinates":[[[-126.81543,63.25684],[-126.81201,63.30168],[-126.76217,63.3009],[-126.76567,63.25606],[-126.81543,63.25684]]]}},{"type":"Feature","properties":{"c":"M12416","o":"Integral Metals Corp. (100%)","e":"2026-02-08"},"geometry":{"type":"Polygon","coordinates":[[[-126.81201,63.30168],[-126.81543,63.25684],[-126.8652,63.2576],[-126.86185,63.30245],[-126.81201,63.30168]]]}},{"type":"Feature","properties":{"c":"M12417","o":"Integral Metals Corp. (100%)","e":"2026-02-08"},"geometry":{"type":"Polygon","coordinates":[[[-126.86185,63.30245],[-126.86519,63.2576],[-126.91496,63.25835],[-126.91169,63.30319],[-126.86185,63.30245]]]}},{"type":"Feature","properties":{"c":"M12418","o":"Integral Metals Corp. (100%)","e":"2027-02-08"},"geometry":{"type":"Polygon","coordinates":[[[-126.91169,63.30319],[-126.91496,63.25835],[-126.96472,63.25907],[-126.96153,63.30392],[-126.91169,63.30319]]]}},{"type":"Feature","properties":{"c":"M12420","o":"Integral Metals Corp. (100%)","e":"2027-02-08"},"geometry":{"type":"Polygon","coordinates":[[[-126.96153,63.30392],[-126.96472,63.25907],[-127.01448,63.25978],[-127.01137,63.30463],[-126.96153,63.30392]]]}},{"type":"Feature","properties":{"c":"M12346","o":"Redbed Resources Corp. (100%)","e":"2034-08-20"},"geometry":{"type":"Polygon","coordinates":[[[-126.82852,63.14633],[-126.81265,63.14609],[-126.81346,63.13532],[-126.82932,63.13557],[-126.82852,63.14633]]]}},{"type":"Feature","properties":{"c":"M12345","o":"Redbed Resources Corp. (100%)","e":"2034-08-20"},"geometry":{"type":"Polygon","coordinates":[[[-126.87642,63.10737],[-126.87576,63.11634],[-126.84576,63.11589],[-126.84011,63.1158],[-126.83974,63.1158],[-126.8404,63.10683],[-126.84078,63.10683],[-126.84402,63.10688],[-126.87642,63.10737]]]}},{"type":"Feature","properties":{"c":"M12344","o":"Redbed Resources Corp. (100%)","e":"2030-08-20"},"geometry":{"type":"Polygon","coordinates":[[[-127.00931,63.33452],[-127.0093,63.33452],[-127.00929,63.33452],[-127.00002,63.33439],[-126.99321,63.3343],[-126.97155,63.33399],[-126.95944,63.33382],[-126.95942,63.33382],[-126.96153,63.30392],[-126.9616,63.30392],[-127.00002,63.30447],[-127.00832,63.30459],[-127.00969,63.3046],[-127.00987,63.30461],[-127.01134,63.30463],[-127.01135,63.30463],[-127.01137,63.30463],[-127.00931,63.33452]]]}},{"type":"Feature","properties":{"c":"K08267","o":"Redbed Resources Corp. (100%)","e":"2034-08-26"},"geometry":{"type":"Polygon","coordinates":[[[-126.64685,62.97154],[-126.64685,62.97146],[-126.64686,62.97133],[-126.68037,62.97188],[-126.68007,62.97562],[-126.67787,63.00327],[-126.67357,63.0032],[-126.64353,63.0027],[-126.64353,63.00269],[-126.64353,63.00268],[-126.64375,63.00001],[-126.64401,62.99669],[-126.65097,62.99526],[-126.65856,62.99368],[-126.65864,62.99366],[-126.65556,62.98981],[-126.66373,62.98832],[-126.67268,62.98687],[-126.67005,62.98337],[-126.66692,62.97803],[-126.66655,62.9774],[-126.6662,62.9768],[-126.6651,62.97493],[-126.66508,62.97489],[-126.66506,62.97485],[-126.65448,62.97676],[-126.64631,62.97825],[-126.64631,62.97818],[-126.64632,62.9781],[-126.64633,62.97802],[-126.64633,62.9779],[-126.64634,62.97779],[-126.64635,62.9777],[-126.64636,62.97756],[-126.64638,62.97739],[-126.64639,62.97724],[-126.6464,62.97708],[-126.64642,62.97691],[-126.64643,62.97674],[-126.64648,62.97612],[-126.64654,62.97538],[-126.64659,62.97469],[-126.64667,62.97368],[-126.64672,62.97306],[-126.64679,62.97224],[-126.64682,62.97188],[-126.64685,62.97155],[-126.64685,62.97154]]]}},{"type":"Feature","properties":{"c":"M11993","o":"True North Copper Corp. (100%)","e":"2028-04-16"},"geometry":{"type":"Polygon","coordinates":[[[-126.89136,63.53484],[-126.89466,63.49],[-126.94483,63.49073],[-126.9416,63.53557],[-126.89136,63.53484]]]}},{"type":"Feature","properties":{"c":"M11994","o":"True North Copper Corp. (100%)","e":"2028-04-16"},"geometry":{"type":"Polygon","coordinates":[[[-127.04517,63.49213],[-127.04364,63.51455],[-126.94322,63.51315],[-126.94483,63.49073],[-127.04517,63.49213]]]}},{"type":"Feature","properties":{"c":"M12816","o":"True North Copper Corp. (100%)","e":"2028-04-16"},"geometry":{"type":"Polygon","coordinates":[[[-126.96785,63.21423],[-126.97099,63.16938],[-127.0206,63.17008],[-127.01754,63.21493],[-126.96785,63.21423]]]}},{"type":"Feature","properties":{"c":"M12824","o":"True North Copper Corp. (100%)","e":"2028-04-16"},"geometry":{"type":"Polygon","coordinates":[[[-126.96469,63.25908],[-126.96785,63.21423],[-127.01754,63.21493],[-127.01446,63.25978],[-126.96469,63.25908]]]}},{"type":"Feature","properties":{"c":"M12830","o":"True North Copper Corp. (100%)","e":"2028-04-16"},"geometry":{"type":"Polygon","coordinates":[[[-126.95942,63.33382],[-126.95604,63.33377],[-126.95593,63.33526],[-126.90941,63.33459],[-126.91169,63.3032],[-126.96153,63.30392],[-126.95942,63.33382]]]}},{"type":"Feature","properties":{"c":"M12831","o":"True North Copper Corp. (100%)","e":"2028-04-16"},"geometry":{"type":"Polygon","coordinates":[[[-126.85231,63.14669],[-126.85065,63.16911],[-126.81096,63.16851],[-126.81265,63.14609],[-126.85231,63.14669]]]}},{"type":"Feature","properties":{"c":"M12832","o":"True North Copper Corp. (100%)","e":"2028-04-16"},"geometry":{"type":"Polygon","coordinates":[[[-126.81091,63.16923],[-126.78115,63.16877],[-126.78389,63.13289],[-126.81361,63.13335],[-126.81091,63.16923]]]}},{"type":"Feature","properties":{"c":"M12833","o":"True North Copper Corp. (100%)","e":"2028-04-16"},"geometry":{"type":"Polygon","coordinates":[[[-126.7613,63.16845],[-126.76338,63.14155],[-126.7832,63.14186],[-126.78115,63.16877],[-126.7613,63.16845]]]}},{"type":"Feature","properties":{"c":"M12834","o":"True North Copper Corp. (100%)","e":"2028-04-16"},"geometry":{"type":"Polygon","coordinates":[[[-126.87307,63.13426],[-126.78389,63.13289],[-126.78525,63.11496],[-126.87438,63.11632],[-126.87307,63.13426]]]}},{"type":"Feature","properties":{"c":"M12835","o":"True North Copper Corp. (100%)","e":"2028-04-16"},"geometry":{"type":"Polygon","coordinates":[[[-126.80013,63.11519],[-126.8008,63.10622],[-126.8404,63.10683],[-126.83974,63.1158],[-126.80013,63.11519]]]}},{"type":"Feature","properties":{"c":"M12836","o":"True North Copper Corp. (100%)","e":"2028-04-16"},"geometry":{"type":"Polygon","coordinates":[[[-126.82947,63.1336],[-126.8592,63.13405],[-126.85826,63.14678],[-126.82852,63.14633],[-126.82947,63.1336]]]}},{"type":"Feature","properties":{"c":"M12837","o":"True North Copper Corp. (100%)","e":"2028-04-16"},"geometry":{"type":"Polygon","coordinates":[[[-126.81346,63.13532],[-126.81361,63.13335],[-126.82947,63.1336],[-126.82932,63.13557],[-126.81346,63.13532]]]}}]}