{"type":"FeatureCollection","features":[{"type":"Feature","properties":{"c":"502664","o":"IMPERIAL METALS CORPORATION","e":"2026-06-30Z"},"geometry":{"type":"Polygon","coordinates":[[[-126.89561,56.13738],[-126.88936,56.13738],[-126.88311,56.13738],[-126.87686,56.13738],[-126.87061,56.13738],[-126.86436,56.13738],[-126.85811,56.13738],[-126.85186,56.13738],[-126.84561,56.13739],[-126.83936,56.13739],[-126.83311,56.13739],[-126.83311,56.13322],[-126.83311,56.12905],[-126.83936,56.12905],[-126.84561,56.12905],[-126.85186,56.12905],[-126.85811,56.12905],[-126.86436,56.12905],[-126.87061,56.12905],[-126.87686,56.12905],[-126.88311,56.12905],[-126.88936,56.12905],[-126.89561,56.12905],[-126.89561,56.13322],[-126.89561,56.13738]]]}},{"type":"Feature","properties":{"c":"512306","o":"IMPERIAL METALS CORPORATION","e":"2031-06-30Z"},"geometry":{"type":"Polygon","coordinates":[[[-126.92061,56.10405],[-126.92061,56.10822],[-126.92061,56.11238],[-126.91436,56.11238],[-126.90811,56.11238],[-126.90186,56.11238],[-126.89561,56.11238],[-126.88936,56.11238],[-126.88311,56.11238],[-126.87686,56.11238],[-126.87061,56.11238],[-126.86436,56.11238],[-126.85811,56.11238],[-126.85811,56.10822],[-126.85811,56.10405],[-126.85811,56.09988],[-126.85811,56.09572],[-126.8581,56.09155],[-126.86435,56.09155],[-126.87061,56.09155],[-126.87686,56.09155],[-126.88311,56.09155],[-126.88936,56.09155],[-126.88936,56.09572],[-126.89561,56.09572],[-126.90186,56.09572],[-126.90811,56.09572],[-126.91436,56.09572],[-126.92061,56.09572],[-126.92061,56.09988],[-126.92061,56.10405]]]}},{"type":"Feature","properties":{"c":"512322","o":"IMPERIAL METALS CORPORATION","e":"2031-06-30Z"},"geometry":{"type":"Polygon","coordinates":[[[-126.90811,56.11238],[-126.90811,56.11655],[-126.90186,56.11655],[-126.90186,56.12072],[-126.90186,56.12488],[-126.90186,56.12905],[-126.90186,56.13322],[-126.89561,56.13322],[-126.89561,56.12905],[-126.88936,56.12905],[-126.88311,56.12905],[-126.87686,56.12905],[-126.87061,56.12905],[-126.86436,56.12905],[-126.85811,56.12905],[-126.85186,56.12905],[-126.84561,56.12905],[-126.83936,56.12905],[-126.83311,56.12905],[-126.83311,56.12489],[-126.83311,56.12072],[-126.83311,56.11655],[-126.83311,56.11239],[-126.83311,56.10822],[-126.83936,56.10822],[-126.84561,56.10822],[-126.85186,56.10822],[-126.85811,56.10822],[-126.85811,56.11238],[-126.86436,56.11238],[-126.87061,56.11238],[-126.87686,56.11238],[-126.88311,56.11238],[-126.88936,56.11238],[-126.89561,56.11238],[-126.90186,56.11238],[-126.90811,56.11238]]]}},{"type":"Feature","properties":{"c":"512324","o":"IMPERIAL METALS CORPORATION","e":"2031-06-30Z"},"geometry":{"type":"Polygon","coordinates":[[[-126.88935,56.08322],[-126.88936,56.08738],[-126.88936,56.09155],[-126.88311,56.09155],[-126.87686,56.09155],[-126.87061,56.09155],[-126.86435,56.09155],[-126.8581,56.09155],[-126.85811,56.09572],[-126.85811,56.09988],[-126.85811,56.10405],[-126.85811,56.10822],[-126.85186,56.10822],[-126.84561,56.10822],[-126.83936,56.10822],[-126.83311,56.10822],[-126.83311,56.11239],[-126.82686,56.11239],[-126.82686,56.10822],[-126.82686,56.10405],[-126.82685,56.09988],[-126.82685,56.09572],[-126.82685,56.09155],[-126.82685,56.08738],[-126.82685,56.08322],[-126.82685,56.07905],[-126.82685,56.07488],[-126.8331,56.07488],[-126.83935,56.07488],[-126.8456,56.07488],[-126.85185,56.07488],[-126.8581,56.07488],[-126.86435,56.07488],[-126.8706,56.07488],[-126.87685,56.07488],[-126.8831,56.07488],[-126.88935,56.07488],[-126.88935,56.07905],[-126.88935,56.08322]]]}},{"type":"Feature","properties":{"c":"512326","o":"IMPERIAL METALS CORPORATION","e":"2026-06-30Z"},"geometry":{"type":"Polygon","coordinates":[[[-126.92686,56.10405],[-126.92686,56.10822],[-126.92686,56.11238],[-126.92686,56.11655],[-126.92686,56.12072],[-126.92061,56.12072],[-126.91436,56.12072],[-126.90811,56.12072],[-126.90186,56.12072],[-126.90186,56.11655],[-126.90811,56.11655],[-126.90811,56.11238],[-126.91436,56.11238],[-126.92061,56.11238],[-126.92061,56.10822],[-126.92061,56.10405],[-126.92061,56.09988],[-126.92061,56.09572],[-126.92686,56.09572],[-126.92686,56.09988],[-126.92686,56.10405]]]}},{"type":"Feature","properties":{"c":"512329","o":"IMPERIAL METALS CORPORATION","e":"2026-06-30Z"},"geometry":{"type":"Polygon","coordinates":[[[-126.92686,56.08738],[-126.92686,56.09155],[-126.92686,56.09572],[-126.92061,56.09572],[-126.91436,56.09572],[-126.90811,56.09572],[-126.90186,56.09572],[-126.89561,56.09572],[-126.88936,56.09572],[-126.88936,56.09155],[-126.88936,56.08738],[-126.88935,56.08322],[-126.88935,56.07905],[-126.8956,56.07905],[-126.90185,56.07905],[-126.9081,56.07905],[-126.91436,56.07905],[-126.92061,56.07905],[-126.92686,56.07905],[-126.92686,56.08322],[-126.92686,56.08738]]]}},{"type":"Feature","properties":{"c":"512330","o":"IMPERIAL METALS CORPORATION","e":"2026-06-30Z"},"geometry":{"type":"Polygon","coordinates":[[[-126.9206,56.07488],[-126.92061,56.07905],[-126.91436,56.07905],[-126.9081,56.07905],[-126.90185,56.07905],[-126.8956,56.07905],[-126.88935,56.07905],[-126.88935,56.07488],[-126.8831,56.07488],[-126.87685,56.07488],[-126.8706,56.07488],[-126.86435,56.07488],[-126.8581,56.07488],[-126.8581,56.07072],[-126.8581,56.06655],[-126.86435,56.06655],[-126.8706,56.06655],[-126.87685,56.06655],[-126.8831,56.06655],[-126.88935,56.06655],[-126.8956,56.06655],[-126.90185,56.06655],[-126.9081,56.06655],[-126.91435,56.06655],[-126.9206,56.06655],[-126.9206,56.07072],[-126.9206,56.07488]]]}},{"type":"Feature","properties":{"c":"512332","o":"IMPERIAL METALS CORPORATION","e":"2026-06-30Z"},"geometry":{"type":"Polygon","coordinates":[[[-126.8581,56.07488],[-126.85185,56.07488],[-126.8456,56.07488],[-126.83935,56.07488],[-126.8331,56.07488],[-126.82685,56.07488],[-126.82685,56.07905],[-126.8206,56.07905],[-126.81435,56.07905],[-126.8081,56.07905],[-126.80185,56.07905],[-126.80185,56.07489],[-126.7956,56.07489],[-126.7956,56.07072],[-126.7956,56.06655],[-126.80185,56.06655],[-126.8081,56.06655],[-126.81435,56.06655],[-126.8206,56.06655],[-126.82685,56.06655],[-126.8331,56.06655],[-126.83935,56.06655],[-126.8456,56.06655],[-126.85185,56.06655],[-126.8581,56.06655],[-126.8581,56.07072],[-126.8581,56.07488]]]}},{"type":"Feature","properties":{"c":"512334","o":"IMPERIAL METALS CORPORATION","e":"2026-06-30Z"},"geometry":{"type":"Polygon","coordinates":[[[-126.82685,56.08738],[-126.82685,56.09155],[-126.8206,56.09155],[-126.81435,56.09155],[-126.81435,56.08739],[-126.8081,56.08739],[-126.8081,56.08322],[-126.8081,56.07905],[-126.81435,56.07905],[-126.8206,56.07905],[-126.82685,56.07905],[-126.82685,56.08322],[-126.82685,56.08738]]]}},{"type":"Feature","properties":{"c":"531466","o":"IMPERIAL METALS CORPORATION","e":"2026-06-30Z"},"geometry":{"type":"Polygon","coordinates":[[[-126.7956,56.03322],[-126.7956,56.03739],[-126.7956,56.04155],[-126.7956,56.04572],[-126.7956,56.04989],[-126.7956,56.05405],[-126.7956,56.05822],[-126.7956,56.06239],[-126.7956,56.06655],[-126.7956,56.07072],[-126.78935,56.07072],[-126.7831,56.07072],[-126.7831,56.06655],[-126.7831,56.06239],[-126.7831,56.05822],[-126.7831,56.05405],[-126.7831,56.04989],[-126.7831,56.04572],[-126.7831,56.04155],[-126.7831,56.03739],[-126.7831,56.03322],[-126.77685,56.03322],[-126.77685,56.02905],[-126.77685,56.02489],[-126.7831,56.02489],[-126.78935,56.02488],[-126.7956,56.02488],[-126.7956,56.02905],[-126.7956,56.03322]]]}},{"type":"Feature","properties":{"c":"531467","o":"IMPERIAL METALS CORPORATION","e":"2026-06-30Z"},"geometry":{"type":"Polygon","coordinates":[[[-126.7956,56.01655],[-126.7956,56.02072],[-126.7956,56.02488],[-126.78935,56.02488],[-126.7831,56.02489],[-126.77685,56.02489],[-126.7706,56.02489],[-126.7706,56.02072],[-126.76435,56.02072],[-126.76435,56.01655],[-126.7581,56.01655],[-126.7581,56.01239],[-126.75185,56.01239],[-126.75184,56.00822],[-126.75809,56.00822],[-126.76434,56.00822],[-126.7706,56.00822],[-126.77685,56.00822],[-126.7831,56.00822],[-126.78935,56.00822],[-126.7956,56.00822],[-126.7956,56.01238],[-126.7956,56.01655]]]}},{"type":"Feature","properties":{"c":"531468","o":"IMPERIAL METALS CORPORATION","e":"2026-06-30Z"},"geometry":{"type":"Polygon","coordinates":[[[-126.7956,56.00405],[-126.7956,56.00822],[-126.78935,56.00822],[-126.7831,56.00822],[-126.77685,56.00822],[-126.7706,56.00822],[-126.76434,56.00822],[-126.75809,56.00822],[-126.75184,56.00822],[-126.75184,56.00405],[-126.74559,56.00405],[-126.74559,55.99989],[-126.73934,55.99989],[-126.73309,55.99989],[-126.73309,55.99572],[-126.73934,55.99572],[-126.74559,55.99572],[-126.75184,55.99572],[-126.75809,55.99572],[-126.76434,55.99572],[-126.77059,55.99572],[-126.77684,55.99572],[-126.78309,55.99572],[-126.78934,55.99572],[-126.79559,55.99572],[-126.79559,55.99988],[-126.7956,56.00405]]]}},{"type":"Feature","properties":{"c":"1034800","o":"IMPERIAL METALS CORPORATION","e":"2031-06-30Z"},"geometry":{"type":"Polygon","coordinates":[[[-126.81435,56.04155],[-126.81435,56.04572],[-126.81435,56.04988],[-126.81435,56.05405],[-126.81435,56.05822],[-126.81435,56.06238],[-126.81435,56.06655],[-126.8081,56.06655],[-126.80185,56.06655],[-126.7956,56.06655],[-126.7956,56.06239],[-126.7956,56.05822],[-126.7956,56.05405],[-126.7956,56.04989],[-126.7956,56.04572],[-126.7956,56.04155],[-126.7956,56.03739],[-126.7956,56.03322],[-126.80185,56.03322],[-126.8081,56.03322],[-126.81435,56.03322],[-126.81435,56.03738],[-126.81435,56.04155]]]}},{"type":"Feature","properties":{"c":"1073568","o":"PACIFIC RIDGE EXPLORATION LTD.","e":"2036-12-31Z"},"geometry":{"type":"Polygon","coordinates":[[[-126.78936,56.49154],[-126.78936,56.4957],[-126.78311,56.4957],[-126.77685,56.4957],[-126.77686,56.49154],[-126.78311,56.49154],[-126.78936,56.49154]]]}},{"type":"Feature","properties":{"c":"1073571","o":"PACIFIC RIDGE EXPLORATION LTD.","e":"2036-12-31Z"},"geometry":{"type":"Polygon","coordinates":[[[-126.80811,56.5082],[-126.80811,56.51236],[-126.80186,56.51236],[-126.80186,56.5082],[-126.80186,56.50403],[-126.79561,56.50403],[-126.79561,56.5082],[-126.79561,56.51236],[-126.78936,56.51236],[-126.78936,56.5082],[-126.78936,56.50403],[-126.78311,56.50403],[-126.78311,56.49987],[-126.78936,56.49987],[-126.78936,56.4957],[-126.78936,56.49154],[-126.78311,56.49154],[-126.77686,56.49154],[-126.77686,56.48737],[-126.78311,56.48737],[-126.78936,56.48737],[-126.79561,56.48737],[-126.79561,56.49154],[-126.79561,56.4957],[-126.80186,56.4957],[-126.80186,56.49987],[-126.80811,56.49987],[-126.80811,56.50403],[-126.80811,56.5082]]]}},{"type":"Feature","properties":{"c":"1073575","o":"PACIFIC RIDGE EXPLORATION LTD.","e":"2036-12-31Z"},"geometry":{"type":"Polygon","coordinates":[[[-126.78311,56.50403],[-126.77685,56.50403],[-126.77685,56.49987],[-126.77685,56.4957],[-126.78311,56.4957],[-126.78311,56.49987],[-126.78311,56.50403]]]}},{"type":"Feature","properties":{"c":"1073582","o":"PACIFIC RIDGE EXPLORATION LTD.","e":"2036-12-31Z"},"geometry":{"type":"Polygon","coordinates":[[[-126.78311,56.4957],[-126.78936,56.4957],[-126.78936,56.49987],[-126.78311,56.49987],[-126.78311,56.4957]]]}},{"type":"Feature","properties":{"c":"1073583","o":"PACIFIC RIDGE EXPLORATION LTD.","e":"2036-12-31Z"},"geometry":{"type":"Polygon","coordinates":[[[-126.77685,56.49987],[-126.77685,56.50403],[-126.7706,56.50403],[-126.76435,56.50403],[-126.76435,56.49987],[-126.7706,56.49987],[-126.77685,56.49987]]]}},{"type":"Feature","properties":{"c":"1073585","o":"PACIFIC RIDGE EXPLORATION LTD.","e":"2036-12-31Z"},"geometry":{"type":"Polygon","coordinates":[[[-126.77685,56.4957],[-126.77685,56.49987],[-126.7706,56.49987],[-126.76435,56.49987],[-126.76435,56.4957],[-126.7706,56.4957],[-126.77685,56.4957]]]}},{"type":"Feature","properties":{"c":"1073624","o":"PACIFIC RIDGE EXPLORATION LTD.","e":"2036-12-31Z"},"geometry":{"type":"Polygon","coordinates":[[[-126.81436,56.5082],[-126.81436,56.51236],[-126.81436,56.51653],[-126.80811,56.51653],[-126.80186,56.51653],[-126.79561,56.51653],[-126.78936,56.51653],[-126.7831,56.51653],[-126.77685,56.51653],[-126.7706,56.51653],[-126.76435,56.51653],[-126.76435,56.51236],[-126.76435,56.5082],[-126.76435,56.50403],[-126.7706,56.50403],[-126.77685,56.50403],[-126.78311,56.50403],[-126.78936,56.50403],[-126.78936,56.5082],[-126.78936,56.51236],[-126.79561,56.51236],[-126.80186,56.51236],[-126.80811,56.51236],[-126.80811,56.5082],[-126.80811,56.50403],[-126.80811,56.49987],[-126.81436,56.49987],[-126.81436,56.50403],[-126.81436,56.5082]]]}},{"type":"Feature","properties":{"c":"1082106","o":"PACIFIC RIDGE EXPLORATION LTD.","e":"2036-12-31Z"},"geometry":{"type":"Polygon","coordinates":[[[-126.82062,56.49154],[-126.82061,56.4957],[-126.82061,56.49987],[-126.82061,56.50403],[-126.82061,56.5082],[-126.82061,56.51236],[-126.82061,56.51653],[-126.82061,56.5207],[-126.82061,56.52486],[-126.82061,56.52903],[-126.81436,56.52903],[-126.80811,56.52903],[-126.80186,56.52903],[-126.79561,56.52903],[-126.78936,56.52903],[-126.7831,56.52903],[-126.77685,56.52903],[-126.7706,56.52903],[-126.76435,56.52903],[-126.76435,56.53319],[-126.7581,56.53319],[-126.75185,56.53319],[-126.7456,56.53319],[-126.7456,56.52903],[-126.73935,56.52903],[-126.73935,56.52486],[-126.73935,56.5207],[-126.73935,56.51653],[-126.73935,56.51236],[-126.73935,56.5082],[-126.73935,56.50403],[-126.7456,56.50403],[-126.75185,56.50403],[-126.7581,56.50403],[-126.76435,56.50403],[-126.76435,56.5082],[-126.76435,56.51236],[-126.7581,56.51236],[-126.75185,56.51236],[-126.7456,56.51236],[-126.7456,56.51653],[-126.7456,56.5207],[-126.7456,56.52486],[-126.75185,56.52486],[-126.75185,56.52903],[-126.7581,56.52903],[-126.7581,56.52486],[-126.76435,56.52486],[-126.76435,56.5207],[-126.76435,56.51653],[-126.7706,56.51653],[-126.77685,56.51653],[-126.7831,56.51653],[-126.78936,56.51653],[-126.79561,56.51653],[-126.80186,56.51653],[-126.80811,56.51653],[-126.81436,56.51653],[-126.81436,56.51236],[-126.81436,56.5082],[-126.81436,56.50403],[-126.81436,56.49987],[-126.80811,56.49987],[-126.80186,56.49987],[-126.80186,56.4957],[-126.79561,56.4957],[-126.79561,56.49154],[-126.79561,56.48737],[-126.78936,56.48737],[-126.78311,56.48737],[-126.77686,56.48737],[-126.77686,56.4832],[-126.78311,56.4832],[-126.78936,56.4832],[-126.79561,56.4832],[-126.80186,56.4832],[-126.80811,56.4832],[-126.81437,56.4832],[-126.82062,56.4832],[-126.82062,56.48737],[-126.82062,56.49154]]]}},{"type":"Feature","properties":{"c":"1082424","o":"PACIFIC RIDGE EXPLORATION LTD.","e":"2036-12-31Z"},"geometry":{"type":"MultiPolygon","coordinates":[[[[-126.83312,56.5082],[-126.83312,56.51237],[-126.83312,56.51653],[-126.83312,56.5207],[-126.83312,56.52486],[-126.83312,56.52903],[-126.83312,56.53319],[-126.83312,56.53736],[-126.82686,56.53736],[-126.82061,56.53736],[-126.81436,56.53736],[-126.80811,56.53736],[-126.80186,56.53736],[-126.79561,56.53736],[-126.78936,56.53736],[-126.7831,56.53736],[-126.77685,56.53736],[-126.7706,56.53736],[-126.76435,56.53736],[-126.76435,56.54152],[-126.7581,56.54152],[-126.75185,56.54152],[-126.7456,56.54152],[-126.73935,56.54152],[-126.73935,56.53736],[-126.73309,56.53736],[-126.72684,56.53736],[-126.72684,56.53319],[-126.72684,56.52903],[-126.72684,56.52486],[-126.72684,56.5207],[-126.72684,56.51653],[-126.72685,56.51236],[-126.72685,56.5082],[-126.72685,56.50403],[-126.7331,56.50403],[-126.7331,56.49987],[-126.73935,56.49987],[-126.73935,56.4957],[-126.7456,56.4957],[-126.7456,56.49154],[-126.75185,56.49154],[-126.75185,56.48737],[-126.7581,56.48737],[-126.7581,56.4832],[-126.76436,56.4832],[-126.76436,56.47904],[-126.77061,56.47904],[-126.77686,56.47904],[-126.77686,56.47487],[-126.78311,56.47487],[-126.78936,56.47487],[-126.79561,56.47487],[-126.80187,56.47487],[-126.80186,56.47904],[-126.80812,56.47904],[-126.81437,56.47904],[-126.82062,56.47904],[-126.82687,56.47904],[-126.82687,56.4832],[-126.82687,56.48737],[-126.82687,56.49154],[-126.82687,56.4957],[-126.82687,56.49987],[-126.83312,56.49987],[-126.83312,56.50403],[-126.83312,56.5082]],[[-126.7706,56.52903],[-126.77685,56.52903],[-126.7831,56.52903],[-126.78936,56.52903],[-126.79561,56.52903],[-126.80186,56.52903],[-126.80811,56.52903],[-126.81436,56.52903],[-126.82061,56.52903],[-126.82061,56.52486],[-126.82061,56.5207],[-126.82061,56.51653],[-126.82061,56.51236],[-126.82061,56.5082],[-126.82061,56.50403],[-126.82061,56.49987],[-126.82061,56.4957],[-126.82062,56.49154],[-126.82062,56.48737],[-126.82062,56.4832],[-126.81437,56.4832],[-126.80811,56.4832],[-126.80186,56.4832],[-126.79561,56.4832],[-126.78936,56.4832],[-126.78311,56.4832],[-126.77686,56.4832],[-126.77686,56.48737],[-126.77686,56.49154],[-126.77685,56.4957],[-126.7706,56.4957],[-126.76435,56.4957],[-126.76435,56.49987],[-126.76435,56.50403],[-126.7581,56.50403],[-126.75185,56.50403],[-126.7456,56.50403],[-126.73935,56.50403],[-126.73935,56.5082],[-126.73935,56.51236],[-126.73935,56.51653],[-126.73935,56.5207],[-126.73935,56.52486],[-126.73935,56.52903],[-126.7456,56.52903],[-126.7456,56.53319],[-126.75185,56.53319],[-126.7581,56.53319],[-126.76435,56.53319],[-126.76435,56.52903],[-126.7706,56.52903]]]]}},{"type":"Feature","properties":{"c":"1082674","o":"PACIFIC RIDGE EXPLORATION LTD.","e":"2036-12-31Z"},"geometry":{"type":"Polygon","coordinates":[[[-126.86438,56.51653],[-126.86438,56.5207],[-126.86437,56.52486],[-126.86437,56.52903],[-126.86437,56.5332],[-126.86437,56.53736],[-126.86437,56.54153],[-126.86437,56.54569],[-126.86437,56.54986],[-126.85812,56.54986],[-126.85187,56.54986],[-126.84562,56.54986],[-126.83937,56.54986],[-126.83312,56.54986],[-126.82686,56.54986],[-126.82061,56.54986],[-126.81436,56.54986],[-126.80811,56.54986],[-126.80186,56.54986],[-126.79561,56.54986],[-126.78936,56.54986],[-126.7831,56.54986],[-126.77685,56.54986],[-126.7706,56.54986],[-126.76435,56.54986],[-126.7581,56.54986],[-126.75185,56.54986],[-126.7456,56.54986],[-126.73934,56.54986],[-126.73935,56.54569],[-126.73935,56.54152],[-126.7456,56.54152],[-126.75185,56.54152],[-126.7581,56.54152],[-126.76435,56.54152],[-126.76435,56.53736],[-126.7706,56.53736],[-126.77685,56.53736],[-126.7831,56.53736],[-126.78936,56.53736],[-126.79561,56.53736],[-126.80186,56.53736],[-126.80811,56.53736],[-126.81436,56.53736],[-126.82061,56.53736],[-126.82686,56.53736],[-126.83312,56.53736],[-126.83312,56.53319],[-126.83312,56.52903],[-126.83312,56.52486],[-126.83312,56.5207],[-126.83312,56.51653],[-126.83312,56.51237],[-126.83312,56.5082],[-126.83312,56.50403],[-126.83312,56.49987],[-126.83937,56.49987],[-126.84562,56.49987],[-126.85187,56.49987],[-126.85812,56.49987],[-126.85812,56.50404],[-126.85812,56.5082],[-126.86438,56.5082],[-126.86438,56.51237],[-126.86438,56.51653]]]}},{"type":"Feature","properties":{"c":"1116491","o":"COPPERGOLD EXPLORATION CORP.","e":"2026-10-29Z"},"geometry":{"type":"Polygon","coordinates":[[[-126.97061,56.08322],[-126.97061,56.08738],[-126.97061,56.09155],[-126.97061,56.09572],[-126.97061,56.09988],[-126.96436,56.09988],[-126.96436,56.10405],[-126.95811,56.10405],[-126.95186,56.10405],[-126.94561,56.10405],[-126.93936,56.10405],[-126.93311,56.10405],[-126.92686,56.10405],[-126.92686,56.09988],[-126.92686,56.09572],[-126.92686,56.09155],[-126.92686,56.08738],[-126.92686,56.08322],[-126.92686,56.07905],[-126.92061,56.07905],[-126.9206,56.07488],[-126.9206,56.07072],[-126.9206,56.06655],[-126.91435,56.06655],[-126.9081,56.06655],[-126.90185,56.06655],[-126.8956,56.06655],[-126.8956,56.06238],[-126.8956,56.05822],[-126.8956,56.05405],[-126.90185,56.05405],[-126.9081,56.05405],[-126.91435,56.05405],[-126.9206,56.05405],[-126.92685,56.05405],[-126.9331,56.05405],[-126.93935,56.05405],[-126.93935,56.05822],[-126.9456,56.05822],[-126.9456,56.06238],[-126.95185,56.06238],[-126.95185,56.06655],[-126.95811,56.06655],[-126.95811,56.07072],[-126.96436,56.07072],[-126.96436,56.07488],[-126.97061,56.07488],[-126.97061,56.07905],[-126.97061,56.08322]]]}},{"type":"Feature","properties":{"c":"1120258","o":"COPPERGOLD EXPLORATION CORP.","e":"2026-10-29Z"},"geometry":{"type":"Polygon","coordinates":[[[-126.96436,56.11238],[-126.96436,56.11655],[-126.96436,56.12072],[-126.95811,56.12072],[-126.95186,56.12072],[-126.94561,56.12072],[-126.93936,56.12072],[-126.93311,56.12072],[-126.92686,56.12072],[-126.92686,56.11655],[-126.92686,56.11238],[-126.92686,56.10822],[-126.92686,56.10405],[-126.93311,56.10405],[-126.93936,56.10405],[-126.94561,56.10405],[-126.95186,56.10405],[-126.95811,56.10405],[-126.96436,56.10405],[-126.96436,56.10822],[-126.96436,56.11238]]]}},{"type":"Feature","properties":{"c":"1097880","o":"COPPERGOLD EXPLORATION CORP.","e":"2026-10-29Z"},"geometry":{"type":"Polygon","coordinates":[[[-127.00186,56.07488],[-127.00186,56.07905],[-127.00186,56.08321],[-126.99561,56.08321],[-126.98936,56.08321],[-126.98311,56.08321],[-126.97686,56.08321],[-126.97686,56.07905],[-126.97061,56.07905],[-126.97061,56.07488],[-126.96436,56.07488],[-126.96436,56.07072],[-126.95811,56.07072],[-126.95811,56.06655],[-126.95185,56.06655],[-126.95185,56.06238],[-126.9456,56.06238],[-126.9456,56.05822],[-126.93935,56.05822],[-126.93935,56.05405],[-126.93935,56.04988],[-126.93935,56.04572],[-126.93935,56.04155],[-126.93935,56.03738],[-126.9456,56.03738],[-126.95185,56.03738],[-126.9581,56.03738],[-126.96435,56.03738],[-126.9706,56.03738],[-126.97685,56.03738],[-126.9831,56.03738],[-126.9831,56.04155],[-126.9831,56.04571],[-126.9831,56.04988],[-126.98935,56.04988],[-126.98935,56.05405],[-126.98935,56.05821],[-126.99561,56.05821],[-126.99561,56.06238],[-126.99561,56.06655],[-127.00186,56.06655],[-127.00186,56.07071],[-127.00186,56.07488]]]}},{"type":"Feature","properties":{"c":"1097881","o":"COPPERGOLD EXPLORATION CORP.","e":"2026-10-29Z"},"geometry":{"type":"Polygon","coordinates":[[[-127.04561,56.09988],[-127.03936,56.09988],[-127.03311,56.09988],[-127.02686,56.09988],[-127.02061,56.09988],[-127.01436,56.09988],[-127.00811,56.09988],[-127.00186,56.09988],[-126.99561,56.09988],[-126.98936,56.09988],[-126.98311,56.09988],[-126.97686,56.09988],[-126.97061,56.09988],[-126.97061,56.09572],[-126.97061,56.09155],[-126.97061,56.08738],[-126.97061,56.08322],[-126.97061,56.07905],[-126.97686,56.07905],[-126.97686,56.08321],[-126.98311,56.08321],[-126.98936,56.08321],[-126.99561,56.08321],[-127.00186,56.08321],[-127.00186,56.08738],[-127.00186,56.09155],[-127.00811,56.09155],[-127.01436,56.09155],[-127.02061,56.09155],[-127.02686,56.09155],[-127.03311,56.09155],[-127.03936,56.09155],[-127.04561,56.09155],[-127.04561,56.09571],[-127.04561,56.09988]]]}},{"type":"Feature","properties":{"c":"1097882","o":"COPPERGOLD EXPLORATION CORP.","e":"2026-10-29Z"},"geometry":{"type":"Polygon","coordinates":[[[-127.02686,56.13321],[-127.02061,56.13321],[-127.01436,56.13321],[-127.00811,56.13321],[-127.00186,56.13321],[-126.99561,56.13321],[-126.98936,56.13321],[-126.98311,56.13321],[-126.97686,56.13321],[-126.97061,56.13322],[-126.96436,56.13322],[-126.96436,56.12905],[-126.96436,56.12488],[-126.96436,56.12072],[-126.96436,56.11655],[-126.96436,56.11238],[-126.96436,56.10822],[-126.96436,56.10405],[-126.96436,56.09988],[-126.97061,56.09988],[-126.97686,56.09988],[-126.98311,56.09988],[-126.98936,56.09988],[-126.99561,56.09988],[-127.00186,56.09988],[-127.00811,56.09988],[-127.01436,56.09988],[-127.01436,56.10405],[-127.01436,56.10821],[-127.01436,56.11238],[-127.02061,56.11238],[-127.02061,56.11655],[-127.02061,56.12071],[-127.02061,56.12488],[-127.02686,56.12488],[-127.02686,56.12905],[-127.02686,56.13321]]]}},{"type":"Feature","properties":{"c":"1115366","o":"HOUSTON MINERALS LTD.","e":"2028-04-15Z"},"geometry":{"type":"Polygon","coordinates":[[[-126.96436,56.12905],[-126.96436,56.13322],[-126.96436,56.13738],[-126.96436,56.14155],[-126.96436,56.14572],[-126.95811,56.14572],[-126.95186,56.14572],[-126.94561,56.14572],[-126.93936,56.14572],[-126.93311,56.14572],[-126.92686,56.14572],[-126.92061,56.14572],[-126.91436,56.14572],[-126.90811,56.14572],[-126.90186,56.14572],[-126.90186,56.14988],[-126.90186,56.15405],[-126.90186,56.15822],[-126.89561,56.15822],[-126.88936,56.15822],[-126.88311,56.15822],[-126.87686,56.15822],[-126.87686,56.15405],[-126.87686,56.14988],[-126.87686,56.14572],[-126.87686,56.14155],[-126.87686,56.13738],[-126.88311,56.13738],[-126.88936,56.13738],[-126.89561,56.13738],[-126.89561,56.13322],[-126.90186,56.13322],[-126.90186,56.12905],[-126.90186,56.12488],[-126.90186,56.12072],[-126.90811,56.12072],[-126.91436,56.12072],[-126.92061,56.12072],[-126.92686,56.12072],[-126.93311,56.12072],[-126.93936,56.12072],[-126.94561,56.12072],[-126.95186,56.12072],[-126.95811,56.12072],[-126.96436,56.12072],[-126.96436,56.12488],[-126.96436,56.12905]]]}},{"type":"Feature","properties":{"c":"1115367","o":"HOUSTON MINERALS LTD.","e":"2028-04-15Z"},"geometry":{"type":"Polygon","coordinates":[[[-126.96436,56.15405],[-126.96436,56.15822],[-126.96436,56.16238],[-126.97061,56.16238],[-126.97061,56.16655],[-126.96436,56.16655],[-126.95811,56.16655],[-126.95186,56.16655],[-126.94561,56.16655],[-126.93936,56.16655],[-126.93311,56.16655],[-126.92686,56.16655],[-126.92061,56.16655],[-126.91436,56.16655],[-126.91436,56.17072],[-126.91436,56.17488],[-126.92061,56.17488],[-126.92061,56.17905],[-126.91436,56.17905],[-126.90811,56.17905],[-126.90186,56.17905],[-126.89561,56.17905],[-126.89561,56.17488],[-126.89561,56.17072],[-126.88936,56.17072],[-126.88311,56.17072],[-126.87686,56.17072],[-126.87686,56.16655],[-126.87686,56.16238],[-126.87686,56.15822],[-126.88311,56.15822],[-126.88936,56.15822],[-126.89561,56.15822],[-126.90186,56.15822],[-126.90186,56.15405],[-126.90186,56.14988],[-126.90186,56.14572],[-126.90811,56.14572],[-126.91436,56.14572],[-126.92061,56.14572],[-126.92686,56.14572],[-126.93311,56.14572],[-126.93936,56.14572],[-126.94561,56.14572],[-126.95186,56.14572],[-126.95811,56.14572],[-126.96436,56.14572],[-126.96436,56.14988],[-126.96436,56.15405]]]}},{"type":"Feature","properties":{"c":"1115368","o":"HOUSTON MINERALS LTD.","e":"2028-04-15Z"},"geometry":{"type":"Polygon","coordinates":[[[-126.96436,56.17072],[-126.96437,56.17488],[-126.96437,56.17905],[-126.96437,56.18322],[-126.96437,56.18738],[-126.96437,56.19155],[-126.95812,56.19155],[-126.95187,56.19155],[-126.94562,56.19155],[-126.93937,56.19155],[-126.93937,56.19572],[-126.93937,56.19988],[-126.93312,56.19988],[-126.92687,56.19988],[-126.92062,56.19988],[-126.91437,56.19988],[-126.90812,56.19988],[-126.90187,56.19988],[-126.90187,56.19572],[-126.90186,56.19155],[-126.90186,56.18738],[-126.89561,56.18738],[-126.88936,56.18738],[-126.88936,56.18322],[-126.88936,56.17905],[-126.88936,56.17488],[-126.88936,56.17072],[-126.89561,56.17072],[-126.89561,56.17488],[-126.89561,56.17905],[-126.90186,56.17905],[-126.90811,56.17905],[-126.91436,56.17905],[-126.92061,56.17905],[-126.92061,56.17488],[-126.91436,56.17488],[-126.91436,56.17072],[-126.91436,56.16655],[-126.92061,56.16655],[-126.92686,56.16655],[-126.93311,56.16655],[-126.93936,56.16655],[-126.94561,56.16655],[-126.95186,56.16655],[-126.95811,56.16655],[-126.96436,56.16655],[-126.96436,56.17072]]]}},{"type":"Feature","properties":{"c":"1115370","o":"HOUSTON MINERALS LTD.","e":"2028-04-15Z"},"geometry":{"type":"Polygon","coordinates":[[[-127.02062,56.19571],[-127.02062,56.19988],[-127.02062,56.20405],[-127.01437,56.20405],[-127.00812,56.20405],[-127.00187,56.20405],[-126.99562,56.20405],[-126.98937,56.20405],[-126.98312,56.20405],[-126.98312,56.19988],[-126.98312,56.19571],[-126.98312,56.19155],[-126.98312,56.18738],[-126.97687,56.18738],[-126.97062,56.18738],[-126.96437,56.18738],[-126.96437,56.18322],[-126.96437,56.17905],[-126.96437,56.17488],[-126.96436,56.17072],[-126.96436,56.16655],[-126.97061,56.16655],[-126.97062,56.17072],[-126.97687,56.17071],[-126.98312,56.17071],[-126.98937,56.17071],[-126.98937,56.17488],[-126.98937,56.17905],[-126.99562,56.17905],[-127.00187,56.17905],[-127.00187,56.18321],[-127.00187,56.18738],[-127.00812,56.18738],[-127.01437,56.18738],[-127.02062,56.18738],[-127.02062,56.19155],[-127.02062,56.19571]]]}},{"type":"Feature","properties":{"c":"1023506","o":"FINLAY MINERALS LTD.","e":"2029-01-15Z"},"geometry":{"type":"Polygon","coordinates":[[[-126.82685,56.03738],[-126.8331,56.03738],[-126.8331,56.04155],[-126.82685,56.04155],[-126.82685,56.03738]]]}},{"type":"Feature","properties":{"c":"1072859","o":"FINLAY MINERALS LTD.","e":"2028-12-05Z"},"geometry":{"type":"Polygon","coordinates":[[[-126.8331,56.03322],[-126.8331,56.03738],[-126.82685,56.03738],[-126.82685,56.04155],[-126.8206,56.04155],[-126.81435,56.04155],[-126.81435,56.03738],[-126.81435,56.03322],[-126.8206,56.03322],[-126.82685,56.03322],[-126.8331,56.03322]]]}},{"type":"Feature","properties":{"c":"1073073","o":"FINLAY MINERALS LTD.","e":"2028-12-06Z"},"geometry":{"type":"Polygon","coordinates":[[[-126.8331,56.05822],[-126.8331,56.06238],[-126.8331,56.06655],[-126.82685,56.06655],[-126.8206,56.06655],[-126.81435,56.06655],[-126.81435,56.06238],[-126.81435,56.05822],[-126.81435,56.05405],[-126.81435,56.04988],[-126.8206,56.04988],[-126.82685,56.04988],[-126.8331,56.04988],[-126.8331,56.05405],[-126.8331,56.05822]]]}},{"type":"Feature","properties":{"c":"1073508","o":"FINLAY MINERALS LTD.","e":"2028-12-07Z"},"geometry":{"type":"Polygon","coordinates":[[[-126.85185,56.04988],[-126.85185,56.05405],[-126.8456,56.05405],[-126.8456,56.04988],[-126.8456,56.04572],[-126.8456,56.04155],[-126.85185,56.04155],[-126.85185,56.04572],[-126.85185,56.04988]]]}},{"type":"Feature","properties":{"c":"1073681","o":"FINLAY MINERALS LTD.","e":"2028-12-08Z"},"geometry":{"type":"Polygon","coordinates":[[[-126.85185,56.06238],[-126.85185,56.06655],[-126.8456,56.06655],[-126.83935,56.06655],[-126.8331,56.06655],[-126.8331,56.06238],[-126.8331,56.05822],[-126.8331,56.05405],[-126.83935,56.05405],[-126.8456,56.05405],[-126.85185,56.05405],[-126.85185,56.05822],[-126.85185,56.06238]]]}},{"type":"Feature","properties":{"c":"1074330","o":"FINLAY MINERALS LTD.","e":"2028-12-09Z"},"geometry":{"type":"Polygon","coordinates":[[[-126.8456,56.04155],[-126.83935,56.04155],[-126.8331,56.04155],[-126.8331,56.03738],[-126.8331,56.03322],[-126.83935,56.03322],[-126.8456,56.03322],[-126.8456,56.03738],[-126.8456,56.04155]]]}},{"type":"Feature","properties":{"c":"1074379","o":"FINLAY MINERALS LTD.","e":"2028-12-10Z"},"geometry":{"type":"Polygon","coordinates":[[[-126.8456,56.04988],[-126.8456,56.05405],[-126.83935,56.05405],[-126.8331,56.05405],[-126.8331,56.04988],[-126.8331,56.04572],[-126.8331,56.04155],[-126.83935,56.04155],[-126.8456,56.04155],[-126.8456,56.04572],[-126.8456,56.04988]]]}},{"type":"Feature","properties":{"c":"1074620","o":"FINLAY MINERALS LTD.","e":"2028-12-11Z"},"geometry":{"type":"Polygon","coordinates":[[[-126.8331,56.04988],[-126.82685,56.04988],[-126.8206,56.04988],[-126.81435,56.04988],[-126.81435,56.04572],[-126.81435,56.04155],[-126.8206,56.04155],[-126.82685,56.04155],[-126.8331,56.04155],[-126.8331,56.04572],[-126.8331,56.04988]]]}},{"type":"Feature","properties":{"c":"1099769","o":"FINLAY MINERALS LTD.","e":"2028-12-12Z"},"geometry":{"type":"Polygon","coordinates":[[[-126.8456,56.01655],[-126.8456,56.02072],[-126.8456,56.02488],[-126.8456,56.02905],[-126.8456,56.03322],[-126.83935,56.03322],[-126.8331,56.03322],[-126.82685,56.03322],[-126.8206,56.03322],[-126.81435,56.03322],[-126.8081,56.03322],[-126.80185,56.03322],[-126.7956,56.03322],[-126.7956,56.02905],[-126.7956,56.02488],[-126.7956,56.02072],[-126.7956,56.01655],[-126.7956,56.01238],[-126.7956,56.00822],[-126.80185,56.00822],[-126.8081,56.00822],[-126.81435,56.00822],[-126.8206,56.00822],[-126.82685,56.00822],[-126.8331,56.00822],[-126.83935,56.00822],[-126.8456,56.00822],[-126.8456,56.01238],[-126.8456,56.01655]]]}},{"type":"Feature","properties":{"c":"1100090","o":"FINLAY MINERALS LTD.","e":"2028-12-13Z"},"geometry":{"type":"Polygon","coordinates":[[[-126.86435,56.03738],[-126.86435,56.04155],[-126.86435,56.04572],[-126.8581,56.04572],[-126.85185,56.04572],[-126.85185,56.04155],[-126.8456,56.04155],[-126.8456,56.03738],[-126.8456,56.03322],[-126.8456,56.02905],[-126.85185,56.02905],[-126.8581,56.02905],[-126.86435,56.02905],[-126.86435,56.03322],[-126.86435,56.03738]]]}},{"type":"Feature","properties":{"c":"1107282","o":"FINLAY MINERALS LTD.","e":"2028-12-14Z"},"geometry":{"type":"Polygon","coordinates":[[[-126.8956,56.06238],[-126.8956,56.06655],[-126.88935,56.06655],[-126.8831,56.06655],[-126.87685,56.06655],[-126.8706,56.06655],[-126.86435,56.06655],[-126.8581,56.06655],[-126.85185,56.06655],[-126.85185,56.06238],[-126.85185,56.05822],[-126.85185,56.05405],[-126.85185,56.04988],[-126.85185,56.04572],[-126.8581,56.04572],[-126.86435,56.04572],[-126.86435,56.04155],[-126.86435,56.03738],[-126.8706,56.03738],[-126.87685,56.03738],[-126.87685,56.04155],[-126.87685,56.04572],[-126.87685,56.04988],[-126.87685,56.05405],[-126.8831,56.05405],[-126.88935,56.05405],[-126.8956,56.05405],[-126.8956,56.05822],[-126.8956,56.06238]]]}},{"type":"Feature","properties":{"c":"1108685","o":"FINLAY MINERALS LTD.","e":"2028-11-19Z"},"geometry":{"type":"Polygon","coordinates":[[[-126.8456,56.00822],[-126.83935,56.00822],[-126.8331,56.00822],[-126.82685,56.00822],[-126.8206,56.00822],[-126.81435,56.00822],[-126.8081,56.00822],[-126.80185,56.00822],[-126.7956,56.00822],[-126.7956,56.00405],[-126.79559,55.99988],[-126.79559,55.99572],[-126.78934,55.99572],[-126.78309,55.99572],[-126.77684,55.99572],[-126.77684,55.99155],[-126.77059,55.99155],[-126.77059,55.98739],[-126.77059,55.98322],[-126.77059,55.97905],[-126.77684,55.97905],[-126.78309,55.97905],[-126.78934,55.97905],[-126.79559,55.97905],[-126.80184,55.97905],[-126.80184,55.98322],[-126.80809,55.98322],[-126.80809,55.98738],[-126.81434,55.98738],[-126.81434,55.99155],[-126.82059,55.99155],[-126.82059,55.99572],[-126.82684,55.99572],[-126.82685,55.99988],[-126.8331,55.99988],[-126.83935,55.99988],[-126.8456,55.99988],[-126.8456,56.00405],[-126.8456,56.00822]]]}},{"type":"Feature","properties":{"c":"1112608","o":"FINLAY MINERALS LTD.","e":"2028-11-21Z"},"geometry":{"type":"Polygon","coordinates":[[[-126.86434,55.95822],[-126.86434,55.96238],[-126.86434,55.96655],[-126.86434,55.97072],[-126.86434,55.97488],[-126.86434,55.97905],[-126.86434,55.98322],[-126.86434,55.98738],[-126.86435,55.99155],[-126.86435,55.99572],[-126.86435,55.99988],[-126.86435,56.00405],[-126.86435,56.00822],[-126.86435,56.01238],[-126.8581,56.01238],[-126.85185,56.01238],[-126.8456,56.01238],[-126.8456,56.00822],[-126.8456,56.00405],[-126.8456,55.99988],[-126.83935,55.99988],[-126.8331,55.99988],[-126.82685,55.99988],[-126.82684,55.99572],[-126.82059,55.99572],[-126.82059,55.99155],[-126.82059,55.98738],[-126.82059,55.98322],[-126.82059,55.97905],[-126.82059,55.97488],[-126.82059,55.97072],[-126.82059,55.96655],[-126.82059,55.96238],[-126.82059,55.95822],[-126.82059,55.95405],[-126.82059,55.94988],[-126.82684,55.94988],[-126.83309,55.94988],[-126.83934,55.94988],[-126.84559,55.94988],[-126.85184,55.94988],[-126.85809,55.94988],[-126.86434,55.94988],[-126.86434,55.95405],[-126.86434,55.95822]]]}},{"type":"Feature","properties":{"c":"1112612","o":"FINLAY MINERALS LTD.","e":"2028-11-22Z"},"geometry":{"type":"Polygon","coordinates":[[[-126.98309,55.97488],[-126.9831,55.97905],[-126.9831,55.98321],[-126.9831,55.98738],[-126.9831,55.99155],[-126.9831,55.99571],[-126.9831,55.99988],[-126.9831,56.00405],[-126.97685,56.00405],[-126.9706,56.00405],[-126.96435,56.00405],[-126.9581,56.00405],[-126.95185,56.00405],[-126.9456,56.00405],[-126.93935,56.00405],[-126.9331,56.00405],[-126.92685,56.00405],[-126.9206,56.00405],[-126.91435,56.00405],[-126.91435,55.99988],[-126.91435,55.99572],[-126.91435,55.99155],[-126.91435,55.98738],[-126.91435,55.98322],[-126.91434,55.97905],[-126.91434,55.97488],[-126.91434,55.97072],[-126.91434,55.96655],[-126.92059,55.96655],[-126.92684,55.96655],[-126.93309,55.96655],[-126.93934,55.96655],[-126.94559,55.96655],[-126.95184,55.96655],[-126.95809,55.96655],[-126.96434,55.96655],[-126.97059,55.96655],[-126.97684,55.96655],[-126.98309,55.96655],[-126.98309,55.97071],[-126.98309,55.97488]]]}},{"type":"Feature","properties":{"c":"1121078","o":"FINLAY MINERALS LTD.","e":"2029-09-30Z"},"geometry":{"type":"Polygon","coordinates":[[[-127.07687,56.15405],[-127.07687,56.15821],[-127.07062,56.15821],[-127.06437,56.15821],[-127.05812,56.15821],[-127.05187,56.15821],[-127.04562,56.15821],[-127.03937,56.15821],[-127.03312,56.15821],[-127.02687,56.15821],[-127.02062,56.15821],[-127.01437,56.15821],[-127.00812,56.15821],[-127.00186,56.15821],[-126.99561,56.15821],[-126.98936,56.15821],[-126.98311,56.15821],[-126.98311,56.15405],[-126.98311,56.14988],[-126.98311,56.14571],[-126.98311,56.14155],[-126.98311,56.13738],[-126.98311,56.13321],[-126.98936,56.13321],[-126.99561,56.13321],[-127.00186,56.13321],[-127.00811,56.13321],[-127.01436,56.13321],[-127.02061,56.13321],[-127.02686,56.13321],[-127.02686,56.12905],[-127.02686,56.12488],[-127.03311,56.12488],[-127.03936,56.12488],[-127.04561,56.12488],[-127.05186,56.12488],[-127.05186,56.12905],[-127.05811,56.12905],[-127.05811,56.13321],[-127.06437,56.13321],[-127.06437,56.13738],[-127.07062,56.13738],[-127.07062,56.14155],[-127.07062,56.14571],[-127.07687,56.14571],[-127.07687,56.14988],[-127.07687,56.15405]]]}},{"type":"Feature","properties":{"c":"1121079","o":"FINLAY MINERALS LTD.","e":"2029-10-01Z"},"geometry":{"type":"Polygon","coordinates":[[[-127.06437,56.15821],[-127.06437,56.16238],[-127.05812,56.16238],[-127.05812,56.16655],[-127.05812,56.17071],[-127.05187,56.17071],[-127.05187,56.17488],[-127.05187,56.17905],[-127.05187,56.18321],[-127.05187,56.18738],[-127.04562,56.18738],[-127.03937,56.18738],[-127.03312,56.18738],[-127.02687,56.18738],[-127.02062,56.18738],[-127.01437,56.18738],[-127.00812,56.18738],[-127.00187,56.18738],[-127.00187,56.18321],[-127.00187,56.17905],[-126.99562,56.17905],[-126.98937,56.17905],[-126.98937,56.17488],[-126.98937,56.17071],[-126.98312,56.17071],[-126.97687,56.17071],[-126.97062,56.17072],[-126.97061,56.16655],[-126.97061,56.16238],[-126.96436,56.16238],[-126.96436,56.15822],[-126.96436,56.15405],[-126.96436,56.14988],[-126.96436,56.14572],[-126.96436,56.14155],[-126.96436,56.13738],[-126.96436,56.13322],[-126.97061,56.13322],[-126.97686,56.13321],[-126.98311,56.13321],[-126.98311,56.13738],[-126.98311,56.14155],[-126.98311,56.14571],[-126.98311,56.14988],[-126.98311,56.15405],[-126.98311,56.15821],[-126.98936,56.15821],[-126.99561,56.15821],[-127.00186,56.15821],[-127.00812,56.15821],[-127.01437,56.15821],[-127.02062,56.15821],[-127.02687,56.15821],[-127.03312,56.15821],[-127.03937,56.15821],[-127.04562,56.15821],[-127.05187,56.15821],[-127.05812,56.15821],[-127.06437,56.15821]]]}},{"type":"Feature","properties":{"c":"1116450","o":"FINLAY MINERALS LTD.","e":"2029-01-10Z"},"geometry":{"type":"MultiPolygon","coordinates":[[[[-126.93935,56.02905],[-126.93935,56.03322],[-126.93935,56.03738],[-126.93935,56.04155],[-126.93935,56.04572],[-126.93935,56.04988],[-126.93935,56.05405],[-126.9331,56.05405],[-126.92685,56.05405],[-126.9206,56.05405],[-126.91435,56.05405],[-126.9081,56.05405],[-126.90185,56.05405],[-126.8956,56.05405],[-126.88935,56.05405],[-126.8831,56.05405],[-126.87685,56.05405],[-126.87685,56.04988],[-126.87685,56.04572],[-126.87685,56.04155],[-126.87685,56.03738],[-126.8706,56.03738],[-126.86435,56.03738],[-126.86435,56.03322],[-126.86435,56.02905],[-126.8581,56.02905],[-126.85185,56.02905],[-126.8456,56.02905],[-126.8456,56.02488],[-126.8456,56.02072],[-126.85185,56.02072],[-126.8581,56.02072],[-126.86435,56.02072],[-126.8706,56.02072],[-126.87685,56.02072],[-126.8831,56.02072],[-126.88935,56.02072],[-126.8956,56.02072],[-126.90185,56.02072],[-126.9081,56.02072],[-126.91435,56.02072],[-126.9206,56.02072],[-126.92685,56.02072],[-126.9331,56.02072],[-126.93935,56.02072],[-126.93935,56.02488],[-126.93935,56.02905]],[[-126.91435,56.02905],[-126.9081,56.02905],[-126.9081,56.03322],[-126.9081,56.03738],[-126.91435,56.03738],[-126.91435,56.03322],[-126.91435,56.02905]]]]}},{"type":"Feature","properties":{"c":"1116451","o":"FINLAY MINERALS LTD.","e":"2028-11-26Z"},"geometry":{"type":"Polygon","coordinates":[[[-126.91435,55.98322],[-126.91435,55.98738],[-126.91435,55.99155],[-126.91435,55.99572],[-126.91435,55.99988],[-126.91435,56.00405],[-126.91435,56.00822],[-126.91435,56.01238],[-126.91435,56.01655],[-126.91435,56.02072],[-126.9081,56.02072],[-126.90185,56.02072],[-126.8956,56.02072],[-126.88935,56.02072],[-126.8831,56.02072],[-126.87685,56.02072],[-126.8706,56.02072],[-126.86435,56.02072],[-126.8581,56.02072],[-126.85185,56.02072],[-126.8456,56.02072],[-126.8456,56.01655],[-126.8456,56.01238],[-126.85185,56.01238],[-126.8581,56.01238],[-126.86435,56.01238],[-126.86435,56.00822],[-126.86435,56.00405],[-126.86435,55.99988],[-126.86435,55.99572],[-126.86435,55.99155],[-126.86434,55.98738],[-126.86434,55.98322],[-126.86434,55.97905],[-126.86434,55.97488],[-126.87059,55.97488],[-126.87684,55.97488],[-126.88309,55.97488],[-126.88934,55.97488],[-126.89559,55.97488],[-126.90184,55.97488],[-126.90809,55.97488],[-126.91434,55.97488],[-126.91434,55.97905],[-126.91435,55.98322]]]}},{"type":"Feature","properties":{"c":"1116452","o":"FINLAY MINERALS LTD.","e":"2029-01-11Z"},"geometry":{"type":"Polygon","coordinates":[[[-126.9831,56.01238],[-126.9831,56.01655],[-126.9831,56.02071],[-126.9831,56.02488],[-126.9831,56.02905],[-126.9831,56.03321],[-126.9831,56.03738],[-126.97685,56.03738],[-126.9706,56.03738],[-126.96435,56.03738],[-126.9581,56.03738],[-126.95185,56.03738],[-126.9456,56.03738],[-126.93935,56.03738],[-126.93935,56.03322],[-126.93935,56.02905],[-126.93935,56.02488],[-126.93935,56.02072],[-126.9331,56.02072],[-126.92685,56.02072],[-126.9206,56.02072],[-126.91435,56.02072],[-126.91435,56.01655],[-126.91435,56.01238],[-126.91435,56.00822],[-126.91435,56.00405],[-126.9206,56.00405],[-126.92685,56.00405],[-126.9331,56.00405],[-126.93935,56.00405],[-126.9456,56.00405],[-126.95185,56.00405],[-126.9581,56.00405],[-126.96435,56.00405],[-126.9706,56.00405],[-126.97685,56.00405],[-126.9831,56.00405],[-126.9831,56.00821],[-126.9831,56.01238]]]}},{"type":"Feature","properties":{"c":"1129163","o":"SCOTT, STEVEN JEFFREY","e":"2027-03-04Z"},"geometry":{"type":"Polygon","coordinates":[[[-126.91435,56.03738],[-126.9081,56.03738],[-126.9081,56.03322],[-126.9081,56.02905],[-126.91435,56.02905],[-126.91435,56.03322],[-126.91435,56.03738]]]}},{"type":"Feature","properties":{"c":"1121255","o":"FINLAY MINERALS LTD.","e":"2029-01-12Z"},"geometry":{"type":"Polygon","coordinates":[[[-127.04561,56.06238],[-127.04561,56.06655],[-127.04561,56.07071],[-127.04561,56.07488],[-127.04561,56.07905],[-127.04561,56.08321],[-127.04561,56.08738],[-127.04561,56.09155],[-127.03936,56.09155],[-127.03311,56.09155],[-127.02686,56.09155],[-127.02061,56.09155],[-127.01436,56.09155],[-127.00811,56.09155],[-127.00186,56.09155],[-127.00186,56.08738],[-127.00186,56.08321],[-127.00186,56.07905],[-127.00186,56.07488],[-127.00186,56.07071],[-127.00186,56.06655],[-126.99561,56.06655],[-126.99561,56.06238],[-126.99561,56.05821],[-126.98935,56.05821],[-126.98935,56.05405],[-126.98935,56.04988],[-126.9831,56.04988],[-126.9831,56.04571],[-126.98935,56.04571],[-126.9956,56.04571],[-127.00185,56.04571],[-127.0081,56.04571],[-127.01435,56.04571],[-127.0206,56.04571],[-127.02685,56.04571],[-127.02685,56.04988],[-127.0331,56.04988],[-127.03311,56.05405],[-127.03936,56.05405],[-127.04561,56.05405],[-127.04561,56.05821],[-127.04561,56.06238]]]}},{"type":"Feature","properties":{"c":"1121256","o":"FINLAY MINERALS LTD.","e":"2029-01-13Z"},"geometry":{"type":"Polygon","coordinates":[[[-127.0456,56.01655],[-127.03935,56.01655],[-127.03935,56.02071],[-127.03935,56.02488],[-127.03935,56.02905],[-127.03935,56.03321],[-127.03935,56.03738],[-127.0331,56.03738],[-127.0331,56.04155],[-127.0331,56.04571],[-127.02685,56.04571],[-127.0206,56.04571],[-127.01435,56.04571],[-127.0081,56.04571],[-127.00185,56.04571],[-126.9956,56.04571],[-126.98935,56.04571],[-126.9831,56.04571],[-126.9831,56.04155],[-126.9831,56.03738],[-126.9831,56.03321],[-126.9831,56.02905],[-126.9831,56.02488],[-126.9831,56.02071],[-126.9831,56.01655],[-126.9831,56.01238],[-126.9831,56.00821],[-126.98935,56.00821],[-126.9956,56.00821],[-127.00185,56.00821],[-127.0081,56.00821],[-127.01435,56.00821],[-127.0206,56.00821],[-127.02685,56.00821],[-127.0331,56.00821],[-127.03935,56.00821],[-127.0456,56.00821],[-127.0456,56.01238],[-127.0456,56.01655]]]}},{"type":"Feature","properties":{"c":"1121258","o":"FINLAY MINERALS LTD.","e":"2028-11-28Z"},"geometry":{"type":"Polygon","coordinates":[[[-127.02685,55.97905],[-127.02685,55.98321],[-127.02685,55.98738],[-127.02685,55.99155],[-127.02685,55.99571],[-127.02685,55.99988],[-127.02685,56.00405],[-127.02685,56.00821],[-127.0206,56.00821],[-127.01435,56.00821],[-127.0081,56.00821],[-127.00185,56.00821],[-126.9956,56.00821],[-126.98935,56.00821],[-126.9831,56.00821],[-126.9831,56.00405],[-126.9831,55.99988],[-126.9831,55.99571],[-126.9831,55.99155],[-126.9831,55.98738],[-126.9831,55.98321],[-126.9831,55.97905],[-126.98309,55.97488],[-126.98309,55.97071],[-126.98309,55.96655],[-126.98934,55.96655],[-126.99559,55.96655],[-126.99559,55.97071],[-127.00184,55.97071],[-127.00809,55.97071],[-127.01434,55.97071],[-127.02059,55.97071],[-127.02684,55.97071],[-127.02684,55.97488],[-127.02685,55.97905]]]}},{"type":"Feature","properties":{"c":"1115371","o":"HOUSTON MINERALS LTD.","e":"2028-04-15Z"},"geometry":{"type":"Polygon","coordinates":[[[-126.98312,56.19571],[-126.98312,56.19988],[-126.98312,56.20405],[-126.98312,56.20821],[-126.98312,56.21238],[-126.98312,56.21655],[-126.97687,56.21655],[-126.97062,56.21655],[-126.96437,56.21655],[-126.95812,56.21655],[-126.95187,56.21655],[-126.95187,56.21238],[-126.94562,56.21238],[-126.93937,56.21238],[-126.93937,56.20822],[-126.93937,56.20405],[-126.93937,56.19988],[-126.93937,56.19572],[-126.93937,56.19155],[-126.94562,56.19155],[-126.95187,56.19155],[-126.95812,56.19155],[-126.96437,56.19155],[-126.96437,56.18738],[-126.97062,56.18738],[-126.97687,56.18738],[-126.98312,56.18738],[-126.98312,56.19155],[-126.98312,56.19571]]]}},{"type":"Feature","properties":{"c":"1115372","o":"HOUSTON MINERALS LTD.","e":"2028-04-15Z"},"geometry":{"type":"Polygon","coordinates":[[[-127.02062,56.21238],[-127.02062,56.21655],[-127.02062,56.22071],[-127.01437,56.22071],[-127.00812,56.22071],[-127.00187,56.22071],[-126.99562,56.22071],[-126.98937,56.22071],[-126.98312,56.22071],[-126.97687,56.22071],[-126.97062,56.22072],[-126.96437,56.22072],[-126.95812,56.22072],[-126.95187,56.22072],[-126.95187,56.21655],[-126.95812,56.21655],[-126.96437,56.21655],[-126.97062,56.21655],[-126.97687,56.21655],[-126.98312,56.21655],[-126.98312,56.21238],[-126.98312,56.20821],[-126.98312,56.20405],[-126.98937,56.20405],[-126.99562,56.20405],[-127.00187,56.20405],[-127.00812,56.20405],[-127.01437,56.20405],[-127.02062,56.20405],[-127.02062,56.20821],[-127.02062,56.21238]]]}}]}