{"type":"FeatureCollection","features":[{"type":"Feature","properties":{"c":"526015","o":"LENCI, ROBERT LIVINGSTON","e":"2027-01-21Z"},"geometry":{"type":"Polygon","coordinates":[[[-126.55784,52.50821],[-126.55784,52.51237],[-126.55159,52.51237],[-126.54534,52.51237],[-126.54534,52.50821],[-126.55159,52.50821],[-126.55784,52.50821]]]}},{"type":"Feature","properties":{"c":"1131594","o":"CRIGHT, KEVIN JEAN GUY","e":"2027-03-25Z"},"geometry":{"type":"Polygon","coordinates":[[[-126.53909,52.52904],[-126.53284,52.52904],[-126.53284,52.52487],[-126.53284,52.52071],[-126.53909,52.52071],[-126.53909,52.52487],[-126.53909,52.52904]]]}},{"type":"Feature","properties":{"c":"1131595","o":"CRIGHT, KEVIN JEAN GUY","e":"2027-03-25Z"},"geometry":{"type":"Polygon","coordinates":[[[-126.55159,52.52904],[-126.54534,52.52904],[-126.54534,52.52487],[-126.54534,52.52071],[-126.55159,52.52071],[-126.55159,52.52487],[-126.55159,52.52904]]]}},{"type":"Feature","properties":{"c":"1131597","o":"CRIGHT, KEVIN JEAN GUY","e":"2027-03-25Z"},"geometry":{"type":"Polygon","coordinates":[[[-126.54534,52.52904],[-126.53909,52.52904],[-126.53909,52.52487],[-126.53909,52.52071],[-126.54534,52.52071],[-126.54534,52.52487],[-126.54534,52.52904]]]}},{"type":"Feature","properties":{"c":"1114643","o":"SCOTT, STEVEN JEFFREY","e":"2027-01-28Z"},"geometry":{"type":"Polygon","coordinates":[[[-126.53284,52.52904],[-126.53909,52.52904],[-126.53909,52.53321],[-126.53284,52.53321],[-126.53284,52.52904]]]}}]}