{"type":"FeatureCollection","features":[{"type":"Feature","properties":{"c":"1052313","o":"DECADE RESOURCES LTD.","e":"2030-01-02Z"},"geometry":{"type":"Polygon","coordinates":[[[-128.07673,54.56651],[-128.07673,54.57068],[-128.07048,54.57068],[-128.06423,54.57068],[-128.05798,54.57068],[-128.05173,54.57068],[-128.04548,54.57068],[-128.03923,54.57068],[-128.03298,54.57068],[-128.02673,54.57068],[-128.02048,54.57068],[-128.01423,54.57068],[-128.00798,54.57068],[-128.00173,54.57068],[-127.99548,54.57068],[-127.98923,54.57068],[-127.98298,54.57068],[-127.98298,54.56652],[-127.98298,54.56235],[-127.98298,54.55818],[-127.98298,54.55401],[-127.98298,54.54985],[-127.98298,54.54568],[-127.98298,54.54151],[-127.97672,54.54151],[-127.97047,54.54152],[-127.96422,54.54152],[-127.95797,54.54152],[-127.95172,54.54152],[-127.94547,54.54152],[-127.94547,54.53735],[-127.94547,54.53318],[-127.94547,54.52902],[-127.94547,54.52485],[-127.94547,54.52068],[-127.94547,54.51652],[-127.94547,54.51235],[-127.94547,54.50818],[-127.94547,54.50402],[-127.94547,54.49985],[-127.94547,54.49568],[-127.94547,54.49152],[-127.95172,54.49152],[-127.95797,54.49152],[-127.96422,54.49152],[-127.97047,54.49152],[-127.97672,54.49151],[-127.98297,54.49151],[-127.98922,54.49151],[-127.99547,54.49151],[-128.00172,54.49151],[-128.00172,54.49568],[-127.99547,54.49568],[-127.98922,54.49568],[-127.98297,54.49568],[-127.97672,54.49568],[-127.97047,54.49568],[-127.96422,54.49568],[-127.95797,54.49568],[-127.95797,54.49985],[-127.95797,54.50402],[-127.95797,54.50818],[-127.95797,54.51235],[-127.95797,54.51652],[-127.95797,54.52068],[-127.96422,54.52068],[-127.97047,54.52068],[-127.97047,54.52485],[-127.97047,54.52902],[-127.97672,54.52901],[-127.98297,54.52901],[-127.98922,54.52901],[-127.99547,54.52901],[-128.00172,54.52901],[-128.00172,54.53318],[-128.00173,54.53735],[-128.00173,54.54151],[-128.00173,54.54568],[-128.00173,54.54985],[-128.00173,54.55401],[-128.00173,54.55818],[-128.00173,54.56235],[-128.00798,54.56235],[-128.01423,54.56235],[-128.02048,54.56235],[-128.02673,54.56235],[-128.03298,54.56235],[-128.03923,54.56235],[-128.04548,54.56235],[-128.05173,54.56235],[-128.05798,54.56234],[-128.06423,54.56234],[-128.07048,54.56234],[-128.07048,54.56651],[-128.07673,54.56651]]]}},{"type":"Feature","properties":{"c":"345732","o":"EASTFIELD RESOURCES LTD.","e":"2029-04-18Z"},"geometry":{"type":"Polygon","coordinates":[[[-127.9487,54.82188],[-127.9487,54.83984],[-127.9487,54.83985],[-127.90978,54.83985],[-127.90979,54.82188],[-127.9487,54.82188]]]}},{"type":"Feature","properties":{"c":"345733","o":"EASTFIELD RESOURCES LTD.","e":"2029-04-18Z"},"geometry":{"type":"Polygon","coordinates":[[[-127.9487,54.82188],[-127.98761,54.82187],[-127.98763,54.83975],[-127.98763,54.83985],[-127.9487,54.83985],[-127.9487,54.83984],[-127.9487,54.82188]]]}},{"type":"Feature","properties":{"c":"354273","o":"EASTFIELD RESOURCES LTD.","e":"2029-05-08Z"},"geometry":{"type":"Polygon","coordinates":[[[-127.90981,54.8039],[-127.9487,54.80391],[-127.9487,54.82188],[-127.90979,54.82188],[-127.90981,54.8039]]]}},{"type":"Feature","properties":{"c":"354274","o":"EASTFIELD RESOURCES LTD.","e":"2029-05-08Z"},"geometry":{"type":"Polygon","coordinates":[[[-127.98761,54.82187],[-127.9487,54.82188],[-127.9487,54.80391],[-127.94873,54.80391],[-127.98759,54.8039],[-127.98761,54.82187]]]}},{"type":"Feature","properties":{"c":"367693","o":"EASTFIELD RESOURCES LTD.","e":"2029-05-08Z"},"geometry":{"type":"Polygon","coordinates":[[[-127.94873,54.80391],[-127.9487,54.80391],[-127.9487,54.8],[-127.9487,54.78594],[-127.98757,54.78593],[-127.98758,54.8],[-127.98759,54.8039],[-127.94873,54.80391]]]}},{"type":"Feature","properties":{"c":"367694","o":"EASTFIELD RESOURCES LTD.","e":"2029-05-08Z"},"geometry":{"type":"Polygon","coordinates":[[[-127.90981,54.8],[-127.90982,54.78593],[-127.9487,54.78594],[-127.9487,54.8],[-127.9487,54.80391],[-127.90981,54.8039],[-127.90981,54.8]]]}},{"type":"Feature","properties":{"c":"367695","o":"EASTFIELD RESOURCES LTD.","e":"2029-05-08Z"},"geometry":{"type":"Polygon","coordinates":[[[-127.87092,54.8039],[-127.87092,54.80247],[-127.87092,54.8],[-127.87093,54.78592],[-127.90981,54.78593],[-127.90981,54.8],[-127.90981,54.8039],[-127.90871,54.8039],[-127.87092,54.8039]]]}},{"type":"Feature","properties":{"c":"367696","o":"EASTFIELD RESOURCES LTD.","e":"2029-05-08Z"},"geometry":{"type":"Polygon","coordinates":[[[-127.98763,54.82187],[-127.98763,54.8039],[-128.0,54.8039],[-128.02652,54.8039],[-128.02653,54.82187],[-128.0,54.82187],[-127.98763,54.82187]]]}},{"type":"Feature","properties":{"c":"367697","o":"EASTFIELD RESOURCES LTD.","e":"2029-05-08Z"},"geometry":{"type":"Polygon","coordinates":[[[-127.98763,54.83975],[-127.98763,54.82187],[-128.0,54.82187],[-128.02653,54.82187],[-128.02655,54.83984],[-128.0,54.83985],[-127.98763,54.83985],[-127.98763,54.83975]]]}},{"type":"Feature","properties":{"c":"367698","o":"EASTFIELD RESOURCES LTD.","e":"2029-05-08Z"},"geometry":{"type":"Polygon","coordinates":[[[-127.98763,54.83985],[-128.0,54.83985],[-128.02655,54.83984],[-128.02657,54.85781],[-128.0,54.85782],[-127.98763,54.85782],[-127.98763,54.83985]]]}},{"type":"Feature","properties":{"c":"367699","o":"EASTFIELD RESOURCES LTD.","e":"2029-05-08Z"},"geometry":{"type":"Polygon","coordinates":[[[-127.9487,54.83984],[-127.98763,54.83985],[-127.98763,54.85782],[-127.94868,54.85781],[-127.9487,54.83985],[-127.9487,54.83984]]]}},{"type":"Feature","properties":{"c":"559923","o":"EASTFIELD RESOURCES LTD.","e":"2029-06-05Z"},"geometry":{"type":"Polygon","coordinates":[[[-127.9455,54.84985],[-127.9455,54.85402],[-127.9455,54.85819],[-127.93925,54.85819],[-127.933,54.85819],[-127.92675,54.85819],[-127.9205,54.85819],[-127.91425,54.85819],[-127.908,54.85819],[-127.908,54.85402],[-127.908,54.84986],[-127.908,54.84569],[-127.908,54.84152],[-127.91425,54.84152],[-127.9205,54.84152],[-127.92675,54.84152],[-127.933,54.84152],[-127.93925,54.84152],[-127.9455,54.84152],[-127.9455,54.84569],[-127.9455,54.84985]]]}},{"type":"Feature","properties":{"c":"560326","o":"EASTFIELD RESOURCES LTD.","e":"2029-06-08Z"},"geometry":{"type":"Polygon","coordinates":[[[-128.05175,54.79568],[-128.05175,54.79985],[-128.0455,54.79985],[-128.03925,54.79985],[-128.033,54.79985],[-128.02675,54.79985],[-128.0205,54.79985],[-128.0205,54.80402],[-128.01425,54.80402],[-128.008,54.80402],[-128.00175,54.80402],[-127.9955,54.80402],[-127.98925,54.80402],[-127.983,54.80402],[-127.983,54.79985],[-127.983,54.79568],[-127.983,54.79152],[-127.98925,54.79152],[-127.9955,54.79152],[-128.00175,54.79152],[-128.008,54.79152],[-128.01425,54.79152],[-128.0205,54.79152],[-128.02675,54.79152],[-128.02675,54.79568],[-128.033,54.79568],[-128.03925,54.79568],[-128.0455,54.79568],[-128.05175,54.79568]]]}},{"type":"Feature","properties":{"c":"560327","o":"EASTFIELD RESOURCES LTD.","e":"2029-06-08Z"},"geometry":{"type":"Polygon","coordinates":[[[-127.908,54.84152],[-127.908,54.84569],[-127.908,54.84986],[-127.908,54.85402],[-127.90175,54.85402],[-127.8955,54.85402],[-127.88925,54.85402],[-127.883,54.85402],[-127.87675,54.85402],[-127.87675,54.84986],[-127.87675,54.84569],[-127.87675,54.84152],[-127.87675,54.83736],[-127.87675,54.83319],[-127.883,54.83319],[-127.88925,54.83319],[-127.8955,54.83319],[-127.90175,54.83319],[-127.908,54.83319],[-127.908,54.83736],[-127.908,54.84152]]]}},{"type":"Feature","properties":{"c":"560328","o":"EASTFIELD RESOURCES LTD.","e":"2029-06-08Z"},"geometry":{"type":"Polygon","coordinates":[[[-128.03926,54.86652],[-128.03926,54.87068],[-128.03301,54.87068],[-128.02676,54.87068],[-128.02051,54.87068],[-128.01426,54.87068],[-128.00801,54.87068],[-128.00176,54.87068],[-127.99551,54.87069],[-127.98926,54.87069],[-127.98925,54.86652],[-127.98925,54.86235],[-127.98925,54.85819],[-127.9955,54.85819],[-128.00175,54.85818],[-128.008,54.85818],[-128.01426,54.85818],[-128.02051,54.85818],[-128.02676,54.85818],[-128.03301,54.85818],[-128.03926,54.85818],[-128.03926,54.86235],[-128.03926,54.86652]]]}},{"type":"Feature","properties":{"c":"560331","o":"EASTFIELD RESOURCES LTD.","e":"2029-06-08Z"},"geometry":{"type":"Polygon","coordinates":[[[-127.9455,54.78735],[-127.93925,54.78735],[-127.93299,54.78735],[-127.92674,54.78735],[-127.92049,54.78735],[-127.91424,54.78735],[-127.90799,54.78735],[-127.90174,54.78735],[-127.89549,54.78735],[-127.88924,54.78735],[-127.88299,54.78736],[-127.87674,54.78736],[-127.87049,54.78736],[-127.87049,54.78319],[-127.87049,54.77902],[-127.87674,54.77902],[-127.88299,54.77902],[-127.88924,54.77902],[-127.89549,54.77902],[-127.90174,54.77902],[-127.90799,54.77902],[-127.91424,54.77902],[-127.92049,54.77902],[-127.92674,54.77902],[-127.93299,54.77902],[-127.93924,54.77902],[-127.94549,54.77902],[-127.9455,54.78319],[-127.9455,54.78735]]]}},{"type":"Feature","properties":{"c":"560332","o":"EASTFIELD RESOURCES LTD.","e":"2029-06-08Z"},"geometry":{"type":"Polygon","coordinates":[[[-127.91425,54.81235],[-127.91425,54.81652],[-127.91425,54.82069],[-127.91425,54.82485],[-127.91425,54.82902],[-127.91425,54.83319],[-127.91425,54.83735],[-127.908,54.83736],[-127.908,54.83319],[-127.908,54.82902],[-127.908,54.82486],[-127.908,54.82069],[-127.908,54.81652],[-127.908,54.81235],[-127.908,54.80819],[-127.908,54.80402],[-127.91425,54.80402],[-127.91425,54.80819],[-127.91425,54.81235]]]}},{"type":"Feature","properties":{"c":"584918","o":"EASTFIELD RESOURCES LTD.","e":"2029-05-22Z"},"geometry":{"type":"Polygon","coordinates":[[[-127.9455,54.83735],[-127.95175,54.83735],[-127.95175,54.84152],[-127.9455,54.84152],[-127.9455,54.83735]]]}},{"type":"Feature","properties":{"c":"674343","o":"EASTFIELD RESOURCES LTD.","e":"2029-11-25Z"},"geometry":{"type":"Polygon","coordinates":[[[-127.9455,54.83735],[-127.9455,54.84152],[-127.93925,54.84152],[-127.933,54.84152],[-127.92675,54.84152],[-127.9205,54.84152],[-127.91425,54.84152],[-127.908,54.84152],[-127.908,54.83736],[-127.91425,54.83735],[-127.9205,54.83735],[-127.92675,54.83735],[-127.933,54.83735],[-127.93925,54.83735],[-127.9455,54.83735]]]}},{"type":"Feature","properties":{"c":"674363","o":"EASTFIELD RESOURCES LTD.","e":"2029-11-25Z"},"geometry":{"type":"Polygon","coordinates":[[[-127.95175,54.84985],[-127.95175,54.85402],[-127.95175,54.85819],[-127.9455,54.85819],[-127.9455,54.85402],[-127.9455,54.84985],[-127.9455,54.84569],[-127.9455,54.84152],[-127.95175,54.84152],[-127.95175,54.84569],[-127.95175,54.84985]]]}},{"type":"Feature","properties":{"c":"674383","o":"EASTFIELD RESOURCES LTD.","e":"2029-11-25Z"},"geometry":{"type":"Polygon","coordinates":[[[-127.908,54.81235],[-127.908,54.81652],[-127.90175,54.81652],[-127.8955,54.81652],[-127.88925,54.81652],[-127.883,54.81652],[-127.87675,54.81652],[-127.87674,54.81236],[-127.88299,54.81236],[-127.88925,54.81236],[-127.8955,54.81236],[-127.90175,54.81235],[-127.908,54.81235]]]}},{"type":"Feature","properties":{"c":"674403","o":"EASTFIELD RESOURCES LTD.","e":"2029-11-25Z"},"geometry":{"type":"Polygon","coordinates":[[[-128.02676,54.85402],[-128.02676,54.85818],[-128.02051,54.85818],[-128.01426,54.85818],[-128.008,54.85818],[-128.00175,54.85818],[-127.9955,54.85819],[-127.98925,54.85819],[-127.98925,54.85402],[-127.9955,54.85402],[-128.00175,54.85402],[-128.008,54.85402],[-128.01425,54.85402],[-128.0205,54.85402],[-128.02676,54.85402]]]}},{"type":"Feature","properties":{"c":"835327","o":"EASTFIELD RESOURCES LTD.","e":"2029-10-07Z"},"geometry":{"type":"Polygon","coordinates":[[[-128.058,54.79568],[-128.058,54.79985],[-128.05175,54.79985],[-128.05175,54.79568],[-128.0455,54.79568],[-128.03925,54.79568],[-128.033,54.79568],[-128.02675,54.79568],[-128.02675,54.79152],[-128.0205,54.79152],[-128.01425,54.79152],[-128.008,54.79152],[-128.00175,54.79152],[-127.9955,54.79152],[-127.98925,54.79152],[-127.98925,54.78735],[-127.9955,54.78735],[-128.00175,54.78735],[-128.008,54.78735],[-128.01425,54.78735],[-128.0205,54.78735],[-128.02675,54.78735],[-128.033,54.78735],[-128.03925,54.78735],[-128.0455,54.78735],[-128.05175,54.78735],[-128.058,54.78735],[-128.058,54.79152],[-128.058,54.79568]]]}},{"type":"Feature","properties":{"c":"1048915","o":"J2 SYNDICATE HOLDINGS LTD","e":"2029-09-08Z"},"geometry":{"type":"Polygon","coordinates":[[[-127.53921,54.50403],[-127.53921,54.50819],[-127.53921,54.51236],[-127.53296,54.51236],[-127.52671,54.51236],[-127.52046,54.51236],[-127.51421,54.51236],[-127.51421,54.50819],[-127.51421,54.50403],[-127.51421,54.49986],[-127.51421,54.49569],[-127.52046,54.49569],[-127.52671,54.49569],[-127.53296,54.49569],[-127.53921,54.49569],[-127.53921,54.49986],[-127.53921,54.50403]]]}},{"type":"Feature","properties":{"c":"1048951","o":"J2 SYNDICATE HOLDINGS LTD","e":"2029-09-08Z"},"geometry":{"type":"Polygon","coordinates":[[[-127.55171,54.50403],[-127.55171,54.50819],[-127.55171,54.51236],[-127.54546,54.51236],[-127.53921,54.51236],[-127.53921,54.50819],[-127.53921,54.50403],[-127.53921,54.49986],[-127.53921,54.49569],[-127.54546,54.49569],[-127.55171,54.49569],[-127.55171,54.49986],[-127.55171,54.50403]]]}},{"type":"Feature","properties":{"c":"1068906","o":"J2 SYNDICATE HOLDINGS LTD","e":"2029-09-08Z"},"geometry":{"type":"Polygon","coordinates":[[[-127.51421,54.50403],[-127.51421,54.50819],[-127.51421,54.51236],[-127.51421,54.51653],[-127.51421,54.52069],[-127.51421,54.52486],[-127.51421,54.52903],[-127.50796,54.52903],[-127.50171,54.52903],[-127.49546,54.52903],[-127.49546,54.52486],[-127.49546,54.5207],[-127.49546,54.51653],[-127.49546,54.51236],[-127.49546,54.5082],[-127.49546,54.50403],[-127.49546,54.49986],[-127.49546,54.4957],[-127.50171,54.49569],[-127.50796,54.4957],[-127.51421,54.49569],[-127.51421,54.49986],[-127.51421,54.50403]]]}},{"type":"Feature","properties":{"c":"1068908","o":"J2 SYNDICATE HOLDINGS LTD","e":"2029-09-08Z"},"geometry":{"type":"Polygon","coordinates":[[[-127.55171,54.51653],[-127.55171,54.52069],[-127.55171,54.52486],[-127.55172,54.52903],[-127.55172,54.53319],[-127.55172,54.53736],[-127.55172,54.54153],[-127.55172,54.54569],[-127.55172,54.54986],[-127.55172,54.55403],[-127.55172,54.55819],[-127.55172,54.56236],[-127.54547,54.56236],[-127.53922,54.56236],[-127.53297,54.56236],[-127.52672,54.56236],[-127.52047,54.56236],[-127.51422,54.56236],[-127.51422,54.5582],[-127.51422,54.55403],[-127.51422,54.54986],[-127.51422,54.5457],[-127.51422,54.54153],[-127.51422,54.53736],[-127.51421,54.5332],[-127.51421,54.52903],[-127.51421,54.52486],[-127.52046,54.52486],[-127.52046,54.52903],[-127.52046,54.5332],[-127.52047,54.53736],[-127.52672,54.53736],[-127.53297,54.53736],[-127.53297,54.53319],[-127.53296,54.52903],[-127.53296,54.52486],[-127.53296,54.52069],[-127.53296,54.51653],[-127.53296,54.51236],[-127.53921,54.51236],[-127.54546,54.51236],[-127.55171,54.51236],[-127.55171,54.51653]]]}},{"type":"Feature","properties":{"c":"1048509","o":"J2 SYNDICATE HOLDINGS LTD","e":"2027-08-25Z"},"geometry":{"type":"Polygon","coordinates":[[[-128.00175,54.77485],[-128.00175,54.77902],[-128.00175,54.78318],[-128.00175,54.78735],[-127.9955,54.78735],[-127.98925,54.78735],[-127.98925,54.78318],[-127.98925,54.77902],[-127.98925,54.77485],[-127.98925,54.77068],[-127.98925,54.76652],[-127.9955,54.76652],[-128.00175,54.76652],[-128.00175,54.77068],[-128.00175,54.77485]]]}},{"type":"Feature","properties":{"c":"1063278","o":"EASTFIELD RESOURCES LTD.","e":"2028-11-30Z"},"geometry":{"type":"Polygon","coordinates":[[[-127.908,54.82486],[-127.908,54.82902],[-127.908,54.83319],[-127.90175,54.83319],[-127.8955,54.83319],[-127.88925,54.83319],[-127.883,54.83319],[-127.883,54.82902],[-127.883,54.82486],[-127.883,54.82069],[-127.883,54.81652],[-127.88925,54.81652],[-127.8955,54.81652],[-127.90175,54.81652],[-127.908,54.81652],[-127.908,54.82069],[-127.908,54.82486]]]}},{"type":"Feature","properties":{"c":"592958","o":"DECADE RESOURCES LTD.","e":"2030-01-02Z"},"geometry":{"type":"Polygon","coordinates":[[[-128.00797,54.52068],[-128.00797,54.52485],[-128.00797,54.52901],[-128.00172,54.52901],[-127.99547,54.52901],[-127.98922,54.52901],[-127.98922,54.52485],[-127.98922,54.52068],[-127.98922,54.51651],[-127.98922,54.51235],[-127.98922,54.50818],[-127.98922,54.50401],[-127.98922,54.49985],[-127.98922,54.49568],[-127.99547,54.49568],[-128.00172,54.49568],[-128.00172,54.49985],[-128.00172,54.50401],[-128.00172,54.50818],[-128.00172,54.51235],[-128.00797,54.51235],[-128.00797,54.51651],[-128.00797,54.52068]]]}},{"type":"Feature","properties":{"c":"592969","o":"DECADE RESOURCES LTD.","e":"2030-01-02Z"},"geometry":{"type":"Polygon","coordinates":[[[-127.98922,54.51651],[-127.98922,54.52068],[-127.98922,54.52485],[-127.98922,54.52901],[-127.98297,54.52901],[-127.97672,54.52901],[-127.97047,54.52902],[-127.97047,54.52485],[-127.97047,54.52068],[-127.96422,54.52068],[-127.95797,54.52068],[-127.95797,54.51652],[-127.95797,54.51235],[-127.96422,54.51235],[-127.96422,54.50818],[-127.97047,54.50818],[-127.97672,54.50818],[-127.98297,54.50818],[-127.98922,54.50818],[-127.98922,54.51235],[-127.98922,54.51651]]]}},{"type":"Feature","properties":{"c":"592980","o":"DECADE RESOURCES LTD.","e":"2030-01-02Z"},"geometry":{"type":"Polygon","coordinates":[[[-127.98922,54.50401],[-127.98922,54.50818],[-127.98297,54.50818],[-127.97672,54.50818],[-127.97047,54.50818],[-127.96422,54.50818],[-127.96422,54.51235],[-127.95797,54.51235],[-127.95797,54.50818],[-127.95797,54.50402],[-127.95797,54.49985],[-127.95797,54.49568],[-127.96422,54.49568],[-127.97047,54.49568],[-127.97672,54.49568],[-127.98297,54.49568],[-127.98922,54.49568],[-127.98922,54.49985],[-127.98922,54.50401]]]}},{"type":"Feature","properties":{"c":"1046235","o":"J2 SYNDICATE HOLDINGS LTD","e":"2029-09-08Z"},"geometry":{"type":"Polygon","coordinates":[[[-127.53296,54.52069],[-127.53296,54.52486],[-127.53296,54.52903],[-127.53297,54.53319],[-127.53297,54.53736],[-127.52672,54.53736],[-127.52047,54.53736],[-127.52046,54.5332],[-127.52046,54.52903],[-127.52046,54.52486],[-127.51421,54.52486],[-127.51421,54.52069],[-127.51421,54.51653],[-127.51421,54.51236],[-127.52046,54.51236],[-127.52671,54.51236],[-127.53296,54.51236],[-127.53296,54.51653],[-127.53296,54.52069]]]}},{"type":"Feature","properties":{"c":"1083158","o":"FITZROY MINERALS INC.","e":"2027-12-15Z"},"geometry":{"type":"Polygon","coordinates":[[[-127.80799,54.74986],[-127.80799,54.75402],[-127.80174,54.75402],[-127.80174,54.75819],[-127.79549,54.75819],[-127.78924,54.75819],[-127.78299,54.75819],[-127.77674,54.75819],[-127.77049,54.75819],[-127.76424,54.75819],[-127.75799,54.75819],[-127.75174,54.75819],[-127.74549,54.75819],[-127.73924,54.75819],[-127.73299,54.75819],[-127.72674,54.75819],[-127.72048,54.75819],[-127.71423,54.75819],[-127.70798,54.75819],[-127.70798,54.76236],[-127.70173,54.76236],[-127.69548,54.76236],[-127.68923,54.76236],[-127.68923,54.75819],[-127.68923,54.75403],[-127.69548,54.75403],[-127.69548,54.74986],[-127.69548,54.74569],[-127.69548,54.74153],[-127.69548,54.73736],[-127.69548,54.73319],[-127.69548,54.72903],[-127.70173,54.72903],[-127.70798,54.72903],[-127.71423,54.72903],[-127.72048,54.72903],[-127.72673,54.72903],[-127.73298,54.72903],[-127.73923,54.72902],[-127.73923,54.73319],[-127.73923,54.73736],[-127.74548,54.73736],[-127.75173,54.73736],[-127.75798,54.73736],[-127.76423,54.73736],[-127.76423,54.74152],[-127.77048,54.74152],[-127.77674,54.74152],[-127.78299,54.74152],[-127.78924,54.74152],[-127.79549,54.74152],[-127.80174,54.74152],[-127.80799,54.74152],[-127.80799,54.74569],[-127.80799,54.74986]]]}},{"type":"Feature","properties":{"c":"1091871","o":"TEAKO MINERALS CORP.","e":"2027-01-02Z"},"geometry":{"type":"Polygon","coordinates":[[[-127.5455,54.9582],[-127.53925,54.9582],[-127.533,54.9582],[-127.533,54.95404],[-127.533,54.94987],[-127.53925,54.94987],[-127.5455,54.94987],[-127.5455,54.95404],[-127.5455,54.9582]]]}},{"type":"Feature","properties":{"c":"1091891","o":"TEAKO MINERALS CORP.","e":"2027-01-02Z"},"geometry":{"type":"Polygon","coordinates":[[[-127.558,54.9582],[-127.558,54.96237],[-127.55175,54.96237],[-127.5455,54.96237],[-127.53925,54.96237],[-127.533,54.96237],[-127.52675,54.96237],[-127.5205,54.96237],[-127.5205,54.9582],[-127.5205,54.95404],[-127.5205,54.94987],[-127.52675,54.94987],[-127.533,54.94987],[-127.533,54.95404],[-127.533,54.9582],[-127.53925,54.9582],[-127.5455,54.9582],[-127.55175,54.9582],[-127.558,54.9582]]]}},{"type":"Feature","properties":{"c":"1091897","o":"TEAKO MINERALS CORP.","e":"2027-01-02Z"},"geometry":{"type":"Polygon","coordinates":[[[-127.5205,54.9582],[-127.5205,54.96237],[-127.51425,54.96237],[-127.508,54.96237],[-127.508,54.9582],[-127.508,54.95404],[-127.508,54.94987],[-127.51425,54.94987],[-127.5205,54.94987],[-127.5205,54.95404],[-127.5205,54.9582]]]}},{"type":"Feature","properties":{"c":"1091904","o":"TEAKO MINERALS CORP.","e":"2027-01-02Z"},"geometry":{"type":"Polygon","coordinates":[[[-127.558,54.95404],[-127.558,54.9582],[-127.55175,54.9582],[-127.5455,54.9582],[-127.5455,54.95404],[-127.55175,54.95404],[-127.558,54.95404]]]}},{"type":"Feature","properties":{"c":"1091909","o":"TEAKO MINERALS CORP.","e":"2027-01-02Z"},"geometry":{"type":"Polygon","coordinates":[[[-127.558,54.96237],[-127.558,54.96654],[-127.55175,54.96654],[-127.5455,54.96654],[-127.53925,54.96654],[-127.533,54.96654],[-127.52675,54.96654],[-127.5205,54.96654],[-127.51425,54.96654],[-127.508,54.96654],[-127.508,54.96237],[-127.51425,54.96237],[-127.5205,54.96237],[-127.52675,54.96237],[-127.533,54.96237],[-127.53925,54.96237],[-127.5455,54.96237],[-127.55175,54.96237],[-127.558,54.96237]]]}},{"type":"Feature","properties":{"c":"1091917","o":"TEAKO MINERALS CORP.","e":"2027-01-02Z"},"geometry":{"type":"Polygon","coordinates":[[[-127.5705,54.96237],[-127.5705,54.96654],[-127.56425,54.96654],[-127.558,54.96654],[-127.558,54.96237],[-127.558,54.9582],[-127.558,54.95404],[-127.56425,54.95404],[-127.5705,54.95404],[-127.5705,54.9582],[-127.5705,54.96237]]]}},{"type":"Feature","properties":{"c":"1096413","o":"MCGHEE, ARLENE ADRIAN","e":"2022-06-27Z"},"geometry":{"type":"Polygon","coordinates":[[[-127.75174,54.81653],[-127.74549,54.81653],[-127.73924,54.81653],[-127.73924,54.81236],[-127.73924,54.80819],[-127.74549,54.80819],[-127.75174,54.80819],[-127.75174,54.81236],[-127.75174,54.81653]]]}},{"type":"Feature","properties":{"c":"1098206","o":"DECADE RESOURCES LTD.","e":"2030-01-02Z"},"geometry":{"type":"Polygon","coordinates":[[[-128.17673,54.57067],[-128.17673,54.57484],[-128.17048,54.57484],[-128.16423,54.57484],[-128.15798,54.57484],[-128.15798,54.57901],[-128.15173,54.57901],[-128.14548,54.57901],[-128.13923,54.57901],[-128.13298,54.57901],[-128.12673,54.57901],[-128.12048,54.57901],[-128.11423,54.57901],[-128.10798,54.57901],[-128.10173,54.57901],[-128.09548,54.57901],[-128.08923,54.57901],[-128.08298,54.57901],[-128.07673,54.57901],[-128.07673,54.58318],[-128.07673,54.58734],[-128.07048,54.58734],[-128.06423,54.58735],[-128.05798,54.58735],[-128.05173,54.58735],[-128.04548,54.58735],[-128.03923,54.58735],[-128.03298,54.58735],[-128.02673,54.58735],[-128.02048,54.58735],[-128.01423,54.58735],[-128.00798,54.58735],[-128.00173,54.58735],[-127.99548,54.58735],[-127.99548,54.58318],[-127.99548,54.57901],[-127.99548,54.57485],[-127.99548,54.57068],[-128.00173,54.57068],[-128.00798,54.57068],[-128.01423,54.57068],[-128.02048,54.57068],[-128.02673,54.57068],[-128.03298,54.57068],[-128.03923,54.57068],[-128.04548,54.57068],[-128.05173,54.57068],[-128.05798,54.57068],[-128.06423,54.57068],[-128.07048,54.57068],[-128.07673,54.57068],[-128.07673,54.56651],[-128.08298,54.56651],[-128.08923,54.56651],[-128.09548,54.56651],[-128.10173,54.56651],[-128.10798,54.56651],[-128.11423,54.56651],[-128.12048,54.56651],[-128.12673,54.56651],[-128.13298,54.56651],[-128.13298,54.57067],[-128.13923,54.57067],[-128.14548,54.57067],[-128.15173,54.57067],[-128.15798,54.57067],[-128.16423,54.57067],[-128.17048,54.57067],[-128.17673,54.57067]]]}},{"type":"Feature","properties":{"c":"1094490","o":"TEAKO MINERALS CORP.","e":"2027-01-02Z"},"geometry":{"type":"Polygon","coordinates":[[[-127.5705,54.94987],[-127.5705,54.95404],[-127.56425,54.95404],[-127.558,54.95404],[-127.55175,54.95404],[-127.55175,54.94987],[-127.55175,54.9457],[-127.558,54.9457],[-127.558,54.94987],[-127.56425,54.94987],[-127.5705,54.94987]]]}},{"type":"Feature","properties":{"c":"1091918","o":"TEAKO MINERALS CORP.","e":"2027-01-02Z"},"geometry":{"type":"Polygon","coordinates":[[[-127.55175,54.95404],[-127.5455,54.95404],[-127.5455,54.94987],[-127.53925,54.94987],[-127.533,54.94987],[-127.533,54.9457],[-127.53925,54.9457],[-127.5455,54.9457],[-127.55175,54.9457],[-127.55175,54.94987],[-127.55175,54.95404]]]}},{"type":"Feature","properties":{"c":"1101918","o":"BILLINGSLEY, RICHARD JOHN","e":"2027-02-03Z"},"geometry":{"type":"Polygon","coordinates":[[[-127.72673,54.69569],[-127.73298,54.69569],[-127.73298,54.69986],[-127.72673,54.69986],[-127.72673,54.69569]]]}},{"type":"Feature","properties":{"c":"1101919","o":"BILLINGSLEY, RICHARD JOHN","e":"2027-02-03Z"},"geometry":{"type":"Polygon","coordinates":[[[-127.80798,54.67069],[-127.81423,54.67069],[-127.81423,54.67486],[-127.80798,54.67486],[-127.80798,54.67069]]]}},{"type":"Feature","properties":{"c":"1101920","o":"BILLINGSLEY, RICHARD JOHN","e":"2027-02-03Z"},"geometry":{"type":"Polygon","coordinates":[[[-127.90173,54.65402],[-127.90798,54.65402],[-127.90798,54.65819],[-127.90173,54.65819],[-127.90173,54.65402]]]}},{"type":"Feature","properties":{"c":"1098354","o":"SKETCHLEY, DESI JASON","e":"2027-04-20Z"},"geometry":{"type":"Polygon","coordinates":[[[-127.70172,54.56236],[-127.69547,54.56236],[-127.68922,54.56236],[-127.68922,54.55819],[-127.69547,54.55819],[-127.69547,54.55402],[-127.70172,54.55402],[-127.70172,54.55819],[-127.70172,54.56236]]]}},{"type":"Feature","properties":{"c":"1101158","o":"BILLINGSLEY, RICHARD JOHN","e":"2027-01-25Z"},"geometry":{"type":"Polygon","coordinates":[[[-127.69548,54.65819],[-127.69548,54.66236],[-127.68923,54.66236],[-127.68923,54.66653],[-127.68923,54.67069],[-127.69548,54.67069],[-127.69548,54.67486],[-127.68923,54.67486],[-127.68298,54.67486],[-127.68298,54.67069],[-127.68298,54.66653],[-127.68298,54.66236],[-127.68298,54.65819],[-127.68923,54.65819],[-127.69548,54.65819]]]}},{"type":"Feature","properties":{"c":"1102129","o":"BILLINGSLEY, RICHARD JOHN","e":"2027-02-09Z"},"geometry":{"type":"Polygon","coordinates":[[[-127.65172,54.60819],[-127.65797,54.60819],[-127.65797,54.61236],[-127.65172,54.61236],[-127.65172,54.60819]]]}},{"type":"Feature","properties":{"c":"1125160","o":"KARMAMOUNT MINERAL EXPLORATION INC.","e":"2028-09-15Z"},"geometry":{"type":"Polygon","coordinates":[[[-127.93924,54.68735],[-127.93924,54.69152],[-127.93924,54.69568],[-127.93299,54.69569],[-127.92674,54.69569],[-127.92049,54.69569],[-127.91424,54.69569],[-127.90799,54.69569],[-127.90174,54.69569],[-127.89549,54.69569],[-127.89549,54.69152],[-127.88924,54.69152],[-127.88299,54.69152],[-127.88298,54.68735],[-127.88298,54.68319],[-127.88298,54.67902],[-127.88923,54.67902],[-127.89548,54.67902],[-127.90173,54.67902],[-127.90799,54.67902],[-127.91424,54.67902],[-127.92049,54.67902],[-127.92674,54.67902],[-127.93299,54.67902],[-127.93924,54.67902],[-127.93924,54.68318],[-127.93924,54.68735]]]}},{"type":"Feature","properties":{"c":"1125165","o":"WASTENEYS, HARDOLPH ALEXANDER","e":"2028-09-15Z"},"geometry":{"type":"Polygon","coordinates":[[[-127.94549,54.67902],[-127.94549,54.68318],[-127.94549,54.68735],[-127.94549,54.69152],[-127.93924,54.69152],[-127.93924,54.68735],[-127.93924,54.68318],[-127.93924,54.67902],[-127.93299,54.67902],[-127.93299,54.67485],[-127.92674,54.67485],[-127.92049,54.67485],[-127.92049,54.67902],[-127.91424,54.67902],[-127.90799,54.67902],[-127.90173,54.67902],[-127.89548,54.67902],[-127.89548,54.67485],[-127.89548,54.67069],[-127.90173,54.67069],[-127.90798,54.67069],[-127.91423,54.67069],[-127.92048,54.67069],[-127.92673,54.67068],[-127.93299,54.67068],[-127.93924,54.67068],[-127.94549,54.67068],[-127.94549,54.67485],[-127.94549,54.67902]]]}},{"type":"Feature","properties":{"c":"1125166","o":"WASTENEYS, HARDOLPH ALEXANDER","e":"2028-09-15Z"},"geometry":{"type":"Polygon","coordinates":[[[-127.91423,54.66652],[-127.91423,54.67069],[-127.90798,54.67069],[-127.90173,54.67069],[-127.89548,54.67069],[-127.88923,54.67069],[-127.88298,54.67069],[-127.87673,54.67069],[-127.87673,54.67485],[-127.87673,54.67902],[-127.87673,54.68319],[-127.87673,54.68735],[-127.87048,54.68735],[-127.86423,54.68735],[-127.85798,54.68735],[-127.85173,54.68735],[-127.85173,54.68319],[-127.85173,54.67902],[-127.85173,54.67485],[-127.85798,54.67485],[-127.85798,54.67069],[-127.86423,54.67069],[-127.87048,54.67069],[-127.87048,54.66652],[-127.87673,54.66652],[-127.88298,54.66652],[-127.88923,54.66652],[-127.89548,54.66652],[-127.90173,54.66652],[-127.90798,54.66652],[-127.91423,54.66652]]]}},{"type":"Feature","properties":{"c":"1125167","o":"KARMAMOUNT MINERAL EXPLORATION INC.","e":"2028-09-15Z"},"geometry":{"type":"Polygon","coordinates":[[[-127.89548,54.67902],[-127.88923,54.67902],[-127.88298,54.67902],[-127.88298,54.68319],[-127.88298,54.68735],[-127.88299,54.69152],[-127.88924,54.69152],[-127.89549,54.69152],[-127.89549,54.69569],[-127.88924,54.69569],[-127.88299,54.69569],[-127.87674,54.69569],[-127.87673,54.69152],[-127.87673,54.68735],[-127.87673,54.68319],[-127.87673,54.67902],[-127.87673,54.67485],[-127.87673,54.67069],[-127.88298,54.67069],[-127.88923,54.67069],[-127.89548,54.67069],[-127.89548,54.67485],[-127.89548,54.67902]]]}},{"type":"Feature","properties":{"c":"1097477","o":"KARMAMOUNT MINERAL EXPLORATION INC.","e":"2028-09-15Z"},"geometry":{"type":"Polygon","coordinates":[[[-127.93299,54.67485],[-127.93299,54.67902],[-127.92674,54.67902],[-127.92049,54.67902],[-127.92049,54.67485],[-127.92674,54.67485],[-127.93299,54.67485]]]}},{"type":"Feature","properties":{"c":"1129074","o":"SCOTT, STEVEN JEFFREY","e":"2026-12-17Z"},"geometry":{"type":"Polygon","coordinates":[[[-127.87675,54.89152],[-127.87675,54.89569],[-127.8705,54.89569],[-127.86425,54.89569],[-127.86425,54.89152],[-127.8705,54.89152],[-127.87675,54.89152]]]}},{"type":"Feature","properties":{"c":"1111361","o":"KREFT, JOHN BERNARD","e":"2031-01-15Z"},"geometry":{"type":"Polygon","coordinates":[[[-127.73924,54.85403],[-127.73924,54.85819],[-127.73925,54.86236],[-127.73925,54.86653],[-127.73925,54.87069],[-127.73925,54.87486],[-127.73925,54.87903],[-127.733,54.87903],[-127.72675,54.87903],[-127.7205,54.87903],[-127.71425,54.87903],[-127.708,54.87903],[-127.70175,54.87903],[-127.6955,54.87903],[-127.68925,54.87903],[-127.68299,54.87903],[-127.67674,54.87903],[-127.67049,54.87903],[-127.66424,54.87903],[-127.65799,54.87903],[-127.65174,54.87903],[-127.65174,54.87486],[-127.65174,54.8707],[-127.65174,54.86653],[-127.65174,54.86236],[-127.65174,54.8582],[-127.65174,54.85403],[-127.65174,54.84986],[-127.65174,54.8457],[-127.65799,54.8457],[-127.66424,54.8457],[-127.67049,54.8457],[-127.67674,54.84569],[-127.67674,54.84986],[-127.67049,54.84986],[-127.67049,54.85403],[-127.67674,54.85403],[-127.67674,54.8582],[-127.67674,54.86236],[-127.68299,54.86236],[-127.68924,54.86236],[-127.69549,54.86236],[-127.70174,54.86236],[-127.70799,54.86236],[-127.70799,54.85819],[-127.71424,54.85819],[-127.71424,54.85403],[-127.71424,54.84986],[-127.70799,54.84986],[-127.70799,54.84569],[-127.71424,54.84569],[-127.72049,54.84569],[-127.72674,54.84569],[-127.73299,54.84569],[-127.73924,54.84569],[-127.73924,54.84986],[-127.73924,54.85403]]]}},{"type":"Feature","properties":{"c":"1111363","o":"KREFT, JOHN BERNARD","e":"2031-01-15Z"},"geometry":{"type":"Polygon","coordinates":[[[-127.73299,54.84153],[-127.73299,54.84569],[-127.72674,54.84569],[-127.72049,54.84569],[-127.71424,54.84569],[-127.70799,54.84569],[-127.70174,54.84569],[-127.69549,54.84569],[-127.69549,54.84153],[-127.68924,54.84153],[-127.68299,54.84153],[-127.68299,54.84569],[-127.67674,54.84569],[-127.67049,54.8457],[-127.66424,54.8457],[-127.65799,54.8457],[-127.65174,54.8457],[-127.65174,54.84153],[-127.65174,54.83736],[-127.65174,54.8332],[-127.65174,54.82903],[-127.65174,54.82486],[-127.65799,54.82486],[-127.66424,54.82486],[-127.67049,54.82486],[-127.67674,54.82486],[-127.68299,54.82486],[-127.68924,54.82486],[-127.69549,54.82486],[-127.70174,54.82486],[-127.70799,54.82486],[-127.70799,54.82903],[-127.71424,54.82903],[-127.71424,54.83319],[-127.72049,54.83319],[-127.72049,54.83736],[-127.72674,54.83736],[-127.72674,54.84153],[-127.73299,54.84153]]]}},{"type":"Feature","properties":{"c":"1111365","o":"KREFT, JOHN BERNARD","e":"2031-01-15Z"},"geometry":{"type":"Polygon","coordinates":[[[-127.65174,54.8332],[-127.65174,54.83736],[-127.65174,54.84153],[-127.65174,54.8457],[-127.65174,54.84986],[-127.65174,54.85403],[-127.65174,54.8582],[-127.65174,54.86236],[-127.65174,54.86653],[-127.65174,54.8707],[-127.65174,54.87486],[-127.65174,54.87903],[-127.64549,54.87903],[-127.63924,54.87903],[-127.63299,54.87903],[-127.62674,54.87903],[-127.62049,54.87903],[-127.61424,54.87903],[-127.60799,54.87903],[-127.60799,54.87486],[-127.60799,54.8707],[-127.60799,54.86653],[-127.60799,54.86236],[-127.60799,54.8582],[-127.60799,54.85403],[-127.60799,54.84986],[-127.60799,54.8457],[-127.60799,54.84153],[-127.60799,54.83736],[-127.60799,54.8332],[-127.60799,54.82903],[-127.60799,54.82486],[-127.61424,54.82486],[-127.62049,54.82486],[-127.62674,54.82486],[-127.63299,54.82486],[-127.63924,54.82486],[-127.64549,54.82486],[-127.65174,54.82486],[-127.65174,54.82903],[-127.65174,54.8332]]]}},{"type":"Feature","properties":{"c":"1111367","o":"KREFT, JOHN BERNARD","e":"2031-01-15Z"},"geometry":{"type":"Polygon","coordinates":[[[-127.74549,54.84986],[-127.74549,54.85403],[-127.74549,54.85819],[-127.7455,54.86236],[-127.7455,54.86653],[-127.7455,54.87069],[-127.7455,54.87486],[-127.7455,54.87903],[-127.73925,54.87903],[-127.73925,54.87486],[-127.73925,54.87069],[-127.73925,54.86653],[-127.73925,54.86236],[-127.73924,54.85819],[-127.73924,54.85403],[-127.73924,54.84986],[-127.73924,54.84569],[-127.73299,54.84569],[-127.73299,54.84153],[-127.72674,54.84153],[-127.72674,54.83736],[-127.72049,54.83736],[-127.72049,54.83319],[-127.71424,54.83319],[-127.71424,54.82903],[-127.70799,54.82903],[-127.70799,54.82486],[-127.70174,54.82486],[-127.69549,54.82486],[-127.68924,54.82486],[-127.68299,54.82486],[-127.67674,54.82486],[-127.67049,54.82486],[-127.66424,54.82486],[-127.65799,54.82486],[-127.65174,54.82486],[-127.64549,54.82486],[-127.63924,54.82486],[-127.63299,54.82486],[-127.62674,54.82486],[-127.62049,54.82486],[-127.61424,54.82486],[-127.60799,54.82486],[-127.60799,54.8207],[-127.61424,54.8207],[-127.62049,54.8207],[-127.62674,54.8207],[-127.63299,54.8207],[-127.63924,54.8207],[-127.64549,54.8207],[-127.65174,54.82069],[-127.65799,54.82069],[-127.66424,54.82069],[-127.67049,54.82069],[-127.67674,54.82069],[-127.68299,54.82069],[-127.68924,54.82069],[-127.69549,54.82069],[-127.70174,54.82069],[-127.70799,54.82069],[-127.71424,54.82069],[-127.71424,54.82486],[-127.72049,54.82486],[-127.72049,54.82903],[-127.72674,54.82903],[-127.72674,54.83319],[-127.73299,54.83319],[-127.73299,54.83736],[-127.73924,54.83736],[-127.73924,54.84153],[-127.74549,54.84153],[-127.74549,54.84569],[-127.74549,54.84986]]]}},{"type":"Feature","properties":{"c":"1111369","o":"KREFT, JOHN BERNARD","e":"2032-01-15Z"},"geometry":{"type":"MultiPolygon","coordinates":[[[[-127.70799,54.85403],[-127.70799,54.85819],[-127.70799,54.86236],[-127.70174,54.86236],[-127.69549,54.86236],[-127.68924,54.86236],[-127.68299,54.86236],[-127.67674,54.86236],[-127.67674,54.8582],[-127.67674,54.85403],[-127.67674,54.84986],[-127.67674,54.84569],[-127.68299,54.84569],[-127.68924,54.84569],[-127.69549,54.84569],[-127.70174,54.84569],[-127.70799,54.84569],[-127.70799,54.84986],[-127.70799,54.85403]],[[-127.70174,54.84986],[-127.69549,54.84986],[-127.68924,54.84986],[-127.68299,54.84986],[-127.68299,54.85403],[-127.68299,54.8582],[-127.68924,54.85819],[-127.69549,54.85819],[-127.70174,54.85819],[-127.70174,54.85403],[-127.70174,54.84986]]]]}},{"type":"Feature","properties":{"c":"1111370","o":"KREFT, JOHN BERNARD","e":"2032-01-15Z"},"geometry":{"type":"Polygon","coordinates":[[[-127.70174,54.85819],[-127.69549,54.85819],[-127.68924,54.85819],[-127.68299,54.8582],[-127.68299,54.85403],[-127.68299,54.84986],[-127.68924,54.84986],[-127.69549,54.84986],[-127.70174,54.84986],[-127.70174,54.85403],[-127.70174,54.85819]]]}},{"type":"Feature","properties":{"c":"1112107","o":"EASTFIELD RESOURCES LTD.","e":"2028-03-27Z"},"geometry":{"type":"Polygon","coordinates":[[[-127.95801,54.89152],[-127.95801,54.89569],[-127.95176,54.89569],[-127.94551,54.89569],[-127.93926,54.89569],[-127.93301,54.89569],[-127.92675,54.89569],[-127.9205,54.89569],[-127.91425,54.89569],[-127.908,54.89569],[-127.90175,54.89569],[-127.8955,54.89569],[-127.88925,54.89569],[-127.883,54.89569],[-127.87675,54.89569],[-127.87675,54.89152],[-127.8705,54.89152],[-127.86425,54.89152],[-127.86425,54.88736],[-127.86425,54.88319],[-127.86425,54.87902],[-127.86425,54.87486],[-127.86425,54.87069],[-127.86425,54.86652],[-127.86425,54.86236],[-127.86425,54.85819],[-127.86425,54.85402],[-127.86425,54.84986],[-127.858,54.84986],[-127.85175,54.84986],[-127.8455,54.84986],[-127.83925,54.84986],[-127.833,54.84986],[-127.82675,54.84986],[-127.8205,54.84986],[-127.81425,54.84986],[-127.808,54.84986],[-127.80175,54.84986],[-127.7955,54.84986],[-127.78925,54.84986],[-127.783,54.84986],[-127.77675,54.84986],[-127.77674,54.84569],[-127.77674,54.84153],[-127.77674,54.83736],[-127.77674,54.83319],[-127.77674,54.82903],[-127.78299,54.82903],[-127.78924,54.82903],[-127.79549,54.82903],[-127.80174,54.82903],[-127.80799,54.82903],[-127.81424,54.82902],[-127.82049,54.82902],[-127.82674,54.82902],[-127.82674,54.83319],[-127.82675,54.83736],[-127.82675,54.84152],[-127.82675,54.84569],[-127.833,54.84569],[-127.83925,54.84569],[-127.8455,54.84569],[-127.85175,54.84569],[-127.858,54.84569],[-127.86425,54.84569],[-127.8705,54.84569],[-127.8705,54.84986],[-127.8705,54.85402],[-127.8705,54.85819],[-127.8705,54.86236],[-127.8705,54.86652],[-127.8705,54.87069],[-127.8705,54.87486],[-127.8705,54.87902],[-127.8705,54.88319],[-127.87675,54.88319],[-127.883,54.88319],[-127.88925,54.88319],[-127.8955,54.88319],[-127.90175,54.88319],[-127.908,54.88319],[-127.91425,54.88319],[-127.9205,54.88319],[-127.92675,54.88319],[-127.933,54.88319],[-127.93925,54.88319],[-127.9455,54.88319],[-127.95175,54.88319],[-127.958,54.88319],[-127.95801,54.88735],[-127.95801,54.89152]]]}},{"type":"Feature","properties":{"c":"1112053","o":"EASTFIELD RESOURCES LTD.","e":"2028-03-27Z"},"geometry":{"type":"Polygon","coordinates":[[[-127.98925,54.86652],[-127.98926,54.87069],[-127.98926,54.87485],[-127.98926,54.87902],[-127.98926,54.88319],[-127.98301,54.88319],[-127.97676,54.88319],[-127.97051,54.88319],[-127.96426,54.88319],[-127.958,54.88319],[-127.95175,54.88319],[-127.9455,54.88319],[-127.93925,54.88319],[-127.933,54.88319],[-127.92675,54.88319],[-127.9205,54.88319],[-127.91425,54.88319],[-127.908,54.88319],[-127.90175,54.88319],[-127.8955,54.88319],[-127.88925,54.88319],[-127.88925,54.87902],[-127.88925,54.87486],[-127.88925,54.87069],[-127.88925,54.86652],[-127.88925,54.86236],[-127.88925,54.85819],[-127.8955,54.85819],[-127.90175,54.85819],[-127.908,54.85819],[-127.91425,54.85819],[-127.9205,54.85819],[-127.92675,54.85819],[-127.933,54.85819],[-127.93925,54.85819],[-127.9455,54.85819],[-127.95175,54.85819],[-127.958,54.85819],[-127.96425,54.85819],[-127.9705,54.85819],[-127.97675,54.85819],[-127.983,54.85819],[-127.98925,54.85819],[-127.98925,54.86235],[-127.98925,54.86652]]]}},{"type":"Feature","properties":{"c":"1106676","o":"BILLINGSLEY, RICHARD JOHN","e":"2027-08-08Z"},"geometry":{"type":"Polygon","coordinates":[[[-127.69548,54.67069],[-127.68923,54.67069],[-127.68923,54.66653],[-127.68923,54.66236],[-127.69548,54.66236],[-127.69548,54.66653],[-127.69548,54.67069]]]}},{"type":"Feature","properties":{"c":"1112054","o":"EASTFIELD RESOURCES LTD.","e":"2028-03-27Z"},"geometry":{"type":"Polygon","coordinates":[[[-127.908,54.81235],[-127.90175,54.81235],[-127.8955,54.81236],[-127.88925,54.81236],[-127.88299,54.81236],[-127.87674,54.81236],[-127.87675,54.81652],[-127.883,54.81652],[-127.883,54.82069],[-127.883,54.82486],[-127.883,54.82902],[-127.883,54.83319],[-127.87675,54.83319],[-127.87675,54.83736],[-127.87675,54.84152],[-127.87675,54.84569],[-127.87675,54.84986],[-127.87675,54.85402],[-127.883,54.85402],[-127.88925,54.85402],[-127.8955,54.85402],[-127.90175,54.85402],[-127.908,54.85402],[-127.908,54.85819],[-127.90175,54.85819],[-127.8955,54.85819],[-127.88925,54.85819],[-127.88925,54.86236],[-127.88925,54.86652],[-127.88925,54.87069],[-127.88925,54.87486],[-127.88925,54.87902],[-127.88925,54.88319],[-127.883,54.88319],[-127.87675,54.88319],[-127.8705,54.88319],[-127.8705,54.87902],[-127.8705,54.87486],[-127.8705,54.87069],[-127.8705,54.86652],[-127.8705,54.86236],[-127.8705,54.85819],[-127.8705,54.85402],[-127.8705,54.84986],[-127.8705,54.84569],[-127.86425,54.84569],[-127.858,54.84569],[-127.85175,54.84569],[-127.8455,54.84569],[-127.83925,54.84569],[-127.833,54.84569],[-127.82675,54.84569],[-127.82675,54.84152],[-127.82675,54.83736],[-127.82674,54.83319],[-127.82674,54.82902],[-127.82674,54.82486],[-127.82674,54.82069],[-127.82674,54.81652],[-127.83299,54.81652],[-127.83924,54.81652],[-127.84549,54.81652],[-127.85174,54.81652],[-127.85799,54.81652],[-127.86424,54.81652],[-127.87049,54.81652],[-127.87049,54.81236],[-127.87049,54.80819],[-127.87049,54.80402],[-127.87674,54.80402],[-127.88299,54.80402],[-127.88924,54.80402],[-127.89549,54.80402],[-127.90174,54.80402],[-127.908,54.80402],[-127.908,54.80819],[-127.908,54.81235]]]}},{"type":"Feature","properties":{"c":"1128397","o":"CANEX METALS INC.","e":"2027-12-25Z"},"geometry":{"type":"Polygon","coordinates":[[[-127.60799,54.83736],[-127.60799,54.84153],[-127.60799,54.8457],[-127.60799,54.84986],[-127.60799,54.85403],[-127.60799,54.8582],[-127.60799,54.86236],[-127.60799,54.86653],[-127.60799,54.8707],[-127.60799,54.87486],[-127.60799,54.87903],[-127.60174,54.87903],[-127.59549,54.87903],[-127.59549,54.87486],[-127.58924,54.87486],[-127.58299,54.87487],[-127.57674,54.87487],[-127.57674,54.8707],[-127.57049,54.8707],[-127.57049,54.86653],[-127.56424,54.86653],[-127.56424,54.86237],[-127.56424,54.8582],[-127.56424,54.85403],[-127.56424,54.84987],[-127.56424,54.8457],[-127.57049,54.8457],[-127.57049,54.84153],[-127.57674,54.84153],[-127.57674,54.83736],[-127.58299,54.83736],[-127.58924,54.83736],[-127.59549,54.83736],[-127.59549,54.8332],[-127.60174,54.8332],[-127.60174,54.82903],[-127.60799,54.82903],[-127.60799,54.8332],[-127.60799,54.83736]]]}},{"type":"Feature","properties":{"c":"1118045","o":"RED CANYON RESOURCES LTD.","e":"2028-12-09Z"},"geometry":{"type":"Polygon","coordinates":[[[-127.82047,54.54985],[-127.82047,54.55402],[-127.82047,54.55819],[-127.82047,54.56235],[-127.82047,54.56652],[-127.82047,54.57069],[-127.81422,54.57069],[-127.80797,54.57069],[-127.80172,54.57069],[-127.79547,54.57069],[-127.78922,54.57069],[-127.78922,54.56652],[-127.78922,54.56235],[-127.78922,54.55819],[-127.78922,54.55402],[-127.78922,54.54985],[-127.78922,54.54569],[-127.78922,54.54152],[-127.79547,54.54152],[-127.80172,54.54152],[-127.80797,54.54152],[-127.81422,54.54152],[-127.82047,54.54152],[-127.82047,54.54569],[-127.82047,54.54985]]]}},{"type":"Feature","properties":{"c":"1132477","o":"SCOTT, STEVEN JEFFREY","e":"2027-03-27Z"},"geometry":{"type":"Polygon","coordinates":[[[-127.883,54.90402],[-127.87675,54.90402],[-127.87675,54.89986],[-127.87675,54.89569],[-127.883,54.89569],[-127.883,54.89986],[-127.883,54.90402]]]}},{"type":"Feature","properties":{"c":"1133805","o":"SCOTT, STEVEN JEFFREY","e":"2027-06-03Z"},"geometry":{"type":"Polygon","coordinates":[[[-127.87675,54.89986],[-127.87675,54.90402],[-127.8705,54.90402],[-127.86425,54.90402],[-127.86425,54.89986],[-127.8705,54.89986],[-127.87675,54.89986]]]}},{"type":"Feature","properties":{"c":"1131460","o":"SCOTT, STEVEN JEFFREY","e":"2027-04-02Z"},"geometry":{"type":"Polygon","coordinates":[[[-127.883,54.90402],[-127.883,54.90819],[-127.87675,54.90819],[-127.8705,54.90819],[-127.8705,54.90402],[-127.87675,54.90402],[-127.883,54.90402]]]}},{"type":"Feature","properties":{"c":"1136776","o":"SCOTT, STEVEN JEFFREY","e":"2027-07-29Z"},"geometry":{"type":"Polygon","coordinates":[[[-127.87675,54.89569],[-127.87675,54.89986],[-127.8705,54.89986],[-127.86425,54.89986],[-127.86425,54.89569],[-127.8705,54.89569],[-127.87675,54.89569]]]}},{"type":"Feature","properties":{"c":"1109801","o":"CANEX METALS INC.","e":"2032-01-15Z"},"geometry":{"type":"Polygon","coordinates":[[[-127.67049,54.84986],[-127.67674,54.84986],[-127.67674,54.85403],[-127.67049,54.85403],[-127.67049,54.84986]]]}},{"type":"Feature","properties":{"c":"1123232","o":"CANEX METALS INC.","e":"2032-01-15Z"},"geometry":{"type":"Polygon","coordinates":[[[-127.71424,54.85819],[-127.70799,54.85819],[-127.70799,54.85403],[-127.70799,54.84986],[-127.71424,54.84986],[-127.71424,54.85403],[-127.71424,54.85819]]]}},{"type":"Feature","properties":{"c":"1123668","o":"CANEX METALS INC.","e":"2028-01-05Z"},"geometry":{"type":"Polygon","coordinates":[[[-127.69549,54.84153],[-127.69549,54.84569],[-127.68924,54.84569],[-127.68299,54.84569],[-127.68299,54.84153],[-127.68924,54.84153],[-127.69549,54.84153]]]}},{"type":"Feature","properties":{"c":"1137592","o":"LANGILLE, MICHEAL SCOTT","e":"2027-08-24Z"},"geometry":{"type":"Polygon","coordinates":[[[-127.5705,54.9457],[-127.5705,54.94987],[-127.56425,54.94987],[-127.558,54.94987],[-127.558,54.9457],[-127.56425,54.9457],[-127.5705,54.9457]]]}},{"type":"Feature","properties":{"c":"1138256","o":"BILLINGSLEY, RICHARD JOHN","e":"2027-09-15Z"},"geometry":{"type":"Polygon","coordinates":[[[-127.76423,54.64986],[-127.75798,54.64986],[-127.75173,54.64986],[-127.75173,54.64569],[-127.75173,54.64152],[-127.75798,54.64152],[-127.76423,54.64152],[-127.76423,54.64569],[-127.76423,54.64986]]]}},{"type":"Feature","properties":{"c":"1138436","o":"SCOTT, STEVEN JEFFREY","e":"2027-09-03Z"},"geometry":{"type":"Polygon","coordinates":[[[-127.858,54.90402],[-127.86425,54.90402],[-127.86425,54.90819],[-127.858,54.90819],[-127.858,54.90402]]]}},{"type":"Feature","properties":{"c":"1139061","o":"BILLINGSLEY, RICHARD JOHN","e":"2027-09-16Z"},"geometry":{"type":"MultiPolygon","coordinates":[[[[-127.77048,54.64569],[-127.77048,54.64986],[-127.77048,54.65402],[-127.76423,54.65402],[-127.75798,54.65402],[-127.75173,54.65402],[-127.74548,54.65402],[-127.74548,54.64986],[-127.74548,54.64569],[-127.74548,54.64152],[-127.74548,54.63736],[-127.75173,54.63736],[-127.75798,54.63736],[-127.76423,54.63736],[-127.77048,54.63736],[-127.77048,54.64152],[-127.77048,54.64569]],[[-127.76423,54.64986],[-127.76423,54.64569],[-127.76423,54.64152],[-127.75798,54.64152],[-127.75173,54.64152],[-127.75173,54.64569],[-127.75173,54.64986],[-127.75798,54.64986],[-127.76423,54.64986]]]]}},{"type":"Feature","properties":{"c":"1135785","o":"BILLINGSLEY, RICHARD JOHN","e":"2027-07-16Z"},"geometry":{"type":"Polygon","coordinates":[[[-127.70798,54.62486],[-127.70798,54.62902],[-127.70173,54.62902],[-127.69548,54.62902],[-127.69548,54.62486],[-127.70173,54.62486],[-127.70798,54.62486]]]}},{"type":"Feature","properties":{"c":"1139021","o":"SKETCHLEY, DESI JASON","e":"2027-09-14Z"},"geometry":{"type":"MultiPolygon","coordinates":[[[[-127.70797,54.55819],[-127.71422,54.55819],[-127.71422,54.56236],[-127.70797,54.56236],[-127.70797,54.56652],[-127.70172,54.56652],[-127.69547,54.56652],[-127.68922,54.56652],[-127.68297,54.56652],[-127.68297,54.56236],[-127.68297,54.55819],[-127.68297,54.55402],[-127.68922,54.55402],[-127.68922,54.54986],[-127.68922,54.54569],[-127.69547,54.54569],[-127.69547,54.54986],[-127.70172,54.54986],[-127.70797,54.54986],[-127.70797,54.55402],[-127.70797,54.55819]],[[-127.70172,54.55402],[-127.69547,54.55402],[-127.69547,54.55819],[-127.68922,54.55819],[-127.68922,54.56236],[-127.69547,54.56236],[-127.70172,54.56236],[-127.70172,54.55819],[-127.70172,54.55402]]]]}},{"type":"Feature","properties":{"c":"1139035","o":"DELORME, GUY RICHARD","e":"2027-09-14Z"},"geometry":{"type":"Polygon","coordinates":[[[-127.70172,54.53319],[-127.69547,54.53319],[-127.68922,54.53319],[-127.68922,54.52902],[-127.68922,54.52486],[-127.69547,54.52486],[-127.70172,54.52486],[-127.70172,54.52902],[-127.70172,54.53319]]]}},{"type":"Feature","properties":{"c":"1055164","o":"FITZROY MINERALS INC.","e":"2027-12-15Z"},"geometry":{"type":"Polygon","coordinates":[[[-127.77673,54.70819],[-127.77673,54.71236],[-127.77673,54.71652],[-127.77673,54.72069],[-127.77673,54.72486],[-127.77673,54.72902],[-127.77673,54.73319],[-127.77673,54.73736],[-127.77674,54.74152],[-127.77048,54.74152],[-127.76423,54.74152],[-127.76423,54.73736],[-127.75798,54.73736],[-127.75173,54.73736],[-127.74548,54.73736],[-127.73923,54.73736],[-127.73923,54.73319],[-127.73923,54.72902],[-127.73298,54.72903],[-127.72673,54.72903],[-127.72048,54.72903],[-127.71423,54.72903],[-127.71423,54.72486],[-127.72048,54.72486],[-127.72673,54.72486],[-127.72673,54.72069],[-127.73298,54.72069],[-127.73923,54.72069],[-127.74548,54.72069],[-127.74548,54.71652],[-127.75173,54.71652],[-127.75798,54.71652],[-127.75798,54.71236],[-127.75798,54.70819],[-127.75798,54.70402],[-127.75798,54.69986],[-127.76423,54.69986],[-127.77048,54.69986],[-127.77673,54.69986],[-127.77673,54.70402],[-127.77673,54.70819]]]}},{"type":"Feature","properties":{"c":"1047844","o":"FITZROY MINERALS INC.","e":"2027-12-15Z"},"geometry":{"type":"Polygon","coordinates":[[[-127.75798,54.70819],[-127.75798,54.71236],[-127.75798,54.71652],[-127.75173,54.71652],[-127.74548,54.71652],[-127.74548,54.72069],[-127.73923,54.72069],[-127.73298,54.72069],[-127.72673,54.72069],[-127.72673,54.72486],[-127.72048,54.72486],[-127.71423,54.72486],[-127.71423,54.72903],[-127.70798,54.72903],[-127.70173,54.72903],[-127.69548,54.72903],[-127.69548,54.72486],[-127.69548,54.72069],[-127.69548,54.71653],[-127.69548,54.71236],[-127.70173,54.71236],[-127.70798,54.71236],[-127.70798,54.70819],[-127.71423,54.70819],[-127.72048,54.70819],[-127.72673,54.70819],[-127.72673,54.70402],[-127.73298,54.70402],[-127.73923,54.70402],[-127.73923,54.69986],[-127.74548,54.69986],[-127.75173,54.69986],[-127.75798,54.69986],[-127.75798,54.70402],[-127.75798,54.70819]]]}},{"type":"Feature","properties":{"c":"1138378","o":"SCOTT, STEVEN JEFFREY","e":"2027-03-02Z"},"geometry":{"type":"Polygon","coordinates":[[[-127.86425,54.90402],[-127.8705,54.90402],[-127.8705,54.90819],[-127.86425,54.90819],[-127.86425,54.90402]]]}},{"type":"Feature","properties":{"c":"1126280","o":"CANEX METALS INC.","e":"2027-12-25Z"},"geometry":{"type":"Polygon","coordinates":[[[-127.8205,54.88736],[-127.8205,54.89153],[-127.8205,54.89569],[-127.81425,54.89569],[-127.808,54.89569],[-127.80175,54.89569],[-127.7955,54.89569],[-127.78925,54.89569],[-127.783,54.89569],[-127.77675,54.89569],[-127.7705,54.89569],[-127.76425,54.89569],[-127.758,54.89569],[-127.75175,54.89569],[-127.7455,54.89569],[-127.73925,54.89569],[-127.733,54.89569],[-127.72675,54.89569],[-127.7205,54.8957],[-127.71425,54.8957],[-127.708,54.8957],[-127.70175,54.8957],[-127.6955,54.8957],[-127.6955,54.89153],[-127.6955,54.88736],[-127.6955,54.8832],[-127.6955,54.87903],[-127.70175,54.87903],[-127.708,54.87903],[-127.71425,54.87903],[-127.7205,54.87903],[-127.72675,54.87903],[-127.733,54.87903],[-127.73925,54.87903],[-127.7455,54.87903],[-127.75175,54.87903],[-127.758,54.87903],[-127.76425,54.87903],[-127.7705,54.87903],[-127.77675,54.87903],[-127.783,54.87903],[-127.78925,54.87903],[-127.7955,54.87903],[-127.80175,54.87903],[-127.808,54.87903],[-127.81425,54.87903],[-127.8205,54.87903],[-127.8205,54.88319],[-127.8205,54.88736]]]}},{"type":"Feature","properties":{"c":"1126353","o":"CANEX METALS INC.","e":"2027-12-25Z"},"geometry":{"type":"Polygon","coordinates":[[[-127.8205,54.85819],[-127.8205,54.86236],[-127.8205,54.86653],[-127.8205,54.87069],[-127.8205,54.87486],[-127.8205,54.87903],[-127.81425,54.87903],[-127.808,54.87903],[-127.80175,54.87903],[-127.7955,54.87903],[-127.78925,54.87903],[-127.783,54.87903],[-127.77675,54.87903],[-127.7705,54.87903],[-127.76425,54.87903],[-127.758,54.87903],[-127.75175,54.87903],[-127.7455,54.87903],[-127.7455,54.87486],[-127.7455,54.87069],[-127.7455,54.86653],[-127.7455,54.86236],[-127.74549,54.85819],[-127.74549,54.85403],[-127.74549,54.84986],[-127.74549,54.84569],[-127.74549,54.84153],[-127.73924,54.84153],[-127.73924,54.83736],[-127.74549,54.83736],[-127.75174,54.83736],[-127.75799,54.83736],[-127.76424,54.83736],[-127.77049,54.83736],[-127.77674,54.83736],[-127.77674,54.84153],[-127.77674,54.84569],[-127.77675,54.84986],[-127.783,54.84986],[-127.78925,54.84986],[-127.7955,54.84986],[-127.80175,54.84986],[-127.808,54.84986],[-127.81425,54.84986],[-127.8205,54.84986],[-127.8205,54.85403],[-127.8205,54.85819]]]}},{"type":"Feature","properties":{"c":"1138434","o":"SCOTT, STEVEN JEFFREY","e":"2027-09-03Z"},"geometry":{"type":"Polygon","coordinates":[[[-127.86425,54.89986],[-127.86425,54.90402],[-127.858,54.90402],[-127.858,54.89986],[-127.858,54.89569],[-127.858,54.89152],[-127.86425,54.89152],[-127.86425,54.89569],[-127.86425,54.89986]]]}}]}