{"type":"FeatureCollection","features":[{"type":"Feature","properties":{"c":"1129855","o":"THESIS GOLD & SILVER INC.","e":"2036-12-31Z"},"geometry":{"type":"Polygon","coordinates":[[[-127.60794,57.63734],[-127.60169,57.63734],[-127.60169,57.64151],[-127.59544,57.64151],[-127.59544,57.64568],[-127.58919,57.64568],[-127.58919,57.64984],[-127.58294,57.64984],[-127.58294,57.65401],[-127.57669,57.65401],[-127.57044,57.65401],[-127.57043,57.65818],[-127.56419,57.65818],[-127.55794,57.65818],[-127.55169,57.65818],[-127.55168,57.66234],[-127.54543,57.66234],[-127.53918,57.66234],[-127.53293,57.66234],[-127.52668,57.66234],[-127.52043,57.66234],[-127.51418,57.66234],[-127.50793,57.66234],[-127.50168,57.66234],[-127.49543,57.66234],[-127.48918,57.66234],[-127.48294,57.66234],[-127.47669,57.66234],[-127.47044,57.66234],[-127.47044,57.65817],[-127.47669,57.65817],[-127.48294,57.65817],[-127.48919,57.65817],[-127.49544,57.65817],[-127.50169,57.65817],[-127.50794,57.65817],[-127.51419,57.65817],[-127.52044,57.65817],[-127.52669,57.65817],[-127.53294,57.65817],[-127.53919,57.65817],[-127.53919,57.65401],[-127.53919,57.64984],[-127.54544,57.64984],[-127.54544,57.64568],[-127.55169,57.64568],[-127.55169,57.64151],[-127.55794,57.64151],[-127.55794,57.63734],[-127.56419,57.63734],[-127.56419,57.63318],[-127.57044,57.63318],[-127.57044,57.62901],[-127.57669,57.62901],[-127.58294,57.62901],[-127.58294,57.63318],[-127.58919,57.63318],[-127.59544,57.63318],[-127.59544,57.62901],[-127.60169,57.62901],[-127.60794,57.62901],[-127.60794,57.63318],[-127.60794,57.63734]]]}},{"type":"Feature","properties":{"c":"1129856","o":"BOT, JOHN CHRISOSTOM","e":"2027-02-03Z"},"geometry":{"type":"Polygon","coordinates":[[[-127.50793,57.78317],[-127.50168,57.78317],[-127.49543,57.78317],[-127.49543,57.77901],[-127.49543,57.77484],[-127.50168,57.77484],[-127.50793,57.77484],[-127.50793,57.77901],[-127.50793,57.78317]]]}},{"type":"Feature","properties":{"c":"1129857","o":"BOT, JOHN CHRISOSTOM","e":"2027-02-03Z"},"geometry":{"type":"Polygon","coordinates":[[[-127.52043,57.78317],[-127.51418,57.78317],[-127.50793,57.78317],[-127.50793,57.77901],[-127.50793,57.77484],[-127.51418,57.77484],[-127.52043,57.77484],[-127.52043,57.77901],[-127.52043,57.78317]]]}},{"type":"Feature","properties":{"c":"1111276","o":"EAGLE PLAINS RESOURCES LTD.","e":"2029-09-13Z"},"geometry":{"type":"Polygon","coordinates":[[[-127.57044,57.62901],[-127.57044,57.63318],[-127.56419,57.63318],[-127.56419,57.63734],[-127.55794,57.63734],[-127.55794,57.64151],[-127.55169,57.64151],[-127.55169,57.64568],[-127.54544,57.64568],[-127.54544,57.64984],[-127.53919,57.64984],[-127.53919,57.64568],[-127.53919,57.64151],[-127.53919,57.63734],[-127.53919,57.63318],[-127.53919,57.62901],[-127.54544,57.62901],[-127.55169,57.62901],[-127.55794,57.62901],[-127.56419,57.62901],[-127.57044,57.62901]]]}},{"type":"Feature","properties":{"c":"1030157","o":"PROSPECT RIDGE RESOURCES CORP.","e":"2034-03-20Z"},"geometry":{"type":"Polygon","coordinates":[[[-127.55168,57.78734],[-127.54543,57.78734],[-127.54543,57.78317],[-127.54543,57.77901],[-127.55168,57.77901],[-127.55168,57.78317],[-127.55168,57.78734]]]}},{"type":"Feature","properties":{"c":"1036626","o":"PROSPECT RIDGE RESOURCES CORP.","e":"2034-03-20Z"},"geometry":{"type":"Polygon","coordinates":[[[-127.56418,57.79151],[-127.55793,57.79151],[-127.55168,57.79151],[-127.54543,57.79151],[-127.54543,57.78734],[-127.55168,57.78734],[-127.55168,57.78317],[-127.55793,57.78317],[-127.56418,57.78317],[-127.56418,57.78734],[-127.56418,57.79151]]]}},{"type":"Feature","properties":{"c":"1036627","o":"PROSPECT RIDGE RESOURCES CORP.","e":"2034-03-20Z"},"geometry":{"type":"Polygon","coordinates":[[[-127.58292,57.78317],[-127.58292,57.78734],[-127.57668,57.78734],[-127.57043,57.78734],[-127.56418,57.78734],[-127.56418,57.78317],[-127.57043,57.78317],[-127.57667,57.78317],[-127.58292,57.78317]]]}},{"type":"Feature","properties":{"c":"1037223","o":"PROSPECT RIDGE RESOURCES CORP.","e":"2034-03-20Z"},"geometry":{"type":"Polygon","coordinates":[[[-127.58292,57.78734],[-127.58293,57.79151],[-127.57668,57.79151],[-127.57043,57.79151],[-127.56418,57.79151],[-127.56418,57.78734],[-127.57043,57.78734],[-127.57668,57.78734],[-127.58292,57.78734]]]}},{"type":"Feature","properties":{"c":"1062799","o":"PROSPECT RIDGE RESOURCES CORP.","e":"2034-03-20Z"},"geometry":{"type":"Polygon","coordinates":[[[-127.53918,57.82067],[-127.53293,57.82067],[-127.52668,57.82067],[-127.52043,57.82067],[-127.51418,57.82067],[-127.51418,57.8165],[-127.50793,57.8165],[-127.50793,57.81234],[-127.50793,57.80817],[-127.51418,57.80817],[-127.52043,57.80817],[-127.52668,57.80817],[-127.53293,57.80817],[-127.53293,57.81234],[-127.53918,57.81234],[-127.53918,57.81651],[-127.53918,57.82067]]]}},{"type":"Feature","properties":{"c":"1117246","o":"PROSPECT RIDGE RESOURCES CORP.","e":"2034-03-20Z"},"geometry":{"type":"Polygon","coordinates":[[[-127.58292,57.78317],[-127.57667,57.78317],[-127.57043,57.78317],[-127.56418,57.78317],[-127.55793,57.78317],[-127.55168,57.78317],[-127.55168,57.77901],[-127.54543,57.77901],[-127.54543,57.78317],[-127.54543,57.78734],[-127.54543,57.79151],[-127.55168,57.79151],[-127.55793,57.79151],[-127.56418,57.79151],[-127.56418,57.79567],[-127.55793,57.79567],[-127.55168,57.79567],[-127.54543,57.79567],[-127.53918,57.79567],[-127.53918,57.79151],[-127.53918,57.78734],[-127.53918,57.78317],[-127.53918,57.77901],[-127.53918,57.77484],[-127.54543,57.77484],[-127.55168,57.77484],[-127.55793,57.77484],[-127.56417,57.77484],[-127.57042,57.77484],[-127.57667,57.77484],[-127.58292,57.77484],[-127.58292,57.77901],[-127.58292,57.78317]]]}},{"type":"Feature","properties":{"c":"1117247","o":"PROSPECT RIDGE RESOURCES CORP.","e":"2034-03-20Z"},"geometry":{"type":"Polygon","coordinates":[[[-127.58292,57.77067],[-127.58292,57.77484],[-127.57667,57.77484],[-127.57042,57.77484],[-127.56417,57.77484],[-127.55793,57.77484],[-127.55168,57.77484],[-127.54543,57.77484],[-127.53918,57.77484],[-127.53918,57.77901],[-127.53918,57.78317],[-127.53918,57.78734],[-127.53918,57.79151],[-127.53293,57.79151],[-127.53293,57.78734],[-127.53293,57.78317],[-127.53293,57.77901],[-127.53293,57.77484],[-127.53293,57.77067],[-127.53918,57.77067],[-127.54543,57.77067],[-127.55168,57.77067],[-127.55792,57.77067],[-127.56417,57.77067],[-127.57042,57.77067],[-127.57667,57.77067],[-127.58292,57.77067]]]}},{"type":"Feature","properties":{"c":"1122061","o":"PROSPECT RIDGE RESOURCES CORP.","e":"2034-03-20Z"},"geometry":{"type":"MultiPolygon","coordinates":[[[[-127.54543,57.81234],[-127.54543,57.81651],[-127.54543,57.82067],[-127.54543,57.82484],[-127.54543,57.82901],[-127.53918,57.82901],[-127.53293,57.82901],[-127.52668,57.829],[-127.52668,57.82484],[-127.52043,57.82484],[-127.51418,57.82484],[-127.50793,57.82484],[-127.50168,57.82484],[-127.50168,57.82067],[-127.50168,57.8165],[-127.50168,57.81234],[-127.50168,57.80817],[-127.50168,57.80401],[-127.50793,57.80401],[-127.51418,57.80401],[-127.52043,57.80401],[-127.52668,57.80401],[-127.53293,57.80401],[-127.53918,57.80401],[-127.54543,57.80401],[-127.54543,57.80817],[-127.54543,57.81234]],[[-127.53918,57.81234],[-127.53293,57.81234],[-127.53293,57.80817],[-127.52668,57.80817],[-127.52043,57.80817],[-127.51418,57.80817],[-127.50793,57.80817],[-127.50793,57.81234],[-127.50793,57.8165],[-127.51418,57.8165],[-127.51418,57.82067],[-127.52043,57.82067],[-127.52668,57.82067],[-127.53293,57.82067],[-127.53918,57.82067],[-127.53918,57.81651],[-127.53918,57.81234]]]]}},{"type":"Feature","properties":{"c":"1122063","o":"PROSPECT RIDGE RESOURCES CORP.","e":"2034-03-20Z"},"geometry":{"type":"Polygon","coordinates":[[[-127.55168,57.82067],[-127.55168,57.82484],[-127.55168,57.82901],[-127.54543,57.82901],[-127.54543,57.82484],[-127.54543,57.82067],[-127.54543,57.81651],[-127.54543,57.81234],[-127.55168,57.81234],[-127.55168,57.81651],[-127.55168,57.82067]]]}},{"type":"Feature","properties":{"c":"1122065","o":"PROSPECT RIDGE RESOURCES CORP.","e":"2034-03-20Z"},"geometry":{"type":"Polygon","coordinates":[[[-127.55793,57.79567],[-127.55793,57.79984],[-127.55168,57.79984],[-127.54543,57.79984],[-127.54543,57.80401],[-127.53918,57.80401],[-127.53293,57.80401],[-127.52668,57.80401],[-127.52043,57.80401],[-127.51418,57.80401],[-127.50793,57.80401],[-127.50168,57.80401],[-127.50168,57.80817],[-127.50168,57.81234],[-127.50168,57.8165],[-127.50168,57.82067],[-127.50168,57.82484],[-127.50793,57.82484],[-127.51418,57.82484],[-127.52043,57.82484],[-127.52668,57.82484],[-127.52668,57.829],[-127.52043,57.829],[-127.51418,57.829],[-127.50793,57.829],[-127.50169,57.829],[-127.49544,57.829],[-127.49543,57.82484],[-127.49543,57.82067],[-127.49543,57.8165],[-127.49543,57.81234],[-127.49543,57.80817],[-127.49543,57.80401],[-127.49543,57.79984],[-127.50168,57.79984],[-127.50793,57.79984],[-127.51418,57.79984],[-127.51418,57.79567],[-127.52043,57.79567],[-127.52668,57.79567],[-127.53293,57.79567],[-127.53918,57.79567],[-127.54543,57.79567],[-127.55168,57.79567],[-127.55793,57.79567]]]}},{"type":"Feature","properties":{"c":"1122068","o":"PROSPECT RIDGE RESOURCES CORP.","e":"2034-03-20Z"},"geometry":{"type":"Polygon","coordinates":[[[-127.53293,57.77901],[-127.53293,57.78317],[-127.53293,57.78734],[-127.53293,57.79151],[-127.53918,57.79151],[-127.53918,57.79567],[-127.53293,57.79567],[-127.52668,57.79567],[-127.52043,57.79567],[-127.51418,57.79567],[-127.51418,57.79151],[-127.52043,57.79151],[-127.52043,57.78734],[-127.52043,57.78317],[-127.52043,57.77901],[-127.52043,57.77484],[-127.52043,57.77067],[-127.52668,57.77067],[-127.53293,57.77067],[-127.53293,57.77484],[-127.53293,57.77901]]]}},{"type":"Feature","properties":{"c":"1122070","o":"PROSPECT RIDGE RESOURCES CORP.","e":"2034-03-20Z"},"geometry":{"type":"Polygon","coordinates":[[[-127.58917,57.77484],[-127.58917,57.77901],[-127.58917,57.78317],[-127.58917,57.78734],[-127.58917,57.79151],[-127.58918,57.79567],[-127.58293,57.79567],[-127.57668,57.79567],[-127.57043,57.79567],[-127.57043,57.79984],[-127.56418,57.79984],[-127.55793,57.79984],[-127.55793,57.79567],[-127.56418,57.79567],[-127.56418,57.79151],[-127.57043,57.79151],[-127.57668,57.79151],[-127.58293,57.79151],[-127.58292,57.78734],[-127.58292,57.78317],[-127.58292,57.77901],[-127.58292,57.77484],[-127.58292,57.77067],[-127.58917,57.77067],[-127.58917,57.77484]]]}},{"type":"Feature","properties":{"c":"1122604","o":"PROSPECT RIDGE RESOURCES CORP.","e":"2034-03-20Z"},"geometry":{"type":"Polygon","coordinates":[[[-127.51418,57.79567],[-127.51418,57.79984],[-127.50793,57.79984],[-127.50168,57.79984],[-127.49543,57.79984],[-127.49543,57.80401],[-127.49543,57.80817],[-127.49543,57.81234],[-127.49543,57.8165],[-127.49543,57.82067],[-127.49543,57.82484],[-127.49544,57.829],[-127.48919,57.829],[-127.48294,57.829],[-127.47668,57.829],[-127.47668,57.82484],[-127.47668,57.82067],[-127.47668,57.8165],[-127.47668,57.81234],[-127.47668,57.80817],[-127.47668,57.804],[-127.47668,57.79984],[-127.47668,57.79567],[-127.48293,57.79567],[-127.48918,57.79567],[-127.49543,57.79567],[-127.50168,57.79567],[-127.50793,57.79567],[-127.51418,57.79567]]]}},{"type":"Feature","properties":{"c":"1122606","o":"PROSPECT RIDGE RESOURCES CORP.","e":"2034-03-20Z"},"geometry":{"type":"Polygon","coordinates":[[[-127.59542,57.77901],[-127.59542,57.78317],[-127.59542,57.78734],[-127.59542,57.79151],[-127.59542,57.79567],[-127.58918,57.79567],[-127.58917,57.79151],[-127.58917,57.78734],[-127.58917,57.78317],[-127.58917,57.77901],[-127.58917,57.77484],[-127.58917,57.77067],[-127.59542,57.77067],[-127.59542,57.77484],[-127.59542,57.77901]]]}},{"type":"Feature","properties":{"c":"1128078","o":"SCOTT, STEVEN JEFFREY","e":"2026-12-05Z"},"geometry":{"type":"Polygon","coordinates":[[[-127.73916,57.77901],[-127.73291,57.77901],[-127.73291,57.77484],[-127.73291,57.77068],[-127.73916,57.77067],[-127.73916,57.77484],[-127.73916,57.77901]]]}},{"type":"Feature","properties":{"c":"1113072","o":"OMEGA PACIFIC RESOURCES INC","e":"2034-11-21Z"},"geometry":{"type":"Polygon","coordinates":[[[-127.69541,57.78734],[-127.69541,57.79151],[-127.69541,57.79567],[-127.69542,57.79984],[-127.69542,57.80401],[-127.69542,57.80817],[-127.69542,57.81234],[-127.69542,57.81651],[-127.69542,57.82067],[-127.69542,57.82484],[-127.68917,57.82484],[-127.68292,57.82484],[-127.67667,57.82484],[-127.67042,57.82484],[-127.66417,57.82484],[-127.65792,57.82484],[-127.65167,57.82484],[-127.64542,57.82484],[-127.63917,57.82484],[-127.63917,57.82067],[-127.63917,57.81651],[-127.63917,57.81234],[-127.63917,57.80817],[-127.63917,57.80401],[-127.63917,57.79984],[-127.63917,57.79567],[-127.63917,57.79151],[-127.63917,57.78734],[-127.63917,57.78317],[-127.63917,57.77901],[-127.64542,57.77901],[-127.65167,57.77901],[-127.65792,57.77901],[-127.66417,57.77901],[-127.67042,57.77901],[-127.67667,57.77901],[-127.68291,57.77901],[-127.68916,57.77901],[-127.69541,57.77901],[-127.69541,57.78318],[-127.69541,57.78734]]]}},{"type":"Feature","properties":{"c":"1104314","o":"OMEGA PACIFIC RESOURCES INC","e":"2034-11-21Z"},"geometry":{"type":"Polygon","coordinates":[[[-127.8329,57.79567],[-127.8329,57.79984],[-127.8329,57.80401],[-127.8329,57.80817],[-127.8329,57.81234],[-127.8329,57.81651],[-127.8329,57.82067],[-127.8329,57.82484],[-127.8329,57.82901],[-127.8329,57.83317],[-127.82665,57.83317],[-127.8204,57.83317],[-127.81415,57.83317],[-127.8079,57.83317],[-127.80166,57.83317],[-127.79541,57.83317],[-127.78916,57.83317],[-127.78291,57.83317],[-127.77666,57.83317],[-127.77041,57.83317],[-127.76416,57.83317],[-127.75791,57.83317],[-127.75166,57.83317],[-127.75166,57.82901],[-127.75166,57.82484],[-127.75166,57.82067],[-127.75791,57.82067],[-127.76416,57.82067],[-127.77041,57.82067],[-127.77666,57.82067],[-127.78291,57.82067],[-127.78291,57.81651],[-127.78916,57.81651],[-127.78915,57.81234],[-127.78915,57.80817],[-127.78915,57.80401],[-127.78291,57.80401],[-127.7829,57.79984],[-127.7829,57.79567],[-127.7829,57.79151],[-127.78915,57.79151],[-127.7954,57.79151],[-127.80165,57.79151],[-127.8079,57.79151],[-127.81415,57.79151],[-127.81415,57.78734],[-127.8204,57.78734],[-127.82665,57.78734],[-127.8329,57.78734],[-127.8329,57.79151],[-127.8329,57.79567]]]}},{"type":"Feature","properties":{"c":"502764","o":"OMEGA PACIFIC RESOURCES INC","e":"2034-11-21Z"},"geometry":{"type":"Polygon","coordinates":[[[-127.81415,57.77067],[-127.81415,57.77484],[-127.81415,57.77901],[-127.81415,57.78317],[-127.81415,57.78734],[-127.81415,57.79151],[-127.8079,57.79151],[-127.80165,57.79151],[-127.7954,57.79151],[-127.78915,57.79151],[-127.7829,57.79151],[-127.77665,57.79151],[-127.77041,57.79151],[-127.76416,57.79151],[-127.75791,57.79151],[-127.75166,57.79151],[-127.74541,57.79151],[-127.73916,57.79151],[-127.73916,57.78734],[-127.73916,57.78317],[-127.73916,57.77901],[-127.73916,57.77484],[-127.73916,57.77067],[-127.73916,57.76651],[-127.73916,57.76234],[-127.74541,57.76234],[-127.75166,57.76234],[-127.7579,57.76234],[-127.76415,57.76234],[-127.7704,57.76234],[-127.77665,57.76234],[-127.7829,57.76234],[-127.78915,57.76234],[-127.7954,57.76234],[-127.80165,57.76234],[-127.8079,57.76234],[-127.81415,57.76234],[-127.81415,57.76651],[-127.81415,57.77067]]]}},{"type":"Feature","properties":{"c":"502766","o":"OMEGA PACIFIC RESOURCES INC","e":"2034-11-21Z"},"geometry":{"type":"Polygon","coordinates":[[[-127.81415,57.73317],[-127.81415,57.73734],[-127.81415,57.74151],[-127.81415,57.74567],[-127.81415,57.74984],[-127.8079,57.74984],[-127.80165,57.74984],[-127.7954,57.74984],[-127.78915,57.74984],[-127.7829,57.74984],[-127.77665,57.74984],[-127.7704,57.74984],[-127.76415,57.74984],[-127.76415,57.74567],[-127.76415,57.74151],[-127.76416,57.73734],[-127.76416,57.73318],[-127.76416,57.72901],[-127.76416,57.72484],[-127.77041,57.72484],[-127.77666,57.72484],[-127.78291,57.72484],[-127.78916,57.72484],[-127.7954,57.72484],[-127.80165,57.72484],[-127.8079,57.72484],[-127.81415,57.72484],[-127.81415,57.72901],[-127.81415,57.73317]]]}},{"type":"Feature","properties":{"c":"502768","o":"OMEGA PACIFIC RESOURCES INC","e":"2034-11-21Z"},"geometry":{"type":"Polygon","coordinates":[[[-127.78915,57.75817],[-127.78915,57.76234],[-127.7829,57.76234],[-127.77665,57.76234],[-127.7704,57.76234],[-127.76415,57.76234],[-127.7579,57.76234],[-127.75166,57.76234],[-127.74541,57.76234],[-127.73916,57.76234],[-127.73916,57.76651],[-127.73916,57.77067],[-127.73291,57.77068],[-127.73291,57.76651],[-127.73291,57.76234],[-127.73291,57.75818],[-127.73291,57.75401],[-127.73291,57.74984],[-127.73291,57.74568],[-127.73291,57.74151],[-127.73916,57.74151],[-127.74541,57.74151],[-127.75166,57.74151],[-127.75791,57.74151],[-127.76415,57.74151],[-127.76415,57.74567],[-127.76415,57.74984],[-127.7704,57.74984],[-127.77665,57.74984],[-127.7829,57.74984],[-127.78915,57.74984],[-127.78915,57.75401],[-127.78915,57.75817]]]}},{"type":"Feature","properties":{"c":"502770","o":"OMEGA PACIFIC RESOURCES INC","e":"2034-11-21Z"},"geometry":{"type":"Polygon","coordinates":[[[-127.7829,57.79984],[-127.78291,57.80401],[-127.78291,57.80817],[-127.78291,57.81234],[-127.78291,57.81651],[-127.78291,57.82067],[-127.77666,57.82067],[-127.77041,57.82067],[-127.76416,57.82067],[-127.75791,57.82067],[-127.75166,57.82067],[-127.74541,57.82067],[-127.73916,57.82067],[-127.73916,57.81651],[-127.73916,57.81234],[-127.73916,57.80817],[-127.73916,57.80401],[-127.73916,57.79984],[-127.73916,57.79567],[-127.73916,57.79151],[-127.74541,57.79151],[-127.75166,57.79151],[-127.75791,57.79151],[-127.76416,57.79151],[-127.77041,57.79151],[-127.77665,57.79151],[-127.7829,57.79151],[-127.7829,57.79567],[-127.7829,57.79984]]]}},{"type":"Feature","properties":{"c":"502773","o":"OMEGA PACIFIC RESOURCES INC","e":"2034-11-21Z"},"geometry":{"type":"Polygon","coordinates":[[[-127.73916,57.78734],[-127.73916,57.79151],[-127.73916,57.79567],[-127.73916,57.79984],[-127.73916,57.80401],[-127.73916,57.80817],[-127.73916,57.81234],[-127.73291,57.81234],[-127.72666,57.81234],[-127.72041,57.81234],[-127.71416,57.81234],[-127.70791,57.81234],[-127.70167,57.81234],[-127.69542,57.81234],[-127.69542,57.80817],[-127.69542,57.80401],[-127.69542,57.79984],[-127.69541,57.79567],[-127.69541,57.79151],[-127.69541,57.78734],[-127.69541,57.78318],[-127.69541,57.77901],[-127.70166,57.77901],[-127.70791,57.77901],[-127.71416,57.77901],[-127.72041,57.77901],[-127.72666,57.77901],[-127.73291,57.77901],[-127.73916,57.77901],[-127.73916,57.78317],[-127.73916,57.78734]]]}},{"type":"Feature","properties":{"c":"502774","o":"OMEGA PACIFIC RESOURCES INC","e":"2034-11-21Z"},"geometry":{"type":"Polygon","coordinates":[[[-127.75166,57.82067],[-127.75166,57.82484],[-127.74541,57.82484],[-127.73916,57.82484],[-127.73291,57.82484],[-127.72666,57.82484],[-127.72041,57.82484],[-127.71417,57.82484],[-127.70792,57.82484],[-127.70167,57.82484],[-127.69542,57.82484],[-127.69542,57.82067],[-127.69542,57.81651],[-127.69542,57.81234],[-127.70167,57.81234],[-127.70791,57.81234],[-127.71416,57.81234],[-127.72041,57.81234],[-127.72666,57.81234],[-127.73291,57.81234],[-127.73916,57.81234],[-127.73916,57.81651],[-127.73916,57.82067],[-127.74541,57.82067],[-127.75166,57.82067]]]}},{"type":"Feature","properties":{"c":"1077649","o":"OMEGA PACIFIC RESOURCES INC","e":"2034-11-21Z"},"geometry":{"type":"Polygon","coordinates":[[[-127.85164,57.74151],[-127.85164,57.74567],[-127.85164,57.74984],[-127.85164,57.75401],[-127.85164,57.75817],[-127.85164,57.76234],[-127.85164,57.76651],[-127.85164,57.77067],[-127.85164,57.77484],[-127.85164,57.77901],[-127.85164,57.78317],[-127.85164,57.78734],[-127.8454,57.78734],[-127.83915,57.78734],[-127.8329,57.78734],[-127.82665,57.78734],[-127.8204,57.78734],[-127.81415,57.78734],[-127.81415,57.78317],[-127.81415,57.77901],[-127.81415,57.77484],[-127.81415,57.77067],[-127.81415,57.76651],[-127.81415,57.76234],[-127.8079,57.76234],[-127.80165,57.76234],[-127.7954,57.76234],[-127.78915,57.76234],[-127.78915,57.75817],[-127.78915,57.75401],[-127.78915,57.74984],[-127.7954,57.74984],[-127.80165,57.74984],[-127.8079,57.74984],[-127.81415,57.74984],[-127.81415,57.74567],[-127.81415,57.74151],[-127.81415,57.73734],[-127.81415,57.73317],[-127.81415,57.72901],[-127.81415,57.72484],[-127.8204,57.72484],[-127.82665,57.72484],[-127.8329,57.72484],[-127.83915,57.72484],[-127.8454,57.72484],[-127.8454,57.72901],[-127.8454,57.73317],[-127.85165,57.73317],[-127.85164,57.73734],[-127.85164,57.74151]]]}},{"type":"Feature","properties":{"c":"1081780","o":"OMEGA PACIFIC RESOURCES INC","e":"2034-11-21Z"},"geometry":{"type":"Polygon","coordinates":[[[-127.89539,57.75401],[-127.89539,57.75817],[-127.89539,57.76234],[-127.89539,57.76651],[-127.89539,57.77067],[-127.89539,57.77484],[-127.89539,57.77901],[-127.89539,57.78317],[-127.89539,57.78734],[-127.88914,57.78734],[-127.88289,57.78734],[-127.87664,57.78734],[-127.87039,57.78734],[-127.86414,57.78734],[-127.85789,57.78734],[-127.85164,57.78734],[-127.85164,57.78317],[-127.85164,57.77901],[-127.85164,57.77484],[-127.85164,57.77067],[-127.85164,57.76651],[-127.85164,57.76234],[-127.85164,57.75817],[-127.85164,57.75401],[-127.85164,57.74984],[-127.85164,57.74567],[-127.85789,57.74567],[-127.86414,57.74567],[-127.87039,57.74567],[-127.87664,57.74567],[-127.88289,57.74567],[-127.88914,57.74567],[-127.89539,57.74567],[-127.89539,57.74984],[-127.89539,57.75401]]]}},{"type":"Feature","properties":{"c":"1112095","o":"OMEGA PACIFIC RESOURCES INC","e":"2034-11-21Z"},"geometry":{"type":"Polygon","coordinates":[[[-127.78915,57.81234],[-127.78916,57.81651],[-127.78291,57.81651],[-127.78291,57.81234],[-127.78291,57.80817],[-127.78291,57.80401],[-127.78915,57.80401],[-127.78915,57.80817],[-127.78915,57.81234]]]}},{"type":"Feature","properties":{"c":"1135677","o":"BOT, JOHN CHRISOSTOM","e":"2027-07-16Z"},"geometry":{"type":"Polygon","coordinates":[[[-127.67044,57.93734],[-127.67669,57.93734],[-127.67669,57.9415],[-127.67044,57.9415],[-127.67044,57.93734]]]}},{"type":"Feature","properties":{"c":"1135678","o":"BOT, JOHN CHRISOSTOM","e":"2027-07-16Z"},"geometry":{"type":"Polygon","coordinates":[[[-127.50793,57.79567],[-127.50168,57.79567],[-127.49543,57.79567],[-127.49543,57.79151],[-127.48918,57.79151],[-127.48918,57.78734],[-127.48293,57.78734],[-127.48293,57.78317],[-127.48293,57.77901],[-127.48918,57.77901],[-127.48918,57.78317],[-127.49543,57.78317],[-127.49543,57.78734],[-127.50168,57.78734],[-127.50168,57.79151],[-127.50793,57.79151],[-127.50793,57.79567]]]}},{"type":"Feature","properties":{"c":"1135679","o":"BOT, JOHN CHRISOSTOM","e":"2027-07-16Z"},"geometry":{"type":"Polygon","coordinates":[[[-127.66419,57.93734],[-127.67044,57.93734],[-127.67044,57.9415],[-127.66419,57.9415],[-127.66419,57.93734]]]}},{"type":"Feature","properties":{"c":"1088886","o":"EAGLE PLAINS RESOURCES LTD.","e":"2029-09-13Z"},"geometry":{"type":"Polygon","coordinates":[[[-127.52669,57.63734],[-127.52669,57.64151],[-127.52044,57.64151],[-127.52044,57.64567],[-127.51419,57.64567],[-127.50794,57.64567],[-127.50169,57.64567],[-127.49544,57.64567],[-127.49544,57.64984],[-127.48919,57.64984],[-127.48919,57.65401],[-127.48294,57.65401],[-127.47669,57.65401],[-127.47044,57.65401],[-127.47044,57.64984],[-127.47669,57.64984],[-127.47669,57.64567],[-127.47669,57.64151],[-127.48294,57.64151],[-127.48294,57.63734],[-127.48919,57.63734],[-127.48919,57.63317],[-127.49544,57.63317],[-127.49544,57.63734],[-127.50169,57.63734],[-127.50794,57.63734],[-127.51419,57.63734],[-127.52044,57.63734],[-127.52669,57.63734]]]}},{"type":"Feature","properties":{"c":"1116988","o":"EAGLE PLAINS RESOURCES LTD.","e":"2029-09-13Z"},"geometry":{"type":"Polygon","coordinates":[[[-127.53919,57.63318],[-127.53919,57.63734],[-127.53919,57.64151],[-127.53919,57.64568],[-127.53919,57.64984],[-127.53919,57.65401],[-127.53919,57.65817],[-127.53294,57.65817],[-127.52669,57.65817],[-127.52044,57.65817],[-127.51419,57.65817],[-127.50794,57.65817],[-127.50794,57.65401],[-127.51419,57.65401],[-127.51419,57.64984],[-127.52044,57.64984],[-127.52669,57.64984],[-127.53294,57.64984],[-127.53294,57.64568],[-127.53294,57.64151],[-127.53294,57.63734],[-127.53294,57.63318],[-127.53294,57.62901],[-127.53919,57.62901],[-127.53919,57.63318]]]}},{"type":"Feature","properties":{"c":"1116989","o":"EAGLE PLAINS RESOURCES LTD.","e":"2029-09-13Z"},"geometry":{"type":"Polygon","coordinates":[[[-127.53294,57.63734],[-127.53294,57.64151],[-127.53294,57.64568],[-127.53294,57.64984],[-127.52669,57.64984],[-127.52044,57.64984],[-127.51419,57.64984],[-127.51419,57.65401],[-127.50794,57.65401],[-127.50794,57.65817],[-127.50169,57.65817],[-127.49544,57.65817],[-127.48919,57.65817],[-127.48294,57.65817],[-127.47669,57.65817],[-127.47044,57.65817],[-127.47044,57.65401],[-127.47669,57.65401],[-127.48294,57.65401],[-127.48919,57.65401],[-127.48919,57.64984],[-127.49544,57.64984],[-127.49544,57.64567],[-127.50169,57.64567],[-127.50794,57.64567],[-127.51419,57.64567],[-127.52044,57.64567],[-127.52044,57.64151],[-127.52669,57.64151],[-127.52669,57.63734],[-127.52669,57.63318],[-127.52669,57.62901],[-127.53294,57.62901],[-127.53294,57.63318],[-127.53294,57.63734]]]}},{"type":"Feature","properties":{"c":"1116993","o":"EAGLE PLAINS RESOURCES LTD.","e":"2029-09-13Z"},"geometry":{"type":"Polygon","coordinates":[[[-127.5017,57.59984],[-127.5017,57.60401],[-127.5017,57.60817],[-127.5017,57.61234],[-127.49545,57.61234],[-127.4892,57.61234],[-127.48295,57.61234],[-127.4767,57.61234],[-127.4767,57.60817],[-127.4767,57.60401],[-127.4767,57.59984],[-127.48295,57.59984],[-127.48295,57.59567],[-127.48295,57.59151],[-127.4892,57.59151],[-127.49545,57.59151],[-127.5017,57.59151],[-127.5017,57.59568],[-127.5017,57.59984]]]}},{"type":"Feature","properties":{"c":"1116998","o":"EAGLE PLAINS RESOURCES LTD.","e":"2029-09-13Z"},"geometry":{"type":"Polygon","coordinates":[[[-127.53921,57.54984],[-127.53921,57.55401],[-127.53921,57.55818],[-127.53921,57.56234],[-127.53921,57.56651],[-127.53921,57.57068],[-127.53921,57.57484],[-127.5392,57.57901],[-127.5392,57.58318],[-127.5392,57.58734],[-127.5392,57.59151],[-127.5392,57.59568],[-127.5392,57.59984],[-127.5392,57.60401],[-127.5392,57.60818],[-127.53295,57.60818],[-127.53295,57.61234],[-127.5267,57.61234],[-127.52045,57.61234],[-127.52045,57.60818],[-127.52045,57.60401],[-127.52045,57.59984],[-127.52045,57.59568],[-127.52045,57.59151],[-127.52045,57.58734],[-127.5267,57.58734],[-127.5267,57.58318],[-127.5267,57.57901],[-127.52671,57.57484],[-127.52671,57.57068],[-127.52046,57.57068],[-127.51421,57.57068],[-127.50796,57.57068],[-127.50171,57.57068],[-127.49545,57.57068],[-127.4892,57.57068],[-127.48921,57.56651],[-127.48921,57.56234],[-127.48921,57.55818],[-127.48921,57.55401],[-127.48921,57.54984],[-127.48921,57.54568],[-127.48921,57.54151],[-127.49546,57.54151],[-127.50171,57.54151],[-127.50796,57.54151],[-127.51421,57.54151],[-127.52046,57.54151],[-127.52671,57.54151],[-127.53296,57.54151],[-127.53922,57.54151],[-127.53921,57.54568],[-127.53921,57.54984]]]}},{"type":"Feature","properties":{"c":"1116999","o":"EAGLE PLAINS RESOURCES LTD.","e":"2029-09-13Z"},"geometry":{"type":"Polygon","coordinates":[[[-127.5267,57.57901],[-127.5267,57.58318],[-127.5267,57.58734],[-127.52045,57.58734],[-127.52045,57.59151],[-127.52045,57.59568],[-127.52045,57.59984],[-127.52045,57.60401],[-127.52045,57.60818],[-127.52045,57.61234],[-127.5142,57.61234],[-127.50795,57.61234],[-127.5017,57.61234],[-127.5017,57.60817],[-127.5017,57.60401],[-127.5017,57.59984],[-127.5017,57.59568],[-127.5017,57.59151],[-127.50795,57.59151],[-127.50795,57.58734],[-127.50795,57.58318],[-127.50795,57.57901],[-127.50795,57.57484],[-127.50796,57.57068],[-127.51421,57.57068],[-127.52046,57.57068],[-127.52671,57.57068],[-127.52671,57.57484],[-127.5267,57.57901]]]}},{"type":"Feature","properties":{"c":"1117000","o":"EAGLE PLAINS RESOURCES LTD.","e":"2029-09-13Z"},"geometry":{"type":"Polygon","coordinates":[[[-127.52669,57.63734],[-127.52044,57.63734],[-127.51419,57.63734],[-127.50794,57.63734],[-127.50169,57.63734],[-127.49544,57.63734],[-127.49544,57.63317],[-127.49544,57.62901],[-127.49544,57.62484],[-127.50169,57.62484],[-127.50169,57.62901],[-127.50794,57.62901],[-127.51419,57.62901],[-127.52044,57.62901],[-127.52669,57.62901],[-127.52669,57.63318],[-127.52669,57.63734]]]}},{"type":"Feature","properties":{"c":"1117001","o":"EAGLE PLAINS RESOURCES LTD.","e":"2029-09-13Z"},"geometry":{"type":"Polygon","coordinates":[[[-127.52669,57.62068],[-127.52669,57.62484],[-127.52669,57.62901],[-127.52044,57.62901],[-127.51419,57.62901],[-127.50794,57.62901],[-127.50169,57.62901],[-127.50169,57.62484],[-127.49544,57.62484],[-127.49544,57.62067],[-127.49544,57.61651],[-127.49545,57.61234],[-127.5017,57.61234],[-127.50795,57.61234],[-127.5142,57.61234],[-127.52045,57.61234],[-127.5267,57.61234],[-127.5267,57.61651],[-127.52669,57.62068]]]}},{"type":"Feature","properties":{"c":"1117004","o":"EAGLE PLAINS RESOURCES LTD.","e":"2029-09-13Z"},"geometry":{"type":"Polygon","coordinates":[[[-127.50795,57.57901],[-127.50795,57.58318],[-127.50795,57.58734],[-127.50795,57.59151],[-127.5017,57.59151],[-127.49545,57.59151],[-127.4892,57.59151],[-127.48295,57.59151],[-127.48295,57.59567],[-127.48295,57.59984],[-127.4767,57.59984],[-127.4767,57.59567],[-127.4767,57.59151],[-127.4767,57.58734],[-127.4767,57.58317],[-127.4767,57.57901],[-127.48295,57.57901],[-127.4892,57.57901],[-127.4892,57.57484],[-127.4892,57.57068],[-127.49545,57.57068],[-127.50171,57.57068],[-127.50796,57.57068],[-127.50795,57.57484],[-127.50795,57.57901]]]}},{"type":"Feature","properties":{"c":"1134124","o":"BOT, JOHN CHRISOSTOM","e":"2027-06-10Z"},"geometry":{"type":"Polygon","coordinates":[[[-127.52043,57.79151],[-127.51418,57.79151],[-127.51418,57.79567],[-127.50793,57.79567],[-127.50793,57.79151],[-127.50168,57.79151],[-127.50168,57.78734],[-127.49543,57.78734],[-127.49543,57.78317],[-127.50168,57.78317],[-127.50793,57.78317],[-127.51418,57.78317],[-127.52043,57.78317],[-127.52043,57.78734],[-127.52043,57.79151]]]}},{"type":"Feature","properties":{"c":"1134133","o":"BOT, JOHN CHRISOSTOM","e":"2027-06-10Z"},"geometry":{"type":"Polygon","coordinates":[[[-127.52043,57.77067],[-127.52043,57.77484],[-127.51418,57.77484],[-127.50793,57.77484],[-127.50168,57.77484],[-127.49543,57.77484],[-127.49543,57.77067],[-127.50168,57.77067],[-127.50793,57.77067],[-127.51418,57.77067],[-127.52043,57.77067]]]}},{"type":"Feature","properties":{"c":"1108052","o":"THESIS GOLD & SILVER INC.","e":"2036-12-31Z"},"geometry":{"type":"Polygon","coordinates":[[[-127.5642,57.59151],[-127.5642,57.59568],[-127.5642,57.59984],[-127.5642,57.60401],[-127.5642,57.60818],[-127.55795,57.60818],[-127.5517,57.60818],[-127.54545,57.60818],[-127.5392,57.60818],[-127.5392,57.60401],[-127.5392,57.59984],[-127.5392,57.59568],[-127.5392,57.59151],[-127.5392,57.58734],[-127.5392,57.58318],[-127.54545,57.58318],[-127.5517,57.58318],[-127.55795,57.58318],[-127.56421,57.58318],[-127.5642,57.58734],[-127.5642,57.59151]]]}},{"type":"Feature","properties":{"c":"1103306","o":"THESIS GOLD & SILVER INC.","e":"2036-12-31Z"},"geometry":{"type":"Polygon","coordinates":[[[-127.57672,57.54984],[-127.57671,57.55401],[-127.57671,57.55818],[-127.57671,57.56234],[-127.57671,57.56651],[-127.57671,57.57068],[-127.57671,57.57484],[-127.57671,57.57901],[-127.57671,57.58318],[-127.57046,57.58318],[-127.56421,57.58318],[-127.55795,57.58318],[-127.5517,57.58318],[-127.54545,57.58318],[-127.5392,57.58318],[-127.5392,57.57901],[-127.53921,57.57484],[-127.53921,57.57068],[-127.53921,57.56651],[-127.53921,57.56234],[-127.53921,57.55818],[-127.53921,57.55401],[-127.53921,57.54984],[-127.53921,57.54568],[-127.53922,57.54151],[-127.54547,57.54151],[-127.55172,57.54151],[-127.55797,57.54151],[-127.56422,57.54151],[-127.57047,57.54151],[-127.57672,57.54151],[-127.57672,57.54568],[-127.57672,57.54984]]]}},{"type":"Feature","properties":{"c":"1103305","o":"THESIS GOLD & SILVER INC.","e":"2036-12-31Z"},"geometry":{"type":"Polygon","coordinates":[[[-127.57673,57.51651],[-127.57672,57.52068],[-127.57047,57.52068],[-127.56422,57.52068],[-127.55797,57.52068],[-127.55172,57.52068],[-127.54547,57.52068],[-127.53922,57.52068],[-127.53297,57.52068],[-127.52672,57.52068],[-127.52047,57.52068],[-127.52047,57.51651],[-127.52047,57.51234],[-127.52047,57.50818],[-127.52047,57.50401],[-127.52047,57.49984],[-127.52048,57.49568],[-127.52048,57.49151],[-127.52048,57.48734],[-127.52673,57.48734],[-127.52673,57.49151],[-127.53298,57.49151],[-127.53923,57.49151],[-127.53923,57.49568],[-127.54548,57.49568],[-127.54548,57.49984],[-127.55173,57.49984],[-127.55173,57.50401],[-127.55798,57.50401],[-127.55798,57.50818],[-127.56423,57.50818],[-127.56423,57.51234],[-127.57048,57.51235],[-127.57047,57.51651],[-127.57673,57.51651]]]}},{"type":"Feature","properties":{"c":"1103304","o":"THESIS GOLD & SILVER INC.","e":"2036-12-31Z"},"geometry":{"type":"Polygon","coordinates":[[[-127.60172,57.54984],[-127.60172,57.55401],[-127.60171,57.55818],[-127.60171,57.56234],[-127.60171,57.56651],[-127.60171,57.57068],[-127.60171,57.57484],[-127.60171,57.57901],[-127.60171,57.58318],[-127.60171,57.58734],[-127.6017,57.59151],[-127.6017,57.59568],[-127.6017,57.59984],[-127.6017,57.60401],[-127.59545,57.60401],[-127.59545,57.59984],[-127.59545,57.59568],[-127.59545,57.59151],[-127.59546,57.58734],[-127.59546,57.58318],[-127.59546,57.57901],[-127.59546,57.57484],[-127.59546,57.57068],[-127.58921,57.57068],[-127.58296,57.57068],[-127.57671,57.57068],[-127.57671,57.56651],[-127.57671,57.56234],[-127.57671,57.55818],[-127.57671,57.55401],[-127.57672,57.54984],[-127.57672,57.54568],[-127.57672,57.54151],[-127.58297,57.54151],[-127.58922,57.54151],[-127.59547,57.54151],[-127.60172,57.54151],[-127.60172,57.54568],[-127.60172,57.54984]]]}},{"type":"Feature","properties":{"c":"1103303","o":"THESIS GOLD & SILVER INC.","e":"2036-12-31Z"},"geometry":{"type":"Polygon","coordinates":[[[-127.59547,57.54151],[-127.58922,57.54151],[-127.58297,57.54151],[-127.57672,57.54151],[-127.57047,57.54151],[-127.56422,57.54151],[-127.55797,57.54151],[-127.55172,57.54151],[-127.54547,57.54151],[-127.53922,57.54151],[-127.53296,57.54151],[-127.52671,57.54151],[-127.52046,57.54151],[-127.52046,57.53734],[-127.52047,57.53318],[-127.52047,57.52901],[-127.52047,57.52484],[-127.52047,57.52068],[-127.52672,57.52068],[-127.53297,57.52068],[-127.53922,57.52068],[-127.54547,57.52068],[-127.55172,57.52068],[-127.55797,57.52068],[-127.56422,57.52068],[-127.57047,57.52068],[-127.57672,57.52068],[-127.58297,57.52068],[-127.58297,57.52485],[-127.58922,57.52485],[-127.58922,57.52901],[-127.58922,57.53318],[-127.59547,57.53318],[-127.59547,57.53735],[-127.59547,57.54151]]]}},{"type":"Feature","properties":{"c":"1101084","o":"THESIS GOLD & SILVER INC.","e":"2036-12-31Z"},"geometry":{"type":"Polygon","coordinates":[[[-127.62045,57.61234],[-127.62045,57.61651],[-127.62045,57.62068],[-127.6142,57.62068],[-127.61419,57.62484],[-127.60794,57.62484],[-127.60794,57.62901],[-127.60169,57.62901],[-127.59544,57.62901],[-127.59544,57.63318],[-127.58919,57.63318],[-127.58294,57.63318],[-127.58294,57.62901],[-127.57669,57.62901],[-127.57044,57.62901],[-127.56419,57.62901],[-127.55794,57.62901],[-127.55169,57.62901],[-127.54544,57.62901],[-127.53919,57.62901],[-127.53294,57.62901],[-127.52669,57.62901],[-127.52669,57.62484],[-127.52669,57.62068],[-127.53294,57.62068],[-127.53919,57.62068],[-127.54544,57.62068],[-127.55169,57.62068],[-127.55794,57.62068],[-127.5642,57.62068],[-127.57045,57.62068],[-127.57045,57.61651],[-127.5767,57.61651],[-127.5767,57.61234],[-127.58295,57.61234],[-127.58295,57.60818],[-127.58295,57.60401],[-127.5892,57.60401],[-127.59545,57.60401],[-127.6017,57.60401],[-127.60795,57.60401],[-127.6142,57.60401],[-127.62045,57.60401],[-127.62045,57.60818],[-127.62045,57.61234]]]}},{"type":"Feature","properties":{"c":"1099922","o":"THESIS GOLD & SILVER INC.","e":"2036-12-31Z"},"geometry":{"type":"Polygon","coordinates":[[[-127.59546,57.57901],[-127.59546,57.58318],[-127.59546,57.58734],[-127.59545,57.59151],[-127.59545,57.59568],[-127.59545,57.59984],[-127.59545,57.60401],[-127.5892,57.60401],[-127.58295,57.60401],[-127.58295,57.60818],[-127.58295,57.61234],[-127.5767,57.61234],[-127.5767,57.61651],[-127.57045,57.61651],[-127.57045,57.62068],[-127.5642,57.62068],[-127.55794,57.62068],[-127.55169,57.62068],[-127.54544,57.62068],[-127.53919,57.62068],[-127.53294,57.62068],[-127.52669,57.62068],[-127.5267,57.61651],[-127.5267,57.61234],[-127.53295,57.61234],[-127.53295,57.60818],[-127.5392,57.60818],[-127.54545,57.60818],[-127.5517,57.60818],[-127.55795,57.60818],[-127.5642,57.60818],[-127.5642,57.60401],[-127.5642,57.59984],[-127.5642,57.59568],[-127.5642,57.59151],[-127.5642,57.58734],[-127.56421,57.58318],[-127.57046,57.58318],[-127.57671,57.58318],[-127.57671,57.57901],[-127.57671,57.57484],[-127.57671,57.57068],[-127.58296,57.57068],[-127.58921,57.57068],[-127.59546,57.57068],[-127.59546,57.57484],[-127.59546,57.57901]]]}},{"type":"Feature","properties":{"c":"1038129","o":"THESIS GOLD & SILVER INC.","e":"2036-12-31Z"},"geometry":{"type":"Polygon","coordinates":[[[-127.52047,57.50818],[-127.52047,57.51234],[-127.52047,57.51651],[-127.52047,57.52068],[-127.52047,57.52484],[-127.51422,57.52484],[-127.50797,57.52484],[-127.50172,57.52484],[-127.49547,57.52484],[-127.48922,57.52484],[-127.48297,57.52484],[-127.48296,57.52901],[-127.48296,57.53318],[-127.48296,57.53734],[-127.48296,57.54151],[-127.47671,57.54151],[-127.47046,57.54151],[-127.46421,57.54151],[-127.45796,57.54151],[-127.45171,57.54151],[-127.44546,57.54151],[-127.44546,57.53734],[-127.44546,57.53318],[-127.44546,57.52901],[-127.44546,57.52484],[-127.45171,57.52484],[-127.45796,57.52484],[-127.46421,57.52484],[-127.47046,57.52484],[-127.47047,57.52068],[-127.47047,57.51651],[-127.47047,57.51234],[-127.47047,57.50818],[-127.47047,57.50401],[-127.47047,57.49984],[-127.47672,57.49984],[-127.48297,57.49984],[-127.48922,57.49984],[-127.49547,57.49984],[-127.50172,57.49984],[-127.50797,57.49984],[-127.51422,57.49984],[-127.52047,57.49984],[-127.52047,57.50401],[-127.52047,57.50818]]]}},{"type":"Feature","properties":{"c":"528847","o":"THESIS GOLD & SILVER INC.","e":"2036-12-31Z"},"geometry":{"type":"Polygon","coordinates":[[[-127.52047,57.53318],[-127.52046,57.53734],[-127.52046,57.54151],[-127.51421,57.54151],[-127.50796,57.54151],[-127.50171,57.54151],[-127.49546,57.54151],[-127.48921,57.54151],[-127.48296,57.54151],[-127.48296,57.53734],[-127.48296,57.53318],[-127.48296,57.52901],[-127.48297,57.52484],[-127.48922,57.52484],[-127.49547,57.52484],[-127.50172,57.52484],[-127.50797,57.52484],[-127.51422,57.52484],[-127.52047,57.52484],[-127.52047,57.52901],[-127.52047,57.53318]]]}}]}