{"type":"FeatureCollection","features":[{"type":"Feature","properties":{"c":"418953","o":"ATRUM COAL PANORAMA INC.","e":"2027-09-12Z"},"geometry":{"type":"Polygon","coordinates":[[[-128.46446,56.84152],[-128.45821,56.84152],[-128.45196,56.84152],[-128.45196,56.83736],[-128.45196,56.83319],[-128.45196,56.82902],[-128.45196,56.82486],[-128.45196,56.82069],[-128.45196,56.81652],[-128.45821,56.81652],[-128.46446,56.81652],[-128.47071,56.81652],[-128.47696,56.81652],[-128.48321,56.81652],[-128.48946,56.81652],[-128.49571,56.81652],[-128.50196,56.81652],[-128.50821,56.81652],[-128.51446,56.81652],[-128.52071,56.81652],[-128.52696,56.81652],[-128.52696,56.82069],[-128.52696,56.82486],[-128.52696,56.82902],[-128.52696,56.83319],[-128.52071,56.83319],[-128.51446,56.83319],[-128.50821,56.83319],[-128.50196,56.83319],[-128.50196,56.83736],[-128.50196,56.84152],[-128.50196,56.84569],[-128.50196,56.84986],[-128.49571,56.84986],[-128.48946,56.84986],[-128.48321,56.84986],[-128.47696,56.84986],[-128.47071,56.84986],[-128.46446,56.84986],[-128.46446,56.84569],[-128.46446,56.84152]]]}},{"type":"Feature","properties":{"c":"418957","o":"ATRUM COAL PANORAMA INC.","e":"2027-09-12Z"},"geometry":{"type":"Polygon","coordinates":[[[-128.50196,56.84986],[-128.50196,56.85402],[-128.50196,56.85819],[-128.50196,56.86236],[-128.50196,56.86652],[-128.50196,56.87069],[-128.50196,56.87486],[-128.50196,56.87902],[-128.50196,56.88319],[-128.50196,56.88736],[-128.50196,56.89152],[-128.49571,56.89152],[-128.48946,56.89152],[-128.48321,56.89152],[-128.47696,56.89152],[-128.47071,56.89152],[-128.46446,56.89152],[-128.45821,56.89152],[-128.45196,56.89152],[-128.45196,56.88736],[-128.45196,56.88319],[-128.45196,56.87902],[-128.45196,56.87486],[-128.45196,56.87069],[-128.45196,56.86652],[-128.45196,56.86236],[-128.45196,56.85819],[-128.45196,56.85402],[-128.45196,56.84986],[-128.45821,56.84986],[-128.46446,56.84986],[-128.47071,56.84986],[-128.47696,56.84986],[-128.48321,56.84986],[-128.48946,56.84986],[-128.49571,56.84986],[-128.50196,56.84986]]]}},{"type":"Feature","properties":{"c":"418958","o":"ATRUM COAL PANORAMA INC.","e":"2027-09-12Z"},"geometry":{"type":"Polygon","coordinates":[[[-128.50196,56.87902],[-128.50196,56.87486],[-128.50196,56.87069],[-128.50196,56.86652],[-128.50196,56.86236],[-128.50196,56.85819],[-128.50196,56.85402],[-128.50196,56.84986],[-128.50821,56.84986],[-128.51446,56.84986],[-128.52071,56.84986],[-128.52696,56.84986],[-128.52696,56.85402],[-128.52696,56.85819],[-128.53321,56.85819],[-128.53946,56.85819],[-128.54571,56.85819],[-128.55196,56.85819],[-128.55196,56.86236],[-128.55196,56.86652],[-128.55196,56.87069],[-128.55196,56.87486],[-128.55197,56.87902],[-128.55197,56.88319],[-128.55822,56.88319],[-128.56447,56.88319],[-128.56447,56.88736],[-128.56447,56.89152],[-128.55822,56.89152],[-128.55197,56.89152],[-128.54572,56.89152],[-128.53946,56.89152],[-128.53321,56.89152],[-128.52696,56.89152],[-128.52071,56.89152],[-128.51446,56.89152],[-128.50821,56.89152],[-128.50196,56.89152],[-128.50196,56.88736],[-128.50196,56.88319],[-128.50196,56.87902]]]}},{"type":"Feature","properties":{"c":"417084","o":"ATRUM COAL PANORAMA INC.","e":"2027-05-31Z"},"geometry":{"type":"Polygon","coordinates":[[[-128.53946,56.85402],[-128.53946,56.84986],[-128.53946,56.84569],[-128.53946,56.84152],[-128.53946,56.83736],[-128.53946,56.83319],[-128.54571,56.83319],[-128.55196,56.83319],[-128.55196,56.83736],[-128.55196,56.84152],[-128.55821,56.84152],[-128.56446,56.84152],[-128.57071,56.84152],[-128.57696,56.84152],[-128.58321,56.84152],[-128.58947,56.84152],[-128.59572,56.84152],[-128.60197,56.84152],[-128.60197,56.84569],[-128.60197,56.84986],[-128.59572,56.84986],[-128.58947,56.84986],[-128.58947,56.85402],[-128.58947,56.85819],[-128.58322,56.85819],[-128.57697,56.85819],[-128.57072,56.85819],[-128.56446,56.85819],[-128.55821,56.85819],[-128.55196,56.85819],[-128.54571,56.85819],[-128.53946,56.85819],[-128.53946,56.85402]]]}},{"type":"Feature","properties":{"c":"417086","o":"ATRUM COAL PANORAMA INC.","e":"2027-05-31Z"},"geometry":{"type":"Polygon","coordinates":[[[-128.57697,56.86236],[-128.57697,56.86652],[-128.57072,56.86652],[-128.56447,56.86652],[-128.55821,56.86652],[-128.55196,56.86652],[-128.55196,56.86236],[-128.55196,56.85819],[-128.55821,56.85819],[-128.56446,56.85819],[-128.57072,56.85819],[-128.57697,56.85819],[-128.57697,56.86236]]]}},{"type":"Feature","properties":{"c":"417292","o":"ATRUM COAL PANORAMA INC.","e":"2027-05-31Z"},"geometry":{"type":"Polygon","coordinates":[[[-128.55196,56.83319],[-128.55821,56.83319],[-128.55833,56.83319],[-128.55833,56.83333],[-128.6,56.83333],[-128.60197,56.83333],[-128.60197,56.83736],[-128.60197,56.84152],[-128.59572,56.84152],[-128.58947,56.84152],[-128.58321,56.84152],[-128.57696,56.84152],[-128.57071,56.84152],[-128.56446,56.84152],[-128.55821,56.84152],[-128.55196,56.84152],[-128.55196,56.83736],[-128.55196,56.83319]]]}},{"type":"Feature","properties":{"c":"417296","o":"ATRUM COAL PANORAMA INC.","e":"2027-05-31Z"},"geometry":{"type":"Polygon","coordinates":[[[-128.53946,56.83736],[-128.53946,56.84152],[-128.53321,56.84152],[-128.52696,56.84152],[-128.52696,56.83736],[-128.52696,56.83319],[-128.53321,56.83319],[-128.53946,56.83319],[-128.53946,56.83736]]]}},{"type":"Feature","properties":{"c":"417299","o":"ATRUM COAL PANORAMA INC.","e":"2027-05-31Z"},"geometry":{"type":"Polygon","coordinates":[[[-128.57697,56.86652],[-128.57697,56.86236],[-128.57697,56.85819],[-128.58322,56.85819],[-128.58947,56.85819],[-128.58947,56.85402],[-128.58947,56.84986],[-128.59572,56.84986],[-128.60197,56.84986],[-128.60197,56.84569],[-128.60197,56.84152],[-128.60822,56.84152],[-128.61447,56.84152],[-128.61447,56.84569],[-128.61447,56.84985],[-128.62072,56.84985],[-128.62697,56.84985],[-128.62697,56.85402],[-128.62697,56.85819],[-128.62697,56.86235],[-128.62697,56.86652],[-128.62072,56.86652],[-128.61447,56.86652],[-128.61447,56.87069],[-128.61447,56.87486],[-128.60822,56.87486],[-128.60197,56.87486],[-128.59572,56.87486],[-128.58947,56.87486],[-128.58322,56.87486],[-128.57697,56.87486],[-128.57697,56.87069],[-128.57697,56.86652]]]}},{"type":"Feature","properties":{"c":"417525","o":"ATRUM COAL PANORAMA INC.","e":"2027-05-31Z"},"geometry":{"type":"Polygon","coordinates":[[[-128.52696,56.83736],[-128.52696,56.84152],[-128.53321,56.84152],[-128.53946,56.84152],[-128.53946,56.84569],[-128.53946,56.84986],[-128.53946,56.85402],[-128.53946,56.85819],[-128.53321,56.85819],[-128.52696,56.85819],[-128.52696,56.85402],[-128.52696,56.84986],[-128.52071,56.84986],[-128.51446,56.84986],[-128.50821,56.84986],[-128.50196,56.84986],[-128.50196,56.84569],[-128.50196,56.84152],[-128.50196,56.83736],[-128.50196,56.83319],[-128.50821,56.83319],[-128.51446,56.83319],[-128.52071,56.83319],[-128.52696,56.83319],[-128.52696,56.83736]]]}},{"type":"Feature","properties":{"c":"417526","o":"ATRUM COAL PANORAMA INC.","e":"2027-05-31Z"},"geometry":{"type":"Polygon","coordinates":[[[-128.56447,56.88319],[-128.55822,56.88319],[-128.55197,56.88319],[-128.55197,56.87902],[-128.55196,56.87486],[-128.55196,56.87069],[-128.55196,56.86652],[-128.55821,56.86652],[-128.56447,56.86652],[-128.57072,56.86652],[-128.57697,56.86652],[-128.57697,56.87069],[-128.57697,56.87486],[-128.58322,56.87486],[-128.58947,56.87486],[-128.59572,56.87486],[-128.60197,56.87486],[-128.60822,56.87486],[-128.61447,56.87486],[-128.61447,56.87902],[-128.61447,56.88319],[-128.60822,56.88319],[-128.60197,56.88319],[-128.60197,56.88736],[-128.60197,56.89152],[-128.59572,56.89152],[-128.58947,56.89152],[-128.58322,56.89152],[-128.57697,56.89152],[-128.57072,56.89152],[-128.56447,56.89152],[-128.56447,56.88736],[-128.56447,56.88319]]]}},{"type":"Feature","properties":{"c":"417527","o":"ATRUM COAL PANORAMA INC.","e":"2027-05-31Z"},"geometry":{"type":"Polygon","coordinates":[[[-128.62697,56.87069],[-128.62697,56.87486],[-128.62072,56.87486],[-128.61447,56.87486],[-128.61447,56.87069],[-128.61447,56.86652],[-128.62072,56.86652],[-128.62697,56.86652],[-128.62697,56.87069]]]}}]}