{"type":"FeatureCollection","features":[{"type":"Feature","properties":{"c":"M12067","o":"Rackla Metals Inc. (100%)","e":"2026-07-11"},"geometry":{"type":"Polygon","coordinates":[[[-129.0,63.0],[-129.0,63.0],[-129.0,63.0],[-129.0,63.0]]]}},{"type":"Feature","properties":{"c":"M12066","o":"Rackla Metals Inc. (100%)","e":"2026-07-11"},"geometry":{"type":"Polygon","coordinates":[[[-129.0,63.0],[-129.0,63.0],[-129.0,63.0],[-129.0,63.0]]]}},{"type":"Feature","properties":{"c":"M12068","o":"Rackla Metals Inc. (100%)","e":"2026-07-11"},"geometry":{"type":"Polygon","coordinates":[[[-129.0,63.0],[-129.0,63.0],[-129.0,63.0],[-129.0,63.0]]]}},{"type":"Feature","properties":{"c":"M12069","o":"Rackla Metals Inc. (100%)","e":"2026-07-11"},"geometry":{"type":"Polygon","coordinates":[[[-129.0,63.0],[-129.0,63.0],[-129.0,63.0],[-129.0,63.0]]]}},{"type":"Feature","properties":{"c":"M12071","o":"Rackla Metals Inc. (100%)","e":"2026-09-17"},"geometry":{"type":"Polygon","coordinates":[[[-129.0,63.0],[-129.0,63.0],[-129.0,63.0],[-129.0,63.0]]]}},{"type":"Feature","properties":{"c":"M12072","o":"Rackla Metals Inc. (100%)","e":"2026-09-17"},"geometry":{"type":"Polygon","coordinates":[[[-129.0,63.0],[-129.0,63.0],[-129.0,63.0],[-129.0,63.0]]]}},{"type":"Feature","properties":{"c":"M12073","o":"Rackla Metals Inc. (100%)","e":"2026-09-17"},"geometry":{"type":"Polygon","coordinates":[[[-129.0,63.0],[-129.0,63.0],[-129.0,63.0],[-129.0,63.0]]]}},{"type":"Feature","properties":{"c":"M12058","o":"Rackla Metals Inc. (100%)","e":"2027-09-03"},"geometry":{"type":"Polygon","coordinates":[[[-129.0,63.0],[-129.0,63.0],[-129.0,63.0],[-129.0,63.0]]]}},{"type":"Feature","properties":{"c":"M12057","o":"Rackla Metals Inc. (100%)","e":"2027-09-03"},"geometry":{"type":"Polygon","coordinates":[[[-129.0,63.0],[-129.0,63.0],[-129.0,63.0],[-129.0,63.0]]]}},{"type":"Feature","properties":{"c":"M12059","o":"Rackla Metals Inc. (100%)","e":"2027-09-03"},"geometry":{"type":"Polygon","coordinates":[[[-129.0,63.0],[-129.0,63.0],[-129.0,63.0],[-129.0,63.0]]]}},{"type":"Feature","properties":{"c":"M12060","o":"Rackla Metals Inc. (100%)","e":"2027-09-03"},"geometry":{"type":"Polygon","coordinates":[[[-129.0,63.0],[-129.0,63.0],[-129.0,63.0],[-129.0,63.0]]]}},{"type":"Feature","properties":{"c":"M12062","o":"Rackla Metals Inc. (100%)","e":"2027-09-17"},"geometry":{"type":"Polygon","coordinates":[[[-129.0,63.0],[-129.0,63.0],[-129.0,63.0],[-129.0,63.0]]]}},{"type":"Feature","properties":{"c":"M12521","o":"508381 Northwest Territories Limited (100%)","e":"2027-10-10"},"geometry":{"type":"Polygon","coordinates":[[[-129.0,63.0],[-129.0,63.0],[-129.0,63.0],[-129.0,63.0]]]}},{"type":"Feature","properties":{"c":"M12522","o":"508381 Northwest Territories Limited (100%)","e":"2027-10-10"},"geometry":{"type":"Polygon","coordinates":[[[-129.0,63.0],[-129.0,63.0],[-129.0,63.0],[-129.0,63.0]]]}},{"type":"Feature","properties":{"c":"M12526","o":"508381 Northwest Territories Limited (100%)","e":"2027-10-10"},"geometry":{"type":"Polygon","coordinates":[[[-129.0,63.0],[-129.0,63.0],[-129.0,63.0],[-129.0,63.0]]]}},{"type":"Feature","properties":{"c":"M12525","o":"508381 Northwest Territories Limited (100%)","e":"2027-10-10"},"geometry":{"type":"Polygon","coordinates":[[[-129.0,63.0],[-129.0,63.0],[-129.0,63.0],[-129.0,63.0]]]}},{"type":"Feature","properties":{"c":"M12524","o":"508381 Northwest Territories Limited (100%)","e":"2027-10-10"},"geometry":{"type":"Polygon","coordinates":[[[-129.0,63.0],[-129.0,63.0],[-129.0,63.0],[-129.0,63.0]]]}},{"type":"Feature","properties":{"c":"M12523","o":"508381 Northwest Territories Limited (100%)","e":"2027-10-10"},"geometry":{"type":"Polygon","coordinates":[[[-129.0,63.0],[-129.0,63.0],[-129.0,63.0],[-129.0,63.0]]]}},{"type":"Feature","properties":{"c":"M12513","o":"508381 Northwest Territories Limited (100%)","e":"2027-10-10"},"geometry":{"type":"Polygon","coordinates":[[[-129.0,63.0],[-129.0,63.0],[-129.0,63.0],[-129.0,63.0]]]}},{"type":"Feature","properties":{"c":"M12512","o":"508381 Northwest Territories Limited (100%)","e":"2027-10-10"},"geometry":{"type":"Polygon","coordinates":[[[-129.0,63.0],[-129.0,63.0],[-129.0,63.0],[-129.0,63.0]]]}},{"type":"Feature","properties":{"c":"M12511","o":"508381 Northwest Territories Limited (100%)","e":"2027-10-10"},"geometry":{"type":"Polygon","coordinates":[[[-129.0,63.0],[-129.0,63.0],[-129.0,63.0],[-129.0,63.0]]]}},{"type":"Feature","properties":{"c":"M12517","o":"508381 Northwest Territories Limited (100%)","e":"2027-10-10"},"geometry":{"type":"Polygon","coordinates":[[[-129.0,63.0],[-129.0,63.0],[-129.0,63.0],[-129.0,63.0]]]}},{"type":"Feature","properties":{"c":"M12518","o":"508381 Northwest Territories Limited (100%)","e":"2027-10-10"},"geometry":{"type":"Polygon","coordinates":[[[-129.0,63.0],[-129.0,63.0],[-129.0,63.0],[-129.0,63.0]]]}},{"type":"Feature","properties":{"c":"M12519","o":"508381 Northwest Territories Limited (100%)","e":"2027-10-10"},"geometry":{"type":"Polygon","coordinates":[[[-129.0,63.0],[-129.0,63.0],[-129.0,63.0],[-129.0,63.0]]]}},{"type":"Feature","properties":{"c":"M12516","o":"508381 Northwest Territories Limited (100%)","e":"2027-10-10"},"geometry":{"type":"Polygon","coordinates":[[[-129.0,63.0],[-129.0,63.0],[-129.0,63.0],[-129.0,63.0]]]}},{"type":"Feature","properties":{"c":"M12510","o":"508381 Northwest Territories Limited (100%)","e":"2027-10-10"},"geometry":{"type":"Polygon","coordinates":[[[-129.0,63.0],[-129.0,63.0],[-129.0,63.0],[-129.0,63.0]]]}},{"type":"Feature","properties":{"c":"M12505","o":"508381 Northwest Territories Limited (100%)","e":"2027-10-10"},"geometry":{"type":"Polygon","coordinates":[[[-129.0,63.0],[-129.0,63.0],[-129.0,63.0],[-129.0,63.0]]]}},{"type":"Feature","properties":{"c":"M12499","o":"508381 Northwest Territories Limited (100%)","e":"2027-10-10"},"geometry":{"type":"Polygon","coordinates":[[[-129.0,63.0],[-129.0,63.0],[-129.0,63.0],[-129.0,63.0]]]}},{"type":"Feature","properties":{"c":"M12498","o":"508381 Northwest Territories Limited (100%)","e":"2027-10-10"},"geometry":{"type":"Polygon","coordinates":[[[-129.0,63.0],[-129.0,63.0],[-129.0,63.0],[-129.0,63.0]]]}},{"type":"Feature","properties":{"c":"M12497","o":"508381 Northwest Territories Limited (100%)","e":"2027-10-10"},"geometry":{"type":"Polygon","coordinates":[[[-129.0,63.0],[-129.0,63.0],[-129.0,63.0],[-129.0,63.0]]]}},{"type":"Feature","properties":{"c":"M12496","o":"508381 Northwest Territories Limited (100%)","e":"2027-10-10"},"geometry":{"type":"Polygon","coordinates":[[[-129.0,63.0],[-129.0,63.0],[-129.0,63.0],[-129.0,63.0]]]}},{"type":"Feature","properties":{"c":"M12495","o":"508381 Northwest Territories Limited (100%)","e":"2027-10-10"},"geometry":{"type":"Polygon","coordinates":[[[-129.0,63.0],[-129.0,63.0],[-129.0,63.0],[-129.0,63.0]]]}},{"type":"Feature","properties":{"c":"M12500","o":"508381 Northwest Territories Limited (100%)","e":"2027-10-10"},"geometry":{"type":"Polygon","coordinates":[[[-129.0,63.0],[-129.0,63.0],[-129.0,63.0],[-129.0,63.0]]]}},{"type":"Feature","properties":{"c":"M12501","o":"508381 Northwest Territories Limited (100%)","e":"2027-10-10"},"geometry":{"type":"Polygon","coordinates":[[[-129.0,63.0],[-129.0,63.0],[-129.0,63.0],[-129.0,63.0]]]}},{"type":"Feature","properties":{"c":"M12502","o":"508381 Northwest Territories Limited (100%)","e":"2027-10-10"},"geometry":{"type":"Polygon","coordinates":[[[-129.0,63.0],[-129.0,63.0],[-129.0,63.0],[-129.0,63.0]]]}},{"type":"Feature","properties":{"c":"M12503","o":"508381 Northwest Territories Limited (100%)","e":"2027-10-10"},"geometry":{"type":"Polygon","coordinates":[[[-129.0,63.0],[-129.0,63.0],[-129.0,63.0],[-129.0,63.0]]]}},{"type":"Feature","properties":{"c":"M12504","o":"508381 Northwest Territories Limited (100%)","e":"2027-10-10"},"geometry":{"type":"Polygon","coordinates":[[[-129.0,63.0],[-129.0,63.0],[-129.0,63.0],[-129.0,63.0]]]}},{"type":"Feature","properties":{"c":"M12507","o":"508381 Northwest Territories Limited (100%)","e":"2027-10-10"},"geometry":{"type":"Polygon","coordinates":[[[-129.0,63.0],[-129.0,63.0],[-129.0,63.0],[-129.0,63.0]]]}},{"type":"Feature","properties":{"c":"M12509","o":"508381 Northwest Territories Limited (100%)","e":"2027-10-10"},"geometry":{"type":"Polygon","coordinates":[[[-129.0,63.0],[-129.0,63.0],[-129.0,63.0],[-129.0,63.0]]]}},{"type":"Feature","properties":{"c":"M12508","o":"508381 Northwest Territories Limited (100%)","e":"2027-10-10"},"geometry":{"type":"Polygon","coordinates":[[[-129.0,63.0],[-129.0,63.0],[-129.0,63.0],[-129.0,63.0]]]}},{"type":"Feature","properties":{"c":"M12514","o":"508381 Northwest Territories Limited (100%)","e":"2027-10-10"},"geometry":{"type":"Polygon","coordinates":[[[-129.0,63.0],[-129.0,63.0],[-129.0,63.0],[-129.0,63.0]]]}},{"type":"Feature","properties":{"c":"M12515","o":"508381 Northwest Territories Limited (100%)","e":"2027-10-10"},"geometry":{"type":"Polygon","coordinates":[[[-129.0,63.0],[-129.0,63.0],[-129.0,63.0],[-129.0,63.0]]]}},{"type":"Feature","properties":{"c":"M12506","o":"508381 Northwest Territories Limited (100%)","e":"2027-10-10"},"geometry":{"type":"Polygon","coordinates":[[[-129.0,63.0],[-129.0,63.0],[-129.0,63.0],[-129.0,63.0]]]}},{"type":"Feature","properties":{"c":"M12544","o":"508381 Northwest Territories Limited (100%)","e":"2027-10-10"},"geometry":{"type":"Polygon","coordinates":[[[-129.0,63.0],[-129.0,63.0],[-129.0,63.0],[-129.0,63.0]]]}},{"type":"Feature","properties":{"c":"M12545","o":"508381 Northwest Territories Limited (100%)","e":"2027-10-10"},"geometry":{"type":"Polygon","coordinates":[[[-129.0,63.0],[-129.0,63.0],[-129.0,63.0],[-129.0,63.0]]]}},{"type":"Feature","properties":{"c":"M12543","o":"508381 Northwest Territories Limited (100%)","e":"2027-10-10"},"geometry":{"type":"Polygon","coordinates":[[[-129.0,63.0],[-129.0,63.0],[-129.0,63.0],[-129.0,63.0]]]}},{"type":"Feature","properties":{"c":"M12542","o":"508381 Northwest Territories Limited (100%)","e":"2027-10-10"},"geometry":{"type":"Polygon","coordinates":[[[-130.0,63.0],[-129.0,63.0],[-130.0,63.0],[-130.0,63.0]]]}},{"type":"Feature","properties":{"c":"M12546","o":"508381 Northwest Territories Limited (100%)","e":"2027-10-10"},"geometry":{"type":"Polygon","coordinates":[[[-129.0,63.0],[-129.0,63.0],[-129.0,63.0],[-129.0,63.0]]]}},{"type":"Feature","properties":{"c":"M12550","o":"508381 Northwest Territories Limited (100%)","e":"2027-10-10"},"geometry":{"type":"Polygon","coordinates":[[[-129.0,63.0],[-129.0,63.0],[-129.0,63.0],[-129.0,63.0]]]}},{"type":"Feature","properties":{"c":"M12549","o":"508381 Northwest Territories Limited (100%)","e":"2027-10-10"},"geometry":{"type":"Polygon","coordinates":[[[-129.0,63.0],[-129.0,63.0],[-129.0,63.0],[-129.0,63.0]]]}},{"type":"Feature","properties":{"c":"M12548","o":"508381 Northwest Territories Limited (100%)","e":"2027-10-10"},"geometry":{"type":"Polygon","coordinates":[[[-129.0,63.0],[-129.0,63.0],[-130.0,63.0],[-129.0,63.0]]]}},{"type":"Feature","properties":{"c":"M12552","o":"508381 Northwest Territories Limited (100%)","e":"2027-10-10"},"geometry":{"type":"Polygon","coordinates":[[[-129.0,63.0],[-130.0,63.0],[-130.0,63.0],[-129.0,63.0]]]}},{"type":"Feature","properties":{"c":"M12553","o":"508381 Northwest Territories Limited (100%)","e":"2027-10-10"},"geometry":{"type":"Polygon","coordinates":[[[-129.0,63.0],[-129.0,63.0],[-129.0,63.0],[-129.0,63.0]]]}},{"type":"Feature","properties":{"c":"M12554","o":"508381 Northwest Territories Limited (100%)","e":"2027-10-10"},"geometry":{"type":"Polygon","coordinates":[[[-129.0,63.0],[-129.0,63.0],[-129.0,63.0],[-129.0,63.0]]]}}]}