{"type":"FeatureCollection","features":[{"type":"Feature","properties":{"c":"606963","o":"AVANTI KITSAULT MINE LTD","e":"2027-03-10Z"},"geometry":{"type":"Polygon","coordinates":[[[-129.33919,55.44559],[-129.33294,55.44559],[-129.32669,55.44559],[-129.32044,55.44559],[-129.32044,55.44976],[-129.31419,55.44976],[-129.30794,55.44976],[-129.30169,55.44976],[-129.30169,55.4456],[-129.30169,55.44143],[-129.30169,55.43726],[-129.30169,55.43309],[-129.30794,55.43309],[-129.31419,55.43309],[-129.32044,55.43309],[-129.32044,55.43726],[-129.32669,55.43726],[-129.33294,55.43726],[-129.33919,55.43726],[-129.33919,55.44143],[-129.33919,55.44559]]]}},{"type":"Feature","properties":{"c":"606964","o":"AVANTI KITSAULT MINE LTD","e":"2027-03-10Z"},"geometry":{"type":"Polygon","coordinates":[[[-129.31419,55.46226],[-129.31419,55.46643],[-129.30794,55.46643],[-129.30794,55.46226],[-129.31419,55.46226]]]}},{"type":"Feature","properties":{"c":"862828","o":"AVANTI KITSAULT MINE LTD","e":"2028-10-01Z"},"geometry":{"type":"Polygon","coordinates":[[[-129.4142,55.45809],[-129.4142,55.46226],[-129.40795,55.46226],[-129.40795,55.45809],[-129.4142,55.45809]]]}},{"type":"Feature","properties":{"c":"510226","o":"AVANTI KITSAULT MINE LTD","e":"2027-03-10Z"},"geometry":{"type":"Polygon","coordinates":[[[-129.5017,55.41642],[-129.49545,55.41642],[-129.4892,55.41642],[-129.48295,55.41642],[-129.4767,55.41642],[-129.47045,55.41642],[-129.4642,55.41642],[-129.4642,55.41226],[-129.45795,55.41226],[-129.45795,55.40809],[-129.4642,55.40809],[-129.47045,55.40809],[-129.4767,55.40809],[-129.48295,55.40809],[-129.4892,55.40809],[-129.49545,55.40809],[-129.5017,55.40809],[-129.5017,55.41226],[-129.5017,55.41642]]]}},{"type":"Feature","properties":{"c":"517362","o":"AVANTI KITSAULT MINE LTD","e":"2027-03-10Z"},"geometry":{"type":"Polygon","coordinates":[[[-129.4642,55.40809],[-129.45795,55.40809],[-129.45795,55.40392],[-129.4517,55.40392],[-129.44545,55.40392],[-129.4392,55.40392],[-129.43295,55.40392],[-129.43295,55.39976],[-129.4392,55.39976],[-129.44545,55.39976],[-129.4517,55.39976],[-129.45795,55.39976],[-129.4642,55.39976],[-129.4642,55.40392],[-129.4642,55.40809]]]}},{"type":"Feature","properties":{"c":"517367","o":"AVANTI KITSAULT MINE LTD","e":"2027-03-10Z"},"geometry":{"type":"Polygon","coordinates":[[[-129.5017,55.42892],[-129.5017,55.43309],[-129.49545,55.43309],[-129.49545,55.42892],[-129.5017,55.42892]]]}},{"type":"Feature","properties":{"c":"527089","o":"AVANTI KITSAULT MINE LTD","e":"2027-03-10Z"},"geometry":{"type":"Polygon","coordinates":[[[-129.4642,55.38726],[-129.4642,55.39142],[-129.4642,55.39559],[-129.4642,55.39976],[-129.45795,55.39976],[-129.4517,55.39976],[-129.44545,55.39976],[-129.4392,55.39976],[-129.43295,55.39976],[-129.43295,55.39559],[-129.43295,55.39142],[-129.43295,55.38726],[-129.43295,55.38309],[-129.43295,55.37892],[-129.4392,55.37892],[-129.44545,55.37892],[-129.4517,55.37892],[-129.45795,55.37892],[-129.4642,55.37892],[-129.4642,55.38309],[-129.4642,55.38726]]]}},{"type":"Feature","properties":{"c":"530006","o":"AVANTI KITSAULT MINE LTD","e":"2027-03-10Z"},"geometry":{"type":"Polygon","coordinates":[[[-129.3892,55.47059],[-129.3892,55.47476],[-129.38294,55.47476],[-129.37669,55.47476],[-129.37044,55.47476],[-129.36419,55.47476],[-129.35794,55.47476],[-129.35794,55.47893],[-129.35169,55.47893],[-129.34544,55.47893],[-129.33919,55.47893],[-129.33294,55.47893],[-129.32669,55.47893],[-129.32044,55.47893],[-129.31419,55.47893],[-129.30794,55.47893],[-129.30794,55.47476],[-129.30794,55.4706],[-129.31419,55.4706],[-129.32044,55.4706],[-129.32669,55.4706],[-129.33294,55.4706],[-129.33919,55.47059],[-129.34544,55.47059],[-129.35169,55.47059],[-129.35794,55.47059],[-129.35794,55.46643],[-129.36419,55.46643],[-129.37044,55.46643],[-129.37669,55.46643],[-129.37669,55.47059],[-129.38295,55.47059],[-129.3892,55.47059]]]}},{"type":"Feature","properties":{"c":"530007","o":"AVANTI KITSAULT MINE LTD","e":"2027-03-10Z"},"geometry":{"type":"Polygon","coordinates":[[[-129.4392,55.46226],[-129.4392,55.46643],[-129.43295,55.46643],[-129.4267,55.46643],[-129.4267,55.47059],[-129.42045,55.47059],[-129.42045,55.46643],[-129.42045,55.46226],[-129.4267,55.46226],[-129.43295,55.46226],[-129.4392,55.46226]]]}},{"type":"Feature","properties":{"c":"530008","o":"AVANTI KITSAULT MINE LTD","e":"2028-10-01Z"},"geometry":{"type":"Polygon","coordinates":[[[-129.4017,55.45809],[-129.4017,55.46226],[-129.39545,55.46226],[-129.3892,55.46226],[-129.3892,55.46643],[-129.3892,55.47059],[-129.38295,55.47059],[-129.37669,55.47059],[-129.37669,55.46643],[-129.37044,55.46643],[-129.36419,55.46643],[-129.35794,55.46643],[-129.35794,55.47059],[-129.35169,55.47059],[-129.35169,55.46643],[-129.35169,55.46226],[-129.35794,55.46226],[-129.36419,55.46226],[-129.37044,55.46226],[-129.3767,55.46226],[-129.38295,55.46226],[-129.38295,55.45809],[-129.3892,55.45809],[-129.39545,55.45809],[-129.4017,55.45809]]]}},{"type":"Feature","properties":{"c":"530009","o":"AVANTI KITSAULT MINE LTD","e":"2027-03-10Z"},"geometry":{"type":"Polygon","coordinates":[[[-129.32669,55.46643],[-129.32669,55.4706],[-129.32044,55.4706],[-129.31419,55.4706],[-129.30794,55.4706],[-129.30794,55.46643],[-129.31419,55.46643],[-129.32044,55.46643],[-129.32669,55.46643]]]}},{"type":"Feature","properties":{"c":"530826","o":"AVANTI KITSAULT MINE LTD","e":"2028-10-01Z"},"geometry":{"type":"Polygon","coordinates":[[[-129.48295,55.45809],[-129.48295,55.46226],[-129.4767,55.46226],[-129.47045,55.46226],[-129.4642,55.46226],[-129.45795,55.46226],[-129.4517,55.46226],[-129.44545,55.46226],[-129.4392,55.46226],[-129.43295,55.46226],[-129.4267,55.46226],[-129.42045,55.46226],[-129.42045,55.45809],[-129.42045,55.45393],[-129.4267,55.45393],[-129.43295,55.45393],[-129.43295,55.44976],[-129.4392,55.44976],[-129.44545,55.44976],[-129.4517,55.44976],[-129.45795,55.44976],[-129.45795,55.45393],[-129.4642,55.45392],[-129.4642,55.45809],[-129.47045,55.45809],[-129.4767,55.45809],[-129.48295,55.45809]]]}},{"type":"Feature","properties":{"c":"530827","o":"AVANTI KITSAULT MINE LTD","e":"2027-03-10Z"},"geometry":{"type":"Polygon","coordinates":[[[-129.42045,55.47059],[-129.4142,55.47059],[-129.40795,55.47059],[-129.4017,55.47059],[-129.39545,55.47059],[-129.3892,55.47059],[-129.3892,55.46643],[-129.3892,55.46226],[-129.39545,55.46226],[-129.4017,55.46226],[-129.40795,55.46226],[-129.4142,55.46226],[-129.42045,55.46226],[-129.42045,55.46643],[-129.42045,55.47059]]]}},{"type":"Feature","properties":{"c":"530884","o":"AVANTI KITSAULT MINE LTD","e":"2028-10-01Z"},"geometry":{"type":"Polygon","coordinates":[[[-129.43295,55.44976],[-129.43295,55.45393],[-129.4267,55.45393],[-129.42045,55.45393],[-129.42045,55.44976],[-129.4267,55.44976],[-129.43295,55.44976]]]}},{"type":"Feature","properties":{"c":"530885","o":"AVANTI KITSAULT MINE LTD","e":"2027-03-10Z"},"geometry":{"type":"Polygon","coordinates":[[[-129.4642,55.44976],[-129.4642,55.45392],[-129.45795,55.45393],[-129.45795,55.44976],[-129.4642,55.44976]]]}},{"type":"Feature","properties":{"c":"530886","o":"AVANTI KITSAULT MINE LTD","e":"2027-03-10Z"},"geometry":{"type":"Polygon","coordinates":[[[-129.47045,55.45392],[-129.47045,55.45809],[-129.4642,55.45809],[-129.4642,55.45392],[-129.47045,55.45392]]]}},{"type":"Feature","properties":{"c":"530887","o":"AVANTI KITSAULT MINE LTD","e":"2027-03-10Z"},"geometry":{"type":"Polygon","coordinates":[[[-129.4892,55.45809],[-129.48295,55.45809],[-129.4767,55.45809],[-129.4767,55.45392],[-129.48295,55.45392],[-129.48295,55.44976],[-129.4892,55.44976],[-129.4892,55.45392],[-129.4892,55.45809]]]}},{"type":"Feature","properties":{"c":"530891","o":"AVANTI KITSAULT MINE LTD","e":"2027-03-10Z"},"geometry":{"type":"Polygon","coordinates":[[[-129.35169,55.44143],[-129.35169,55.44559],[-129.34544,55.44559],[-129.33919,55.44559],[-129.33919,55.44143],[-129.34544,55.44143],[-129.35169,55.44143]]]}},{"type":"Feature","properties":{"c":"530893","o":"AVANTI KITSAULT MINE LTD","e":"2027-03-10Z"},"geometry":{"type":"Polygon","coordinates":[[[-129.33919,55.42893],[-129.33919,55.43309],[-129.33919,55.43726],[-129.33294,55.43726],[-129.32669,55.43726],[-129.32044,55.43726],[-129.32044,55.43309],[-129.32044,55.42893],[-129.32044,55.42476],[-129.32044,55.42059],[-129.32669,55.42059],[-129.33294,55.42059],[-129.3392,55.42059],[-129.3392,55.42476],[-129.33919,55.42893]]]}},{"type":"Feature","properties":{"c":"530914","o":"AVANTI KITSAULT MINE LTD","e":"2027-03-10Z"},"geometry":{"type":"Polygon","coordinates":[[[-129.35795,55.44143],[-129.35794,55.44559],[-129.35169,55.44559],[-129.35169,55.44143],[-129.35795,55.44143]]]}},{"type":"Feature","properties":{"c":"555363","o":"AVANTI KITSAULT MINE LTD","e":"2027-03-10Z"},"geometry":{"type":"Polygon","coordinates":[[[-129.29545,55.39143],[-129.29545,55.39559],[-129.2892,55.39559],[-129.28295,55.39559],[-129.2767,55.39559],[-129.27045,55.39559],[-129.27045,55.39143],[-129.27045,55.38726],[-129.27045,55.38309],[-129.2767,55.38309],[-129.28295,55.38309],[-129.2892,55.38309],[-129.29545,55.38309],[-129.29545,55.38726],[-129.29545,55.39143]]]}},{"type":"Feature","properties":{"c":"564915","o":"AVANTI KITSAULT MINE LTD","e":"2027-03-10Z"},"geometry":{"type":"Polygon","coordinates":[[[-129.32044,55.42893],[-129.32044,55.43309],[-129.31419,55.43309],[-129.30794,55.43309],[-129.30169,55.43309],[-129.29544,55.43309],[-129.28919,55.43309],[-129.28294,55.4331],[-129.27669,55.4331],[-129.27044,55.4331],[-129.27044,55.42893],[-129.27044,55.42476],[-129.27044,55.4206],[-129.27669,55.42059],[-129.28294,55.42059],[-129.28919,55.42059],[-129.29544,55.42059],[-129.30169,55.42059],[-129.30794,55.42059],[-129.31419,55.42059],[-129.32044,55.42059],[-129.32044,55.42476],[-129.32044,55.42893]]]}},{"type":"Feature","properties":{"c":"564916","o":"AVANTI KITSAULT MINE LTD","e":"2027-03-10Z"},"geometry":{"type":"Polygon","coordinates":[[[-129.3392,55.41643],[-129.3392,55.42059],[-129.33294,55.42059],[-129.32669,55.42059],[-129.32044,55.42059],[-129.31419,55.42059],[-129.30794,55.42059],[-129.30169,55.42059],[-129.29544,55.42059],[-129.28919,55.42059],[-129.28919,55.41643],[-129.28919,55.41226],[-129.28919,55.40809],[-129.29544,55.40809],[-129.3017,55.40809],[-129.30795,55.40809],[-129.3142,55.40809],[-129.32045,55.40809],[-129.3267,55.40809],[-129.33295,55.40809],[-129.3392,55.40809],[-129.3392,55.41226],[-129.3392,55.41643]]]}},{"type":"Feature","properties":{"c":"564917","o":"AVANTI KITSAULT MINE LTD","e":"2027-03-10Z"},"geometry":{"type":"Polygon","coordinates":[[[-129.28919,55.41643],[-129.28919,55.42059],[-129.28294,55.42059],[-129.27669,55.42059],[-129.27044,55.4206],[-129.27044,55.42476],[-129.27044,55.42893],[-129.27044,55.4331],[-129.26419,55.4331],[-129.25794,55.4331],[-129.25794,55.42893],[-129.25794,55.42476],[-129.25794,55.4206],[-129.25794,55.41643],[-129.25794,55.41226],[-129.25794,55.4081],[-129.26419,55.40809],[-129.27044,55.40809],[-129.27669,55.40809],[-129.28294,55.40809],[-129.28919,55.40809],[-129.28919,55.41226],[-129.28919,55.41643]]]}},{"type":"Feature","properties":{"c":"566438","o":"AVANTI KITSAULT MINE LTD","e":"2027-03-10Z"},"geometry":{"type":"MultiPolygon","coordinates":[[[[-129.3017,55.38726],[-129.3017,55.39143],[-129.3017,55.39559],[-129.3017,55.39976],[-129.29545,55.39976],[-129.2892,55.39976],[-129.28295,55.39976],[-129.2767,55.39976],[-129.27045,55.39976],[-129.2642,55.39976],[-129.2642,55.39559],[-129.2642,55.39143],[-129.2642,55.38726],[-129.2642,55.38309],[-129.2642,55.37893],[-129.27045,55.37893],[-129.2767,55.37893],[-129.28295,55.37893],[-129.28295,55.37476],[-129.28295,55.37059],[-129.28295,55.36643],[-129.28295,55.36226],[-129.28296,55.35809],[-129.28296,55.35393],[-129.28296,55.34976],[-129.28921,55.34976],[-129.28921,55.35393],[-129.28921,55.35809],[-129.2892,55.36226],[-129.2892,55.36643],[-129.2892,55.37059],[-129.2892,55.37476],[-129.2892,55.37893],[-129.29545,55.37893],[-129.3017,55.37893],[-129.3017,55.38309],[-129.3017,55.38726]],[[-129.29545,55.39143],[-129.29545,55.38726],[-129.29545,55.38309],[-129.2892,55.38309],[-129.28295,55.38309],[-129.2767,55.38309],[-129.27045,55.38309],[-129.27045,55.38726],[-129.27045,55.39143],[-129.27045,55.39559],[-129.2767,55.39559],[-129.28295,55.39559],[-129.2892,55.39559],[-129.29545,55.39559],[-129.29545,55.39143]]]]}},{"type":"Feature","properties":{"c":"568518","o":"AVANTI KITSAULT MINE LTD","e":"2027-03-10Z"},"geometry":{"type":"Polygon","coordinates":[[[-129.2642,55.38726],[-129.2642,55.39143],[-129.2642,55.39559],[-129.2642,55.39976],[-129.25795,55.39976],[-129.2517,55.39976],[-129.24545,55.39976],[-129.2392,55.39976],[-129.23294,55.39976],[-129.23295,55.3956],[-129.23295,55.39143],[-129.23295,55.38726],[-129.23295,55.3831],[-129.23295,55.37893],[-129.2392,55.37893],[-129.24545,55.37893],[-129.2517,55.37893],[-129.25795,55.37893],[-129.2642,55.37893],[-129.2642,55.38309],[-129.2642,55.38726]]]}},{"type":"Feature","properties":{"c":"568519","o":"AVANTI KITSAULT MINE LTD","e":"2027-03-10Z"},"geometry":{"type":"Polygon","coordinates":[[[-129.23295,55.38726],[-129.23295,55.39143],[-129.23295,55.3956],[-129.23294,55.39976],[-129.22669,55.39976],[-129.22044,55.39976],[-129.21419,55.39976],[-129.20794,55.39976],[-129.20169,55.39976],[-129.2017,55.3956],[-129.2017,55.39143],[-129.2017,55.38726],[-129.2017,55.3831],[-129.2017,55.37893],[-129.20795,55.37893],[-129.2142,55.37893],[-129.22045,55.37893],[-129.2267,55.37893],[-129.23295,55.37893],[-129.23295,55.3831],[-129.23295,55.38726]]]}},{"type":"Feature","properties":{"c":"568520","o":"AVANTI KITSAULT MINE LTD","e":"2027-03-10Z"},"geometry":{"type":"Polygon","coordinates":[[[-129.33295,55.40809],[-129.3267,55.40809],[-129.32045,55.40809],[-129.3142,55.40809],[-129.30795,55.40809],[-129.3017,55.40809],[-129.29544,55.40809],[-129.28919,55.40809],[-129.28294,55.40809],[-129.27669,55.40809],[-129.27044,55.40809],[-129.26419,55.40809],[-129.26419,55.40393],[-129.2642,55.39976],[-129.27045,55.39976],[-129.2767,55.39976],[-129.28295,55.39976],[-129.2892,55.39976],[-129.29545,55.39976],[-129.3017,55.39976],[-129.30795,55.39976],[-129.3142,55.39976],[-129.32045,55.39976],[-129.3267,55.39976],[-129.33295,55.39976],[-129.33295,55.40393],[-129.33295,55.40809]]]}},{"type":"Feature","properties":{"c":"568521","o":"AVANTI KITSAULT MINE LTD","e":"2027-03-10Z"},"geometry":{"type":"Polygon","coordinates":[[[-129.26419,55.40809],[-129.25794,55.4081],[-129.25169,55.4081],[-129.24544,55.4081],[-129.23919,55.4081],[-129.23294,55.4081],[-129.22669,55.4081],[-129.22044,55.4081],[-129.21419,55.4081],[-129.20794,55.4081],[-129.20169,55.4081],[-129.20169,55.40393],[-129.20169,55.39976],[-129.20794,55.39976],[-129.21419,55.39976],[-129.22044,55.39976],[-129.22669,55.39976],[-129.23294,55.39976],[-129.2392,55.39976],[-129.24545,55.39976],[-129.2517,55.39976],[-129.25795,55.39976],[-129.2642,55.39976],[-129.26419,55.40393],[-129.26419,55.40809]]]}},{"type":"Feature","properties":{"c":"568522","o":"AVANTI KITSAULT MINE LTD","e":"2027-03-10Z"},"geometry":{"type":"Polygon","coordinates":[[[-129.33295,55.38726],[-129.33295,55.39143],[-129.33295,55.39559],[-129.33295,55.39976],[-129.3267,55.39976],[-129.32045,55.39976],[-129.3142,55.39976],[-129.30795,55.39976],[-129.3017,55.39976],[-129.3017,55.39559],[-129.3017,55.39143],[-129.3017,55.38726],[-129.3017,55.38309],[-129.3017,55.37893],[-129.30795,55.37893],[-129.3142,55.37893],[-129.32045,55.37893],[-129.3267,55.37893],[-129.33295,55.37893],[-129.33295,55.38309],[-129.33295,55.38726]]]}},{"type":"Feature","properties":{"c":"568526","o":"AVANTI KITSAULT MINE LTD","e":"2027-03-10Z"},"geometry":{"type":"Polygon","coordinates":[[[-129.39545,55.40809],[-129.3892,55.40809],[-129.38295,55.40809],[-129.3767,55.40809],[-129.37045,55.40809],[-129.3642,55.40809],[-129.35795,55.40809],[-129.3517,55.40809],[-129.34545,55.40809],[-129.3392,55.40809],[-129.33295,55.40809],[-129.33295,55.40393],[-129.33295,55.39976],[-129.3392,55.39976],[-129.34545,55.39976],[-129.3517,55.39976],[-129.35795,55.39976],[-129.3642,55.39976],[-129.37045,55.39976],[-129.3767,55.39976],[-129.38295,55.39976],[-129.3892,55.39976],[-129.39545,55.39976],[-129.39545,55.40392],[-129.39545,55.40809]]]}},{"type":"Feature","properties":{"c":"568527","o":"AVANTI KITSAULT MINE LTD","e":"2027-03-10Z"},"geometry":{"type":"Polygon","coordinates":[[[-129.43295,55.39976],[-129.43295,55.40392],[-129.4267,55.40392],[-129.42045,55.40392],[-129.4142,55.40392],[-129.40795,55.40392],[-129.4017,55.40392],[-129.4017,55.40809],[-129.39545,55.40809],[-129.39545,55.40392],[-129.39545,55.39976],[-129.39545,55.39559],[-129.39545,55.39142],[-129.4017,55.39142],[-129.40795,55.39142],[-129.4142,55.39142],[-129.42045,55.39142],[-129.4267,55.39142],[-129.43295,55.39142],[-129.43295,55.39559],[-129.43295,55.39976]]]}},{"type":"Feature","properties":{"c":"568537","o":"AVANTI KITSAULT MINE LTD","e":"2027-03-10Z"},"geometry":{"type":"Polygon","coordinates":[[[-129.43295,55.38726],[-129.43295,55.39142],[-129.4267,55.39142],[-129.42045,55.39142],[-129.4142,55.39142],[-129.40795,55.39142],[-129.4017,55.39142],[-129.39545,55.39142],[-129.39545,55.38726],[-129.39545,55.38309],[-129.39545,55.37892],[-129.4017,55.37892],[-129.40795,55.37892],[-129.4142,55.37892],[-129.42045,55.37892],[-129.4267,55.37892],[-129.43295,55.37892],[-129.43295,55.38309],[-129.43295,55.38726]]]}},{"type":"Feature","properties":{"c":"568538","o":"AVANTI KITSAULT MINE LTD","e":"2027-03-10Z"},"geometry":{"type":"Polygon","coordinates":[[[-129.39545,55.38726],[-129.39545,55.39142],[-129.39545,55.39559],[-129.39545,55.39976],[-129.3892,55.39976],[-129.38295,55.39976],[-129.3767,55.39976],[-129.37045,55.39976],[-129.3642,55.39976],[-129.3642,55.39559],[-129.3642,55.39143],[-129.3642,55.38726],[-129.3642,55.38309],[-129.3642,55.37892],[-129.37045,55.37892],[-129.3767,55.37892],[-129.38295,55.37892],[-129.3892,55.37892],[-129.39545,55.37892],[-129.39545,55.38309],[-129.39545,55.38726]]]}},{"type":"Feature","properties":{"c":"568539","o":"AVANTI KITSAULT MINE LTD","e":"2027-03-10Z"},"geometry":{"type":"Polygon","coordinates":[[[-129.3642,55.38726],[-129.3642,55.39143],[-129.3642,55.39559],[-129.3642,55.39976],[-129.35795,55.39976],[-129.3517,55.39976],[-129.34545,55.39976],[-129.3392,55.39976],[-129.33295,55.39976],[-129.33295,55.39559],[-129.33295,55.39143],[-129.33295,55.38726],[-129.33295,55.38309],[-129.33295,55.37893],[-129.3392,55.37893],[-129.34545,55.37893],[-129.3517,55.37893],[-129.35795,55.37893],[-129.3642,55.37892],[-129.3642,55.38309],[-129.3642,55.38726]]]}},{"type":"Feature","properties":{"c":"602580","o":"AVANTI KITSAULT MINE LTD","e":"2027-03-10Z"},"geometry":{"type":"Polygon","coordinates":[[[-129.53296,55.27475],[-129.53296,55.27892],[-129.53296,55.28309],[-129.52671,55.28309],[-129.52046,55.28309],[-129.51421,55.28309],[-129.50796,55.28309],[-129.50171,55.28309],[-129.49546,55.28309],[-129.49546,55.27892],[-129.49546,55.27475],[-129.49546,55.27059],[-129.49546,55.26642],[-129.50171,55.26642],[-129.50796,55.26642],[-129.51421,55.26642],[-129.52046,55.26642],[-129.52671,55.26642],[-129.53296,55.26642],[-129.53296,55.27058],[-129.53296,55.27475]]]}},{"type":"Feature","properties":{"c":"602583","o":"AVANTI KITSAULT MINE LTD","e":"2027-03-10Z"},"geometry":{"type":"Polygon","coordinates":[[[-129.47046,55.27475],[-129.47046,55.27892],[-129.47046,55.28309],[-129.46421,55.28309],[-129.45796,55.28309],[-129.45171,55.28309],[-129.44546,55.28309],[-129.43921,55.28309],[-129.43296,55.28309],[-129.43296,55.27892],[-129.43296,55.27475],[-129.43296,55.27059],[-129.43296,55.26642],[-129.43921,55.26642],[-129.44546,55.26642],[-129.45171,55.26642],[-129.45796,55.26642],[-129.46421,55.26642],[-129.47046,55.26642],[-129.47046,55.27059],[-129.47046,55.27475]]]}},{"type":"Feature","properties":{"c":"602584","o":"AVANTI KITSAULT MINE LTD","e":"2027-03-10Z"},"geometry":{"type":"Polygon","coordinates":[[[-129.47046,55.25809],[-129.47046,55.26225],[-129.47046,55.26642],[-129.46421,55.26642],[-129.45796,55.26642],[-129.45171,55.26642],[-129.44546,55.26642],[-129.43921,55.26642],[-129.43296,55.26642],[-129.43296,55.26225],[-129.43296,55.25809],[-129.43296,55.25392],[-129.43296,55.24975],[-129.43921,55.24975],[-129.44546,55.24975],[-129.45171,55.24975],[-129.45796,55.24975],[-129.46421,55.24975],[-129.47046,55.24975],[-129.47046,55.25392],[-129.47046,55.25809]]]}},{"type":"Feature","properties":{"c":"602586","o":"AVANTI KITSAULT MINE LTD","e":"2027-03-10Z"},"geometry":{"type":"Polygon","coordinates":[[[-129.43296,55.25809],[-129.43296,55.26225],[-129.43296,55.26642],[-129.43296,55.27059],[-129.43296,55.27475],[-129.42671,55.27475],[-129.42046,55.27475],[-129.41421,55.27475],[-129.40796,55.27476],[-129.40796,55.27059],[-129.40797,55.26642],[-129.40797,55.26225],[-129.40797,55.25809],[-129.40797,55.25392],[-129.40797,55.24975],[-129.41422,55.24975],[-129.42047,55.24975],[-129.42672,55.24975],[-129.43296,55.24975],[-129.43296,55.25392],[-129.43296,55.25809]]]}},{"type":"Feature","properties":{"c":"602587","o":"AVANTI KITSAULT MINE LTD","e":"2027-03-10Z"},"geometry":{"type":"Polygon","coordinates":[[[-129.47046,55.24975],[-129.46421,55.24975],[-129.45796,55.24975],[-129.45171,55.24975],[-129.44546,55.24975],[-129.43921,55.24975],[-129.43296,55.24975],[-129.42672,55.24975],[-129.42047,55.24975],[-129.41422,55.24975],[-129.40797,55.24975],[-129.40797,55.24559],[-129.40797,55.24142],[-129.41422,55.24142],[-129.42047,55.24142],[-129.42672,55.24142],[-129.43297,55.24142],[-129.43922,55.24142],[-129.44546,55.24142],[-129.45171,55.24142],[-129.45796,55.24142],[-129.46421,55.24142],[-129.47046,55.24142],[-129.47046,55.24559],[-129.47046,55.24975]]]}},{"type":"Feature","properties":{"c":"603011","o":"AVANTI KITSAULT MINE LTD","e":"2027-03-10Z"},"geometry":{"type":"Polygon","coordinates":[[[-129.53296,55.22892],[-129.53296,55.23308],[-129.52671,55.23308],[-129.52046,55.23308],[-129.51421,55.23308],[-129.50796,55.23308],[-129.50171,55.23308],[-129.49546,55.23308],[-129.49546,55.22892],[-129.49546,55.22475],[-129.49546,55.22058],[-129.50171,55.22058],[-129.50796,55.22058],[-129.51421,55.22058],[-129.52046,55.22058],[-129.52671,55.22058],[-129.53296,55.22058],[-129.53296,55.22475],[-129.53296,55.22892]]]}},{"type":"Feature","properties":{"c":"603012","o":"AVANTI KITSAULT MINE LTD","e":"2027-03-10Z"},"geometry":{"type":"Polygon","coordinates":[[[-129.43296,55.28309],[-129.42671,55.28309],[-129.42046,55.28309],[-129.41421,55.28309],[-129.40796,55.28309],[-129.40796,55.27892],[-129.40796,55.27476],[-129.41421,55.27475],[-129.42046,55.27475],[-129.42671,55.27475],[-129.43296,55.27475],[-129.43296,55.27892],[-129.43296,55.28309]]]}},{"type":"Feature","properties":{"c":"603536","o":"AVANTI KITSAULT MINE LTD","e":"2027-03-10Z"},"geometry":{"type":"Polygon","coordinates":[[[-129.50171,55.25809],[-129.50171,55.26225],[-129.49546,55.26225],[-129.49546,55.26642],[-129.49546,55.27059],[-129.49546,55.27475],[-129.49546,55.27892],[-129.49546,55.28309],[-129.48921,55.28309],[-129.48296,55.28309],[-129.47671,55.28309],[-129.47046,55.28309],[-129.47046,55.27892],[-129.47046,55.27475],[-129.47046,55.27059],[-129.47046,55.26642],[-129.47046,55.26225],[-129.47046,55.25809],[-129.47671,55.25809],[-129.48296,55.25809],[-129.48921,55.25809],[-129.49546,55.25809],[-129.50171,55.25809]]]}},{"type":"Feature","properties":{"c":"603537","o":"AVANTI KITSAULT MINE LTD","e":"2027-03-10Z"},"geometry":{"type":"Polygon","coordinates":[[[-129.51421,55.24975],[-129.50796,55.24975],[-129.50796,55.25392],[-129.50796,55.25809],[-129.50171,55.25809],[-129.49546,55.25809],[-129.48921,55.25809],[-129.48296,55.25809],[-129.47671,55.25809],[-129.47046,55.25809],[-129.47046,55.25392],[-129.47046,55.24975],[-129.47046,55.24559],[-129.47046,55.24142],[-129.47671,55.24142],[-129.48296,55.24142],[-129.48921,55.24142],[-129.49546,55.24142],[-129.50171,55.24142],[-129.50796,55.24142],[-129.50796,55.24558],[-129.51421,55.24558],[-129.51421,55.24975]]]}},{"type":"Feature","properties":{"c":"603538","o":"AVANTI KITSAULT MINE LTD","e":"2027-03-10Z"},"geometry":{"type":"Polygon","coordinates":[[[-129.53296,55.23308],[-129.53296,55.23725],[-129.52671,55.23725],[-129.52671,55.24142],[-129.52046,55.24142],[-129.52046,55.24558],[-129.51421,55.24558],[-129.50796,55.24558],[-129.50796,55.24142],[-129.50171,55.24142],[-129.49546,55.24142],[-129.49546,55.23725],[-129.49546,55.23308],[-129.50171,55.23308],[-129.50796,55.23308],[-129.51421,55.23308],[-129.52046,55.23308],[-129.52671,55.23308],[-129.53296,55.23308]]]}},{"type":"Feature","properties":{"c":"606521","o":"AVANTI KITSAULT MINE LTD","e":"2027-03-10Z"},"geometry":{"type":"Polygon","coordinates":[[[-129.32044,55.4581],[-129.32044,55.46226],[-129.31419,55.46226],[-129.31419,55.4581],[-129.31419,55.45393],[-129.31419,55.44976],[-129.32044,55.44976],[-129.32044,55.45393],[-129.32044,55.4581]]]}},{"type":"Feature","properties":{"c":"606522","o":"AVANTI KITSAULT MINE LTD","e":"2027-03-10Z"},"geometry":{"type":"Polygon","coordinates":[[[-129.33919,55.44559],[-129.33919,55.44976],[-129.33294,55.44976],[-129.32669,55.44976],[-129.32044,55.44976],[-129.32044,55.44559],[-129.32669,55.44559],[-129.33294,55.44559],[-129.33919,55.44559]]]}},{"type":"Feature","properties":{"c":"617304","o":"AVANTI KITSAULT MINE LTD","e":"2027-03-10Z"},"geometry":{"type":"Polygon","coordinates":[[[-129.25794,55.41643],[-129.25794,55.4206],[-129.25794,55.42476],[-129.25794,55.42893],[-129.25794,55.4331],[-129.25169,55.4331],[-129.24544,55.4331],[-129.23919,55.4331],[-129.23294,55.4331],[-129.23294,55.42893],[-129.23294,55.42476],[-129.23294,55.4206],[-129.23294,55.41643],[-129.23294,55.41226],[-129.23294,55.4081],[-129.23919,55.4081],[-129.24544,55.4081],[-129.25169,55.4081],[-129.25794,55.4081],[-129.25794,55.41226],[-129.25794,55.41643]]]}},{"type":"Feature","properties":{"c":"617306","o":"AVANTI KITSAULT MINE LTD","e":"2027-03-10Z"},"geometry":{"type":"Polygon","coordinates":[[[-129.23294,55.41643],[-129.23294,55.4206],[-129.23294,55.42476],[-129.23294,55.42893],[-129.23294,55.4331],[-129.22669,55.4331],[-129.22044,55.4331],[-129.21419,55.4331],[-129.20794,55.4331],[-129.20794,55.42893],[-129.20794,55.42476],[-129.20794,55.4206],[-129.20794,55.41643],[-129.20794,55.41226],[-129.20794,55.4081],[-129.21419,55.4081],[-129.22044,55.4081],[-129.22669,55.4081],[-129.23294,55.4081],[-129.23294,55.41226],[-129.23294,55.41643]]]}},{"type":"Feature","properties":{"c":"617323","o":"AVANTI KITSAULT MINE LTD","e":"2027-03-10Z"},"geometry":{"type":"Polygon","coordinates":[[[-129.25794,55.4331],[-129.25794,55.43726],[-129.25169,55.43726],[-129.24544,55.43726],[-129.23919,55.43726],[-129.23294,55.43726],[-129.22669,55.43726],[-129.22044,55.43726],[-129.21419,55.43726],[-129.20794,55.43726],[-129.20169,55.43726],[-129.20169,55.4331],[-129.20169,55.42893],[-129.20169,55.42476],[-129.20169,55.4206],[-129.20169,55.41643],[-129.20169,55.41226],[-129.20169,55.4081],[-129.20794,55.4081],[-129.20794,55.41226],[-129.20794,55.41643],[-129.20794,55.4206],[-129.20794,55.42476],[-129.20794,55.42893],[-129.20794,55.4331],[-129.21419,55.4331],[-129.22044,55.4331],[-129.22669,55.4331],[-129.23294,55.4331],[-129.23919,55.4331],[-129.24544,55.4331],[-129.25169,55.4331],[-129.25794,55.4331]]]}},{"type":"Feature","properties":{"c":"617344","o":"AVANTI KITSAULT MINE LTD","e":"2027-03-10Z"},"geometry":{"type":"Polygon","coordinates":[[[-129.30169,55.44143],[-129.30169,55.4456],[-129.30169,55.44976],[-129.29544,55.44976],[-129.28919,55.44976],[-129.28294,55.44976],[-129.27669,55.44976],[-129.27044,55.44976],[-129.27044,55.4456],[-129.27044,55.44143],[-129.27044,55.43726],[-129.27044,55.4331],[-129.27669,55.4331],[-129.28294,55.4331],[-129.28919,55.43309],[-129.29544,55.43309],[-129.30169,55.43309],[-129.30169,55.43726],[-129.30169,55.44143]]]}},{"type":"Feature","properties":{"c":"617345","o":"AVANTI KITSAULT MINE LTD","e":"2027-03-10Z"},"geometry":{"type":"Polygon","coordinates":[[[-129.30794,55.46226],[-129.30794,55.46643],[-129.30169,55.46643],[-129.29544,55.46643],[-129.28919,55.46643],[-129.28294,55.46643],[-129.27669,55.46643],[-129.27044,55.46643],[-129.26419,55.46643],[-129.25794,55.46643],[-129.25794,55.46226],[-129.26419,55.46226],[-129.27044,55.46226],[-129.27669,55.46226],[-129.28294,55.46226],[-129.28919,55.46226],[-129.29544,55.46226],[-129.30169,55.46226],[-129.30794,55.46226]]]}},{"type":"Feature","properties":{"c":"617346","o":"AVANTI KITSAULT MINE LTD","e":"2027-03-10Z"},"geometry":{"type":"Polygon","coordinates":[[[-129.31419,55.4581],[-129.31419,55.46226],[-129.30794,55.46226],[-129.30169,55.46226],[-129.29544,55.46226],[-129.28919,55.46226],[-129.28294,55.46226],[-129.27669,55.46226],[-129.27044,55.46226],[-129.27044,55.4581],[-129.27044,55.45393],[-129.27044,55.44976],[-129.27669,55.44976],[-129.28294,55.44976],[-129.28919,55.44976],[-129.29544,55.44976],[-129.30169,55.44976],[-129.30794,55.44976],[-129.31419,55.44976],[-129.31419,55.45393],[-129.31419,55.4581]]]}},{"type":"Feature","properties":{"c":"617363","o":"AVANTI KITSAULT MINE LTD","e":"2027-03-10Z"},"geometry":{"type":"Polygon","coordinates":[[[-129.27044,55.4456],[-129.27044,55.44976],[-129.27044,55.45393],[-129.27044,55.4581],[-129.27044,55.46226],[-129.26419,55.46226],[-129.26419,55.4581],[-129.26419,55.45393],[-129.26419,55.44976],[-129.26419,55.4456],[-129.26419,55.44143],[-129.26419,55.43726],[-129.27044,55.43726],[-129.27044,55.44143],[-129.27044,55.4456]]]}},{"type":"Feature","properties":{"c":"620583","o":"AVANTI KITSAULT MINE LTD","e":"2027-03-10Z"},"geometry":{"type":"Polygon","coordinates":[[[-129.34544,55.44559],[-129.34544,55.44976],[-129.33919,55.44976],[-129.33919,55.44559],[-129.34544,55.44559]]]}},{"type":"Feature","properties":{"c":"707024","o":"AVANTI KITSAULT MINE LTD","e":"2027-03-10Z"},"geometry":{"type":"Polygon","coordinates":[[[-129.30169,55.47893],[-129.29544,55.47893],[-129.28919,55.47893],[-129.28294,55.47893],[-129.27669,55.47893],[-129.27044,55.47893],[-129.26419,55.47893],[-129.26419,55.47476],[-129.26419,55.4706],[-129.26419,55.46643],[-129.27044,55.46643],[-129.27044,55.4706],[-129.27669,55.4706],[-129.28294,55.4706],[-129.28919,55.4706],[-129.29544,55.4706],[-129.30169,55.4706],[-129.30169,55.47476],[-129.30169,55.47893]]]}},{"type":"Feature","properties":{"c":"719548","o":"AVANTI KITSAULT MINE LTD","e":"2027-03-10Z"},"geometry":{"type":"Polygon","coordinates":[[[-129.42045,55.44976],[-129.42045,55.45393],[-129.4142,55.45393],[-129.4142,55.44976],[-129.42045,55.44976]]]}},{"type":"Feature","properties":{"c":"839492","o":"AVANTI KITSAULT MINE LTD","e":"2027-03-10Z"},"geometry":{"type":"Polygon","coordinates":[[[-129.30794,55.47476],[-129.30794,55.47893],[-129.30169,55.47893],[-129.30169,55.47476],[-129.30169,55.4706],[-129.29544,55.4706],[-129.28919,55.4706],[-129.28294,55.4706],[-129.27669,55.4706],[-129.27044,55.4706],[-129.27044,55.46643],[-129.27669,55.46643],[-129.28294,55.46643],[-129.28919,55.46643],[-129.29544,55.46643],[-129.30169,55.46643],[-129.30794,55.46643],[-129.30794,55.4706],[-129.30794,55.47476]]]}},{"type":"Feature","properties":{"c":"844688","o":"AVANTI KITSAULT MINE LTD","e":"2027-03-10Z"},"geometry":{"type":"Polygon","coordinates":[[[-129.40795,55.45809],[-129.40795,55.46226],[-129.4017,55.46226],[-129.4017,55.45809],[-129.40795,55.45809]]]}},{"type":"Feature","properties":{"c":"895737","o":"AVANTI KITSAULT MINE LTD","e":"2028-10-01Z"},"geometry":{"type":"Polygon","coordinates":[[[-129.38295,55.45809],[-129.38295,55.46226],[-129.3767,55.46226],[-129.37044,55.46226],[-129.36419,55.46226],[-129.35794,55.46226],[-129.35169,55.46226],[-129.35169,55.45809],[-129.35794,55.45809],[-129.36419,55.45809],[-129.37044,55.45809],[-129.3767,55.45809],[-129.38295,55.45809]]]}},{"type":"Feature","properties":{"c":"895738","o":"AVANTI KITSAULT MINE LTD","e":"2028-10-01Z"},"geometry":{"type":"Polygon","coordinates":[[[-129.3892,55.45393],[-129.3892,55.45809],[-129.38295,55.45809],[-129.38295,55.45393],[-129.3892,55.45393]]]}},{"type":"Feature","properties":{"c":"895742","o":"AVANTI KITSAULT MINE LTD","e":"2028-10-01Z"},"geometry":{"type":"Polygon","coordinates":[[[-129.4142,55.45393],[-129.4142,55.45809],[-129.40795,55.45809],[-129.4017,55.45809],[-129.39545,55.45809],[-129.3892,55.45809],[-129.3892,55.45393],[-129.39545,55.45393],[-129.4017,55.45393],[-129.40795,55.45393],[-129.4142,55.45393]]]}},{"type":"Feature","properties":{"c":"895833","o":"AVANTI KITSAULT MINE LTD","e":"2028-10-01Z"},"geometry":{"type":"Polygon","coordinates":[[[-129.35169,55.45393],[-129.35169,55.45809],[-129.35169,55.46226],[-129.34544,55.46226],[-129.33919,55.46226],[-129.33294,55.46226],[-129.33294,55.45809],[-129.33294,55.45393],[-129.33294,55.44976],[-129.33919,55.44976],[-129.34544,55.44976],[-129.34544,55.44559],[-129.35169,55.44559],[-129.35169,55.44976],[-129.35169,55.45393]]]}},{"type":"Feature","properties":{"c":"895835","o":"AVANTI KITSAULT MINE LTD","e":"2028-10-01Z"},"geometry":{"type":"Polygon","coordinates":[[[-129.4642,55.44976],[-129.45795,55.44976],[-129.4517,55.44976],[-129.44545,55.44976],[-129.4392,55.44976],[-129.43295,55.44976],[-129.43295,55.44559],[-129.43295,55.44143],[-129.4392,55.44142],[-129.44545,55.44142],[-129.4517,55.44142],[-129.45795,55.44142],[-129.4642,55.44142],[-129.4642,55.44559],[-129.4642,55.44976]]]}},{"type":"Feature","properties":{"c":"895837","o":"AVANTI KITSAULT MINE LTD","e":"2028-10-01Z"},"geometry":{"type":"Polygon","coordinates":[[[-129.4642,55.43726],[-129.4642,55.44142],[-129.45795,55.44142],[-129.4517,55.44142],[-129.44545,55.44142],[-129.4392,55.44142],[-129.43295,55.44143],[-129.43295,55.43726],[-129.43295,55.43309],[-129.43295,55.42892],[-129.4392,55.42892],[-129.44545,55.42892],[-129.4517,55.42892],[-129.45795,55.42892],[-129.4642,55.42892],[-129.4642,55.43309],[-129.4642,55.43726]]]}},{"type":"Feature","properties":{"c":"901629","o":"AVANTI KITSAULT MINE LTD","e":"2028-10-01Z"},"geometry":{"type":"Polygon","coordinates":[[[-129.44545,55.42892],[-129.4392,55.42892],[-129.4392,55.42476],[-129.4392,55.42059],[-129.44545,55.42059],[-129.44545,55.42476],[-129.44545,55.42892]]]}},{"type":"Feature","properties":{"c":"901649","o":"AVANTI KITSAULT MINE LTD","e":"2028-10-01Z"},"geometry":{"type":"Polygon","coordinates":[[[-129.4392,55.42892],[-129.43295,55.42892],[-129.43295,55.42476],[-129.43295,55.42059],[-129.4392,55.42059],[-129.4392,55.42476],[-129.4392,55.42892]]]}},{"type":"Feature","properties":{"c":"901669","o":"AVANTI KITSAULT MINE LTD","e":"2028-10-01Z"},"geometry":{"type":"Polygon","coordinates":[[[-129.45795,55.42476],[-129.45795,55.42892],[-129.4517,55.42892],[-129.44545,55.42892],[-129.44545,55.42476],[-129.44545,55.42059],[-129.44545,55.41642],[-129.4517,55.41642],[-129.45795,55.41642],[-129.45795,55.42059],[-129.45795,55.42476]]]}},{"type":"Feature","properties":{"c":"901749","o":"AVANTI KITSAULT MINE LTD","e":"2028-10-01Z"},"geometry":{"type":"Polygon","coordinates":[[[-129.49545,55.42476],[-129.5017,55.42476],[-129.5017,55.42892],[-129.49545,55.42892],[-129.49545,55.43309],[-129.4892,55.43309],[-129.48295,55.43309],[-129.4767,55.43309],[-129.47045,55.43309],[-129.4642,55.43309],[-129.4642,55.42892],[-129.45795,55.42892],[-129.45795,55.42476],[-129.45795,55.42059],[-129.45795,55.41642],[-129.45795,55.41226],[-129.4642,55.41226],[-129.4642,55.41642],[-129.47045,55.41642],[-129.4767,55.41642],[-129.48295,55.41642],[-129.4892,55.41642],[-129.49545,55.41642],[-129.49545,55.42059],[-129.49545,55.42476]]]}},{"type":"Feature","properties":{"c":"1021835","o":"AVANTI KITSAULT MINE LTD","e":"2028-10-01Z"},"geometry":{"type":"Polygon","coordinates":[[[-129.35169,55.46643],[-129.35169,55.47059],[-129.34544,55.47059],[-129.33919,55.47059],[-129.33294,55.4706],[-129.32669,55.4706],[-129.32669,55.46643],[-129.33294,55.46643],[-129.33919,55.46643],[-129.34544,55.46643],[-129.35169,55.46643]]]}},{"type":"Feature","properties":{"c":"1029125","o":"AVANTI KITSAULT MINE LTD","e":"2027-06-20Z"},"geometry":{"type":"MultiPolygon","coordinates":[[[[-129.43295,55.43309],[-129.43295,55.43726],[-129.43295,55.44143],[-129.43295,55.44559],[-129.43295,55.44976],[-129.4267,55.44976],[-129.42045,55.44976],[-129.4142,55.44976],[-129.4142,55.45393],[-129.40795,55.45393],[-129.4017,55.45393],[-129.39545,55.45393],[-129.3892,55.45393],[-129.38295,55.45393],[-129.38295,55.45809],[-129.3767,55.45809],[-129.37044,55.45809],[-129.36419,55.45809],[-129.35794,55.45809],[-129.35169,55.45809],[-129.35169,55.45393],[-129.35169,55.44976],[-129.35169,55.44559],[-129.35794,55.44559],[-129.35795,55.44143],[-129.35169,55.44143],[-129.34544,55.44143],[-129.33919,55.44143],[-129.33919,55.43726],[-129.33919,55.43309],[-129.33919,55.42893],[-129.3392,55.42476],[-129.3392,55.42059],[-129.3392,55.41643],[-129.3392,55.41226],[-129.3392,55.40809],[-129.34545,55.40809],[-129.3517,55.40809],[-129.35795,55.40809],[-129.3642,55.40809],[-129.37045,55.40809],[-129.3767,55.40809],[-129.38295,55.40809],[-129.3892,55.40809],[-129.39545,55.40809],[-129.4017,55.40809],[-129.4017,55.40392],[-129.40795,55.40392],[-129.4142,55.40392],[-129.42045,55.40392],[-129.4267,55.40392],[-129.43295,55.40392],[-129.4392,55.40392],[-129.44545,55.40392],[-129.4517,55.40392],[-129.45795,55.40392],[-129.45795,55.40809],[-129.45795,55.41226],[-129.45795,55.41642],[-129.4517,55.41642],[-129.44545,55.41642],[-129.44545,55.42059],[-129.43967,55.42059],[-129.44081,55.41686],[-129.43531,55.41631],[-129.43537,55.41616],[-129.43568,55.41543],[-129.43328,55.4151],[-129.4334,55.41495],[-129.43573,55.41198],[-129.42914,55.41031],[-129.42254,55.40863],[-129.42001,55.41186],[-129.41999,55.41185],[-129.41387,55.41356],[-129.41389,55.41371],[-129.4067,55.41403],[-129.40726,55.41813],[-129.40727,55.41819],[-129.40783,55.42159],[-129.40747,55.4216],[-129.40691,55.41817],[-129.40624,55.41408],[-129.39906,55.41446],[-129.39972,55.41855],[-129.40038,55.42264],[-129.40185,55.42256],[-129.40215,55.42587],[-129.40252,55.42997],[-129.4027,55.42997],[-129.40271,55.43318],[-129.40993,55.43317],[-129.41715,55.43317],[-129.41714,55.43023],[-129.41718,55.4304],[-129.41719,55.4304],[-129.41787,55.4337],[-129.42504,55.43323],[-129.42614,55.43315],[-129.42668,55.43312],[-129.43219,55.43275],[-129.4325,55.43265],[-129.43295,55.43263],[-129.43295,55.43309]]],[[[-129.41688,55.42897],[-129.4169,55.42907],[-129.4167,55.42899],[-129.41688,55.42897]]]]}},{"type":"Feature","properties":{"c":"1034744","o":"AVANTI KITSAULT MINE LTD","e":"2028-10-01Z"},"geometry":{"type":"Polygon","coordinates":[[[-129.42045,55.46226],[-129.4142,55.46226],[-129.4142,55.45809],[-129.4142,55.45393],[-129.42045,55.45393],[-129.42045,55.45809],[-129.42045,55.46226]]]}},{"type":"Feature","properties":{"c":"1098588","o":"GRANBY GOLD INC.","e":"2027-05-10Z"},"geometry":{"type":"Polygon","coordinates":[[[-129.52045,55.48726],[-129.5142,55.48726],[-129.50795,55.48726],[-129.5017,55.48726],[-129.49545,55.48726],[-129.4892,55.48726],[-129.48295,55.48726],[-129.4767,55.48726],[-129.4767,55.48309],[-129.4767,55.47893],[-129.48295,55.47893],[-129.4892,55.47892],[-129.4892,55.47476],[-129.49545,55.47476],[-129.49545,55.47059],[-129.49545,55.46642],[-129.49545,55.46226],[-129.5017,55.46226],[-129.5017,55.45809],[-129.5017,55.45392],[-129.50795,55.45392],[-129.5142,55.45392],[-129.5142,55.45809],[-129.5142,55.46226],[-129.5142,55.46642],[-129.5142,55.47059],[-129.5142,55.47476],[-129.5142,55.47892],[-129.52045,55.47892],[-129.52045,55.48309],[-129.52045,55.48726]]]}},{"type":"Feature","properties":{"c":"250340","o":"AVANTI KITSAULT MINE LTD","e":"2028-10-01Z"},"geometry":{"type":"Polygon","coordinates":[[[-129.3328,55.46041],[-129.35652,55.46041],[-129.35653,55.46041],[-129.35653,55.4649],[-129.35653,55.4694],[-129.34316,55.4694],[-129.3328,55.4694],[-129.3328,55.46041]]]}},{"type":"Feature","properties":{"c":"250341","o":"AVANTI KITSAULT MINE LTD","e":"2028-10-01Z"},"geometry":{"type":"Polygon","coordinates":[[[-129.3197,55.46041],[-129.32158,55.46148],[-129.32345,55.46041],[-129.3328,55.46041],[-129.3328,55.4694],[-129.30907,55.4694],[-129.30908,55.46041],[-129.31699,55.46041],[-129.3197,55.46041]]]}},{"type":"Feature","properties":{"c":"250342","o":"AVANTI KITSAULT MINE LTD","e":"2028-10-01Z"},"geometry":{"type":"MultiPolygon","coordinates":[[[[-129.32159,55.4558],[-129.31699,55.45833],[-129.31699,55.45143],[-129.33281,55.45143],[-129.3328,55.46041],[-129.32345,55.46041],[-129.32647,55.45868],[-129.32159,55.4558]]],[[[-129.31699,55.45887],[-129.3197,55.46041],[-129.31699,55.46041],[-129.31699,55.45887]]]]}},{"type":"Feature","properties":{"c":"250347","o":"AVANTI KITSAULT MINE LTD","e":"2028-10-01Z"},"geometry":{"type":"Polygon","coordinates":[[[-129.31699,55.45887],[-129.31651,55.4586],[-129.31699,55.45833],[-129.32159,55.4558],[-129.32647,55.45868],[-129.32345,55.46041],[-129.32158,55.46148],[-129.3197,55.46041],[-129.31699,55.45887]]]}},{"type":"Feature","properties":{"c":"250390","o":"AVANTI KITSAULT MINE LTD","e":"2028-10-01Z"},"geometry":{"type":"Polygon","coordinates":[[[-129.34071,55.45142],[-129.31699,55.45142],[-129.317,55.44693],[-129.34071,55.44693],[-129.34071,55.45142]]]}},{"type":"Feature","properties":{"c":"250458","o":"AVANTI KITSAULT MINE LTD","e":"2028-10-01Z"},"geometry":{"type":"Polygon","coordinates":[[[-129.48454,55.44796],[-129.47952,55.4457],[-129.47571,55.4484],[-129.4739,55.44991],[-129.4722,55.44915],[-129.4733,55.44822],[-129.46815,55.44598],[-129.46609,55.44508],[-129.46609,55.44494],[-129.47091,55.44489],[-129.47048,55.43716],[-129.4977,55.43716],[-129.49771,55.44236],[-129.49682,55.44236],[-129.49682,55.44577],[-129.49635,55.44574],[-129.49425,55.44571],[-129.49397,55.44575],[-129.49383,55.44581],[-129.49373,55.44582],[-129.49343,55.44584],[-129.49329,55.44587],[-129.49291,55.44605],[-129.4929,55.44604],[-129.49232,55.44633],[-129.49224,55.4464],[-129.49221,55.44711],[-129.49211,55.44728],[-129.49209,55.44754],[-129.49211,55.44757],[-129.49224,55.44767],[-129.49233,55.44774],[-129.4926,55.44775],[-129.49267,55.44783],[-129.49265,55.44802],[-129.49257,55.44808],[-129.49245,55.44809],[-129.49232,55.44803],[-129.49221,55.44803],[-129.49221,55.44808],[-129.4924,55.44812],[-129.4924,55.44818],[-129.49216,55.44819],[-129.49196,55.44814],[-129.49167,55.44812],[-129.49158,55.44812],[-129.49137,55.44822],[-129.49086,55.4486],[-129.49061,55.44889],[-129.49042,55.44922],[-129.49025,55.44942],[-129.49013,55.44951],[-129.48994,55.44961],[-129.48959,55.45],[-129.48942,55.45011],[-129.48941,55.45026],[-129.48454,55.44796]]]}},{"type":"Feature","properties":{"c":"250512","o":"AVANTI KITSAULT MINE LTD","e":"2027-03-10Z"},"geometry":{"type":"Polygon","coordinates":[[[-129.47048,55.43716],[-129.47045,55.43649],[-129.46524,55.43664],[-129.46524,55.43328],[-129.49682,55.43328],[-129.49685,55.43328],[-129.49682,55.43716],[-129.47048,55.43716]]]}},{"type":"Feature","properties":{"c":"250513","o":"AVANTI KITSAULT MINE LTD","e":"2027-03-10Z"},"geometry":{"type":"Polygon","coordinates":[[[-129.52051,55.4384],[-129.52041,55.43843],[-129.51985,55.43851],[-129.51959,55.43857],[-129.51925,55.43863],[-129.51903,55.43873],[-129.51884,55.43888],[-129.51853,55.43903],[-129.51837,55.43915],[-129.51809,55.43924],[-129.51776,55.43939],[-129.51742,55.43943],[-129.51722,55.43954],[-129.51687,55.43956],[-129.51664,55.43963],[-129.51653,55.43967],[-129.5162,55.43971],[-129.51579,55.43979],[-129.51538,55.43994],[-129.51517,55.43997],[-129.51512,55.43999],[-129.51478,55.44007],[-129.51416,55.44032],[-129.51361,55.44062],[-129.51352,55.4407],[-129.51351,55.44083],[-129.51351,55.44092],[-129.51343,55.44095],[-129.51337,55.44095],[-129.51327,55.44092],[-129.51297,55.44091],[-129.51268,55.44083],[-129.51227,55.44082],[-129.5121,55.44085],[-129.5119,55.44094],[-129.51169,55.44099],[-129.51146,55.44111],[-129.5113,55.44116],[-129.51075,55.4412],[-129.51051,55.44131],[-129.51002,55.44131],[-129.50989,55.44136],[-129.5098,55.44138],[-129.5092,55.44141],[-129.50912,55.44144],[-129.5089,55.44147],[-129.50865,55.44147],[-129.50816,55.44144],[-129.50792,55.44146],[-129.5077,55.44151],[-129.50764,55.44154],[-129.50757,55.4416],[-129.5074,55.44171],[-129.50722,55.44201],[-129.50701,55.44213],[-129.50679,55.44219],[-129.50663,55.44219],[-129.50635,55.44216],[-129.50612,55.44202],[-129.506,55.44196],[-129.50592,55.44191],[-129.50459,55.4419],[-129.50432,55.4419],[-129.50393,55.44203],[-129.50371,55.44208],[-129.50349,55.44225],[-129.50343,55.44235],[-129.49771,55.44236],[-129.4977,55.43716],[-129.49682,55.43716],[-129.49682,55.43248],[-129.50838,55.43211],[-129.51462,55.43192],[-129.52052,55.43165],[-129.52052,55.4384],[-129.52051,55.4384]]]}},{"type":"Feature","properties":{"c":"250514","o":"AVANTI KITSAULT MINE LTD","e":"2028-10-01Z"},"geometry":{"type":"Polygon","coordinates":[[[-129.49682,55.44236],[-129.50343,55.44235],[-129.50341,55.4424],[-129.50324,55.44259],[-129.50305,55.44295],[-129.50291,55.4431],[-129.50287,55.44342],[-129.50272,55.44372],[-129.50266,55.4439],[-129.50264,55.4442],[-129.50261,55.44428],[-129.50246,55.44443],[-129.50238,55.44457],[-129.50235,55.44459],[-129.50221,55.4446],[-129.50178,55.44457],[-129.50153,55.44457],[-129.5014,55.44459],[-129.50112,55.4447],[-129.50107,55.4448],[-129.50102,55.44495],[-129.50082,55.44499],[-129.5008,55.44501],[-129.50079,55.44518],[-129.50085,55.44527],[-129.50097,55.44535],[-129.50097,55.44544],[-129.50091,55.44554],[-129.50091,55.44565],[-129.5007,55.44569],[-129.50023,55.44574],[-129.50013,55.44577],[-129.50009,55.44582],[-129.50004,55.44595],[-129.49987,55.44606],[-129.49981,55.44607],[-129.49946,55.44606],[-129.49938,55.44604],[-129.49917,55.44593],[-129.49912,55.44588],[-129.49912,55.4458],[-129.49906,55.44574],[-129.49896,55.44569],[-129.49896,55.44567],[-129.4988,55.44567],[-129.49844,55.44577],[-129.49824,55.44578],[-129.49783,55.44579],[-129.49713,55.44578],[-129.49682,55.44577],[-129.49682,55.44236]]]}},{"type":"Feature","properties":{"c":"250578","o":"AVANTI KITSAULT MINE LTD","e":"2027-03-10Z"},"geometry":{"type":"Polygon","coordinates":[[[-129.46487,55.43207],[-129.47096,55.43191],[-129.47095,55.43148],[-129.47502,55.43123],[-129.46524,55.43328],[-129.46524,55.43664],[-129.46377,55.43668],[-129.46343,55.43346],[-129.46487,55.43207]]]}},{"type":"Feature","properties":{"c":"250579","o":"AVANTI KITSAULT MINE LTD","e":"2027-03-10Z"},"geometry":{"type":"Polygon","coordinates":[[[-129.46524,55.43328],[-129.47502,55.43123],[-129.48227,55.43103],[-129.48952,55.43084],[-129.49641,55.43054],[-129.49698,55.4305],[-129.49694,55.43145],[-129.49535,55.43154],[-129.49551,55.43259],[-129.49682,55.43248],[-129.49685,55.43328],[-129.49682,55.43328],[-129.46524,55.43328]]]}},{"type":"Feature","properties":{"c":"254543","o":"AVANTI KITSAULT MINE LTD","e":"2027-02-23Z"},"geometry":{"type":"Polygon","coordinates":[[[-129.42283,55.41637],[-129.42563,55.41756],[-129.42623,55.41781],[-129.42193,55.42111],[-129.41852,55.41967],[-129.41957,55.41886],[-129.42017,55.41841],[-129.42061,55.41807],[-129.42118,55.41763],[-129.42283,55.41637]]]}},{"type":"Feature","properties":{"c":"254544","o":"AVANTI KITSAULT MINE LTD","e":"2027-02-23Z"},"geometry":{"type":"Polygon","coordinates":[[[-129.41852,55.41967],[-129.42193,55.42111],[-129.4176,55.42441],[-129.41551,55.42351],[-129.4142,55.42296],[-129.41431,55.42288],[-129.41527,55.42215],[-129.41666,55.42109],[-129.41852,55.41967]]]}},{"type":"Feature","properties":{"c":"254545","o":"AVANTI KITSAULT MINE LTD","e":"2027-02-23Z"},"geometry":{"type":"Polygon","coordinates":[[[-129.42563,55.41756],[-129.42622,55.41771],[-129.42717,55.41796],[-129.4272,55.41797],[-129.42873,55.41837],[-129.4293,55.41852],[-129.42626,55.42225],[-129.42193,55.42111],[-129.42623,55.41781],[-129.42563,55.41756]]]}},{"type":"Feature","properties":{"c":"254546","o":"AVANTI KITSAULT MINE LTD","e":"2027-02-23Z"},"geometry":{"type":"Polygon","coordinates":[[[-129.42193,55.42111],[-129.42626,55.42225],[-129.42322,55.42598],[-129.4221,55.42568],[-129.41889,55.42484],[-129.4176,55.42441],[-129.42193,55.42111]]]}},{"type":"Feature","properties":{"c":"254547","o":"AVANTI KITSAULT MINE LTD","e":"2027-02-23Z"},"geometry":{"type":"Polygon","coordinates":[[[-129.42873,55.41837],[-129.4318,55.41883],[-129.43168,55.4191],[-129.43049,55.42164],[-129.42996,55.42281],[-129.42626,55.42225],[-129.4293,55.41852],[-129.42873,55.41837]]]}},{"type":"Feature","properties":{"c":"254548","o":"AVANTI KITSAULT MINE LTD","e":"2027-02-23Z"},"geometry":{"type":"Polygon","coordinates":[[[-129.42626,55.42225],[-129.42996,55.42281],[-129.42862,55.42569],[-129.42811,55.42679],[-129.42442,55.42623],[-129.42352,55.42604],[-129.42349,55.42603],[-129.42322,55.42598],[-129.42626,55.42225]]]}},{"type":"Feature","properties":{"c":"254549","o":"AVANTI KITSAULT MINE LTD","e":"2027-02-23Z"},"geometry":{"type":"Polygon","coordinates":[[[-129.40727,55.41819],[-129.40795,55.41816],[-129.4116,55.41796],[-129.41102,55.41839],[-129.41483,55.42005],[-129.41496,55.42087],[-129.41374,55.42072],[-129.41337,55.42173],[-129.40795,55.42205],[-129.4079,55.42205],[-129.40789,55.42202],[-129.40783,55.42159],[-129.40727,55.41819]]]}},{"type":"Feature","properties":{"c":"254550","o":"AVANTI KITSAULT MINE LTD","e":"2027-02-23Z"},"geometry":{"type":"Polygon","coordinates":[[[-129.41337,55.42173],[-129.41231,55.42449],[-129.41514,55.42484],[-129.41551,55.42543],[-129.40859,55.42583],[-129.40856,55.42568],[-129.40795,55.4223],[-129.4079,55.42205],[-129.40795,55.42205],[-129.41337,55.42173]]]}},{"type":"Feature","properties":{"c":"254551","o":"AVANTI KITSAULT MINE LTD","e":"2027-02-23Z"},"geometry":{"type":"Polygon","coordinates":[[[-129.40859,55.42583],[-129.41551,55.42543],[-129.41596,55.42616],[-129.41635,55.42682],[-129.41642,55.42681],[-129.41687,55.42893],[-129.41688,55.42897],[-129.4167,55.42899],[-129.4142,55.42919],[-129.40993,55.42955],[-129.40956,55.42957],[-129.40943,55.42906],[-129.40859,55.42583]]]}},{"type":"Feature","properties":{"c":"254552","o":"AVANTI KITSAULT MINE LTD","e":"2027-02-23Z"},"geometry":{"type":"Polygon","coordinates":[[[-129.4167,55.42899],[-129.4169,55.42907],[-129.41714,55.43023],[-129.41715,55.43317],[-129.40993,55.43317],[-129.40993,55.43309],[-129.40993,55.42955],[-129.4142,55.42919],[-129.4167,55.42899]]]}},{"type":"Feature","properties":{"c":"254553","o":"AVANTI KITSAULT MINE LTD","e":"2027-02-23Z"},"geometry":{"type":"Polygon","coordinates":[[[-129.4027,55.42908],[-129.40795,55.42907],[-129.40943,55.42906],[-129.40956,55.42957],[-129.40993,55.42955],[-129.40993,55.43309],[-129.40993,55.43317],[-129.40271,55.43318],[-129.4027,55.42997],[-129.4027,55.42908]]]}},{"type":"Feature","properties":{"c":"254554","o":"AVANTI KITSAULT MINE LTD","e":"2027-02-23Z"},"geometry":{"type":"Polygon","coordinates":[[[-129.40215,55.42587],[-129.40795,55.4257],[-129.40856,55.42568],[-129.40859,55.42583],[-129.40943,55.42906],[-129.40795,55.42907],[-129.4027,55.42908],[-129.4027,55.42997],[-129.40252,55.42997],[-129.40215,55.42587]]]}},{"type":"Feature","properties":{"c":"254555","o":"AVANTI KITSAULT MINE LTD","e":"2027-02-23Z"},"geometry":{"type":"Polygon","coordinates":[[[-129.40783,55.42159],[-129.40789,55.42202],[-129.4079,55.42205],[-129.40795,55.4223],[-129.40856,55.42568],[-129.40795,55.4257],[-129.40215,55.42587],[-129.40185,55.42256],[-129.40178,55.42177],[-129.40747,55.4216],[-129.40783,55.42159]]]}},{"type":"Feature","properties":{"c":"254556","o":"AVANTI KITSAULT MINE LTD","e":"2027-02-23Z"},"geometry":{"type":"Polygon","coordinates":[[[-129.40691,55.41817],[-129.40747,55.4216],[-129.40178,55.42177],[-129.40185,55.42256],[-129.40038,55.42264],[-129.39972,55.41855],[-129.4017,55.41844],[-129.40691,55.41817]]]}},{"type":"Feature","properties":{"c":"254557","o":"AVANTI KITSAULT MINE LTD","e":"2027-02-23Z"},"geometry":{"type":"Polygon","coordinates":[[[-129.40691,55.41817],[-129.4017,55.41844],[-129.39972,55.41855],[-129.39906,55.41446],[-129.40624,55.41408],[-129.40691,55.41817]]]}},{"type":"Feature","properties":{"c":"254558","o":"AVANTI KITSAULT MINE LTD","e":"2027-02-23Z"},"geometry":{"type":"Polygon","coordinates":[[[-129.41748,55.41642],[-129.41777,55.41616],[-129.41782,55.41611],[-129.41925,55.41481],[-129.41991,55.41505],[-129.41981,55.41461],[-129.42045,55.41456],[-129.42256,55.41441],[-129.4252,55.41421],[-129.42542,55.41419],[-129.42622,55.41771],[-129.42563,55.41756],[-129.42283,55.41637],[-129.42118,55.41763],[-129.42061,55.41807],[-129.42017,55.41841],[-129.41957,55.41886],[-129.41951,55.41884],[-129.41919,55.41873],[-129.41614,55.41764],[-129.41748,55.41642]]]}},{"type":"Feature","properties":{"c":"254559","o":"AVANTI KITSAULT MINE LTD","e":"2027-02-23Z"},"geometry":{"type":"Polygon","coordinates":[[[-129.42867,55.41446],[-129.42863,55.41455],[-129.42628,55.41396],[-129.42762,55.41226],[-129.42914,55.41031],[-129.43573,55.41198],[-129.4334,55.41495],[-129.43328,55.4151],[-129.43295,55.41505],[-129.42867,55.41446]]]}},{"type":"Feature","properties":{"c":"254560","o":"AVANTI KITSAULT MINE LTD","e":"2027-02-23Z"},"geometry":{"type":"Polygon","coordinates":[[[-129.42542,55.41419],[-129.4252,55.41421],[-129.42252,55.413],[-129.42628,55.41396],[-129.42863,55.41455],[-129.42717,55.41796],[-129.42622,55.41771],[-129.42542,55.41419]]]}},{"type":"Feature","properties":{"c":"254561","o":"AVANTI KITSAULT MINE LTD","e":"2027-02-23Z"},"geometry":{"type":"Polygon","coordinates":[[[-129.41431,55.42288],[-129.4142,55.42296],[-129.41551,55.42351],[-129.4176,55.42441],[-129.41889,55.42484],[-129.4221,55.42568],[-129.42322,55.42598],[-129.42349,55.42603],[-129.42021,55.42625],[-129.41872,55.42636],[-129.41642,55.42681],[-129.41635,55.42682],[-129.41596,55.42616],[-129.41551,55.42543],[-129.41514,55.42484],[-129.41412,55.42316],[-129.41399,55.42294],[-129.41431,55.42288]]]}},{"type":"Feature","properties":{"c":"254562","o":"AVANTI KITSAULT MINE LTD","e":"2027-02-23Z"},"geometry":{"type":"Polygon","coordinates":[[[-129.42349,55.42603],[-129.42352,55.42604],[-129.42402,55.42839],[-129.42428,55.42965],[-129.42434,55.42993],[-129.42045,55.43018],[-129.41719,55.4304],[-129.41718,55.4304],[-129.41714,55.43023],[-129.4169,55.42907],[-129.41688,55.42897],[-129.41687,55.42893],[-129.41642,55.42681],[-129.41872,55.42636],[-129.42021,55.42625],[-129.42349,55.42603]]]}},{"type":"Feature","properties":{"c":"254563","o":"AVANTI KITSAULT MINE LTD","e":"2027-02-23Z"},"geometry":{"type":"Polygon","coordinates":[[[-129.42926,55.42959],[-129.42925,55.4296],[-129.4267,55.42977],[-129.42435,55.42993],[-129.42434,55.42993],[-129.42428,55.42965],[-129.42402,55.42839],[-129.42352,55.42604],[-129.42442,55.42623],[-129.42811,55.42679],[-129.42862,55.42569],[-129.42973,55.42562],[-129.42973,55.42561],[-129.43071,55.42555],[-129.43133,55.42855],[-129.43139,55.42886],[-129.4314,55.42886],[-129.43141,55.42892],[-129.43143,55.42902],[-129.43146,55.42918],[-129.43151,55.42945],[-129.4299,55.42956],[-129.42926,55.42959]]]}},{"type":"Feature","properties":{"c":"254564","o":"AVANTI KITSAULT MINE LTD","e":"2027-02-23Z"},"geometry":{"type":"Polygon","coordinates":[[[-129.43168,55.4191],[-129.43275,55.41925],[-129.43295,55.41928],[-129.43397,55.41943],[-129.43366,55.42016],[-129.43347,55.42059],[-129.43325,55.42107],[-129.43301,55.42076],[-129.43223,55.42103],[-129.43049,55.42164],[-129.43168,55.4191]]]}},{"type":"Feature","properties":{"c":"254565","o":"AVANTI KITSAULT MINE LTD","e":"2027-02-23Z"},"geometry":{"type":"Polygon","coordinates":[[[-129.4142,55.41602],[-129.41366,55.41642],[-129.4116,55.41796],[-129.40795,55.41816],[-129.40727,55.41819],[-129.40726,55.41813],[-129.4067,55.41403],[-129.41389,55.41371],[-129.4142,55.41602]]]}},{"type":"Feature","properties":{"c":"254566","o":"AVANTI KITSAULT MINE LTD","e":"2027-02-23Z"},"geometry":{"type":"Polygon","coordinates":[[[-129.41541,55.41513],[-129.4142,55.41602],[-129.41389,55.41371],[-129.41387,55.41356],[-129.41999,55.41185],[-129.42001,55.41186],[-129.42089,55.41226],[-129.42252,55.413],[-129.4252,55.41421],[-129.42256,55.41441],[-129.42045,55.41456],[-129.41981,55.41461],[-129.41991,55.41505],[-129.41925,55.41481],[-129.41782,55.41611],[-129.41777,55.41616],[-129.41541,55.41513]]]}},{"type":"Feature","properties":{"c":"254567","o":"AVANTI KITSAULT MINE LTD","e":"2027-02-23Z"},"geometry":{"type":"Polygon","coordinates":[[[-129.41374,55.42072],[-129.41496,55.42087],[-129.41666,55.42109],[-129.41527,55.42215],[-129.41431,55.42288],[-129.41399,55.42294],[-129.41412,55.42316],[-129.41514,55.42484],[-129.41231,55.42449],[-129.41337,55.42173],[-129.41374,55.42072]]]}},{"type":"Feature","properties":{"c":"254568","o":"AVANTI KITSAULT MINE LTD","e":"2027-02-23Z"},"geometry":{"type":"Polygon","coordinates":[[[-129.41541,55.41513],[-129.41777,55.41616],[-129.41748,55.41642],[-129.41614,55.41764],[-129.41919,55.41873],[-129.41951,55.41884],[-129.41957,55.41886],[-129.41852,55.41967],[-129.41666,55.42109],[-129.41496,55.42087],[-129.41483,55.42005],[-129.41102,55.41839],[-129.4116,55.41796],[-129.41366,55.41642],[-129.4142,55.41602],[-129.41541,55.41513]]]}},{"type":"Feature","properties":{"c":"254569","o":"AVANTI KITSAULT MINE LTD","e":"2027-02-23Z"},"geometry":{"type":"Polygon","coordinates":[[[-129.43151,55.42945],[-129.43219,55.43275],[-129.42668,55.43312],[-129.42614,55.43315],[-129.42504,55.43323],[-129.42501,55.43309],[-129.42435,55.42993],[-129.4267,55.42977],[-129.42925,55.4296],[-129.42926,55.42959],[-129.4299,55.42956],[-129.43151,55.42945]]]}},{"type":"Feature","properties":{"c":"254570","o":"AVANTI KITSAULT MINE LTD","e":"2027-02-23Z"},"geometry":{"type":"Polygon","coordinates":[[[-129.42434,55.42993],[-129.42435,55.42993],[-129.42501,55.43309],[-129.42504,55.43323],[-129.41787,55.4337],[-129.41719,55.4304],[-129.42045,55.43018],[-129.42434,55.42993]]]}},{"type":"Feature","properties":{"c":"254571","o":"AVANTI KITSAULT MINE LTD","e":"2027-02-23Z"},"geometry":{"type":"Polygon","coordinates":[[[-129.4318,55.42851],[-129.43179,55.42836],[-129.43179,55.42835],[-129.43164,55.42727],[-129.43156,55.42667],[-129.43137,55.42529],[-129.43134,55.42502],[-129.43139,55.42406],[-129.43854,55.4247],[-129.43901,55.42819],[-129.43277,55.42852],[-129.43209,55.42856],[-129.43207,55.42856],[-129.43203,55.42856],[-129.43182,55.42857],[-129.4318,55.42851]]]}},{"type":"Feature","properties":{"c":"254572","o":"AVANTI KITSAULT MINE LTD","e":"2027-02-23Z"},"geometry":{"type":"Polygon","coordinates":[[[-129.43223,55.42103],[-129.43301,55.42076],[-129.43325,55.42107],[-129.43347,55.42059],[-129.43366,55.42016],[-129.43796,55.42059],[-129.43962,55.42076],[-129.43854,55.4247],[-129.43139,55.42406],[-129.43221,55.42113],[-129.43223,55.42103]]]}},{"type":"Feature","properties":{"c":"254573","o":"AVANTI KITSAULT MINE LTD","e":"2027-02-23Z"},"geometry":{"type":"Polygon","coordinates":[[[-129.43182,55.42857],[-129.43203,55.42856],[-129.43207,55.42856],[-129.43209,55.42856],[-129.43277,55.42852],[-129.43901,55.42819],[-129.43969,55.43227],[-129.43295,55.43263],[-129.4325,55.43265],[-129.43194,55.42927],[-129.43184,55.42867],[-129.43182,55.42857]]]}},{"type":"Feature","properties":{"c":"254574","o":"AVANTI KITSAULT MINE LTD","e":"2027-02-23Z"},"geometry":{"type":"Polygon","coordinates":[[[-129.43397,55.41943],[-129.43295,55.41928],[-129.43275,55.41925],[-129.43295,55.41861],[-129.43304,55.41831],[-129.43405,55.41924],[-129.43526,55.41642],[-129.43531,55.41631],[-129.44081,55.41686],[-129.43967,55.42059],[-129.43962,55.42076],[-129.43796,55.42059],[-129.43366,55.42016],[-129.43397,55.41943]]]}},{"type":"Feature","properties":{"c":"254575","o":"AVANTI KITSAULT MINE LTD","e":"2027-02-23Z"},"geometry":{"type":"Polygon","coordinates":[[[-129.43194,55.42927],[-129.4325,55.43265],[-129.43219,55.43275],[-129.43151,55.42945],[-129.43146,55.42918],[-129.43143,55.42902],[-129.43141,55.42892],[-129.4314,55.42886],[-129.43139,55.42886],[-129.43133,55.42855],[-129.43071,55.42555],[-129.42973,55.42561],[-129.42973,55.42562],[-129.42862,55.42569],[-129.42996,55.42281],[-129.43049,55.42164],[-129.43223,55.42103],[-129.43221,55.42113],[-129.43139,55.42406],[-129.43134,55.42502],[-129.43137,55.42529],[-129.43156,55.42667],[-129.43164,55.42727],[-129.43179,55.42835],[-129.43179,55.42836],[-129.4318,55.42851],[-129.43182,55.42857],[-129.43184,55.42867],[-129.43194,55.42927]]]}},{"type":"Feature","properties":{"c":"254576","o":"AVANTI KITSAULT MINE LTD","e":"2027-02-23Z"},"geometry":{"type":"Polygon","coordinates":[[[-129.42254,55.40863],[-129.42914,55.41031],[-129.42762,55.41226],[-129.42628,55.41396],[-129.42252,55.413],[-129.42089,55.41226],[-129.42001,55.41186],[-129.42254,55.40863]]]}},{"type":"Feature","properties":{"c":"254577","o":"AVANTI KITSAULT MINE LTD","e":"2027-02-23Z"},"geometry":{"type":"Polygon","coordinates":[[[-129.43304,55.41831],[-129.43295,55.41861],[-129.43275,55.41925],[-129.43168,55.4191],[-129.4318,55.41883],[-129.42873,55.41837],[-129.4272,55.41797],[-129.42717,55.41796],[-129.42863,55.41455],[-129.42867,55.41446],[-129.43295,55.41505],[-129.43328,55.4151],[-129.43568,55.41543],[-129.43537,55.41616],[-129.43531,55.41631],[-129.43526,55.41642],[-129.43405,55.41924],[-129.43304,55.41831]]]}},{"type":"Feature","properties":{"c":"254671","o":"AVANTI KITSAULT MINE LTD","e":"2028-10-01Z"},"geometry":{"type":"Polygon","coordinates":[[[-129.49591,55.42662],[-129.49569,55.42516],[-129.50183,55.42519],[-129.50264,55.42506],[-129.50266,55.42523],[-129.50319,55.42899],[-129.50178,55.42913],[-129.49631,55.42924],[-129.49591,55.42662]]]}},{"type":"Feature","properties":{"c":"254724","o":"AVANTI KITSAULT MINE LTD","e":"2028-10-01Z"},"geometry":{"type":"Polygon","coordinates":[[[-129.49527,55.42268],[-129.49521,55.42151],[-129.50177,55.42124],[-129.50229,55.42134],[-129.50264,55.42506],[-129.50183,55.42519],[-129.49569,55.42516],[-129.49527,55.42268]]]}},{"type":"Feature","properties":{"c":"254738","o":"AVANTI KITSAULT MINE LTD","e":"2028-10-01Z"},"geometry":{"type":"Polygon","coordinates":[[[-129.49464,55.41857],[-129.4944,55.41751],[-129.50185,55.41745],[-129.50229,55.42134],[-129.50177,55.42124],[-129.49521,55.42151],[-129.49464,55.41857]]]}},{"type":"Feature","properties":{"c":"254739","o":"AVANTI KITSAULT MINE LTD","e":"2028-10-01Z"},"geometry":{"type":"Polygon","coordinates":[[[-129.49388,55.41324],[-129.50096,55.41346],[-129.50185,55.41745],[-129.4944,55.41751],[-129.49404,55.4146],[-129.49388,55.41324]]]}},{"type":"Feature","properties":{"c":"254749","o":"AVANTI KITSAULT MINE LTD","e":"2028-10-01Z"},"geometry":{"type":"Polygon","coordinates":[[[-129.51709,55.42977],[-129.51436,55.42987],[-129.5081,55.43007],[-129.50188,55.43029],[-129.50178,55.4303],[-129.49852,55.43038],[-129.49641,55.43054],[-129.49631,55.42924],[-129.50178,55.42913],[-129.50319,55.42899],[-129.51012,55.42884],[-129.51699,55.4286],[-129.51709,55.42977]]]}},{"type":"Feature","properties":{"c":"254764","o":"AVANTI KITSAULT MINE LTD","e":"2028-10-01Z"},"geometry":{"type":"Polygon","coordinates":[[[-129.43969,55.43062],[-129.44513,55.43026],[-129.44923,55.43006],[-129.44919,55.43051],[-129.44287,55.43059],[-129.43969,55.43062]]]}},{"type":"Feature","properties":{"c":"254962","o":"AVANTI KITSAULT MINE LTD","e":"2028-10-01Z"},"geometry":{"type":"Polygon","coordinates":[[[-129.46591,55.44495],[-129.46427,55.44502],[-129.4642,55.44421],[-129.46398,55.44087],[-129.47062,55.44077],[-129.47091,55.44489],[-129.46609,55.44494],[-129.46591,55.44495]]]}},{"type":"Feature","properties":{"c":"254963","o":"AVANTI KITSAULT MINE LTD","e":"2028-10-01Z"},"geometry":{"type":"Polygon","coordinates":[[[-129.46379,55.43718],[-129.46377,55.43668],[-129.46524,55.43664],[-129.47045,55.43649],[-129.47048,55.43716],[-129.47062,55.44077],[-129.46398,55.44087],[-129.46379,55.43718]]]}},{"type":"Feature","properties":{"c":"255024","o":"AVANTI KITSAULT MINE LTD","e":"2028-10-01Z"},"geometry":{"type":"Polygon","coordinates":[[[-129.46281,55.44408],[-129.46311,55.44378],[-129.4642,55.44421],[-129.46427,55.44502],[-129.46591,55.44495],[-129.46609,55.44503],[-129.46815,55.44598],[-129.46433,55.44883],[-129.46406,55.44903],[-129.46306,55.44541],[-129.46281,55.44408]]]}},{"type":"Feature","properties":{"c":"255025","o":"AVANTI KITSAULT MINE LTD","e":"2028-10-01Z"},"geometry":{"type":"Polygon","coordinates":[[[-129.46815,55.44598],[-129.4733,55.44822],[-129.4722,55.44915],[-129.4688,55.44778],[-129.46627,55.44969],[-129.46433,55.44883],[-129.46815,55.44598]]]}},{"type":"Feature","properties":{"c":"255026","o":"AVANTI KITSAULT MINE LTD","e":"2028-10-01Z"},"geometry":{"type":"Polygon","coordinates":[[[-129.45775,55.44982],[-129.46406,55.44903],[-129.46042,55.45177],[-129.45589,55.44987],[-129.45775,55.44982]]]}},{"type":"Feature","properties":{"c":"255027","o":"AVANTI KITSAULT MINE LTD","e":"2028-10-01Z"},"geometry":{"type":"Polygon","coordinates":[[[-129.46182,55.45234],[-129.46042,55.45177],[-129.46406,55.44903],[-129.46433,55.44883],[-129.46627,55.44969],[-129.46499,55.45067],[-129.46234,55.45255],[-129.46182,55.45234]]]}},{"type":"Feature","properties":{"c":"255083","o":"AVANTI KITSAULT MINE LTD","e":"2028-10-01Z"},"geometry":{"type":"Polygon","coordinates":[[[-129.47952,55.4457],[-129.48449,55.44798],[-129.48073,55.45069],[-129.47571,55.4484],[-129.47952,55.4457]]]}},{"type":"Feature","properties":{"c":"255084","o":"AVANTI KITSAULT MINE LTD","e":"2028-10-01Z"},"geometry":{"type":"Polygon","coordinates":[[[-129.48847,55.45098],[-129.48825,55.45105],[-129.4879,55.45126],[-129.48735,55.45148],[-129.48696,55.4517],[-129.48663,55.45186],[-129.48652,55.45195],[-129.48646,55.45203],[-129.4864,55.45213],[-129.48638,55.45249],[-129.4857,55.45298],[-129.48073,55.45069],[-129.48454,55.44796],[-129.48941,55.45026],[-129.48941,55.4503],[-129.48847,55.45098]]]}},{"type":"Feature","properties":{"c":"255085","o":"AVANTI KITSAULT MINE LTD","e":"2028-10-01Z"},"geometry":{"type":"Polygon","coordinates":[[[-129.4739,55.44991],[-129.47571,55.4484],[-129.48073,55.45069],[-129.47692,55.45367],[-129.47196,55.45138],[-129.4739,55.44991]]]}},{"type":"Feature","properties":{"c":"255086","o":"AVANTI KITSAULT MINE LTD","e":"2028-10-01Z"},"geometry":{"type":"Polygon","coordinates":[[[-129.48073,55.45069],[-129.4857,55.45298],[-129.48195,55.45568],[-129.47692,55.45367],[-129.48073,55.45069]]]}},{"type":"Feature","properties":{"c":"255087","o":"AVANTI KITSAULT MINE LTD","e":"2028-10-01Z"},"geometry":{"type":"Polygon","coordinates":[[[-129.47196,55.45138],[-129.47692,55.45367],[-129.47317,55.45649],[-129.46814,55.45428],[-129.47196,55.45138]]]}},{"type":"Feature","properties":{"c":"255088","o":"AVANTI KITSAULT MINE LTD","e":"2028-10-01Z"},"geometry":{"type":"Polygon","coordinates":[[[-129.48195,55.45568],[-129.47793,55.4587],[-129.47317,55.45649],[-129.47692,55.45367],[-129.48195,55.45568]]]}},{"type":"Feature","properties":{"c":"255089","o":"AVANTI KITSAULT MINE LTD","e":"2028-10-01Z"},"geometry":{"type":"Polygon","coordinates":[[[-129.47793,55.4587],[-129.47411,55.46152],[-129.46935,55.45938],[-129.47317,55.45649],[-129.47793,55.4587]]]}},{"type":"Feature","properties":{"c":"255090","o":"AVANTI KITSAULT MINE LTD","e":"2028-10-01Z"},"geometry":{"type":"Polygon","coordinates":[[[-129.4688,55.44778],[-129.4722,55.44915],[-129.4739,55.44991],[-129.47196,55.45138],[-129.46995,55.45285],[-129.46499,55.45067],[-129.4688,55.44778]]]}},{"type":"Feature","properties":{"c":"255091","o":"AVANTI KITSAULT MINE LTD","e":"2028-10-01Z"},"geometry":{"type":"Polygon","coordinates":[[[-129.47317,55.45649],[-129.46935,55.45938],[-129.46446,55.45717],[-129.4662,55.45571],[-129.46814,55.45428],[-129.47317,55.45649]]]}},{"type":"Feature","properties":{"c":"255092","o":"AVANTI KITSAULT MINE LTD","e":"2028-10-01Z"},"geometry":{"type":"Polygon","coordinates":[[[-129.46237,55.45253],[-129.46499,55.45067],[-129.46995,55.45285],[-129.46814,55.45428],[-129.4662,55.45571],[-129.46182,55.4539],[-129.46103,55.45357],[-129.46182,55.45296],[-129.46234,55.45255],[-129.46237,55.45253]]]}},{"type":"Feature","properties":{"c":"255164","o":"AVANTI KITSAULT MINE LTD","e":"2028-10-01Z"},"geometry":{"type":"Polygon","coordinates":[[[-129.50196,55.4313],[-129.50203,55.43231],[-129.49682,55.43248],[-129.49551,55.43259],[-129.49535,55.43154],[-129.49694,55.43145],[-129.50196,55.4313]]]}},{"type":"Feature","properties":{"c":"255365","o":"AVANTI KITSAULT MINE LTD","e":"2028-10-01Z"},"geometry":{"type":"Polygon","coordinates":[[[-129.44923,55.43006],[-129.44513,55.43026],[-129.44517,55.4288],[-129.45155,55.42871],[-129.45187,55.43222],[-129.4496,55.43231],[-129.44919,55.43051],[-129.44923,55.43006]]]}},{"type":"Feature","properties":{"c":"255366","o":"AVANTI KITSAULT MINE LTD","e":"2028-10-01Z"},"geometry":{"type":"Polygon","coordinates":[[[-129.45155,55.42871],[-129.45789,55.42853],[-129.45822,55.43221],[-129.45187,55.43222],[-129.45155,55.42871]]]}},{"type":"Feature","properties":{"c":"510205","o":"AVANTI KITSAULT MINE LTD","e":"2027-03-10Z"},"geometry":{"type":"Polygon","coordinates":[[[-129.53921,55.39142],[-129.53921,55.39559],[-129.53921,55.39975],[-129.53921,55.40392],[-129.53921,55.40809],[-129.53295,55.40809],[-129.5267,55.40809],[-129.52045,55.40809],[-129.5142,55.40809],[-129.50795,55.40809],[-129.5017,55.40809],[-129.49545,55.40809],[-129.4892,55.40809],[-129.48295,55.40809],[-129.4767,55.40809],[-129.47045,55.40809],[-129.4642,55.40809],[-129.4642,55.40392],[-129.4642,55.39976],[-129.4642,55.39559],[-129.4642,55.39142],[-129.4642,55.38726],[-129.4642,55.38309],[-129.47045,55.38309],[-129.4767,55.38309],[-129.48295,55.38309],[-129.4892,55.38309],[-129.49545,55.38309],[-129.5017,55.38309],[-129.50795,55.38309],[-129.5142,55.38309],[-129.52045,55.38309],[-129.52671,55.38309],[-129.53296,55.38309],[-129.53921,55.38309],[-129.53921,55.38725],[-129.53921,55.39142]]]}},{"type":"Feature","properties":{"c":"1105174","o":"DOLLY VARDEN SILVER CORP","e":"2035-12-03Z"},"geometry":{"type":"Polygon","coordinates":[[[-129.28294,55.47893],[-129.28294,55.4831],[-129.27669,55.4831],[-129.27669,55.48726],[-129.27044,55.48726],[-129.26419,55.48726],[-129.25794,55.48726],[-129.25169,55.48726],[-129.24544,55.48726],[-129.23918,55.48726],[-129.23293,55.48726],[-129.22668,55.48726],[-129.22043,55.48727],[-129.21418,55.48727],[-129.20793,55.48727],[-129.20168,55.48727],[-129.20168,55.4831],[-129.20168,55.47893],[-129.20793,55.47893],[-129.21418,55.47893],[-129.22043,55.47893],[-129.22668,55.47893],[-129.23294,55.47893],[-129.23919,55.47893],[-129.24544,55.47893],[-129.25169,55.47893],[-129.25794,55.47893],[-129.26419,55.47893],[-129.27044,55.47893],[-129.27669,55.47893],[-129.28294,55.47893]]]}},{"type":"Feature","properties":{"c":"1105177","o":"DOLLY VARDEN SILVER CORP","e":"2035-12-03Z"},"geometry":{"type":"Polygon","coordinates":[[[-129.23293,55.4956],[-129.23293,55.49977],[-129.23293,55.50393],[-129.23293,55.5081],[-129.22668,55.5081],[-129.22043,55.5081],[-129.21418,55.5081],[-129.20793,55.5081],[-129.20168,55.5081],[-129.20168,55.50393],[-129.20168,55.49977],[-129.20168,55.4956],[-129.20168,55.49143],[-129.20168,55.48727],[-129.20793,55.48727],[-129.21418,55.48727],[-129.22043,55.48727],[-129.22668,55.48726],[-129.23293,55.48726],[-129.23293,55.49143],[-129.23293,55.4956]]]}},{"type":"Feature","properties":{"c":"1105180","o":"DOLLY VARDEN SILVER CORP","e":"2035-12-03Z"},"geometry":{"type":"Polygon","coordinates":[[[-129.25794,55.49976],[-129.25794,55.50393],[-129.25168,55.50393],[-129.24543,55.50393],[-129.23918,55.50393],[-129.23918,55.5081],[-129.23918,55.51227],[-129.23918,55.51643],[-129.23918,55.5206],[-129.23918,55.52477],[-129.24543,55.52477],[-129.25168,55.52477],[-129.25168,55.52893],[-129.24543,55.52893],[-129.24543,55.5331],[-129.23918,55.5331],[-129.23293,55.5331],[-129.23293,55.52893],[-129.23293,55.52477],[-129.23293,55.5206],[-129.23293,55.51643],[-129.23293,55.51227],[-129.23293,55.5081],[-129.23293,55.50393],[-129.23293,55.49977],[-129.23293,55.4956],[-129.23293,55.49143],[-129.23293,55.48726],[-129.23918,55.48726],[-129.24544,55.48726],[-129.25169,55.48726],[-129.25169,55.49143],[-129.25794,55.49143],[-129.25794,55.4956],[-129.25794,55.49976]]]}},{"type":"Feature","properties":{"c":"1105183","o":"DOLLY VARDEN SILVER CORP","e":"2035-12-03Z"},"geometry":{"type":"Polygon","coordinates":[[[-129.29544,55.4956],[-129.29544,55.49976],[-129.29544,55.50393],[-129.28919,55.50393],[-129.28294,55.50393],[-129.27669,55.50393],[-129.27044,55.50393],[-129.26419,55.50393],[-129.25794,55.50393],[-129.25794,55.49976],[-129.25794,55.4956],[-129.25794,55.49143],[-129.25169,55.49143],[-129.25169,55.48726],[-129.25794,55.48726],[-129.26419,55.48726],[-129.27044,55.48726],[-129.27669,55.48726],[-129.28294,55.48726],[-129.28919,55.48726],[-129.29544,55.48726],[-129.29544,55.49143],[-129.29544,55.4956]]]}},{"type":"Feature","properties":{"c":"1105186","o":"DOLLY VARDEN SILVER CORP","e":"2035-12-03Z"},"geometry":{"type":"Polygon","coordinates":[[[-129.33294,55.48726],[-129.32669,55.48726],[-129.32044,55.48726],[-129.32044,55.49143],[-129.32044,55.4956],[-129.31419,55.4956],[-129.30794,55.4956],[-129.30169,55.4956],[-129.29544,55.4956],[-129.29544,55.49143],[-129.29544,55.48726],[-129.28919,55.48726],[-129.28294,55.48726],[-129.27669,55.48726],[-129.27669,55.4831],[-129.28294,55.4831],[-129.28294,55.47893],[-129.28919,55.47893],[-129.29544,55.47893],[-129.30169,55.47893],[-129.30794,55.47893],[-129.31419,55.47893],[-129.32044,55.47893],[-129.32669,55.47893],[-129.33294,55.47893],[-129.33294,55.4831],[-129.33294,55.48726]]]}},{"type":"Feature","properties":{"c":"1105189","o":"DOLLY VARDEN SILVER CORP","e":"2035-12-03Z"},"geometry":{"type":"Polygon","coordinates":[[[-129.38294,55.47476],[-129.38294,55.47893],[-129.37669,55.47893],[-129.37669,55.48309],[-129.37669,55.48726],[-129.37669,55.49143],[-129.37044,55.49143],[-129.36419,55.49143],[-129.35794,55.49143],[-129.35169,55.49143],[-129.34544,55.49143],[-129.33919,55.49143],[-129.33294,55.49143],[-129.33294,55.48726],[-129.33294,55.4831],[-129.33294,55.47893],[-129.33919,55.47893],[-129.34544,55.47893],[-129.35169,55.47893],[-129.35794,55.47893],[-129.35794,55.47476],[-129.36419,55.47476],[-129.37044,55.47476],[-129.37669,55.47476],[-129.38294,55.47476]]]}},{"type":"Feature","properties":{"c":"1105192","o":"DOLLY VARDEN SILVER CORP","e":"2035-12-03Z"},"geometry":{"type":"Polygon","coordinates":[[[-129.33294,55.4956],[-129.33294,55.49976],[-129.33294,55.50393],[-129.33294,55.5081],[-129.32669,55.5081],[-129.32044,55.5081],[-129.31419,55.5081],[-129.30794,55.5081],[-129.30169,55.5081],[-129.29544,55.5081],[-129.29544,55.51226],[-129.29544,55.51643],[-129.28919,55.51643],[-129.28919,55.51226],[-129.28919,55.5081],[-129.28919,55.50393],[-129.29544,55.50393],[-129.29544,55.49976],[-129.29544,55.4956],[-129.30169,55.4956],[-129.30794,55.4956],[-129.31419,55.4956],[-129.32044,55.4956],[-129.32044,55.49143],[-129.32044,55.48726],[-129.32669,55.48726],[-129.33294,55.48726],[-129.33294,55.49143],[-129.33294,55.4956]]]}},{"type":"Feature","properties":{"c":"1105350","o":"DOLLY VARDEN SILVER CORP","e":"2035-12-03Z"},"geometry":{"type":"Polygon","coordinates":[[[-129.50795,55.50809],[-129.50795,55.51226],[-129.5017,55.51226],[-129.49545,55.51226],[-129.4892,55.51226],[-129.48295,55.51226],[-129.4767,55.51226],[-129.4767,55.51643],[-129.4767,55.52059],[-129.4767,55.52476],[-129.4767,55.52893],[-129.4767,55.53309],[-129.47045,55.53309],[-129.4642,55.53309],[-129.4642,55.52893],[-129.4642,55.52476],[-129.4642,55.52059],[-129.4642,55.51643],[-129.4642,55.51226],[-129.4642,55.50809],[-129.47045,55.50809],[-129.4767,55.50809],[-129.4767,55.50393],[-129.4767,55.49976],[-129.48295,55.49976],[-129.4892,55.49976],[-129.4892,55.50393],[-129.4892,55.50809],[-129.49545,55.50809],[-129.5017,55.50809],[-129.50795,55.50809]]]}},{"type":"Feature","properties":{"c":"1105356","o":"DOLLY VARDEN SILVER CORP","e":"2035-12-03Z"},"geometry":{"type":"Polygon","coordinates":[[[-129.44545,55.47476],[-129.44545,55.47893],[-129.44545,55.48309],[-129.44545,55.48726],[-129.4392,55.48726],[-129.4392,55.49143],[-129.4392,55.49559],[-129.4392,55.49976],[-129.43295,55.49976],[-129.43295,55.50393],[-129.43295,55.50809],[-129.43295,55.51226],[-129.4267,55.51226],[-129.42045,55.51226],[-129.42045,55.50809],[-129.42045,55.50393],[-129.42045,55.49976],[-129.42045,55.49559],[-129.42045,55.49143],[-129.42045,55.48726],[-129.42045,55.48309],[-129.4267,55.48309],[-129.43295,55.48309],[-129.4392,55.48309],[-129.4392,55.47893],[-129.4392,55.47476],[-129.4392,55.47059],[-129.43295,55.47059],[-129.4267,55.47059],[-129.4267,55.46643],[-129.43295,55.46643],[-129.4392,55.46643],[-129.44545,55.46643],[-129.44545,55.47059],[-129.44545,55.47476]]]}},{"type":"Feature","properties":{"c":"1105359","o":"DOLLY VARDEN SILVER CORP","e":"2035-12-03Z"},"geometry":{"type":"Polygon","coordinates":[[[-129.4767,55.50809],[-129.47045,55.50809],[-129.4642,55.50809],[-129.4642,55.51226],[-129.45795,55.51226],[-129.4517,55.51226],[-129.44545,55.51226],[-129.4392,55.51226],[-129.43295,55.51226],[-129.43295,55.50809],[-129.43295,55.50393],[-129.43295,55.49976],[-129.4392,55.49976],[-129.44545,55.49976],[-129.4517,55.49976],[-129.45795,55.49976],[-129.4642,55.49976],[-129.47045,55.49976],[-129.4767,55.49976],[-129.4767,55.50393],[-129.4767,55.50809]]]}},{"type":"Feature","properties":{"c":"1105431","o":"DOLLY VARDEN SILVER CORP","e":"2035-12-03Z"},"geometry":{"type":"Polygon","coordinates":[[[-129.50795,55.49559],[-129.50795,55.49976],[-129.50795,55.50393],[-129.5017,55.50393],[-129.49545,55.50393],[-129.4892,55.50393],[-129.4892,55.49976],[-129.4892,55.49559],[-129.4892,55.49143],[-129.4892,55.48726],[-129.49545,55.48726],[-129.5017,55.48726],[-129.50795,55.48726],[-129.50795,55.49142],[-129.50795,55.49559]]]}},{"type":"Feature","properties":{"c":"1105437","o":"DOLLY VARDEN SILVER CORP","e":"2035-12-03Z"},"geometry":{"type":"Polygon","coordinates":[[[-129.4392,55.47893],[-129.4392,55.48309],[-129.43295,55.48309],[-129.4267,55.48309],[-129.42045,55.48309],[-129.4142,55.48309],[-129.40795,55.48309],[-129.4017,55.48309],[-129.39545,55.48309],[-129.38919,55.48309],[-129.3892,55.47893],[-129.38294,55.47893],[-129.38294,55.47476],[-129.3892,55.47476],[-129.3892,55.47059],[-129.39545,55.47059],[-129.4017,55.47059],[-129.40795,55.47059],[-129.4142,55.47059],[-129.42045,55.47059],[-129.4267,55.47059],[-129.43295,55.47059],[-129.4392,55.47059],[-129.4392,55.47476],[-129.4392,55.47893]]]}},{"type":"Feature","properties":{"c":"1105440","o":"DOLLY VARDEN SILVER CORP","e":"2035-12-03Z"},"geometry":{"type":"Polygon","coordinates":[[[-129.42045,55.49143],[-129.42045,55.49559],[-129.42045,55.49976],[-129.42045,55.50393],[-129.42045,55.50809],[-129.42045,55.51226],[-129.42045,55.51643],[-129.4142,55.51643],[-129.40794,55.51643],[-129.40169,55.51643],[-129.40169,55.51226],[-129.40169,55.50809],[-129.40169,55.50393],[-129.4017,55.49976],[-129.4017,55.49559],[-129.4017,55.49143],[-129.4017,55.48726],[-129.4017,55.48309],[-129.40795,55.48309],[-129.4142,55.48309],[-129.42045,55.48309],[-129.42045,55.48726],[-129.42045,55.49143]]]}},{"type":"Feature","properties":{"c":"1105443","o":"DOLLY VARDEN SILVER CORP","e":"2035-12-03Z"},"geometry":{"type":"Polygon","coordinates":[[[-129.4017,55.49143],[-129.4017,55.49559],[-129.4017,55.49976],[-129.40169,55.50393],[-129.40169,55.50809],[-129.40169,55.51226],[-129.40169,55.51643],[-129.39544,55.51643],[-129.38919,55.51643],[-129.38919,55.51226],[-129.38919,55.50809],[-129.38919,55.50393],[-129.38919,55.49976],[-129.38919,55.49559],[-129.38919,55.49143],[-129.38294,55.49143],[-129.37669,55.49143],[-129.37669,55.48726],[-129.37669,55.48309],[-129.37669,55.47893],[-129.38294,55.47893],[-129.3892,55.47893],[-129.38919,55.48309],[-129.39545,55.48309],[-129.4017,55.48309],[-129.4017,55.48726],[-129.4017,55.49143]]]}},{"type":"Feature","properties":{"c":"1105446","o":"DOLLY VARDEN SILVER CORP","e":"2035-12-03Z"},"geometry":{"type":"Polygon","coordinates":[[[-129.38919,55.49976],[-129.38294,55.49976],[-129.37669,55.49976],[-129.37044,55.49976],[-129.36419,55.49976],[-129.36419,55.4956],[-129.36419,55.49143],[-129.37044,55.49143],[-129.37669,55.49143],[-129.38294,55.49143],[-129.38919,55.49143],[-129.38919,55.49559],[-129.38919,55.49976]]]}},{"type":"Feature","properties":{"c":"1105450","o":"DOLLY VARDEN SILVER CORP","e":"2035-12-03Z"},"geometry":{"type":"Polygon","coordinates":[[[-129.36419,55.49976],[-129.36419,55.50393],[-129.36419,55.5081],[-129.36419,55.51226],[-129.35794,55.51226],[-129.35169,55.51226],[-129.34544,55.51226],[-129.33919,55.51226],[-129.33294,55.51226],[-129.33294,55.5081],[-129.33294,55.50393],[-129.33294,55.49976],[-129.33294,55.4956],[-129.33294,55.49143],[-129.33919,55.49143],[-129.34544,55.49143],[-129.35169,55.49143],[-129.35794,55.49143],[-129.36419,55.49143],[-129.36419,55.4956],[-129.36419,55.49976]]]}},{"type":"Feature","properties":{"c":"1105453","o":"DOLLY VARDEN SILVER CORP","e":"2035-12-03Z"},"geometry":{"type":"Polygon","coordinates":[[[-129.38919,55.50809],[-129.38919,55.51226],[-129.38919,55.51643],[-129.38919,55.5206],[-129.38294,55.5206],[-129.37669,55.5206],[-129.37044,55.5206],[-129.36419,55.5206],[-129.35794,55.5206],[-129.35794,55.51643],[-129.35794,55.51226],[-129.36419,55.51226],[-129.36419,55.5081],[-129.36419,55.50393],[-129.36419,55.49976],[-129.37044,55.49976],[-129.37669,55.49976],[-129.38294,55.49976],[-129.38919,55.49976],[-129.38919,55.50393],[-129.38919,55.50809]]]}},{"type":"Feature","properties":{"c":"1105570","o":"DOLLY VARDEN SILVER CORP","e":"2035-12-03Z"},"geometry":{"type":"Polygon","coordinates":[[[-129.4892,55.49559],[-129.4892,55.49976],[-129.48295,55.49976],[-129.4767,55.49976],[-129.47045,55.49976],[-129.4642,55.49976],[-129.45795,55.49976],[-129.4517,55.49976],[-129.44545,55.49976],[-129.4392,55.49976],[-129.4392,55.49559],[-129.4392,55.49143],[-129.4392,55.48726],[-129.44545,55.48726],[-129.4517,55.48726],[-129.45795,55.48726],[-129.4642,55.48726],[-129.47045,55.48726],[-129.4767,55.48726],[-129.48295,55.48726],[-129.4892,55.48726],[-129.4892,55.49143],[-129.4892,55.49559]]]}},{"type":"Feature","properties":{"c":"1105573","o":"DOLLY VARDEN SILVER CORP","e":"2035-12-03Z"},"geometry":{"type":"Polygon","coordinates":[[[-129.4767,55.48726],[-129.47045,55.48726],[-129.4642,55.48726],[-129.45795,55.48726],[-129.4517,55.48726],[-129.44545,55.48726],[-129.44545,55.48309],[-129.44545,55.47893],[-129.44545,55.47476],[-129.44545,55.47059],[-129.44545,55.46643],[-129.4392,55.46643],[-129.4392,55.46226],[-129.44545,55.46226],[-129.4517,55.46226],[-129.45795,55.46226],[-129.4642,55.46226],[-129.47045,55.46226],[-129.47045,55.46643],[-129.4642,55.46643],[-129.4642,55.47059],[-129.4642,55.47476],[-129.4642,55.47893],[-129.47045,55.47893],[-129.4767,55.47893],[-129.4767,55.48309],[-129.4767,55.48726]]]}}]}