{"type":"FeatureCollection","features":[{"type":"Feature","properties":{"c":"YB90973","o":"SELWYN CHIHONG MINING LTD - 100%","e":"2029-03-05"},"geometry":{"type":"Polygon","coordinates":[[[-129.53363,62.47806],[-129.53059,62.48175],[-129.52497,62.48078],[-129.52801,62.47708],[-129.53363,62.47806]]]}},{"type":"Feature","properties":{"c":"YD76738","o":"Terrence King - 100%","e":"2031-03-08"},"geometry":{"type":"Polygon","coordinates":[[[-129.71784,62.30401],[-129.72497,62.30631],[-129.72002,62.30963],[-129.71289,62.30733],[-129.71784,62.30401]]]}},{"type":"Feature","properties":{"c":"YF39076","o":"0926764 BC Ltd - 100%","e":"2032-03-22"},"geometry":{"type":"Polygon","coordinates":[[[-129.73624,62.126],[-129.73628,62.1301],[-129.72765,62.13012],[-129.72762,62.12601],[-129.73624,62.126]]]}},{"type":"Feature","properties":{"c":"YD76756","o":"Terrence King - 100%","e":"2031-03-08"},"geometry":{"type":"Polygon","coordinates":[[[-129.78248,62.28775],[-129.78272,62.29185],[-129.77391,62.29196],[-129.77367,62.28786],[-129.78248,62.28775]]]}},{"type":"Feature","properties":{"c":"YB49310","o":"TROILUS GOLD CORP. - 100%","e":"2029-03-06"},"geometry":{"type":"Polygon","coordinates":[[[-129.86796,62.01491],[-129.87645,62.01588],[-129.8744,62.01987],[-129.86591,62.0189],[-129.86796,62.01491]]]}},{"type":"Feature","properties":{"c":"YD07577","o":"SELWYN CHIHONG MINING LTD - 100%","e":"2029-10-08"},"geometry":{"type":"Polygon","coordinates":[[[-129.89534,62.38388],[-129.89539,62.38798],[-129.88655,62.388],[-129.8865,62.3839],[-129.89534,62.38388]]]}},{"type":"Feature","properties":{"c":"YD76752","o":"Terrence King - 100%","e":"2031-03-08"},"geometry":{"type":"Polygon","coordinates":[[[-129.78202,62.27955],[-129.78225,62.28365],[-129.77344,62.28376],[-129.77321,62.27966],[-129.78202,62.27955]]]}},{"type":"Feature","properties":{"c":"YD07576","o":"SELWYN CHIHONG MINING LTD - 100%","e":"2029-10-08"},"geometry":{"type":"Polygon","coordinates":[[[-129.90414,62.37976],[-129.90418,62.38386],[-129.89534,62.38388],[-129.8953,62.37978],[-129.90414,62.37976]]]}},{"type":"Feature","properties":{"c":"YF39078","o":"0926764 BC Ltd - 100%","e":"2032-03-22"},"geometry":{"type":"Polygon","coordinates":[[[-129.73628,62.1301],[-129.73631,62.1342],[-129.72769,62.13422],[-129.72765,62.13012],[-129.73628,62.1301]]]}},{"type":"Feature","properties":{"c":"YF39082","o":"0926764 BC Ltd - 100%","e":"2032-03-22"},"geometry":{"type":"Polygon","coordinates":[[[-129.71906,62.13423],[-129.71909,62.13833],[-129.71046,62.13835],[-129.71043,62.13425],[-129.71906,62.13423]]]}},{"type":"Feature","properties":{"c":"YB55957","o":"TROILUS GOLD CORP. - 100%","e":"2029-03-06"},"geometry":{"type":"Polygon","coordinates":[[[-129.84661,62.00404],[-129.83812,62.00307],[-129.84018,61.99908],[-129.84866,62.00005],[-129.84661,62.00404]]]}},{"type":"Feature","properties":{"c":"YD76731","o":"Terrence King - 100%","e":"2031-03-08"},"geometry":{"type":"Polygon","coordinates":[[[-129.7014,62.29379],[-129.70853,62.29609],[-129.70358,62.29941],[-129.69645,62.29711],[-129.7014,62.29379]]]}},{"type":"Feature","properties":{"c":"YD07594","o":"SELWYN CHIHONG MINING LTD - 100%","e":"2029-10-08"},"geometry":{"type":"Polygon","coordinates":[[[-129.91278,62.36334],[-129.91283,62.36744],[-129.90399,62.36746],[-129.90395,62.36336],[-129.91278,62.36334]]]}},{"type":"Feature","properties":{"c":"YB90979","o":"SELWYN CHIHONG MINING LTD - 100%","e":"2029-03-05"},"geometry":{"type":"Polygon","coordinates":[[[-129.50341,62.46821],[-129.49473,62.46681],[-129.49755,62.46315],[-129.50642,62.46457],[-129.50341,62.46821]]]}},{"type":"Feature","properties":{"c":"YF39083","o":"0926764 BC Ltd - 100%","e":"2032-03-22"},"geometry":{"type":"Polygon","coordinates":[[[-129.71043,62.13425],[-129.71046,62.13835],[-129.70183,62.13836],[-129.7018,62.13426],[-129.71043,62.13425]]]}},{"type":"Feature","properties":{"c":"YC90580","o":"SELWYN CHIHONG MINING LTD - 100%","e":"2029-07-20"},"geometry":{"type":"Polygon","coordinates":[[[-129.92964,62.48019],[-129.92992,62.48429],[-129.92106,62.48442],[-129.92078,62.48032],[-129.92964,62.48019]]]}},{"type":"Feature","properties":{"c":"YD76727","o":"Terrence King - 100%","e":"2031-03-08"},"geometry":{"type":"Polygon","coordinates":[[[-129.72715,62.31193],[-129.73429,62.31423],[-129.72934,62.31754],[-129.7222,62.31524],[-129.72715,62.31193]]]}},{"type":"Feature","properties":{"c":"YF39085","o":"0926764 BC Ltd - 100%","e":"2032-03-22"},"geometry":{"type":"Polygon","coordinates":[[[-129.7104,62.13015],[-129.71043,62.13425],[-129.7018,62.13426],[-129.70177,62.13016],[-129.7104,62.13015]]]}},{"type":"Feature","properties":{"c":"YD76746","o":"Terrence King - 100%","e":"2031-03-08"},"geometry":{"type":"Polygon","coordinates":[[[-129.74199,62.30198],[-129.74912,62.30428],[-129.74418,62.3076],[-129.73705,62.3053],[-129.74199,62.30198]]]}},{"type":"Feature","properties":{"c":"YF39084","o":"0926764 BC Ltd - 100%","e":"2032-03-22"},"geometry":{"type":"Polygon","coordinates":[[[-129.71902,62.13013],[-129.71906,62.13423],[-129.71043,62.13425],[-129.7104,62.13015],[-129.71902,62.13013]]]}},{"type":"Feature","properties":{"c":"YB55959","o":"TROILUS GOLD CORP. - 100%","e":"2029-03-06"},"geometry":{"type":"Polygon","coordinates":[[[-129.85715,62.00102],[-129.85509,62.005],[-129.84661,62.00404],[-129.84866,62.00005],[-129.85715,62.00102]]]}},{"type":"Feature","properties":{"c":"YD76724","o":"Terrence King - 100%","e":"2031-03-08"},"geometry":{"type":"Polygon","coordinates":[[[-129.70794,62.31064],[-129.71507,62.31294],[-129.71012,62.31626],[-129.70299,62.31396],[-129.70794,62.31064]]]}},{"type":"Feature","properties":{"c":"YB90990","o":"SELWYN CHIHONG MINING LTD - 100%","e":"2029-03-05"},"geometry":{"type":"Polygon","coordinates":[[[-129.53695,62.47402],[-129.54509,62.47543],[-129.54179,62.47949],[-129.53363,62.47806],[-129.53695,62.47402]]]}},{"type":"Feature","properties":{"c":"YD76765","o":"Terrence King - 100%","e":"2031-03-08"},"geometry":{"type":"Polygon","coordinates":[[[-129.80868,62.28332],[-129.80891,62.28742],[-129.8001,62.28753],[-129.79987,62.28343],[-129.80868,62.28332]]]}},{"type":"Feature","properties":{"c":"YD76733","o":"Terrence King - 100%","e":"2031-03-08"},"geometry":{"type":"Polygon","coordinates":[[[-129.70853,62.29609],[-129.71566,62.2984],[-129.71071,62.30171],[-129.70358,62.29941],[-129.70853,62.29609]]]}},{"type":"Feature","properties":{"c":"YF39067","o":"0926764 BC Ltd - 100%","e":"2032-03-22"},"geometry":{"type":"Polygon","coordinates":[[[-129.74487,62.12598],[-129.74491,62.13008],[-129.73628,62.1301],[-129.73624,62.126],[-129.74487,62.12598]]]}},{"type":"Feature","properties":{"c":"YD76741","o":"Terrence King - 100%","e":"2031-03-08"},"geometry":{"type":"Polygon","coordinates":[[[-129.73705,62.3053],[-129.74418,62.3076],[-129.73923,62.31091],[-129.7321,62.30861],[-129.73705,62.3053]]]}},{"type":"Feature","properties":{"c":"YC91890","o":"SELWYN CHIHONG MINING LTD - 100%","e":"2029-07-20"},"geometry":{"type":"Polygon","coordinates":[[[-129.93367,62.49697],[-129.9337,62.50107],[-129.92483,62.50109],[-129.9248,62.49699],[-129.93367,62.49697]]]}},{"type":"Feature","properties":{"c":"YF39080","o":"0926764 BC Ltd - 100%","e":"2032-03-22"},"geometry":{"type":"Polygon","coordinates":[[[-129.73631,62.1342],[-129.73635,62.1383],[-129.72772,62.13832],[-129.72769,62.13422],[-129.73631,62.1342]]]}},{"type":"Feature","properties":{"c":"YD07597","o":"SELWYN CHIHONG MINING LTD - 100%","e":"2029-10-08"},"geometry":{"type":"Polygon","coordinates":[[[-129.89516,62.36748],[-129.8952,62.37158],[-129.88637,62.3716],[-129.88632,62.3675],[-129.89516,62.36748]]]}},{"type":"Feature","properties":{"c":"YC90571","o":"SELWYN CHIHONG MINING LTD - 100%","e":"2029-07-20"},"geometry":{"type":"Polygon","coordinates":[[[-129.93738,62.46367],[-129.93766,62.46777],[-129.92881,62.4679],[-129.92853,62.4638],[-129.93738,62.46367]]]}},{"type":"Feature","properties":{"c":"YF39081","o":"0926764 BC Ltd - 100%","e":"2032-03-22"},"geometry":{"type":"Polygon","coordinates":[[[-129.72769,62.13422],[-129.72772,62.13832],[-129.71909,62.13833],[-129.71906,62.13423],[-129.72769,62.13422]]]}},{"type":"Feature","properties":{"c":"YD76778","o":"Terrence King - 100%","e":"2031-03-08"},"geometry":{"type":"Polygon","coordinates":[[[-129.81701,62.27501],[-129.81724,62.27911],[-129.80844,62.27922],[-129.8082,62.27512],[-129.81102,62.27509],[-129.81701,62.27501]]]}},{"type":"Feature","properties":{"c":"YD76761","o":"Terrence King - 100%","e":"2031-03-08"},"geometry":{"type":"Polygon","coordinates":[[[-129.792,62.29994],[-129.79224,62.30403],[-129.78342,62.30414],[-129.78319,62.30005],[-129.792,62.29994]]]}},{"type":"Feature","properties":{"c":"YD76763","o":"Terrence King - 100%","e":"2031-03-08"},"geometry":{"type":"Polygon","coordinates":[[[-129.80844,62.27922],[-129.80868,62.28332],[-129.79987,62.28343],[-129.79963,62.27933],[-129.80844,62.27922]]]}},{"type":"Feature","properties":{"c":"YD07572","o":"SELWYN CHIHONG MINING LTD - 100%","e":"2029-10-08"},"geometry":{"type":"Polygon","coordinates":[[[-129.92182,62.37972],[-129.92187,62.38382],[-129.91303,62.38384],[-129.91298,62.37974],[-129.92182,62.37972]]]}},{"type":"Feature","properties":{"c":"YB90975","o":"SELWYN CHIHONG MINING LTD - 100%","e":"2029-03-05"},"geometry":{"type":"Polygon","coordinates":[[[-129.53879,62.48316],[-129.53059,62.48175],[-129.53363,62.47806],[-129.54179,62.47949],[-129.53895,62.48297],[-129.53879,62.48316]]]}},{"type":"Feature","properties":{"c":"YD76772","o":"Terrence King - 100%","e":"2031-03-08"},"geometry":{"type":"Polygon","coordinates":[[[-129.80058,62.29573],[-129.80082,62.29983],[-129.792,62.29994],[-129.79177,62.29584],[-129.80058,62.29573]]]}},{"type":"Feature","properties":{"c":"YD76747","o":"Terrence King - 100%","e":"2031-03-08"},"geometry":{"type":"Polygon","coordinates":[[[-129.76614,62.29994],[-129.77328,62.30224],[-129.76834,62.30556],[-129.7612,62.30326],[-129.76614,62.29994]]]}},{"type":"Feature","properties":{"c":"YF39070","o":"0926764 BC Ltd - 100%","e":"2032-03-22"},"geometry":{"type":"Polygon","coordinates":[[[-129.75342,62.11776],[-129.75346,62.12186],[-129.74484,62.12188],[-129.7448,62.11778],[-129.75342,62.11776]]]}},{"type":"Feature","properties":{"c":"YD76777","o":"Terrence King - 100%","e":"2031-03-08"},"geometry":{"type":"Polygon","coordinates":[[[-129.82581,62.2749],[-129.82605,62.279],[-129.81724,62.27911],[-129.81701,62.27501],[-129.82581,62.2749]]]}},{"type":"Feature","properties":{"c":"YD76722","o":"Terrence King - 100%","e":"2031-03-08"},"geometry":{"type":"Polygon","coordinates":[[[-129.70081,62.30834],[-129.70794,62.31064],[-129.70299,62.31396],[-129.69586,62.31166],[-129.70081,62.30834]]]}},{"type":"Feature","properties":{"c":"YF39094","o":"0926764 BC Ltd - 100%","e":"2032-03-22"},"geometry":{"type":"Polygon","coordinates":[[[-129.70171,62.12196],[-129.70174,62.12606],[-129.69311,62.12607],[-129.69308,62.12197],[-129.70171,62.12196]]]}},{"type":"Feature","properties":{"c":"YF39064","o":"0926764 BC Ltd - 100%","e":"2032-03-22"},"geometry":{"type":"Polygon","coordinates":[[[-129.75354,62.13007],[-129.75357,62.13417],[-129.74494,62.13418],[-129.74491,62.13008],[-129.75354,62.13007]]]}},{"type":"Feature","properties":{"c":"YD76735","o":"Terrence King - 100%","e":"2031-03-08"},"geometry":{"type":"Polygon","coordinates":[[[-129.71566,62.2984],[-129.72278,62.3007],[-129.71784,62.30401],[-129.71071,62.30171],[-129.71566,62.2984]]]}},{"type":"Feature","properties":{"c":"YD76744","o":"Terrence King - 100%","e":"2031-03-08"},"geometry":{"type":"Polygon","coordinates":[[[-129.73923,62.31091],[-129.74637,62.31321],[-129.74142,62.31653],[-129.73429,62.31423],[-129.73923,62.31091]]]}},{"type":"Feature","properties":{"c":"YB90967","o":"SELWYN CHIHONG MINING LTD - 100%","e":"2029-03-05"},"geometry":{"type":"Polygon","coordinates":[[[-129.50829,62.47362],[-129.5053,62.47739],[-129.497,62.47603],[-129.50006,62.47224],[-129.50829,62.47362]]]}},{"type":"Feature","properties":{"c":"YF39072","o":"0926764 BC Ltd - 100%","e":"2032-03-22"},"geometry":{"type":"Polygon","coordinates":[[[-129.73617,62.1178],[-129.73621,62.1219],[-129.72758,62.12191],[-129.72755,62.11781],[-129.73617,62.1178]]]}},{"type":"Feature","properties":{"c":"YD07600","o":"SELWYN CHIHONG MINING LTD - 100%","e":"2029-10-08"},"geometry":{"type":"Polygon","coordinates":[[[-129.88628,62.3634],[-129.88632,62.3675],[-129.87748,62.36753],[-129.87744,62.36343],[-129.88628,62.3634]]]}},{"type":"Feature","properties":{"c":"YB55975","o":"TROILUS GOLD CORP. - 100%","e":"2029-03-06"},"geometry":{"type":"Polygon","coordinates":[[[-129.85742,62.01794],[-129.85536,62.02192],[-129.84687,62.02096],[-129.84893,62.01697],[-129.85742,62.01794]]]}},{"type":"Feature","properties":{"c":"YD76730","o":"Terrence King - 100%","e":"2031-03-08"},"geometry":{"type":"Polygon","coordinates":[[[-129.72934,62.31754],[-129.73647,62.31984],[-129.73152,62.32316],[-129.72439,62.32086],[-129.72934,62.31754]]]}},{"type":"Feature","properties":{"c":"YC91883","o":"SELWYN CHIHONG MINING LTD - 100%","e":"2029-07-20"},"geometry":{"type":"Polygon","coordinates":[[[-129.90704,62.49292],[-129.90707,62.49702],[-129.8982,62.49703],[-129.89817,62.49293],[-129.90704,62.49292]]]}},{"type":"Feature","properties":{"c":"YD76740","o":"Terrence King - 100%","e":"2031-03-08"},"geometry":{"type":"Polygon","coordinates":[[[-129.72497,62.30631],[-129.7321,62.30861],[-129.72715,62.31193],[-129.72002,62.30963],[-129.72497,62.30631]]]}},{"type":"Feature","properties":{"c":"YD07574","o":"SELWYN CHIHONG MINING LTD - 100%","e":"2029-10-08"},"geometry":{"type":"Polygon","coordinates":[[[-129.91298,62.37974],[-129.91303,62.38384],[-129.90418,62.38386],[-129.90414,62.37976],[-129.91298,62.37974]]]}},{"type":"Feature","properties":{"c":"YD76758","o":"Terrence King - 100%","e":"2031-03-08"},"geometry":{"type":"Polygon","coordinates":[[[-129.78272,62.29185],[-129.78295,62.29595],[-129.77414,62.29606],[-129.77391,62.29196],[-129.78272,62.29185]]]}},{"type":"Feature","properties":{"c":"YF39079","o":"0926764 BC Ltd - 100%","e":"2032-03-22"},"geometry":{"type":"Polygon","coordinates":[[[-129.72765,62.13012],[-129.72769,62.13422],[-129.71906,62.13423],[-129.71902,62.13013],[-129.72765,62.13012]]]}},{"type":"Feature","properties":{"c":"YF39100","o":"0926764 BC Ltd - 100%","e":"2032-03-22"},"geometry":{"type":"Polygon","coordinates":[[[-129.7018,62.13426],[-129.70183,62.13836],[-129.6932,62.13837],[-129.69317,62.13427],[-129.7018,62.13426]]]}},{"type":"Feature","properties":{"c":"YD76751","o":"Terrence King - 100%","e":"2031-03-08"},"geometry":{"type":"Polygon","coordinates":[[[-129.79082,62.27944],[-129.79106,62.28354],[-129.78225,62.28365],[-129.78202,62.27955],[-129.79082,62.27944]]]}},{"type":"Feature","properties":{"c":"YF39073","o":"0926764 BC Ltd - 100%","e":"2032-03-22"},"geometry":{"type":"Polygon","coordinates":[[[-129.72755,62.11781],[-129.72758,62.12191],[-129.71896,62.12193],[-129.71893,62.11783],[-129.72755,62.11781]]]}},{"type":"Feature","properties":{"c":"YD07575","o":"SELWYN CHIHONG MINING LTD - 100%","e":"2029-10-08"},"geometry":{"type":"Polygon","coordinates":[[[-129.90418,62.38386],[-129.90423,62.38796],[-129.89539,62.38798],[-129.89534,62.38388],[-129.90418,62.38386]]]}},{"type":"Feature","properties":{"c":"YB55962","o":"TROILUS GOLD CORP. - 100%","e":"2029-03-06"},"geometry":{"type":"Polygon","coordinates":[[[-129.86358,62.00597],[-129.86152,62.00996],[-129.85304,62.00899],[-129.85509,62.005],[-129.86358,62.00597]]]}},{"type":"Feature","properties":{"c":"YD76766","o":"Terrence King - 100%","e":"2031-03-08"},"geometry":{"type":"Polygon","coordinates":[[[-129.79987,62.28343],[-129.8001,62.28753],[-129.79129,62.28764],[-129.79106,62.28354],[-129.79987,62.28343]]]}},{"type":"Feature","properties":{"c":"YB55967","o":"TROILUS GOLD CORP. - 100%","e":"2029-03-06"},"geometry":{"type":"Polygon","coordinates":[[[-129.89109,62.00487],[-129.88904,62.00886],[-129.88055,62.0079],[-129.8826,62.00391],[-129.89109,62.00487]]]}},{"type":"Feature","properties":{"c":"YB49306","o":"TROILUS GOLD CORP. - 100%","e":"2029-03-06"},"geometry":{"type":"Polygon","coordinates":[[[-129.85304,62.00899],[-129.85098,62.01298],[-129.8425,62.01202],[-129.84455,62.00803],[-129.85304,62.00899]]]}},{"type":"Feature","properties":{"c":"YD76737","o":"Terrence King - 100%","e":"2031-03-08"},"geometry":{"type":"Polygon","coordinates":[[[-129.72278,62.3007],[-129.72992,62.303],[-129.72497,62.30631],[-129.71784,62.30401],[-129.72278,62.3007]]]}},{"type":"Feature","properties":{"c":"YD76723","o":"Terrence King - 100%","e":"2031-03-08"},"geometry":{"type":"Polygon","coordinates":[[[-129.71289,62.30733],[-129.72002,62.30963],[-129.71507,62.31294],[-129.70794,62.31064],[-129.71289,62.30733]]]}},{"type":"Feature","properties":{"c":"YC90588","o":"SELWYN CHIHONG MINING LTD - 100%","e":"2029-07-20"},"geometry":{"type":"Polygon","coordinates":[[[-129.91165,62.47635],[-129.91193,62.48045],[-129.90307,62.48058],[-129.90279,62.47648],[-129.91165,62.47635]]]}},{"type":"Feature","properties":{"c":"YF39075","o":"0926764 BC Ltd - 100%","e":"2032-03-22"},"geometry":{"type":"Polygon","coordinates":[[[-129.72758,62.12191],[-129.72762,62.12601],[-129.71899,62.12603],[-129.71896,62.12193],[-129.72758,62.12191]]]}},{"type":"Feature","properties":{"c":"YB55966","o":"TROILUS GOLD CORP. - 100%","e":"2029-03-06"},"geometry":{"type":"Polygon","coordinates":[[[-129.88055,62.0079],[-129.8785,62.01189],[-129.87001,62.01092],[-129.87206,62.00693],[-129.88055,62.0079]]]}},{"type":"Feature","properties":{"c":"YC90582","o":"SELWYN CHIHONG MINING LTD - 100%","e":"2029-07-20"},"geometry":{"type":"Polygon","coordinates":[[[-129.91082,62.46406],[-129.9111,62.46815],[-129.90225,62.46828],[-129.90197,62.46418],[-129.91082,62.46406]]]}},{"type":"Feature","properties":{"c":"YD07571","o":"SELWYN CHIHONG MINING LTD - 100%","e":"2029-10-08"},"geometry":{"type":"Polygon","coordinates":[[[-129.92187,62.38382],[-129.92192,62.38792],[-129.91307,62.38794],[-129.91303,62.38384],[-129.92187,62.38382]]]}},{"type":"Feature","properties":{"c":"YB92372","o":"SELWYN CHIHONG MINING LTD - 100%","e":"2029-03-05"},"geometry":{"type":"Polygon","coordinates":[[[-129.51892,62.48421],[-129.52213,62.48029],[-129.52497,62.48078],[-129.52176,62.4847],[-129.51892,62.48421]]]}},{"type":"Feature","properties":{"c":"YD07589","o":"SELWYN CHIHONG MINING LTD - 100%","e":"2029-10-08"},"geometry":{"type":"Polygon","coordinates":[[[-129.88641,62.3757],[-129.88646,62.3798],[-129.87761,62.37982],[-129.87757,62.37573],[-129.88641,62.3757]]]}},{"type":"Feature","properties":{"c":"YD76759","o":"Terrence King - 100%","e":"2031-03-08"},"geometry":{"type":"Polygon","coordinates":[[[-129.79177,62.29584],[-129.792,62.29994],[-129.78319,62.30005],[-129.78295,62.29595],[-129.79177,62.29584]]]}},{"type":"Feature","properties":{"c":"YD76773","o":"Terrence King - 100%","e":"2031-03-08"},"geometry":{"type":"Polygon","coordinates":[[[-129.80963,62.29972],[-129.80987,62.30381],[-129.80105,62.30392],[-129.80082,62.29983],[-129.80963,62.29972]]]}},{"type":"Feature","properties":{"c":"YF39097","o":"0926764 BC Ltd - 100%","e":"2032-03-22"},"geometry":{"type":"Polygon","coordinates":[[[-129.69311,62.12607],[-129.69314,62.13017],[-129.68451,62.13019],[-129.68448,62.12609],[-129.69311,62.12607]]]}},{"type":"Feature","properties":{"c":"YF39086","o":"0926764 BC Ltd - 100%","e":"2032-03-22"},"geometry":{"type":"Polygon","coordinates":[[[-129.71899,62.12603],[-129.71902,62.13013],[-129.7104,62.13015],[-129.71036,62.12604],[-129.71899,62.12603]]]}},{"type":"Feature","properties":{"c":"YD76743","o":"Terrence King - 100%","e":"2031-03-08"},"geometry":{"type":"Polygon","coordinates":[[[-129.74418,62.3076],[-129.75131,62.3099],[-129.74637,62.31321],[-129.73923,62.31091],[-129.74418,62.3076]]]}},{"type":"Feature","properties":{"c":"YD76782","o":"Terrence King - 100%","e":"2031-03-08"},"geometry":{"type":"Polygon","coordinates":[[[-129.81748,62.28321],[-129.81772,62.28731],[-129.80891,62.28742],[-129.80868,62.28332],[-129.8115,62.28328],[-129.81748,62.28321]]]}},{"type":"Feature","properties":{"c":"YD76762","o":"Terrence King - 100%","e":"2031-03-08"},"geometry":{"type":"Polygon","coordinates":[[[-129.78319,62.30005],[-129.78342,62.30414],[-129.77934,62.30419],[-129.77452,62.30264],[-129.77437,62.30015],[-129.78319,62.30005]]]}},{"type":"Feature","properties":{"c":"YF39062","o":"0926764 BC Ltd - 100%","e":"2032-03-22"},"geometry":{"type":"Polygon","coordinates":[[[-129.75357,62.13417],[-129.75361,62.13827],[-129.74498,62.13828],[-129.74494,62.13418],[-129.75357,62.13417]]]}},{"type":"Feature","properties":{"c":"YB90980","o":"SELWYN CHIHONG MINING LTD - 100%","e":"2029-03-05"},"geometry":{"type":"Polygon","coordinates":[[[-129.49166,62.4708],[-129.49473,62.46681],[-129.50341,62.46821],[-129.50006,62.47224],[-129.49166,62.4708]]]}},{"type":"Feature","properties":{"c":"YD76776","o":"Terrence King - 100%","e":"2031-03-08"},"geometry":{"type":"Polygon","coordinates":[[[-129.81677,62.27091],[-129.81701,62.27501],[-129.8082,62.27512],[-129.80796,62.27102],[-129.81078,62.27099],[-129.81677,62.27091]]]}},{"type":"Feature","properties":{"c":"YC91889","o":"SELWYN CHIHONG MINING LTD - 100%","e":"2029-07-20"},"geometry":{"type":"Polygon","coordinates":[[[-129.93363,62.49287],[-129.93367,62.49697],[-129.9248,62.49699],[-129.92477,62.49289],[-129.93363,62.49287]]]}},{"type":"Feature","properties":{"c":"YB90983","o":"SELWYN CHIHONG MINING LTD - 100%","e":"2029-03-05"},"geometry":{"type":"Polygon","coordinates":[[[-129.52275,62.4674],[-129.51978,62.47105],[-129.51146,62.46961],[-129.51436,62.46595],[-129.52275,62.4674]]]}},{"type":"Feature","properties":{"c":"YD07593","o":"SELWYN CHIHONG MINING LTD - 100%","e":"2029-10-08"},"geometry":{"type":"Polygon","coordinates":[[[-129.91283,62.36744],[-129.91288,62.37154],[-129.90404,62.37156],[-129.90399,62.36746],[-129.91283,62.36744]]]}},{"type":"Feature","properties":{"c":"YC91885","o":"SELWYN CHIHONG MINING LTD - 100%","e":"2029-07-20"},"geometry":{"type":"Polygon","coordinates":[[[-129.9159,62.4929],[-129.91593,62.497],[-129.90707,62.49702],[-129.90704,62.49292],[-129.9159,62.4929]]]}},{"type":"Feature","properties":{"c":"YB90982","o":"SELWYN CHIHONG MINING LTD - 100%","e":"2029-03-05"},"geometry":{"type":"Polygon","coordinates":[[[-129.51146,62.46961],[-129.50829,62.47362],[-129.50006,62.47224],[-129.50341,62.46821],[-129.51146,62.46961]]]}},{"type":"Feature","properties":{"c":"YD07579","o":"SELWYN CHIHONG MINING LTD - 100%","e":"2029-10-08"},"geometry":{"type":"Polygon","coordinates":[[[-129.8865,62.3839],[-129.88655,62.388],[-129.8777,62.38802],[-129.87766,62.38392],[-129.8865,62.3839]]]}},{"type":"Feature","properties":{"c":"YB49309","o":"TROILUS GOLD CORP. - 100%","e":"2029-03-06"},"geometry":{"type":"Polygon","coordinates":[[[-129.8785,62.01189],[-129.87645,62.01588],[-129.86796,62.01491],[-129.87001,62.01092],[-129.8785,62.01189]]]}},{"type":"Feature","properties":{"c":"YC90586","o":"SELWYN CHIHONG MINING LTD - 100%","e":"2029-07-20"},"geometry":{"type":"Polygon","coordinates":[[[-129.91137,62.47225],[-129.91165,62.47635],[-129.90279,62.47648],[-129.90252,62.47238],[-129.91137,62.47225]]]}},{"type":"Feature","properties":{"c":"YD07596","o":"SELWYN CHIHONG MINING LTD - 100%","e":"2029-10-08"},"geometry":{"type":"Polygon","coordinates":[[[-129.90395,62.36336],[-129.90399,62.36746],[-129.89516,62.36748],[-129.89511,62.36338],[-129.90395,62.36336]]]}},{"type":"Feature","properties":{"c":"YC90581","o":"SELWYN CHIHONG MINING LTD - 100%","e":"2029-07-20"},"geometry":{"type":"Polygon","coordinates":[[[-129.91968,62.46393],[-129.91995,62.46803],[-129.9111,62.46815],[-129.91082,62.46406],[-129.91968,62.46393]]]}},{"type":"Feature","properties":{"c":"YB90988","o":"SELWYN CHIHONG MINING LTD - 100%","e":"2029-03-05"},"geometry":{"type":"Polygon","coordinates":[[[-129.52518,62.47658],[-129.52848,62.47256],[-129.53695,62.47402],[-129.53363,62.47806],[-129.52518,62.47658]]]}},{"type":"Feature","properties":{"c":"YC90574","o":"SELWYN CHIHONG MINING LTD - 100%","e":"2029-07-20"},"geometry":{"type":"Polygon","coordinates":[[[-129.92881,62.4679],[-129.92908,62.472],[-129.92023,62.47212],[-129.91995,62.46803],[-129.92881,62.4679]]]}},{"type":"Feature","properties":{"c":"YB55953","o":"TROILUS GOLD CORP. - 100%","e":"2029-03-06"},"geometry":{"type":"Polygon","coordinates":[[[-129.89548,62.01381],[-129.89343,62.0178],[-129.88494,62.01684],[-129.88699,62.01285],[-129.89548,62.01381]]]}},{"type":"Feature","properties":{"c":"YB55960","o":"TROILUS GOLD CORP. - 100%","e":"2029-03-06"},"geometry":{"type":"Polygon","coordinates":[[[-129.85509,62.005],[-129.85304,62.00899],[-129.84455,62.00803],[-129.84661,62.00404],[-129.85509,62.005]]]}},{"type":"Feature","properties":{"c":"YF39065","o":"0926764 BC Ltd - 100%","e":"2032-03-22"},"geometry":{"type":"Polygon","coordinates":[[[-129.74491,62.13008],[-129.74494,62.13418],[-129.73631,62.1342],[-129.73628,62.1301],[-129.74491,62.13008]]]}},{"type":"Feature","properties":{"c":"YB55978","o":"TROILUS GOLD CORP. - 100%","e":"2029-03-06"},"geometry":{"type":"Polygon","coordinates":[[[-129.86385,62.02289],[-129.8618,62.02688],[-129.85331,62.02591],[-129.85536,62.02192],[-129.86385,62.02289]]]}},{"type":"Feature","properties":{"c":"YC91886","o":"SELWYN CHIHONG MINING LTD - 100%","e":"2029-07-20"},"geometry":{"type":"Polygon","coordinates":[[[-129.91593,62.497],[-129.91597,62.5011],[-129.9071,62.50112],[-129.90707,62.49702],[-129.91593,62.497]]]}},{"type":"Feature","properties":{"c":"YC90579","o":"SELWYN CHIHONG MINING LTD - 100%","e":"2029-07-20"},"geometry":{"type":"Polygon","coordinates":[[[-129.9385,62.48006],[-129.93878,62.48416],[-129.92992,62.48429],[-129.92964,62.48019],[-129.9385,62.48006]]]}},{"type":"Feature","properties":{"c":"YD76767","o":"Terrence King - 100%","e":"2031-03-08"},"geometry":{"type":"Polygon","coordinates":[[[-129.80891,62.28742],[-129.80915,62.29152],[-129.80034,62.29163],[-129.8001,62.28753],[-129.80891,62.28742]]]}},{"type":"Feature","properties":{"c":"YC90589","o":"SELWYN CHIHONG MINING LTD - 100%","e":"2029-07-20"},"geometry":{"type":"Polygon","coordinates":[[[-129.92078,62.48032],[-129.92106,62.48442],[-129.9122,62.48455],[-129.91193,62.48045],[-129.92078,62.48032]]]}},{"type":"Feature","properties":{"c":"YB55977","o":"TROILUS GOLD CORP. - 100%","e":"2029-03-06"},"geometry":{"type":"Polygon","coordinates":[[[-129.86385,62.02289],[-129.85536,62.02192],[-129.85742,62.01794],[-129.86591,62.0189],[-129.86385,62.02289]]]}},{"type":"Feature","properties":{"c":"YD07583","o":"SELWYN CHIHONG MINING LTD - 100%","e":"2029-10-08"},"geometry":{"type":"Polygon","coordinates":[[[-129.91293,62.37564],[-129.91298,62.37974],[-129.90414,62.37976],[-129.90409,62.37566],[-129.91293,62.37564]]]}},{"type":"Feature","properties":{"c":"YD76757","o":"Terrence King - 100%","e":"2031-03-08"},"geometry":{"type":"Polygon","coordinates":[[[-129.79153,62.29174],[-129.79177,62.29584],[-129.78295,62.29595],[-129.78272,62.29185],[-129.79153,62.29174]]]}},{"type":"Feature","properties":{"c":"YD76742","o":"Terrence King - 100%","e":"2031-03-08"},"geometry":{"type":"Polygon","coordinates":[[[-129.7321,62.30861],[-129.73923,62.31091],[-129.73429,62.31423],[-129.72715,62.31193],[-129.7321,62.30861]]]}},{"type":"Feature","properties":{"c":"YB90985","o":"SELWYN CHIHONG MINING LTD - 100%","e":"2029-03-05"},"geometry":{"type":"Polygon","coordinates":[[[-129.53147,62.46891],[-129.52848,62.47256],[-129.51978,62.47105],[-129.52275,62.4674],[-129.53147,62.46891]]]}},{"type":"Feature","properties":{"c":"YD07591","o":"SELWYN CHIHONG MINING LTD - 100%","e":"2029-10-08"},"geometry":{"type":"Polygon","coordinates":[[[-129.92167,62.36742],[-129.92172,62.37152],[-129.91288,62.37154],[-129.91283,62.36744],[-129.92167,62.36742]]]}},{"type":"Feature","properties":{"c":"YC90585","o":"SELWYN CHIHONG MINING LTD - 100%","e":"2029-07-20"},"geometry":{"type":"Polygon","coordinates":[[[-129.92023,62.47212],[-129.92051,62.47622],[-129.91165,62.47635],[-129.91137,62.47225],[-129.92023,62.47212]]]}},{"type":"Feature","properties":{"c":"YB90970","o":"SELWYN CHIHONG MINING LTD - 100%","e":"2029-03-05"},"geometry":{"type":"Polygon","coordinates":[[[-129.51347,62.4788],[-129.51029,62.48271],[-129.5022,62.4813],[-129.5053,62.47739],[-129.51347,62.4788]]]}},{"type":"Feature","properties":{"c":"YB90968","o":"SELWYN CHIHONG MINING LTD - 100%","e":"2029-03-05"},"geometry":{"type":"Polygon","coordinates":[[[-129.49386,62.47991],[-129.497,62.47603],[-129.5053,62.47739],[-129.5022,62.4813],[-129.49386,62.47991]]]}},{"type":"Feature","properties":{"c":"YB90986","o":"SELWYN CHIHONG MINING LTD - 100%","e":"2029-03-05"},"geometry":{"type":"Polygon","coordinates":[[[-129.51978,62.47105],[-129.52848,62.47256],[-129.52518,62.47658],[-129.51652,62.47506],[-129.51978,62.47105]]]}},{"type":"Feature","properties":{"c":"YD76781","o":"Terrence King - 100%","e":"2031-03-08"},"geometry":{"type":"Polygon","coordinates":[[[-129.82629,62.2831],[-129.82653,62.2872],[-129.81772,62.28731],[-129.81748,62.28321],[-129.82629,62.2831]]]}},{"type":"Feature","properties":{"c":"YC90576","o":"SELWYN CHIHONG MINING LTD - 100%","e":"2029-07-20"},"geometry":{"type":"Polygon","coordinates":[[[-129.92908,62.472],[-129.92936,62.47609],[-129.92051,62.47622],[-129.92023,62.47212],[-129.92908,62.472]]]}},{"type":"Feature","properties":{"c":"YB90976","o":"SELWYN CHIHONG MINING LTD - 100%","e":"2029-03-05"},"geometry":{"type":"Polygon","coordinates":[[[-129.52736,62.48568],[-129.53059,62.48175],[-129.53879,62.48316],[-129.53557,62.4871],[-129.53479,62.48697],[-129.52736,62.48568]]]}},{"type":"Feature","properties":{"c":"YD07586","o":"SELWYN CHIHONG MINING LTD - 100%","e":"2029-10-08"},"geometry":{"type":"Polygon","coordinates":[[[-129.90404,62.37156],[-129.90409,62.37566],[-129.89525,62.37568],[-129.8952,62.37158],[-129.90404,62.37156]]]}},{"type":"Feature","properties":{"c":"YD07599","o":"SELWYN CHIHONG MINING LTD - 100%","e":"2029-10-08"},"geometry":{"type":"Polygon","coordinates":[[[-129.88632,62.3675],[-129.88637,62.3716],[-129.87753,62.37163],[-129.87748,62.36753],[-129.88632,62.3675]]]}},{"type":"Feature","properties":{"c":"YB90984","o":"SELWYN CHIHONG MINING LTD - 100%","e":"2029-03-05"},"geometry":{"type":"Polygon","coordinates":[[[-129.51146,62.46961],[-129.51978,62.47105],[-129.51652,62.47506],[-129.50829,62.47362],[-129.51146,62.46961]]]}},{"type":"Feature","properties":{"c":"YD76729","o":"Terrence King - 100%","e":"2031-03-08"},"geometry":{"type":"Polygon","coordinates":[[[-129.73429,62.31423],[-129.74142,62.31653],[-129.73647,62.31984],[-129.72934,62.31754],[-129.73429,62.31423]]]}},{"type":"Feature","properties":{"c":"YC90578","o":"SELWYN CHIHONG MINING LTD - 100%","e":"2029-07-20"},"geometry":{"type":"Polygon","coordinates":[[[-129.92936,62.47609],[-129.92964,62.48019],[-129.92078,62.48032],[-129.92051,62.47622],[-129.92936,62.47609]]]}},{"type":"Feature","properties":{"c":"YB55973","o":"TROILUS GOLD CORP. - 100%","e":"2029-03-06"},"geometry":{"type":"Polygon","coordinates":[[[-129.84893,62.01697],[-129.84687,62.02096],[-129.83838,62.01999],[-129.84044,62.016],[-129.84893,62.01697]]]}},{"type":"Feature","properties":{"c":"YB55969","o":"TROILUS GOLD CORP. - 100%","e":"2029-03-06"},"geometry":{"type":"Polygon","coordinates":[[[-129.89957,62.00584],[-129.89752,62.00983],[-129.88904,62.00886],[-129.89109,62.00487],[-129.89957,62.00584]]]}},{"type":"Feature","properties":{"c":"YB90965","o":"SELWYN CHIHONG MINING LTD - 100%","e":"2029-03-05"},"geometry":{"type":"Polygon","coordinates":[[[-129.497,62.47603],[-129.48871,62.47463],[-129.49166,62.4708],[-129.50006,62.47224],[-129.497,62.47603]]]}},{"type":"Feature","properties":{"c":"YD76734","o":"Terrence King - 100%","e":"2031-03-08"},"geometry":{"type":"Polygon","coordinates":[[[-129.70358,62.29941],[-129.71071,62.30171],[-129.70576,62.30503],[-129.69863,62.30272],[-129.70358,62.29941]]]}},{"type":"Feature","properties":{"c":"YF39098","o":"0926764 BC Ltd - 100%","e":"2032-03-22"},"geometry":{"type":"Polygon","coordinates":[[[-129.70177,62.13016],[-129.7018,62.13426],[-129.69317,62.13427],[-129.69314,62.13017],[-129.70177,62.13016]]]}},{"type":"Feature","properties":{"c":"YD76745","o":"Terrence King - 100%","e":"2031-03-08"},"geometry":{"type":"Polygon","coordinates":[[[-129.74912,62.30428],[-129.75626,62.30658],[-129.75131,62.3099],[-129.74418,62.3076],[-129.74912,62.30428]]]}},{"type":"Feature","properties":{"c":"YB90971","o":"SELWYN CHIHONG MINING LTD - 100%","e":"2029-03-05"},"geometry":{"type":"Polygon","coordinates":[[[-129.52518,62.47658],[-129.52213,62.48029],[-129.51347,62.4788],[-129.51652,62.47506],[-129.52518,62.47658]]]}},{"type":"Feature","properties":{"c":"YD76732","o":"Terrence King - 100%","e":"2031-03-08"},"geometry":{"type":"Polygon","coordinates":[[[-129.69645,62.29711],[-129.70358,62.29941],[-129.69863,62.30272],[-129.6915,62.30042],[-129.69645,62.29711]]]}},{"type":"Feature","properties":{"c":"YD76780","o":"Terrence King - 100%","e":"2031-03-08"},"geometry":{"type":"Polygon","coordinates":[[[-129.81724,62.27911],[-129.81748,62.28321],[-129.80868,62.28332],[-129.80844,62.27922],[-129.81126,62.27919],[-129.81724,62.27911]]]}},{"type":"Feature","properties":{"c":"YC91881","o":"SELWYN CHIHONG MINING LTD - 100%","e":"2029-07-20"},"geometry":{"type":"Polygon","coordinates":[[[-129.89817,62.49293],[-129.8982,62.49703],[-129.88934,62.49704],[-129.88931,62.49294],[-129.89817,62.49293]]]}},{"type":"Feature","properties":{"c":"YD76754","o":"Terrence King - 100%","e":"2031-03-08"},"geometry":{"type":"Polygon","coordinates":[[[-129.78225,62.28365],[-129.78248,62.28775],[-129.77367,62.28786],[-129.77344,62.28376],[-129.78225,62.28365]]]}},{"type":"Feature","properties":{"c":"YF39074","o":"0926764 BC Ltd - 100%","e":"2032-03-22"},"geometry":{"type":"Polygon","coordinates":[[[-129.73621,62.1219],[-129.73624,62.126],[-129.72762,62.12601],[-129.72758,62.12191],[-129.73621,62.1219]]]}},{"type":"Feature","properties":{"c":"YD76736","o":"Terrence King - 100%","e":"2031-03-08"},"geometry":{"type":"Polygon","coordinates":[[[-129.71071,62.30171],[-129.71784,62.30401],[-129.71289,62.30733],[-129.70576,62.30503],[-129.71071,62.30171]]]}},{"type":"Feature","properties":{"c":"YF39093","o":"0926764 BC Ltd - 100%","e":"2032-03-22"},"geometry":{"type":"Polygon","coordinates":[[[-129.69308,62.12197],[-129.68446,62.12198],[-129.68443,62.11788],[-129.69305,62.11787],[-129.69308,62.12197]]]}},{"type":"Feature","properties":{"c":"YD07585","o":"SELWYN CHIHONG MINING LTD - 100%","e":"2029-10-08"},"geometry":{"type":"Polygon","coordinates":[[[-129.90409,62.37566],[-129.90414,62.37976],[-129.8953,62.37978],[-129.89525,62.37568],[-129.90409,62.37566]]]}},{"type":"Feature","properties":{"c":"YD76775","o":"Terrence King - 100%","e":"2031-03-08"},"geometry":{"type":"Polygon","coordinates":[[[-129.82557,62.2708],[-129.82581,62.2749],[-129.81701,62.27501],[-129.81677,62.27091],[-129.82557,62.2708]]]}},{"type":"Feature","properties":{"c":"YD07581","o":"SELWYN CHIHONG MINING LTD - 100%","e":"2029-10-08"},"geometry":{"type":"Polygon","coordinates":[[[-129.92177,62.37562],[-129.92182,62.37972],[-129.91298,62.37974],[-129.91293,62.37564],[-129.92177,62.37562]]]}},{"type":"Feature","properties":{"c":"YB55958","o":"TROILUS GOLD CORP. - 100%","e":"2029-03-06"},"geometry":{"type":"Polygon","coordinates":[[[-129.84661,62.00404],[-129.84455,62.00803],[-129.83607,62.00706],[-129.83812,62.00307],[-129.84661,62.00404]]]}},{"type":"Feature","properties":{"c":"YF39088","o":"0926764 BC Ltd - 100%","e":"2032-03-22"},"geometry":{"type":"Polygon","coordinates":[[[-129.71896,62.12193],[-129.71899,62.12603],[-129.71036,62.12604],[-129.71033,62.12194],[-129.71896,62.12193]]]}},{"type":"Feature","properties":{"c":"YD76771","o":"Terrence King - 100%","e":"2031-03-08"},"geometry":{"type":"Polygon","coordinates":[[[-129.80939,62.29562],[-129.80963,62.29972],[-129.80082,62.29983],[-129.80058,62.29573],[-129.80939,62.29562]]]}},{"type":"Feature","properties":{"c":"YB49303","o":"TROILUS GOLD CORP. - 100%","e":"2029-03-06"},"geometry":{"type":"Polygon","coordinates":[[[-129.85098,62.01298],[-129.85947,62.01395],[-129.85742,62.01794],[-129.84893,62.01697],[-129.85098,62.01298]]]}},{"type":"Feature","properties":{"c":"YB55965","o":"TROILUS GOLD CORP. - 100%","e":"2029-03-06"},"geometry":{"type":"Polygon","coordinates":[[[-129.8826,62.00391],[-129.88055,62.0079],[-129.87206,62.00693],[-129.87411,62.00295],[-129.8826,62.00391]]]}},{"type":"Feature","properties":{"c":"YC91882","o":"SELWYN CHIHONG MINING LTD - 100%","e":"2029-07-20"},"geometry":{"type":"Polygon","coordinates":[[[-129.8982,62.49703],[-129.89823,62.50113],[-129.88936,62.50114],[-129.88934,62.49704],[-129.8982,62.49703]]]}},{"type":"Feature","properties":{"c":"YF39095","o":"0926764 BC Ltd - 100%","e":"2032-03-22"},"geometry":{"type":"Polygon","coordinates":[[[-129.69308,62.12197],[-129.69311,62.12607],[-129.68448,62.12609],[-129.68446,62.12198],[-129.69308,62.12197]]]}},{"type":"Feature","properties":{"c":"YB55951","o":"TROILUS GOLD CORP. - 100%","e":"2029-03-06"},"geometry":{"type":"Polygon","coordinates":[[[-129.88699,62.01285],[-129.88494,62.01684],[-129.87645,62.01588],[-129.8785,62.01189],[-129.88699,62.01285]]]}},{"type":"Feature","properties":{"c":"YD76779","o":"Terrence King - 100%","e":"2031-03-08"},"geometry":{"type":"Polygon","coordinates":[[[-129.82605,62.279],[-129.82629,62.2831],[-129.81748,62.28321],[-129.81724,62.27911],[-129.82605,62.279]]]}},{"type":"Feature","properties":{"c":"YB55972","o":"TROILUS GOLD CORP. - 100%","e":"2029-03-06"},"geometry":{"type":"Polygon","coordinates":[[[-129.83633,62.02398],[-129.82784,62.02301],[-129.82989,62.01903],[-129.83838,62.01999],[-129.83633,62.02398]]]}},{"type":"Feature","properties":{"c":"YD76764","o":"Terrence King - 100%","e":"2031-03-08"},"geometry":{"type":"Polygon","coordinates":[[[-129.79963,62.27933],[-129.79987,62.28343],[-129.79106,62.28354],[-129.79082,62.27944],[-129.79963,62.27933]]]}},{"type":"Feature","properties":{"c":"YD76720","o":"Terrence King - 100%","e":"2031-03-08"},"geometry":{"type":"Polygon","coordinates":[[[-129.69368,62.30604],[-129.70081,62.30834],[-129.69586,62.31166],[-129.68873,62.30935],[-129.69368,62.30604]]]}},{"type":"Feature","properties":{"c":"YB55974","o":"TROILUS GOLD CORP. - 100%","e":"2029-03-06"},"geometry":{"type":"Polygon","coordinates":[[[-129.84687,62.02096],[-129.84482,62.02495],[-129.83633,62.02398],[-129.83838,62.01999],[-129.84687,62.02096]]]}},{"type":"Feature","properties":{"c":"YF39071","o":"0926764 BC Ltd - 100%","e":"2032-03-22"},"geometry":{"type":"Polygon","coordinates":[[[-129.7448,62.11778],[-129.74484,62.12188],[-129.73621,62.1219],[-129.73617,62.1178],[-129.7448,62.11778]]]}},{"type":"Feature","properties":{"c":"YD07590","o":"SELWYN CHIHONG MINING LTD - 100%","e":"2029-10-08"},"geometry":{"type":"Polygon","coordinates":[[[-129.88637,62.3716],[-129.88641,62.3757],[-129.87757,62.37573],[-129.87753,62.37163],[-129.88637,62.3716]]]}},{"type":"Feature","properties":{"c":"YD07588","o":"SELWYN CHIHONG MINING LTD - 100%","e":"2029-10-08"},"geometry":{"type":"Polygon","coordinates":[[[-129.8952,62.37158],[-129.89525,62.37568],[-129.88641,62.3757],[-129.88637,62.3716],[-129.8952,62.37158]]]}},{"type":"Feature","properties":{"c":"YC90577","o":"SELWYN CHIHONG MINING LTD - 100%","e":"2029-07-20"},"geometry":{"type":"Polygon","coordinates":[[[-129.93822,62.47597],[-129.9385,62.48006],[-129.92964,62.48019],[-129.92936,62.47609],[-129.93822,62.47597]]]}},{"type":"Feature","properties":{"c":"YB49305","o":"TROILUS GOLD CORP. - 100%","e":"2029-03-06"},"geometry":{"type":"Polygon","coordinates":[[[-129.8425,62.01202],[-129.85098,62.01298],[-129.84893,62.01697],[-129.84044,62.016],[-129.8425,62.01202]]]}},{"type":"Feature","properties":{"c":"YB90969","o":"SELWYN CHIHONG MINING LTD - 100%","e":"2029-03-05"},"geometry":{"type":"Polygon","coordinates":[[[-129.50829,62.47362],[-129.51652,62.47506],[-129.51347,62.4788],[-129.5053,62.47739],[-129.50829,62.47362]]]}},{"type":"Feature","properties":{"c":"YD76774","o":"Terrence King - 100%","e":"2031-03-08"},"geometry":{"type":"Polygon","coordinates":[[[-129.80082,62.29983],[-129.80105,62.30392],[-129.79224,62.30403],[-129.792,62.29994],[-129.80082,62.29983]]]}},{"type":"Feature","properties":{"c":"YF39092","o":"0926764 BC Ltd - 100%","e":"2032-03-22"},"geometry":{"type":"Polygon","coordinates":[[[-129.70168,62.11786],[-129.70171,62.12196],[-129.69308,62.12197],[-129.69305,62.11787],[-129.70168,62.11786]]]}},{"type":"Feature","properties":{"c":"YB55955","o":"TROILUS GOLD CORP. - 100%","e":"2029-03-06"},"geometry":{"type":"Polygon","coordinates":[[[-129.84455,62.00803],[-129.8425,62.01202],[-129.83401,62.01105],[-129.83607,62.00706],[-129.84455,62.00803]]]}},{"type":"Feature","properties":{"c":"YD76719","o":"Terrence King - 100%","e":"2031-03-08"},"geometry":{"type":"Polygon","coordinates":[[[-129.69863,62.30272],[-129.70576,62.30503],[-129.70081,62.30834],[-129.69368,62.30604],[-129.69863,62.30272]]]}},{"type":"Feature","properties":{"c":"YB55952","o":"TROILUS GOLD CORP. - 100%","e":"2029-03-06"},"geometry":{"type":"Polygon","coordinates":[[[-129.88494,62.01684],[-129.88289,62.02083],[-129.8744,62.01987],[-129.87645,62.01588],[-129.88494,62.01684]]]}},{"type":"Feature","properties":{"c":"YC90584","o":"SELWYN CHIHONG MINING LTD - 100%","e":"2029-07-20"},"geometry":{"type":"Polygon","coordinates":[[[-129.9111,62.46815],[-129.91137,62.47225],[-129.90252,62.47238],[-129.90225,62.46828],[-129.9111,62.46815]]]}},{"type":"Feature","properties":{"c":"YD76770","o":"Terrence King - 100%","e":"2031-03-08"},"geometry":{"type":"Polygon","coordinates":[[[-129.80034,62.29163],[-129.80058,62.29573],[-129.79177,62.29584],[-129.79153,62.29174],[-129.80034,62.29163]]]}},{"type":"Feature","properties":{"c":"YB90987","o":"SELWYN CHIHONG MINING LTD - 100%","e":"2029-03-05"},"geometry":{"type":"Polygon","coordinates":[[[-129.53995,62.47037],[-129.53695,62.47402],[-129.52848,62.47256],[-129.53147,62.46891],[-129.53995,62.47037]]]}},{"type":"Feature","properties":{"c":"YB55956","o":"TROILUS GOLD CORP. - 100%","e":"2029-03-06"},"geometry":{"type":"Polygon","coordinates":[[[-129.83401,62.01105],[-129.8425,62.01202],[-129.84044,62.016],[-129.83195,62.01504],[-129.83401,62.01105]]]}},{"type":"Feature","properties":{"c":"YC91887","o":"SELWYN CHIHONG MINING LTD - 100%","e":"2029-07-20"},"geometry":{"type":"Polygon","coordinates":[[[-129.92477,62.49289],[-129.9248,62.49699],[-129.91593,62.497],[-129.9159,62.4929],[-129.92477,62.49289]]]}},{"type":"Feature","properties":{"c":"YD76726","o":"Terrence King - 100%","e":"2031-03-08"},"geometry":{"type":"Polygon","coordinates":[[[-129.71507,62.31294],[-129.7222,62.31524],[-129.71725,62.31856],[-129.71012,62.31626],[-129.71507,62.31294]]]}},{"type":"Feature","properties":{"c":"YD76749","o":"Terrence King - 100%","e":"2031-03-08"},"geometry":{"type":"Polygon","coordinates":[[[-129.77328,62.30224],[-129.78041,62.30454],[-129.77547,62.30786],[-129.76834,62.30556],[-129.7702,62.30431],[-129.77328,62.30224]]]}},{"type":"Feature","properties":{"c":"YD07578","o":"SELWYN CHIHONG MINING LTD - 100%","e":"2029-10-08"},"geometry":{"type":"Polygon","coordinates":[[[-129.8953,62.37978],[-129.89534,62.38388],[-129.8865,62.3839],[-129.88646,62.3798],[-129.8953,62.37978]]]}},{"type":"Feature","properties":{"c":"YB55976","o":"TROILUS GOLD CORP. - 100%","e":"2029-03-06"},"geometry":{"type":"Polygon","coordinates":[[[-129.85536,62.02192],[-129.85331,62.02591],[-129.84482,62.02495],[-129.84687,62.02096],[-129.85536,62.02192]]]}},{"type":"Feature","properties":{"c":"YC90573","o":"SELWYN CHIHONG MINING LTD - 100%","e":"2029-07-20"},"geometry":{"type":"Polygon","coordinates":[[[-129.93766,62.46777],[-129.93794,62.47187],[-129.92908,62.472],[-129.92881,62.4679],[-129.93766,62.46777]]]}},{"type":"Feature","properties":{"c":"YD76768","o":"Terrence King - 100%","e":"2031-03-08"},"geometry":{"type":"Polygon","coordinates":[[[-129.8001,62.28753],[-129.80034,62.29163],[-129.79153,62.29174],[-129.79129,62.28764],[-129.8001,62.28753]]]}},{"type":"Feature","properties":{"c":"YB49308","o":"TROILUS GOLD CORP. - 100%","e":"2029-03-06"},"geometry":{"type":"Polygon","coordinates":[[[-129.85742,62.01794],[-129.85947,62.01395],[-129.86796,62.01491],[-129.86591,62.0189],[-129.85742,62.01794]]]}},{"type":"Feature","properties":{"c":"YD07598","o":"SELWYN CHIHONG MINING LTD - 100%","e":"2029-10-08"},"geometry":{"type":"Polygon","coordinates":[[[-129.89511,62.36338],[-129.89516,62.36748],[-129.88632,62.3675],[-129.88628,62.3634],[-129.89511,62.36338]]]}},{"type":"Feature","properties":{"c":"YB90981","o":"SELWYN CHIHONG MINING LTD - 100%","e":"2029-03-05"},"geometry":{"type":"Polygon","coordinates":[[[-129.51436,62.46595],[-129.51146,62.46961],[-129.50341,62.46821],[-129.50642,62.46457],[-129.51436,62.46595]]]}},{"type":"Feature","properties":{"c":"YD07580","o":"SELWYN CHIHONG MINING LTD - 100%","e":"2029-10-08"},"geometry":{"type":"Polygon","coordinates":[[[-129.88646,62.3798],[-129.8865,62.3839],[-129.87766,62.38392],[-129.87761,62.37982],[-129.88646,62.3798]]]}},{"type":"Feature","properties":{"c":"YF39087","o":"0926764 BC Ltd - 100%","e":"2032-03-22"},"geometry":{"type":"Polygon","coordinates":[[[-129.71036,62.12604],[-129.7104,62.13015],[-129.70177,62.13016],[-129.70174,62.12606],[-129.71036,62.12604]]]}},{"type":"Feature","properties":{"c":"YC90587","o":"SELWYN CHIHONG MINING LTD - 100%","e":"2029-07-20"},"geometry":{"type":"Polygon","coordinates":[[[-129.92051,62.47622],[-129.92078,62.48032],[-129.91193,62.48045],[-129.91165,62.47635],[-129.92051,62.47622]]]}},{"type":"Feature","properties":{"c":"YD76721","o":"Terrence King - 100%","e":"2031-03-08"},"geometry":{"type":"Polygon","coordinates":[[[-129.70576,62.30503],[-129.71289,62.30733],[-129.70794,62.31064],[-129.70081,62.30834],[-129.70576,62.30503]]]}},{"type":"Feature","properties":{"c":"YD76750","o":"Terrence King - 100%","e":"2031-03-08"},"geometry":{"type":"Polygon","coordinates":[[[-129.76834,62.30556],[-129.77547,62.30786],[-129.77053,62.31118],[-129.76339,62.30888],[-129.76834,62.30556]]]}},{"type":"Feature","properties":{"c":"YC90583","o":"SELWYN CHIHONG MINING LTD - 100%","e":"2029-07-20"},"geometry":{"type":"Polygon","coordinates":[[[-129.91995,62.46803],[-129.92023,62.47212],[-129.91137,62.47225],[-129.9111,62.46815],[-129.91995,62.46803]]]}},{"type":"Feature","properties":{"c":"YB55964","o":"TROILUS GOLD CORP. - 100%","e":"2029-03-06"},"geometry":{"type":"Polygon","coordinates":[[[-129.87206,62.00693],[-129.87001,62.01092],[-129.86152,62.00996],[-129.86358,62.00597],[-129.87206,62.00693]]]}},{"type":"Feature","properties":{"c":"YB92371","o":"SELWYN CHIHONG MINING LTD - 100%","e":"2029-03-05"},"geometry":{"type":"Polygon","coordinates":[[[-129.52801,62.47708],[-129.52497,62.48078],[-129.52213,62.48029],[-129.52518,62.47658],[-129.52801,62.47708]]]}},{"type":"Feature","properties":{"c":"YB90972","o":"SELWYN CHIHONG MINING LTD - 100%","e":"2029-03-05"},"geometry":{"type":"Polygon","coordinates":[[[-129.51347,62.4788],[-129.52213,62.48029],[-129.51892,62.48421],[-129.51029,62.48271],[-129.51347,62.4788]]]}},{"type":"Feature","properties":{"c":"YD76717","o":"Terrence King - 100%","e":"2031-03-08"},"geometry":{"type":"Polygon","coordinates":[[[-129.6915,62.30042],[-129.69863,62.30272],[-129.69368,62.30604],[-129.68655,62.30374],[-129.6915,62.30042]]]}},{"type":"Feature","properties":{"c":"YF39066","o":"0926764 BC Ltd - 100%","e":"2032-03-22"},"geometry":{"type":"Polygon","coordinates":[[[-129.7535,62.12597],[-129.75354,62.13007],[-129.74491,62.13008],[-129.74487,62.12598],[-129.7535,62.12597]]]}},{"type":"Feature","properties":{"c":"YD07592","o":"SELWYN CHIHONG MINING LTD - 100%","e":"2029-10-08"},"geometry":{"type":"Polygon","coordinates":[[[-129.92162,62.36332],[-129.92167,62.36742],[-129.91283,62.36744],[-129.91278,62.36334],[-129.92162,62.36332]]]}},{"type":"Feature","properties":{"c":"YD76748","o":"Terrence King - 100%","e":"2031-03-08"},"geometry":{"type":"Polygon","coordinates":[[[-129.7612,62.30326],[-129.76834,62.30556],[-129.76339,62.30888],[-129.75626,62.30658],[-129.7612,62.30326]]]}},{"type":"Feature","properties":{"c":"YF39091","o":"0926764 BC Ltd - 100%","e":"2032-03-22"},"geometry":{"type":"Polygon","coordinates":[[[-129.7103,62.11784],[-129.71033,62.12194],[-129.70171,62.12196],[-129.70168,62.11786],[-129.7103,62.11784]]]}},{"type":"Feature","properties":{"c":"YD07573","o":"SELWYN CHIHONG MINING LTD - 100%","e":"2029-10-08"},"geometry":{"type":"Polygon","coordinates":[[[-129.91303,62.38384],[-129.91307,62.38794],[-129.90423,62.38796],[-129.90418,62.38386],[-129.91303,62.38384]]]}},{"type":"Feature","properties":{"c":"YD76728","o":"Terrence King - 100%","e":"2031-03-08"},"geometry":{"type":"Polygon","coordinates":[[[-129.7222,62.31524],[-129.72934,62.31754],[-129.72439,62.32086],[-129.71725,62.31856],[-129.7222,62.31524]]]}},{"type":"Feature","properties":{"c":"YD76718","o":"Terrence King - 100%","e":"2031-03-08"},"geometry":{"type":"Polygon","coordinates":[[[-129.68655,62.30374],[-129.69368,62.30604],[-129.68873,62.30935],[-129.6816,62.30705],[-129.68655,62.30374]]]}},{"type":"Feature","properties":{"c":"YD76760","o":"Terrence King - 100%","e":"2031-03-08"},"geometry":{"type":"Polygon","coordinates":[[[-129.78295,62.29595],[-129.78319,62.30005],[-129.77437,62.30015],[-129.77414,62.29606],[-129.78295,62.29595]]]}},{"type":"Feature","properties":{"c":"YC90575","o":"SELWYN CHIHONG MINING LTD - 100%","e":"2029-07-20"},"geometry":{"type":"Polygon","coordinates":[[[-129.93794,62.47187],[-129.93822,62.47597],[-129.92936,62.47609],[-129.92908,62.472],[-129.93794,62.47187]]]}},{"type":"Feature","properties":{"c":"YD07587","o":"SELWYN CHIHONG MINING LTD - 100%","e":"2029-10-08"},"geometry":{"type":"Polygon","coordinates":[[[-129.89525,62.37568],[-129.8953,62.37978],[-129.88646,62.3798],[-129.88641,62.3757],[-129.89525,62.37568]]]}},{"type":"Feature","properties":{"c":"YB55963","o":"TROILUS GOLD CORP. - 100%","e":"2029-03-06"},"geometry":{"type":"Polygon","coordinates":[[[-129.87411,62.00295],[-129.87206,62.00693],[-129.86358,62.00597],[-129.86563,62.00198],[-129.87411,62.00295]]]}},{"type":"Feature","properties":{"c":"YD76753","o":"Terrence King - 100%","e":"2031-03-08"},"geometry":{"type":"Polygon","coordinates":[[[-129.79106,62.28354],[-129.79129,62.28764],[-129.78248,62.28775],[-129.78225,62.28365],[-129.79106,62.28354]]]}},{"type":"Feature","properties":{"c":"YC91884","o":"SELWYN CHIHONG MINING LTD - 100%","e":"2029-07-20"},"geometry":{"type":"Polygon","coordinates":[[[-129.90707,62.49702],[-129.9071,62.50112],[-129.89823,62.50113],[-129.8982,62.49703],[-129.90707,62.49702]]]}},{"type":"Feature","properties":{"c":"YD76725","o":"Terrence King - 100%","e":"2031-03-08"},"geometry":{"type":"Polygon","coordinates":[[[-129.72002,62.30963],[-129.72715,62.31193],[-129.7222,62.31524],[-129.71507,62.31294],[-129.72002,62.30963]]]}},{"type":"Feature","properties":{"c":"YD76769","o":"Terrence King - 100%","e":"2031-03-08"},"geometry":{"type":"Polygon","coordinates":[[[-129.80915,62.29152],[-129.80939,62.29562],[-129.80058,62.29573],[-129.80034,62.29163],[-129.80915,62.29152]]]}},{"type":"Feature","properties":{"c":"YC91888","o":"SELWYN CHIHONG MINING LTD - 100%","e":"2029-07-20"},"geometry":{"type":"Polygon","coordinates":[[[-129.9248,62.49699],[-129.92483,62.50109],[-129.91597,62.5011],[-129.91593,62.497],[-129.9248,62.49699]]]}},{"type":"Feature","properties":{"c":"YF39068","o":"0926764 BC Ltd - 100%","e":"2032-03-22"},"geometry":{"type":"Polygon","coordinates":[[[-129.75346,62.12186],[-129.7535,62.12597],[-129.74487,62.12598],[-129.74484,62.12188],[-129.75346,62.12186]]]}},{"type":"Feature","properties":{"c":"YB55971","o":"TROILUS GOLD CORP. - 100%","e":"2029-03-06"},"geometry":{"type":"Polygon","coordinates":[[[-129.83838,62.01999],[-129.82989,62.01903],[-129.83195,62.01504],[-129.84044,62.016],[-129.83838,62.01999]]]}},{"type":"Feature","properties":{"c":"YD07595","o":"SELWYN CHIHONG MINING LTD - 100%","e":"2029-10-08"},"geometry":{"type":"Polygon","coordinates":[[[-129.90399,62.36746],[-129.90404,62.37156],[-129.8952,62.37158],[-129.89516,62.36748],[-129.90399,62.36746]]]}},{"type":"Feature","properties":{"c":"YB55968","o":"TROILUS GOLD CORP. - 100%","e":"2029-03-06"},"geometry":{"type":"Polygon","coordinates":[[[-129.88904,62.00886],[-129.88699,62.01285],[-129.8785,62.01189],[-129.88055,62.0079],[-129.88904,62.00886]]]}},{"type":"Feature","properties":{"c":"YB55954","o":"TROILUS GOLD CORP. - 100%","e":"2029-03-06"},"geometry":{"type":"Polygon","coordinates":[[[-129.89343,62.0178],[-129.89138,62.02179],[-129.88289,62.02083],[-129.88494,62.01684],[-129.89343,62.0178]]]}},{"type":"Feature","properties":{"c":"YB55970","o":"TROILUS GOLD CORP. - 100%","e":"2029-03-06"},"geometry":{"type":"Polygon","coordinates":[[[-129.89752,62.00983],[-129.89548,62.01381],[-129.88699,62.01285],[-129.88904,62.00886],[-129.89752,62.00983]]]}},{"type":"Feature","properties":{"c":"YB49304","o":"TROILUS GOLD CORP. - 100%","e":"2029-03-06"},"geometry":{"type":"Polygon","coordinates":[[[-129.86152,62.00996],[-129.85947,62.01395],[-129.85098,62.01298],[-129.85304,62.00899],[-129.86152,62.00996]]]}},{"type":"Feature","properties":{"c":"YF39089","o":"0926764 BC Ltd - 100%","e":"2032-03-22"},"geometry":{"type":"Polygon","coordinates":[[[-129.71033,62.12194],[-129.71036,62.12604],[-129.70174,62.12606],[-129.70171,62.12196],[-129.71033,62.12194]]]}},{"type":"Feature","properties":{"c":"YC90590","o":"SELWYN CHIHONG MINING LTD - 100%","e":"2029-07-20"},"geometry":{"type":"Polygon","coordinates":[[[-129.91193,62.48045],[-129.9122,62.48455],[-129.90334,62.48467],[-129.90307,62.48058],[-129.91193,62.48045]]]}},{"type":"Feature","properties":{"c":"YB55961","o":"TROILUS GOLD CORP. - 100%","e":"2029-03-06"},"geometry":{"type":"Polygon","coordinates":[[[-129.86563,62.00198],[-129.86358,62.00597],[-129.85509,62.005],[-129.85715,62.00102],[-129.86563,62.00198]]]}},{"type":"Feature","properties":{"c":"YD07584","o":"SELWYN CHIHONG MINING LTD - 100%","e":"2029-10-08"},"geometry":{"type":"Polygon","coordinates":[[[-129.91288,62.37154],[-129.91293,62.37564],[-129.90409,62.37566],[-129.90404,62.37156],[-129.91288,62.37154]]]}},{"type":"Feature","properties":{"c":"YF39063","o":"0926764 BC Ltd - 100%","e":"2032-03-22"},"geometry":{"type":"Polygon","coordinates":[[[-129.74494,62.13418],[-129.74498,62.13828],[-129.73635,62.1383],[-129.73631,62.1342],[-129.74494,62.13418]]]}},{"type":"Feature","properties":{"c":"YB90974","o":"SELWYN CHIHONG MINING LTD - 100%","e":"2029-03-05"},"geometry":{"type":"Polygon","coordinates":[[[-129.52497,62.48078],[-129.53059,62.48175],[-129.52736,62.48568],[-129.52176,62.4847],[-129.52497,62.48078]]]}},{"type":"Feature","properties":{"c":"YF39077","o":"0926764 BC Ltd - 100%","e":"2032-03-22"},"geometry":{"type":"Polygon","coordinates":[[[-129.72762,62.12601],[-129.72765,62.13012],[-129.71902,62.13013],[-129.71899,62.12603],[-129.72762,62.12601]]]}},{"type":"Feature","properties":{"c":"YF39069","o":"0926764 BC Ltd - 100%","e":"2032-03-22"},"geometry":{"type":"Polygon","coordinates":[[[-129.74484,62.12188],[-129.74487,62.12598],[-129.73624,62.126],[-129.73621,62.1219],[-129.74484,62.12188]]]}},{"type":"Feature","properties":{"c":"YB90989","o":"SELWYN CHIHONG MINING LTD - 100%","e":"2029-03-05"},"geometry":{"type":"Polygon","coordinates":[[[-129.54808,62.47178],[-129.54509,62.47543],[-129.53695,62.47402],[-129.53995,62.47037],[-129.54808,62.47178]]]}},{"type":"Feature","properties":{"c":"YC90572","o":"SELWYN CHIHONG MINING LTD - 100%","e":"2029-07-20"},"geometry":{"type":"Polygon","coordinates":[[[-129.92853,62.4638],[-129.92881,62.4679],[-129.91995,62.46803],[-129.91968,62.46393],[-129.92853,62.4638]]]}},{"type":"Feature","properties":{"c":"YF39099","o":"0926764 BC Ltd - 100%","e":"2032-03-22"},"geometry":{"type":"Polygon","coordinates":[[[-129.69314,62.13017],[-129.69317,62.13427],[-129.68454,62.13429],[-129.68451,62.13019],[-129.69314,62.13017]]]}},{"type":"Feature","properties":{"c":"YD07582","o":"SELWYN CHIHONG MINING LTD - 100%","e":"2029-10-08"},"geometry":{"type":"Polygon","coordinates":[[[-129.92172,62.37152],[-129.92177,62.37562],[-129.91293,62.37564],[-129.91288,62.37154],[-129.92172,62.37152]]]}},{"type":"Feature","properties":{"c":"YD76755","o":"Terrence King - 100%","e":"2031-03-08"},"geometry":{"type":"Polygon","coordinates":[[[-129.79129,62.28764],[-129.79153,62.29174],[-129.78272,62.29185],[-129.78248,62.28775],[-129.79129,62.28764]]]}},{"type":"Feature","properties":{"c":"YD76739","o":"Terrence King - 100%","e":"2031-03-08"},"geometry":{"type":"Polygon","coordinates":[[[-129.72992,62.303],[-129.73705,62.3053],[-129.7321,62.30861],[-129.72497,62.30631],[-129.72992,62.303]]]}},{"type":"Feature","properties":{"c":"YF39096","o":"0926764 BC Ltd - 100%","e":"2032-03-22"},"geometry":{"type":"Polygon","coordinates":[[[-129.70174,62.12606],[-129.70177,62.13016],[-129.69314,62.13017],[-129.69311,62.12607],[-129.70174,62.12606]]]}},{"type":"Feature","properties":{"c":"YB49307","o":"TROILUS GOLD CORP. - 100%","e":"2029-03-06"},"geometry":{"type":"Polygon","coordinates":[[[-129.87001,62.01092],[-129.86796,62.01491],[-129.85947,62.01395],[-129.86152,62.00996],[-129.87001,62.01092]]]}},{"type":"Feature","properties":{"c":"YF39090","o":"0926764 BC Ltd - 100%","e":"2032-03-22"},"geometry":{"type":"Polygon","coordinates":[[[-129.71893,62.11783],[-129.71896,62.12193],[-129.71033,62.12194],[-129.7103,62.11784],[-129.71893,62.11783]]]}}]}