{"type":"FeatureCollection","features":[{"type":"Feature","properties":{"c":"1019552","o":"DOUBLEVIEW GOLD CORP","e":"2035-11-29Z"},"geometry":{"type":"Polygon","coordinates":[[[-131.64564,58.2373],[-131.63939,58.2373],[-131.63314,58.2373],[-131.62689,58.2373],[-131.62064,58.2373],[-131.61439,58.2373],[-131.60814,58.2373],[-131.60189,58.2373],[-131.59564,58.2373],[-131.58939,58.2373],[-131.58314,58.2373],[-131.58314,58.23313],[-131.58314,58.22897],[-131.58939,58.22897],[-131.58939,58.2248],[-131.59564,58.2248],[-131.60189,58.2248],[-131.60814,58.2248],[-131.61439,58.2248],[-131.62064,58.2248],[-131.62689,58.2248],[-131.63314,58.2248],[-131.63314,58.22897],[-131.63939,58.22897],[-131.64564,58.22897],[-131.64564,58.23313],[-131.64564,58.2373]]]}},{"type":"Feature","properties":{"c":"1019554","o":"DOUBLEVIEW GOLD CORP","e":"2035-11-29Z"},"geometry":{"type":"Polygon","coordinates":[[[-131.68314,58.24563],[-131.68314,58.2498],[-131.67689,58.2498],[-131.67689,58.25397],[-131.67689,58.25813],[-131.67689,58.2623],[-131.68314,58.2623],[-131.68314,58.26647],[-131.67689,58.26647],[-131.67064,58.26647],[-131.66439,58.26647],[-131.66439,58.2623],[-131.65814,58.2623],[-131.65814,58.25813],[-131.65189,58.25813],[-131.65189,58.25396],[-131.64564,58.25396],[-131.64564,58.2498],[-131.63939,58.2498],[-131.63939,58.24563],[-131.63314,58.24563],[-131.63314,58.24147],[-131.62689,58.24146],[-131.62689,58.2373],[-131.63314,58.2373],[-131.63939,58.2373],[-131.64564,58.2373],[-131.65189,58.2373],[-131.65814,58.2373],[-131.66439,58.2373],[-131.67064,58.2373],[-131.67689,58.2373],[-131.68314,58.2373],[-131.68314,58.24147],[-131.68314,58.24563]]]}},{"type":"Feature","properties":{"c":"1019557","o":"DOUBLEVIEW GOLD CORP","e":"2035-11-29Z"},"geometry":{"type":"Polygon","coordinates":[[[-131.66439,58.26647],[-131.65814,58.26647],[-131.65189,58.26647],[-131.64564,58.26647],[-131.64564,58.2623],[-131.63939,58.2623],[-131.63314,58.2623],[-131.63314,58.25813],[-131.62689,58.25813],[-131.62064,58.25813],[-131.62064,58.25396],[-131.61439,58.25396],[-131.61439,58.2498],[-131.60814,58.2498],[-131.60814,58.24563],[-131.60189,58.24563],[-131.60189,58.24146],[-131.59564,58.24146],[-131.59564,58.2373],[-131.60189,58.2373],[-131.60814,58.2373],[-131.61439,58.2373],[-131.62064,58.2373],[-131.62689,58.2373],[-131.62689,58.24146],[-131.63314,58.24147],[-131.63314,58.24563],[-131.63939,58.24563],[-131.63939,58.2498],[-131.64564,58.2498],[-131.64564,58.25396],[-131.65189,58.25396],[-131.65189,58.25813],[-131.65814,58.25813],[-131.65814,58.2623],[-131.66439,58.2623],[-131.66439,58.26647]]]}},{"type":"Feature","properties":{"c":"1047115","o":"WEICKER, ROBERT FREDERICK","e":"2029-01-01Z"},"geometry":{"type":"Polygon","coordinates":[[[-131.55815,58.20397],[-131.5519,58.20397],[-131.55191,58.19981],[-131.55191,58.19564],[-131.55816,58.19564],[-131.55815,58.19981],[-131.55815,58.20397]]]}},{"type":"Feature","properties":{"c":"515549","o":"DOUBLEVIEW GOLD CORP","e":"2035-11-29Z"},"geometry":{"type":"Polygon","coordinates":[[[-131.63939,58.19564],[-131.63939,58.19981],[-131.63314,58.19981],[-131.63314,58.19564],[-131.6269,58.19564],[-131.62065,58.19564],[-131.6144,58.19564],[-131.60815,58.19564],[-131.60815,58.19147],[-131.60815,58.18731],[-131.6144,58.18731],[-131.62065,58.18731],[-131.6269,58.18731],[-131.63315,58.18731],[-131.63939,58.18731],[-131.63939,58.19147],[-131.63939,58.19564]]]}},{"type":"Feature","properties":{"c":"515550","o":"DOUBLEVIEW GOLD CORP","e":"2035-11-29Z"},"geometry":{"type":"Polygon","coordinates":[[[-131.60814,58.21647],[-131.60814,58.22064],[-131.60814,58.2248],[-131.60189,58.2248],[-131.59564,58.2248],[-131.58939,58.2248],[-131.58315,58.2248],[-131.5769,58.2248],[-131.57065,58.2248],[-131.5644,58.2248],[-131.5644,58.22063],[-131.5644,58.21647],[-131.5644,58.2123],[-131.5644,58.20814],[-131.5644,58.20397],[-131.5644,58.19981],[-131.56441,58.19564],[-131.57065,58.19564],[-131.5769,58.19564],[-131.5769,58.19981],[-131.58315,58.19981],[-131.5894,58.19981],[-131.59565,58.19981],[-131.6019,58.19981],[-131.6019,58.20397],[-131.6019,58.20814],[-131.60815,58.20814],[-131.60815,58.2123],[-131.60814,58.21647]]]}},{"type":"Feature","properties":{"c":"896518","o":"DOUBLEVIEW GOLD CORP","e":"2035-11-29Z"},"geometry":{"type":"Polygon","coordinates":[[[-131.63939,58.20814],[-131.63939,58.2123],[-131.63939,58.21647],[-131.63939,58.22064],[-131.63939,58.2248],[-131.64564,58.2248],[-131.64564,58.22897],[-131.63939,58.22897],[-131.63314,58.22897],[-131.63314,58.2248],[-131.62689,58.2248],[-131.62064,58.2248],[-131.61439,58.2248],[-131.60814,58.2248],[-131.60814,58.22064],[-131.61439,58.22064],[-131.62064,58.22064],[-131.62689,58.22064],[-131.63314,58.22064],[-131.63314,58.21647],[-131.63314,58.2123],[-131.63314,58.20814],[-131.63314,58.20397],[-131.63314,58.19981],[-131.63939,58.19981],[-131.63939,58.20397],[-131.63939,58.20814]]]}},{"type":"Feature","properties":{"c":"501290","o":"DOUBLEVIEW GOLD CORP","e":"2035-11-29Z"},"geometry":{"type":"Polygon","coordinates":[[[-131.63314,58.21647],[-131.63314,58.22064],[-131.62689,58.22064],[-131.62064,58.22064],[-131.61439,58.22064],[-131.60814,58.22064],[-131.60814,58.21647],[-131.60815,58.2123],[-131.60815,58.20814],[-131.6144,58.20814],[-131.62064,58.20814],[-131.62689,58.20814],[-131.63314,58.20814],[-131.63314,58.2123],[-131.63314,58.21647]]]}},{"type":"Feature","properties":{"c":"507814","o":"DOUBLEVIEW GOLD CORP","e":"2035-11-29Z"},"geometry":{"type":"Polygon","coordinates":[[[-131.63314,58.20397],[-131.63314,58.20814],[-131.62689,58.20814],[-131.62064,58.20814],[-131.6144,58.20814],[-131.60815,58.20814],[-131.6019,58.20814],[-131.6019,58.20397],[-131.6019,58.19981],[-131.6019,58.19564],[-131.60815,58.19564],[-131.6144,58.19564],[-131.62065,58.19564],[-131.6269,58.19564],[-131.63314,58.19564],[-131.63314,58.19981],[-131.63314,58.20397]]]}},{"type":"Feature","properties":{"c":"511709","o":"DOUBLEVIEW GOLD CORP","e":"2035-11-29Z"},"geometry":{"type":"Polygon","coordinates":[[[-131.60815,58.19147],[-131.60815,58.19564],[-131.6019,58.19564],[-131.6019,58.19981],[-131.59565,58.19981],[-131.5894,58.19981],[-131.58315,58.19981],[-131.5769,58.19981],[-131.5769,58.19564],[-131.5769,58.19147],[-131.57691,58.18731],[-131.57691,58.18314],[-131.58316,58.18314],[-131.5894,58.18314],[-131.59565,58.18314],[-131.6019,58.18314],[-131.60815,58.18314],[-131.60815,58.18731],[-131.60815,58.19147]]]}},{"type":"Feature","properties":{"c":"1057970","o":"DOUBLEVIEW GOLD CORP","e":"2035-11-29Z"},"geometry":{"type":"Polygon","coordinates":[[[-131.64564,58.2623],[-131.64564,58.26647],[-131.63939,58.26647],[-131.63314,58.26646],[-131.62689,58.26646],[-131.62063,58.26646],[-131.61438,58.26646],[-131.60813,58.26646],[-131.60188,58.26646],[-131.59563,58.26646],[-131.58938,58.26646],[-131.58313,58.26646],[-131.57688,58.26646],[-131.57063,58.26646],[-131.56438,58.26646],[-131.55813,58.26646],[-131.55188,58.26646],[-131.55188,58.2623],[-131.55189,58.25813],[-131.55189,58.25396],[-131.55189,58.24979],[-131.55189,58.24563],[-131.55189,58.24146],[-131.55189,58.2373],[-131.5519,58.23313],[-131.5519,58.22896],[-131.5519,58.2248],[-131.5519,58.22063],[-131.5519,58.21647],[-131.5519,58.2123],[-131.5519,58.20814],[-131.5519,58.20397],[-131.55815,58.20397],[-131.55815,58.20814],[-131.55815,58.2123],[-131.5644,58.2123],[-131.5644,58.21647],[-131.5644,58.22063],[-131.5644,58.2248],[-131.57065,58.2248],[-131.5769,58.2248],[-131.58315,58.2248],[-131.58939,58.2248],[-131.58939,58.22897],[-131.58314,58.22897],[-131.58314,58.23313],[-131.58314,58.2373],[-131.58939,58.2373],[-131.59564,58.2373],[-131.59564,58.24146],[-131.60189,58.24146],[-131.60189,58.24563],[-131.60814,58.24563],[-131.60814,58.2498],[-131.61439,58.2498],[-131.61439,58.25396],[-131.62064,58.25396],[-131.62064,58.25813],[-131.62689,58.25813],[-131.63314,58.25813],[-131.63314,58.2623],[-131.63939,58.2623],[-131.64564,58.2623]]]}},{"type":"Feature","properties":{"c":"1111186","o":"SPIRIT ROCK RESOURCES CORP.","e":"2027-07-20Z"},"geometry":{"type":"Polygon","coordinates":[[[-131.80811,58.35395],[-131.80811,58.35812],[-131.80811,58.36229],[-131.80811,58.36645],[-131.80811,58.37062],[-131.80811,58.37478],[-131.80811,58.37895],[-131.80811,58.38312],[-131.80811,58.38728],[-131.80811,58.39145],[-131.80811,58.39561],[-131.8081,58.39978],[-131.8081,58.40395],[-131.8081,58.40811],[-131.8081,58.41228],[-131.80185,58.41228],[-131.80185,58.40811],[-131.80185,58.40395],[-131.80186,58.39978],[-131.80186,58.39562],[-131.80186,58.39145],[-131.79561,58.39145],[-131.78936,58.39145],[-131.78311,58.39145],[-131.77686,58.39145],[-131.77686,58.39562],[-131.77686,58.39978],[-131.77686,58.40395],[-131.77686,58.40811],[-131.77685,58.41228],[-131.7706,58.41228],[-131.76435,58.41228],[-131.75811,58.41228],[-131.75811,58.40812],[-131.75811,58.40395],[-131.75811,58.39979],[-131.75811,58.39562],[-131.75811,58.39145],[-131.75811,58.38729],[-131.75811,58.38312],[-131.75811,58.37896],[-131.75811,58.37479],[-131.75811,58.37062],[-131.75812,58.36646],[-131.75812,58.36229],[-131.75812,58.35813],[-131.75812,58.35396],[-131.75812,58.3498],[-131.75812,58.34563],[-131.76437,58.34563],[-131.77062,58.34563],[-131.77687,58.34563],[-131.78312,58.34563],[-131.78937,58.34563],[-131.79562,58.34562],[-131.80187,58.34562],[-131.80811,58.34562],[-131.80811,58.34979],[-131.80811,58.35395]]]}},{"type":"Feature","properties":{"c":"392224","o":"STAR COPPER CORP.","e":"2036-10-31Z"},"geometry":{"type":"Polygon","coordinates":[[[-131.69513,58.2239],[-131.74618,58.22391],[-131.74618,58.23738],[-131.74468,58.23738],[-131.72449,58.23738],[-131.69512,58.23737],[-131.69511,58.23737],[-131.69512,58.23161],[-131.69513,58.22544],[-131.69513,58.2239]]]}},{"type":"Feature","properties":{"c":"392225","o":"STAR COPPER CORP.","e":"2036-10-31Z"},"geometry":{"type":"Polygon","coordinates":[[[-131.69513,58.22095],[-131.69514,58.21646],[-131.69515,58.21197],[-131.69515,58.21043],[-131.69761,58.21043],[-131.74471,58.21044],[-131.74618,58.21044],[-131.74618,58.22193],[-131.74618,58.22391],[-131.69513,58.2239],[-131.69513,58.22095]]]}},{"type":"Feature","properties":{"c":"400918","o":"STAR COPPER CORP.","e":"2036-10-31Z"},"geometry":{"type":"Polygon","coordinates":[[[-131.68192,58.23891],[-131.68193,58.23161],[-131.69512,58.23161],[-131.69511,58.23737],[-131.69512,58.23737],[-131.72449,58.23738],[-131.72449,58.24958],[-131.68191,58.24957],[-131.68192,58.23891]]]}},{"type":"Feature","properties":{"c":"400921","o":"STAR COPPER CORP.","e":"2036-10-31Z"},"geometry":{"type":"Polygon","coordinates":[[[-131.78724,58.22194],[-131.78724,58.20398],[-131.8,58.20398],[-131.82977,58.20397],[-131.82979,58.22193],[-131.8,58.22194],[-131.78724,58.22194]]]}},{"type":"Feature","properties":{"c":"400922","o":"STAR COPPER CORP.","e":"2036-10-31Z"},"geometry":{"type":"Polygon","coordinates":[[[-131.74618,58.21044],[-131.74471,58.21044],[-131.74472,58.20397],[-131.78724,58.20398],[-131.78724,58.22194],[-131.74618,58.22193],[-131.74618,58.21044]]]}},{"type":"Feature","properties":{"c":"408884","o":"STAR COPPER CORP.","e":"2036-10-31Z"},"geometry":{"type":"Polygon","coordinates":[[[-131.63808,58.21197],[-131.68911,58.21196],[-131.68911,58.21198],[-131.68912,58.21647],[-131.68913,58.22096],[-131.68913,58.2212],[-131.68914,58.22543],[-131.65472,58.22544],[-131.64407,58.22544],[-131.63808,58.22544],[-131.63808,58.21197]]]}},{"type":"Feature","properties":{"c":"408885","o":"STAR COPPER CORP.","e":"2036-10-31Z"},"geometry":{"type":"Polygon","coordinates":[[[-131.63808,58.1985],[-131.6891,58.19849],[-131.6891,58.19851],[-131.6891,58.2],[-131.68911,58.203],[-131.68911,58.20749],[-131.68912,58.21196],[-131.68911,58.21196],[-131.63808,58.21197],[-131.63808,58.2],[-131.63808,58.1985]]]}},{"type":"Feature","properties":{"c":"408887","o":"STAR COPPER CORP.","e":"2036-10-31Z"},"geometry":{"type":"Polygon","coordinates":[[[-131.68907,58.19851],[-131.6891,58.19851],[-131.69757,58.1985],[-131.69758,58.2],[-131.69759,58.20299],[-131.68911,58.203],[-131.68908,58.203],[-131.68907,58.2],[-131.68907,58.19851]]]}},{"type":"Feature","properties":{"c":"408888","o":"STAR COPPER CORP.","e":"2036-10-31Z"},"geometry":{"type":"Polygon","coordinates":[[[-131.68908,58.203],[-131.68911,58.203],[-131.69759,58.20299],[-131.6976,58.20748],[-131.68911,58.20749],[-131.68909,58.20749],[-131.68908,58.203]]]}},{"type":"Feature","properties":{"c":"408889","o":"STAR COPPER CORP.","e":"2036-10-31Z"},"geometry":{"type":"Polygon","coordinates":[[[-131.68909,58.20749],[-131.68911,58.20749],[-131.6976,58.20748],[-131.69761,58.21043],[-131.69515,58.21043],[-131.69515,58.21197],[-131.68911,58.21198],[-131.68911,58.21196],[-131.68909,58.20749]]]}},{"type":"Feature","properties":{"c":"408890","o":"STAR COPPER CORP.","e":"2036-10-31Z"},"geometry":{"type":"Polygon","coordinates":[[[-131.68911,58.21198],[-131.69515,58.21197],[-131.69514,58.21646],[-131.68913,58.21647],[-131.68912,58.21647],[-131.68911,58.21198]]]}},{"type":"Feature","properties":{"c":"408891","o":"STAR COPPER CORP.","e":"2036-10-31Z"},"geometry":{"type":"Polygon","coordinates":[[[-131.68912,58.21647],[-131.68913,58.21647],[-131.69514,58.21646],[-131.69513,58.22095],[-131.68913,58.22096],[-131.68912,58.21647]]]}},{"type":"Feature","properties":{"c":"408892","o":"STAR COPPER CORP.","e":"2036-10-31Z"},"geometry":{"type":"Polygon","coordinates":[[[-131.68913,58.22096],[-131.69513,58.22095],[-131.69513,58.2239],[-131.69513,58.22544],[-131.68914,58.22545],[-131.68914,58.22544],[-131.68913,58.2212],[-131.68913,58.22096]]]}},{"type":"Feature","properties":{"c":"408893","o":"STAR COPPER CORP.","e":"2036-10-31Z"},"geometry":{"type":"Polygon","coordinates":[[[-131.64407,58.22544],[-131.64407,58.22543],[-131.65472,58.22544],[-131.68914,58.22544],[-131.69513,58.22544],[-131.69512,58.23737],[-131.69511,58.23737],[-131.69512,58.23161],[-131.68193,58.23161],[-131.68192,58.23891],[-131.64405,58.2389],[-131.64407,58.22544]]]}},{"type":"Feature","properties":{"c":"518533","o":"STAR COPPER CORP.","e":"2036-10-31Z"},"geometry":{"type":"Polygon","coordinates":[[[-131.79562,58.26229],[-131.79562,58.26646],[-131.78937,58.26646],[-131.78312,58.26646],[-131.77687,58.26646],[-131.77062,58.26646],[-131.77062,58.2623],[-131.77062,58.25813],[-131.77062,58.25396],[-131.77687,58.25396],[-131.78312,58.25396],[-131.78937,58.25396],[-131.79561,58.25396],[-131.79562,58.25813],[-131.79562,58.26229]]]}},{"type":"Feature","properties":{"c":"518534","o":"STAR COPPER CORP.","e":"2036-10-31Z"},"geometry":{"type":"Polygon","coordinates":[[[-131.77062,58.24563],[-131.77062,58.2498],[-131.76437,58.2498],[-131.75812,58.2498],[-131.75187,58.2498],[-131.74563,58.2498],[-131.73938,58.2498],[-131.73313,58.2498],[-131.72688,58.2498],[-131.72063,58.2498],[-131.72063,58.24563],[-131.72063,58.24147],[-131.72063,58.2373],[-131.72688,58.2373],[-131.73313,58.2373],[-131.73938,58.2373],[-131.74563,58.2373],[-131.75187,58.2373],[-131.75812,58.2373],[-131.76437,58.2373],[-131.77062,58.2373],[-131.77062,58.24146],[-131.77062,58.24563]]]}},{"type":"Feature","properties":{"c":"518535","o":"STAR COPPER CORP.","e":"2036-10-31Z"},"geometry":{"type":"Polygon","coordinates":[[[-131.77687,58.2498],[-131.77687,58.25396],[-131.77062,58.25396],[-131.77062,58.25813],[-131.77062,58.2623],[-131.77062,58.26646],[-131.76437,58.26646],[-131.75812,58.26646],[-131.75187,58.26646],[-131.74563,58.26646],[-131.73938,58.26646],[-131.73313,58.26646],[-131.72688,58.26646],[-131.72063,58.26646],[-131.71438,58.26646],[-131.70813,58.26647],[-131.70188,58.26647],[-131.69563,58.26647],[-131.68939,58.26647],[-131.68314,58.26647],[-131.68314,58.2623],[-131.67689,58.2623],[-131.67689,58.25813],[-131.67689,58.25397],[-131.67689,58.2498],[-131.68314,58.2498],[-131.68939,58.2498],[-131.69564,58.2498],[-131.70188,58.2498],[-131.70813,58.2498],[-131.71438,58.2498],[-131.72063,58.2498],[-131.72688,58.2498],[-131.73313,58.2498],[-131.73938,58.2498],[-131.74563,58.2498],[-131.75187,58.2498],[-131.75812,58.2498],[-131.76437,58.2498],[-131.77062,58.2498],[-131.77687,58.2498]]]}},{"type":"Feature","properties":{"c":"518536","o":"STAR COPPER CORP.","e":"2036-10-31Z"},"geometry":{"type":"Polygon","coordinates":[[[-131.83311,58.22896],[-131.83311,58.23313],[-131.83311,58.23729],[-131.83311,58.24146],[-131.82686,58.24146],[-131.82061,58.24146],[-131.81436,58.24146],[-131.80811,58.24146],[-131.80186,58.24146],[-131.79561,58.24146],[-131.78937,58.24146],[-131.78312,58.24146],[-131.77687,58.24146],[-131.77062,58.24146],[-131.77062,58.2373],[-131.76437,58.2373],[-131.75812,58.2373],[-131.75187,58.2373],[-131.74563,58.2373],[-131.74562,58.23313],[-131.74562,58.22897],[-131.74562,58.2248],[-131.74562,58.22063],[-131.75187,58.22063],[-131.75812,58.22063],[-131.76437,58.22063],[-131.77062,58.22063],[-131.77687,58.22063],[-131.78312,58.22063],[-131.78937,58.22063],[-131.79562,58.22063],[-131.80186,58.22063],[-131.80811,58.22063],[-131.81436,58.22063],[-131.82061,58.22063],[-131.82686,58.22063],[-131.83311,58.22063],[-131.83311,58.22479],[-131.83311,58.22896]]]}},{"type":"Feature","properties":{"c":"551609","o":"STAR COPPER CORP.","e":"2036-10-31Z"},"geometry":{"type":"Polygon","coordinates":[[[-131.80186,58.24979],[-131.79561,58.24979],[-131.78937,58.24979],[-131.78312,58.2498],[-131.77687,58.2498],[-131.77062,58.2498],[-131.77062,58.24563],[-131.77062,58.24146],[-131.77687,58.24146],[-131.78312,58.24146],[-131.78937,58.24146],[-131.79561,58.24146],[-131.80186,58.24146],[-131.80186,58.24563],[-131.80186,58.24979]]]}},{"type":"Feature","properties":{"c":"1115584","o":"SHIRVANI, FARSHAD","e":"2035-11-29Z"},"geometry":{"type":"Polygon","coordinates":[[[-131.5519,58.2248],[-131.5519,58.22896],[-131.5519,58.23313],[-131.55189,58.2373],[-131.55189,58.24146],[-131.55189,58.24563],[-131.55189,58.24979],[-131.55189,58.25396],[-131.55189,58.25813],[-131.55188,58.2623],[-131.55188,58.26646],[-131.54563,58.26646],[-131.53938,58.26646],[-131.53313,58.26646],[-131.52688,58.26646],[-131.52063,58.26646],[-131.51438,58.26646],[-131.50814,58.26646],[-131.50814,58.26229],[-131.50814,58.25813],[-131.50814,58.25396],[-131.50814,58.24979],[-131.50814,58.24563],[-131.50815,58.24146],[-131.50815,58.2373],[-131.50815,58.23313],[-131.50815,58.22896],[-131.50815,58.2248],[-131.50815,58.22063],[-131.50816,58.21647],[-131.5144,58.21647],[-131.5144,58.22063],[-131.5144,58.2248],[-131.52065,58.2248],[-131.5269,58.2248],[-131.53315,58.2248],[-131.5394,58.2248],[-131.54565,58.2248],[-131.54565,58.22063],[-131.54565,58.21647],[-131.5519,58.21647],[-131.5519,58.22063],[-131.5519,58.2248]]]}},{"type":"Feature","properties":{"c":"1115585","o":"SHIRVANI, FARSHAD","e":"2035-11-29Z"},"geometry":{"type":"Polygon","coordinates":[[[-131.68314,58.2748],[-131.68314,58.27897],[-131.68313,58.28313],[-131.68313,58.2873],[-131.68313,58.29147],[-131.67688,58.29147],[-131.67064,58.29147],[-131.66439,58.29147],[-131.65813,58.29147],[-131.65188,58.29147],[-131.64563,58.29147],[-131.63938,58.29147],[-131.63313,58.29147],[-131.62688,58.29147],[-131.62063,58.29147],[-131.61438,58.29147],[-131.60813,58.29147],[-131.60187,58.29147],[-131.60188,58.2873],[-131.60188,58.28313],[-131.60188,58.27896],[-131.60188,58.2748],[-131.60188,58.27063],[-131.60188,58.26646],[-131.60813,58.26646],[-131.61438,58.26646],[-131.62063,58.26646],[-131.62689,58.26646],[-131.63314,58.26646],[-131.63939,58.26647],[-131.64564,58.26647],[-131.65189,58.26647],[-131.65814,58.26647],[-131.66439,58.26647],[-131.67064,58.26647],[-131.67689,58.26647],[-131.68314,58.26647],[-131.68314,58.27063],[-131.68314,58.2748]]]}},{"type":"Feature","properties":{"c":"1115586","o":"SHIRVANI, FARSHAD","e":"2035-11-29Z"},"geometry":{"type":"Polygon","coordinates":[[[-131.60188,58.2748],[-131.60188,58.27896],[-131.60188,58.28313],[-131.60188,58.2873],[-131.60187,58.29147],[-131.59562,58.29147],[-131.58937,58.29147],[-131.58312,58.29147],[-131.57687,58.29147],[-131.57062,58.29147],[-131.56437,58.29147],[-131.55812,58.29147],[-131.55187,58.29147],[-131.54562,58.29147],[-131.53937,58.29147],[-131.53312,58.29147],[-131.52687,58.29147],[-131.52062,58.29147],[-131.51437,58.29147],[-131.50812,58.29147],[-131.50813,58.2873],[-131.50813,58.28313],[-131.50813,58.27896],[-131.50813,58.2748],[-131.50813,58.27063],[-131.50814,58.26646],[-131.51438,58.26646],[-131.52063,58.26646],[-131.52688,58.26646],[-131.53313,58.26646],[-131.53938,58.26646],[-131.54563,58.26646],[-131.55188,58.26646],[-131.55813,58.26646],[-131.56438,58.26646],[-131.57063,58.26646],[-131.57688,58.26646],[-131.58313,58.26646],[-131.58938,58.26646],[-131.59563,58.26646],[-131.60188,58.26646],[-131.60188,58.27063],[-131.60188,58.2748]]]}},{"type":"Feature","properties":{"c":"1132450","o":"SCOTT, STEVEN JEFFREY","e":"2027-09-17Z"},"geometry":{"type":"Polygon","coordinates":[[[-131.5769,58.19564],[-131.57065,58.19564],[-131.57066,58.19147],[-131.57066,58.18731],[-131.57691,58.18731],[-131.5769,58.19147],[-131.5769,58.19564]]]}},{"type":"Feature","properties":{"c":"1137414","o":"KREFT, JOHN BERNARD","e":"2027-09-03Z"},"geometry":{"type":"Polygon","coordinates":[[[-131.7956,58.40395],[-131.7956,58.40811],[-131.78935,58.40811],[-131.7831,58.40811],[-131.78311,58.40395],[-131.78936,58.40395],[-131.78936,58.39978],[-131.78936,58.39562],[-131.79561,58.39562],[-131.79561,58.39978],[-131.7956,58.40395]]]}},{"type":"Feature","properties":{"c":"1137415","o":"KREFT, JOHN BERNARD","e":"2027-09-04Z"},"geometry":{"type":"Polygon","coordinates":[[[-131.78936,58.40395],[-131.78311,58.40395],[-131.78311,58.39978],[-131.78311,58.39562],[-131.78936,58.39562],[-131.78936,58.39978],[-131.78936,58.40395]]]}},{"type":"Feature","properties":{"c":"1124324","o":"SPIRIT ROCK RESOURCES CORP.","e":"2027-07-24Z"},"geometry":{"type":"Polygon","coordinates":[[[-132.00187,58.27479],[-132.00812,58.27479],[-132.01437,58.27479],[-132.01437,58.27062],[-132.01437,58.26645],[-132.02062,58.26645],[-132.02687,58.26645],[-132.02687,58.26229],[-132.02687,58.25812],[-132.02688,58.25396],[-132.02688,58.24979],[-132.02688,58.24562],[-132.03313,58.24562],[-132.03938,58.24562],[-132.04563,58.24562],[-132.05188,58.24562],[-132.05188,58.24145],[-132.05188,58.23729],[-132.05189,58.23312],[-132.05814,58.23312],[-132.06439,58.23312],[-132.07064,58.23312],[-132.07689,58.23312],[-132.07689,58.22895],[-132.07689,58.22479],[-132.07689,58.22062],[-132.08314,58.22062],[-132.08939,58.22062],[-132.09564,58.22062],[-132.10189,58.22062],[-132.10814,58.22062],[-132.11439,58.22062],[-132.12064,58.22062],[-132.12689,58.22062],[-132.12689,58.22479],[-132.12688,58.22895],[-132.12688,58.23312],[-132.12063,58.23312],[-132.11438,58.23312],[-132.11438,58.23728],[-132.11438,58.24145],[-132.11438,58.24562],[-132.10813,58.24562],[-132.10188,58.24562],[-132.10188,58.24978],[-132.10188,58.25395],[-132.10187,58.25811],[-132.09563,58.25811],[-132.08938,58.25812],[-132.08313,58.25812],[-132.07688,58.25812],[-132.07063,58.25812],[-132.06438,58.25812],[-132.06437,58.26228],[-132.06437,58.26645],[-132.06437,58.27061],[-132.06436,58.27478],[-132.05811,58.27478],[-132.05186,58.27478],[-132.04561,58.27478],[-132.03936,58.27478],[-132.03936,58.27895],[-132.03311,58.27895],[-132.02686,58.27895],[-132.02686,58.28312],[-132.03311,58.28312],[-132.03311,58.28728],[-132.0331,58.29145],[-132.0331,58.29561],[-132.0331,58.29978],[-132.02685,58.29978],[-132.02685,58.30395],[-132.02685,58.30811],[-132.02684,58.31228],[-132.02059,58.31228],[-132.01435,58.31228],[-132.0081,58.31228],[-132.00185,58.31229],[-132.00185,58.31645],[-132.00185,58.32062],[-132.00184,58.32478],[-131.99559,58.32478],[-131.98934,58.32478],[-131.98309,58.32478],[-131.98309,58.32062],[-131.9831,58.31645],[-131.9831,58.31229],[-131.9831,58.30812],[-131.98935,58.30812],[-131.9956,58.30812],[-132.00185,58.30812],[-132.00185,58.30395],[-132.00185,58.29979],[-131.9956,58.29979],[-131.99561,58.29562],[-131.99561,58.29145],[-131.99561,58.28729],[-131.99561,58.28312],[-131.99561,58.27896],[-132.00186,58.27896],[-132.00187,58.27479]]]}},{"type":"Feature","properties":{"c":"1121912","o":"SCOTT, STEVEN JEFFREY","e":"2027-03-23Z"},"geometry":{"type":"Polygon","coordinates":[[[-131.6144,58.18314],[-131.6144,58.18731],[-131.60815,58.18731],[-131.60815,58.18314],[-131.6144,58.18314]]]}},{"type":"Feature","properties":{"c":"1116125","o":"WEICKER, ROBERT FREDERICK","e":"2029-01-01Z"},"geometry":{"type":"Polygon","coordinates":[[[-131.58316,58.17481],[-131.58316,58.17898],[-131.57691,58.17898],[-131.57066,58.17898],[-131.56441,58.17898],[-131.56441,58.18314],[-131.56441,58.18731],[-131.56441,58.19147],[-131.56441,58.19564],[-131.5644,58.19981],[-131.5644,58.20397],[-131.5644,58.20814],[-131.5644,58.2123],[-131.55815,58.2123],[-131.55815,58.20814],[-131.55815,58.20397],[-131.55815,58.19981],[-131.55816,58.19564],[-131.55191,58.19564],[-131.55191,58.19147],[-131.55191,58.18731],[-131.55816,58.18731],[-131.55816,58.18314],[-131.55816,58.17898],[-131.55816,58.17481],[-131.56441,58.17481],[-131.57066,58.17481],[-131.57691,58.17481],[-131.58316,58.17481]]]}},{"type":"Feature","properties":{"c":"1140096","o":"SCOTT, STEVEN JEFFREY","e":"2027-09-17Z"},"geometry":{"type":"Polygon","coordinates":[[[-131.57691,58.18314],[-131.57691,58.18731],[-131.57066,58.18731],[-131.57066,58.19147],[-131.57065,58.19564],[-131.56441,58.19564],[-131.56441,58.19147],[-131.56441,58.18731],[-131.56441,58.18314],[-131.57066,58.18314],[-131.57691,58.18314]]]}},{"type":"Feature","properties":{"c":"1118136","o":"DOUBLEVIEW GOLD CORP","e":"2035-11-29Z"},"geometry":{"type":"Polygon","coordinates":[[[-131.65188,58.2998],[-131.65188,58.30397],[-131.65188,58.30813],[-131.64563,58.30813],[-131.63938,58.30813],[-131.63313,58.30813],[-131.62687,58.30813],[-131.62062,58.30813],[-131.61437,58.30813],[-131.60812,58.30813],[-131.60187,58.30813],[-131.59562,58.30813],[-131.58937,58.30813],[-131.58312,58.30814],[-131.57687,58.30813],[-131.57062,58.30814],[-131.56437,58.30814],[-131.55812,58.30814],[-131.55187,58.30814],[-131.55187,58.30397],[-131.55187,58.2998],[-131.55187,58.29563],[-131.55187,58.29147],[-131.55812,58.29147],[-131.56437,58.29147],[-131.57062,58.29147],[-131.57687,58.29147],[-131.58312,58.29147],[-131.58937,58.29147],[-131.59562,58.29147],[-131.60187,58.29147],[-131.60813,58.29147],[-131.61438,58.29147],[-131.62063,58.29147],[-131.62688,58.29147],[-131.63313,58.29147],[-131.63938,58.29147],[-131.64563,58.29147],[-131.65188,58.29147],[-131.65188,58.29563],[-131.65188,58.2998]]]}},{"type":"Feature","properties":{"c":"1118137","o":"DOUBLEVIEW GOLD CORP","e":"2035-11-29Z"},"geometry":{"type":"Polygon","coordinates":[[[-131.65188,58.31647],[-131.65188,58.32064],[-131.64563,58.32064],[-131.63938,58.32064],[-131.63312,58.32064],[-131.62687,58.32064],[-131.62062,58.32064],[-131.61437,58.32064],[-131.60812,58.32064],[-131.60187,58.32064],[-131.59561,58.32064],[-131.58936,58.32064],[-131.58311,58.32064],[-131.57686,58.32064],[-131.57061,58.32064],[-131.56436,58.32064],[-131.55811,58.32064],[-131.55186,58.32064],[-131.54561,58.32064],[-131.53936,58.32064],[-131.53311,58.32064],[-131.52686,58.32064],[-131.52061,58.32064],[-131.51436,58.32064],[-131.50811,58.32064],[-131.50811,58.31647],[-131.50811,58.3123],[-131.50812,58.30814],[-131.50812,58.30397],[-131.50187,58.30397],[-131.50187,58.2998],[-131.50187,58.29563],[-131.50187,58.29147],[-131.50812,58.29147],[-131.51437,58.29147],[-131.52062,58.29147],[-131.52687,58.29147],[-131.53312,58.29147],[-131.53937,58.29147],[-131.54562,58.29147],[-131.55187,58.29147],[-131.55187,58.29563],[-131.55187,58.2998],[-131.55187,58.30397],[-131.55187,58.30814],[-131.55812,58.30814],[-131.56437,58.30814],[-131.57062,58.30814],[-131.57687,58.30813],[-131.58312,58.30814],[-131.58937,58.30813],[-131.59562,58.30813],[-131.60187,58.30813],[-131.60812,58.30813],[-131.61437,58.30813],[-131.62062,58.30813],[-131.62687,58.30813],[-131.63313,58.30813],[-131.63938,58.30813],[-131.64563,58.30813],[-131.65188,58.30813],[-131.65188,58.3123],[-131.65188,58.31647]]]}},{"type":"Feature","properties":{"c":"1118138","o":"DOUBLEVIEW GOLD CORP","e":"2035-11-29Z"},"geometry":{"type":"Polygon","coordinates":[[[-131.50811,58.3123],[-131.50811,58.31647],[-131.50811,58.32064],[-131.50186,58.32064],[-131.49561,58.32064],[-131.48936,58.32064],[-131.48312,58.32064],[-131.47687,58.32064],[-131.47062,58.32064],[-131.46437,58.32064],[-131.45813,58.32064],[-131.45188,58.32064],[-131.44563,58.32064],[-131.43938,58.32064],[-131.43314,58.32064],[-131.42689,58.32064],[-131.42689,58.31647],[-131.42064,58.31647],[-131.41439,58.31647],[-131.4144,58.31231],[-131.4144,58.30814],[-131.4144,58.30397],[-131.4144,58.29981],[-131.4144,58.29564],[-131.4144,58.29147],[-131.42065,58.29147],[-131.4269,58.29147],[-131.43315,58.29147],[-131.4394,58.29147],[-131.44564,58.29147],[-131.45189,58.29147],[-131.45814,58.29147],[-131.46439,58.29147],[-131.47063,58.29147],[-131.47688,58.29147],[-131.48313,58.29147],[-131.48938,58.29147],[-131.49563,58.29147],[-131.50187,58.29147],[-131.50187,58.29563],[-131.50187,58.2998],[-131.50187,58.30397],[-131.50812,58.30397],[-131.50812,58.30814],[-131.50811,58.3123]]]}},{"type":"Feature","properties":{"c":"1121173","o":"ZIMTU CAPITAL CORP","e":"2026-11-08Z"},"geometry":{"type":"Polygon","coordinates":[[[-131.96439,58.10815],[-131.96439,58.11232],[-131.96439,58.11648],[-131.95814,58.11648],[-131.95814,58.12065],[-131.95814,58.12481],[-131.95189,58.12481],[-131.95189,58.12898],[-131.94563,58.12897],[-131.94563,58.13314],[-131.93938,58.13314],[-131.93938,58.1373],[-131.93313,58.1373],[-131.93313,58.14147],[-131.93313,58.14564],[-131.92688,58.14564],[-131.92688,58.1498],[-131.92063,58.1498],[-131.92063,58.15397],[-131.91438,58.15397],[-131.90813,58.15397],[-131.90188,58.15397],[-131.89563,58.15397],[-131.88938,58.15397],[-131.88312,58.15397],[-131.88312,58.1498],[-131.88312,58.14564],[-131.88312,58.14147],[-131.88938,58.14147],[-131.88938,58.1373],[-131.89563,58.1373],[-131.89563,58.13314],[-131.89563,58.12897],[-131.90188,58.12897],[-131.90188,58.12481],[-131.90188,58.12064],[-131.90188,58.11648],[-131.90813,58.11648],[-131.90813,58.11231],[-131.90813,58.10815],[-131.91438,58.10815],[-131.92063,58.10815],[-131.92063,58.10398],[-131.92688,58.10398],[-131.92688,58.09982],[-131.93313,58.09982],[-131.93938,58.09982],[-131.94563,58.09982],[-131.95188,58.09982],[-131.95814,58.09982],[-131.96439,58.09982],[-131.96439,58.10399],[-131.96439,58.10815]]]}},{"type":"Feature","properties":{"c":"1121174","o":"ZIMTU CAPITAL CORP","e":"2026-11-08Z"},"geometry":{"type":"Polygon","coordinates":[[[-131.92688,58.09982],[-131.92688,58.10398],[-131.92063,58.10398],[-131.92063,58.10815],[-131.91438,58.10815],[-131.90813,58.10815],[-131.90813,58.11231],[-131.90813,58.11648],[-131.90188,58.11648],[-131.90188,58.12064],[-131.90188,58.12481],[-131.90188,58.12897],[-131.89563,58.12897],[-131.89563,58.13314],[-131.89563,58.1373],[-131.88938,58.1373],[-131.88938,58.14147],[-131.88312,58.14147],[-131.88312,58.14564],[-131.87687,58.14564],[-131.87062,58.14564],[-131.86437,58.14564],[-131.85812,58.14564],[-131.85187,58.14564],[-131.85187,58.14147],[-131.85187,58.13731],[-131.85187,58.13314],[-131.85187,58.12897],[-131.85187,58.12481],[-131.85187,58.12064],[-131.85187,58.11648],[-131.85187,58.11231],[-131.85187,58.10815],[-131.85187,58.10398],[-131.85187,58.09982],[-131.85187,58.09565],[-131.85187,58.09148],[-131.85187,58.08732],[-131.85812,58.08732],[-131.86437,58.08732],[-131.87062,58.08732],[-131.87062,58.09148],[-131.87062,58.09565],[-131.87687,58.09565],[-131.87687,58.09982],[-131.88312,58.09982],[-131.88938,58.09982],[-131.89563,58.09982],[-131.90188,58.09982],[-131.90813,58.09982],[-131.91438,58.09982],[-131.92063,58.09982],[-131.92688,58.09982]]]}},{"type":"Feature","properties":{"c":"1121175","o":"ZIMTU CAPITAL CORP","e":"2026-11-08Z"},"geometry":{"type":"Polygon","coordinates":[[[-131.87062,58.08732],[-131.86437,58.08732],[-131.85812,58.08732],[-131.85187,58.08732],[-131.85187,58.09148],[-131.85187,58.09565],[-131.85187,58.09982],[-131.85187,58.10398],[-131.85187,58.10815],[-131.85187,58.11231],[-131.85187,58.11648],[-131.85187,58.12064],[-131.85187,58.12481],[-131.85187,58.12897],[-131.85187,58.13314],[-131.85187,58.13731],[-131.85187,58.14147],[-131.85187,58.14564],[-131.84562,58.14564],[-131.83937,58.14564],[-131.83937,58.1498],[-131.83937,58.15397],[-131.83937,58.15813],[-131.83312,58.15813],[-131.82687,58.15813],[-131.82062,58.15813],[-131.82062,58.15397],[-131.82062,58.1498],[-131.82062,58.14564],[-131.82062,58.14147],[-131.82062,58.13731],[-131.81437,58.13731],[-131.81437,58.13314],[-131.81437,58.12897],[-131.81437,58.12481],[-131.81437,58.12064],[-131.81437,58.11648],[-131.81437,58.11231],[-131.81437,58.10815],[-131.81437,58.10398],[-131.82062,58.10398],[-131.82062,58.09981],[-131.82062,58.09565],[-131.82063,58.09148],[-131.82687,58.09148],[-131.82687,58.08732],[-131.82688,58.08315],[-131.82688,58.07899],[-131.83313,58.07899],[-131.83938,58.07899],[-131.84563,58.07899],[-131.85188,58.07899],[-131.85813,58.07899],[-131.86438,58.07899],[-131.87063,58.07899],[-131.87062,58.08315],[-131.87062,58.08732]]]}},{"type":"Feature","properties":{"c":"1121917","o":"WEICKER, ROBERT FREDERICK","e":"2029-01-01Z"},"geometry":{"type":"Polygon","coordinates":[[[-131.58316,58.17898],[-131.58316,58.18314],[-131.57691,58.18314],[-131.57066,58.18314],[-131.56441,58.18314],[-131.56441,58.17898],[-131.57066,58.17898],[-131.57691,58.17898],[-131.58316,58.17898]]]}}]}