{"type":"FeatureCollection","features":[{"type":"Feature","properties":{"c":"501931","o":"GALORE CREEK MINING CORPORATION","e":"2034-12-31Z"},"geometry":{"type":"Polygon","coordinates":[[[-131.60205,56.99983],[-131.60205,57.004],[-131.5958,57.004],[-131.58955,57.004],[-131.5833,57.004],[-131.57705,57.004],[-131.5708,57.004],[-131.56455,57.004],[-131.5583,57.004],[-131.55205,57.004],[-131.54579,57.004],[-131.5458,56.99983],[-131.5458,56.99567],[-131.5458,56.9915],[-131.55205,56.9915],[-131.5583,56.9915],[-131.56455,56.9915],[-131.5708,56.9915],[-131.57705,56.9915],[-131.5833,56.9915],[-131.5833,56.99567],[-131.58955,56.99567],[-131.5958,56.99567],[-131.5958,56.99983],[-131.60205,56.99983]]]}},{"type":"Feature","properties":{"c":"516474","o":"GALORE CREEK MINING CORPORATION","e":"2034-12-31Z"},"geometry":{"type":"Polygon","coordinates":[[[-131.54579,57.004],[-131.53954,57.004],[-131.53329,57.004],[-131.52704,57.004],[-131.52079,57.004],[-131.51454,57.004],[-131.50829,57.004],[-131.50204,57.004],[-131.49579,57.004],[-131.48954,57.004],[-131.48329,57.004],[-131.47704,57.004],[-131.47079,57.004],[-131.47079,56.99983],[-131.47079,56.99566],[-131.47704,56.99566],[-131.48329,56.99567],[-131.48954,56.99567],[-131.49579,56.99567],[-131.50204,56.99567],[-131.50829,56.99567],[-131.51454,56.99567],[-131.52079,56.99567],[-131.52704,56.99567],[-131.53329,56.99567],[-131.53954,56.99567],[-131.5458,56.99567],[-131.5458,56.99983],[-131.54579,57.004]]]}},{"type":"Feature","properties":{"c":"1068350","o":"ETRUSCUS RESOURCES CORP.","e":"2031-07-01Z"},"geometry":{"type":"Polygon","coordinates":[[[-131.52706,56.79566],[-131.52706,56.79983],[-131.52706,56.80399],[-131.52081,56.80399],[-131.51456,56.80399],[-131.51456,56.80816],[-131.51456,56.81233],[-131.50831,56.81233],[-131.50206,56.81233],[-131.49581,56.81233],[-131.48956,56.81233],[-131.48331,56.81233],[-131.47706,56.81233],[-131.47081,56.81233],[-131.46456,56.81233],[-131.45831,56.81233],[-131.45206,56.81233],[-131.44581,56.81233],[-131.43956,56.81233],[-131.43331,56.81233],[-131.42705,56.81233],[-131.4208,56.81233],[-131.41455,56.81233],[-131.41455,56.80816],[-131.41455,56.80399],[-131.41455,56.79983],[-131.41455,56.79566],[-131.42081,56.79566],[-131.42706,56.79566],[-131.43331,56.79566],[-131.43956,56.79566],[-131.44581,56.79566],[-131.45206,56.79566],[-131.45206,56.79149],[-131.45206,56.78733],[-131.45206,56.78316],[-131.45831,56.78316],[-131.46456,56.78316],[-131.47081,56.78316],[-131.47706,56.78316],[-131.48331,56.78316],[-131.48956,56.78316],[-131.49581,56.78316],[-131.49581,56.78733],[-131.50206,56.78733],[-131.50831,56.78733],[-131.51456,56.78733],[-131.52081,56.78733],[-131.52706,56.78732],[-131.52706,56.79149],[-131.52706,56.79566]]]}},{"type":"Feature","properties":{"c":"1068351","o":"ETRUSCUS RESOURCES CORP.","e":"2031-07-01Z"},"geometry":{"type":"Polygon","coordinates":[[[-131.52706,56.77899],[-131.52706,56.78316],[-131.52706,56.78732],[-131.52081,56.78733],[-131.51456,56.78733],[-131.50831,56.78733],[-131.50206,56.78733],[-131.49581,56.78733],[-131.49581,56.78316],[-131.48956,56.78316],[-131.48331,56.78316],[-131.47706,56.78316],[-131.47081,56.78316],[-131.46456,56.78316],[-131.45831,56.78316],[-131.45206,56.78316],[-131.45206,56.77899],[-131.45206,56.77482],[-131.45206,56.77066],[-131.45206,56.76649],[-131.45206,56.76232],[-131.45206,56.75816],[-131.45206,56.75399],[-131.45206,56.74982],[-131.45206,56.74566],[-131.45206,56.74149],[-131.45206,56.73732],[-131.45206,56.73316],[-131.45206,56.72899],[-131.45831,56.72899],[-131.46456,56.72899],[-131.47081,56.72899],[-131.47706,56.72899],[-131.48331,56.72899],[-131.48956,56.72899],[-131.48956,56.73316],[-131.48956,56.73732],[-131.48956,56.74149],[-131.48956,56.74566],[-131.48956,56.74982],[-131.48956,56.75399],[-131.48956,56.75816],[-131.48956,56.76232],[-131.48956,56.76649],[-131.48956,56.77066],[-131.48956,56.77482],[-131.49581,56.77483],[-131.50206,56.77482],[-131.50206,56.77066],[-131.50831,56.77066],[-131.51456,56.77066],[-131.52081,56.77066],[-131.52706,56.77066],[-131.52706,56.77482],[-131.52706,56.77899]]]}},{"type":"Feature","properties":{"c":"1074815","o":"ETRUSCUS RESOURCES CORP.","e":"2031-07-01Z"},"geometry":{"type":"Polygon","coordinates":[[[-131.63331,56.85816],[-131.63331,56.86233],[-131.62706,56.86233],[-131.62081,56.86233],[-131.61456,56.86233],[-131.60831,56.86233],[-131.60206,56.86233],[-131.59581,56.86233],[-131.58956,56.86233],[-131.58331,56.86233],[-131.57706,56.86233],[-131.57081,56.86233],[-131.56456,56.86233],[-131.55831,56.86233],[-131.55206,56.86233],[-131.55206,56.86649],[-131.54581,56.8665],[-131.53956,56.86649],[-131.53331,56.8665],[-131.52706,56.86649],[-131.5208,56.8665],[-131.52081,56.86233],[-131.52081,56.85816],[-131.52081,56.85399],[-131.52081,56.84983],[-131.52081,56.84566],[-131.52706,56.84566],[-131.53331,56.84566],[-131.53956,56.84566],[-131.54581,56.84566],[-131.55206,56.84566],[-131.55206,56.84983],[-131.55206,56.85399],[-131.55206,56.85816],[-131.55831,56.85816],[-131.56456,56.85816],[-131.57081,56.85816],[-131.57706,56.85816],[-131.58331,56.85816],[-131.58956,56.85816],[-131.59581,56.85816],[-131.60206,56.85816],[-131.60831,56.85816],[-131.61456,56.85816],[-131.62081,56.85816],[-131.62706,56.85816],[-131.63331,56.85816]]]}},{"type":"Feature","properties":{"c":"1100248","o":"ETRUSCUS RESOURCES CORP.","e":"2031-07-01Z"},"geometry":{"type":"Polygon","coordinates":[[[-131.50829,56.95817],[-131.50829,56.96233],[-131.50204,56.96233],[-131.49579,56.96233],[-131.48954,56.96233],[-131.48329,56.96233],[-131.47704,56.96233],[-131.47079,56.96233],[-131.47079,56.95817],[-131.46454,56.95816],[-131.45829,56.95816],[-131.45204,56.95816],[-131.45204,56.954],[-131.44579,56.954],[-131.44579,56.94983],[-131.45204,56.94983],[-131.45829,56.94983],[-131.46454,56.94983],[-131.47079,56.94983],[-131.47704,56.94983],[-131.48329,56.94983],[-131.48954,56.94983],[-131.48954,56.954],[-131.49579,56.954],[-131.49579,56.95817],[-131.50204,56.95817],[-131.50829,56.95817]]]}},{"type":"Feature","properties":{"c":"1109950","o":"ETRUSCUS RESOURCES CORP.","e":"2031-07-01Z"},"geometry":{"type":"Polygon","coordinates":[[[-131.52704,56.9665],[-131.52704,56.97067],[-131.52079,56.97067],[-131.51454,56.97067],[-131.50829,56.97067],[-131.50204,56.97067],[-131.49579,56.97067],[-131.49579,56.9665],[-131.48954,56.9665],[-131.48329,56.9665],[-131.48329,56.96233],[-131.48954,56.96233],[-131.49579,56.96233],[-131.50204,56.96233],[-131.50829,56.96233],[-131.51454,56.96233],[-131.52079,56.96233],[-131.52079,56.9665],[-131.52704,56.9665]]]}},{"type":"Feature","properties":{"c":"1107897","o":"ETRUSCUS RESOURCES CORP.","e":"2031-07-01Z"},"geometry":{"type":"Polygon","coordinates":[[[-131.52706,56.81233],[-131.52706,56.81649],[-131.52706,56.82066],[-131.52706,56.82483],[-131.52706,56.82899],[-131.52706,56.83316],[-131.52706,56.83733],[-131.52706,56.84149],[-131.52706,56.84566],[-131.52081,56.84566],[-131.52081,56.84149],[-131.52081,56.83733],[-131.52081,56.83316],[-131.52081,56.82899],[-131.52081,56.82483],[-131.52081,56.82066],[-131.52081,56.81649],[-131.52081,56.81233],[-131.51456,56.81233],[-131.51456,56.80816],[-131.51456,56.80399],[-131.52081,56.80399],[-131.52706,56.80399],[-131.52706,56.80816],[-131.52706,56.81233]]]}},{"type":"Feature","properties":{"c":"1109946","o":"ETRUSCUS RESOURCES CORP.","e":"2031-07-01Z"},"geometry":{"type":"Polygon","coordinates":[[[-131.50204,56.93317],[-131.50204,56.93733],[-131.49579,56.93733],[-131.49579,56.9415],[-131.48954,56.9415],[-131.48954,56.94567],[-131.48954,56.94983],[-131.48329,56.94983],[-131.47704,56.94983],[-131.47079,56.94983],[-131.46454,56.94983],[-131.45829,56.94983],[-131.45204,56.94983],[-131.45204,56.94566],[-131.45204,56.9415],[-131.45204,56.93733],[-131.45204,56.93316],[-131.44579,56.93316],[-131.43954,56.93316],[-131.43954,56.929],[-131.43954,56.92483],[-131.43954,56.92066],[-131.44579,56.92066],[-131.45204,56.92066],[-131.45829,56.92066],[-131.46454,56.92066],[-131.47079,56.92067],[-131.47079,56.9165],[-131.47079,56.91233],[-131.47079,56.90816],[-131.47704,56.90816],[-131.48329,56.90816],[-131.48329,56.91233],[-131.48329,56.9165],[-131.48954,56.9165],[-131.48954,56.92067],[-131.49579,56.92067],[-131.49579,56.92483],[-131.50204,56.92483],[-131.50204,56.929],[-131.50204,56.93317]]]}},{"type":"Feature","properties":{"c":"1108205","o":"ROSEGOLD EXPLORATION LTD.","e":"2028-06-17Z"},"geometry":{"type":"Polygon","coordinates":[[[-131.52081,56.82066],[-131.52081,56.82483],[-131.52081,56.82899],[-131.52081,56.83316],[-131.52081,56.83733],[-131.51456,56.83733],[-131.50831,56.83733],[-131.50206,56.83733],[-131.49581,56.83733],[-131.49581,56.84149],[-131.49581,56.84566],[-131.48956,56.84566],[-131.48331,56.84566],[-131.47706,56.84566],[-131.47081,56.84566],[-131.46455,56.84566],[-131.4583,56.84566],[-131.45205,56.84566],[-131.4458,56.84566],[-131.43955,56.84566],[-131.4333,56.84566],[-131.42705,56.84566],[-131.4208,56.84566],[-131.41455,56.84566],[-131.4083,56.84566],[-131.4083,56.84149],[-131.4083,56.83733],[-131.41455,56.83733],[-131.4208,56.83733],[-131.42705,56.83733],[-131.4333,56.83733],[-131.43955,56.83733],[-131.4458,56.83733],[-131.45206,56.83733],[-131.45206,56.83316],[-131.45206,56.82899],[-131.45206,56.82483],[-131.45206,56.82066],[-131.45206,56.81649],[-131.45206,56.81233],[-131.45831,56.81233],[-131.46456,56.81233],[-131.47081,56.81233],[-131.47706,56.81233],[-131.48331,56.81233],[-131.48956,56.81233],[-131.49581,56.81233],[-131.50206,56.81233],[-131.50831,56.81233],[-131.51456,56.81233],[-131.52081,56.81233],[-131.52081,56.81649],[-131.52081,56.82066]]]}},{"type":"Feature","properties":{"c":"1108206","o":"ROSEGOLD EXPLORATION LTD.","e":"2028-06-17Z"},"geometry":{"type":"Polygon","coordinates":[[[-131.52081,56.84566],[-131.52081,56.84983],[-131.52081,56.85399],[-131.52081,56.85816],[-131.52081,56.86233],[-131.5208,56.8665],[-131.51455,56.86649],[-131.5083,56.8665],[-131.50205,56.86649],[-131.4958,56.8665],[-131.48955,56.86649],[-131.4833,56.86649],[-131.47705,56.86649],[-131.4708,56.86649],[-131.46455,56.86649],[-131.4583,56.86649],[-131.4583,56.87066],[-131.45205,56.87066],[-131.4458,56.87066],[-131.43955,56.87066],[-131.4333,56.87066],[-131.42705,56.87066],[-131.4208,56.87066],[-131.41455,56.87066],[-131.41455,56.86649],[-131.41455,56.86233],[-131.41455,56.85816],[-131.41455,56.85399],[-131.41455,56.84983],[-131.41455,56.84566],[-131.4208,56.84566],[-131.42705,56.84566],[-131.4333,56.84566],[-131.43955,56.84566],[-131.4458,56.84566],[-131.45205,56.84566],[-131.4583,56.84566],[-131.46455,56.84566],[-131.47081,56.84566],[-131.47706,56.84566],[-131.48331,56.84566],[-131.48956,56.84566],[-131.49581,56.84566],[-131.49581,56.84149],[-131.49581,56.83733],[-131.50206,56.83733],[-131.50831,56.83733],[-131.51456,56.83733],[-131.52081,56.83733],[-131.52081,56.84149],[-131.52081,56.84566]]]}},{"type":"Feature","properties":{"c":"1108207","o":"ROSEGOLD EXPLORATION LTD.","e":"2028-06-17Z"},"geometry":{"type":"Polygon","coordinates":[[[-131.50205,56.87483],[-131.50205,56.879],[-131.50205,56.88316],[-131.50205,56.88733],[-131.50205,56.8915],[-131.50205,56.89566],[-131.50205,56.89983],[-131.50205,56.904],[-131.50205,56.90817],[-131.50204,56.91233],[-131.50204,56.9165],[-131.50204,56.92067],[-131.49579,56.92067],[-131.48954,56.92067],[-131.48954,56.9165],[-131.48329,56.9165],[-131.48329,56.91233],[-131.48329,56.90816],[-131.47704,56.90816],[-131.47079,56.90816],[-131.47079,56.904],[-131.46454,56.904],[-131.45829,56.904],[-131.45204,56.904],[-131.44579,56.904],[-131.43954,56.904],[-131.43954,56.89983],[-131.43954,56.89566],[-131.43954,56.8915],[-131.43954,56.88733],[-131.43955,56.88316],[-131.43955,56.879],[-131.43955,56.87483],[-131.43955,56.87066],[-131.4458,56.87066],[-131.45205,56.87066],[-131.4583,56.87066],[-131.4583,56.86649],[-131.46455,56.86649],[-131.4708,56.86649],[-131.47705,56.86649],[-131.4833,56.86649],[-131.48955,56.86649],[-131.4958,56.8665],[-131.50205,56.86649],[-131.50205,56.87066],[-131.50205,56.87483]]]}},{"type":"Feature","properties":{"c":"1108208","o":"ROSEGOLD EXPLORATION LTD.","e":"2028-06-17Z"},"geometry":{"type":"Polygon","coordinates":[[[-131.55205,56.87483],[-131.55205,56.879],[-131.55205,56.88316],[-131.55205,56.88733],[-131.55205,56.8915],[-131.55205,56.89566],[-131.55205,56.89983],[-131.55205,56.904],[-131.55205,56.90817],[-131.55205,56.91233],[-131.55205,56.9165],[-131.5458,56.9165],[-131.53955,56.9165],[-131.5333,56.9165],[-131.52705,56.9165],[-131.52079,56.9165],[-131.51454,56.9165],[-131.50829,56.9165],[-131.50204,56.9165],[-131.50204,56.91233],[-131.50205,56.90817],[-131.50205,56.904],[-131.50205,56.89983],[-131.50205,56.89566],[-131.50205,56.8915],[-131.50205,56.88733],[-131.50205,56.88316],[-131.50205,56.879],[-131.50205,56.87483],[-131.50205,56.87066],[-131.50205,56.86649],[-131.5083,56.8665],[-131.51455,56.86649],[-131.5208,56.8665],[-131.52706,56.86649],[-131.53331,56.8665],[-131.53956,56.86649],[-131.54581,56.8665],[-131.55206,56.86649],[-131.55206,56.87066],[-131.55205,56.87483]]]}},{"type":"Feature","properties":{"c":"1108209","o":"ROSEGOLD EXPLORATION LTD.","e":"2028-06-17Z"},"geometry":{"type":"Polygon","coordinates":[[[-131.56455,56.954],[-131.56455,56.95817],[-131.56455,56.96233],[-131.56455,56.9665],[-131.56455,56.97067],[-131.56455,56.97483],[-131.5583,56.97483],[-131.5583,56.979],[-131.55205,56.979],[-131.5458,56.979],[-131.5458,56.98317],[-131.5458,56.98733],[-131.53954,56.98733],[-131.53954,56.9915],[-131.53329,56.9915],[-131.52704,56.9915],[-131.52079,56.9915],[-131.51454,56.9915],[-131.50829,56.9915],[-131.50204,56.9915],[-131.50204,56.98733],[-131.49579,56.98733],[-131.49579,56.98317],[-131.49579,56.979],[-131.49579,56.97483],[-131.49579,56.97067],[-131.50204,56.97067],[-131.50829,56.97067],[-131.51454,56.97067],[-131.52079,56.97067],[-131.52704,56.97067],[-131.52704,56.9665],[-131.52079,56.9665],[-131.52079,56.96233],[-131.51454,56.96233],[-131.50829,56.96233],[-131.50829,56.95817],[-131.50204,56.95817],[-131.49579,56.95817],[-131.49579,56.954],[-131.48954,56.954],[-131.48954,56.94983],[-131.48954,56.94567],[-131.49579,56.94567],[-131.50204,56.94567],[-131.50829,56.94567],[-131.51454,56.94567],[-131.52079,56.94567],[-131.52704,56.94567],[-131.5333,56.94567],[-131.53955,56.94567],[-131.5458,56.94567],[-131.55205,56.94567],[-131.5583,56.94567],[-131.56455,56.94567],[-131.56455,56.94983],[-131.56455,56.954]]]}},{"type":"Feature","properties":{"c":"1108210","o":"ROSEGOLD EXPLORATION LTD.","e":"2028-06-17Z"},"geometry":{"type":"Polygon","coordinates":[[[-131.58955,56.92483],[-131.58955,56.929],[-131.58955,56.93317],[-131.58955,56.93733],[-131.58955,56.9415],[-131.5833,56.9415],[-131.57705,56.9415],[-131.5708,56.9415],[-131.56455,56.9415],[-131.56455,56.94567],[-131.5583,56.94567],[-131.55205,56.94567],[-131.5458,56.94567],[-131.53955,56.94567],[-131.5333,56.94567],[-131.52704,56.94567],[-131.52079,56.94567],[-131.51454,56.94567],[-131.50829,56.94567],[-131.50204,56.94567],[-131.49579,56.94567],[-131.48954,56.94567],[-131.48954,56.9415],[-131.49579,56.9415],[-131.49579,56.93733],[-131.50204,56.93733],[-131.50204,56.93317],[-131.50204,56.929],[-131.50204,56.92483],[-131.49579,56.92483],[-131.49579,56.92067],[-131.50204,56.92067],[-131.50204,56.9165],[-131.50829,56.9165],[-131.51454,56.9165],[-131.52079,56.9165],[-131.52705,56.9165],[-131.5333,56.9165],[-131.53955,56.9165],[-131.5458,56.9165],[-131.55205,56.9165],[-131.5583,56.9165],[-131.56455,56.9165],[-131.5708,56.9165],[-131.57705,56.9165],[-131.5833,56.9165],[-131.58955,56.9165],[-131.58955,56.92067],[-131.58955,56.92483]]]}},{"type":"Feature","properties":{"c":"1108211","o":"ROSEGOLD EXPLORATION LTD.","e":"2028-06-17Z"},"geometry":{"type":"Polygon","coordinates":[[[-131.60831,56.87066],[-131.60831,56.87483],[-131.60831,56.879],[-131.6083,56.88316],[-131.6083,56.88733],[-131.6083,56.8915],[-131.60205,56.8915],[-131.5958,56.8915],[-131.58955,56.8915],[-131.58955,56.89566],[-131.58955,56.89983],[-131.58955,56.904],[-131.58955,56.90817],[-131.58955,56.91233],[-131.58955,56.9165],[-131.5833,56.9165],[-131.57705,56.9165],[-131.5708,56.9165],[-131.56455,56.9165],[-131.5583,56.9165],[-131.55205,56.9165],[-131.55205,56.91233],[-131.55205,56.90817],[-131.55205,56.904],[-131.55205,56.89983],[-131.55205,56.89566],[-131.55205,56.8915],[-131.55205,56.88733],[-131.55205,56.88316],[-131.55205,56.879],[-131.55205,56.87483],[-131.55206,56.87066],[-131.55206,56.86649],[-131.55206,56.86233],[-131.55831,56.86233],[-131.56456,56.86233],[-131.57081,56.86233],[-131.57706,56.86233],[-131.58331,56.86233],[-131.58956,56.86233],[-131.59581,56.86233],[-131.60206,56.86233],[-131.60831,56.86233],[-131.60831,56.86649],[-131.60831,56.87066]]]}},{"type":"Feature","properties":{"c":"1108212","o":"ROSEGOLD EXPLORATION LTD.","e":"2028-06-17Z"},"geometry":{"type":"Polygon","coordinates":[[[-131.64581,56.87066],[-131.64581,56.87483],[-131.64581,56.879],[-131.64581,56.88316],[-131.6458,56.88733],[-131.6458,56.8915],[-131.6458,56.89566],[-131.6458,56.89983],[-131.6458,56.904],[-131.6458,56.90817],[-131.6458,56.91233],[-131.6458,56.9165],[-131.63955,56.9165],[-131.6333,56.9165],[-131.62705,56.9165],[-131.6208,56.9165],[-131.61455,56.9165],[-131.61455,56.92067],[-131.6083,56.92067],[-131.60205,56.92067],[-131.5958,56.92067],[-131.58955,56.92067],[-131.58955,56.9165],[-131.58955,56.91233],[-131.58955,56.90817],[-131.58955,56.904],[-131.58955,56.89983],[-131.58955,56.89566],[-131.58955,56.8915],[-131.5958,56.8915],[-131.60205,56.8915],[-131.6083,56.8915],[-131.6083,56.88733],[-131.6083,56.88316],[-131.60831,56.879],[-131.60831,56.87483],[-131.60831,56.87066],[-131.60831,56.86649],[-131.60831,56.86233],[-131.61456,56.86233],[-131.62081,56.86233],[-131.62706,56.86233],[-131.63331,56.86233],[-131.63956,56.86233],[-131.64581,56.86233],[-131.64581,56.86649],[-131.64581,56.87066]]]}},{"type":"Feature","properties":{"c":"1108213","o":"ROSEGOLD EXPLORATION LTD.","e":"2028-06-17Z"},"geometry":{"type":"Polygon","coordinates":[[[-131.6583,56.94567],[-131.6583,56.94983],[-131.6583,56.954],[-131.6583,56.95817],[-131.6583,56.96233],[-131.6583,56.9665],[-131.65205,56.9665],[-131.6458,56.9665],[-131.63955,56.9665],[-131.63955,56.96233],[-131.6333,56.96233],[-131.62705,56.96233],[-131.6208,56.96233],[-131.61455,56.96233],[-131.6083,56.96233],[-131.60205,56.96233],[-131.5958,56.96233],[-131.58955,56.96233],[-131.58955,56.95817],[-131.58955,56.954],[-131.58955,56.94983],[-131.58955,56.94567],[-131.58955,56.9415],[-131.58955,56.93733],[-131.58955,56.93317],[-131.58955,56.929],[-131.58955,56.92483],[-131.58955,56.92067],[-131.5958,56.92067],[-131.60205,56.92067],[-131.6083,56.92067],[-131.61455,56.92067],[-131.61455,56.9165],[-131.6208,56.9165],[-131.62705,56.9165],[-131.6333,56.9165],[-131.6333,56.92067],[-131.6333,56.92483],[-131.6333,56.929],[-131.6333,56.93317],[-131.6333,56.93733],[-131.63955,56.93733],[-131.6458,56.93733],[-131.65205,56.93733],[-131.6583,56.93733],[-131.6583,56.9415],[-131.6583,56.94567]]]}},{"type":"Feature","properties":{"c":"1108214","o":"ROSEGOLD EXPLORATION LTD.","e":"2028-06-17Z"},"geometry":{"type":"Polygon","coordinates":[[[-131.68955,56.90816],[-131.68955,56.91233],[-131.68955,56.9165],[-131.68955,56.92067],[-131.68955,56.92483],[-131.68955,56.929],[-131.68955,56.93317],[-131.68955,56.93733],[-131.68955,56.9415],[-131.68955,56.94567],[-131.68955,56.94983],[-131.68955,56.954],[-131.6833,56.954],[-131.67705,56.954],[-131.67705,56.95817],[-131.67705,56.96233],[-131.6708,56.96233],[-131.66455,56.96233],[-131.6583,56.96233],[-131.6583,56.95817],[-131.6583,56.954],[-131.6583,56.94983],[-131.6583,56.94567],[-131.6583,56.9415],[-131.6583,56.93733],[-131.65205,56.93733],[-131.6458,56.93733],[-131.63955,56.93733],[-131.6333,56.93733],[-131.6333,56.93317],[-131.6333,56.929],[-131.6333,56.92483],[-131.6333,56.92067],[-131.6333,56.9165],[-131.63955,56.9165],[-131.6458,56.9165],[-131.6458,56.91233],[-131.6458,56.90817],[-131.6458,56.904],[-131.6458,56.89983],[-131.65205,56.89983],[-131.6583,56.89983],[-131.66455,56.89983],[-131.6708,56.89983],[-131.67705,56.89983],[-131.6833,56.89983],[-131.68955,56.89983],[-131.68955,56.904],[-131.68955,56.90816]]]}},{"type":"Feature","properties":{"c":"1108215","o":"ROSEGOLD EXPLORATION LTD.","e":"2028-06-17Z"},"geometry":{"type":"Polygon","coordinates":[[[-131.75205,56.93733],[-131.75205,56.9415],[-131.75205,56.94566],[-131.75205,56.94983],[-131.7458,56.94983],[-131.73955,56.94983],[-131.7333,56.94983],[-131.72705,56.94983],[-131.7208,56.94983],[-131.71455,56.94983],[-131.7083,56.94983],[-131.70205,56.94983],[-131.6958,56.94983],[-131.68955,56.94983],[-131.68955,56.94567],[-131.68955,56.9415],[-131.68955,56.93733],[-131.68955,56.93317],[-131.68955,56.929],[-131.68955,56.92483],[-131.68955,56.92067],[-131.68955,56.9165],[-131.68955,56.91233],[-131.68955,56.90816],[-131.68955,56.904],[-131.68955,56.89983],[-131.6958,56.89983],[-131.70205,56.89983],[-131.7083,56.89983],[-131.71455,56.89983],[-131.7208,56.89983],[-131.72705,56.89983],[-131.7333,56.89983],[-131.73955,56.89983],[-131.73955,56.904],[-131.73955,56.90816],[-131.7333,56.90816],[-131.72705,56.90816],[-131.72705,56.91233],[-131.72705,56.9165],[-131.72705,56.92066],[-131.72705,56.92483],[-131.7333,56.92483],[-131.73955,56.92483],[-131.73955,56.929],[-131.7458,56.929],[-131.75205,56.929],[-131.75205,56.93316],[-131.75205,56.93733]]]}},{"type":"Feature","properties":{"c":"1108216","o":"ROSEGOLD EXPLORATION LTD.","e":"2028-06-17Z"},"geometry":{"type":"Polygon","coordinates":[[[-131.72705,56.97483],[-131.72705,56.979],[-131.72705,56.98317],[-131.72705,56.98733],[-131.72705,56.9915],[-131.72705,56.99567],[-131.72705,56.99983],[-131.72705,57.004],[-131.72705,57.00817],[-131.72705,57.01233],[-131.7208,57.01233],[-131.71455,57.01233],[-131.7083,57.01233],[-131.70205,57.01233],[-131.70205,57.00817],[-131.70205,57.004],[-131.70205,56.99983],[-131.70205,56.99567],[-131.6958,56.99567],[-131.6958,56.9915],[-131.6958,56.98733],[-131.68955,56.98733],[-131.68955,56.98317],[-131.6833,56.98317],[-131.67705,56.98317],[-131.6708,56.98317],[-131.66455,56.98317],[-131.66455,56.979],[-131.66455,56.97483],[-131.66455,56.97067],[-131.66455,56.9665],[-131.66455,56.96233],[-131.6708,56.96233],[-131.67705,56.96233],[-131.67705,56.95817],[-131.67705,56.954],[-131.6833,56.954],[-131.68955,56.954],[-131.68955,56.94983],[-131.6958,56.94983],[-131.70205,56.94983],[-131.7083,56.94983],[-131.71455,56.94983],[-131.7208,56.94983],[-131.7208,56.954],[-131.7208,56.95817],[-131.7208,56.96233],[-131.7208,56.9665],[-131.72705,56.9665],[-131.72705,56.97067],[-131.72705,56.97483]]]}},{"type":"Feature","properties":{"c":"1108217","o":"ROSEGOLD EXPLORATION LTD.","e":"2028-06-17Z"},"geometry":{"type":"Polygon","coordinates":[[[-131.7708,56.979],[-131.7708,56.98316],[-131.7708,56.98733],[-131.7708,56.9915],[-131.77081,56.99567],[-131.77081,56.99983],[-131.77081,57.004],[-131.77081,57.00817],[-131.77081,57.01233],[-131.76456,57.01233],[-131.75831,57.01233],[-131.75205,57.01233],[-131.7458,57.01233],[-131.73955,57.01233],[-131.7333,57.01233],[-131.72705,57.01233],[-131.72705,57.00817],[-131.72705,57.004],[-131.72705,56.99983],[-131.72705,56.99567],[-131.72705,56.9915],[-131.72705,56.98733],[-131.72705,56.98317],[-131.72705,56.979],[-131.72705,56.97483],[-131.72705,56.97067],[-131.72705,56.9665],[-131.7208,56.9665],[-131.7208,56.96233],[-131.7208,56.95817],[-131.7208,56.954],[-131.7208,56.94983],[-131.72705,56.94983],[-131.7333,56.94983],[-131.73955,56.94983],[-131.7458,56.94983],[-131.75205,56.94983],[-131.7583,56.94983],[-131.7583,56.954],[-131.7583,56.95816],[-131.7583,56.96233],[-131.7583,56.9665],[-131.76455,56.9665],[-131.76455,56.97066],[-131.7708,56.97066],[-131.7708,56.97483],[-131.7708,56.979]]]}},{"type":"Feature","properties":{"c":"1108218","o":"ROSEGOLD EXPLORATION LTD.","e":"2028-06-17Z"},"geometry":{"type":"Polygon","coordinates":[[[-131.71455,56.87066],[-131.71455,56.87483],[-131.71455,56.87899],[-131.71455,56.88316],[-131.71455,56.88733],[-131.71455,56.89149],[-131.71455,56.89566],[-131.71455,56.89983],[-131.7083,56.89983],[-131.70205,56.89983],[-131.6958,56.89983],[-131.68955,56.89983],[-131.6833,56.89983],[-131.67705,56.89983],[-131.6708,56.89983],[-131.66455,56.89983],[-131.6583,56.89983],[-131.65205,56.89983],[-131.6458,56.89983],[-131.6458,56.89566],[-131.6458,56.8915],[-131.6458,56.88733],[-131.64581,56.88316],[-131.64581,56.879],[-131.64581,56.87483],[-131.64581,56.87066],[-131.64581,56.86649],[-131.64581,56.86233],[-131.65206,56.86233],[-131.65831,56.86233],[-131.66456,56.86233],[-131.67081,56.86233],[-131.67706,56.86233],[-131.68331,56.86233],[-131.68956,56.86233],[-131.6958,56.86232],[-131.70205,56.86232],[-131.7083,56.86232],[-131.71455,56.86232],[-131.71455,56.86649],[-131.71455,56.87066]]]}},{"type":"Feature","properties":{"c":"1108219","o":"ROSEGOLD EXPLORATION LTD.","e":"2028-06-17Z"},"geometry":{"type":"Polygon","coordinates":[[[-131.71455,56.84565],[-131.71455,56.84982],[-131.71455,56.85399],[-131.71455,56.85816],[-131.71455,56.86232],[-131.7083,56.86232],[-131.70205,56.86232],[-131.6958,56.86232],[-131.68956,56.86233],[-131.68331,56.86233],[-131.67706,56.86233],[-131.67081,56.86233],[-131.66456,56.86233],[-131.65831,56.86233],[-131.65206,56.86233],[-131.64581,56.86233],[-131.64581,56.85816],[-131.64581,56.85399],[-131.64581,56.84983],[-131.63956,56.84983],[-131.63331,56.84983],[-131.63331,56.85399],[-131.63331,56.85816],[-131.62706,56.85816],[-131.62081,56.85816],[-131.61456,56.85816],[-131.60831,56.85816],[-131.60206,56.85816],[-131.59581,56.85816],[-131.59581,56.85399],[-131.59581,56.84983],[-131.59581,56.84566],[-131.60206,56.84566],[-131.60206,56.84149],[-131.60206,56.83733],[-131.60831,56.83733],[-131.61456,56.83732],[-131.62081,56.83733],[-131.62706,56.83732],[-131.63331,56.83732],[-131.63956,56.83732],[-131.64581,56.83732],[-131.65206,56.83732],[-131.65831,56.83732],[-131.66456,56.83732],[-131.67081,56.83732],[-131.67706,56.83732],[-131.68331,56.83732],[-131.68956,56.83732],[-131.69581,56.83732],[-131.70206,56.83732],[-131.7083,56.83732],[-131.71455,56.83732],[-131.71455,56.84149],[-131.71455,56.84565]]]}},{"type":"Feature","properties":{"c":"1108220","o":"ROSEGOLD EXPLORATION LTD.","e":"2028-06-17Z"},"geometry":{"type":"Polygon","coordinates":[[[-131.60206,56.82899],[-131.60206,56.83316],[-131.60206,56.83733],[-131.60206,56.84149],[-131.60206,56.84566],[-131.59581,56.84566],[-131.59581,56.84983],[-131.59581,56.85399],[-131.59581,56.85816],[-131.58956,56.85816],[-131.58331,56.85816],[-131.57706,56.85816],[-131.57081,56.85816],[-131.56456,56.85816],[-131.55831,56.85816],[-131.55206,56.85816],[-131.55206,56.85399],[-131.55206,56.84983],[-131.55206,56.84566],[-131.54581,56.84566],[-131.53956,56.84566],[-131.53331,56.84566],[-131.52706,56.84566],[-131.52706,56.84149],[-131.52706,56.83733],[-131.52706,56.83316],[-131.52706,56.82899],[-131.52706,56.82483],[-131.52706,56.82066],[-131.52706,56.81649],[-131.53331,56.81649],[-131.53956,56.81649],[-131.54581,56.81649],[-131.55206,56.81649],[-131.55831,56.81649],[-131.56456,56.81649],[-131.57081,56.81649],[-131.57081,56.82066],[-131.57706,56.82066],[-131.58331,56.82066],[-131.58956,56.82066],[-131.59581,56.82066],[-131.60206,56.82066],[-131.60206,56.82482],[-131.60206,56.82899]]]}},{"type":"Feature","properties":{"c":"1108221","o":"ROSEGOLD EXPLORATION LTD.","e":"2028-06-17Z"},"geometry":{"type":"Polygon","coordinates":[[[-131.58331,56.77899],[-131.58331,56.78316],[-131.58331,56.78732],[-131.58331,56.79149],[-131.58331,56.79566],[-131.58331,56.79982],[-131.58331,56.80399],[-131.58331,56.80816],[-131.58331,56.81232],[-131.58331,56.81649],[-131.57706,56.81649],[-131.57706,56.82066],[-131.57081,56.82066],[-131.57081,56.81649],[-131.56456,56.81649],[-131.55831,56.81649],[-131.55206,56.81649],[-131.54581,56.81649],[-131.53956,56.81649],[-131.53331,56.81649],[-131.52706,56.81649],[-131.52706,56.81233],[-131.52706,56.80816],[-131.52706,56.80399],[-131.52706,56.79983],[-131.52706,56.79566],[-131.52706,56.79149],[-131.52706,56.78732],[-131.52706,56.78316],[-131.52706,56.77899],[-131.52706,56.77482],[-131.52706,56.77066],[-131.53331,56.77066],[-131.53956,56.77066],[-131.54581,56.77066],[-131.55206,56.77066],[-131.55831,56.77066],[-131.56456,56.77066],[-131.57081,56.77066],[-131.57706,56.77066],[-131.58331,56.77066],[-131.58331,56.77482],[-131.58331,56.77899]]]}},{"type":"Feature","properties":{"c":"1108222","o":"ROSEGOLD EXPLORATION LTD.","e":"2028-06-17Z"},"geometry":{"type":"Polygon","coordinates":[[[-131.64581,56.79982],[-131.64581,56.80399],[-131.64581,56.80816],[-131.64581,56.81232],[-131.64581,56.81649],[-131.64581,56.82066],[-131.64581,56.82482],[-131.64581,56.82899],[-131.64581,56.83316],[-131.64581,56.83732],[-131.63956,56.83732],[-131.63331,56.83732],[-131.62706,56.83732],[-131.62081,56.83733],[-131.61456,56.83732],[-131.60831,56.83733],[-131.60206,56.83733],[-131.60206,56.83316],[-131.60206,56.82899],[-131.60206,56.82482],[-131.60206,56.82066],[-131.59581,56.82066],[-131.58956,56.82066],[-131.58331,56.82066],[-131.57706,56.82066],[-131.57706,56.81649],[-131.58331,56.81649],[-131.58331,56.81232],[-131.58331,56.80816],[-131.58331,56.80399],[-131.58331,56.79982],[-131.58331,56.79566],[-131.58331,56.79149],[-131.58956,56.79149],[-131.59581,56.79149],[-131.60206,56.79149],[-131.60831,56.79149],[-131.61456,56.79149],[-131.62081,56.79149],[-131.62706,56.79149],[-131.63331,56.79149],[-131.63956,56.79149],[-131.64581,56.79149],[-131.64581,56.79566],[-131.64581,56.79982]]]}},{"type":"Feature","properties":{"c":"1108223","o":"ROSEGOLD EXPLORATION LTD.","e":"2028-06-17Z"},"geometry":{"type":"Polygon","coordinates":[[[-131.71453,56.80814],[-131.71453,56.81231],[-131.71453,56.81648],[-131.71454,56.82065],[-131.71454,56.82482],[-131.71455,56.82898],[-131.71455,56.83315],[-131.71455,56.83732],[-131.7083,56.83732],[-131.70206,56.83732],[-131.69581,56.83732],[-131.68956,56.83732],[-131.68331,56.83732],[-131.67706,56.83732],[-131.67081,56.83732],[-131.66456,56.83732],[-131.65831,56.83732],[-131.65206,56.83732],[-131.64581,56.83732],[-131.64581,56.83316],[-131.64581,56.82899],[-131.64581,56.82482],[-131.64581,56.82066],[-131.64581,56.81649],[-131.64581,56.81232],[-131.64581,56.80816],[-131.64581,56.80399],[-131.64581,56.79982],[-131.65206,56.79982],[-131.65831,56.79982],[-131.66456,56.79982],[-131.6708,56.79982],[-131.67705,56.79982],[-131.68329,56.79982],[-131.68954,56.79981],[-131.69578,56.79981],[-131.70203,56.79981],[-131.70827,56.79981],[-131.71452,56.79981],[-131.71452,56.80397],[-131.71453,56.80814]]]}},{"type":"Feature","properties":{"c":"1108224","o":"ROSEGOLD EXPLORATION LTD.","e":"2028-06-17Z"},"geometry":{"type":"Polygon","coordinates":[[[-131.7145,56.7873],[-131.71451,56.79147],[-131.71451,56.79564],[-131.71452,56.79981],[-131.70827,56.79981],[-131.70203,56.79981],[-131.69578,56.79981],[-131.68954,56.79981],[-131.68329,56.79982],[-131.67705,56.79982],[-131.6708,56.79982],[-131.66456,56.79982],[-131.65831,56.79982],[-131.65206,56.79982],[-131.64581,56.79982],[-131.64581,56.79566],[-131.64581,56.79149],[-131.63956,56.79149],[-131.63331,56.79149],[-131.62706,56.79149],[-131.62081,56.79149],[-131.61456,56.79149],[-131.60831,56.79149],[-131.60206,56.79149],[-131.59581,56.79149],[-131.58956,56.79149],[-131.58331,56.79149],[-131.58331,56.78732],[-131.58331,56.78316],[-131.58331,56.77899],[-131.58331,56.77482],[-131.58956,56.77482],[-131.59581,56.77482],[-131.60206,56.77482],[-131.60831,56.77482],[-131.61456,56.77482],[-131.62081,56.77482],[-131.62706,56.77482],[-131.63331,56.77482],[-131.63955,56.77482],[-131.6458,56.77482],[-131.65205,56.77482],[-131.6583,56.77482],[-131.66455,56.77482],[-131.6708,56.77482],[-131.67704,56.77482],[-131.67704,56.77898],[-131.68328,56.77898],[-131.68953,56.77898],[-131.69577,56.77897],[-131.70201,56.77897],[-131.70825,56.77897],[-131.71449,56.77896],[-131.7145,56.78313],[-131.7145,56.7873]]]}},{"type":"Feature","properties":{"c":"1108225","o":"ROSEGOLD EXPLORATION LTD.","e":"2028-06-17Z"},"geometry":{"type":"Polygon","coordinates":[[[-131.58331,56.75399],[-131.58331,56.75816],[-131.58331,56.76232],[-131.58331,56.76649],[-131.58331,56.77066],[-131.57706,56.77066],[-131.57081,56.77066],[-131.56456,56.77066],[-131.55831,56.77066],[-131.55206,56.77066],[-131.54581,56.77066],[-131.53956,56.77066],[-131.53331,56.77066],[-131.52706,56.77066],[-131.52081,56.77066],[-131.51456,56.77066],[-131.50831,56.77066],[-131.50206,56.77066],[-131.50206,56.77482],[-131.49581,56.77483],[-131.48956,56.77482],[-131.48956,56.77066],[-131.48956,56.76649],[-131.48956,56.76232],[-131.48956,56.75816],[-131.48956,56.75399],[-131.48956,56.74982],[-131.48956,56.74566],[-131.48956,56.74149],[-131.49581,56.74149],[-131.50206,56.74149],[-131.50831,56.74149],[-131.51456,56.74149],[-131.52081,56.74149],[-131.52705,56.74149],[-131.5333,56.74149],[-131.53955,56.74149],[-131.53956,56.74566],[-131.54581,56.74566],[-131.55206,56.74566],[-131.5583,56.74566],[-131.56455,56.74566],[-131.5708,56.74566],[-131.57705,56.74566],[-131.5833,56.74566],[-131.58331,56.74982],[-131.58331,56.75399]]]}},{"type":"Feature","properties":{"c":"1108226","o":"ROSEGOLD EXPLORATION LTD.","e":"2028-06-17Z"},"geometry":{"type":"Polygon","coordinates":[[[-131.71448,56.76646],[-131.71449,56.77063],[-131.71449,56.77479],[-131.71449,56.77896],[-131.70825,56.77897],[-131.70201,56.77897],[-131.69577,56.77897],[-131.68953,56.77898],[-131.68328,56.77898],[-131.67704,56.77898],[-131.67704,56.77482],[-131.6708,56.77482],[-131.66455,56.77482],[-131.6583,56.77482],[-131.65205,56.77482],[-131.6458,56.77482],[-131.63955,56.77482],[-131.63331,56.77482],[-131.62706,56.77482],[-131.62081,56.77482],[-131.61456,56.77482],[-131.60831,56.77482],[-131.60206,56.77482],[-131.59581,56.77482],[-131.58956,56.77482],[-131.58331,56.77482],[-131.58331,56.77066],[-131.58331,56.76649],[-131.58331,56.76232],[-131.58331,56.75816],[-131.58331,56.75399],[-131.58956,56.75399],[-131.59581,56.75399],[-131.60206,56.75399],[-131.60831,56.75399],[-131.61456,56.75399],[-131.6208,56.75399],[-131.62705,56.75399],[-131.6333,56.75399],[-131.63955,56.75399],[-131.6458,56.75399],[-131.6458,56.75815],[-131.65205,56.75815],[-131.6583,56.75815],[-131.66455,56.75815],[-131.67079,56.75815],[-131.67703,56.75815],[-131.68327,56.75814],[-131.68951,56.75814],[-131.69575,56.75813],[-131.70199,56.75813],[-131.70823,56.75813],[-131.71447,56.75812],[-131.71448,56.76229],[-131.71448,56.76646]]]}},{"type":"Feature","properties":{"c":"1108227","o":"ROSEGOLD EXPLORATION LTD.","e":"2028-06-17Z"},"geometry":{"type":"Polygon","coordinates":[[[-131.75828,56.84981],[-131.75205,56.84982],[-131.7458,56.84982],[-131.73955,56.84982],[-131.7333,56.84982],[-131.72705,56.84982],[-131.7208,56.84982],[-131.71455,56.84982],[-131.71455,56.84565],[-131.71455,56.84149],[-131.71455,56.83732],[-131.71455,56.83315],[-131.71455,56.82898],[-131.71454,56.82482],[-131.71454,56.82065],[-131.71453,56.81648],[-131.71453,56.81231],[-131.71453,56.80814],[-131.71452,56.80397],[-131.71452,56.79981],[-131.71451,56.79564],[-131.71451,56.79147],[-131.7145,56.7873],[-131.7145,56.78313],[-131.71449,56.77896],[-131.71449,56.77479],[-131.71449,56.77063],[-131.71448,56.76646],[-131.72072,56.76645],[-131.72696,56.76645],[-131.72697,56.77062],[-131.73321,56.77062],[-131.73945,56.77061],[-131.74569,56.77061],[-131.7457,56.77478],[-131.7457,56.77895],[-131.74571,56.78312],[-131.74572,56.78729],[-131.74573,56.79146],[-131.74573,56.79562],[-131.74574,56.79979],[-131.74575,56.80396],[-131.74575,56.80813],[-131.74576,56.8123],[-131.74577,56.81647],[-131.74577,56.82064],[-131.74578,56.82481],[-131.74579,56.82898],[-131.7458,56.83315],[-131.7458,56.83732],[-131.7458,56.84148],[-131.75204,56.84148],[-131.75204,56.84565],[-131.75828,56.84565],[-131.75828,56.84981]]]}},{"type":"Feature","properties":{"c":"1108228","o":"ROSEGOLD EXPLORATION LTD.","e":"2028-06-17Z"},"geometry":{"type":"Polygon","coordinates":[[[-131.76452,56.85814],[-131.75828,56.85815],[-131.75829,56.86232],[-131.75829,56.86648],[-131.75205,56.86649],[-131.75205,56.87066],[-131.75205,56.87482],[-131.75205,56.87899],[-131.75205,56.88316],[-131.75205,56.88732],[-131.75205,56.89149],[-131.75205,56.89566],[-131.75205,56.89983],[-131.7458,56.89983],[-131.73955,56.89983],[-131.7333,56.89983],[-131.72705,56.89983],[-131.7208,56.89983],[-131.71455,56.89983],[-131.71455,56.89566],[-131.71455,56.89149],[-131.71455,56.88733],[-131.71455,56.88316],[-131.71455,56.87899],[-131.71455,56.87483],[-131.71455,56.87066],[-131.71455,56.86649],[-131.71455,56.86232],[-131.71455,56.85816],[-131.71455,56.85399],[-131.71455,56.84982],[-131.7208,56.84982],[-131.72705,56.84982],[-131.7333,56.84982],[-131.73955,56.84982],[-131.7458,56.84982],[-131.75205,56.84982],[-131.75828,56.84981],[-131.76452,56.84981],[-131.76452,56.85398],[-131.76452,56.85814]]]}},{"type":"Feature","properties":{"c":"540179","o":"ORETERRA METALS CORP.","e":"2030-03-01Z"},"geometry":{"type":"Polygon","coordinates":[[[-131.70205,57.004],[-131.70205,57.00817],[-131.6958,57.00817],[-131.68955,57.00817],[-131.6833,57.00817],[-131.67705,57.00817],[-131.67705,57.01233],[-131.67705,57.0165],[-131.67705,57.02067],[-131.6708,57.02067],[-131.66455,57.02067],[-131.66455,57.0165],[-131.66455,57.01233],[-131.66455,57.00817],[-131.66455,57.004],[-131.66455,56.99983],[-131.66455,56.99567],[-131.6708,56.99567],[-131.67705,56.99567],[-131.6833,56.99567],[-131.68955,56.99567],[-131.6958,56.99567],[-131.70205,56.99567],[-131.70205,56.99983],[-131.70205,57.004]]]}},{"type":"Feature","properties":{"c":"540180","o":"ORETERRA METALS CORP.","e":"2030-03-01Z"},"geometry":{"type":"Polygon","coordinates":[[[-131.66455,57.004],[-131.66455,57.00817],[-131.66455,57.01233],[-131.66455,57.0165],[-131.6583,57.0165],[-131.65205,57.0165],[-131.6458,57.0165],[-131.63955,57.0165],[-131.63955,57.01233],[-131.6333,57.01233],[-131.6333,57.00817],[-131.6333,57.004],[-131.6333,56.99983],[-131.6333,56.99567],[-131.63955,56.99567],[-131.6458,56.99567],[-131.65205,56.99567],[-131.6583,56.99567],[-131.66455,56.99567],[-131.66455,56.99983],[-131.66455,57.004]]]}},{"type":"Feature","properties":{"c":"540182","o":"ORETERRA METALS CORP.","e":"2030-03-01Z"},"geometry":{"type":"Polygon","coordinates":[[[-131.5958,56.98733],[-131.5958,56.9915],[-131.5958,56.99567],[-131.58955,56.99567],[-131.5833,56.99567],[-131.5833,56.9915],[-131.57705,56.9915],[-131.5708,56.9915],[-131.56455,56.9915],[-131.5583,56.9915],[-131.55205,56.9915],[-131.55205,56.98733],[-131.55205,56.98317],[-131.55205,56.979],[-131.5583,56.979],[-131.56455,56.979],[-131.5708,56.979],[-131.57705,56.979],[-131.5833,56.979],[-131.58955,56.979],[-131.5958,56.979],[-131.5958,56.98317],[-131.5958,56.98733]]]}},{"type":"Feature","properties":{"c":"540183","o":"ORETERRA METALS CORP.","e":"2030-03-01Z"},"geometry":{"type":"Polygon","coordinates":[[[-131.6333,56.99983],[-131.6333,57.004],[-131.6333,57.00817],[-131.62705,57.00817],[-131.6208,57.00817],[-131.61455,57.00817],[-131.61455,57.004],[-131.6083,57.004],[-131.60205,57.004],[-131.60205,56.99983],[-131.5958,56.99983],[-131.5958,56.99567],[-131.5958,56.9915],[-131.5958,56.98733],[-131.60205,56.98733],[-131.6083,56.98733],[-131.61455,56.98733],[-131.6208,56.98733],[-131.6208,56.9915],[-131.62705,56.9915],[-131.6333,56.9915],[-131.6333,56.99567],[-131.6333,56.99983]]]}},{"type":"Feature","properties":{"c":"540184","o":"ORETERRA METALS CORP.","e":"2030-03-01Z"},"geometry":{"type":"Polygon","coordinates":[[[-131.5958,56.97067],[-131.5958,56.97483],[-131.5958,56.979],[-131.58955,56.979],[-131.5833,56.979],[-131.57705,56.979],[-131.5708,56.979],[-131.56455,56.979],[-131.5583,56.979],[-131.5583,56.97483],[-131.56455,56.97483],[-131.56455,56.97067],[-131.56455,56.9665],[-131.56455,56.96233],[-131.5708,56.96233],[-131.57705,56.96233],[-131.5833,56.96233],[-131.58955,56.96233],[-131.5958,56.96233],[-131.5958,56.9665],[-131.5958,56.97067]]]}},{"type":"Feature","properties":{"c":"540185","o":"ORETERRA METALS CORP.","e":"2030-03-01Z"},"geometry":{"type":"Polygon","coordinates":[[[-131.58955,56.94983],[-131.58955,56.954],[-131.58955,56.95817],[-131.58955,56.96233],[-131.5833,56.96233],[-131.57705,56.96233],[-131.5708,56.96233],[-131.56455,56.96233],[-131.56455,56.95817],[-131.56455,56.954],[-131.56455,56.94983],[-131.56455,56.94567],[-131.56455,56.9415],[-131.5708,56.9415],[-131.57705,56.9415],[-131.5833,56.9415],[-131.58955,56.9415],[-131.58955,56.94567],[-131.58955,56.94983]]]}},{"type":"Feature","properties":{"c":"540186","o":"ORETERRA METALS CORP.","e":"2030-03-01Z"},"geometry":{"type":"Polygon","coordinates":[[[-131.6208,56.97067],[-131.6208,56.97483],[-131.6208,56.979],[-131.6208,56.98317],[-131.6208,56.98733],[-131.61455,56.98733],[-131.6083,56.98733],[-131.60205,56.98733],[-131.5958,56.98733],[-131.5958,56.98317],[-131.5958,56.979],[-131.5958,56.97483],[-131.5958,56.97067],[-131.5958,56.9665],[-131.5958,56.96233],[-131.60205,56.96233],[-131.6083,56.96233],[-131.61455,56.96233],[-131.6208,56.96233],[-131.6208,56.9665],[-131.6208,56.97067]]]}},{"type":"Feature","properties":{"c":"540188","o":"ORETERRA METALS CORP.","e":"2030-03-01Z"},"geometry":{"type":"Polygon","coordinates":[[[-131.66455,56.97067],[-131.66455,56.97483],[-131.66455,56.979],[-131.6583,56.979],[-131.65205,56.979],[-131.6458,56.979],[-131.63955,56.979],[-131.6333,56.979],[-131.62705,56.979],[-131.6208,56.979],[-131.6208,56.97483],[-131.6208,56.97067],[-131.6208,56.9665],[-131.6208,56.96233],[-131.62705,56.96233],[-131.6333,56.96233],[-131.63955,56.96233],[-131.63955,56.9665],[-131.6458,56.9665],[-131.65205,56.9665],[-131.6583,56.9665],[-131.6583,56.96233],[-131.66455,56.96233],[-131.66455,56.9665],[-131.66455,56.97067]]]}},{"type":"Feature","properties":{"c":"540192","o":"ORETERRA METALS CORP.","e":"2029-06-01Z"},"geometry":{"type":"Polygon","coordinates":[[[-131.66455,56.9915],[-131.66455,56.99567],[-131.6583,56.99567],[-131.65205,56.99567],[-131.6458,56.99567],[-131.63955,56.99567],[-131.6333,56.99567],[-131.6333,56.9915],[-131.62705,56.9915],[-131.6208,56.9915],[-131.6208,56.98733],[-131.6208,56.98317],[-131.6208,56.979],[-131.62705,56.979],[-131.6333,56.979],[-131.63955,56.979],[-131.6458,56.979],[-131.65205,56.979],[-131.6583,56.979],[-131.6583,56.98317],[-131.6583,56.98733],[-131.66455,56.98733],[-131.66455,56.9915]]]}},{"type":"Feature","properties":{"c":"540193","o":"ORETERRA METALS CORP.","e":"2030-03-01Z"},"geometry":{"type":"Polygon","coordinates":[[[-131.6958,56.99567],[-131.68955,56.99567],[-131.6833,56.99567],[-131.67705,56.99567],[-131.6708,56.99567],[-131.66455,56.99567],[-131.66455,56.9915],[-131.66455,56.98733],[-131.6583,56.98733],[-131.6583,56.98317],[-131.6583,56.979],[-131.66455,56.979],[-131.66455,56.98317],[-131.6708,56.98317],[-131.67705,56.98317],[-131.6833,56.98317],[-131.68955,56.98317],[-131.68955,56.98733],[-131.6958,56.98733],[-131.6958,56.9915],[-131.6958,56.99567]]]}},{"type":"Feature","properties":{"c":"830956","o":"ORETERRA METALS CORP.","e":"2030-03-01Z"},"geometry":{"type":"Polygon","coordinates":[[[-131.5458,56.9915],[-131.5458,56.99567],[-131.53954,56.99567],[-131.53329,56.99567],[-131.52704,56.99567],[-131.52079,56.99567],[-131.51454,56.99567],[-131.50829,56.99567],[-131.50204,56.99567],[-131.49579,56.99567],[-131.48954,56.99567],[-131.48329,56.99567],[-131.47704,56.99566],[-131.47079,56.99566],[-131.46454,56.99566],[-131.45829,56.99566],[-131.45204,56.99566],[-131.44579,56.99566],[-131.43954,56.99566],[-131.43329,56.99566],[-131.42704,56.99566],[-131.42079,56.99566],[-131.41454,56.99566],[-131.40829,56.99566],[-131.40204,56.99566],[-131.39579,56.99566],[-131.39579,56.9915],[-131.40204,56.9915],[-131.40829,56.9915],[-131.41454,56.9915],[-131.42079,56.9915],[-131.42704,56.9915],[-131.43329,56.9915],[-131.43954,56.9915],[-131.44579,56.9915],[-131.45204,56.9915],[-131.45829,56.9915],[-131.46454,56.9915],[-131.47079,56.9915],[-131.47704,56.9915],[-131.48329,56.9915],[-131.48954,56.9915],[-131.49579,56.9915],[-131.50204,56.9915],[-131.50829,56.9915],[-131.51454,56.9915],[-131.52079,56.9915],[-131.52704,56.9915],[-131.53329,56.9915],[-131.53954,56.9915],[-131.5458,56.9915]]]}},{"type":"Feature","properties":{"c":"830960","o":"ORETERRA METALS CORP.","e":"2030-03-01Z"},"geometry":{"type":"Polygon","coordinates":[[[-131.55205,56.98733],[-131.55205,56.9915],[-131.5458,56.9915],[-131.53954,56.9915],[-131.53954,56.98733],[-131.5458,56.98733],[-131.5458,56.98317],[-131.5458,56.979],[-131.55205,56.979],[-131.55205,56.98317],[-131.55205,56.98733]]]}},{"type":"Feature","properties":{"c":"1100624","o":"ORETERRA METALS CORP.","e":"2028-08-18Z"},"geometry":{"type":"Polygon","coordinates":[[[-131.50204,56.9915],[-131.49579,56.9915],[-131.48954,56.9915],[-131.48329,56.9915],[-131.47704,56.9915],[-131.47704,56.98733],[-131.47704,56.98316],[-131.47704,56.979],[-131.47704,56.97483],[-131.48329,56.97483],[-131.48329,56.979],[-131.48954,56.979],[-131.48954,56.98317],[-131.49579,56.98317],[-131.49579,56.98733],[-131.50204,56.98733],[-131.50204,56.9915]]]}},{"type":"Feature","properties":{"c":"1135945","o":"LANGILLE, MICHEAL SCOTT","e":"2027-07-16Z"},"geometry":{"type":"Polygon","coordinates":[[[-131.64581,56.85816],[-131.64581,56.86233],[-131.63956,56.86233],[-131.63331,56.86233],[-131.63331,56.85816],[-131.63956,56.85816],[-131.64581,56.85816]]]}},{"type":"Feature","properties":{"c":"1135946","o":"LANGILLE, MICHEAL SCOTT","e":"2027-07-16Z"},"geometry":{"type":"Polygon","coordinates":[[[-131.64581,56.84983],[-131.64581,56.85399],[-131.63956,56.85399],[-131.63331,56.85399],[-131.63331,56.84983],[-131.63956,56.84983],[-131.64581,56.84983]]]}},{"type":"Feature","properties":{"c":"1139575","o":"JAMES, CALEB AUSTIN","e":"2027-09-26Z"},"geometry":{"type":"Polygon","coordinates":[[[-131.64581,56.85399],[-131.64581,56.85816],[-131.63956,56.85816],[-131.63331,56.85816],[-131.63331,56.85399],[-131.63956,56.85399],[-131.64581,56.85399]]]}}]}