{"type":"FeatureCollection","features":[{"type":"Feature","properties":{"c":"156.0","o":"Silver North Resources Ltd. - 100%","e":"2025-04-29"},"geometry":{"type":"Polygon","coordinates":[[[-132.14786,60.09382],[-132.14787,60.09793],[-132.13967,60.09794],[-132.13966,60.09383],[-132.14786,60.09382]]]}},{"type":"Feature","properties":{"c":"214.0","o":"OVERLAND RESOURCES (BC) LIMITED - 100%","e":"2027-12-04"},"geometry":{"type":"Polygon","coordinates":[[[-131.99985,60.26535],[-132.00472,60.26867],[-131.99807,60.27109],[-131.99319,60.26778],[-131.99985,60.26535]]]}},{"type":"Feature","properties":{"c":"104.0","o":"Silver North Resources Ltd. - 100%","e":"2026-04-29"},"geometry":{"type":"Polygon","coordinates":[[[-132.13964,60.08561],[-132.13965,60.08972],[-132.13145,60.08972],[-132.13144,60.08561],[-132.13964,60.08561]]]}},{"type":"Feature","properties":{"c":"160.0","o":"OVERLAND RESOURCES (BC) LIMITED - 100%","e":"2028-07-30"},"geometry":{"type":"Polygon","coordinates":[[[-132.08233,60.26579],[-132.08721,60.2691],[-132.08056,60.27153],[-132.07568,60.26822],[-132.08233,60.26579]]]}},{"type":"Feature","properties":{"c":"180.0","o":"OVERLAND RESOURCES (BC) LIMITED - 100%","e":"2028-07-30"},"geometry":{"type":"Polygon","coordinates":[[[-132.04951,60.2574],[-132.05439,60.26072],[-132.04774,60.26315],[-132.04286,60.25983],[-132.04951,60.2574]]]}},{"type":"Feature","properties":{"c":"49.0","o":"Silver North Resources Ltd. - 100%","e":"2026-04-29"},"geometry":{"type":"Polygon","coordinates":[[[-132.09044,60.09384],[-132.08224,60.09385],[-132.08223,60.08973],[-132.09044,60.08973],[-132.09044,60.09384]]]}},{"type":"Feature","properties":{"c":"35.0","o":"OVERLAND RESOURCES (BC) LIMITED - 100%","e":"2028-03-20"},"geometry":{"type":"Polygon","coordinates":[[[-131.99534,60.31793],[-132.00022,60.32124],[-131.99356,60.32367],[-131.98868,60.32035],[-131.99534,60.31793]]]}},{"type":"Feature","properties":{"c":"228.0","o":"Silver North Resources Ltd. - 100%","e":"2025-04-29"},"geometry":{"type":"Polygon","coordinates":[[[-132.16469,60.03629],[-132.16477,60.0404],[-132.15671,60.04043],[-132.15663,60.03632],[-132.16469,60.03629]]]}},{"type":"Feature","properties":{"c":"209.0","o":"OVERLAND RESOURCES (BC) LIMITED - 100%","e":"2027-12-04"},"geometry":{"type":"Polygon","coordinates":[[[-132.00294,60.27441],[-132.00782,60.27772],[-132.00116,60.28015],[-131.99629,60.27684],[-132.00294,60.27441]]]}},{"type":"Feature","properties":{"c":"166.0","o":"OVERLAND RESOURCES (BC) LIMITED - 100%","e":"2028-07-30"},"geometry":{"type":"Polygon","coordinates":[[[-132.05262,60.26646],[-132.0575,60.26977],[-132.05084,60.2722],[-132.04597,60.26889],[-132.05262,60.26646]]]}},{"type":"Feature","properties":{"c":"2.0","o":"Silver North Resources Ltd. - 100%","e":"2028-04-29"},"geometry":{"type":"Polygon","coordinates":[[[-132.09863,60.08151],[-132.09863,60.08562],[-132.09043,60.08562],[-132.09043,60.08151],[-132.09863,60.08151]]]}},{"type":"Feature","properties":{"c":"113.0","o":"OVERLAND RESOURCES (BC) LIMITED - 100%","e":"2028-07-30"},"geometry":{"type":"Polygon","coordinates":[[[-132.0189,60.29915],[-132.02378,60.30247],[-132.01712,60.3049],[-132.01223,60.30158],[-132.0189,60.29915]]]}},{"type":"Feature","properties":{"c":"150.0","o":"Silver North Resources Ltd. - 100%","e":"2025-04-29"},"geometry":{"type":"Polygon","coordinates":[[[-132.15606,60.08971],[-132.15607,60.09382],[-132.14786,60.09382],[-132.14785,60.08971],[-132.15606,60.08971]]]}},{"type":"Feature","properties":{"c":"57.0","o":"OVERLAND RESOURCES (BC) LIMITED - 100%","e":"2028-07-30"},"geometry":{"type":"Polygon","coordinates":[[[-132.0891,60.33979],[-132.09399,60.3431],[-132.08733,60.34554],[-132.08243,60.34222],[-132.0891,60.33979]]]}},{"type":"Feature","properties":{"c":"143.0","o":"OVERLAND RESOURCES (BC) LIMITED - 100%","e":"2028-07-30"},"geometry":{"type":"Polygon","coordinates":[[[-132.07391,60.27397],[-132.07879,60.27728],[-132.07214,60.27971],[-132.06726,60.2764],[-132.07391,60.27397]]]}},{"type":"Feature","properties":{"c":"23.0","o":"OVERLAND RESOURCES (BC) LIMITED - 100%","e":"2028-03-20"},"geometry":{"type":"Polygon","coordinates":[[[-132.00379,60.30975],[-132.00867,60.31307],[-132.00201,60.3155],[-131.99713,60.31218],[-132.00379,60.30975]]]}},{"type":"Feature","properties":{"c":"147.0","o":"OVERLAND RESOURCES (BC) LIMITED - 100%","e":"2028-07-30"},"geometry":{"type":"Polygon","coordinates":[[[-132.08721,60.2691],[-132.09209,60.27241],[-132.08544,60.27485],[-132.08056,60.27153],[-132.08721,60.2691]]]}},{"type":"Feature","properties":{"c":"79.0","o":"OVERLAND RESOURCES (BC) LIMITED - 100%","e":"2028-07-30"},"geometry":{"type":"Polygon","coordinates":[[[-132.08066,60.34797],[-132.08556,60.35128],[-132.07889,60.35371],[-132.074,60.3504],[-132.08066,60.34797]]]}},{"type":"Feature","properties":{"c":"84.0","o":"Silver North Resources Ltd. - 100%","e":"2026-04-29"},"geometry":{"type":"Polygon","coordinates":[[[-132.12324,60.08561],[-132.12325,60.08972],[-132.11504,60.08973],[-132.11504,60.08562],[-132.12324,60.08561]]]}},{"type":"Feature","properties":{"c":"7.0","o":"OVERLAND RESOURCES (BC) LIMITED - 100%","e":"2028-03-20"},"geometry":{"type":"Polygon","coordinates":[[[-132.022,60.30821],[-132.02688,60.31153],[-132.02022,60.31396],[-132.01534,60.31064],[-132.022,60.30821]]]}},{"type":"Feature","properties":{"c":"79.0","o":"Silver North Resources Ltd. - 100%","e":"2026-04-29"},"geometry":{"type":"Polygon","coordinates":[[[-132.13142,60.07739],[-132.13143,60.0815],[-132.12323,60.0815],[-132.12323,60.07739],[-132.13142,60.07739]]]}},{"type":"Feature","properties":{"c":"59.0","o":"OVERLAND RESOURCES (BC) LIMITED - 100%","e":"2028-07-30"},"geometry":{"type":"Polygon","coordinates":[[[-132.09399,60.3431],[-132.09889,60.34641],[-132.09222,60.34885],[-132.08733,60.34554],[-132.09399,60.3431]]]}},{"type":"Feature","properties":{"c":"4.0","o":"OVERLAND RESOURCES (BC) LIMITED - 100%","e":"2028-03-20"},"geometry":{"type":"Polygon","coordinates":[[[-132.0251,60.31727],[-132.02999,60.32058],[-132.02332,60.32301],[-132.01844,60.3197],[-132.0251,60.31727]]]}},{"type":"Feature","properties":{"c":"132.0","o":"OVERLAND RESOURCES (BC) LIMITED - 100%","e":"2028-07-30"},"geometry":{"type":"Polygon","coordinates":[[[-132.0473,60.28369],[-132.05218,60.287],[-132.04553,60.28944],[-132.04064,60.28612],[-132.0473,60.28369]]]}},{"type":"Feature","properties":{"c":"130.0","o":"OVERLAND RESOURCES (BC) LIMITED - 100%","e":"2028-07-30"},"geometry":{"type":"Polygon","coordinates":[[[-132.05218,60.287],[-132.05706,60.29032],[-132.05041,60.29275],[-132.04553,60.28944],[-132.05218,60.287]]]}},{"type":"Feature","properties":{"c":"3.0","o":"Silver North Resources Ltd. - 100%","e":"2028-04-29"},"geometry":{"type":"Polygon","coordinates":[[[-132.08223,60.08151],[-132.08223,60.0774],[-132.09043,60.0774],[-132.09043,60.08151],[-132.08223,60.08151]]]}},{"type":"Feature","properties":{"c":"100.0","o":"Silver North Resources Ltd. - 100%","e":"2026-04-29"},"geometry":{"type":"Polygon","coordinates":[[[-132.13962,60.07739],[-132.13963,60.0815],[-132.13143,60.0815],[-132.13142,60.07739],[-132.13962,60.07739]]]}},{"type":"Feature","properties":{"c":"249.0","o":"Silver North Resources Ltd. - 100%","e":"2025-04-29"},"geometry":{"type":"Polygon","coordinates":[[[-132.15686,60.04866],[-132.15693,60.05271],[-132.14886,60.05272],[-132.14879,60.04869],[-132.15686,60.04866]]]}},{"type":"Feature","properties":{"c":"144.0","o":"Silver North Resources Ltd. - 100%","e":"2025-04-29"},"geometry":{"type":"Polygon","coordinates":[[[-132.15602,60.07738],[-132.15603,60.08149],[-132.14783,60.08149],[-132.14782,60.07738],[-132.15602,60.07738]]]}},{"type":"Feature","properties":{"c":"109.0","o":"OVERLAND RESOURCES (BC) LIMITED - 100%","e":"2028-07-30"},"geometry":{"type":"Polygon","coordinates":[[[-132.02866,60.30578],[-132.03354,60.3091],[-132.02688,60.31153],[-132.022,60.30821],[-132.02866,60.30578]]]}},{"type":"Feature","properties":{"c":"15.0","o":"OVERLAND RESOURCES (BC) LIMITED - 100%","e":"2028-03-20"},"geometry":{"type":"Polygon","coordinates":[[[-132.02332,60.32301],[-132.02821,60.32633],[-132.02154,60.32876],[-132.01666,60.32544],[-132.02332,60.32301]]]}},{"type":"Feature","properties":{"c":"146.0","o":"Silver North Resources Ltd. - 100%","e":"2025-04-29"},"geometry":{"type":"Polygon","coordinates":[[[-132.15603,60.08149],[-132.15604,60.0856],[-132.14784,60.0856],[-132.14783,60.08149],[-132.15603,60.08149]]]}},{"type":"Feature","properties":{"c":"84.0","o":"OVERLAND RESOURCES (BC) LIMITED - 100%","e":"2028-07-30"},"geometry":{"type":"Polygon","coordinates":[[[-132.02154,60.32876],[-132.02643,60.33207],[-132.01976,60.3345],[-132.01488,60.33118],[-132.02154,60.32876]]]}},{"type":"Feature","properties":{"c":"20.0","o":"Silver North Resources Ltd. - 100%","e":"2026-04-29"},"geometry":{"type":"Polygon","coordinates":[[[-132.09043,60.07329],[-132.08223,60.07329],[-132.08223,60.06918],[-132.09042,60.06918],[-132.09043,60.07329]]]}},{"type":"Feature","properties":{"c":"192.0","o":"OVERLAND RESOURCES (BC) LIMITED - 100%","e":"2028-12-04"},"geometry":{"type":"Polygon","coordinates":[[[-132.01803,60.26381],[-132.02291,60.26712],[-132.01625,60.26955],[-132.01138,60.26624],[-132.01803,60.26381]]]}},{"type":"Feature","properties":{"c":"10.0","o":"OVERLAND RESOURCES (BC) LIMITED - 100%","e":"2028-03-20"},"geometry":{"type":"Polygon","coordinates":[[[-132.01045,60.30733],[-132.01534,60.31064],[-132.00867,60.31307],[-132.00379,60.30975],[-132.01045,60.30733]]]}},{"type":"Feature","properties":{"c":"134.0","o":"OVERLAND RESOURCES (BC) LIMITED - 100%","e":"2028-07-30"},"geometry":{"type":"Polygon","coordinates":[[[-132.04242,60.28038],[-132.0473,60.28369],[-132.04064,60.28612],[-132.03576,60.28281],[-132.04242,60.28038]]]}},{"type":"Feature","properties":{"c":"47.0","o":"Silver North Resources Ltd. - 100%","e":"2026-04-29"},"geometry":{"type":"Polygon","coordinates":[[[-132.09864,60.09384],[-132.09044,60.09384],[-132.09044,60.08973],[-132.09864,60.08973],[-132.09864,60.09384]]]}},{"type":"Feature","properties":{"c":"87.0","o":"Silver North Resources Ltd. - 100%","e":"2023-04-29"},"geometry":{"type":"Polygon","coordinates":[[[-132.14776,60.05272],[-132.14777,60.05683],[-132.13958,60.05683],[-132.13957,60.05272],[-132.14776,60.05272]]]}},{"type":"Feature","properties":{"c":"43.0","o":"OVERLAND RESOURCES (BC) LIMITED - 100%","e":"2028-07-30"},"geometry":{"type":"Polygon","coordinates":[[[-132.05486,60.31661],[-132.05975,60.31992],[-132.05309,60.32235],[-132.0482,60.31904],[-132.05486,60.31661]]]}},{"type":"Feature","properties":{"c":"12.0","o":"Silver North Resources Ltd. - 100%","e":"2025-04-29"},"geometry":{"type":"Polygon","coordinates":[[[-132.11504,60.08562],[-132.10684,60.08562],[-132.10683,60.08151],[-132.11503,60.08151],[-132.11504,60.08562]]]}},{"type":"Feature","properties":{"c":"35.0","o":"Silver North Resources Ltd. - 100%","e":"2026-04-29"},"geometry":{"type":"Polygon","coordinates":[[[-132.115,60.05684],[-132.115,60.06095],[-132.10681,60.06096],[-132.1068,60.05685],[-132.115,60.05684]]]}},{"type":"Feature","properties":{"c":"149.0","o":"OVERLAND RESOURCES (BC) LIMITED - 100%","e":"2028-07-30"},"geometry":{"type":"Polygon","coordinates":[[[-132.04419,60.27463],[-132.04907,60.27795],[-132.04242,60.28038],[-132.03754,60.27706],[-132.04419,60.27463]]]}},{"type":"Feature","properties":{"c":"25.0","o":"Silver North Resources Ltd. - 100%","e":"2026-04-29"},"geometry":{"type":"Polygon","coordinates":[[[-132.11501,60.06507],[-132.11501,60.06918],[-132.10682,60.06918],[-132.10681,60.06507],[-132.11501,60.06507]]]}},{"type":"Feature","properties":{"c":"195.0","o":"OVERLAND RESOURCES (BC) LIMITED - 100%","e":"2028-12-04"},"geometry":{"type":"Polygon","coordinates":[[[-132.00163,60.25961],[-132.0065,60.26292],[-131.99985,60.26535],[-131.99498,60.26203],[-132.00163,60.25961]]]}},{"type":"Feature","properties":{"c":"227.0","o":"Silver North Resources Ltd. - 100%","e":"2025-04-29"},"geometry":{"type":"Polygon","coordinates":[[[-132.16477,60.0404],[-132.16484,60.04451],[-132.15678,60.04455],[-132.15671,60.04043],[-132.16477,60.0404]]]}},{"type":"Feature","properties":{"c":"6.0","o":"Silver North Resources Ltd. - 100%","e":"2025-04-29"},"geometry":{"type":"Polygon","coordinates":[[[-132.09863,60.08151],[-132.10683,60.08151],[-132.10684,60.08562],[-132.09863,60.08562],[-132.09863,60.08151]]]}},{"type":"Feature","properties":{"c":"110.0","o":"OVERLAND RESOURCES (BC) LIMITED - 100%","e":"2028-07-30"},"geometry":{"type":"Polygon","coordinates":[[[-132.03532,60.30335],[-132.0402,60.30667],[-132.03354,60.3091],[-132.02866,60.30578],[-132.03532,60.30335]]]}},{"type":"Feature","properties":{"c":"70.0","o":"Silver North Resources Ltd. - 100%","e":"2023-04-29"},"geometry":{"type":"Polygon","coordinates":[[[-132.1232,60.06095],[-132.115,60.06095],[-132.115,60.05684],[-132.12319,60.05684],[-132.1232,60.06095]]]}},{"type":"Feature","properties":{"c":"66.0","o":"OVERLAND RESOURCES (BC) LIMITED - 100%","e":"2028-07-30"},"geometry":{"type":"Polygon","coordinates":[[[-132.03976,60.32721],[-132.04465,60.33052],[-132.03798,60.33295],[-132.03309,60.32964],[-132.03976,60.32721]]]}},{"type":"Feature","properties":{"c":"164.0","o":"OVERLAND RESOURCES (BC) LIMITED - 100%","e":"2028-07-30"},"geometry":{"type":"Polygon","coordinates":[[[-132.04597,60.26889],[-132.05084,60.2722],[-132.04419,60.27463],[-132.03931,60.27132],[-132.04597,60.26889]]]}},{"type":"Feature","properties":{"c":"90.0","o":"OVERLAND RESOURCES (BC) LIMITED - 100%","e":"2028-07-30"},"geometry":{"type":"Polygon","coordinates":[[[-132.0362,60.3387],[-132.04109,60.34201],[-132.03443,60.34444],[-132.02954,60.34113],[-132.0362,60.3387]]]}},{"type":"Feature","properties":{"c":"115.0","o":"OVERLAND RESOURCES (BC) LIMITED - 100%","e":"2028-07-30"},"geometry":{"type":"Polygon","coordinates":[[[-132.01401,60.29584],[-132.0189,60.29915],[-132.01223,60.30158],[-132.00735,60.29827],[-132.01401,60.29584]]]}},{"type":"Feature","properties":{"c":"188.0","o":"OVERLAND RESOURCES (BC) LIMITED - 100%","e":"2028-12-04"},"geometry":{"type":"Polygon","coordinates":[[[-132.02778,60.27044],[-132.03266,60.27375],[-132.02601,60.27618],[-132.02113,60.27287],[-132.02778,60.27044]]]}},{"type":"Feature","properties":{"c":"56.0","o":"OVERLAND RESOURCES (BC) LIMITED - 100%","e":"2028-07-30"},"geometry":{"type":"Polygon","coordinates":[[[-132.07754,60.33891],[-132.08243,60.34222],[-132.07577,60.34466],[-132.07087,60.34134],[-132.07754,60.33891]]]}},{"type":"Feature","properties":{"c":"208.0","o":"OVERLAND RESOURCES (BC) LIMITED - 100%","e":"2027-12-04"},"geometry":{"type":"Polygon","coordinates":[[[-132.01447,60.27529],[-132.01935,60.27861],[-132.0127,60.28104],[-132.00782,60.27772],[-132.01447,60.27529]]]}},{"type":"Feature","properties":{"c":"162.0","o":"OVERLAND RESOURCES (BC) LIMITED - 100%","e":"2028-07-30"},"geometry":{"type":"Polygon","coordinates":[[[-132.03931,60.27132],[-132.04419,60.27463],[-132.03754,60.27706],[-132.03266,60.27375],[-132.03931,60.27132]]]}},{"type":"Feature","properties":{"c":"68.0","o":"OVERLAND RESOURCES (BC) LIMITED - 100%","e":"2028-07-30"},"geometry":{"type":"Polygon","coordinates":[[[-132.04465,60.33052],[-132.04954,60.33384],[-132.04287,60.33627],[-132.03798,60.33295],[-132.04465,60.33052]]]}},{"type":"Feature","properties":{"c":"22.0","o":"OVERLAND RESOURCES (BC) LIMITED - 100%","e":"2028-03-20"},"geometry":{"type":"Polygon","coordinates":[[[-132.00201,60.3155],[-132.00689,60.31881],[-132.00022,60.32124],[-131.99534,60.31793],[-132.00201,60.3155]]]}},{"type":"Feature","properties":{"c":"11.0","o":"Silver North Resources Ltd. - 100%","e":"2025-04-29"},"geometry":{"type":"Polygon","coordinates":[[[-132.10683,60.0774],[-132.11503,60.0774],[-132.11503,60.08151],[-132.10683,60.08151],[-132.10683,60.0774]]]}},{"type":"Feature","properties":{"c":"5.0","o":"Silver North Resources Ltd. - 100%","e":"2025-04-29"},"geometry":{"type":"Polygon","coordinates":[[[-132.09863,60.08151],[-132.09863,60.0774],[-132.10683,60.0774],[-132.10683,60.08151],[-132.09863,60.08151]]]}},{"type":"Feature","properties":{"c":"30.0","o":"Silver North Resources Ltd. - 100%","e":"2026-04-29"},"geometry":{"type":"Polygon","coordinates":[[[-132.09862,60.06507],[-132.09042,60.06507],[-132.09042,60.06096],[-132.09861,60.06096],[-132.09862,60.06507]]]}},{"type":"Feature","properties":{"c":"21.0","o":"OVERLAND RESOURCES (BC) LIMITED - 100%","e":"2028-03-20"},"geometry":{"type":"Polygon","coordinates":[[[-132.00867,60.31307],[-132.01355,60.31638],[-132.00689,60.31881],[-132.00201,60.3155],[-132.00867,60.31307]]]}},{"type":"Feature","properties":{"c":"140.0","o":"Silver North Resources Ltd. - 100%","e":"2025-04-29"},"geometry":{"type":"Polygon","coordinates":[[[-132.156,60.06915],[-132.15601,60.07326],[-132.14781,60.07327],[-132.1478,60.06916],[-132.156,60.06915]]]}},{"type":"Feature","properties":{"c":"102.0","o":"OVERLAND RESOURCES (BC) LIMITED - 100%","e":"2028-07-30"},"geometry":{"type":"Polygon","coordinates":[[[-132.06556,60.35857],[-132.07045,60.36189],[-132.06378,60.36432],[-132.05889,60.36101],[-132.06556,60.35857]]]}},{"type":"Feature","properties":{"c":"72.0","o":"Silver North Resources Ltd. - 100%","e":"2023-04-29"},"geometry":{"type":"Polygon","coordinates":[[[-132.1232,60.06095],[-132.1232,60.06506],[-132.11501,60.06507],[-132.115,60.06095],[-132.1232,60.06095]]]}},{"type":"Feature","properties":{"c":"178.0","o":"OVERLAND RESOURCES (BC) LIMITED - 100%","e":"2028-07-30"},"geometry":{"type":"Polygon","coordinates":[[[-132.04286,60.25983],[-132.04774,60.26315],[-132.04109,60.26558],[-132.03621,60.26226],[-132.04286,60.25983]]]}},{"type":"Feature","properties":{"c":"93.0","o":"OVERLAND RESOURCES (BC) LIMITED - 100%","e":"2028-07-30"},"geometry":{"type":"Polygon","coordinates":[[[-132.05265,60.34289],[-132.05754,60.34621],[-132.05088,60.34864],[-132.04598,60.34532],[-132.05265,60.34289]]]}},{"type":"Feature","properties":{"c":"30.0","o":"OVERLAND RESOURCES (BC) LIMITED - 100%","e":"2028-03-20"},"geometry":{"type":"Polygon","coordinates":[[[-132.00332,60.3303],[-132.00821,60.33361],[-132.00154,60.33604],[-131.99666,60.33273],[-132.00332,60.3303]]]}},{"type":"Feature","properties":{"c":"75.0","o":"OVERLAND RESOURCES (BC) LIMITED - 100%","e":"2028-07-30"},"geometry":{"type":"Polygon","coordinates":[[[-132.07087,60.34134],[-132.07577,60.34466],[-132.0691,60.34709],[-132.06421,60.34378],[-132.07087,60.34134]]]}},{"type":"Feature","properties":{"c":"166.0","o":"Silver North Resources Ltd. - 100%","e":"2025-04-29"},"geometry":{"type":"Polygon","coordinates":[[[-132.10685,60.09384],[-132.10685,60.09795],[-132.09865,60.09795],[-132.09864,60.09384],[-132.10685,60.09384]]]}},{"type":"Feature","properties":{"c":"179.0","o":"OVERLAND RESOURCES (BC) LIMITED - 100%","e":"2028-07-30"},"geometry":{"type":"Polygon","coordinates":[[[-132.04463,60.25409],[-132.04951,60.2574],[-132.04286,60.25983],[-132.03798,60.25652],[-132.04463,60.25409]]]}},{"type":"Feature","properties":{"c":"15.0","o":"Silver North Resources Ltd. - 100%","e":"2026-04-29"},"geometry":{"type":"Polygon","coordinates":[[[-132.10683,60.0774],[-132.09863,60.0774],[-132.09862,60.07329],[-132.10682,60.07329],[-132.10683,60.0774]]]}},{"type":"Feature","properties":{"c":"121.0","o":"OVERLAND RESOURCES (BC) LIMITED - 100%","e":"2028-07-30"},"geometry":{"type":"Polygon","coordinates":[[[-132.03221,60.2943],[-132.03709,60.29761],[-132.03044,60.30004],[-132.02555,60.29673],[-132.03221,60.2943]]]}},{"type":"Feature","properties":{"c":"83.0","o":"OVERLAND RESOURCES (BC) LIMITED - 100%","e":"2028-07-30"},"geometry":{"type":"Polygon","coordinates":[[[-132.02821,60.32633],[-132.03309,60.32964],[-132.02643,60.33207],[-132.02154,60.32876],[-132.02821,60.32633]]]}},{"type":"Feature","properties":{"c":"23.0","o":"Silver North Resources Ltd. - 100%","e":"2026-04-29"},"geometry":{"type":"Polygon","coordinates":[[[-132.07403,60.07329],[-132.07403,60.0774],[-132.06583,60.0774],[-132.06583,60.07329],[-132.07403,60.07329]]]}},{"type":"Feature","properties":{"c":"98.0","o":"OVERLAND RESOURCES (BC) LIMITED - 100%","e":"2028-07-30"},"geometry":{"type":"Polygon","coordinates":[[[-132.05577,60.35195],[-132.06066,60.35526],[-132.05399,60.35769],[-132.0491,60.35438],[-132.05577,60.35195]]]}},{"type":"Feature","properties":{"c":"55.0","o":"OVERLAND RESOURCES (BC) LIMITED - 100%","e":"2028-07-30"},"geometry":{"type":"Polygon","coordinates":[[[-132.0842,60.33648],[-132.0891,60.33979],[-132.08243,60.34222],[-132.07754,60.33891],[-132.0842,60.33648]]]}},{"type":"Feature","properties":{"c":"82.0","o":"Silver North Resources Ltd. - 100%","e":"2023-04-29"},"geometry":{"type":"Polygon","coordinates":[[[-132.12323,60.0815],[-132.12324,60.08561],[-132.11504,60.08562],[-132.11503,60.08151],[-132.12323,60.0815]]]}},{"type":"Feature","properties":{"c":"87.0","o":"OVERLAND RESOURCES (BC) LIMITED - 100%","e":"2028-07-30"},"geometry":{"type":"Polygon","coordinates":[[[-132.03798,60.33295],[-132.04287,60.33627],[-132.0362,60.3387],[-132.03132,60.33538],[-132.03798,60.33295]]]}},{"type":"Feature","properties":{"c":"45.0","o":"Silver North Resources Ltd. - 100%","e":"2029-04-29"},"geometry":{"type":"Polygon","coordinates":[[[-132.09864,60.09384],[-132.09864,60.08973],[-132.10684,60.08973],[-132.10685,60.09384],[-132.09864,60.09384]]]}},{"type":"Feature","properties":{"c":"94.0","o":"Silver North Resources Ltd. - 100%","e":"2023-04-29"},"geometry":{"type":"Polygon","coordinates":[[[-132.1396,60.06505],[-132.13961,60.06916],[-132.13141,60.06917],[-132.1314,60.06506],[-132.1396,60.06505]]]}},{"type":"Feature","properties":{"c":"16.0","o":"Silver North Resources Ltd. - 100%","e":"2026-04-29"},"geometry":{"type":"Polygon","coordinates":[[[-132.10682,60.07329],[-132.09862,60.07329],[-132.09862,60.06918],[-132.10682,60.06918],[-132.10682,60.07329]]]}},{"type":"Feature","properties":{"c":"164.0","o":"Silver North Resources Ltd. - 100%","e":"2025-04-29"},"geometry":{"type":"Polygon","coordinates":[[[-132.11505,60.09384],[-132.11506,60.09795],[-132.10685,60.09795],[-132.10685,60.09384],[-132.11505,60.09384]]]}},{"type":"Feature","properties":{"c":"81.0","o":"Silver North Resources Ltd. - 100%","e":"2026-04-29"},"geometry":{"type":"Polygon","coordinates":[[[-132.13143,60.0815],[-132.13144,60.08561],[-132.12324,60.08561],[-132.12323,60.0815],[-132.13143,60.0815]]]}},{"type":"Feature","properties":{"c":"78.0","o":"OVERLAND RESOURCES (BC) LIMITED - 100%","e":"2028-07-30"},"geometry":{"type":"Polygon","coordinates":[[[-132.0691,60.34709],[-132.074,60.3504],[-132.06733,60.35283],[-132.06244,60.34952],[-132.0691,60.34709]]]}},{"type":"Feature","properties":{"c":"145.0","o":"OVERLAND RESOURCES (BC) LIMITED - 100%","e":"2028-07-30"},"geometry":{"type":"Polygon","coordinates":[[[-132.08056,60.27153],[-132.08544,60.27485],[-132.07879,60.27728],[-132.07391,60.27397],[-132.08056,60.27153]]]}},{"type":"Feature","properties":{"c":"156.0","o":"OVERLAND RESOURCES (BC) LIMITED - 100%","e":"2028-07-30"},"geometry":{"type":"Polygon","coordinates":[[[-132.06903,60.27065],[-132.07391,60.27397],[-132.06726,60.2764],[-132.06238,60.27309],[-132.06903,60.27065]]]}},{"type":"Feature","properties":{"c":"142.0","o":"Silver North Resources Ltd. - 100%","e":"2025-04-29"},"geometry":{"type":"Polygon","coordinates":[[[-132.15601,60.07326],[-132.15602,60.07738],[-132.14782,60.07738],[-132.14781,60.07327],[-132.15601,60.07326]]]}},{"type":"Feature","properties":{"c":"210.0","o":"OVERLAND RESOURCES (BC) LIMITED - 100%","e":"2027-12-04"},"geometry":{"type":"Polygon","coordinates":[[[-132.0096,60.27198],[-132.01447,60.27529],[-132.00782,60.27772],[-132.00294,60.27441],[-132.0096,60.27198]]]}},{"type":"Feature","properties":{"c":"114.0","o":"OVERLAND RESOURCES (BC) LIMITED - 100%","e":"2028-07-30"},"geometry":{"type":"Polygon","coordinates":[[[-132.02555,60.29673],[-132.03044,60.30004],[-132.02378,60.30247],[-132.0189,60.29915],[-132.02555,60.29673]]]}},{"type":"Feature","properties":{"c":"74.0","o":"OVERLAND RESOURCES (BC) LIMITED - 100%","e":"2028-07-30"},"geometry":{"type":"Polygon","coordinates":[[[-132.05932,60.34046],[-132.06421,60.34378],[-132.05754,60.34621],[-132.05265,60.34289],[-132.05932,60.34046]]]}},{"type":"Feature","properties":{"c":"127.0","o":"OVERLAND RESOURCES (BC) LIMITED - 100%","e":"2028-07-30"},"geometry":{"type":"Polygon","coordinates":[[[-132.01757,60.28435],[-132.02245,60.28767],[-132.01579,60.2901],[-132.01092,60.28678],[-132.01757,60.28435]]]}},{"type":"Feature","properties":{"c":"83.0","o":"Silver North Resources Ltd. - 100%","e":"2026-04-29"},"geometry":{"type":"Polygon","coordinates":[[[-132.13144,60.08561],[-132.13145,60.08972],[-132.12325,60.08972],[-132.12324,60.08561],[-132.13144,60.08561]]]}},{"type":"Feature","properties":{"c":"85.0","o":"Silver North Resources Ltd. - 100%","e":"2026-04-29"},"geometry":{"type":"Polygon","coordinates":[[[-132.13145,60.08972],[-132.13146,60.09383],[-132.12325,60.09383],[-132.12325,60.08972],[-132.13145,60.08972]]]}},{"type":"Feature","properties":{"c":"101.0","o":"Silver North Resources Ltd. - 100%","e":"2026-04-29"},"geometry":{"type":"Polygon","coordinates":[[[-132.14783,60.08149],[-132.14784,60.0856],[-132.13964,60.08561],[-132.13963,60.0815],[-132.14783,60.08149]]]}},{"type":"Feature","properties":{"c":"70.0","o":"OVERLAND RESOURCES (BC) LIMITED - 100%","e":"2028-07-30"},"geometry":{"type":"Polygon","coordinates":[[[-132.04954,60.33384],[-132.05443,60.33715],[-132.04776,60.33958],[-132.04287,60.33627],[-132.04954,60.33384]]]}},{"type":"Feature","properties":{"c":"33.0","o":"Silver North Resources Ltd. - 100%","e":"2026-04-29"},"geometry":{"type":"Polygon","coordinates":[[[-132.08223,60.06918],[-132.07403,60.06918],[-132.07403,60.06507],[-132.08222,60.06507],[-132.08223,60.06918]]]}},{"type":"Feature","properties":{"c":"190.0","o":"OVERLAND RESOURCES (BC) LIMITED - 100%","e":"2028-12-04"},"geometry":{"type":"Polygon","coordinates":[[[-132.02291,60.26712],[-132.02778,60.27044],[-132.02113,60.27287],[-132.01625,60.26955],[-132.02291,60.26712]]]}},{"type":"Feature","properties":{"c":"135.0","o":"OVERLAND RESOURCES (BC) LIMITED - 100%","e":"2028-07-30"},"geometry":{"type":"Polygon","coordinates":[[[-132.03088,60.27949],[-132.03576,60.28281],[-132.02911,60.28524],[-132.02423,60.28192],[-132.03088,60.27949]]]}},{"type":"Feature","properties":{"c":"17.0","o":"Silver North Resources Ltd. - 100%","e":"2026-04-29"},"geometry":{"type":"Polygon","coordinates":[[[-132.09863,60.0774],[-132.09043,60.0774],[-132.09043,60.07329],[-132.09862,60.07329],[-132.09863,60.0774]]]}},{"type":"Feature","properties":{"c":"174.0","o":"OVERLAND RESOURCES (BC) LIMITED - 100%","e":"2028-07-30"},"geometry":{"type":"Polygon","coordinates":[[[-132.02956,60.26469],[-132.03444,60.26801],[-132.02778,60.27044],[-132.02291,60.26712],[-132.02956,60.26469]]]}},{"type":"Feature","properties":{"c":"60.0","o":"OVERLAND RESOURCES (BC) LIMITED - 100%","e":"2028-07-30"},"geometry":{"type":"Polygon","coordinates":[[[-132.08733,60.34554],[-132.09222,60.34885],[-132.08556,60.35128],[-132.08066,60.34797],[-132.08733,60.34554]]]}},{"type":"Feature","properties":{"c":"69.0","o":"Silver North Resources Ltd. - 100%","e":"2023-04-29"},"geometry":{"type":"Polygon","coordinates":[[[-132.13138,60.05684],[-132.13139,60.06095],[-132.1232,60.06095],[-132.12319,60.05684],[-132.13138,60.05684]]]}},{"type":"Feature","properties":{"c":"92.0","o":"Silver North Resources Ltd. - 100%","e":"2023-04-29"},"geometry":{"type":"Polygon","coordinates":[[[-132.13959,60.06094],[-132.1396,60.06505],[-132.1314,60.06506],[-132.13139,60.06095],[-132.13959,60.06094]]]}},{"type":"Feature","properties":{"c":"128.0","o":"OVERLAND RESOURCES (BC) LIMITED - 100%","e":"2028-07-30"},"geometry":{"type":"Polygon","coordinates":[[[-132.02423,60.28192],[-132.02911,60.28524],[-132.02245,60.28767],[-132.01757,60.28435],[-132.02423,60.28192]]]}},{"type":"Feature","properties":{"c":"9.0","o":"Silver North Resources Ltd. - 100%","e":"2025-04-29"},"geometry":{"type":"Polygon","coordinates":[[[-132.06583,60.08151],[-132.07403,60.08151],[-132.07403,60.08563],[-132.06583,60.08563],[-132.06583,60.08151]]]}},{"type":"Feature","properties":{"c":"155.0","o":"OVERLAND RESOURCES (BC) LIMITED - 100%","e":"2028-07-30"},"geometry":{"type":"Polygon","coordinates":[[[-132.06415,60.26734],[-132.06903,60.27065],[-132.06238,60.27309],[-132.0575,60.26977],[-132.06415,60.26734]]]}},{"type":"Feature","properties":{"c":"197.0","o":"OVERLAND RESOURCES (BC) LIMITED - 100%","e":"2027-12-04"},"geometry":{"type":"Polygon","coordinates":[[[-131.99676,60.25629],[-132.00163,60.25961],[-131.99498,60.26203],[-131.9901,60.25872],[-131.99676,60.25629]]]}},{"type":"Feature","properties":{"c":"157.0","o":"OVERLAND RESOURCES (BC) LIMITED - 100%","e":"2028-07-30"},"geometry":{"type":"Polygon","coordinates":[[[-132.0708,60.26491],[-132.07568,60.26822],[-132.06903,60.27065],[-132.06415,60.26734],[-132.0708,60.26491]]]}},{"type":"Feature","properties":{"c":"82.0","o":"OVERLAND RESOURCES (BC) LIMITED - 100%","e":"2028-07-30"},"geometry":{"type":"Polygon","coordinates":[[[-132.07889,60.35371],[-132.08379,60.35702],[-132.07712,60.35946],[-132.07222,60.35614],[-132.07889,60.35371]]]}},{"type":"Feature","properties":{"c":"132.0","o":"Silver North Resources Ltd. - 100%","e":"2025-04-29"},"geometry":{"type":"Polygon","coordinates":[[[-132.15596,60.05271],[-132.15597,60.05682],[-132.14777,60.05683],[-132.14776,60.05272],[-132.15596,60.05271]]]}},{"type":"Feature","properties":{"c":"103.0","o":"Silver North Resources Ltd. - 100%","e":"2026-04-29"},"geometry":{"type":"Polygon","coordinates":[[[-132.14784,60.0856],[-132.14785,60.08971],[-132.13965,60.08972],[-132.13964,60.08561],[-132.14784,60.0856]]]}},{"type":"Feature","properties":{"c":"168.0","o":"Silver North Resources Ltd. - 100%","e":"2025-04-29"},"geometry":{"type":"Polygon","coordinates":[[[-132.09864,60.09384],[-132.09865,60.09795],[-132.09044,60.09795],[-132.09044,60.09384],[-132.09864,60.09384]]]}},{"type":"Feature","properties":{"c":"148.0","o":"OVERLAND RESOURCES (BC) LIMITED - 100%","e":"2028-07-30"},"geometry":{"type":"Polygon","coordinates":[[[-132.09209,60.27241],[-132.09698,60.27573],[-132.09033,60.27816],[-132.08544,60.27485],[-132.09209,60.27241]]]}},{"type":"Feature","properties":{"c":"62.0","o":"OVERLAND RESOURCES (BC) LIMITED - 100%","e":"2028-07-30"},"geometry":{"type":"Polygon","coordinates":[[[-132.09222,60.34885],[-132.09712,60.35216],[-132.09045,60.35459],[-132.08556,60.35128],[-132.09222,60.34885]]]}},{"type":"Feature","properties":{"c":"78.0","o":"Silver North Resources Ltd. - 100%","e":"2023-04-29"},"geometry":{"type":"Polygon","coordinates":[[[-132.12323,60.07739],[-132.11503,60.0774],[-132.11502,60.07329],[-132.12322,60.07328],[-132.12323,60.07739]]]}},{"type":"Feature","properties":{"c":"159.0","o":"OVERLAND RESOURCES (BC) LIMITED - 100%","e":"2028-07-30"},"geometry":{"type":"Polygon","coordinates":[[[-132.07744,60.26248],[-132.08233,60.26579],[-132.07568,60.26822],[-132.0708,60.26491],[-132.07744,60.26248]]]}},{"type":"Feature","properties":{"c":"29.0","o":"Silver North Resources Ltd. - 100%","e":"2026-04-29"},"geometry":{"type":"Polygon","coordinates":[[[-132.09862,60.06918],[-132.09042,60.06918],[-132.09042,60.06507],[-132.09862,60.06507],[-132.09862,60.06918]]]}},{"type":"Feature","properties":{"c":"117.0","o":"OVERLAND RESOURCES (BC) LIMITED - 100%","e":"2028-07-30"},"geometry":{"type":"Polygon","coordinates":[[[-132.00914,60.29253],[-132.01401,60.29584],[-132.00735,60.29827],[-132.00248,60.29495],[-132.00914,60.29253]]]}},{"type":"Feature","properties":{"c":"138.0","o":"Silver North Resources Ltd. - 100%","e":"2025-04-29"},"geometry":{"type":"Polygon","coordinates":[[[-132.15599,60.06504],[-132.156,60.06915],[-132.1478,60.06916],[-132.14779,60.06505],[-132.15599,60.06504]]]}},{"type":"Feature","properties":{"c":"20.0","o":"OVERLAND RESOURCES (BC) LIMITED - 100%","e":"2028-03-20"},"geometry":{"type":"Polygon","coordinates":[[[-132.00689,60.31881],[-132.01177,60.32213],[-132.00511,60.32456],[-132.00022,60.32124],[-132.00689,60.31881]]]}},{"type":"Feature","properties":{"c":"248.0","o":"Silver North Resources Ltd. - 100%","e":"2025-04-29"},"geometry":{"type":"Polygon","coordinates":[[[-132.16484,60.04451],[-132.16492,60.04862],[-132.15686,60.04866],[-132.15678,60.04455],[-132.16484,60.04451]]]}},{"type":"Feature","properties":{"c":"93.0","o":"Silver North Resources Ltd. - 100%","e":"2026-04-29"},"geometry":{"type":"Polygon","coordinates":[[[-132.14779,60.06505],[-132.1478,60.06916],[-132.13961,60.06916],[-132.1396,60.06505],[-132.14779,60.06505]]]}},{"type":"Feature","properties":{"c":"37.0","o":"Silver North Resources Ltd. - 100%","e":"2026-04-29"},"geometry":{"type":"Polygon","coordinates":[[[-132.10681,60.06096],[-132.09861,60.06096],[-132.09861,60.05685],[-132.1068,60.05685],[-132.10681,60.06096]]]}},{"type":"Feature","properties":{"c":"160.0","o":"Silver North Resources Ltd. - 100%","e":"2025-04-29"},"geometry":{"type":"Polygon","coordinates":[[[-132.13146,60.09794],[-132.12326,60.09794],[-132.12325,60.09383],[-132.13146,60.09383],[-132.13146,60.09794]]]}},{"type":"Feature","properties":{"c":"99.0","o":"Silver North Resources Ltd. - 100%","e":"2026-04-29"},"geometry":{"type":"Polygon","coordinates":[[[-132.14782,60.07738],[-132.14783,60.08149],[-132.13963,60.0815],[-132.13962,60.07739],[-132.14782,60.07738]]]}},{"type":"Feature","properties":{"c":"42.0","o":"Silver North Resources Ltd. - 100%","e":"2026-04-29"},"geometry":{"type":"Polygon","coordinates":[[[-132.08222,60.05685],[-132.08222,60.05274],[-132.09041,60.05274],[-132.09041,60.05685],[-132.08222,60.05685]]]}},{"type":"Feature","properties":{"c":"85.0","o":"OVERLAND RESOURCES (BC) LIMITED - 100%","e":"2028-07-30"},"geometry":{"type":"Polygon","coordinates":[[[-132.03309,60.32964],[-132.03798,60.33295],[-132.03132,60.33538],[-132.02643,60.33207],[-132.03309,60.32964]]]}},{"type":"Feature","properties":{"c":"32.0","o":"Silver North Resources Ltd. - 100%","e":"2026-04-29"},"geometry":{"type":"Polygon","coordinates":[[[-132.08222,60.06096],[-132.09042,60.06096],[-132.09042,60.06507],[-132.08222,60.06507],[-132.08222,60.06096]]]}},{"type":"Feature","properties":{"c":"7.0","o":"Silver North Resources Ltd. - 100%","e":"2025-04-29"},"geometry":{"type":"Polygon","coordinates":[[[-132.08223,60.08151],[-132.08223,60.08562],[-132.07403,60.08563],[-132.07403,60.08151],[-132.08223,60.08151]]]}},{"type":"Feature","properties":{"c":"139.0","o":"OVERLAND RESOURCES (BC) LIMITED - 100%","e":"2028-07-30"},"geometry":{"type":"Polygon","coordinates":[[[-132.06061,60.27883],[-132.06549,60.28214],[-132.05884,60.28457],[-132.05395,60.28126],[-132.06061,60.27883]]]}},{"type":"Feature","properties":{"c":"226.0","o":"Silver North Resources Ltd. - 100%","e":"2025-04-29"},"geometry":{"type":"Polygon","coordinates":[[[-132.18094,60.05045],[-132.1796,60.05269],[-132.17104,60.0527],[-132.1731,60.04927],[-132.18094,60.05045]]]}},{"type":"Feature","properties":{"c":"86.0","o":"Silver North Resources Ltd. - 100%","e":"2026-04-29"},"geometry":{"type":"Polygon","coordinates":[[[-132.11505,60.09384],[-132.11504,60.08973],[-132.12325,60.08972],[-132.12325,60.09383],[-132.11505,60.09384]]]}},{"type":"Feature","properties":{"c":"158.0","o":"Silver North Resources Ltd. - 100%","e":"2025-04-29"},"geometry":{"type":"Polygon","coordinates":[[[-132.13967,60.09794],[-132.13146,60.09794],[-132.13146,60.09383],[-132.13966,60.09383],[-132.13967,60.09794]]]}},{"type":"Feature","properties":{"c":"144.0","o":"OVERLAND RESOURCES (BC) LIMITED - 100%","e":"2028-07-30"},"geometry":{"type":"Polygon","coordinates":[[[-132.07879,60.27728],[-132.08368,60.28059],[-132.07703,60.28302],[-132.07214,60.27971],[-132.07879,60.27728]]]}},{"type":"Feature","properties":{"c":"5.0","o":"OVERLAND RESOURCES (BC) LIMITED - 100%","e":"2028-03-20"},"geometry":{"type":"Polygon","coordinates":[[[-132.02688,60.31153],[-132.03176,60.31484],[-132.0251,60.31727],[-132.02022,60.31396],[-132.02688,60.31153]]]}},{"type":"Feature","properties":{"c":"71.0","o":"OVERLAND RESOURCES (BC) LIMITED - 100%","e":"2028-07-30"},"geometry":{"type":"Polygon","coordinates":[[[-132.06109,60.33472],[-132.06598,60.33803],[-132.05932,60.34046],[-132.05443,60.33715],[-132.06109,60.33472]]]}},{"type":"Feature","properties":{"c":"106.0","o":"OVERLAND RESOURCES (BC) LIMITED - 100%","e":"2028-07-30"},"geometry":{"type":"Polygon","coordinates":[[[-132.03843,60.31241],[-132.04331,60.31572],[-132.03665,60.31815],[-132.03176,60.31484],[-132.03843,60.31241]]]}},{"type":"Feature","properties":{"c":"207.0","o":"OVERLAND RESOURCES (BC) LIMITED - 100%","e":"2027-12-04"},"geometry":{"type":"Polygon","coordinates":[[[-132.00782,60.27772],[-132.0127,60.28104],[-132.00604,60.28347],[-132.00116,60.28015],[-132.00782,60.27772]]]}},{"type":"Feature","properties":{"c":"98.0","o":"Silver North Resources Ltd. - 100%","e":"2026-04-29"},"geometry":{"type":"Polygon","coordinates":[[[-132.13961,60.07327],[-132.13962,60.07739],[-132.13142,60.07739],[-132.13142,60.07328],[-132.13961,60.07327]]]}},{"type":"Feature","properties":{"c":"191.0","o":"OVERLAND RESOURCES (BC) LIMITED - 100%","e":"2028-12-04"},"geometry":{"type":"Polygon","coordinates":[[[-132.01138,60.26624],[-132.01625,60.26955],[-132.0096,60.27198],[-132.00472,60.26867],[-132.01138,60.26624]]]}},{"type":"Feature","properties":{"c":"206.0","o":"OVERLAND RESOURCES (BC) LIMITED - 100%","e":"2027-12-04"},"geometry":{"type":"Polygon","coordinates":[[[-132.01935,60.27861],[-132.02423,60.28192],[-132.01757,60.28435],[-132.0127,60.28104],[-132.01935,60.27861]]]}},{"type":"Feature","properties":{"c":"196.0","o":"OVERLAND RESOURCES (BC) LIMITED - 100%","e":"2027-12-04"},"geometry":{"type":"Polygon","coordinates":[[[-132.00828,60.25718],[-132.01315,60.26049],[-132.0065,60.26292],[-132.00163,60.25961],[-132.00828,60.25718]]]}},{"type":"Feature","properties":{"c":"137.0","o":"OVERLAND RESOURCES (BC) LIMITED - 100%","e":"2028-07-30"},"geometry":{"type":"Polygon","coordinates":[[[-132.05395,60.28126],[-132.05884,60.28457],[-132.05218,60.287],[-132.0473,60.28369],[-132.05395,60.28126]]]}},{"type":"Feature","properties":{"c":"40.0","o":"Silver North Resources Ltd. - 100%","e":"2026-04-29"},"geometry":{"type":"Polygon","coordinates":[[[-132.09041,60.05685],[-132.09041,60.05274],[-132.0986,60.05274],[-132.09861,60.05685],[-132.09041,60.05685]]]}},{"type":"Feature","properties":{"c":"170.0","o":"OVERLAND RESOURCES (BC) LIMITED - 100%","e":"2028-07-30"},"geometry":{"type":"Polygon","coordinates":[[[-132.06591,60.2616],[-132.0708,60.26491],[-132.06415,60.26734],[-132.05927,60.26403],[-132.06591,60.2616]]]}},{"type":"Feature","properties":{"c":"31.0","o":"OVERLAND RESOURCES (BC) LIMITED - 100%","e":"2028-03-20"},"geometry":{"type":"Polygon","coordinates":[[[-132.00511,60.32456],[-132.00999,60.32787],[-132.00332,60.3303],[-131.99844,60.32698],[-132.00511,60.32456]]]}},{"type":"Feature","properties":{"c":"47.0","o":"OVERLAND RESOURCES (BC) LIMITED - 100%","e":"2028-07-30"},"geometry":{"type":"Polygon","coordinates":[[[-132.06464,60.32323],[-132.06953,60.32654],[-132.06286,60.32898],[-132.05797,60.32566],[-132.06464,60.32323]]]}},{"type":"Feature","properties":{"c":"31.0","o":"Silver North Resources Ltd. - 100%","e":"2026-04-29"},"geometry":{"type":"Polygon","coordinates":[[[-132.09042,60.06918],[-132.08223,60.06918],[-132.08222,60.06507],[-132.09042,60.06507],[-132.09042,60.06918]]]}},{"type":"Feature","properties":{"c":"10.0","o":"Silver North Resources Ltd. - 100%","e":"2025-04-29"},"geometry":{"type":"Polygon","coordinates":[[[-132.06583,60.0774],[-132.07403,60.0774],[-132.07403,60.08151],[-132.06583,60.08151],[-132.06583,60.0774]]]}},{"type":"Feature","properties":{"c":"4.0","o":"Silver North Resources Ltd. - 100%","e":"2028-04-29"},"geometry":{"type":"Polygon","coordinates":[[[-132.09043,60.08151],[-132.09043,60.0774],[-132.09863,60.0774],[-132.09863,60.08151],[-132.09043,60.08151]]]}},{"type":"Feature","properties":{"c":"172.0","o":"OVERLAND RESOURCES (BC) LIMITED - 100%","e":"2028-07-30"},"geometry":{"type":"Polygon","coordinates":[[[-132.07256,60.25917],[-132.07744,60.26248],[-132.0708,60.26491],[-132.06591,60.2616],[-132.07256,60.25917]]]}},{"type":"Feature","properties":{"c":"176.0","o":"OVERLAND RESOURCES (BC) LIMITED - 100%","e":"2028-07-30"},"geometry":{"type":"Polygon","coordinates":[[[-132.03621,60.26226],[-132.04109,60.26558],[-132.03444,60.26801],[-132.02956,60.26469],[-132.03621,60.26226]]]}},{"type":"Feature","properties":{"c":"211.0","o":"OVERLAND RESOURCES (BC) LIMITED - 100%","e":"2027-12-04"},"geometry":{"type":"Polygon","coordinates":[[[-131.99807,60.27109],[-132.00294,60.27441],[-131.99629,60.27684],[-131.99141,60.27352],[-131.99807,60.27109]]]}},{"type":"Feature","properties":{"c":"105.0","o":"OVERLAND RESOURCES (BC) LIMITED - 100%","e":"2028-07-30"},"geometry":{"type":"Polygon","coordinates":[[[-132.04509,60.30998],[-132.04997,60.31329],[-132.04331,60.31572],[-132.03843,60.31241],[-132.04509,60.30998]]]}},{"type":"Feature","properties":{"c":"39.0","o":"Silver North Resources Ltd. - 100%","e":"2026-04-29"},"geometry":{"type":"Polygon","coordinates":[[[-132.09861,60.06096],[-132.09042,60.06096],[-132.09041,60.05685],[-132.09861,60.05685],[-132.09861,60.06096]]]}},{"type":"Feature","properties":{"c":"194.0","o":"OVERLAND RESOURCES (BC) LIMITED - 100%","e":"2028-12-04"},"geometry":{"type":"Polygon","coordinates":[[[-132.01315,60.26049],[-132.01803,60.26381],[-132.01138,60.26624],[-132.0065,60.26292],[-132.01315,60.26049]]]}},{"type":"Feature","properties":{"c":"1.0","o":"OVERLAND RESOURCES (BC) LIMITED - 100%","e":"2028-03-20"},"geometry":{"type":"Polygon","coordinates":[[[-132.03665,60.31815],[-132.04154,60.32147],[-132.03487,60.3239],[-132.02999,60.32058],[-132.03665,60.31815]]]}},{"type":"Feature","properties":{"c":"102.0","o":"Silver North Resources Ltd. - 100%","e":"2026-04-29"},"geometry":{"type":"Polygon","coordinates":[[[-132.13963,60.0815],[-132.13964,60.08561],[-132.13144,60.08561],[-132.13143,60.0815],[-132.13963,60.0815]]]}},{"type":"Feature","properties":{"c":"73.0","o":"OVERLAND RESOURCES (BC) LIMITED - 100%","e":"2028-07-30"},"geometry":{"type":"Polygon","coordinates":[[[-132.06598,60.33803],[-132.07087,60.34134],[-132.06421,60.34378],[-132.05932,60.34046],[-132.06598,60.33803]]]}},{"type":"Feature","properties":{"c":"91.0","o":"OVERLAND RESOURCES (BC) LIMITED - 100%","e":"2028-07-30"},"geometry":{"type":"Polygon","coordinates":[[[-132.04776,60.33958],[-132.05265,60.34289],[-132.04598,60.34532],[-132.04109,60.34201],[-132.04776,60.33958]]]}},{"type":"Feature","properties":{"c":"150.0","o":"OVERLAND RESOURCES (BC) LIMITED - 100%","e":"2028-07-30"},"geometry":{"type":"Polygon","coordinates":[[[-132.04907,60.27795],[-132.05395,60.28126],[-132.0473,60.28369],[-132.04242,60.28038],[-132.04907,60.27795]]]}},{"type":"Feature","properties":{"c":"205.0","o":"OVERLAND RESOURCES (BC) LIMITED - 100%","e":"2027-12-04"},"geometry":{"type":"Polygon","coordinates":[[[-132.0127,60.28104],[-132.01757,60.28435],[-132.01092,60.28678],[-132.00604,60.28347],[-132.0127,60.28104]]]}},{"type":"Feature","properties":{"c":"71.0","o":"Silver North Resources Ltd. - 100%","e":"2023-04-29"},"geometry":{"type":"Polygon","coordinates":[[[-132.13139,60.06095],[-132.1314,60.06506],[-132.1232,60.06506],[-132.1232,60.06095],[-132.13139,60.06095]]]}},{"type":"Feature","properties":{"c":"58.0","o":"OVERLAND RESOURCES (BC) LIMITED - 100%","e":"2028-07-30"},"geometry":{"type":"Polygon","coordinates":[[[-132.08243,60.34222],[-132.08733,60.34554],[-132.08066,60.34797],[-132.07577,60.34466],[-132.08243,60.34222]]]}},{"type":"Feature","properties":{"c":"123.0","o":"OVERLAND RESOURCES (BC) LIMITED - 100%","e":"2028-07-30"},"geometry":{"type":"Polygon","coordinates":[[[-132.02733,60.29098],[-132.03221,60.2943],[-132.02555,60.29673],[-132.02067,60.29341],[-132.02733,60.29098]]]}},{"type":"Feature","properties":{"c":"33.0","o":"OVERLAND RESOURCES (BC) LIMITED - 100%","e":"2028-03-20"},"geometry":{"type":"Polygon","coordinates":[[[-132.00022,60.32124],[-132.00511,60.32456],[-131.99844,60.32698],[-131.99356,60.32367],[-132.00022,60.32124]]]}},{"type":"Feature","properties":{"c":"27.0","o":"Silver North Resources Ltd. - 100%","e":"2026-04-29"},"geometry":{"type":"Polygon","coordinates":[[[-132.10682,60.06918],[-132.09862,60.06918],[-132.09862,60.06507],[-132.10681,60.06507],[-132.10682,60.06918]]]}},{"type":"Feature","properties":{"c":"89.0","o":"OVERLAND RESOURCES (BC) LIMITED - 100%","e":"2028-07-30"},"geometry":{"type":"Polygon","coordinates":[[[-132.04287,60.33627],[-132.04776,60.33958],[-132.04109,60.34201],[-132.0362,60.3387],[-132.04287,60.33627]]]}},{"type":"Feature","properties":{"c":"14.0","o":"OVERLAND RESOURCES (BC) LIMITED - 100%","e":"2028-03-20"},"geometry":{"type":"Polygon","coordinates":[[[-132.00069,60.3007],[-132.00557,60.30401],[-131.99891,60.30644],[-131.99403,60.30312],[-132.00069,60.3007]]]}},{"type":"Feature","properties":{"c":"43.0","o":"Silver North Resources Ltd. - 100%","e":"2029-04-29"},"geometry":{"type":"Polygon","coordinates":[[[-132.11504,60.08973],[-132.11505,60.09384],[-132.10685,60.09384],[-132.10684,60.08973],[-132.11504,60.08973]]]}},{"type":"Feature","properties":{"c":"6.0","o":"OVERLAND RESOURCES (BC) LIMITED - 100%","e":"2028-03-20"},"geometry":{"type":"Polygon","coordinates":[[[-132.02022,60.31396],[-132.0251,60.31727],[-132.01844,60.3197],[-132.01355,60.31638],[-132.02022,60.31396]]]}},{"type":"Feature","properties":{"c":"95.0","o":"Silver North Resources Ltd. - 100%","e":"2026-04-29"},"geometry":{"type":"Polygon","coordinates":[[[-132.1478,60.06916],[-132.14781,60.07327],[-132.13961,60.07327],[-132.13961,60.06916],[-132.1478,60.06916]]]}},{"type":"Feature","properties":{"c":"28.0","o":"Silver North Resources Ltd. - 100%","e":"2026-04-29"},"geometry":{"type":"Polygon","coordinates":[[[-132.10681,60.06507],[-132.09862,60.06507],[-132.09861,60.06096],[-132.10681,60.06096],[-132.10681,60.06507]]]}},{"type":"Feature","properties":{"c":"171.0","o":"OVERLAND RESOURCES (BC) LIMITED - 100%","e":"2028-07-30"},"geometry":{"type":"Polygon","coordinates":[[[-132.06768,60.25585],[-132.07256,60.25917],[-132.06591,60.2616],[-132.06104,60.25828],[-132.06768,60.25585]]]}},{"type":"Feature","properties":{"c":"29.0","o":"OVERLAND RESOURCES (BC) LIMITED - 100%","e":"2028-03-20"},"geometry":{"type":"Polygon","coordinates":[[[-132.00999,60.32787],[-132.01488,60.33118],[-132.00821,60.33361],[-132.00332,60.3303],[-132.00999,60.32787]]]}},{"type":"Feature","properties":{"c":"64.0","o":"OVERLAND RESOURCES (BC) LIMITED - 100%","e":"2028-07-30"},"geometry":{"type":"Polygon","coordinates":[[[-132.03487,60.3239],[-132.03976,60.32721],[-132.03309,60.32964],[-132.02821,60.32633],[-132.03487,60.3239]]]}},{"type":"Feature","properties":{"c":"173.0","o":"OVERLAND RESOURCES (BC) LIMITED - 100%","e":"2028-07-30"},"geometry":{"type":"Polygon","coordinates":[[[-132.02468,60.26138],[-132.02956,60.26469],[-132.02291,60.26712],[-132.01803,60.26381],[-132.02468,60.26138]]]}},{"type":"Feature","properties":{"c":"53.0","o":"OVERLAND RESOURCES (BC) LIMITED - 100%","e":"2028-07-30"},"geometry":{"type":"Polygon","coordinates":[[[-132.07931,60.33317],[-132.0842,60.33648],[-132.07754,60.33891],[-132.07265,60.3356],[-132.07931,60.33317]]]}},{"type":"Feature","properties":{"c":"153.0","o":"OVERLAND RESOURCES (BC) LIMITED - 100%","e":"2028-07-30"},"geometry":{"type":"Polygon","coordinates":[[[-132.0575,60.26977],[-132.06238,60.27309],[-132.05573,60.27552],[-132.05084,60.2722],[-132.0575,60.26977]]]}},{"type":"Feature","properties":{"c":"96.0","o":"OVERLAND RESOURCES (BC) LIMITED - 100%","e":"2028-07-30"},"geometry":{"type":"Polygon","coordinates":[[[-132.05088,60.34864],[-132.05577,60.35195],[-132.0491,60.35438],[-132.04421,60.35107],[-132.05088,60.34864]]]}},{"type":"Feature","properties":{"c":"17.0","o":"OVERLAND RESOURCES (BC) LIMITED - 100%","e":"2028-03-20"},"geometry":{"type":"Polygon","coordinates":[[[-132.01844,60.3197],[-132.02332,60.32301],[-132.01666,60.32544],[-132.01177,60.32213],[-132.01844,60.3197]]]}},{"type":"Feature","properties":{"c":"225.0","o":"Silver North Resources Ltd. - 100%","e":"2025-04-29"},"geometry":{"type":"Polygon","coordinates":[[[-132.16525,60.04808],[-132.1731,60.04927],[-132.17104,60.0527],[-132.16743,60.0527],[-132.16289,60.05202],[-132.16525,60.04808]]]}},{"type":"Feature","properties":{"c":"126.0","o":"OVERLAND RESOURCES (BC) LIMITED - 100%","e":"2028-07-30"},"geometry":{"type":"Polygon","coordinates":[[[-132.02911,60.28524],[-132.03399,60.28855],[-132.02733,60.29098],[-132.02245,60.28767],[-132.02911,60.28524]]]}},{"type":"Feature","properties":{"c":"76.0","o":"OVERLAND RESOURCES (BC) LIMITED - 100%","e":"2028-07-30"},"geometry":{"type":"Polygon","coordinates":[[[-132.06421,60.34378],[-132.0691,60.34709],[-132.06244,60.34952],[-132.05754,60.34621],[-132.06421,60.34378]]]}},{"type":"Feature","properties":{"c":"140.0","o":"OVERLAND RESOURCES (BC) LIMITED - 100%","e":"2028-07-30"},"geometry":{"type":"Polygon","coordinates":[[[-132.06549,60.28214],[-132.07037,60.28546],[-132.06372,60.28789],[-132.05884,60.28457],[-132.06549,60.28214]]]}},{"type":"Feature","properties":{"c":"193.0","o":"OVERLAND RESOURCES (BC) LIMITED - 100%","e":"2028-12-04"},"geometry":{"type":"Polygon","coordinates":[[[-132.0065,60.26292],[-132.01138,60.26624],[-132.00472,60.26867],[-131.99985,60.26535],[-132.0065,60.26292]]]}},{"type":"Feature","properties":{"c":"11.0","o":"OVERLAND RESOURCES (BC) LIMITED - 100%","e":"2028-03-20"},"geometry":{"type":"Polygon","coordinates":[[[-132.01223,60.30158],[-132.01712,60.3049],[-132.01045,60.30733],[-132.00557,60.30401],[-132.01223,60.30158]]]}},{"type":"Feature","properties":{"c":"212.0","o":"OVERLAND RESOURCES (BC) LIMITED - 100%","e":"2027-12-04"},"geometry":{"type":"Polygon","coordinates":[[[-132.00472,60.26867],[-132.0096,60.27198],[-132.00294,60.27441],[-131.99807,60.27109],[-132.00472,60.26867]]]}},{"type":"Feature","properties":{"c":"97.0","o":"Silver North Resources Ltd. - 100%","e":"2026-04-29"},"geometry":{"type":"Polygon","coordinates":[[[-132.14781,60.07327],[-132.14782,60.07738],[-132.13962,60.07739],[-132.13961,60.07327],[-132.14781,60.07327]]]}},{"type":"Feature","properties":{"c":"92.0","o":"OVERLAND RESOURCES (BC) LIMITED - 100%","e":"2028-07-30"},"geometry":{"type":"Polygon","coordinates":[[[-132.04109,60.34201],[-132.04598,60.34532],[-132.03932,60.34775],[-132.03443,60.34444],[-132.04109,60.34201]]]}},{"type":"Feature","properties":{"c":"68.0","o":"Silver North Resources Ltd. - 100%","e":"2023-04-29"},"geometry":{"type":"Polygon","coordinates":[[[-132.12318,60.05273],[-132.12319,60.05684],[-132.115,60.05684],[-132.11499,60.05273],[-132.12318,60.05273]]]}},{"type":"Feature","properties":{"c":"63.0","o":"OVERLAND RESOURCES (BC) LIMITED - 100%","e":"2028-07-30"},"geometry":{"type":"Polygon","coordinates":[[[-132.04154,60.32147],[-132.04642,60.32478],[-132.03976,60.32721],[-132.03487,60.3239],[-132.04154,60.32147]]]}},{"type":"Feature","properties":{"c":"77.0","o":"Silver North Resources Ltd. - 100%","e":"2023-04-29"},"geometry":{"type":"Polygon","coordinates":[[[-132.13142,60.07328],[-132.13142,60.07739],[-132.12323,60.07739],[-132.12322,60.07328],[-132.13142,60.07328]]]}},{"type":"Feature","properties":{"c":"152.0","o":"OVERLAND RESOURCES (BC) LIMITED - 100%","e":"2028-07-30"},"geometry":{"type":"Polygon","coordinates":[[[-132.05573,60.27552],[-132.06061,60.27883],[-132.05395,60.28126],[-132.04907,60.27795],[-132.05573,60.27552]]]}},{"type":"Feature","properties":{"c":"163.0","o":"OVERLAND RESOURCES (BC) LIMITED - 100%","e":"2028-07-30"},"geometry":{"type":"Polygon","coordinates":[[[-132.04109,60.26558],[-132.04597,60.26889],[-132.03931,60.27132],[-132.03444,60.26801],[-132.04109,60.26558]]]}},{"type":"Feature","properties":{"c":"182.0","o":"OVERLAND RESOURCES (BC) LIMITED - 100%","e":"2028-07-30"},"geometry":{"type":"Polygon","coordinates":[[[-132.05616,60.25497],[-132.06104,60.25828],[-132.05439,60.26072],[-132.04951,60.2574],[-132.05616,60.25497]]]}},{"type":"Feature","properties":{"c":"50.0","o":"Silver North Resources Ltd. - 100%","e":"2026-04-29"},"geometry":{"type":"Polygon","coordinates":[[[-132.09044,60.08973],[-132.08223,60.08973],[-132.08223,60.08562],[-132.09043,60.08562],[-132.09044,60.08973]]]}},{"type":"Feature","properties":{"c":"26.0","o":"Silver North Resources Ltd. - 100%","e":"2026-04-29"},"geometry":{"type":"Polygon","coordinates":[[[-132.115,60.06095],[-132.11501,60.06507],[-132.10681,60.06507],[-132.10681,60.06096],[-132.115,60.06095]]]}},{"type":"Feature","properties":{"c":"25.0","o":"OVERLAND RESOURCES (BC) LIMITED - 100%","e":"2028-03-20"},"geometry":{"type":"Polygon","coordinates":[[[-131.99891,60.30644],[-132.00379,60.30975],[-131.99713,60.31218],[-131.99225,60.30887],[-131.99891,60.30644]]]}},{"type":"Feature","properties":{"c":"88.0","o":"OVERLAND RESOURCES (BC) LIMITED - 100%","e":"2028-07-30"},"geometry":{"type":"Polygon","coordinates":[[[-132.03132,60.33538],[-132.0362,60.3387],[-132.02954,60.34113],[-132.02465,60.33781],[-132.03132,60.33538]]]}},{"type":"Feature","properties":{"c":"116.0","o":"OVERLAND RESOURCES (BC) LIMITED - 100%","e":"2028-07-30"},"geometry":{"type":"Polygon","coordinates":[[[-132.02067,60.29341],[-132.02555,60.29673],[-132.0189,60.29915],[-132.01401,60.29584],[-132.02067,60.29341]]]}},{"type":"Feature","properties":{"c":"80.0","o":"OVERLAND RESOURCES (BC) LIMITED - 100%","e":"2028-07-30"},"geometry":{"type":"Polygon","coordinates":[[[-132.074,60.3504],[-132.07889,60.35371],[-132.07222,60.35614],[-132.06733,60.35283],[-132.074,60.3504]]]}},{"type":"Feature","properties":{"c":"226.0","o":"OVERLAND RESOURCES (BC) LIMITED - 100%","e":"2027-12-04"},"geometry":{"type":"Polygon","coordinates":[[[-132.00604,60.28347],[-132.01092,60.28678],[-132.00426,60.28921],[-131.99938,60.2859],[-132.00604,60.28347]]]}},{"type":"Feature","properties":{"c":"97.0","o":"OVERLAND RESOURCES (BC) LIMITED - 100%","e":"2028-07-30"},"geometry":{"type":"Polygon","coordinates":[[[-132.06244,60.34952],[-132.06733,60.35283],[-132.06066,60.35526],[-132.05577,60.35195],[-132.06244,60.34952]]]}},{"type":"Feature","properties":{"c":"94.0","o":"OVERLAND RESOURCES (BC) LIMITED - 100%","e":"2028-07-30"},"geometry":{"type":"Polygon","coordinates":[[[-132.04598,60.34532],[-132.05088,60.34864],[-132.04421,60.35107],[-132.03932,60.34775],[-132.04598,60.34532]]]}},{"type":"Feature","properties":{"c":"81.0","o":"OVERLAND RESOURCES (BC) LIMITED - 100%","e":"2028-07-30"},"geometry":{"type":"Polygon","coordinates":[[[-132.08556,60.35128],[-132.09045,60.35459],[-132.08379,60.35702],[-132.07889,60.35371],[-132.08556,60.35128]]]}},{"type":"Feature","properties":{"c":"72.0","o":"OVERLAND RESOURCES (BC) LIMITED - 100%","e":"2028-07-30"},"geometry":{"type":"Polygon","coordinates":[[[-132.05443,60.33715],[-132.05932,60.34046],[-132.05265,60.34289],[-132.04776,60.33958],[-132.05443,60.33715]]]}},{"type":"Feature","properties":{"c":"13.0","o":"Silver North Resources Ltd. - 100%","e":"2026-04-29"},"geometry":{"type":"Polygon","coordinates":[[[-132.11503,60.0774],[-132.10683,60.0774],[-132.10682,60.07329],[-132.11502,60.07329],[-132.11503,60.0774]]]}},{"type":"Feature","properties":{"c":"74.0","o":"Silver North Resources Ltd. - 100%","e":"2023-04-29"},"geometry":{"type":"Polygon","coordinates":[[[-132.12321,60.06917],[-132.11501,60.06918],[-132.11501,60.06507],[-132.1232,60.06506],[-132.12321,60.06917]]]}},{"type":"Feature","properties":{"c":"48.0","o":"OVERLAND RESOURCES (BC) LIMITED - 100%","e":"2028-07-30"},"geometry":{"type":"Polygon","coordinates":[[[-132.05797,60.32566],[-132.06286,60.32898],[-132.0562,60.33141],[-132.05131,60.32809],[-132.05797,60.32566]]]}},{"type":"Feature","properties":{"c":"22.0","o":"Silver North Resources Ltd. - 100%","e":"2026-04-29"},"geometry":{"type":"Polygon","coordinates":[[[-132.07403,60.06918],[-132.08223,60.06918],[-132.08223,60.07329],[-132.07403,60.07329],[-132.07403,60.06918]]]}},{"type":"Feature","properties":{"c":"75.0","o":"Silver North Resources Ltd. - 100%","e":"2023-04-29"},"geometry":{"type":"Polygon","coordinates":[[[-132.13141,60.06917],[-132.13142,60.07328],[-132.12322,60.07328],[-132.12321,60.06917],[-132.13141,60.06917]]]}},{"type":"Feature","properties":{"c":"38.0","o":"Silver North Resources Ltd. - 100%","e":"2026-04-29"},"geometry":{"type":"Polygon","coordinates":[[[-132.09861,60.05685],[-132.0986,60.05274],[-132.1068,60.05274],[-132.1068,60.05685],[-132.09861,60.05685]]]}},{"type":"Feature","properties":{"c":"181.0","o":"OVERLAND RESOURCES (BC) LIMITED - 100%","e":"2028-07-30"},"geometry":{"type":"Polygon","coordinates":[[[-132.05128,60.25166],[-132.05616,60.25497],[-132.04951,60.2574],[-132.04463,60.25409],[-132.05128,60.25166]]]}},{"type":"Feature","properties":{"c":"101.0","o":"OVERLAND RESOURCES (BC) LIMITED - 100%","e":"2028-07-30"},"geometry":{"type":"Polygon","coordinates":[[[-132.07222,60.35614],[-132.07712,60.35946],[-132.07045,60.36189],[-132.06556,60.35857],[-132.07222,60.35614]]]}},{"type":"Feature","properties":{"c":"187.0","o":"OVERLAND RESOURCES (BC) LIMITED - 100%","e":"2028-12-04"},"geometry":{"type":"Polygon","coordinates":[[[-132.02113,60.27287],[-132.02601,60.27618],[-132.01935,60.27861],[-132.01447,60.27529],[-132.02113,60.27287]]]}},{"type":"Feature","properties":{"c":"161.0","o":"OVERLAND RESOURCES (BC) LIMITED - 100%","e":"2028-07-30"},"geometry":{"type":"Polygon","coordinates":[[[-132.03444,60.26801],[-132.03931,60.27132],[-132.03266,60.27375],[-132.02778,60.27044],[-132.03444,60.26801]]]}},{"type":"Feature","properties":{"c":"225.0","o":"OVERLAND RESOURCES (BC) LIMITED - 100%","e":"2027-12-04"},"geometry":{"type":"Polygon","coordinates":[[[-131.99938,60.2859],[-132.00426,60.28921],[-131.9976,60.29164],[-131.99272,60.28832],[-131.99938,60.2859]]]}},{"type":"Feature","properties":{"c":"76.0","o":"Silver North Resources Ltd. - 100%","e":"2023-04-29"},"geometry":{"type":"Polygon","coordinates":[[[-132.12321,60.06917],[-132.12322,60.07328],[-132.11502,60.07329],[-132.11501,60.06918],[-132.12321,60.06917]]]}},{"type":"Feature","properties":{"c":"100.0","o":"OVERLAND RESOURCES (BC) LIMITED - 100%","e":"2028-07-30"},"geometry":{"type":"Polygon","coordinates":[[[-132.06066,60.35526],[-132.06556,60.35857],[-132.05889,60.36101],[-132.05399,60.35769],[-132.06066,60.35526]]]}},{"type":"Feature","properties":{"c":"104.0","o":"OVERLAND RESOURCES (BC) LIMITED - 100%","e":"2028-07-30"},"geometry":{"type":"Polygon","coordinates":[[[-132.03354,60.3091],[-132.03843,60.31241],[-132.03176,60.31484],[-132.02688,60.31153],[-132.03354,60.3091]]]}},{"type":"Feature","properties":{"c":"134.0","o":"Silver North Resources Ltd. - 100%","e":"2025-04-29"},"geometry":{"type":"Polygon","coordinates":[[[-132.15597,60.05682],[-132.15598,60.06093],[-132.14778,60.06094],[-132.14777,60.05683],[-132.15597,60.05682]]]}},{"type":"Feature","properties":{"c":"122.0","o":"OVERLAND RESOURCES (BC) LIMITED - 100%","e":"2028-07-30"},"geometry":{"type":"Polygon","coordinates":[[[-132.03887,60.29187],[-132.04375,60.29518],[-132.03709,60.29761],[-132.03221,60.2943],[-132.03887,60.29187]]]}},{"type":"Feature","properties":{"c":"120.0","o":"OVERLAND RESOURCES (BC) LIMITED - 100%","e":"2028-07-30"},"geometry":{"type":"Polygon","coordinates":[[[-132.01092,60.28678],[-132.01579,60.2901],[-132.00914,60.29253],[-132.00426,60.28921],[-132.01092,60.28678]]]}},{"type":"Feature","properties":{"c":"41.0","o":"Silver North Resources Ltd. - 100%","e":"2026-04-29"},"geometry":{"type":"Polygon","coordinates":[[[-132.09042,60.06096],[-132.08222,60.06096],[-132.08222,60.05685],[-132.09041,60.05685],[-132.09042,60.06096]]]}},{"type":"Feature","properties":{"c":"65.0","o":"OVERLAND RESOURCES (BC) LIMITED - 100%","e":"2028-07-30"},"geometry":{"type":"Polygon","coordinates":[[[-132.04642,60.32478],[-132.05131,60.32809],[-132.04465,60.33052],[-132.03976,60.32721],[-132.04642,60.32478]]]}},{"type":"Feature","properties":{"c":"186.0","o":"OVERLAND RESOURCES (BC) LIMITED - 100%","e":"2028-12-04"},"geometry":{"type":"Polygon","coordinates":[[[-132.03266,60.27375],[-132.03754,60.27706],[-132.03088,60.27949],[-132.02601,60.27618],[-132.03266,60.27375]]]}},{"type":"Feature","properties":{"c":"103.0","o":"OVERLAND RESOURCES (BC) LIMITED - 100%","e":"2028-07-30"},"geometry":{"type":"Polygon","coordinates":[[[-132.0402,60.30667],[-132.04509,60.30998],[-132.03843,60.31241],[-132.03354,60.3091],[-132.0402,60.30667]]]}},{"type":"Feature","properties":{"c":"141.0","o":"OVERLAND RESOURCES (BC) LIMITED - 100%","e":"2028-07-30"},"geometry":{"type":"Polygon","coordinates":[[[-132.06726,60.2764],[-132.07214,60.27971],[-132.06549,60.28214],[-132.06061,60.27883],[-132.06726,60.2764]]]}},{"type":"Feature","properties":{"c":"18.0","o":"OVERLAND RESOURCES (BC) LIMITED - 100%","e":"2028-03-20"},"geometry":{"type":"Polygon","coordinates":[[[-132.01177,60.32213],[-132.01666,60.32544],[-132.00999,60.32787],[-132.00511,60.32456],[-132.01177,60.32213]]]}},{"type":"Feature","properties":{"c":"125.0","o":"OVERLAND RESOURCES (BC) LIMITED - 100%","e":"2028-07-30"},"geometry":{"type":"Polygon","coordinates":[[[-132.02245,60.28767],[-132.02733,60.29098],[-132.02067,60.29341],[-132.01579,60.2901],[-132.02245,60.28767]]]}},{"type":"Feature","properties":{"c":"90.0","o":"Silver North Resources Ltd. - 100%","e":"2023-04-29"},"geometry":{"type":"Polygon","coordinates":[[[-132.13958,60.05683],[-132.13959,60.06094],[-132.13139,60.06095],[-132.13138,60.05684],[-132.13958,60.05683]]]}},{"type":"Feature","properties":{"c":"46.0","o":"Silver North Resources Ltd. - 100%","e":"2026-04-29"},"geometry":{"type":"Polygon","coordinates":[[[-132.10684,60.08973],[-132.09864,60.08973],[-132.09863,60.08562],[-132.10684,60.08562],[-132.10684,60.08973]]]}},{"type":"Feature","properties":{"c":"88.0","o":"Silver North Resources Ltd. - 100%","e":"2023-04-29"},"geometry":{"type":"Polygon","coordinates":[[[-132.13957,60.05272],[-132.13958,60.05683],[-132.13138,60.05684],[-132.13138,60.05273],[-132.13957,60.05272]]]}},{"type":"Feature","properties":{"c":"230.0","o":"OVERLAND RESOURCES (BC) LIMITED - 100%","e":"2027-12-04"},"geometry":{"type":"Polygon","coordinates":[[[-131.99629,60.27684],[-132.00116,60.28015],[-131.9945,60.28258],[-131.98963,60.27926],[-131.99629,60.27684]]]}},{"type":"Feature","properties":{"c":"228.0","o":"OVERLAND RESOURCES (BC) LIMITED - 100%","e":"2027-12-04"},"geometry":{"type":"Polygon","coordinates":[[[-132.00116,60.28015],[-132.00604,60.28347],[-131.99938,60.2859],[-131.9945,60.28258],[-132.00116,60.28015]]]}},{"type":"Feature","properties":{"c":"45.0","o":"OVERLAND RESOURCES (BC) LIMITED - 100%","e":"2028-07-30"},"geometry":{"type":"Polygon","coordinates":[[[-132.05975,60.31992],[-132.06464,60.32323],[-132.05797,60.32566],[-132.05309,60.32235],[-132.05975,60.31992]]]}},{"type":"Feature","properties":{"c":"9.0","o":"OVERLAND RESOURCES (BC) LIMITED - 100%","e":"2028-03-20"},"geometry":{"type":"Polygon","coordinates":[[[-132.01712,60.3049],[-132.022,60.30821],[-132.01534,60.31064],[-132.01045,60.30733],[-132.01712,60.3049]]]}},{"type":"Feature","properties":{"c":"198.0","o":"OVERLAND RESOURCES (BC) LIMITED - 100%","e":"2027-12-04"},"geometry":{"type":"Polygon","coordinates":[[[-132.00341,60.25386],[-132.00828,60.25718],[-132.00163,60.25961],[-131.99676,60.25629],[-132.00341,60.25386]]]}},{"type":"Feature","properties":{"c":"112.0","o":"OVERLAND RESOURCES (BC) LIMITED - 100%","e":"2028-07-30"},"geometry":{"type":"Polygon","coordinates":[[[-132.03044,60.30004],[-132.03532,60.30335],[-132.02866,60.30578],[-132.02378,60.30247],[-132.03044,60.30004]]]}},{"type":"Feature","properties":{"c":"24.0","o":"Silver North Resources Ltd. - 100%","e":"2026-04-29"},"geometry":{"type":"Polygon","coordinates":[[[-132.06583,60.06918],[-132.07403,60.06918],[-132.07403,60.07329],[-132.06583,60.07329],[-132.06583,60.06918]]]}},{"type":"Feature","properties":{"c":"99.0","o":"OVERLAND RESOURCES (BC) LIMITED - 100%","e":"2028-07-30"},"geometry":{"type":"Polygon","coordinates":[[[-132.06733,60.35283],[-132.07222,60.35614],[-132.06556,60.35857],[-132.06066,60.35526],[-132.06733,60.35283]]]}},{"type":"Feature","properties":{"c":"52.0","o":"OVERLAND RESOURCES (BC) LIMITED - 100%","e":"2028-07-30"},"geometry":{"type":"Polygon","coordinates":[[[-132.06775,60.33229],[-132.07265,60.3356],[-132.06598,60.33803],[-132.06109,60.33472],[-132.06775,60.33229]]]}},{"type":"Feature","properties":{"c":"14.0","o":"Silver North Resources Ltd. - 100%","e":"2026-04-29"},"geometry":{"type":"Polygon","coordinates":[[[-132.11501,60.06918],[-132.11502,60.07329],[-132.10682,60.07329],[-132.10682,60.06918],[-132.11501,60.06918]]]}},{"type":"Feature","properties":{"c":"95.0","o":"OVERLAND RESOURCES (BC) LIMITED - 100%","e":"2028-07-30"},"geometry":{"type":"Polygon","coordinates":[[[-132.05754,60.34621],[-132.06244,60.34952],[-132.05577,60.35195],[-132.05088,60.34864],[-132.05754,60.34621]]]}},{"type":"Feature","properties":{"c":"49.0","o":"OVERLAND RESOURCES (BC) LIMITED - 100%","e":"2028-07-30"},"geometry":{"type":"Polygon","coordinates":[[[-132.06953,60.32654],[-132.07442,60.32986],[-132.06775,60.33229],[-132.06286,60.32898],[-132.06953,60.32654]]]}},{"type":"Feature","properties":{"c":"69.0","o":"OVERLAND RESOURCES (BC) LIMITED - 100%","e":"2028-07-30"},"geometry":{"type":"Polygon","coordinates":[[[-132.0562,60.33141],[-132.06109,60.33472],[-132.05443,60.33715],[-132.04954,60.33384],[-132.0562,60.33141]]]}},{"type":"Feature","properties":{"c":"8.0","o":"OVERLAND RESOURCES (BC) LIMITED - 100%","e":"2028-03-20"},"geometry":{"type":"Polygon","coordinates":[[[-132.01534,60.31064],[-132.02022,60.31396],[-132.01355,60.31638],[-132.00867,60.31307],[-132.01534,60.31064]]]}},{"type":"Feature","properties":{"c":"1.0","o":"Silver North Resources Ltd. - 100%","e":"2028-04-29"},"geometry":{"type":"Polygon","coordinates":[[[-132.09043,60.08151],[-132.09043,60.08562],[-132.08223,60.08562],[-132.08223,60.08151],[-132.09043,60.08151]]]}},{"type":"Feature","properties":{"c":"119.0","o":"OVERLAND RESOURCES (BC) LIMITED - 100%","e":"2028-07-30"},"geometry":{"type":"Polygon","coordinates":[[[-132.00426,60.28921],[-132.00914,60.29253],[-132.00248,60.29495],[-131.9976,60.29164],[-132.00426,60.28921]]]}},{"type":"Feature","properties":{"c":"46.0","o":"OVERLAND RESOURCES (BC) LIMITED - 100%","e":"2028-07-30"},"geometry":{"type":"Polygon","coordinates":[[[-132.05309,60.32235],[-132.05797,60.32566],[-132.05131,60.32809],[-132.04642,60.32478],[-132.05309,60.32235]]]}},{"type":"Feature","properties":{"c":"167.0","o":"OVERLAND RESOURCES (BC) LIMITED - 100%","e":"2028-07-30"},"geometry":{"type":"Polygon","coordinates":[[[-132.05439,60.26072],[-132.05927,60.26403],[-132.05262,60.26646],[-132.04774,60.26315],[-132.05439,60.26072]]]}},{"type":"Feature","properties":{"c":"175.0","o":"OVERLAND RESOURCES (BC) LIMITED - 100%","e":"2028-07-30"},"geometry":{"type":"Polygon","coordinates":[[[-132.03133,60.25895],[-132.03621,60.26226],[-132.02956,60.26469],[-132.02468,60.26138],[-132.03133,60.25895]]]}},{"type":"Feature","properties":{"c":"154.0","o":"OVERLAND RESOURCES (BC) LIMITED - 100%","e":"2028-07-30"},"geometry":{"type":"Polygon","coordinates":[[[-132.06238,60.27309],[-132.06726,60.2764],[-132.06061,60.27883],[-132.05573,60.27552],[-132.06238,60.27309]]]}},{"type":"Feature","properties":{"c":"50.0","o":"OVERLAND RESOURCES (BC) LIMITED - 100%","e":"2028-07-30"},"geometry":{"type":"Polygon","coordinates":[[[-132.06286,60.32898],[-132.06775,60.33229],[-132.06109,60.33472],[-132.0562,60.33141],[-132.06286,60.32898]]]}},{"type":"Feature","properties":{"c":"51.0","o":"OVERLAND RESOURCES (BC) LIMITED - 100%","e":"2028-07-30"},"geometry":{"type":"Polygon","coordinates":[[[-132.07442,60.32986],[-132.07931,60.33317],[-132.07265,60.3356],[-132.06775,60.33229],[-132.07442,60.32986]]]}},{"type":"Feature","properties":{"c":"12.0","o":"OVERLAND RESOURCES (BC) LIMITED - 100%","e":"2028-03-20"},"geometry":{"type":"Polygon","coordinates":[[[-132.00557,60.30401],[-132.01045,60.30733],[-132.00379,60.30975],[-131.99891,60.30644],[-132.00557,60.30401]]]}},{"type":"Feature","properties":{"c":"118.0","o":"OVERLAND RESOURCES (BC) LIMITED - 100%","e":"2028-07-30"},"geometry":{"type":"Polygon","coordinates":[[[-132.01579,60.2901],[-132.02067,60.29341],[-132.01401,60.29584],[-132.00914,60.29253],[-132.01579,60.2901]]]}},{"type":"Feature","properties":{"c":"129.0","o":"OVERLAND RESOURCES (BC) LIMITED - 100%","e":"2028-07-30"},"geometry":{"type":"Polygon","coordinates":[[[-132.04553,60.28944],[-132.05041,60.29275],[-132.04375,60.29518],[-132.03887,60.29187],[-132.04553,60.28944]]]}},{"type":"Feature","properties":{"c":"247.0","o":"Silver North Resources Ltd. - 100%","e":"2025-04-29"},"geometry":{"type":"Polygon","coordinates":[[[-132.15686,60.04866],[-132.16492,60.04862],[-132.16289,60.05202],[-132.16499,60.05234],[-132.16499,60.05271],[-132.15693,60.05271],[-132.15686,60.04866]]]}},{"type":"Feature","properties":{"c":"89.0","o":"Silver North Resources Ltd. - 100%","e":"2026-04-29"},"geometry":{"type":"Polygon","coordinates":[[[-132.14777,60.05683],[-132.14778,60.06094],[-132.13959,60.06094],[-132.13958,60.05683],[-132.14777,60.05683]]]}},{"type":"Feature","properties":{"c":"54.0","o":"OVERLAND RESOURCES (BC) LIMITED - 100%","e":"2028-07-30"},"geometry":{"type":"Polygon","coordinates":[[[-132.07265,60.3356],[-132.07754,60.33891],[-132.07087,60.34134],[-132.06598,60.33803],[-132.07265,60.3356]]]}},{"type":"Feature","properties":{"c":"200.0","o":"OVERLAND RESOURCES (BC) LIMITED - 100%","e":"2027-12-04"},"geometry":{"type":"Polygon","coordinates":[[[-131.99854,60.25055],[-132.00341,60.25386],[-131.99676,60.25629],[-131.99189,60.25298],[-131.99854,60.25055]]]}},{"type":"Feature","properties":{"c":"86.0","o":"OVERLAND RESOURCES (BC) LIMITED - 100%","e":"2028-07-30"},"geometry":{"type":"Polygon","coordinates":[[[-132.02643,60.33207],[-132.03132,60.33538],[-132.02465,60.33781],[-132.01976,60.3345],[-132.02643,60.33207]]]}},{"type":"Feature","properties":{"c":"18.0","o":"Silver North Resources Ltd. - 100%","e":"2026-04-29"},"geometry":{"type":"Polygon","coordinates":[[[-132.09862,60.07329],[-132.09043,60.07329],[-132.09042,60.06918],[-132.09862,60.06918],[-132.09862,60.07329]]]}},{"type":"Feature","properties":{"c":"36.0","o":"Silver North Resources Ltd. - 100%","e":"2026-04-29"},"geometry":{"type":"Polygon","coordinates":[[[-132.1068,60.05274],[-132.11499,60.05273],[-132.115,60.05684],[-132.1068,60.05685],[-132.1068,60.05274]]]}},{"type":"Feature","properties":{"c":"162.0","o":"Silver North Resources Ltd. - 100%","e":"2025-04-29"},"geometry":{"type":"Polygon","coordinates":[[[-132.11505,60.09384],[-132.12325,60.09383],[-132.12326,60.09794],[-132.11506,60.09795],[-132.11505,60.09384]]]}},{"type":"Feature","properties":{"c":"131.0","o":"OVERLAND RESOURCES (BC) LIMITED - 100%","e":"2028-07-30"},"geometry":{"type":"Polygon","coordinates":[[[-132.04064,60.28612],[-132.04553,60.28944],[-132.03887,60.29187],[-132.03399,60.28855],[-132.04064,60.28612]]]}},{"type":"Feature","properties":{"c":"8.0","o":"Silver North Resources Ltd. - 100%","e":"2025-04-29"},"geometry":{"type":"Polygon","coordinates":[[[-132.07403,60.08151],[-132.07403,60.0774],[-132.08223,60.0774],[-132.08223,60.08151],[-132.07403,60.08151]]]}},{"type":"Feature","properties":{"c":"34.0","o":"Silver North Resources Ltd. - 100%","e":"2026-04-29"},"geometry":{"type":"Polygon","coordinates":[[[-132.07403,60.06507],[-132.07403,60.06096],[-132.08222,60.06096],[-132.08222,60.06507],[-132.07403,60.06507]]]}},{"type":"Feature","properties":{"c":"51.0","o":"Silver North Resources Ltd. - 100%","e":"2026-04-29"},"geometry":{"type":"Polygon","coordinates":[[[-132.08224,60.09385],[-132.07403,60.09385],[-132.07403,60.08974],[-132.08223,60.08973],[-132.08224,60.09385]]]}},{"type":"Feature","properties":{"c":"169.0","o":"OVERLAND RESOURCES (BC) LIMITED - 100%","e":"2028-07-30"},"geometry":{"type":"Polygon","coordinates":[[[-132.06104,60.25828],[-132.06591,60.2616],[-132.05927,60.26403],[-132.05439,60.26072],[-132.06104,60.25828]]]}},{"type":"Feature","properties":{"c":"61.0","o":"OVERLAND RESOURCES (BC) LIMITED - 100%","e":"2028-07-30"},"geometry":{"type":"Polygon","coordinates":[[[-132.09889,60.34641],[-132.10378,60.34973],[-132.09712,60.35216],[-132.09222,60.34885],[-132.09889,60.34641]]]}},{"type":"Feature","properties":{"c":"148.0","o":"Silver North Resources Ltd. - 100%","e":"2025-04-29"},"geometry":{"type":"Polygon","coordinates":[[[-132.15604,60.0856],[-132.15606,60.08971],[-132.14785,60.08971],[-132.14784,60.0856],[-132.15604,60.0856]]]}},{"type":"Feature","properties":{"c":"185.0","o":"OVERLAND RESOURCES (BC) LIMITED - 100%","e":"2028-12-04"},"geometry":{"type":"Polygon","coordinates":[[[-132.02601,60.27618],[-132.03088,60.27949],[-132.02423,60.28192],[-132.01935,60.27861],[-132.02601,60.27618]]]}},{"type":"Feature","properties":{"c":"24.0","o":"OVERLAND RESOURCES (BC) LIMITED - 100%","e":"2028-03-20"},"geometry":{"type":"Polygon","coordinates":[[[-131.99713,60.31218],[-132.00201,60.3155],[-131.99534,60.31793],[-131.99046,60.31461],[-131.99713,60.31218]]]}},{"type":"Feature","properties":{"c":"32.0","o":"OVERLAND RESOURCES (BC) LIMITED - 100%","e":"2028-03-20"},"geometry":{"type":"Polygon","coordinates":[[[-131.99844,60.32698],[-132.00332,60.3303],[-131.99666,60.33273],[-131.99177,60.32941],[-131.99844,60.32698]]]}},{"type":"Feature","properties":{"c":"142.0","o":"OVERLAND RESOURCES (BC) LIMITED - 100%","e":"2028-07-30"},"geometry":{"type":"Polygon","coordinates":[[[-132.07214,60.27971],[-132.07703,60.28302],[-132.07037,60.28546],[-132.06549,60.28214],[-132.07214,60.27971]]]}},{"type":"Feature","properties":{"c":"158.0","o":"OVERLAND RESOURCES (BC) LIMITED - 100%","e":"2028-07-30"},"geometry":{"type":"Polygon","coordinates":[[[-132.07568,60.26822],[-132.08056,60.27153],[-132.07391,60.27397],[-132.06903,60.27065],[-132.07568,60.26822]]]}},{"type":"Feature","properties":{"c":"67.0","o":"Silver North Resources Ltd. - 100%","e":"2023-04-29"},"geometry":{"type":"Polygon","coordinates":[[[-132.13138,60.05273],[-132.13138,60.05684],[-132.12319,60.05684],[-132.12318,60.05273],[-132.13138,60.05273]]]}},{"type":"Feature","properties":{"c":"184.0","o":"OVERLAND RESOURCES (BC) LIMITED - 100%","e":"2028-07-30"},"geometry":{"type":"Polygon","coordinates":[[[-132.0628,60.25254],[-132.06768,60.25585],[-132.06104,60.25828],[-132.05616,60.25497],[-132.0628,60.25254]]]}},{"type":"Feature","properties":{"c":"16.0","o":"OVERLAND RESOURCES (BC) LIMITED - 100%","e":"2028-03-20"},"geometry":{"type":"Polygon","coordinates":[[[-132.01666,60.32544],[-132.02154,60.32876],[-132.01488,60.33118],[-132.00999,60.32787],[-132.01666,60.32544]]]}},{"type":"Feature","properties":{"c":"111.0","o":"OVERLAND RESOURCES (BC) LIMITED - 100%","e":"2028-07-30"},"geometry":{"type":"Polygon","coordinates":[[[-132.02378,60.30247],[-132.02866,60.30578],[-132.022,60.30821],[-132.01712,60.3049],[-132.02378,60.30247]]]}},{"type":"Feature","properties":{"c":"19.0","o":"OVERLAND RESOURCES (BC) LIMITED - 100%","e":"2028-03-20"},"geometry":{"type":"Polygon","coordinates":[[[-132.01355,60.31638],[-132.01844,60.3197],[-132.01177,60.32213],[-132.00689,60.31881],[-132.01355,60.31638]]]}},{"type":"Feature","properties":{"c":"138.0","o":"OVERLAND RESOURCES (BC) LIMITED - 100%","e":"2028-07-30"},"geometry":{"type":"Polygon","coordinates":[[[-132.05884,60.28457],[-132.06372,60.28789],[-132.05706,60.29032],[-132.05218,60.287],[-132.05884,60.28457]]]}},{"type":"Feature","properties":{"c":"19.0","o":"Silver North Resources Ltd. - 100%","e":"2026-04-29"},"geometry":{"type":"Polygon","coordinates":[[[-132.09043,60.0774],[-132.08223,60.0774],[-132.08223,60.07329],[-132.09043,60.07329],[-132.09043,60.0774]]]}},{"type":"Feature","properties":{"c":"2.0","o":"OVERLAND RESOURCES (BC) LIMITED - 100%","e":"2028-03-20"},"geometry":{"type":"Polygon","coordinates":[[[-132.02999,60.32058],[-132.03487,60.3239],[-132.02821,60.32633],[-132.02332,60.32301],[-132.02999,60.32058]]]}},{"type":"Feature","properties":{"c":"152.0","o":"Silver North Resources Ltd. - 100%","e":"2025-04-29"},"geometry":{"type":"Polygon","coordinates":[[[-132.15607,60.09382],[-132.15608,60.09793],[-132.14787,60.09793],[-132.14786,60.09382],[-132.15607,60.09382]]]}},{"type":"Feature","properties":{"c":"3.0","o":"OVERLAND RESOURCES (BC) LIMITED - 100%","e":"2028-03-20"},"geometry":{"type":"Polygon","coordinates":[[[-132.03176,60.31484],[-132.03665,60.31815],[-132.02999,60.32058],[-132.0251,60.31727],[-132.03176,60.31484]]]}},{"type":"Feature","properties":{"c":"108.0","o":"OVERLAND RESOURCES (BC) LIMITED - 100%","e":"2028-07-30"},"geometry":{"type":"Polygon","coordinates":[[[-132.04331,60.31572],[-132.0482,60.31904],[-132.04154,60.32147],[-132.03665,60.31815],[-132.04331,60.31572]]]}},{"type":"Feature","properties":{"c":"124.0","o":"OVERLAND RESOURCES (BC) LIMITED - 100%","e":"2029-07-30"},"geometry":{"type":"Polygon","coordinates":[[[-132.03399,60.28855],[-132.03887,60.29187],[-132.03221,60.2943],[-132.02733,60.29098],[-132.03399,60.28855]]]}},{"type":"Feature","properties":{"c":"96.0","o":"Silver North Resources Ltd. - 100%","e":"2026-04-29"},"geometry":{"type":"Polygon","coordinates":[[[-132.13961,60.06916],[-132.13961,60.07327],[-132.13142,60.07328],[-132.13141,60.06917],[-132.13961,60.06916]]]}},{"type":"Feature","properties":{"c":"80.0","o":"Silver North Resources Ltd. - 100%","e":"2023-04-29"},"geometry":{"type":"Polygon","coordinates":[[[-132.12323,60.07739],[-132.12323,60.0815],[-132.11503,60.08151],[-132.11503,60.0774],[-132.12323,60.07739]]]}},{"type":"Feature","properties":{"c":"44.0","o":"Silver North Resources Ltd. - 100%","e":"2029-04-29"},"geometry":{"type":"Polygon","coordinates":[[[-132.10684,60.08562],[-132.11504,60.08562],[-132.11504,60.08973],[-132.10684,60.08973],[-132.10684,60.08562]]]}},{"type":"Feature","properties":{"c":"48.0","o":"Silver North Resources Ltd. - 100%","e":"2026-04-29"},"geometry":{"type":"Polygon","coordinates":[[[-132.09864,60.08973],[-132.09044,60.08973],[-132.09043,60.08562],[-132.09863,60.08562],[-132.09864,60.08973]]]}},{"type":"Feature","properties":{"c":"168.0","o":"OVERLAND RESOURCES (BC) LIMITED - 100%","e":"2028-07-30"},"geometry":{"type":"Polygon","coordinates":[[[-132.05927,60.26403],[-132.06415,60.26734],[-132.0575,60.26977],[-132.05262,60.26646],[-132.05927,60.26403]]]}},{"type":"Feature","properties":{"c":"44.0","o":"OVERLAND RESOURCES (BC) LIMITED - 100%","e":"2028-07-30"},"geometry":{"type":"Polygon","coordinates":[[[-132.0482,60.31904],[-132.05309,60.32235],[-132.04642,60.32478],[-132.04154,60.32147],[-132.0482,60.31904]]]}},{"type":"Feature","properties":{"c":"107.0","o":"OVERLAND RESOURCES (BC) LIMITED - 100%","e":"2028-07-30"},"geometry":{"type":"Polygon","coordinates":[[[-132.04997,60.31329],[-132.05486,60.31661],[-132.0482,60.31904],[-132.04331,60.31572],[-132.04997,60.31329]]]}},{"type":"Feature","properties":{"c":"165.0","o":"OVERLAND RESOURCES (BC) LIMITED - 100%","e":"2028-07-30"},"geometry":{"type":"Polygon","coordinates":[[[-132.04774,60.26315],[-132.05262,60.26646],[-132.04597,60.26889],[-132.04109,60.26558],[-132.04774,60.26315]]]}},{"type":"Feature","properties":{"c":"133.0","o":"OVERLAND RESOURCES (BC) LIMITED - 100%","e":"2028-07-30"},"geometry":{"type":"Polygon","coordinates":[[[-132.03576,60.28281],[-132.04064,60.28612],[-132.03399,60.28855],[-132.02911,60.28524],[-132.03576,60.28281]]]}},{"type":"Feature","properties":{"c":"189.0","o":"OVERLAND RESOURCES (BC) LIMITED - 100%","e":"2028-12-04"},"geometry":{"type":"Polygon","coordinates":[[[-132.01625,60.26955],[-132.02113,60.27287],[-132.01447,60.27529],[-132.0096,60.27198],[-132.01625,60.26955]]]}},{"type":"Feature","properties":{"c":"154.0","o":"Silver North Resources Ltd. - 100%","e":"2024-04-29"},"geometry":{"type":"Polygon","coordinates":[[[-132.15608,60.09793],[-132.15609,60.10204],[-132.14788,60.10204],[-132.14787,60.09793],[-132.15608,60.09793]]]}},{"type":"Feature","properties":{"c":"105.0","o":"Silver North Resources Ltd. - 100%","e":"2026-04-29"},"geometry":{"type":"Polygon","coordinates":[[[-132.14785,60.08971],[-132.14786,60.09382],[-132.13966,60.09383],[-132.13965,60.08972],[-132.14785,60.08971]]]}},{"type":"Feature","properties":{"c":"136.0","o":"OVERLAND RESOURCES (BC) LIMITED - 100%","e":"2028-07-30"},"geometry":{"type":"Polygon","coordinates":[[[-132.03754,60.27706],[-132.04242,60.28038],[-132.03576,60.28281],[-132.03088,60.27949],[-132.03754,60.27706]]]}},{"type":"Feature","properties":{"c":"136.0","o":"Silver North Resources Ltd. - 100%","e":"2025-04-29"},"geometry":{"type":"Polygon","coordinates":[[[-132.15598,60.06093],[-132.15599,60.06504],[-132.14779,60.06505],[-132.14778,60.06094],[-132.15598,60.06093]]]}},{"type":"Feature","properties":{"c":"77.0","o":"OVERLAND RESOURCES (BC) LIMITED - 100%","e":"2028-07-30"},"geometry":{"type":"Polygon","coordinates":[[[-132.07577,60.34466],[-132.08066,60.34797],[-132.074,60.3504],[-132.0691,60.34709],[-132.07577,60.34466]]]}},{"type":"Feature","properties":{"c":"151.0","o":"OVERLAND RESOURCES (BC) LIMITED - 100%","e":"2028-07-30"},"geometry":{"type":"Polygon","coordinates":[[[-132.05084,60.2722],[-132.05573,60.27552],[-132.04907,60.27795],[-132.04419,60.27463],[-132.05084,60.2722]]]}},{"type":"Feature","properties":{"c":"183.0","o":"OVERLAND RESOURCES (BC) LIMITED - 100%","e":"2028-07-30"},"geometry":{"type":"Polygon","coordinates":[[[-132.05793,60.24923],[-132.0628,60.25254],[-132.05616,60.25497],[-132.05128,60.25166],[-132.05793,60.24923]]]}},{"type":"Feature","properties":{"c":"177.0","o":"OVERLAND RESOURCES (BC) LIMITED - 100%","e":"2028-07-30"},"geometry":{"type":"Polygon","coordinates":[[[-132.03798,60.25652],[-132.04286,60.25983],[-132.03621,60.26226],[-132.03133,60.25895],[-132.03798,60.25652]]]}},{"type":"Feature","properties":{"c":"13.0","o":"OVERLAND RESOURCES (BC) LIMITED - 100%","e":"2028-03-20"},"geometry":{"type":"Polygon","coordinates":[[[-132.00735,60.29827],[-132.01223,60.30158],[-132.00557,60.30401],[-132.00069,60.3007],[-132.00735,60.29827]]]}},{"type":"Feature","properties":{"c":"21.0","o":"Silver North Resources Ltd. - 100%","e":"2026-04-29"},"geometry":{"type":"Polygon","coordinates":[[[-132.08223,60.0774],[-132.07403,60.0774],[-132.07403,60.07329],[-132.08223,60.07329],[-132.08223,60.0774]]]}},{"type":"Feature","properties":{"c":"52.0","o":"Silver North Resources Ltd. - 100%","e":"2026-04-29"},"geometry":{"type":"Polygon","coordinates":[[[-132.08223,60.08973],[-132.07403,60.08974],[-132.07403,60.08563],[-132.08223,60.08562],[-132.08223,60.08973]]]}},{"type":"Feature","properties":{"c":"73.0","o":"Silver North Resources Ltd. - 100%","e":"2023-04-29"},"geometry":{"type":"Polygon","coordinates":[[[-132.1314,60.06506],[-132.13141,60.06917],[-132.12321,60.06917],[-132.1232,60.06506],[-132.1314,60.06506]]]}},{"type":"Feature","properties":{"c":"91.0","o":"Silver North Resources Ltd. - 100%","e":"2026-04-29"},"geometry":{"type":"Polygon","coordinates":[[[-132.14778,60.06094],[-132.14779,60.06505],[-132.1396,60.06505],[-132.13959,60.06094],[-132.14778,60.06094]]]}},{"type":"Feature","properties":{"c":"146.0","o":"OVERLAND RESOURCES (BC) LIMITED - 100%","e":"2028-07-30"},"geometry":{"type":"Polygon","coordinates":[[[-132.08544,60.27485],[-132.09033,60.27816],[-132.08368,60.28059],[-132.07879,60.27728],[-132.08544,60.27485]]]}},{"type":"Feature","properties":{"c":"106.0","o":"Silver North Resources Ltd. - 100%","e":"2026-04-29"},"geometry":{"type":"Polygon","coordinates":[[[-132.13146,60.09383],[-132.13145,60.08972],[-132.13965,60.08972],[-132.13966,60.09383],[-132.13146,60.09383]]]}},{"type":"Feature","properties":{"c":"67.0","o":"OVERLAND RESOURCES (BC) LIMITED - 100%","e":"2028-07-30"},"geometry":{"type":"Polygon","coordinates":[[[-132.05131,60.32809],[-132.0562,60.33141],[-132.04954,60.33384],[-132.04465,60.33052],[-132.05131,60.32809]]]}}]}