{"type":"FeatureCollection","features":[{"type":"Feature","properties":{"c":"13.0","o":"16579566 Canada Inc. - 100%","e":"2034-11-03"},"geometry":{"type":"Polygon","coordinates":[[[-132.69687,65.2733],[-132.714,65.27253],[-132.71584,65.2797],[-132.69871,65.28047],[-132.69687,65.2733]]]}},{"type":"Feature","properties":{"c":"15.0","o":"16579566 Canada Inc. - 100%","e":"2035-01-15"},"geometry":{"type":"Polygon","coordinates":[[[-132.92387,65.2576],[-132.94109,65.25751],[-132.94129,65.26473],[-132.92407,65.26481],[-132.92387,65.2576]]]}},{"type":"Feature","properties":{"c":"9.0","o":"16579566 Canada Inc. - 100%","e":"2035-01-15"},"geometry":{"type":"Polygon","coordinates":[[[-132.95601,65.30076],[-132.97297,65.29944],[-132.97473,65.30328],[-132.97147,65.30371],[-132.97358,65.3065],[-132.95918,65.30766],[-132.95601,65.30076]]]}},{"type":"Feature","properties":{"c":"12.0","o":"16579566 Canada Inc. - 100%","e":"2034-11-03"},"geometry":{"type":"Polygon","coordinates":[[[-132.81883,65.28616],[-132.81922,65.2791],[-132.83645,65.27927],[-132.83606,65.28632],[-132.81883,65.28616]]]}},{"type":"Feature","properties":{"c":"9.0","o":"16579566 Canada Inc. - 100%","e":"2035-02-15"},"geometry":{"type":"Polygon","coordinates":[[[-132.78453,65.30143],[-132.80176,65.3011],[-132.80179,65.30134],[-132.8006,65.30135],[-132.80093,65.30785],[-132.78528,65.30815],[-132.78453,65.30143]]]}},{"type":"Feature","properties":{"c":"23.0","o":"16579566 Canada Inc. - 100%","e":"2035-01-15"},"geometry":{"type":"Polygon","coordinates":[[[-132.95951,65.19947],[-132.97667,65.19913],[-132.97749,65.20633],[-132.96033,65.20668],[-132.95951,65.19947]]]}},{"type":"Feature","properties":{"c":"13.0","o":"16579566 Canada Inc. - 100%","e":"2035-01-15"},"geometry":{"type":"Polygon","coordinates":[[[-132.94019,65.27934],[-132.923,65.27881],[-132.92428,65.27161],[-132.94019,65.27211],[-132.93986,65.27904],[-132.94024,65.27904],[-132.94019,65.27934]]]}},{"type":"Feature","properties":{"c":"81.0","o":"16579566 Canada Inc. - 100%","e":"2035-01-15"},"geometry":{"type":"Polygon","coordinates":[[[-133.00858,65.30637],[-133.00828,65.30786],[-133.01032,65.30896],[-132.99312,65.30842],[-133.00858,65.30637]]]}},{"type":"Feature","properties":{"c":"14.0","o":"16579566 Canada Inc. - 100%","e":"2034-11-03"},"geometry":{"type":"Polygon","coordinates":[[[-132.69602,65.26657],[-132.71323,65.26623],[-132.71389,65.27212],[-132.69668,65.27246],[-132.69602,65.26657]]]}},{"type":"Feature","properties":{"c":"15.0","o":"16579566 Canada Inc. - 100%","e":"2035-03-15"},"geometry":{"type":"Polygon","coordinates":[[[-132.88791,65.25705],[-132.90512,65.25673],[-132.90587,65.26394],[-132.88867,65.26426],[-132.88791,65.25705]]]}},{"type":"Feature","properties":{"c":"11.0","o":"16579566 Canada Inc. - 100%","e":"2035-01-15"},"geometry":{"type":"Polygon","coordinates":[[[-132.68084,65.29358],[-132.67862,65.28642],[-132.69584,65.28679],[-132.69592,65.28614],[-132.69794,65.29264],[-132.69629,65.29273],[-132.68084,65.29358]]]}},{"type":"Feature","properties":{"c":"15.0","o":"16579566 Canada Inc. - 100%","e":"2035-01-15"},"geometry":{"type":"Polygon","coordinates":[[[-132.94224,65.26406],[-132.94216,65.26433],[-132.94104,65.2578],[-132.95822,65.25728],[-132.95945,65.26448],[-132.95438,65.26463],[-132.94224,65.26406]]]}},{"type":"Feature","properties":{"c":"10.0","o":"16579566 Canada Inc. - 100%","e":"2035-02-15"},"geometry":{"type":"Polygon","coordinates":[[[-132.76729,65.30155],[-132.76703,65.2945],[-132.78427,65.29439],[-132.78453,65.30143],[-132.76729,65.30155]]]}},{"type":"Feature","properties":{"c":"20.0","o":"16579566 Canada Inc. - 100%","e":"2035-02-15"},"geometry":{"type":"Polygon","coordinates":[[[-132.8718,65.22189],[-132.88894,65.22129],[-132.89037,65.22848],[-132.87318,65.22826],[-132.87315,65.22867],[-132.8718,65.22189]]]}},{"type":"Feature","properties":{"c":"11.0","o":"16579566 Canada Inc. - 100%","e":"2035-03-15"},"geometry":{"type":"Polygon","coordinates":[[[-132.88617,65.28661],[-132.90341,65.28643],[-132.90413,65.29223],[-132.88691,65.2926],[-132.88617,65.28661]]]}},{"type":"Feature","properties":{"c":"7.0","o":"16579566 Canada Inc. - 100%","e":"2035-01-15"},"geometry":{"type":"Polygon","coordinates":[[[-132.90594,65.32109],[-132.90698,65.31391],[-132.92421,65.31434],[-132.92317,65.32152],[-132.90594,65.32109]]]}},{"type":"Feature","properties":{"c":"91.0","o":"16579566 Canada Inc. - 100%","e":"2035-03-15"},"geometry":{"type":"Polygon","coordinates":[[[-132.80179,65.30134],[-132.80174,65.30039],[-132.83505,65.301],[-132.83515,65.3],[-132.83524,65.30388],[-132.83509,65.30104],[-132.81784,65.30119],[-132.80179,65.30134]]]}},{"type":"Feature","properties":{"c":"171.0","o":"16579566 Canada Inc. - 100%","e":"2034-11-03"},"geometry":{"type":"Polygon","coordinates":[[[-132.97668,65.24882],[-132.9756,65.24355],[-132.97633,65.23789],[-132.97658,65.24373],[-132.97668,65.24882]]]}},{"type":"Feature","properties":{"c":"10.0","o":"16579566 Canada Inc. - 100%","e":"2035-03-15"},"geometry":{"type":"Polygon","coordinates":[[[-132.88961,65.30054],[-132.88718,65.2934],[-132.90425,65.29238],[-132.90669,65.29952],[-132.90552,65.29959],[-132.88961,65.30054]]]}},{"type":"Feature","properties":{"c":"141.0","o":"16579566 Canada Inc. - 100%","e":"2035-03-15"},"geometry":{"type":"Polygon","coordinates":[[[-132.83376,65.26516],[-132.81898,65.2646],[-132.83622,65.26436],[-132.86312,65.26542],[-132.83376,65.26516]]]}},{"type":"Feature","properties":{"c":"12.0","o":"16579566 Canada Inc. - 100%","e":"2034-11-03"},"geometry":{"type":"Polygon","coordinates":[[[-132.97568,65.27957],[-132.9929,65.27938],[-132.99337,65.28659],[-132.9763,65.28678],[-132.97568,65.27957]]]}},{"type":"Feature","properties":{"c":"12.0","o":"16579566 Canada Inc. - 100%","e":"2035-02-15"},"geometry":{"type":"Polygon","coordinates":[[[-132.8016,65.28599],[-132.802,65.27893],[-132.81922,65.2791],[-132.81883,65.28616],[-132.8016,65.28599]]]}},{"type":"Feature","properties":{"c":"14.0","o":"16579566 Canada Inc. - 100%","e":"2035-01-15"},"geometry":{"type":"Polygon","coordinates":[[[-132.99843,65.27217],[-132.99298,65.27187],[-132.99502,65.2654],[-133.0121,65.26635],[-133.0102,65.27219],[-132.99843,65.27217]]]}},{"type":"Feature","properties":{"c":"11.0","o":"16579566 Canada Inc. - 100%","e":"2034-11-03"},"geometry":{"type":"Polygon","coordinates":[[[-132.81857,65.29353],[-132.81883,65.28632],[-132.83606,65.28642],[-132.83581,65.29364],[-132.81857,65.29353]]]}},{"type":"Feature","properties":{"c":"12.0","o":"16579566 Canada Inc. - 100%","e":"2035-02-15"},"geometry":{"type":"Polygon","coordinates":[[[-132.78366,65.28031],[-132.80089,65.28026],[-132.80101,65.28739],[-132.78377,65.28752],[-132.78366,65.28031]]]}},{"type":"Feature","properties":{"c":"11.0","o":"16579566 Canada Inc. - 100%","e":"2035-01-15"},"geometry":{"type":"Polygon","coordinates":[[[-132.92259,65.29373],[-132.9228,65.28652],[-132.94004,65.28661],[-132.93983,65.29382],[-132.92259,65.29373]]]}},{"type":"Feature","properties":{"c":"19.0","o":"16579566 Canada Inc. - 100%","e":"2035-01-15"},"geometry":{"type":"Polygon","coordinates":[[[-132.96007,65.22921],[-132.97726,65.22953],[-132.97636,65.23572],[-132.97659,65.23573],[-132.97652,65.23644],[-132.95933,65.23611],[-132.96007,65.22921]]]}},{"type":"Feature","properties":{"c":"131.0","o":"16579566 Canada Inc. - 100%","e":"2035-03-15"},"geometry":{"type":"Polygon","coordinates":[[[-132.71584,65.2797],[-132.73298,65.27893],[-132.7311,65.27175],[-132.73043,65.26589],[-132.733,65.2654],[-132.73334,65.27234],[-132.73292,65.28026],[-132.71584,65.2797]]]}},{"type":"Feature","properties":{"c":"11.0","o":"16579566 Canada Inc. - 100%","e":"2035-01-15"},"geometry":{"type":"Polygon","coordinates":[[[-132.99343,65.28758],[-133.01056,65.2884],[-133.00912,65.29362],[-132.99199,65.29279],[-132.99343,65.28758]]]}},{"type":"Feature","properties":{"c":"91.0","o":"16579566 Canada Inc. - 100%","e":"2034-11-03"},"geometry":{"type":"Polygon","coordinates":[[[-132.97473,65.30328],[-132.97297,65.29944],[-132.99057,65.30118],[-132.98792,65.30153],[-132.97473,65.30328]]]}},{"type":"Feature","properties":{"c":"19.0","o":"16579566 Canada Inc. - 100%","e":"2035-03-15"},"geometry":{"type":"Polygon","coordinates":[[[-132.88984,65.23569],[-132.89037,65.22848],[-132.90756,65.2287],[-132.90704,65.23591],[-132.88984,65.23569]]]}},{"type":"Feature","properties":{"c":"23.0","o":"16579566 Canada Inc. - 100%","e":"2035-02-15"},"geometry":{"type":"Polygon","coordinates":[[[-132.87312,65.2068],[-132.87235,65.19978],[-132.88952,65.19945],[-132.89028,65.20647],[-132.87312,65.2068]]]}},{"type":"Feature","properties":{"c":"22.0","o":"16579566 Canada Inc. - 100%","e":"2035-01-15"},"geometry":{"type":"Polygon","coordinates":[[[-132.94293,65.21358],[-132.94405,65.21354],[-132.94273,65.2072],[-132.94312,65.20669],[-132.94316,65.20702],[-132.96033,65.20668],[-132.95958,65.21389],[-132.94293,65.21358]]]}},{"type":"Feature","properties":{"c":"151.0","o":"16579566 Canada Inc. - 100%","e":"2035-02-15"},"geometry":{"type":"Polygon","coordinates":[[[-132.87071,65.25736],[-132.87076,65.25601],[-132.89224,65.25697],[-132.88791,65.25705],[-132.87071,65.25736]]]}},{"type":"Feature","properties":{"c":"22.0","o":"16579566 Canada Inc. - 100%","e":"2035-01-15"},"geometry":{"type":"Polygon","coordinates":[[[-132.92692,65.21416],[-132.92552,65.20736],[-132.94264,65.20674],[-132.94405,65.21354],[-132.94293,65.21358],[-132.92692,65.21416]]]}},{"type":"Feature","properties":{"c":"13.0","o":"16579566 Canada Inc. - 100%","e":"2035-01-15"},"geometry":{"type":"Polygon","coordinates":[[[-132.99298,65.27217],[-133.0102,65.27219],[-133.01017,65.27583],[-133.00917,65.27833],[-133.01015,65.2784],[-133.01014,65.2793],[-132.9929,65.27938],[-132.99298,65.27217]]]}},{"type":"Feature","properties":{"c":"14.0","o":"16579566 Canada Inc. - 100%","e":"2035-02-15"},"geometry":{"type":"Polygon","coordinates":[[[-132.86954,65.27058],[-132.8714,65.26399],[-132.87146,65.26457],[-132.88867,65.26426],[-132.88665,65.27142],[-132.86954,65.27058]]]}},{"type":"Feature","properties":{"c":"10.0","o":"16579566 Canada Inc. - 100%","e":"2035-02-15"},"geometry":{"type":"Polygon","coordinates":[[[-132.80059,65.30037],[-132.80134,65.29321],[-132.81857,65.29353],[-132.81782,65.30069],[-132.80059,65.30037]]]}},{"type":"Feature","properties":{"c":"12.0","o":"16579566 Canada Inc. - 100%","e":"2034-11-03"},"geometry":{"type":"Polygon","coordinates":[[[-132.7145,65.28686],[-132.71584,65.2797],[-132.73302,65.28026],[-132.7317,65.28734],[-132.7145,65.28686]]]}},{"type":"Feature","properties":{"c":"15.0","o":"16579566 Canada Inc. - 100%","e":"2035-03-15"},"geometry":{"type":"Polygon","coordinates":[[[-132.85101,65.26494],[-132.85255,65.25808],[-132.86969,65.25876],[-132.86819,65.26547],[-132.85101,65.26494]]]}},{"type":"Feature","properties":{"c":"26.0","o":"16579566 Canada Inc. - 100%","e":"2035-01-15"},"geometry":{"type":"Polygon","coordinates":[[[-132.94425,65.17879],[-132.96142,65.17884],[-132.96131,65.18601],[-132.94415,65.18572],[-132.94425,65.17879]]]}},{"type":"Feature","properties":{"c":"19.0","o":"16579566 Canada Inc. - 100%","e":"2035-01-15"},"geometry":{"type":"Polygon","coordinates":[[[-132.92381,65.22919],[-132.94101,65.2291],[-132.94123,65.23632],[-132.92403,65.23641],[-132.92381,65.22919]]]}},{"type":"Feature","properties":{"c":"16.0","o":"16579566 Canada Inc. - 100%","e":"2035-01-15"},"geometry":{"type":"Polygon","coordinates":[[[-132.92376,65.25038],[-132.94098,65.25033],[-132.94109,65.25753],[-132.92387,65.2576],[-132.92376,65.25038]]]}},{"type":"Feature","properties":{"c":"23.0","o":"16579566 Canada Inc. - 100%","e":"2035-01-15"},"geometry":{"type":"Polygon","coordinates":[[[-132.94316,65.20702],[-132.94234,65.19982],[-132.95951,65.19947],[-132.96033,65.20668],[-132.94316,65.20702]]]}},{"type":"Feature","properties":{"c":"8.0","o":"16579566 Canada Inc. - 100%","e":"2035-02-15"},"geometry":{"type":"Polygon","coordinates":[[[-132.87408,65.31595],[-132.87163,65.30953],[-132.88866,65.30839],[-132.89112,65.31481],[-132.87408,65.31595]]]}},{"type":"Feature","properties":{"c":"19.0","o":"16579566 Canada Inc. - 100%","e":"2034-11-03"},"geometry":{"type":"Polygon","coordinates":[[[-132.97652,65.23644],[-132.97659,65.23573],[-132.97636,65.23572],[-132.97799,65.22902],[-132.99514,65.22964],[-132.99348,65.23645],[-132.97652,65.23644]]]}},{"type":"Feature","properties":{"c":"181.0","o":"16579566 Canada Inc. - 100%","e":"2035-02-15"},"geometry":{"type":"Polygon","coordinates":[[[-132.87288,65.23713],[-132.87265,65.23547],[-132.90314,65.23586],[-132.89,65.23642],[-132.87288,65.23713]]]}},{"type":"Feature","properties":{"c":"15.0","o":"16579566 Canada Inc. - 100%","e":"2035-01-15"},"geometry":{"type":"Polygon","coordinates":[[[-133.0121,65.26635],[-132.99502,65.2654],[-132.99603,65.25948],[-133.01255,65.25997],[-133.01257,65.26376],[-133.0122,65.26592],[-133.0121,65.26635]]]}},{"type":"Feature","properties":{"c":"23.0","o":"16579566 Canada Inc. - 100%","e":"2034-11-03"},"geometry":{"type":"Polygon","coordinates":[[[-132.97856,65.20858],[-132.97769,65.20137],[-132.99485,65.201],[-132.99572,65.20821],[-132.97856,65.20858]]]}},{"type":"Feature","properties":{"c":"12.0","o":"16579566 Canada Inc. - 100%","e":"2035-03-15"},"geometry":{"type":"Polygon","coordinates":[[[-132.8862,65.27996],[-132.90344,65.27997],[-132.90341,65.28662],[-132.88617,65.28661],[-132.8862,65.27996]]]}},{"type":"Feature","properties":{"c":"18.0","o":"16579566 Canada Inc. - 100%","e":"2035-01-15"},"geometry":{"type":"Polygon","coordinates":[[[-132.92403,65.23641],[-132.94123,65.23632],[-132.94116,65.2432],[-132.92395,65.24317],[-132.92403,65.23641]]]}},{"type":"Feature","properties":{"c":"191.0","o":"16579566 Canada Inc. - 100%","e":"2034-11-03"},"geometry":{"type":"Polygon","coordinates":[[[-133.01222,65.22987],[-133.01221,65.23037],[-132.98079,65.22902],[-133.01228,65.22902],[-133.01225,65.22947],[-133.04595,65.23002],[-133.01222,65.22987]]]}},{"type":"Feature","properties":{"c":"16.0","o":"16579566 Canada Inc. - 100%","e":"2035-03-15"},"geometry":{"type":"Polygon","coordinates":[[[-132.90665,65.25764],[-132.90656,65.25143],[-132.90683,65.25043],[-132.92376,65.25038],[-132.92387,65.2576],[-132.90665,65.25764]]]}},{"type":"Feature","properties":{"c":"22.0","o":"16579566 Canada Inc. - 100%","e":"2035-02-15"},"geometry":{"type":"Polygon","coordinates":[[[-132.87252,65.21344],[-132.87308,65.20651],[-132.87312,65.2068],[-132.89028,65.20647],[-132.8897,65.21368],[-132.87252,65.21344]]]}},{"type":"Feature","properties":{"c":"10.0","o":"16579566 Canada Inc. - 100%","e":"2035-03-15"},"geometry":{"type":"Polygon","coordinates":[[[-132.85156,65.2932],[-132.86878,65.29281],[-132.8697,65.30002],[-132.85248,65.3004],[-132.85156,65.2932]]]}},{"type":"Feature","properties":{"c":"15.0","o":"16579566 Canada Inc. - 100%","e":"2034-11-03"},"geometry":{"type":"Polygon","coordinates":[[[-132.97784,65.26489],[-132.97886,65.25896],[-132.99603,65.25948],[-132.99502,65.2654],[-132.97784,65.26489]]]}},{"type":"Feature","properties":{"c":"81.0","o":"16579566 Canada Inc. - 100%","e":"2035-01-15"},"geometry":{"type":"Polygon","coordinates":[[[-132.95918,65.30766],[-132.97358,65.3065],[-132.97502,65.3084],[-132.95917,65.30832],[-132.95918,65.30766]]]}},{"type":"Feature","properties":{"c":"23.0","o":"16579566 Canada Inc. - 100%","e":"2035-01-15"},"geometry":{"type":"Polygon","coordinates":[[[-132.90834,65.20707],[-132.90899,65.20043],[-132.92617,65.20056],[-132.92552,65.20736],[-132.90834,65.20707]]]}},{"type":"Feature","properties":{"c":"26.0","o":"16579566 Canada Inc. - 100%","e":"2034-11-03"},"geometry":{"type":"Polygon","coordinates":[[[-132.97879,65.18517],[-132.97858,65.17888],[-132.97831,65.17888],[-132.97827,65.17829],[-132.99543,65.17805],[-132.99598,65.18527],[-132.99058,65.18534],[-132.97879,65.18517]]]}},{"type":"Feature","properties":{"c":"18.0","o":"16579566 Canada Inc. - 100%","e":"2035-03-15"},"geometry":{"type":"Polygon","coordinates":[[[-132.89171,65.2436],[-132.89,65.23642],[-132.90681,65.23591],[-132.90674,65.24297],[-132.89171,65.2436]]]}},{"type":"Feature","properties":{"c":"25.0","o":"16579566 Canada Inc. - 100%","e":"2034-11-03"},"geometry":{"type":"Polygon","coordinates":[[[-132.97792,65.19226],[-132.97881,65.18505],[-132.99595,65.18547],[-132.99497,65.19267],[-132.97792,65.19226]]]}},{"type":"Feature","properties":{"c":"16.0","o":"16579566 Canada Inc. - 100%","e":"2035-01-15"},"geometry":{"type":"Polygon","coordinates":[[[-132.99393,65.2504],[-133.01106,65.2497],[-133.01255,65.25689],[-132.99559,65.25758],[-132.99393,65.2504]]]}},{"type":"Feature","properties":{"c":"7.0","o":"16579566 Canada Inc. - 100%","e":"2035-03-15"},"geometry":{"type":"Polygon","coordinates":[[[-132.85281,65.3148],[-132.87006,65.31465],[-132.86998,65.32144],[-132.85272,65.3214],[-132.85281,65.3148]]]}},{"type":"Feature","properties":{"c":"151.0","o":"16579566 Canada Inc. - 100%","e":"2034-11-03"},"geometry":{"type":"Polygon","coordinates":[[[-132.98745,65.25922],[-132.98703,65.25793],[-133.04631,65.25579],[-133.04631,65.25721],[-133.06353,65.25721],[-133.06372,65.25841],[-133.04699,65.25887],[-133.04699,65.25774],[-133.01255,65.25777],[-133.01255,65.25997],[-132.98745,65.25922]]]}},{"type":"Feature","properties":{"c":"25.0","o":"16579566 Canada Inc. - 100%","e":"2035-03-15"},"geometry":{"type":"Polygon","coordinates":[[[-132.89122,65.19237],[-132.89385,65.18569],[-132.9108,65.18687],[-132.90817,65.19355],[-132.89122,65.19237]]]}},{"type":"Feature","properties":{"c":"131.0","o":"16579566 Canada Inc. - 100%","e":"2035-03-15"},"geometry":{"type":"Polygon","coordinates":[[[-132.69686,65.28917],[-132.69592,65.28614],[-132.69671,65.27968],[-132.66555,65.279],[-132.69671,65.27872],[-132.69639,65.27151],[-132.69577,65.26657],[-132.69602,65.26657],[-132.69668,65.27246],[-132.73025,65.27179],[-132.69687,65.2733],[-132.69854,65.27981],[-132.6973,65.28638],[-132.69686,65.28917]]]}},{"type":"Feature","properties":{"c":"201.0","o":"16579566 Canada Inc. - 100%","e":"2034-11-03"},"geometry":{"type":"Polygon","coordinates":[[[-132.96007,65.22921],[-132.97728,65.22917],[-132.97765,65.22196],[-132.95301,65.22174],[-132.9776,65.22119],[-132.97672,65.2142],[-132.9775,65.20699],[-132.97856,65.20858],[-133.01243,65.20785],[-133.01232,65.21065],[-132.97881,65.21],[-132.97794,65.22166],[-132.97799,65.22902],[-132.97677,65.23402],[-132.97726,65.22953],[-132.96007,65.22921]]]}},{"type":"Feature","properties":{"c":"15.0","o":"16579566 Canada Inc. - 100%","e":"2035-03-15"},"geometry":{"type":"Polygon","coordinates":[[[-132.90685,65.26489],[-132.90665,65.25768],[-132.92387,65.2576],[-132.92407,65.26481],[-132.90685,65.26489]]]}},{"type":"Feature","properties":{"c":"12.0","o":"16579566 Canada Inc. - 100%","e":"2035-01-15"},"geometry":{"type":"Polygon","coordinates":[[[-132.9228,65.28652],[-132.92284,65.27973],[-132.94007,65.27974],[-132.94004,65.28653],[-132.9228,65.28652]]]}},{"type":"Feature","properties":{"c":"24.0","o":"16579566 Canada Inc. - 100%","e":"2034-11-03"},"geometry":{"type":"Polygon","coordinates":[[[-132.97766,65.20096],[-132.97778,65.19374],[-132.99495,65.19379],[-132.99485,65.201],[-132.97766,65.20096]]]}},{"type":"Feature","properties":{"c":"10.0","o":"16579566 Canada Inc. - 100%","e":"2035-01-15"},"geometry":{"type":"Polygon","coordinates":[[[-132.9576,65.29407],[-132.97339,65.29435],[-132.97064,65.29921],[-132.97269,65.29942],[-132.95601,65.30076],[-132.9576,65.29407]]]}},{"type":"Feature","properties":{"c":"231.0","o":"16579566 Canada Inc. - 100%","e":"2035-01-15"},"geometry":{"type":"Polygon","coordinates":[[[-132.94334,65.19898],[-132.95951,65.19947],[-132.94335,65.1998],[-132.94334,65.19898]]]}},{"type":"Feature","properties":{"c":"16.0","o":"16579566 Canada Inc. - 100%","e":"2034-11-03"},"geometry":{"type":"Polygon","coordinates":[[[-132.97846,65.25828],[-132.97684,65.2511],[-132.99393,65.2504],[-132.99559,65.25758],[-132.98703,65.25793],[-132.97846,65.25828]]]}},{"type":"Feature","properties":{"c":"251.0","o":"16579566 Canada Inc. - 100%","e":"2035-03-15"},"geometry":{"type":"Polygon","coordinates":[[[-132.97854,65.18188],[-132.97879,65.18517],[-132.97813,65.19003],[-132.97854,65.18188]]]}},{"type":"Feature","properties":{"c":"231.0","o":"16579566 Canada Inc. - 100%","e":"2035-02-15"},"geometry":{"type":"Polygon","coordinates":[[[-132.87474,65.19974],[-132.87649,65.1989],[-132.88952,65.19945],[-132.87474,65.19974]]]}},{"type":"Feature","properties":{"c":"13.0","o":"16579566 Canada Inc. - 100%","e":"2035-01-15"},"geometry":{"type":"Polygon","coordinates":[[[-132.93986,65.27904],[-132.94021,65.27189],[-132.95743,65.27203],[-132.95709,65.27919],[-132.93986,65.27904]]]}},{"type":"Feature","properties":{"c":"8.0","o":"16579566 Canada Inc. - 100%","e":"2035-03-15"},"geometry":{"type":"Polygon","coordinates":[[[-132.89112,65.31481],[-132.88866,65.30839],[-132.9057,65.30725],[-132.90573,65.30798],[-132.90616,65.30846],[-132.90578,65.30847],[-132.90674,65.31354],[-132.89112,65.31481]]]}},{"type":"Feature","properties":{"c":"211.0","o":"16579566 Canada Inc. - 100%","e":"2035-01-15"},"geometry":{"type":"Polygon","coordinates":[[[-132.94241,65.21518],[-132.92692,65.21416],[-132.94293,65.21358],[-132.97146,65.2141],[-132.94236,65.21474],[-132.94241,65.21518]]]}},{"type":"Feature","properties":{"c":"101.0","o":"16579566 Canada Inc. - 100%","e":"2034-11-03"},"geometry":{"type":"Polygon","coordinates":[[[-133.0053,65.3006],[-133.00817,65.29551],[-132.97504,65.29223],[-132.97507,65.29197],[-133.00912,65.29362],[-133.00937,65.29272],[-133.00944,65.29377],[-133.02668,65.29355],[-133.02674,65.29436],[-133.00949,65.29442],[-133.00962,65.30129],[-133.00881,65.30524],[-133.0053,65.3006]]]}},{"type":"Feature","properties":{"c":"11.0","o":"16579566 Canada Inc. - 100%","e":"2035-03-15"},"geometry":{"type":"Polygon","coordinates":[[[-132.90535,65.29364],[-132.90556,65.28646],[-132.9228,65.28652],[-132.92259,65.29373],[-132.90535,65.29364]]]}},{"type":"Feature","properties":{"c":"13.0","o":"16579566 Canada Inc. - 100%","e":"2035-02-15"},"geometry":{"type":"Polygon","coordinates":[[[-132.78353,65.2725],[-132.80076,65.27251],[-132.80031,65.27267],[-132.80079,65.27461],[-132.80088,65.27966],[-132.78365,65.27971],[-132.78353,65.2725]]]}},{"type":"Feature","properties":{"c":"14.0","o":"16579566 Canada Inc. - 100%","e":"2035-02-15"},"geometry":{"type":"Polygon","coordinates":[[[-132.7663,65.27242],[-132.76648,65.26521],[-132.78371,65.26528],[-132.78353,65.2725],[-132.7678,65.27243],[-132.7663,65.27242]]]}},{"type":"Feature","properties":{"c":"12.0","o":"16579566 Canada Inc. - 100%","e":"2035-03-15"},"geometry":{"type":"Polygon","coordinates":[[[-132.66141,65.28605],[-132.66216,65.27998],[-132.66555,65.279],[-132.6795,65.27931],[-132.67862,65.28642],[-132.66214,65.28606],[-132.66141,65.28605]]]}},{"type":"Feature","properties":{"c":"20.0","o":"16579566 Canada Inc. - 100%","e":"2035-01-15"},"geometry":{"type":"Polygon","coordinates":[[[-132.96008,65.22902],[-132.96046,65.2218],[-132.97765,65.22196],[-132.97728,65.22917],[-132.96008,65.22902]]]}},{"type":"Feature","properties":{"c":"13.0","o":"16579566 Canada Inc. - 100%","e":"2035-03-15"},"geometry":{"type":"Polygon","coordinates":[[[-132.83444,65.27925],[-132.8343,65.27845],[-132.83636,65.27836],[-132.83487,65.27232],[-132.85053,65.2725],[-132.85178,65.27963],[-132.83444,65.27925]]]}},{"type":"Feature","properties":{"c":"101.0","o":"16579566 Canada Inc. - 100%","e":"2035-01-15"},"geometry":{"type":"Polygon","coordinates":[[[-132.68084,65.29358],[-132.69629,65.29273],[-132.69618,65.29342],[-132.698,65.29347],[-132.69812,65.29521],[-132.68088,65.29503],[-132.68084,65.29358]]]}},{"type":"Feature","properties":{"c":"20.0","o":"16579566 Canada Inc. - 100%","e":"2034-11-03"},"geometry":{"type":"Polygon","coordinates":[[[-132.97793,65.22902],[-132.97794,65.22181],[-132.99514,65.22181],[-132.99514,65.22902],[-132.98079,65.22902],[-132.97793,65.22902]]]}},{"type":"Feature","properties":{"c":"6.0","o":"16579566 Canada Inc. - 100%","e":"2034-11-03"},"geometry":{"type":"Polygon","coordinates":[[[-132.975,65.32982],[-132.97497,65.3226],[-132.99224,65.32259],[-132.99226,65.32981],[-132.975,65.32982]]]}},{"type":"Feature","properties":{"c":"15.0","o":"16579566 Canada Inc. - 100%","e":"2035-02-15"},"geometry":{"type":"Polygon","coordinates":[[[-132.87146,65.26457],[-132.87071,65.25736],[-132.88791,65.25705],[-132.88867,65.26426],[-132.87146,65.26457]]]}},{"type":"Feature","properties":{"c":"11.0","o":"16579566 Canada Inc. - 100%","e":"2035-02-15"},"geometry":{"type":"Polygon","coordinates":[[[-132.76658,65.28757],[-132.78377,65.28752],[-132.78427,65.29439],[-132.76703,65.2945],[-132.76658,65.28757]]]}},{"type":"Feature","properties":{"c":"13.0","o":"16579566 Canada Inc. - 100%","e":"2035-03-15"},"geometry":{"type":"Polygon","coordinates":[[[-132.89113,65.27881],[-132.88653,65.27186],[-132.90313,65.26993],[-132.90774,65.27688],[-132.90603,65.27708],[-132.89113,65.27881]]]}},{"type":"Feature","properties":{"c":"26.0","o":"16579566 Canada Inc. - 100%","e":"2035-01-15"},"geometry":{"type":"Polygon","coordinates":[[[-132.96142,65.17884],[-132.97858,65.17888],[-132.97848,65.18605],[-132.96131,65.18601],[-132.96142,65.17884]]]}},{"type":"Feature","properties":{"c":"12.0","o":"16579566 Canada Inc. - 100%","e":"2035-01-15"},"geometry":{"type":"Polygon","coordinates":[[[-132.6795,65.27931],[-132.69671,65.27968],[-132.69584,65.28679],[-132.67862,65.28642],[-132.6795,65.27931]]]}},{"type":"Feature","properties":{"c":"11.0","o":"16579566 Canada Inc. - 100%","e":"2035-02-15"},"geometry":{"type":"Polygon","coordinates":[[[-132.80159,65.28621],[-132.81883,65.28632],[-132.81857,65.29353],[-132.80134,65.29321],[-132.80159,65.28621]]]}},{"type":"Feature","properties":{"c":"26.0","o":"16579566 Canada Inc. - 100%","e":"2035-01-15"},"geometry":{"type":"Polygon","coordinates":[[[-132.99543,65.17805],[-133.01188,65.17783],[-133.01154,65.17922],[-133.01141,65.18506],[-132.99598,65.18527],[-132.99543,65.17805]]]}},{"type":"Feature","properties":{"c":"14.0","o":"16579566 Canada Inc. - 100%","e":"2035-02-15"},"geometry":{"type":"Polygon","coordinates":[[[-132.75057,65.27231],[-132.75022,65.26525],[-132.76744,65.2651],[-132.76648,65.26521],[-132.7663,65.2724],[-132.75057,65.27231]]]}},{"type":"Feature","properties":{"c":"14.0","o":"16579566 Canada Inc. - 100%","e":"2034-11-03"},"geometry":{"type":"Polygon","coordinates":[[[-132.71389,65.27212],[-132.71323,65.26623],[-132.73043,65.26589],[-132.7311,65.27175],[-132.73025,65.27179],[-132.71389,65.27212]]]}},{"type":"Feature","properties":{"c":"13.0","o":"16579566 Canada Inc. - 100%","e":"2035-02-15"},"geometry":{"type":"Polygon","coordinates":[[[-132.80197,65.27939],[-132.80031,65.27267],[-132.81745,65.27193],[-132.81922,65.2791],[-132.802,65.27893],[-132.80197,65.27939]]]}},{"type":"Feature","properties":{"c":"12.0","o":"16579566 Canada Inc. - 100%","e":"2035-01-15"},"geometry":{"type":"Polygon","coordinates":[[[-132.9929,65.27938],[-133.01013,65.27919],[-133.01015,65.27951],[-133.00893,65.27951],[-133.00892,65.28633],[-133.0106,65.2864],[-132.99337,65.28659],[-132.9929,65.27938]]]}},{"type":"Feature","properties":{"c":"10.0","o":"16579566 Canada Inc. - 100%","e":"2035-02-15"},"geometry":{"type":"Polygon","coordinates":[[[-132.78427,65.29439],[-132.80124,65.29418],[-132.80059,65.30037],[-132.80174,65.30039],[-132.80177,65.30121],[-132.78453,65.30143],[-132.78427,65.29439]]]}},{"type":"Feature","properties":{"c":"51.0","o":"16579566 Canada Inc. - 100%","e":"2034-11-03"},"geometry":{"type":"Polygon","coordinates":[[[-132.975,65.3311],[-132.975,65.32982],[-132.99226,65.32981],[-132.99227,65.33101],[-132.975,65.3311]]]}},{"type":"Feature","properties":{"c":"25.0","o":"16579566 Canada Inc. - 100%","e":"2035-01-15"},"geometry":{"type":"Polygon","coordinates":[[[-132.94415,65.18572],[-132.96131,65.18601],[-132.9607,65.19261],[-132.94355,65.1922],[-132.94415,65.18572]]]}},{"type":"Feature","properties":{"c":"19.0","o":"16579566 Canada Inc. - 100%","e":"2035-01-15"},"geometry":{"type":"Polygon","coordinates":[[[-132.94214,65.23579],[-132.94289,65.22889],[-132.96007,65.22921],[-132.95933,65.23611],[-132.94214,65.23579]]]}},{"type":"Feature","properties":{"c":"131.0","o":"16579566 Canada Inc. - 100%","e":"2035-03-15"},"geometry":{"type":"Polygon","coordinates":[[[-132.80079,65.27115],[-132.81913,65.27185],[-132.80076,65.27251],[-132.80079,65.27115]]]}},{"type":"Feature","properties":{"c":"21.0","o":"16579566 Canada Inc. - 100%","e":"2035-03-15"},"geometry":{"type":"Polygon","coordinates":[[[-132.90728,65.22018],[-132.90993,65.21305],[-132.92692,65.21416],[-132.92427,65.22129],[-132.90728,65.22018]]]}},{"type":"Feature","properties":{"c":"14.0","o":"16579566 Canada Inc. - 100%","e":"2035-03-15"},"geometry":{"type":"Polygon","coordinates":[[[-132.90705,65.27171],[-132.90687,65.26569],[-132.92409,65.2656],[-132.92428,65.27161],[-132.90705,65.27171]]]}},{"type":"Feature","properties":{"c":"16.0","o":"16579566 Canada Inc. - 100%","e":"2035-02-15"},"geometry":{"type":"Polygon","coordinates":[[[-132.87076,65.25601],[-132.87257,65.24896],[-132.88968,65.24973],[-132.88788,65.25678],[-132.87076,65.25601]]]}},{"type":"Feature","properties":{"c":"9.0","o":"16579566 Canada Inc. - 100%","e":"2035-03-15"},"geometry":{"type":"Polygon","coordinates":[[[-132.8525,65.3006],[-132.86975,65.30062],[-132.86972,65.30768],[-132.85247,65.30775],[-132.8525,65.3006]]]}},{"type":"Feature","properties":{"c":"21.0","o":"16579566 Canada Inc. - 100%","e":"2035-02-15"},"geometry":{"type":"Polygon","coordinates":[[[-132.87172,65.22072],[-132.87248,65.21398],[-132.88965,65.21432],[-132.88889,65.22106],[-132.87172,65.22072]]]}},{"type":"Feature","properties":{"c":"201.0","o":"16579566 Canada Inc. - 100%","e":"2035-02-15"},"geometry":{"type":"Polygon","coordinates":[[[-132.8718,65.22189],[-132.87172,65.22072],[-132.89316,65.22114],[-132.88894,65.22129],[-132.8718,65.22189]]]}},{"type":"Feature","properties":{"c":"24.0","o":"16579566 Canada Inc. - 100%","e":"2035-01-15"},"geometry":{"type":"Polygon","coordinates":[[[-132.9607,65.19261],[-132.97786,65.19289],[-132.97672,65.19956],[-132.97667,65.19913],[-132.95951,65.19947],[-132.9607,65.19261]]]}},{"type":"Feature","properties":{"c":"24.0","o":"16579566 Canada Inc. - 100%","e":"2035-01-15"},"geometry":{"type":"Polygon","coordinates":[[[-132.99495,65.19379],[-133.01213,65.19383],[-133.01203,65.20084],[-133.01201,65.20064],[-132.99485,65.201],[-132.99495,65.19379]]]}},{"type":"Feature","properties":{"c":"13.0","o":"16579566 Canada Inc. - 100%","e":"2035-03-15"},"geometry":{"type":"Polygon","coordinates":[[[-132.66569,65.27896],[-132.67023,65.27561],[-132.67074,65.27242],[-132.67111,65.2717],[-132.67917,65.27164],[-132.67948,65.27886],[-132.66569,65.27896]]]}},{"type":"Feature","properties":{"c":"9.0","o":"16579566 Canada Inc. - 100%","e":"2035-03-15"},"geometry":{"type":"Polygon","coordinates":[[[-132.88954,65.30118],[-132.90557,65.30152],[-132.90571,65.30729],[-132.88866,65.30839],[-132.88954,65.30118]]]}},{"type":"Feature","properties":{"c":"17.0","o":"16579566 Canada Inc. - 100%","e":"2035-02-15"},"geometry":{"type":"Polygon","coordinates":[[[-132.87257,65.24896],[-132.87467,65.2426],[-132.89171,65.2436],[-132.88968,65.24973],[-132.87257,65.24896]]]}},{"type":"Feature","properties":{"c":"10.0","o":"16579566 Canada Inc. - 100%","e":"2035-02-15"},"geometry":{"type":"Polygon","coordinates":[[[-132.87011,65.29441],[-132.88718,65.2934],[-132.88961,65.30054],[-132.88166,65.30101],[-132.87231,65.30081],[-132.87011,65.29441]]]}},{"type":"Feature","properties":{"c":"101.0","o":"16579566 Canada Inc. - 100%","e":"2035-02-15"},"geometry":{"type":"Polygon","coordinates":[[[-132.76657,65.29272],[-132.76658,65.28822],[-132.7669,65.29272],[-132.76657,65.29272]]]}},{"type":"Feature","properties":{"c":"141.0","o":"16579566 Canada Inc. - 100%","e":"2035-03-15"},"geometry":{"type":"Polygon","coordinates":[[[-132.90403,65.2713],[-132.90577,65.2651],[-132.90514,65.257],[-132.90656,65.25143],[-132.90665,65.25764],[-132.92387,65.2576],[-132.90665,65.25768],[-132.90685,65.26489],[-132.94129,65.26473],[-132.94111,65.25818],[-132.94216,65.26433],[-132.94137,65.26728],[-132.94131,65.26551],[-132.90687,65.26569],[-132.90704,65.27139],[-132.90642,65.2749],[-132.90403,65.2713]]]}},{"type":"Feature","properties":{"c":"17.0","o":"16579566 Canada Inc. - 100%","e":"2035-01-15"},"geometry":{"type":"Polygon","coordinates":[[[-132.92395,65.24317],[-132.94116,65.2432],[-132.94097,65.24981],[-132.92375,65.24972],[-132.92395,65.24317]]]}},{"type":"Feature","properties":{"c":"25.0","o":"16579566 Canada Inc. - 100%","e":"2035-02-15"},"geometry":{"type":"Polygon","coordinates":[[[-132.87414,65.19164],[-132.87691,65.18451],[-132.89385,65.18569],[-132.89122,65.19237],[-132.87414,65.19164]]]}},{"type":"Feature","properties":{"c":"25.0","o":"16579566 Canada Inc. - 100%","e":"2035-01-15"},"geometry":{"type":"Polygon","coordinates":[[[-132.99595,65.18547],[-133.0131,65.18588],[-133.01212,65.19308],[-132.99497,65.19267],[-132.99595,65.18547]]]}},{"type":"Feature","properties":{"c":"11.0","o":"16579566 Canada Inc. - 100%","e":"2035-02-15"},"geometry":{"type":"Polygon","coordinates":[[[-132.86969,65.29297],[-132.86894,65.28659],[-132.88617,65.28661],[-132.88691,65.2926],[-132.86969,65.29297]]]}},{"type":"Feature","properties":{"c":"151.0","o":"16579566 Canada Inc. - 100%","e":"2035-03-15"},"geometry":{"type":"Polygon","coordinates":[[[-132.94107,65.25632],[-132.96191,65.25717],[-132.9411,65.2578],[-132.94109,65.25753],[-132.94107,65.25632]]]}},{"type":"Feature","properties":{"c":"13.0","o":"16579566 Canada Inc. - 100%","e":"2035-02-15"},"geometry":{"type":"Polygon","coordinates":[[[-132.87452,65.28074],[-132.86992,65.27379],[-132.88653,65.27186],[-132.89113,65.27881],[-132.88126,65.27996],[-132.87452,65.28074]]]}},{"type":"Feature","properties":{"c":"21.0","o":"16579566 Canada Inc. - 100%","e":"2035-01-15"},"geometry":{"type":"Polygon","coordinates":[[[-132.92427,65.22129],[-132.92692,65.21416],[-132.9439,65.21528],[-132.94131,65.22226],[-132.92427,65.22129]]]}},{"type":"Feature","properties":{"c":"14.0","o":"16579566 Canada Inc. - 100%","e":"2035-03-15"},"geometry":{"type":"Polygon","coordinates":[[[-132.85099,65.26528],[-132.8682,65.26547],[-132.86775,65.27269],[-132.85053,65.2725],[-132.85099,65.26528]]]}},{"type":"Feature","properties":{"c":"17.0","o":"16579566 Canada Inc. - 100%","e":"2034-11-03"},"geometry":{"type":"Polygon","coordinates":[[[-132.97658,65.24369],[-132.99379,65.24363],[-132.99393,65.2504],[-132.97684,65.2511],[-132.97658,65.24369]]]}},{"type":"Feature","properties":{"c":"101.0","o":"16579566 Canada Inc. - 100%","e":"2035-03-15"},"geometry":{"type":"Polygon","coordinates":[[[-132.81857,65.29353],[-132.83435,65.29363],[-132.83437,65.29382],[-132.81857,65.29353]]]}},{"type":"Feature","properties":{"c":"14.0","o":"16579566 Canada Inc. - 100%","e":"2035-01-15"},"geometry":{"type":"Polygon","coordinates":[[[-132.94019,65.27211],[-132.92428,65.27161],[-132.92409,65.2656],[-132.94131,65.26551],[-132.94137,65.26728],[-132.94031,65.27123],[-132.9415,65.27128],[-132.9415,65.27152],[-132.94021,65.27189],[-132.94019,65.27211]]]}},{"type":"Feature","properties":{"c":"19.0","o":"16579566 Canada Inc. - 100%","e":"2035-01-15"},"geometry":{"type":"Polygon","coordinates":[[[-132.90752,65.22928],[-132.92381,65.22919],[-132.92403,65.23641],[-132.90682,65.23637],[-132.90752,65.22928]]]}},{"type":"Feature","properties":{"c":"16.0","o":"16579566 Canada Inc. - 100%","e":"2035-01-15"},"geometry":{"type":"Polygon","coordinates":[[[-132.94103,65.25632],[-132.94258,65.24965],[-132.95971,65.25035],[-132.95817,65.25702],[-132.94103,65.25632]]]}},{"type":"Feature","properties":{"c":"14.0","o":"16579566 Canada Inc. - 100%","e":"2034-11-03"},"geometry":{"type":"Polygon","coordinates":[[[-132.733,65.2654],[-132.75022,65.26525],[-132.75057,65.27231],[-132.73335,65.27221],[-132.733,65.2654]]]}},{"type":"Feature","properties":{"c":"12.0","o":"16579566 Canada Inc. - 100%","e":"2035-02-15"},"geometry":{"type":"Polygon","coordinates":[[[-132.76655,65.28599],[-132.74935,65.2855],[-132.75034,65.27935],[-132.76641,65.27945],[-132.76641,65.27981],[-132.76754,65.27984],[-132.76658,65.28575],[-132.76655,65.28599]]]}},{"type":"Feature","properties":{"c":"9.0","o":"16579566 Canada Inc. - 100%","e":"2035-03-15"},"geometry":{"type":"Polygon","coordinates":[[[-132.83544,65.30773],[-132.83526,65.30059],[-132.8525,65.3006],[-132.85247,65.30775],[-132.83544,65.30773]]]}},{"type":"Feature","properties":{"c":"141.0","o":"16579566 Canada Inc. - 100%","e":"2035-02-15"},"geometry":{"type":"Polygon","coordinates":[[[-132.80086,65.2684],[-132.80093,65.26536],[-132.80152,65.26536],[-132.80086,65.2684]]]}},{"type":"Feature","properties":{"c":"8.0","o":"16579566 Canada Inc. - 100%","e":"2035-03-15"},"geometry":{"type":"Polygon","coordinates":[[[-132.85247,65.30775],[-132.86971,65.3076],[-132.87006,65.31465],[-132.85281,65.3148],[-132.85247,65.30775]]]}},{"type":"Feature","properties":{"c":"21.0","o":"16579566 Canada Inc. - 100%","e":"2035-03-15"},"geometry":{"type":"Polygon","coordinates":[[[-132.88889,65.22106],[-132.88965,65.21432],[-132.90682,65.21466],[-132.90612,65.22093],[-132.90608,65.22069],[-132.89316,65.22114],[-132.88889,65.22106]]]}},{"type":"Feature","properties":{"c":"12.0","o":"16579566 Canada Inc. - 100%","e":"2034-11-03"},"geometry":{"type":"Polygon","coordinates":[[[-132.73215,65.28501],[-132.73312,65.27906],[-132.75034,65.27935],[-132.74935,65.2855],[-132.73215,65.28501]]]}},{"type":"Feature","properties":{"c":"20.0","o":"16579566 Canada Inc. - 100%","e":"2035-01-15"},"geometry":{"type":"Polygon","coordinates":[[[-132.94288,65.22886],[-132.94325,65.22191],[-132.96046,65.2218],[-132.96008,65.22902],[-132.94288,65.22886]]]}},{"type":"Feature","properties":{"c":"11.0","o":"16579566 Canada Inc. - 100%","e":"2035-03-15"},"geometry":{"type":"Polygon","coordinates":[[[-132.85123,65.2867],[-132.86846,65.28654],[-132.86879,65.29293],[-132.85156,65.2932],[-132.85123,65.2867]]]}},{"type":"Feature","properties":{"c":"111.0","o":"16579566 Canada Inc. - 100%","e":"2035-01-15"},"geometry":{"type":"Polygon","coordinates":[[[-132.94007,65.28057],[-132.94123,65.28655],[-132.93989,65.29566],[-132.93983,65.29373],[-132.94007,65.28057]]]}},{"type":"Feature","properties":{"c":"20.0","o":"16579566 Canada Inc. - 100%","e":"2034-11-03"},"geometry":{"type":"Polygon","coordinates":[[[-132.99514,65.22902],[-132.99514,65.22181],[-133.01233,65.22188],[-133.01234,65.22902],[-132.99514,65.22902]]]}},{"type":"Feature","properties":{"c":"24.0","o":"16579566 Canada Inc. - 100%","e":"2035-01-15"},"geometry":{"type":"Polygon","coordinates":[[[-132.92617,65.20056],[-132.92609,65.19336],[-132.94327,65.19335],[-132.94237,65.19895],[-132.94334,65.19898],[-132.94335,65.1998],[-132.94234,65.19982],[-132.94242,65.20053],[-132.92617,65.20056]]]}},{"type":"Feature","properties":{"c":"20.0","o":"16579566 Canada Inc. - 100%","e":"2035-01-15"},"geometry":{"type":"Polygon","coordinates":[[[-132.92414,65.22164],[-132.94131,65.22226],[-132.94103,65.22898],[-132.92383,65.22885],[-132.92414,65.22164]]]}},{"type":"Feature","properties":{"c":"7.0","o":"16579566 Canada Inc. - 100%","e":"2035-01-15"},"geometry":{"type":"Polygon","coordinates":[[[-132.95896,65.31554],[-132.97602,65.31661],[-132.97352,65.32356],[-132.95645,65.32249],[-132.95896,65.31554]]]}},{"type":"Feature","properties":{"c":"13.0","o":"16579566 Canada Inc. - 100%","e":"2035-01-15"},"geometry":{"type":"Polygon","coordinates":[[[-132.95743,65.27203],[-132.97455,65.27284],[-132.97464,65.27251],[-132.97432,65.27933],[-132.95709,65.27919],[-132.95743,65.27203]]]}},{"type":"Feature","properties":{"c":"131.0","o":"16579566 Canada Inc. - 100%","e":"2035-01-15"},"geometry":{"type":"Polygon","coordinates":[[[-132.94021,65.27189],[-132.9415,65.27152],[-132.9415,65.27128],[-132.95743,65.27203],[-132.94021,65.27189]]]}},{"type":"Feature","properties":{"c":"22.0","o":"16579566 Canada Inc. - 100%","e":"2034-11-03"},"geometry":{"type":"Polygon","coordinates":[[[-132.99548,65.21489],[-132.99598,65.21034],[-133.01315,65.21067],[-133.01266,65.21513],[-132.99548,65.21489]]]}},{"type":"Feature","properties":{"c":"12.0","o":"16579566 Canada Inc. - 100%","e":"2035-01-15"},"geometry":{"type":"Polygon","coordinates":[[[-132.94124,65.28662],[-132.93992,65.27977],[-132.95709,65.27919],[-132.95842,65.28603],[-132.94246,65.28658],[-132.94124,65.28662]]]}},{"type":"Feature","properties":{"c":"11.0","o":"16579566 Canada Inc. - 100%","e":"2035-02-15"},"geometry":{"type":"Polygon","coordinates":[[[-132.78427,65.29439],[-132.78377,65.28752],[-132.801,65.2873],[-132.80124,65.29418],[-132.78427,65.29439]]]}},{"type":"Feature","properties":{"c":"261.0","o":"16579566 Canada Inc. - 100%","e":"2034-11-03"},"geometry":{"type":"Polygon","coordinates":[[[-132.97827,65.17829],[-132.97824,65.17767],[-133.01189,65.17781],[-132.99543,65.17805],[-132.97827,65.17829]]]}},{"type":"Feature","properties":{"c":"22.0","o":"16579566 Canada Inc. - 100%","e":"2035-03-15"},"geometry":{"type":"Polygon","coordinates":[[[-132.8897,65.21368],[-132.89028,65.20647],[-132.90746,65.20672],[-132.90688,65.21393],[-132.8897,65.21368]]]}},{"type":"Feature","properties":{"c":"14.0","o":"16579566 Canada Inc. - 100%","e":"2035-03-15"},"geometry":{"type":"Polygon","coordinates":[[[-132.83473,65.27174],[-132.83613,65.26525],[-132.83377,65.26509],[-132.85099,65.26528],[-132.85053,65.2725],[-132.83487,65.27232],[-132.83473,65.27174]]]}},{"type":"Feature","properties":{"c":"15.0","o":"16579566 Canada Inc. - 100%","e":"2034-11-03"},"geometry":{"type":"Polygon","coordinates":[[[-132.81895,65.25799],[-132.83616,65.25796],[-132.83622,65.26451],[-132.81899,65.26453],[-132.81895,65.25799]]]}},{"type":"Feature","properties":{"c":"191.0","o":"16579566 Canada Inc. - 100%","e":"2035-01-15"},"geometry":{"type":"Polygon","coordinates":[[[-132.90683,65.25043],[-132.90709,65.24963],[-132.94097,65.24981],[-132.94124,65.23644],[-132.94101,65.2291],[-132.90752,65.22928],[-132.90756,65.22873],[-132.94103,65.22898],[-132.94131,65.22226],[-132.9428,65.21826],[-132.94325,65.22191],[-132.94288,65.22886],[-132.96008,65.22902],[-132.94289,65.22889],[-132.94214,65.23579],[-132.97652,65.23644],[-132.97628,65.23684],[-132.94211,65.23606],[-132.94117,65.24327],[-132.94243,65.25031],[-132.94107,65.25618],[-132.94098,65.25033],[-132.90683,65.25043]]]}},{"type":"Feature","properties":{"c":"11.0","o":"16579566 Canada Inc. - 100%","e":"2035-01-15"},"geometry":{"type":"Polygon","coordinates":[[[-132.94037,65.29376],[-132.94111,65.28655],[-132.95833,65.28686],[-132.9576,65.29407],[-132.94037,65.29376]]]}},{"type":"Feature","properties":{"c":"12.0","o":"16579566 Canada Inc. - 100%","e":"2035-01-15"},"geometry":{"type":"Polygon","coordinates":[[[-132.95709,65.27919],[-132.97432,65.27933],[-132.97434,65.27896],[-132.9756,65.28545],[-132.95842,65.28603],[-132.95709,65.27919]]]}},{"type":"Feature","properties":{"c":"13.0","o":"16579566 Canada Inc. - 100%","e":"2035-03-15"},"geometry":{"type":"Polygon","coordinates":[[[-132.85053,65.2725],[-132.86775,65.27269],[-132.86777,65.27232],[-132.86901,65.27987],[-132.85178,65.27963],[-132.85053,65.2725]]]}},{"type":"Feature","properties":{"c":"12.0","o":"16579566 Canada Inc. - 100%","e":"2035-02-15"},"geometry":{"type":"Polygon","coordinates":[[[-132.76658,65.28575],[-132.76745,65.28035],[-132.78366,65.28031],[-132.78377,65.28752],[-132.76658,65.28757],[-132.76658,65.28575]]]}},{"type":"Feature","properties":{"c":"251.0","o":"16579566 Canada Inc. - 100%","e":"2035-03-15"},"geometry":{"type":"Polygon","coordinates":[[[-132.99058,65.18534],[-133.01141,65.18506],[-133.0111,65.18583],[-132.99058,65.18534]]]}},{"type":"Feature","properties":{"c":"13.0","o":"16579566 Canada Inc. - 100%","e":"2034-11-03"},"geometry":{"type":"Polygon","coordinates":[[[-132.714,65.27253],[-132.73112,65.27175],[-132.73298,65.27893],[-132.71584,65.2797],[-132.714,65.27253]]]}},{"type":"Feature","properties":{"c":"10.0","o":"16579566 Canada Inc. - 100%","e":"2035-01-15"},"geometry":{"type":"Polygon","coordinates":[[[-132.93885,65.30005],[-132.94039,65.29356],[-132.94037,65.29376],[-132.9576,65.29407],[-132.95601,65.30076],[-132.93885,65.30005]]]}},{"type":"Feature","properties":{"c":"91.0","o":"16579566 Canada Inc. - 100%","e":"2035-03-15"},"geometry":{"type":"Polygon","coordinates":[[[-132.88166,65.30101],[-132.90552,65.29959],[-132.90557,65.30152],[-132.88166,65.30101]]]}},{"type":"Feature","properties":{"c":"25.0","o":"16579566 Canada Inc. - 100%","e":"2035-01-15"},"geometry":{"type":"Polygon","coordinates":[[[-132.92609,65.19336],[-132.92612,65.18626],[-132.94329,65.18627],[-132.94327,65.19335],[-132.92609,65.19336]]]}},{"type":"Feature","properties":{"c":"22.0","o":"16579566 Canada Inc. - 100%","e":"2034-11-03"},"geometry":{"type":"Polygon","coordinates":[[[-132.97829,65.21474],[-132.97881,65.21],[-132.99598,65.21034],[-132.99548,65.21489],[-132.97829,65.21474]]]}},{"type":"Feature","properties":{"c":"111.0","o":"16579566 Canada Inc. - 100%","e":"2035-01-15"},"geometry":{"type":"Polygon","coordinates":[[[-132.97693,65.28678],[-133.0106,65.2864],[-133.00892,65.28655],[-133.00905,65.28833],[-132.99343,65.28758],[-132.97693,65.28678]]]}},{"type":"Feature","properties":{"c":"8.0","o":"16579566 Canada Inc. - 100%","e":"2034-11-03"},"geometry":{"type":"Polygon","coordinates":[[[-132.97623,65.31506],[-132.97636,65.31019],[-132.97667,65.31059],[-132.99312,65.30842],[-132.99194,65.31495],[-132.97623,65.31506]]]}},{"type":"Feature","properties":{"c":"13.0","o":"16579566 Canada Inc. - 100%","e":"2035-02-15"},"geometry":{"type":"Polygon","coordinates":[[[-132.76641,65.27976],[-132.76641,65.27945],[-132.76757,65.27945],[-132.7678,65.27243],[-132.78353,65.2725],[-132.78365,65.27971],[-132.76641,65.27976]]]}},{"type":"Feature","properties":{"c":"13.0","o":"16579566 Canada Inc. - 100%","e":"2035-02-15"},"geometry":{"type":"Polygon","coordinates":[[[-132.75034,65.27935],[-132.75057,65.27231],[-132.7678,65.27243],[-132.76757,65.27945],[-132.76641,65.27945],[-132.75034,65.27935]]]}},{"type":"Feature","properties":{"c":"17.0","o":"16579566 Canada Inc. - 100%","e":"2035-03-15"},"geometry":{"type":"Polygon","coordinates":[[[-132.88968,65.24973],[-132.89171,65.2436],[-132.90674,65.24297],[-132.9067,65.24447],[-132.90876,65.24459],[-132.9068,65.25049],[-132.88968,65.24973]]]}},{"type":"Feature","properties":{"c":"111.0","o":"16579566 Canada Inc. - 100%","e":"2035-03-15"},"geometry":{"type":"Polygon","coordinates":[[[-132.80089,65.28026],[-132.76745,65.28035],[-132.76754,65.27984],[-132.76641,65.27976],[-132.80088,65.27966],[-132.80079,65.27461],[-132.80197,65.27939],[-132.8016,65.28599],[-132.83401,65.2863],[-132.80159,65.28621],[-132.80137,65.29234],[-132.80089,65.28026]]]}},{"type":"Feature","properties":{"c":"25.0","o":"16579566 Canada Inc. - 100%","e":"2035-03-15"},"geometry":{"type":"Polygon","coordinates":[[[-132.90891,65.1934],[-132.90892,65.19164],[-132.9108,65.18687],[-132.90894,65.18674],[-132.90894,65.18625],[-132.92612,65.18626],[-132.92609,65.19336],[-132.90891,65.1934]]]}},{"type":"Feature","properties":{"c":"21.0","o":"16579566 Canada Inc. - 100%","e":"2035-01-15"},"geometry":{"type":"Polygon","coordinates":[[[-132.95953,65.21437],[-132.97672,65.2142],[-132.9776,65.22119],[-132.96043,65.22157],[-132.95953,65.21437]]]}},{"type":"Feature","properties":{"c":"24.0","o":"16579566 Canada Inc. - 100%","e":"2035-02-15"},"geometry":{"type":"Polygon","coordinates":[[[-132.87242,65.19872],[-132.87414,65.19164],[-132.89122,65.19237],[-132.88952,65.19945],[-132.87242,65.19872]]]}},{"type":"Feature","properties":{"c":"10.0","o":"16579566 Canada Inc. - 100%","e":"2034-11-03"},"geometry":{"type":"Polygon","coordinates":[[[-132.81857,65.29353],[-132.8358,65.29385],[-132.83505,65.301],[-132.81782,65.30069],[-132.81857,65.29353]]]}},{"type":"Feature","properties":{"c":"10.0","o":"16579566 Canada Inc. - 100%","e":"2035-01-15"},"geometry":{"type":"Polygon","coordinates":[[[-132.98742,65.30087],[-132.99139,65.29385],[-133.00817,65.29551],[-133.0053,65.3006],[-133.00437,65.29936],[-132.99057,65.30118],[-132.98742,65.30087]]]}},{"type":"Feature","properties":{"c":"10.0","o":"16579566 Canada Inc. - 100%","e":"2035-03-15"},"geometry":{"type":"Polygon","coordinates":[[[-132.8358,65.29385],[-132.83435,65.29363],[-132.85156,65.2932],[-132.85248,65.3004],[-132.83526,65.30059],[-132.8358,65.29385]]]}},{"type":"Feature","properties":{"c":"19.0","o":"16579566 Canada Inc. - 100%","e":"2035-02-15"},"geometry":{"type":"Polygon","coordinates":[[[-132.87265,65.23547],[-132.87318,65.22826],[-132.89037,65.22848],[-132.88984,65.23569],[-132.87265,65.23547]]]}},{"type":"Feature","properties":{"c":"27.0","o":"16579566 Canada Inc. - 100%","e":"2034-11-03"},"geometry":{"type":"Polygon","coordinates":[[[-132.97824,65.17767],[-132.9784,65.17073],[-132.99556,65.1708],[-132.9954,65.17774],[-132.97824,65.17767]]]}},{"type":"Feature","properties":{"c":"11.0","o":"16579566 Canada Inc. - 100%","e":"2035-03-15"},"geometry":{"type":"Polygon","coordinates":[[[-132.83606,65.28649],[-132.85123,65.2867],[-132.85156,65.2932],[-132.83581,65.29355],[-132.83606,65.28649]]]}},{"type":"Feature","properties":{"c":"18.0","o":"16579566 Canada Inc. - 100%","e":"2035-02-15"},"geometry":{"type":"Polygon","coordinates":[[[-132.87288,65.23713],[-132.89,65.23642],[-132.89171,65.2436],[-132.87467,65.2426],[-132.87439,65.24345],[-132.87288,65.23713]]]}},{"type":"Feature","properties":{"c":"91.0","o":"16579566 Canada Inc. - 100%","e":"2035-02-15"},"geometry":{"type":"Polygon","coordinates":[[[-132.86998,65.32144],[-132.86975,65.30062],[-132.84394,65.30059],[-132.8697,65.30002],[-132.86879,65.29293],[-132.87011,65.29441],[-132.8723,65.30087],[-132.87143,65.30802],[-132.88866,65.30839],[-132.87163,65.30953],[-132.87408,65.31595],[-132.8765,65.3212],[-132.86998,65.32144]]]}},{"type":"Feature","properties":{"c":"141.0","o":"16579566 Canada Inc. - 100%","e":"2035-02-15"},"geometry":{"type":"Polygon","coordinates":[[[-132.869,65.27995],[-132.86777,65.27232],[-132.86819,65.26547],[-132.86969,65.25876],[-132.87086,65.25881],[-132.8714,65.26399],[-132.86954,65.27058],[-132.88919,65.27155],[-132.86992,65.27379],[-132.874,65.27995],[-132.869,65.27995]]]}},{"type":"Feature","properties":{"c":"17.0","o":"16579566 Canada Inc. - 100%","e":"2035-01-15"},"geometry":{"type":"Polygon","coordinates":[[[-132.95971,65.25035],[-132.95835,65.24366],[-132.97554,65.24405],[-132.9756,65.24355],[-132.97687,65.24973],[-132.97685,65.25104],[-132.95971,65.25035]]]}},{"type":"Feature","properties":{"c":"13.0","o":"16579566 Canada Inc. - 100%","e":"2035-03-15"},"geometry":{"type":"Polygon","coordinates":[[[-132.90582,65.27827],[-132.90603,65.27708],[-132.90774,65.27688],[-132.90642,65.2749],[-132.90704,65.27139],[-132.90705,65.27171],[-132.92428,65.27161],[-132.923,65.27881],[-132.90582,65.27827]]]}},{"type":"Feature","properties":{"c":"9.0","o":"16579566 Canada Inc. - 100%","e":"2034-11-03"},"geometry":{"type":"Polygon","coordinates":[[[-132.81784,65.30119],[-132.83509,65.30104],[-132.83546,65.30825],[-132.81822,65.30841],[-132.81784,65.30119]]]}},{"type":"Feature","properties":{"c":"20.0","o":"16579566 Canada Inc. - 100%","e":"2035-03-15"},"geometry":{"type":"Polygon","coordinates":[[[-132.90663,65.22869],[-132.90694,65.22151],[-132.92414,65.22164],[-132.92383,65.22885],[-132.90756,65.22873],[-132.90663,65.22869]]]}},{"type":"Feature","properties":{"c":"15.0","o":"16579566 Canada Inc. - 100%","e":"2035-01-15"},"geometry":{"type":"Polygon","coordinates":[[[-132.95822,65.25728],[-132.97539,65.25676],[-132.97663,65.26396],[-132.95945,65.26448],[-132.95822,65.25728]]]}},{"type":"Feature","properties":{"c":"17.0","o":"16579566 Canada Inc. - 100%","e":"2035-01-15"},"geometry":{"type":"Polygon","coordinates":[[[-132.99379,65.24363],[-133.011,65.2435],[-133.01111,65.24991],[-133.01106,65.2497],[-132.99393,65.2504],[-132.99379,65.24363]]]}},{"type":"Feature","properties":{"c":"24.0","o":"16579566 Canada Inc. - 100%","e":"2035-01-15"},"geometry":{"type":"Polygon","coordinates":[[[-132.94237,65.19895],[-132.94357,65.19208],[-132.9607,65.19261],[-132.95951,65.19947],[-132.94237,65.19895]]]}},{"type":"Feature","properties":{"c":"14.0","o":"16579566 Canada Inc. - 100%","e":"2035-01-15"},"geometry":{"type":"Polygon","coordinates":[[[-132.94031,65.27123],[-132.94224,65.26406],[-132.95935,65.26486],[-132.95743,65.27203],[-132.94031,65.27123]]]}},{"type":"Feature","properties":{"c":"9.0","o":"16579566 Canada Inc. - 100%","e":"2034-11-03"},"geometry":{"type":"Polygon","coordinates":[[[-132.97147,65.30371],[-132.98792,65.30153],[-132.99312,65.30842],[-132.97667,65.31059],[-132.97636,65.31019],[-132.97147,65.30371]]]}},{"type":"Feature","properties":{"c":"17.0","o":"16579566 Canada Inc. - 100%","e":"2035-03-15"},"geometry":{"type":"Polygon","coordinates":[[[-132.90876,65.24459],[-132.9067,65.24447],[-132.90674,65.2431],[-132.92395,65.24317],[-132.92375,65.24972],[-132.90709,65.24963],[-132.90876,65.24459]]]}},{"type":"Feature","properties":{"c":"13.0","o":"16579566 Canada Inc. - 100%","e":"2034-11-03"},"geometry":{"type":"Polygon","coordinates":[[[-132.73311,65.27925],[-132.73335,65.27221],[-132.75057,65.27231],[-132.75034,65.27935],[-132.73311,65.27925]]]}},{"type":"Feature","properties":{"c":"21.0","o":"16579566 Canada Inc. - 100%","e":"2034-11-03"},"geometry":{"type":"Polygon","coordinates":[[[-132.99514,65.22181],[-132.99548,65.21489],[-133.01266,65.21513],[-133.01233,65.22188],[-132.99514,65.22181]]]}},{"type":"Feature","properties":{"c":"18.0","o":"16579566 Canada Inc. - 100%","e":"2035-01-15"},"geometry":{"type":"Polygon","coordinates":[[[-132.90674,65.24313],[-132.90682,65.23637],[-132.92403,65.23641],[-132.92395,65.24317],[-132.90674,65.24313]]]}},{"type":"Feature","properties":{"c":"17.0","o":"16579566 Canada Inc. - 100%","e":"2035-01-15"},"geometry":{"type":"Polygon","coordinates":[[[-132.94243,65.25031],[-132.94117,65.24327],[-132.95835,65.24366],[-132.95971,65.25035],[-132.94258,65.24965],[-132.94243,65.25031]]]}},{"type":"Feature","properties":{"c":"11.0","o":"16579566 Canada Inc. - 100%","e":"2034-11-03"},"geometry":{"type":"Polygon","coordinates":[[[-132.97631,65.28675],[-132.99343,65.28758],[-132.99199,65.29279],[-132.97507,65.29197],[-132.97631,65.28675]]]}},{"type":"Feature","properties":{"c":"10.0","o":"16579566 Canada Inc. - 100%","e":"2035-01-15"},"geometry":{"type":"Polygon","coordinates":[[[-132.68043,65.30224],[-132.68088,65.29503],[-132.69812,65.29521],[-132.69767,65.30243],[-132.68043,65.30224]]]}},{"type":"Feature","properties":{"c":"24.0","o":"16579566 Canada Inc. - 100%","e":"2035-03-15"},"geometry":{"type":"Polygon","coordinates":[[[-132.88952,65.19945],[-132.89122,65.19237],[-132.90817,65.19355],[-132.90826,65.19332],[-132.90661,65.20018],[-132.88952,65.19945]]]}},{"type":"Feature","properties":{"c":"61.0","o":"16579566 Canada Inc. - 100%","e":"2034-11-03"},"geometry":{"type":"Polygon","coordinates":[[[-132.97352,65.32356],[-132.97486,65.31983],[-132.97496,65.32229],[-132.99222,65.32217],[-132.99224,65.32259],[-132.97497,65.3226],[-132.97498,65.32356],[-132.97352,65.32356]]]}},{"type":"Feature","properties":{"c":"10.0","o":"16579566 Canada Inc. - 100%","e":"2035-03-15"},"geometry":{"type":"Polygon","coordinates":[[[-132.90552,65.29959],[-132.90669,65.29952],[-132.90541,65.29576],[-132.90535,65.29364],[-132.92259,65.29373],[-132.9228,65.30069],[-132.90556,65.30077],[-132.90552,65.29959]]]}},{"type":"Feature","properties":{"c":"15.0","o":"16579566 Canada Inc. - 100%","e":"2035-03-15"},"geometry":{"type":"Polygon","coordinates":[[[-132.83616,65.25796],[-132.83528,65.25797],[-132.8354,65.2574],[-132.85255,65.25808],[-132.85101,65.26494],[-132.83622,65.26436],[-132.83616,65.25796]]]}},{"type":"Feature","properties":{"c":"20.0","o":"16579566 Canada Inc. - 100%","e":"2035-03-15"},"geometry":{"type":"Polygon","coordinates":[[[-132.88894,65.22129],[-132.90608,65.22069],[-132.90682,65.2244],[-132.90667,65.22791],[-132.89037,65.22848],[-132.88894,65.22129]]]}},{"type":"Feature","properties":{"c":"121.0","o":"16579566 Canada Inc. - 100%","e":"2035-03-15"},"geometry":{"type":"Polygon","coordinates":[[[-132.8343,65.27845],[-132.83444,65.27925],[-132.81922,65.2791],[-132.8343,65.27845]]]}},{"type":"Feature","properties":{"c":"10.0","o":"16579566 Canada Inc. - 100%","e":"2035-01-15"},"geometry":{"type":"Polygon","coordinates":[[[-132.92259,65.29373],[-132.93983,65.29373],[-132.93989,65.29566],[-132.93885,65.30005],[-132.94003,65.30009],[-132.94005,65.3006],[-132.9228,65.30069],[-132.92259,65.29373]]]}},{"type":"Feature","properties":{"c":"11.0","o":"16579566 Canada Inc. - 100%","e":"2035-02-15"},"geometry":{"type":"Polygon","coordinates":[[[-132.7145,65.28686],[-132.7317,65.28734],[-132.73059,65.29438],[-132.71338,65.2939],[-132.7145,65.28686]]]}},{"type":"Feature","properties":{"c":"14.0","o":"16579566 Canada Inc. - 100%","e":"2034-11-03"},"geometry":{"type":"Polygon","coordinates":[[[-132.81898,65.2646],[-132.83613,65.26525],[-132.83473,65.27174],[-132.83459,65.27118],[-132.81742,65.27179],[-132.81898,65.2646]]]}},{"type":"Feature","properties":{"c":"12.0","o":"16579566 Canada Inc. - 100%","e":"2034-11-03"},"geometry":{"type":"Polygon","coordinates":[[[-132.6456,65.28663],[-132.64528,65.2841],[-132.6554,65.28194],[-132.66216,65.27998],[-132.66141,65.28605],[-132.66217,65.28626],[-132.6456,65.28663]]]}},{"type":"Feature","properties":{"c":"21.0","o":"16579566 Canada Inc. - 100%","e":"2035-01-15"},"geometry":{"type":"Polygon","coordinates":[[[-132.9428,65.21826],[-132.9439,65.21528],[-132.94241,65.21518],[-132.94236,65.21474],[-132.95953,65.21437],[-132.96043,65.22157],[-132.94326,65.22195],[-132.9428,65.21826]]]}},{"type":"Feature","properties":{"c":"131.0","o":"16579566 Canada Inc. - 100%","e":"2034-11-03"},"geometry":{"type":"Polygon","coordinates":[[[-132.97556,65.28717],[-132.94246,65.28658],[-132.9756,65.28545],[-132.97434,65.27896],[-132.97464,65.27251],[-132.97647,65.26567],[-132.95438,65.26463],[-132.97663,65.26396],[-132.97545,65.25711],[-132.97682,65.25119],[-132.97846,65.25828],[-132.98703,65.25793],[-132.98745,65.25922],[-132.97886,65.25896],[-132.97788,65.26467],[-132.9759,65.27092],[-132.99843,65.27217],[-132.97575,65.27213],[-132.97567,65.27935],[-132.9929,65.27938],[-132.97568,65.27957],[-132.9763,65.28678],[-132.97519,65.29077],[-132.97556,65.28717]]]}},{"type":"Feature","properties":{"c":"191.0","o":"16579566 Canada Inc. - 100%","e":"2035-03-15"},"geometry":{"type":"Polygon","coordinates":[[[-132.89037,65.22848],[-132.90667,65.22791],[-132.90663,65.22869],[-132.89037,65.22848]]]}},{"type":"Feature","properties":{"c":"8.0","o":"16579566 Canada Inc. - 100%","e":"2035-01-15"},"geometry":{"type":"Polygon","coordinates":[[[-133.00914,65.3155],[-132.99194,65.31495],[-132.99312,65.30842],[-133.01032,65.30896],[-133.01024,65.30943],[-133.0084,65.30954],[-133.00961,65.31292],[-133.0092,65.31517],[-133.00914,65.3155]]]}},{"type":"Feature","properties":{"c":"23.0","o":"16579566 Canada Inc. - 100%","e":"2034-11-03"},"geometry":{"type":"Polygon","coordinates":[[[-132.99572,65.20821],[-132.99485,65.201],[-133.01201,65.20064],[-133.01289,65.20784],[-133.01243,65.20785],[-132.99572,65.20821]]]}},{"type":"Feature","properties":{"c":"11.0","o":"16579566 Canada Inc. - 100%","e":"2035-02-15"},"geometry":{"type":"Polygon","coordinates":[[[-132.74935,65.2855],[-132.76655,65.28599],[-132.76658,65.28575],[-132.76657,65.29272],[-132.74933,65.29271],[-132.74935,65.2855]]]}},{"type":"Feature","properties":{"c":"22.0","o":"16579566 Canada Inc. - 100%","e":"2035-01-15"},"geometry":{"type":"Polygon","coordinates":[[[-132.90961,65.21391],[-132.90834,65.20707],[-132.92552,65.20736],[-132.92692,65.21416],[-132.90993,65.21305],[-132.90961,65.21391]]]}},{"type":"Feature","properties":{"c":"27.0","o":"16579566 Canada Inc. - 100%","e":"2035-01-15"},"geometry":{"type":"Polygon","coordinates":[[[-132.99556,65.1708],[-133.01151,65.17086],[-133.0127,65.17201],[-133.01261,65.17611],[-133.01189,65.17781],[-132.9954,65.17774],[-132.99556,65.1708]]]}},{"type":"Feature","properties":{"c":"18.0","o":"16579566 Canada Inc. - 100%","e":"2035-01-15"},"geometry":{"type":"Polygon","coordinates":[[[-132.94117,65.24327],[-132.94211,65.23606],[-132.95929,65.23645],[-132.95835,65.24366],[-132.94117,65.24327]]]}},{"type":"Feature","properties":{"c":"251.0","o":"16579566 Canada Inc. - 100%","e":"2035-01-15"},"geometry":{"type":"Polygon","coordinates":[[[-132.94329,65.18627],[-132.9441,65.18627],[-132.94327,65.19376],[-132.94327,65.19335],[-132.94329,65.18627]]]}},{"type":"Feature","properties":{"c":"5.0","o":"16579566 Canada Inc. - 100%","e":"2034-11-03"},"geometry":{"type":"Polygon","coordinates":[[[-132.9752,65.3383],[-132.975,65.3311],[-132.99227,65.33101],[-132.99247,65.33822],[-132.9752,65.3383]]]}},{"type":"Feature","properties":{"c":"16.0","o":"16579566 Canada Inc. - 100%","e":"2035-03-15"},"geometry":{"type":"Polygon","coordinates":[[[-132.89224,65.25697],[-132.88788,65.25678],[-132.88968,65.24973],[-132.9068,65.25049],[-132.90514,65.257],[-132.90512,65.25673],[-132.89224,65.25697]]]}},{"type":"Feature","properties":{"c":"23.0","o":"16579566 Canada Inc. - 100%","e":"2035-03-15"},"geometry":{"type":"Polygon","coordinates":[[[-132.88952,65.19945],[-132.90661,65.20018],[-132.90674,65.19965],[-132.90746,65.20672],[-132.89028,65.20647],[-132.88952,65.19945]]]}},{"type":"Feature","properties":{"c":"6.0","o":"16579566 Canada Inc. - 100%","e":"2035-02-15"},"geometry":{"type":"Polygon","coordinates":[[[-132.87376,65.32687],[-132.87718,65.3198],[-132.8941,65.32123],[-132.89068,65.3283],[-132.87376,65.32687]]]}},{"type":"Feature","properties":{"c":"25.0","o":"16579566 Canada Inc. - 100%","e":"2035-01-15"},"geometry":{"type":"Polygon","coordinates":[[[-132.9607,65.19261],[-132.96131,65.18601],[-132.97848,65.18605],[-132.97786,65.19289],[-132.9607,65.19261]]]}},{"type":"Feature","properties":{"c":"11.0","o":"16579566 Canada Inc. - 100%","e":"2034-11-03"},"geometry":{"type":"Polygon","coordinates":[[[-132.69618,65.29342],[-132.69629,65.29273],[-132.69794,65.29264],[-132.69686,65.28917],[-132.69732,65.28629],[-132.7145,65.28686],[-132.71338,65.2939],[-132.698,65.29347],[-132.69618,65.29342]]]}},{"type":"Feature","properties":{"c":"121.0","o":"16579566 Canada Inc. - 100%","e":"2035-02-15"},"geometry":{"type":"Polygon","coordinates":[[[-132.87011,65.29441],[-132.86879,65.29293],[-132.86847,65.28674],[-132.86897,65.28036],[-132.86894,65.28659],[-132.86969,65.29297],[-132.90425,65.29238],[-132.88718,65.2934],[-132.87011,65.29441]]]}},{"type":"Feature","properties":{"c":"12.0","o":"16579566 Canada Inc. - 100%","e":"2035-03-15"},"geometry":{"type":"Polygon","coordinates":[[[-132.834,65.28641],[-132.83606,65.28632],[-132.83644,65.27942],[-132.85178,65.27963],[-132.85123,65.2867],[-132.83606,65.28649],[-132.834,65.28641]]]}},{"type":"Feature","properties":{"c":"24.0","o":"16579566 Canada Inc. - 100%","e":"2035-03-15"},"geometry":{"type":"Polygon","coordinates":[[[-132.90899,65.2006],[-132.90891,65.1934],[-132.92609,65.19336],[-132.92617,65.20056],[-132.90899,65.2006]]]}},{"type":"Feature","properties":{"c":"14.0","o":"16579566 Canada Inc. - 100%","e":"2035-02-15"},"geometry":{"type":"Polygon","coordinates":[[[-132.80086,65.2684],[-132.80183,65.26395],[-132.81898,65.2646],[-132.81742,65.27179],[-132.80079,65.27115],[-132.80086,65.2684]]]}},{"type":"Feature","properties":{"c":"23.0","o":"16579566 Canada Inc. - 100%","e":"2035-01-15"},"geometry":{"type":"Polygon","coordinates":[[[-132.92617,65.20056],[-132.94242,65.20053],[-132.94312,65.20669],[-132.94273,65.2072],[-132.94264,65.20674],[-132.92552,65.20736],[-132.92617,65.20056]]]}},{"type":"Feature","properties":{"c":"14.0","o":"16579566 Canada Inc. - 100%","e":"2035-03-15"},"geometry":{"type":"Polygon","coordinates":[[[-132.67111,65.2717],[-132.67468,65.26781],[-132.67536,65.26545],[-132.67837,65.26538],[-132.67917,65.27164],[-132.67111,65.2717]]]}},{"type":"Feature","properties":{"c":"18.0","o":"16579566 Canada Inc. - 100%","e":"2034-11-03"},"geometry":{"type":"Polygon","coordinates":[[[-132.97627,65.23658],[-132.97652,65.23644],[-132.99348,65.23645],[-132.99379,65.24363],[-132.97658,65.24373],[-132.97627,65.23658]]]}},{"type":"Feature","properties":{"c":"9.0","o":"16579566 Canada Inc. - 100%","e":"2035-02-15"},"geometry":{"type":"Polygon","coordinates":[[[-132.80097,65.30856],[-132.8006,65.30135],[-132.81784,65.30119],[-132.81822,65.30841],[-132.80097,65.30856]]]}},{"type":"Feature","properties":{"c":"14.0","o":"16579566 Canada Inc. - 100%","e":"2035-03-15"},"geometry":{"type":"Polygon","coordinates":[[[-132.88665,65.27142],[-132.88867,65.26426],[-132.90587,65.26394],[-132.90403,65.2713],[-132.90313,65.26993],[-132.88919,65.27155],[-132.88665,65.27142]]]}},{"type":"Feature","properties":{"c":"13.0","o":"16579566 Canada Inc. - 100%","e":"2035-01-15"},"geometry":{"type":"Polygon","coordinates":[[[-132.67917,65.27164],[-132.69639,65.27151],[-132.69671,65.27872],[-132.67948,65.27886],[-132.67917,65.27164]]]}},{"type":"Feature","properties":{"c":"11.0","o":"16579566 Canada Inc. - 100%","e":"2035-01-15"},"geometry":{"type":"Polygon","coordinates":[[[-132.9576,65.29407],[-132.95833,65.28686],[-132.97556,65.28717],[-132.97482,65.29438],[-132.97339,65.29435],[-132.9576,65.29407]]]}},{"type":"Feature","properties":{"c":"12.0","o":"16579566 Canada Inc. - 100%","e":"2035-03-15"},"geometry":{"type":"Polygon","coordinates":[[[-132.90556,65.2865],[-132.90561,65.27971],[-132.92284,65.27973],[-132.9228,65.28652],[-132.90556,65.2865]]]}},{"type":"Feature","properties":{"c":"71.0","o":"16579566 Canada Inc. - 100%","e":"2035-01-15"},"geometry":{"type":"Polygon","coordinates":[[[-132.95896,65.31554],[-132.9747,65.31562],[-132.97474,65.31653],[-132.95896,65.31554]]]}},{"type":"Feature","properties":{"c":"19.0","o":"16579566 Canada Inc. - 100%","e":"2034-11-03"},"geometry":{"type":"Polygon","coordinates":[[[-132.99514,65.22964],[-133.01225,65.23037],[-133.0107,65.23675],[-133.01068,65.23632],[-132.99348,65.23645],[-132.99514,65.22964]]]}},{"type":"Feature","properties":{"c":"14.0","o":"16579566 Canada Inc. - 100%","e":"2035-02-15"},"geometry":{"type":"Polygon","coordinates":[[[-132.78353,65.2725],[-132.78371,65.26528],[-132.80093,65.26536],[-132.80075,65.27257],[-132.78353,65.2725]]]}},{"type":"Feature","properties":{"c":"12.0","o":"16579566 Canada Inc. - 100%","e":"2035-03-15"},"geometry":{"type":"Polygon","coordinates":[[[-132.85178,65.27963],[-132.86901,65.27987],[-132.86847,65.28674],[-132.85123,65.2867],[-132.85178,65.27963]]]}},{"type":"Feature","properties":{"c":"9.0","o":"16579566 Canada Inc. - 100%","e":"2035-01-15"},"geometry":{"type":"Polygon","coordinates":[[[-132.90556,65.30076],[-132.9228,65.30069],[-132.92298,65.3079],[-132.90573,65.30798],[-132.90556,65.30076]]]}},{"type":"Feature","properties":{"c":"7.0","o":"16579566 Canada Inc. - 100%","e":"2035-02-15"},"geometry":{"type":"Polygon","coordinates":[[[-132.8765,65.3212],[-132.87408,65.31595],[-132.89112,65.31481],[-132.8941,65.32123],[-132.87718,65.3198],[-132.8765,65.3212]]]}},{"type":"Feature","properties":{"c":"21.0","o":"16579566 Canada Inc. - 100%","e":"2034-11-03"},"geometry":{"type":"Polygon","coordinates":[[[-132.97794,65.22181],[-132.97829,65.21474],[-132.99548,65.21489],[-132.99514,65.22181],[-132.97794,65.22181]]]}},{"type":"Feature","properties":{"c":"18.0","o":"16579566 Canada Inc. - 100%","e":"2035-01-15"},"geometry":{"type":"Polygon","coordinates":[[[-132.95929,65.23645],[-132.97647,65.23685],[-132.97554,65.24405],[-132.95835,65.24366],[-132.95929,65.23645]]]}},{"type":"Feature","properties":{"c":"12.0","o":"16579566 Canada Inc. - 100%","e":"2035-02-15"},"geometry":{"type":"Polygon","coordinates":[[[-132.86894,65.28659],[-132.869,65.27995],[-132.874,65.27995],[-132.87452,65.28074],[-132.88126,65.27996],[-132.8862,65.27996],[-132.88617,65.28661],[-132.86894,65.28659]]]}},{"type":"Feature","properties":{"c":"18.0","o":"16579566 Canada Inc. - 100%","e":"2035-01-15"},"geometry":{"type":"Polygon","coordinates":[[[-132.99348,65.23645],[-133.01068,65.23632],[-133.011,65.2435],[-132.99379,65.24363],[-132.99348,65.23645]]]}},{"type":"Feature","properties":{"c":"12.0","o":"16579566 Canada Inc. - 100%","e":"2034-11-03"},"geometry":{"type":"Polygon","coordinates":[[[-132.69732,65.28629],[-132.69854,65.27981],[-132.69871,65.28047],[-132.71584,65.2797],[-132.7145,65.28686],[-132.69732,65.28629]]]}},{"type":"Feature","properties":{"c":"16.0","o":"16579566 Canada Inc. - 100%","e":"2035-01-15"},"geometry":{"type":"Polygon","coordinates":[[[-132.95817,65.25702],[-132.95971,65.25035],[-132.97685,65.25104],[-132.97545,65.25711],[-132.97539,65.25676],[-132.96191,65.25717],[-132.95817,65.25702]]]}},{"type":"Feature","properties":{"c":"14.0","o":"16579566 Canada Inc. - 100%","e":"2034-11-03"},"geometry":{"type":"Polygon","coordinates":[[[-132.9759,65.27092],[-132.97788,65.26467],[-132.97784,65.26489],[-132.99502,65.2654],[-132.99298,65.27187],[-132.9759,65.27092]]]}},{"type":"Feature","properties":{"c":"13.0","o":"16579566 Canada Inc. - 100%","e":"2034-11-03"},"geometry":{"type":"Polygon","coordinates":[[[-132.97567,65.27935],[-132.97575,65.27213],[-132.99298,65.27217],[-132.9929,65.27938],[-132.97567,65.27935]]]}},{"type":"Feature","properties":{"c":"10.0","o":"16579566 Canada Inc. - 100%","e":"2035-03-15"},"geometry":{"type":"Polygon","coordinates":[[[-132.66319,65.30205],[-132.66364,65.29484],[-132.68088,65.29503],[-132.68043,65.30224],[-132.66319,65.30205]]]}},{"type":"Feature","properties":{"c":"211.0","o":"16579566 Canada Inc. - 100%","e":"2035-02-15"},"geometry":{"type":"Polygon","coordinates":[[[-132.90694,65.22151],[-132.90682,65.2244],[-132.90612,65.22093],[-132.90682,65.21466],[-132.87248,65.21398],[-132.87252,65.21344],[-132.90688,65.21393],[-132.90746,65.20672],[-132.90674,65.19965],[-132.90892,65.19164],[-132.90899,65.20043],[-132.90834,65.20707],[-132.90961,65.21391],[-132.90728,65.22018],[-132.93028,65.22169],[-132.90694,65.22151]]]}},{"type":"Feature","properties":{"c":"14.0","o":"16579566 Canada Inc. - 100%","e":"2035-01-15"},"geometry":{"type":"Polygon","coordinates":[[[-132.67837,65.26538],[-132.69557,65.265],[-132.69639,65.27151],[-132.67917,65.27164],[-132.67837,65.26538]]]}},{"type":"Feature","properties":{"c":"10.0","o":"16579566 Canada Inc. - 100%","e":"2034-11-03"},"geometry":{"type":"Polygon","coordinates":[[[-132.97064,65.29921],[-132.97339,65.29435],[-132.97482,65.29438],[-132.97504,65.29223],[-132.99139,65.29385],[-132.98742,65.30087],[-132.97297,65.29944],[-132.97064,65.29921]]]}},{"type":"Feature","properties":{"c":"14.0","o":"16579566 Canada Inc. - 100%","e":"2035-01-15"},"geometry":{"type":"Polygon","coordinates":[[[-132.97455,65.27284],[-132.95743,65.27203],[-132.95935,65.26486],[-132.97647,65.26567],[-132.97464,65.27251],[-132.97455,65.27284]]]}},{"type":"Feature","properties":{"c":"7.0","o":"16579566 Canada Inc. - 100%","e":"2034-11-03"},"geometry":{"type":"Polygon","coordinates":[[[-132.97496,65.32229],[-132.97486,65.31983],[-132.97602,65.31661],[-132.97474,65.31653],[-132.9747,65.31562],[-132.97621,65.31562],[-132.97623,65.31506],[-132.99194,65.31495],[-132.99222,65.32217],[-132.97496,65.32229]]]}},{"type":"Feature","properties":{"c":"13.0","o":"16579566 Canada Inc. - 100%","e":"2034-11-03"},"geometry":{"type":"Polygon","coordinates":[[[-132.81922,65.2791],[-132.81745,65.27193],[-132.83459,65.27118],[-132.83636,65.27836],[-132.8343,65.27845],[-132.81922,65.2791]]]}},{"type":"Feature","properties":{"c":"241.0","o":"16579566 Canada Inc. - 100%","e":"2035-01-15"},"geometry":{"type":"Polygon","coordinates":[[[-132.96033,65.20668],[-132.97749,65.20633],[-132.97672,65.19956],[-132.97792,65.19226],[-133.01212,65.19308],[-133.01229,65.19179],[-133.02635,65.19278],[-133.01213,65.19416],[-133.01213,65.19383],[-132.97778,65.19374],[-132.97766,65.20096],[-132.99485,65.201],[-132.97769,65.20137],[-132.97856,65.20858],[-132.9775,65.20699],[-132.96033,65.20668]]]}},{"type":"Feature","properties":{"c":"9.0","o":"16579566 Canada Inc. - 100%","e":"2035-01-15"},"geometry":{"type":"Polygon","coordinates":[[[-132.99312,65.30842],[-132.98792,65.30153],[-133.00437,65.29936],[-133.00957,65.30624],[-133.00858,65.30637],[-132.99312,65.30842]]]}},{"type":"Feature","properties":{"c":"8.0","o":"16579566 Canada Inc. - 100%","e":"2035-01-15"},"geometry":{"type":"Polygon","coordinates":[[[-132.90691,65.31441],[-132.90578,65.30847],[-132.90616,65.30846],[-132.90598,65.30798],[-132.92298,65.3079],[-132.92421,65.31434],[-132.90698,65.31391],[-132.90691,65.31441]]]}},{"type":"Feature","properties":{"c":"9.0","o":"16579566 Canada Inc. - 100%","e":"2035-02-15"},"geometry":{"type":"Polygon","coordinates":[[[-132.87143,65.30802],[-132.87231,65.30081],[-132.88954,65.30118],[-132.88866,65.30839],[-132.87143,65.30802]]]}},{"type":"Feature","properties":{"c":"7.0","o":"16579566 Canada Inc. - 100%","e":"2035-03-15"},"geometry":{"type":"Polygon","coordinates":[[[-132.8941,65.32123],[-132.89112,65.31481],[-132.90674,65.31354],[-132.90691,65.31441],[-132.90606,65.32025],[-132.8941,65.32123]]]}},{"type":"Feature","properties":{"c":"22.0","o":"16579566 Canada Inc. - 100%","e":"2035-01-15"},"geometry":{"type":"Polygon","coordinates":[[[-132.95958,65.21389],[-132.96033,65.20668],[-132.9775,65.20699],[-132.97672,65.2142],[-132.95958,65.21389]]]}},{"type":"Feature","properties":{"c":"8.0","o":"16579566 Canada Inc. - 100%","e":"2035-01-15"},"geometry":{"type":"Polygon","coordinates":[[[-132.95896,65.31554],[-132.95917,65.30832],[-132.97502,65.3084],[-132.97636,65.31019],[-132.97621,65.31562],[-132.9747,65.31562],[-132.95896,65.31554]]]}},{"type":"Feature","properties":{"c":"121.0","o":"16579566 Canada Inc. - 100%","e":"2035-03-15"},"geometry":{"type":"Polygon","coordinates":[[[-132.90413,65.29223],[-132.90341,65.28643],[-132.90344,65.27997],[-132.88126,65.27996],[-132.90603,65.27708],[-132.90582,65.27827],[-132.94019,65.27934],[-132.94024,65.27904],[-132.95709,65.27919],[-132.94007,65.27976],[-132.90561,65.27971],[-132.90541,65.29576],[-132.90413,65.29223]]]}},{"type":"Feature","properties":{"c":"M11878","o":"16579566 Canada Inc. (100%)","e":"2027-02-24"},"geometry":{"type":"Polygon","coordinates":[[[-132.0,65.0],[-133.0,65.0],[-133.0,65.0],[-132.0,65.0]]]}},{"type":"Feature","properties":{"c":"M11888","o":"16579566 Canada Inc. (100%)","e":"2027-02-24"},"geometry":{"type":"Polygon","coordinates":[[[-133.0,65.0],[-132.0,65.0],[-132.0,65.0],[-133.0,65.0]]]}},{"type":"Feature","properties":{"c":"M11889","o":"16579566 Canada Inc. (100%)","e":"2027-02-24"},"geometry":{"type":"Polygon","coordinates":[[[-133.0,65.0],[-133.0,65.0],[-133.0,65.0],[-133.0,65.0]]]}},{"type":"Feature","properties":{"c":"M11890","o":"16579566 Canada Inc. (100%)","e":"2027-02-24"},"geometry":{"type":"Polygon","coordinates":[[[-133.0,65.0],[-133.0,65.0],[-133.0,65.0],[-133.0,65.0]]]}},{"type":"Feature","properties":{"c":"M11891","o":"16579566 Canada Inc. (100%)","e":"2027-02-24"},"geometry":{"type":"Polygon","coordinates":[[[-133.0,65.0],[-133.0,65.0],[-133.0,65.0],[-133.0,65.0]]]}},{"type":"Feature","properties":{"c":"M11899","o":"16579566 Canada Inc. (100%)","e":"2027-02-24"},"geometry":{"type":"Polygon","coordinates":[[[-133.0,65.0],[-132.0,65.0],[-133.0,65.0],[-133.0,65.0]]]}},{"type":"Feature","properties":{"c":"M11900","o":"16579566 Canada Inc. (100%)","e":"2027-02-24"},"geometry":{"type":"Polygon","coordinates":[[[-133.0,65.0],[-133.0,65.0],[-133.0,65.0],[-133.0,65.0]]]}},{"type":"Feature","properties":{"c":"M11903","o":"16579566 Canada Inc. (100%)","e":"2027-02-24"},"geometry":{"type":"Polygon","coordinates":[[[-133.0,65.0],[-132.0,65.0],[-132.0,65.0],[-133.0,65.0]]]}},{"type":"Feature","properties":{"c":"M11904","o":"16579566 Canada Inc. (100%)","e":"2027-02-24"},"geometry":{"type":"Polygon","coordinates":[[[-133.0,65.0],[-133.0,65.0],[-133.0,65.0],[-133.0,65.0]]]}},{"type":"Feature","properties":{"c":"M11905","o":"16579566 Canada Inc. (100%)","e":"2027-02-24"},"geometry":{"type":"Polygon","coordinates":[[[-133.0,65.0],[-133.0,65.0],[-133.0,65.0],[-133.0,65.0]]]}},{"type":"Feature","properties":{"c":"M11919","o":"16579566 Canada Inc. (100%)","e":"2027-07-24"},"geometry":{"type":"Polygon","coordinates":[[[-133.0,65.0],[-133.0,65.0],[-133.0,65.0],[-133.0,65.0]]]}},{"type":"Feature","properties":{"c":"M11920","o":"16579566 Canada Inc. (100%)","e":"2027-07-24"},"geometry":{"type":"Polygon","coordinates":[[[-133.0,65.0],[-133.0,65.0],[-133.0,65.0],[-133.0,65.0]]]}},{"type":"Feature","properties":{"c":"M11921","o":"16579566 Canada Inc. (100%)","e":"2027-07-24"},"geometry":{"type":"Polygon","coordinates":[[[-133.0,65.0],[-133.0,65.0],[-133.0,65.0],[-133.0,65.0]]]}},{"type":"Feature","properties":{"c":"M11922","o":"16579566 Canada Inc. (100%)","e":"2027-07-24"},"geometry":{"type":"Polygon","coordinates":[[[-133.0,65.0],[-133.0,65.0],[-133.0,65.0],[-133.0,65.0]]]}},{"type":"Feature","properties":{"c":"M11923","o":"16579566 Canada Inc. (100%)","e":"2027-07-24"},"geometry":{"type":"Polygon","coordinates":[[[-133.0,65.0],[-133.0,65.0],[-133.0,65.0],[-133.0,65.0]]]}},{"type":"Feature","properties":{"c":"M11924","o":"16579566 Canada Inc. (100%)","e":"2027-07-24"},"geometry":{"type":"Polygon","coordinates":[[[-133.0,65.0],[-133.0,65.0],[-133.0,65.0],[-133.0,65.0]]]}}]}