{"type":"FeatureCollection","features":[{"type":"Feature","properties":{"c":"YC10687","o":"Archer, Cathro & Associates (1981) Limited - 100%","e":"2031-03-27"},"geometry":{"type":"Polygon","coordinates":[[[-134.44775,65.00174],[-134.4479,65.00585],[-134.4381,65.00598],[-134.43811,65.00549],[-134.44232,65.00352],[-134.43796,65.00198],[-134.44775,65.00174]]]}},{"type":"Feature","properties":{"c":"YC10685","o":"Archer, Cathro & Associates (1981) Limited - 100%","e":"2031-03-27"},"geometry":{"type":"Polygon","coordinates":[[[-134.43702,65.006],[-134.4381,65.00598],[-134.43828,65.0101],[-134.42851,65.01024],[-134.43702,65.006]]]}},{"type":"Feature","properties":{"c":"YC10686","o":"Archer, Cathro & Associates (1981) Limited - 100%","e":"2031-03-27"},"geometry":{"type":"Polygon","coordinates":[[[-134.44805,65.00995],[-134.43828,65.0101],[-134.4381,65.00598],[-134.4479,65.00585],[-134.44805,65.00995]]]}},{"type":"Feature","properties":{"c":"Y 97524","o":"Archer, Cathro & Associates (1981) Limited - 100%","e":"2031-03-27"},"geometry":{"type":"Polygon","coordinates":[[[-134.43491,65.00093],[-134.44232,65.00352],[-134.43679,65.00611],[-134.42949,65.0035],[-134.43491,65.00093]]]}},{"type":"Feature","properties":{"c":"YC10684","o":"Archer, Cathro & Associates (1981) Limited - 100%","e":"2031-03-27"},"geometry":{"type":"Polygon","coordinates":[[[-134.4482,65.01406],[-134.43845,65.01421],[-134.43828,65.0101],[-134.44805,65.00995],[-134.4482,65.01406]]]}},{"type":"Feature","properties":{"c":"YC10681","o":"Archer, Cathro & Associates (1981) Limited - 100%","e":"2031-03-27"},"geometry":{"type":"Polygon","coordinates":[[[-134.42871,65.01435],[-134.43845,65.01421],[-134.43863,65.01832],[-134.4289,65.01847],[-134.42871,65.01435]]]}},{"type":"Feature","properties":{"c":"YC10689","o":"Archer, Cathro & Associates (1981) Limited - 100%","e":"2031-03-27"},"geometry":{"type":"Polygon","coordinates":[[[-134.42235,65.00084],[-134.42949,65.0035],[-134.42398,65.00611],[-134.41678,65.00346],[-134.42235,65.00084]]]}},{"type":"Feature","properties":{"c":"YC10688","o":"Archer, Cathro & Associates (1981) Limited - 100%","e":"2031-03-27"},"geometry":{"type":"Polygon","coordinates":[[[-134.43491,65.00093],[-134.42949,65.0035],[-134.42235,65.00084],[-134.42751,64.99834],[-134.43491,65.00093]]]}},{"type":"Feature","properties":{"c":"YC10683","o":"Archer, Cathro & Associates (1981) Limited - 100%","e":"2031-03-27"},"geometry":{"type":"Polygon","coordinates":[[[-134.42851,65.01024],[-134.43828,65.0101],[-134.43845,65.01421],[-134.42871,65.01435],[-134.42851,65.01024]]]}},{"type":"Feature","properties":{"c":"YC10691","o":"Archer, Cathro & Associates (1981) Limited - 100%","e":"2031-03-27"},"geometry":{"type":"Polygon","coordinates":[[[-134.41146,65.00603],[-134.41678,65.00346],[-134.42398,65.00611],[-134.41875,65.00869],[-134.41245,65.00639],[-134.41146,65.00603]]]}},{"type":"Feature","properties":{"c":"YC10682","o":"Archer, Cathro & Associates (1981) Limited - 100%","e":"2031-03-27"},"geometry":{"type":"Polygon","coordinates":[[[-134.43845,65.01421],[-134.4482,65.01406],[-134.44835,65.01817],[-134.43863,65.01832],[-134.43845,65.01421]]]}},{"type":"Feature","properties":{"c":"YC10690","o":"Archer, Cathro & Associates (1981) Limited - 100%","e":"2031-03-27"},"geometry":{"type":"Polygon","coordinates":[[[-134.43112,65.00897],[-134.42398,65.00611],[-134.42949,65.0035],[-134.43679,65.00611],[-134.43112,65.00897]]]}},{"type":"Feature","properties":{"c":"YC10692","o":"Archer, Cathro & Associates (1981) Limited - 100%","e":"2031-03-27"},"geometry":{"type":"Polygon","coordinates":[[[-134.42398,65.00611],[-134.43112,65.00897],[-134.42604,65.01142],[-134.41875,65.00869],[-134.42398,65.00611]]]}}]}