{"type":"FeatureCollection","features":[{"type":"Feature","properties":{"c":"YA38160","o":"Rio2 Limited - 100%","e":"2027-08-28"},"geometry":{"type":"Polygon","coordinates":[[[-134.69644,63.27468],[-134.68837,63.27278],[-134.69259,63.26915],[-134.70067,63.27105],[-134.69644,63.27468]]]}},{"type":"Feature","properties":{"c":"YA38161","o":"Rio2 Limited - 100%","e":"2027-08-28"},"geometry":{"type":"Polygon","coordinates":[[[-134.69259,63.26915],[-134.69681,63.26551],[-134.70488,63.26741],[-134.70067,63.27105],[-134.69259,63.26915]]]}},{"type":"Feature","properties":{"c":"YA38162","o":"Rio2 Limited - 100%","e":"2027-08-28"},"geometry":{"type":"Polygon","coordinates":[[[-134.7091,63.26377],[-134.70488,63.26741],[-134.69681,63.26551],[-134.70103,63.26187],[-134.70513,63.26284],[-134.7091,63.26377]]]}},{"type":"Feature","properties":{"c":"YA42733","o":"Rio2 Limited - 100%","e":"2031-09-02"},"geometry":{"type":"Polygon","coordinates":[[[-134.70658,63.26595],[-134.7091,63.26377],[-134.70513,63.26284],[-134.7141,63.26202],[-134.71591,63.26604],[-134.70698,63.26686],[-134.70658,63.26595]]]}},{"type":"Feature","properties":{"c":"YB03688","o":"Rio2 Limited - 100%","e":"2031-09-02"},"geometry":{"type":"Polygon","coordinates":[[[-134.71591,63.26604],[-134.71772,63.27006],[-134.70879,63.27088],[-134.70698,63.26686],[-134.71591,63.26604]]]}},{"type":"Feature","properties":{"c":"YA42732","o":"Rio2 Limited - 100%","e":"2031-09-02"},"geometry":{"type":"Polygon","coordinates":[[[-134.70513,63.26284],[-134.70337,63.25881],[-134.71229,63.258],[-134.7141,63.26202],[-134.70513,63.26284]]]}},{"type":"Feature","properties":{"c":"YB03690","o":"Rio2 Limited - 100%","e":"2031-09-02"},"geometry":{"type":"Polygon","coordinates":[[[-134.69992,63.27169],[-134.70536,63.267],[-134.70698,63.26686],[-134.70879,63.27088],[-134.69992,63.27169]]]}},{"type":"Feature","properties":{"c":"YA42735","o":"Rio2 Limited - 100%","e":"2031-09-02"},"geometry":{"type":"Polygon","coordinates":[[[-134.7141,63.26202],[-134.72303,63.2612],[-134.72484,63.26522],[-134.71591,63.26604],[-134.7141,63.26202]]]}}]}