{"type":"FeatureCollection","features":[{"type":"Feature","properties":{"c":NaN,"o":"Glencore Canada Corporation - 100%","e":"2037-11-07"},"geometry":{"type":"Polygon","coordinates":[[[-135.25531,64.49862],[-135.24784,64.50116],[-135.24194,64.49795],[-135.24941,64.4954],[-135.25531,64.49862]]]}},{"type":"Feature","properties":{"c":NaN,"o":"Glencore Canada Corporation - 100%","e":"2037-11-07"},"geometry":{"type":"Polygon","coordinates":[[[-135.2625,64.49617],[-135.2684,64.49938],[-135.26121,64.50184],[-135.25549,64.49856],[-135.2625,64.49617]]]}},{"type":"Feature","properties":{"c":NaN,"o":"Glencore Canada Corporation - 100%","e":"2037-11-07"},"geometry":{"type":"Polygon","coordinates":[[[-135.27537,64.50224],[-135.26947,64.49902],[-135.27668,64.49656],[-135.28258,64.49978],[-135.27537,64.50224]]]}},{"type":"Feature","properties":{"c":NaN,"o":"Glencore Canada Corporation - 100%","e":"2037-09-29"},"geometry":{"type":"Polygon","coordinates":[[[-135.26121,64.50184],[-135.2684,64.49938],[-135.2743,64.5026],[-135.26711,64.50505],[-135.26121,64.50184]]]}},{"type":"Feature","properties":{"c":NaN,"o":"Glencore Canada Corporation - 100%","e":"2040-08-28"},"geometry":{"type":"Polygon","coordinates":[[[-135.28127,64.50545],[-135.27537,64.50224],[-135.28258,64.49978],[-135.28848,64.50299],[-135.28127,64.50545]]]}},{"type":"Feature","properties":{"c":"16.0","o":"Metallic Minerals Corp. - 100%","e":"2026-11-20"},"geometry":{"type":"Polygon","coordinates":[[[-135.23603,64.49474],[-135.24194,64.49795],[-135.23448,64.50049],[-135.22856,64.49728],[-135.23603,64.49474]]]}},{"type":"Feature","properties":{"c":NaN,"o":"Glencore Canada Corporation - 100%","e":"2037-09-15"},"geometry":{"type":"Polygon","coordinates":[[[-135.2743,64.5026],[-135.2684,64.49938],[-135.26947,64.49902],[-135.27537,64.50224],[-135.2743,64.5026]]]}},{"type":"Feature","properties":{"c":NaN,"o":"Glencore Canada Corporation - 100%","e":"2037-09-15"},"geometry":{"type":"Polygon","coordinates":[[[-135.25965,64.5076],[-135.25374,64.50438],[-135.26121,64.50184],[-135.26711,64.50505],[-135.25965,64.5076]]]}},{"type":"Feature","properties":{"c":NaN,"o":"Glencore Canada Corporation - 100%","e":"2040-08-28"},"geometry":{"type":"Polygon","coordinates":[[[-135.28848,64.50299],[-135.28258,64.49978],[-135.29004,64.49723],[-135.29594,64.50045],[-135.28848,64.50299]]]}},{"type":"Feature","properties":{"c":NaN,"o":"Glencore Canada Corporation - 100%","e":"2040-08-28"},"geometry":{"type":"Polygon","coordinates":[[[-135.27382,64.508],[-135.26791,64.50478],[-135.27537,64.50224],[-135.28127,64.50545],[-135.27382,64.508]]]}},{"type":"Feature","properties":{"c":NaN,"o":"Glencore Canada Corporation - 100%","e":"2037-09-09"},"geometry":{"type":"Polygon","coordinates":[[[-135.25374,64.50438],[-135.24784,64.50116],[-135.25531,64.49862],[-135.26121,64.50184],[-135.25374,64.50438]]]}}]}