{"type":"FeatureCollection","features":[{"type":"Feature","properties":{"c":"11.0","o":"Callum Ryan - 100%","e":"2027-02-25"},"geometry":{"type":"Polygon","coordinates":[[[-136.32844,63.11364],[-136.33355,63.11695],[-136.32622,63.11926],[-136.32112,63.11595],[-136.32844,63.11364]]]}},{"type":"Feature","properties":{"c":"15.0","o":"Gordon Richards - 100%","e":"2027-06-14"},"geometry":{"type":"Polygon","coordinates":[[[-136.50435,63.17461],[-136.50781,63.17839],[-136.49941,63.17996],[-136.49595,63.17617],[-136.50435,63.17461]]]}},{"type":"Feature","properties":{"c":"38.0","o":"Callum Ryan - 100%","e":"2027-02-25"},"geometry":{"type":"Polygon","coordinates":[[[-136.32489,63.09018],[-136.32999,63.09349],[-136.32268,63.09579],[-136.31758,63.09249],[-136.32489,63.09018]]]}},{"type":"Feature","properties":{"c":"573.0","o":"Shawn Ryan - 100%","e":"2024-02-15"},"geometry":{"type":"Polygon","coordinates":[[[-136.43932,63.47314],[-136.44347,63.4768],[-136.43528,63.47865],[-136.43113,63.475],[-136.43932,63.47314]]]}},{"type":"Feature","properties":{"c":"58.0","o":"Gordon Richards - 100%","e":"2027-06-14"},"geometry":{"type":"Polygon","coordinates":[[[-136.44851,63.16725],[-136.45196,63.17104],[-136.44356,63.1726],[-136.44011,63.16881],[-136.44851,63.16725]]]}},{"type":"Feature","properties":{"c":"46.0","o":"Gordon Richards - 100%","e":"2027-06-14"},"geometry":{"type":"Polygon","coordinates":[[[-136.46876,63.16792],[-136.47222,63.17171],[-136.46382,63.17327],[-136.46036,63.16948],[-136.46876,63.16792]]]}},{"type":"Feature","properties":{"c":"43.0","o":"Callum Ryan - 100%","e":"2027-02-25"},"geometry":{"type":"Polygon","coordinates":[[[-136.30804,63.10041],[-136.31314,63.10371],[-136.30582,63.10602],[-136.30072,63.10271],[-136.30804,63.10041]]]}},{"type":"Feature","properties":{"c":"633.0","o":"Shawn Ryan - 100%","e":"2024-02-15"},"geometry":{"type":"Polygon","coordinates":[[[-136.39017,63.48425],[-136.39431,63.48791],[-136.38612,63.48976],[-136.38197,63.4861],[-136.39017,63.48425]]]}},{"type":"Feature","properties":{"c":"13.0","o":"Callum Ryan - 100%","e":"2027-02-25"},"geometry":{"type":"Polygon","coordinates":[[[-136.32112,63.11595],[-136.32622,63.11926],[-136.3189,63.12156],[-136.3138,63.11825],[-136.32112,63.11595]]]}},{"type":"Feature","properties":{"c":"64.0","o":"Ryan Gold Corp. - 100%","e":"2014-03-11"},"geometry":{"type":"Polygon","coordinates":[[[-136.28577,63.07395],[-136.29176,63.07694],[-136.28516,63.07965],[-136.27917,63.07666],[-136.28577,63.07395]]]}},{"type":"Feature","properties":{"c":"564.0","o":"Shawn Ryan - 100%","e":"2024-02-15"},"geometry":{"type":"Polygon","coordinates":[[[-136.46829,63.48955],[-136.47245,63.49321],[-136.46426,63.49506],[-136.4601,63.49141],[-136.46829,63.48955]]]}},{"type":"Feature","properties":{"c":"617.0","o":"Shawn Ryan - 100%","e":"2024-02-15"},"geometry":{"type":"Polygon","coordinates":[[[-136.39826,63.47324],[-136.4024,63.4769],[-136.39421,63.47875],[-136.39006,63.47509],[-136.39109,63.47486],[-136.39826,63.47324]]]}},{"type":"Feature","properties":{"c":"12.0","o":"Callum Ryan - 100%","e":"2027-02-25"},"geometry":{"type":"Polygon","coordinates":[[[-136.32334,63.11033],[-136.32844,63.11364],[-136.32112,63.11595],[-136.31602,63.11264],[-136.32334,63.11033]]]}},{"type":"Feature","properties":{"c":"71.0","o":"Gordon Richards - 100%","e":"2028-08-02"},"geometry":{"type":"Polygon","coordinates":[[[-136.42975,63.15744],[-136.4332,63.16123],[-136.4248,63.16279],[-136.42135,63.159],[-136.42975,63.15744]]]}},{"type":"Feature","properties":{"c":"70.0","o":"Gordon Richards - 100%","e":"2028-08-02"},"geometry":{"type":"Polygon","coordinates":[[[-136.4248,63.16279],[-136.42825,63.16658],[-136.41985,63.16814],[-136.4164,63.16435],[-136.4248,63.16279]]]}},{"type":"Feature","properties":{"c":"626.0","o":"Shawn Ryan - 100%","e":"2024-02-15"},"geometry":{"type":"Polygon","coordinates":[[[-136.41497,63.49702],[-136.41912,63.50067],[-136.41092,63.50253],[-136.40677,63.49887],[-136.41497,63.49702]]]}},{"type":"Feature","properties":{"c":"586.0","o":"Shawn Ryan - 100%","e":"2024-02-15"},"geometry":{"type":"Polygon","coordinates":[[[-136.44775,63.48961],[-136.45191,63.49326],[-136.44371,63.49512],[-136.43956,63.49146],[-136.44775,63.48961]]]}},{"type":"Feature","properties":{"c":"29.0","o":"Gordon Richards - 100%","e":"2027-06-14"},"geometry":{"type":"Polygon","coordinates":[[[-136.48755,63.17773],[-136.49101,63.18152],[-136.48261,63.18308],[-136.47914,63.17929],[-136.48755,63.17773]]]}},{"type":"Feature","properties":{"c":"27.0","o":"Gordon Richards - 100%","e":"2027-06-14"},"geometry":{"type":"Polygon","coordinates":[[[-136.48704,63.15566],[-136.47864,63.15722],[-136.47519,63.15344],[-136.48358,63.15188],[-136.48704,63.15566]]]}},{"type":"Feature","properties":{"c":"674.0","o":"Shawn Ryan - 100%","e":"2024-02-15"},"geometry":{"type":"Polygon","coordinates":[[[-136.36557,63.4898],[-136.36972,63.49346],[-136.36152,63.49531],[-136.35737,63.49165],[-136.36557,63.4898]]]}},{"type":"Feature","properties":{"c":"51.0","o":"Callum Ryan - 100%","e":"2027-02-25"},"geometry":{"type":"Polygon","coordinates":[[[-136.27875,63.10962],[-136.28385,63.11293],[-136.27652,63.11524],[-136.27143,63.11193],[-136.27875,63.10962]]]}},{"type":"Feature","properties":{"c":"32.0","o":"Callum Ryan - 100%","e":"2027-02-25"},"geometry":{"type":"Polygon","coordinates":[[[-136.2985,63.10832],[-136.3036,63.11163],[-136.29627,63.11394],[-136.29117,63.11063],[-136.2985,63.10832]]]}},{"type":"Feature","properties":{"c":"26.0","o":"Gordon Richards - 100%","e":"2027-06-14"},"geometry":{"type":"Polygon","coordinates":[[[-136.49412,63.15435],[-136.4975,63.15815],[-136.4905,63.15945],[-136.48704,63.15566],[-136.49412,63.15435]]]}},{"type":"Feature","properties":{"c":"1.0","o":"Callum Ryan - 100%","e":"2027-02-25"},"geometry":{"type":"Polygon","coordinates":[[[-136.33133,63.12257],[-136.33643,63.12587],[-136.32911,63.12818],[-136.324,63.12487],[-136.33133,63.12257]]]}},{"type":"Feature","properties":{"c":"567.0","o":"Shawn Ryan - 100%","e":"2024-02-15"},"geometry":{"type":"Polygon","coordinates":[[[-136.45178,63.4841],[-136.45594,63.48776],[-136.44775,63.48961],[-136.44359,63.48596],[-136.45178,63.4841]]]}},{"type":"Feature","properties":{"c":"571.0","o":"Shawn Ryan - 100%","e":"2024-02-15"},"geometry":{"type":"Polygon","coordinates":[[[-136.44347,63.4768],[-136.44763,63.48045],[-136.43944,63.4823],[-136.43528,63.47865],[-136.44347,63.4768]]]}},{"type":"Feature","properties":{"c":"32.0","o":"Gordon Richards - 100%","e":"2027-06-14"},"geometry":{"type":"Polygon","coordinates":[[[-136.49249,63.17238],[-136.49595,63.17617],[-136.48755,63.17773],[-136.48408,63.17394],[-136.49249,63.17238]]]}},{"type":"Feature","properties":{"c":"678.0","o":"Shawn Ryan - 100%","e":"2024-02-15"},"geometry":{"type":"Polygon","coordinates":[[[-136.35728,63.48249],[-136.36143,63.48615],[-136.35323,63.48799],[-136.34909,63.48434],[-136.35728,63.48249]]]}},{"type":"Feature","properties":{"c":"63.0","o":"Gordon Richards - 100%","e":"2028-08-02"},"geometry":{"type":"Polygon","coordinates":[[[-136.4233,63.17193],[-136.42675,63.17572],[-136.41835,63.17727],[-136.4149,63.17348],[-136.4233,63.17193]]]}},{"type":"Feature","properties":{"c":"57.0","o":"Gordon Richards - 100%","e":"2027-06-14"},"geometry":{"type":"Polygon","coordinates":[[[-136.44011,63.16881],[-136.44356,63.1726],[-136.43516,63.17416],[-136.4317,63.17037],[-136.44011,63.16881]]]}},{"type":"Feature","properties":{"c":"670.0","o":"Shawn Ryan - 100%","e":"2024-02-15"},"geometry":{"type":"Polygon","coordinates":[[[-136.37387,63.49711],[-136.37802,63.50077],[-136.36982,63.50262],[-136.36567,63.49896],[-136.37387,63.49711]]]}},{"type":"Feature","properties":{"c":"677.0","o":"Shawn Ryan - 100%","e":"2024-02-15"},"geometry":{"type":"Polygon","coordinates":[[[-136.34909,63.48434],[-136.35323,63.48799],[-136.34503,63.48984],[-136.34089,63.48619],[-136.34909,63.48434]]]}},{"type":"Feature","properties":{"c":"25.0","o":"Gordon Richards - 100%","e":"2027-06-14"},"geometry":{"type":"Polygon","coordinates":[[[-136.48704,63.15566],[-136.4905,63.15945],[-136.4821,63.16101],[-136.47864,63.15722],[-136.48704,63.15566]]]}},{"type":"Feature","properties":{"c":"26.0","o":"Callum Ryan - 100%","e":"2027-02-25"},"geometry":{"type":"Polygon","coordinates":[[[-136.32046,63.10141],[-136.32556,63.10472],[-136.31824,63.10702],[-136.31314,63.10371],[-136.32046,63.10141]]]}},{"type":"Feature","properties":{"c":"50.0","o":"Callum Ryan - 100%","e":"2027-02-25"},"geometry":{"type":"Polygon","coordinates":[[[-136.28098,63.10401],[-136.28608,63.10732],[-136.27875,63.10962],[-136.27366,63.10631],[-136.28098,63.10401]]]}},{"type":"Feature","properties":{"c":"61.0","o":"Ryan Gold Corp. - 100%","e":"2014-03-11"},"geometry":{"type":"Polygon","coordinates":[[[-136.28637,63.06826],[-136.29236,63.07124],[-136.28577,63.07395],[-136.27978,63.07097],[-136.28637,63.06826]]]}},{"type":"Feature","properties":{"c":"31.0","o":"Callum Ryan - 100%","e":"2027-02-25"},"geometry":{"type":"Polygon","coordinates":[[[-136.3036,63.11163],[-136.3087,63.11494],[-136.30137,63.11725],[-136.29627,63.11394],[-136.3036,63.11163]]]}},{"type":"Feature","properties":{"c":"655.0","o":"Shawn Ryan - 100%","e":"2024-02-15"},"geometry":{"type":"Polygon","coordinates":[[[-136.36963,63.4843],[-136.37377,63.48795],[-136.36557,63.4898],[-136.36143,63.48615],[-136.36963,63.4843]]]}},{"type":"Feature","properties":{"c":"51.0","o":"Gordon Richards - 100%","e":"2027-06-14"},"geometry":{"type":"Polygon","coordinates":[[[-136.45047,63.18018],[-136.45393,63.18397],[-136.44552,63.18553],[-136.44207,63.18174],[-136.45047,63.18018]]]}},{"type":"Feature","properties":{"c":"30.0","o":"Gordon Richards - 100%","e":"2027-06-14"},"geometry":{"type":"Polygon","coordinates":[[[-136.49595,63.17617],[-136.49941,63.17996],[-136.49101,63.18152],[-136.48755,63.17773],[-136.49595,63.17617]]]}},{"type":"Feature","properties":{"c":"52.0","o":"Callum Ryan - 100%","e":"2027-02-25"},"geometry":{"type":"Polygon","coordinates":[[[-136.27875,63.10962],[-136.27143,63.11193],[-136.26633,63.10862],[-136.27366,63.10631],[-136.27875,63.10962]]]}},{"type":"Feature","properties":{"c":"79.0","o":"Gordon Richards - 100%","e":"2028-08-02"},"geometry":{"type":"Polygon","coordinates":[[[-136.46333,63.15121],[-136.46679,63.155],[-136.45839,63.15656],[-136.45494,63.15277],[-136.46333,63.15121]]]}},{"type":"Feature","properties":{"c":"658.0","o":"Shawn Ryan - 100%","e":"2024-02-15"},"geometry":{"type":"Polygon","coordinates":[[[-136.37368,63.47879],[-136.37782,63.48245],[-136.36963,63.4843],[-136.36548,63.48064],[-136.37368,63.47879]]]}},{"type":"Feature","properties":{"c":"38.0","o":"Gordon Richards - 100%","e":"2027-06-14"},"geometry":{"type":"Polygon","coordinates":[[[-136.4821,63.16101],[-136.48556,63.1648],[-136.47716,63.16636],[-136.47371,63.16257],[-136.4821,63.16101]]]}},{"type":"Feature","properties":{"c":"610.0","o":"Shawn Ryan - 100%","e":"2024-02-15"},"geometry":{"type":"Polygon","coordinates":[[[-136.42305,63.48601],[-136.42721,63.48966],[-136.41901,63.49151],[-136.41486,63.48786],[-136.42305,63.48601]]]}},{"type":"Feature","properties":{"c":"671.0","o":"Shawn Ryan - 100%","e":"2024-02-15"},"geometry":{"type":"Polygon","coordinates":[[[-136.36152,63.49531],[-136.36567,63.49896],[-136.35747,63.50081],[-136.35332,63.49715],[-136.36152,63.49531]]]}},{"type":"Feature","properties":{"c":"12.0","o":"Gordon G. Richards - 100%","e":"2026-01-29"},"geometry":{"type":"Polygon","coordinates":[[[-136.50025,63.15321],[-136.50371,63.157],[-136.4975,63.15815],[-136.49412,63.15435],[-136.50025,63.15321]]]}},{"type":"Feature","properties":{"c":"22.0","o":"Callum Ryan - 100%","e":"2027-02-25"},"geometry":{"type":"Polygon","coordinates":[[[-136.33509,63.0968],[-136.34019,63.10011],[-136.33288,63.10241],[-136.32778,63.0991],[-136.33509,63.0968]]]}},{"type":"Feature","properties":{"c":"650.0","o":"Shawn Ryan - 100%","e":"2024-02-15"},"geometry":{"type":"Polygon","coordinates":[[[-136.39027,63.49341],[-136.39442,63.49707],[-136.38622,63.49892],[-136.38207,63.49526],[-136.39027,63.49341]]]}},{"type":"Feature","properties":{"c":"589.0","o":"Shawn Ryan - 100%","e":"2024-02-15"},"geometry":{"type":"Polygon","coordinates":[[[-136.43124,63.48416],[-136.4354,63.48781],[-136.42721,63.48966],[-136.42305,63.48601],[-136.43124,63.48416]]]}},{"type":"Feature","properties":{"c":"581.0","o":"Shawn Ryan - 100%","e":"2024-02-15"},"geometry":{"type":"Polygon","coordinates":[[[-136.44787,63.49877],[-136.45203,63.50242],[-136.44383,63.50428],[-136.43967,63.50062],[-136.44787,63.49877]]]}},{"type":"Feature","properties":{"c":"583.0","o":"Shawn Ryan - 100%","e":"2024-02-15"},"geometry":{"type":"Polygon","coordinates":[[[-136.44371,63.49512],[-136.44787,63.49877],[-136.43967,63.50062],[-136.43552,63.49697],[-136.44371,63.49512]]]}},{"type":"Feature","properties":{"c":"630.0","o":"Shawn Ryan - 100%","e":"2024-02-15"},"geometry":{"type":"Polygon","coordinates":[[[-136.40666,63.48971],[-136.41081,63.49337],[-136.40262,63.49522],[-136.39847,63.49156],[-136.40666,63.48971]]]}},{"type":"Feature","properties":{"c":"591.0","o":"Shawn Ryan - 100%","e":"2024-02-15"},"geometry":{"type":"Polygon","coordinates":[[[-136.42709,63.4805],[-136.43124,63.48416],[-136.42305,63.48601],[-136.4189,63.48235],[-136.42709,63.4805]]]}},{"type":"Feature","properties":{"c":"606.0","o":"Shawn Ryan - 100%","e":"2024-02-15"},"geometry":{"type":"Polygon","coordinates":[[[-136.43136,63.49332],[-136.43552,63.49697],[-136.42732,63.49882],[-136.42316,63.49517],[-136.43136,63.49332]]]}},{"type":"Feature","properties":{"c":"41.0","o":"Callum Ryan - 100%","e":"2027-02-25"},"geometry":{"type":"Polygon","coordinates":[[[-136.31536,63.0981],[-136.32046,63.10141],[-136.31314,63.10371],[-136.30804,63.10041],[-136.31536,63.0981]]]}},{"type":"Feature","properties":{"c":"42.0","o":"Callum Ryan - 100%","e":"2027-02-25"},"geometry":{"type":"Polygon","coordinates":[[[-136.31026,63.09479],[-136.31536,63.0981],[-136.30804,63.10041],[-136.30294,63.0971],[-136.31026,63.09479]]]}},{"type":"Feature","properties":{"c":"55.0","o":"Gordon Richards - 100%","e":"2027-06-14"},"geometry":{"type":"Polygon","coordinates":[[[-136.44356,63.1726],[-136.44702,63.17639],[-136.43861,63.17795],[-136.43516,63.17416],[-136.44356,63.1726]]]}},{"type":"Feature","properties":{"c":"672.0","o":"Shawn Ryan - 100%","e":"2024-02-15"},"geometry":{"type":"Polygon","coordinates":[[[-136.36972,63.49346],[-136.37387,63.49711],[-136.36567,63.49896],[-136.36152,63.49531],[-136.36972,63.49346]]]}},{"type":"Feature","properties":{"c":"587.0","o":"Shawn Ryan - 100%","e":"2024-02-15"},"geometry":{"type":"Polygon","coordinates":[[[-136.4354,63.48781],[-136.43956,63.49146],[-136.43136,63.49332],[-136.42721,63.48966],[-136.4354,63.48781]]]}},{"type":"Feature","properties":{"c":"21.0","o":"Gordon Richards - 100%","e":"2027-06-14"},"geometry":{"type":"Polygon","coordinates":[[[-136.49396,63.16324],[-136.49742,63.16703],[-136.48902,63.16859],[-136.48556,63.1648],[-136.49396,63.16324]]]}},{"type":"Feature","properties":{"c":"695.0","o":"Shawn Ryan - 100%","e":"2024-02-15"},"geometry":{"type":"Polygon","coordinates":[[[-136.33683,63.49169],[-136.34097,63.49535],[-136.33277,63.49719],[-136.32863,63.49354],[-136.33683,63.49169]]]}},{"type":"Feature","properties":{"c":"604.0","o":"Shawn Ryan - 100%","e":"2024-02-15"},"geometry":{"type":"Polygon","coordinates":[[[-136.43552,63.49697],[-136.43967,63.50062],[-136.43148,63.50248],[-136.42732,63.49882],[-136.43552,63.49697]]]}},{"type":"Feature","properties":{"c":"76.0","o":"Gordon Richards - 100%","e":"2028-08-02"},"geometry":{"type":"Polygon","coordinates":[[[-136.45,63.15811],[-136.45345,63.1619],[-136.44505,63.16346],[-136.4416,63.15967],[-136.45,63.15811]]]}},{"type":"Feature","properties":{"c":"625.0","o":"Shawn Ryan - 100%","e":"2024-02-15"},"geometry":{"type":"Polygon","coordinates":[[[-136.40677,63.49887],[-136.41092,63.50253],[-136.40272,63.50438],[-136.39857,63.50072],[-136.40677,63.49887]]]}},{"type":"Feature","properties":{"c":"17.0","o":"Gordon Richards - 100%","e":"2027-06-14"},"geometry":{"type":"Polygon","coordinates":[[[-136.50089,63.17082],[-136.50435,63.17461],[-136.49595,63.17617],[-136.49249,63.17238],[-136.50089,63.17082]]]}},{"type":"Feature","properties":{"c":"566.0","o":"Shawn Ryan - 100%","e":"2024-02-15"},"geometry":{"type":"Polygon","coordinates":[[[-136.46413,63.4859],[-136.46829,63.48955],[-136.4601,63.49141],[-136.45594,63.48776],[-136.46413,63.4859]]]}},{"type":"Feature","properties":{"c":"10.0","o":"Callum Ryan - 100%","e":"2027-02-25"},"geometry":{"type":"Polygon","coordinates":[[[-136.33066,63.10803],[-136.33576,63.11134],[-136.32844,63.11364],[-136.32334,63.11033],[-136.33066,63.10803]]]}},{"type":"Feature","properties":{"c":"592.0","o":"Shawn Ryan - 100%","e":"2024-02-15"},"geometry":{"type":"Polygon","coordinates":[[[-136.43528,63.47865],[-136.43944,63.4823],[-136.43124,63.48416],[-136.42709,63.4805],[-136.43528,63.47865]]]}},{"type":"Feature","properties":{"c":"19.0","o":"Callum Ryan - 100%","e":"2027-02-25"},"geometry":{"type":"Polygon","coordinates":[[[-136.29915,63.12286],[-136.30425,63.12617],[-136.29692,63.12848],[-136.29182,63.12517],[-136.29915,63.12286]]]}},{"type":"Feature","properties":{"c":"80.0","o":"Gordon Richards - 100%","e":"2028-08-02"},"geometry":{"type":"Polygon","coordinates":[[[-136.46679,63.155],[-136.47025,63.15879],[-136.46185,63.16034],[-136.45839,63.15656],[-136.46679,63.155]]]}},{"type":"Feature","properties":{"c":"578.0","o":"Shawn Ryan - 100%","e":"2024-02-15"},"geometry":{"type":"Polygon","coordinates":[[[-136.4392,63.46398],[-136.44335,63.46764],[-136.43517,63.46949],[-136.43101,63.46583],[-136.4392,63.46398]]]}},{"type":"Feature","properties":{"c":"42.0","o":"Gordon Richards - 100%","e":"2027-06-14"},"geometry":{"type":"Polygon","coordinates":[[[-136.47568,63.1755],[-136.47914,63.17929],[-136.47074,63.18085],[-136.46728,63.17706],[-136.47568,63.1755]]]}},{"type":"Feature","properties":{"c":"608.0","o":"Shawn Ryan - 100%","e":"2024-02-15"},"geometry":{"type":"Polygon","coordinates":[[[-136.42721,63.48966],[-136.43136,63.49332],[-136.42316,63.49517],[-136.41901,63.49151],[-136.42721,63.48966]]]}},{"type":"Feature","properties":{"c":"39.0","o":"Callum Ryan - 100%","e":"2027-02-25"},"geometry":{"type":"Polygon","coordinates":[[[-136.32268,63.09579],[-136.32778,63.0991],[-136.32046,63.10141],[-136.31536,63.0981],[-136.32268,63.09579]]]}},{"type":"Feature","properties":{"c":"49.0","o":"Gordon Richards - 100%","e":"2027-06-14"},"geometry":{"type":"Polygon","coordinates":[[[-136.45345,63.1619],[-136.45691,63.16569],[-136.44851,63.16725],[-136.44505,63.16346],[-136.45345,63.1619]]]}},{"type":"Feature","properties":{"c":"63.0","o":"Ryan Gold Corp. - 100%","e":"2014-03-11"},"geometry":{"type":"Polygon","coordinates":[[[-136.29236,63.07124],[-136.29835,63.07423],[-136.29176,63.07694],[-136.28577,63.07395],[-136.29236,63.07124]]]}},{"type":"Feature","properties":{"c":"5.0","o":"Callum Ryan - 100%","e":"2027-02-25"},"geometry":{"type":"Polygon","coordinates":[[[-136.31668,63.12718],[-136.32178,63.13049],[-136.31446,63.13279],[-136.30935,63.12948],[-136.31668,63.12718]]]}},{"type":"Feature","properties":{"c":"34.0","o":"Callum Ryan - 100%","e":"2027-02-25"},"geometry":{"type":"Polygon","coordinates":[[[-136.29117,63.11063],[-136.29627,63.11394],[-136.28895,63.11624],[-136.28385,63.11293],[-136.29117,63.11063]]]}},{"type":"Feature","properties":{"c":"20.0","o":"Gordon Richards - 100%","e":"2027-06-14"},"geometry":{"type":"Polygon","coordinates":[[[-136.50284,63.16602],[-136.50401,63.16778],[-136.5061,63.16985],[-136.50089,63.17082],[-136.49742,63.16703],[-136.50284,63.16602]]]}},{"type":"Feature","properties":{"c":"675.0","o":"Shawn Ryan - 100%","e":"2024-02-15"},"geometry":{"type":"Polygon","coordinates":[[[-136.35323,63.48799],[-136.35737,63.49165],[-136.34917,63.4935],[-136.34503,63.48984],[-136.35323,63.48799]]]}},{"type":"Feature","properties":{"c":"28.0","o":"Callum Ryan - 100%","e":"2027-02-25"},"geometry":{"type":"Polygon","coordinates":[[[-136.31314,63.10371],[-136.31824,63.10702],[-136.31092,63.10933],[-136.30582,63.10602],[-136.31314,63.10371]]]}},{"type":"Feature","properties":{"c":"654.0","o":"Shawn Ryan - 100%","e":"2024-02-15"},"geometry":{"type":"Polygon","coordinates":[[[-136.38197,63.4861],[-136.38612,63.48976],[-136.37792,63.49161],[-136.37377,63.48795],[-136.38197,63.4861]]]}},{"type":"Feature","properties":{"c":"15.0","o":"Callum Ryan - 100%","e":"2027-02-25"},"geometry":{"type":"Polygon","coordinates":[[[-136.3138,63.11825],[-136.3189,63.12156],[-136.31158,63.12387],[-136.30647,63.12056],[-136.3138,63.11825]]]}},{"type":"Feature","properties":{"c":"696.0","o":"Shawn Ryan - 100%","e":"2024-02-15"},"geometry":{"type":"Polygon","coordinates":[[[-136.34503,63.48984],[-136.34917,63.4935],[-136.34097,63.49535],[-136.33683,63.49169],[-136.34503,63.48984]]]}},{"type":"Feature","properties":{"c":"10.0","o":"Gordon G. Richards - 100%","e":"2026-01-29"},"geometry":{"type":"Polygon","coordinates":[[[-136.50371,63.157],[-136.50717,63.16078],[-136.50083,63.16196],[-136.4975,63.15815],[-136.50371,63.157]]]}},{"type":"Feature","properties":{"c":"13.0","o":"Gordon G. Richards - 100%","e":"2026-01-29"},"geometry":{"type":"Polygon","coordinates":[[[-136.50518,63.14786],[-136.50864,63.15165],[-136.50025,63.15321],[-136.49679,63.14942],[-136.50518,63.14786]]]}},{"type":"Feature","properties":{"c":"561.0","o":"Shawn Ryan - 100%","e":"2024-02-15"},"geometry":{"type":"Polygon","coordinates":[[[-136.46426,63.49506],[-136.46842,63.49871],[-136.46022,63.50057],[-136.45607,63.49692],[-136.46426,63.49506]]]}},{"type":"Feature","properties":{"c":"673.0","o":"Shawn Ryan - 100%","e":"2024-02-15"},"geometry":{"type":"Polygon","coordinates":[[[-136.35737,63.49165],[-136.36152,63.49531],[-136.35332,63.49715],[-136.34917,63.4935],[-136.35737,63.49165]]]}},{"type":"Feature","properties":{"c":"48.0","o":"Gordon Richards - 100%","e":"2027-06-14"},"geometry":{"type":"Polygon","coordinates":[[[-136.46531,63.16413],[-136.46876,63.16792],[-136.46036,63.16948],[-136.45691,63.16569],[-136.46531,63.16413]]]}},{"type":"Feature","properties":{"c":"59.0","o":"Gordon Richards - 100%","e":"2027-06-14"},"geometry":{"type":"Polygon","coordinates":[[[-136.43665,63.16502],[-136.44011,63.16881],[-136.4317,63.17037],[-136.42825,63.16658],[-136.43665,63.16502]]]}},{"type":"Feature","properties":{"c":"594.0","o":"Shawn Ryan - 100%","e":"2024-02-15"},"geometry":{"type":"Polygon","coordinates":[[[-136.43113,63.475],[-136.43528,63.47865],[-136.42709,63.4805],[-136.42294,63.47685],[-136.43113,63.475]]]}},{"type":"Feature","properties":{"c":"64.0","o":"Gordon Richards - 100%","e":"2028-08-02"},"geometry":{"type":"Polygon","coordinates":[[[-136.4317,63.17037],[-136.43516,63.17416],[-136.42675,63.17572],[-136.4233,63.17193],[-136.4317,63.17037]]]}},{"type":"Feature","properties":{"c":"61.0","o":"Gordon Richards - 100%","e":"2028-08-02"},"geometry":{"type":"Polygon","coordinates":[[[-136.42675,63.17572],[-136.43021,63.17951],[-136.4259,63.1803],[-136.42278,63.17991],[-136.42085,63.18002],[-136.41835,63.17727],[-136.42675,63.17572]]]}},{"type":"Feature","properties":{"c":"585.0","o":"Shawn Ryan - 100%","e":"2024-02-15"},"geometry":{"type":"Polygon","coordinates":[[[-136.43956,63.49146],[-136.44371,63.49512],[-136.43552,63.49697],[-136.43136,63.49332],[-136.43956,63.49146]]]}},{"type":"Feature","properties":{"c":"611.0","o":"Shawn Ryan - 100%","e":"2024-02-15"},"geometry":{"type":"Polygon","coordinates":[[[-136.41071,63.48421],[-136.41486,63.48786],[-136.40666,63.48971],[-136.40251,63.48606],[-136.41071,63.48421]]]}},{"type":"Feature","properties":{"c":"562.0","o":"Shawn Ryan - 100%","e":"2024-02-15"},"geometry":{"type":"Polygon","coordinates":[[[-136.47245,63.49321],[-136.47661,63.49686],[-136.46842,63.49871],[-136.46426,63.49506],[-136.47245,63.49321]]]}},{"type":"Feature","properties":{"c":"615.0","o":"Shawn Ryan - 100%","e":"2024-02-15"},"geometry":{"type":"Polygon","coordinates":[[[-136.4024,63.4769],[-136.40655,63.48055],[-136.39836,63.4824],[-136.39421,63.47875],[-136.4024,63.4769]]]}},{"type":"Feature","properties":{"c":"43.0","o":"Gordon Richards - 100%","e":"2027-06-14"},"geometry":{"type":"Polygon","coordinates":[[[-136.46382,63.17327],[-136.46728,63.17706],[-136.45888,63.17862],[-136.45542,63.17483],[-136.46382,63.17327]]]}},{"type":"Feature","properties":{"c":"563.0","o":"Shawn Ryan - 100%","e":"2024-02-15"},"geometry":{"type":"Polygon","coordinates":[[[-136.4601,63.49141],[-136.46426,63.49506],[-136.45607,63.49692],[-136.45191,63.49326],[-136.4601,63.49141]]]}},{"type":"Feature","properties":{"c":"694.0","o":"Shawn Ryan - 100%","e":"2024-02-15"},"geometry":{"type":"Polygon","coordinates":[[[-136.34917,63.4935],[-136.35332,63.49715],[-136.34512,63.499],[-136.34097,63.49535],[-136.34917,63.4935]]]}},{"type":"Feature","properties":{"c":"20.0","o":"Callum Ryan - 100%","e":"2027-02-25"},"geometry":{"type":"Polygon","coordinates":[[[-136.29405,63.11955],[-136.29915,63.12286],[-136.29182,63.12517],[-136.28672,63.12186],[-136.29405,63.11955]]]}},{"type":"Feature","properties":{"c":"16.0","o":"Callum Ryan - 100%","e":"2027-02-25"},"geometry":{"type":"Polygon","coordinates":[[[-136.3087,63.11494],[-136.3138,63.11825],[-136.30647,63.12056],[-136.30137,63.11725],[-136.3087,63.11494]]]}},{"type":"Feature","properties":{"c":"574.0","o":"Shawn Ryan - 100%","e":"2024-02-15"},"geometry":{"type":"Polygon","coordinates":[[[-136.44751,63.47129],[-136.45166,63.47494],[-136.44347,63.4768],[-136.43932,63.47314],[-136.44751,63.47129]]]}},{"type":"Feature","properties":{"c":"634.0","o":"Shawn Ryan - 100%","e":"2024-02-15"},"geometry":{"type":"Polygon","coordinates":[[[-136.39836,63.4824],[-136.40251,63.48606],[-136.39431,63.48791],[-136.39017,63.48425],[-136.39836,63.4824]]]}},{"type":"Feature","properties":{"c":"17.0","o":"Callum Ryan - 100%","e":"2027-02-25"},"geometry":{"type":"Polygon","coordinates":[[[-136.30647,63.12056],[-136.31158,63.12387],[-136.30425,63.12617],[-136.29915,63.12286],[-136.30647,63.12056]]]}},{"type":"Feature","properties":{"c":"48.0","o":"Callum Ryan - 100%","e":"2027-02-25"},"geometry":{"type":"Polygon","coordinates":[[[-136.2883,63.1017],[-136.2934,63.10502],[-136.28608,63.10732],[-136.28098,63.10401],[-136.2883,63.1017]]]}},{"type":"Feature","properties":{"c":"14.0","o":"Callum Ryan - 100%","e":"2027-02-25"},"geometry":{"type":"Polygon","coordinates":[[[-136.31602,63.11264],[-136.32112,63.11595],[-136.3138,63.11825],[-136.3087,63.11494],[-136.31602,63.11264]]]}},{"type":"Feature","properties":{"c":"23.0","o":"Gordon Richards - 100%","e":"2027-06-14"},"geometry":{"type":"Polygon","coordinates":[[[-136.4905,63.15945],[-136.49396,63.16324],[-136.48556,63.1648],[-136.4821,63.16101],[-136.4905,63.15945]]]}},{"type":"Feature","properties":{"c":"648.0","o":"Shawn Ryan - 100%","e":"2024-02-15"},"geometry":{"type":"Polygon","coordinates":[[[-136.39442,63.49707],[-136.39857,63.50072],[-136.39037,63.50257],[-136.38622,63.49892],[-136.39442,63.49707]]]}},{"type":"Feature","properties":{"c":"697.0","o":"Shawn Ryan - 100%","e":"2024-02-15"},"geometry":{"type":"Polygon","coordinates":[[[-136.33683,63.49169],[-136.32863,63.49354],[-136.32449,63.48988],[-136.33269,63.48803],[-136.33683,63.49169]]]}},{"type":"Feature","properties":{"c":"40.0","o":"Callum Ryan - 100%","e":"2027-02-25"},"geometry":{"type":"Polygon","coordinates":[[[-136.31758,63.09249],[-136.32268,63.09579],[-136.31536,63.0981],[-136.31026,63.09479],[-136.31758,63.09249]]]}},{"type":"Feature","properties":{"c":"595.0","o":"Shawn Ryan - 100%","e":"2024-02-15"},"geometry":{"type":"Polygon","coordinates":[[[-136.41879,63.47319],[-136.42294,63.47685],[-136.41475,63.4787],[-136.4106,63.47505],[-136.41879,63.47319]]]}},{"type":"Feature","properties":{"c":"656.0","o":"Shawn Ryan - 100%","e":"2024-02-15"},"geometry":{"type":"Polygon","coordinates":[[[-136.37782,63.48245],[-136.38197,63.4861],[-136.37377,63.48795],[-136.36963,63.4843],[-136.37782,63.48245]]]}},{"type":"Feature","properties":{"c":"584.0","o":"Shawn Ryan - 100%","e":"2024-02-15"},"geometry":{"type":"Polygon","coordinates":[[[-136.45191,63.49326],[-136.45607,63.49692],[-136.44787,63.49877],[-136.44371,63.49512],[-136.45191,63.49326]]]}},{"type":"Feature","properties":{"c":"49.0","o":"Callum Ryan - 100%","e":"2027-02-25"},"geometry":{"type":"Polygon","coordinates":[[[-136.28608,63.10732],[-136.29117,63.11063],[-136.28385,63.11293],[-136.27875,63.10962],[-136.28608,63.10732]]]}},{"type":"Feature","properties":{"c":"614.0","o":"Shawn Ryan - 100%","e":"2024-02-15"},"geometry":{"type":"Polygon","coordinates":[[[-136.41475,63.4787],[-136.4189,63.48235],[-136.41071,63.48421],[-136.40655,63.48055],[-136.41475,63.4787]]]}},{"type":"Feature","properties":{"c":"45.0","o":"Callum Ryan - 100%","e":"2027-02-25"},"geometry":{"type":"Polygon","coordinates":[[[-136.30072,63.10271],[-136.30582,63.10602],[-136.2985,63.10832],[-136.2934,63.10502],[-136.30072,63.10271]]]}},{"type":"Feature","properties":{"c":"559.0","o":"Shawn Ryan - 100%","e":"2024-02-15"},"geometry":{"type":"Polygon","coordinates":[[[-136.46842,63.49871],[-136.47258,63.50237],[-136.46439,63.50422],[-136.46022,63.50057],[-136.46842,63.49871]]]}},{"type":"Feature","properties":{"c":"568.0","o":"Shawn Ryan - 100%","e":"2024-02-15"},"geometry":{"type":"Polygon","coordinates":[[[-136.45998,63.48225],[-136.46413,63.4859],[-136.45594,63.48776],[-136.45178,63.4841],[-136.45998,63.48225]]]}},{"type":"Feature","properties":{"c":"69.0","o":"Gordon Richards - 100%","e":"2028-08-02"},"geometry":{"type":"Polygon","coordinates":[[[-136.42135,63.159],[-136.4248,63.16279],[-136.4164,63.16435],[-136.41295,63.16056],[-136.42135,63.159]]]}},{"type":"Feature","properties":{"c":"609.0","o":"Shawn Ryan - 100%","e":"2024-02-15"},"geometry":{"type":"Polygon","coordinates":[[[-136.41486,63.48786],[-136.41901,63.49151],[-136.41081,63.49337],[-136.40666,63.48971],[-136.41486,63.48786]]]}},{"type":"Feature","properties":{"c":"657.0","o":"Shawn Ryan - 100%","e":"2024-02-15"},"geometry":{"type":"Polygon","coordinates":[[[-136.36548,63.48064],[-136.36963,63.4843],[-136.36143,63.48615],[-136.35728,63.48249],[-136.36548,63.48064]]]}},{"type":"Feature","properties":{"c":"78.0","o":"Gordon Richards - 100%","e":"2028-08-02"},"geometry":{"type":"Polygon","coordinates":[[[-136.45839,63.15656],[-136.46185,63.16034],[-136.45345,63.1619],[-136.45,63.15811],[-136.45839,63.15656]]]}},{"type":"Feature","properties":{"c":"40.0","o":"Gordon Richards - 100%","e":"2027-06-14"},"geometry":{"type":"Polygon","coordinates":[[[-136.47864,63.15722],[-136.4821,63.16101],[-136.47371,63.16257],[-136.47025,63.15879],[-136.47864,63.15722]]]}},{"type":"Feature","properties":{"c":"3.0","o":"Callum Ryan - 100%","e":"2027-02-25"},"geometry":{"type":"Polygon","coordinates":[[[-136.324,63.12487],[-136.32911,63.12818],[-136.32178,63.13049],[-136.31668,63.12718],[-136.324,63.12487]]]}},{"type":"Feature","properties":{"c":"31.0","o":"Gordon Richards - 100%","e":"2027-06-14"},"geometry":{"type":"Polygon","coordinates":[[[-136.48408,63.17394],[-136.48755,63.17773],[-136.47914,63.17929],[-136.47568,63.1755],[-136.48408,63.17394]]]}},{"type":"Feature","properties":{"c":"560.0","o":"Shawn Ryan - 100%","e":"2024-02-15"},"geometry":{"type":"Polygon","coordinates":[[[-136.47661,63.49686],[-136.48078,63.50051],[-136.47258,63.50237],[-136.46842,63.49871],[-136.47661,63.49686]]]}},{"type":"Feature","properties":{"c":"693.0","o":"Shawn Ryan - 100%","e":"2024-02-15"},"geometry":{"type":"Polygon","coordinates":[[[-136.34097,63.49535],[-136.34512,63.499],[-136.33691,63.50085],[-136.33277,63.49719],[-136.34097,63.49535]]]}},{"type":"Feature","properties":{"c":"569.0","o":"Shawn Ryan - 100%","e":"2024-02-15"},"geometry":{"type":"Polygon","coordinates":[[[-136.44763,63.48045],[-136.45178,63.4841],[-136.44359,63.48596],[-136.43944,63.4823],[-136.44763,63.48045]]]}},{"type":"Feature","properties":{"c":"6.0","o":"Callum Ryan - 100%","e":"2027-02-25"},"geometry":{"type":"Polygon","coordinates":[[[-136.31158,63.12387],[-136.31668,63.12718],[-136.30935,63.12948],[-136.30425,63.12617],[-136.31158,63.12387]]]}},{"type":"Feature","properties":{"c":"56.0","o":"Gordon Richards - 100%","e":"2027-06-14"},"geometry":{"type":"Polygon","coordinates":[[[-136.45196,63.17104],[-136.45542,63.17483],[-136.44702,63.17639],[-136.44356,63.1726],[-136.45196,63.17104]]]}},{"type":"Feature","properties":{"c":"36.0","o":"Gordon Richards - 100%","e":"2027-06-14"},"geometry":{"type":"Polygon","coordinates":[[[-136.48556,63.1648],[-136.48902,63.16859],[-136.48062,63.17015],[-136.47716,63.16636],[-136.48556,63.1648]]]}},{"type":"Feature","properties":{"c":"19.0","o":"Gordon Richards - 100%","e":"2027-06-14"},"geometry":{"type":"Polygon","coordinates":[[[-136.49742,63.16703],[-136.50089,63.17082],[-136.49249,63.17238],[-136.48902,63.16859],[-136.49742,63.16703]]]}},{"type":"Feature","properties":{"c":"14.0","o":"Gordon G. Richards - 100%","e":"2026-01-29"},"geometry":{"type":"Polygon","coordinates":[[[-136.49679,63.14942],[-136.50025,63.15321],[-136.49412,63.15435],[-136.49111,63.15048],[-136.49679,63.14942]]]}},{"type":"Feature","properties":{"c":"618.0","o":"Shawn Ryan - 100%","e":"2024-02-15"},"geometry":{"type":"Polygon","coordinates":[[[-136.40645,63.47139],[-136.4106,63.47505],[-136.4024,63.4769],[-136.39826,63.47324],[-136.40203,63.47239],[-136.40645,63.47139]]]}},{"type":"Feature","properties":{"c":"575.0","o":"Shawn Ryan - 100%","e":"2024-02-15"},"geometry":{"type":"Polygon","coordinates":[[[-136.43517,63.46949],[-136.43932,63.47314],[-136.43113,63.475],[-136.42698,63.47134],[-136.43517,63.46949]]]}},{"type":"Feature","properties":{"c":"39.0","o":"Gordon Richards - 100%","e":"2027-06-14"},"geometry":{"type":"Polygon","coordinates":[[[-136.47025,63.15879],[-136.47371,63.16257],[-136.46531,63.16413],[-136.46185,63.16034],[-136.47025,63.15879]]]}},{"type":"Feature","properties":{"c":"52.0","o":"Gordon Richards - 100%","e":"2027-06-14"},"geometry":{"type":"Polygon","coordinates":[[[-136.45888,63.17862],[-136.46234,63.18241],[-136.45393,63.18397],[-136.45047,63.18018],[-136.45888,63.17862]]]}},{"type":"Feature","properties":{"c":"25.0","o":"Callum Ryan - 100%","e":"2027-02-25"},"geometry":{"type":"Polygon","coordinates":[[[-136.32556,63.10472],[-136.33066,63.10803],[-136.32334,63.11033],[-136.31824,63.10702],[-136.32556,63.10472]]]}},{"type":"Feature","properties":{"c":"598.0","o":"Shawn Ryan - 100%","e":"2024-02-15"},"geometry":{"type":"Polygon","coordinates":[[[-136.42283,63.46769],[-136.42698,63.47134],[-136.41879,63.47319],[-136.41464,63.46954],[-136.42283,63.46769]]]}},{"type":"Feature","properties":{"c":"60.0","o":"Gordon Richards - 100%","e":"2027-06-14"},"geometry":{"type":"Polygon","coordinates":[[[-136.44505,63.16346],[-136.44851,63.16725],[-136.44011,63.16881],[-136.43665,63.16502],[-136.44505,63.16346]]]}},{"type":"Feature","properties":{"c":"576.0","o":"Shawn Ryan - 100%","e":"2024-02-15"},"geometry":{"type":"Polygon","coordinates":[[[-136.44335,63.46764],[-136.44751,63.47129],[-136.43932,63.47314],[-136.43517,63.46949],[-136.44335,63.46764]]]}},{"type":"Feature","properties":{"c":"23.0","o":"Callum Ryan - 100%","e":"2027-02-25"},"geometry":{"type":"Polygon","coordinates":[[[-136.33288,63.10241],[-136.33798,63.10572],[-136.33066,63.10803],[-136.32556,63.10472],[-136.33288,63.10241]]]}},{"type":"Feature","properties":{"c":"588.0","o":"Shawn Ryan - 100%","e":"2024-02-15"},"geometry":{"type":"Polygon","coordinates":[[[-136.44359,63.48596],[-136.44775,63.48961],[-136.43956,63.49146],[-136.4354,63.48781],[-136.44359,63.48596]]]}},{"type":"Feature","properties":{"c":"37.0","o":"Callum Ryan - 100%","e":"2027-02-25"},"geometry":{"type":"Polygon","coordinates":[[[-136.32999,63.09349],[-136.33509,63.0968],[-136.32778,63.0991],[-136.32268,63.09579],[-136.32999,63.09349]]]}},{"type":"Feature","properties":{"c":"627.0","o":"Shawn Ryan - 100%","e":"2024-02-15"},"geometry":{"type":"Polygon","coordinates":[[[-136.40262,63.49522],[-136.40677,63.49887],[-136.39857,63.50072],[-136.39442,63.49707],[-136.40262,63.49522]]]}},{"type":"Feature","properties":{"c":"77.0","o":"Gordon Richards - 100%","e":"2028-08-02"},"geometry":{"type":"Polygon","coordinates":[[[-136.45494,63.15277],[-136.45839,63.15656],[-136.45,63.15811],[-136.44654,63.15433],[-136.45494,63.15277]]]}},{"type":"Feature","properties":{"c":"2.0","o":"Callum Ryan - 100%","e":"2027-02-25"},"geometry":{"type":"Polygon","coordinates":[[[-136.32622,63.11926],[-136.33133,63.12257],[-136.324,63.12487],[-136.3189,63.12156],[-136.32622,63.11926]]]}},{"type":"Feature","properties":{"c":"669.0","o":"Shawn Ryan - 100%","e":"2024-02-15"},"geometry":{"type":"Polygon","coordinates":[[[-136.36567,63.49896],[-136.36982,63.50262],[-136.36161,63.50447],[-136.35747,63.50081],[-136.36567,63.49896]]]}},{"type":"Feature","properties":{"c":"35.0","o":"Callum Ryan - 100%","e":"2027-02-25"},"geometry":{"type":"Polygon","coordinates":[[[-136.28895,63.11624],[-136.29405,63.11955],[-136.28672,63.12186],[-136.28162,63.11855],[-136.28895,63.11624]]]}},{"type":"Feature","properties":{"c":"65.0","o":"Gordon Richards - 100%","e":"2028-08-02"},"geometry":{"type":"Polygon","coordinates":[[[-136.41985,63.16814],[-136.4233,63.17193],[-136.4149,63.17348],[-136.41144,63.16969],[-136.41985,63.16814]]]}},{"type":"Feature","properties":{"c":"582.0","o":"Shawn Ryan - 100%","e":"2024-02-15"},"geometry":{"type":"Polygon","coordinates":[[[-136.45607,63.49692],[-136.46022,63.50057],[-136.45203,63.50242],[-136.44787,63.49877],[-136.45607,63.49692]]]}},{"type":"Feature","properties":{"c":"629.0","o":"Shawn Ryan - 100%","e":"2024-02-15"},"geometry":{"type":"Polygon","coordinates":[[[-136.39847,63.49156],[-136.40262,63.49522],[-136.39442,63.49707],[-136.39027,63.49341],[-136.39847,63.49156]]]}},{"type":"Feature","properties":{"c":"34.0","o":"Gordon Richards - 100%","e":"2027-06-14"},"geometry":{"type":"Polygon","coordinates":[[[-136.48902,63.16859],[-136.49249,63.17238],[-136.48408,63.17394],[-136.48062,63.17015],[-136.48902,63.16859]]]}},{"type":"Feature","properties":{"c":"74.0","o":"Gordon Richards - 100%","e":"2028-08-02"},"geometry":{"type":"Polygon","coordinates":[[[-136.4416,63.15967],[-136.44505,63.16346],[-136.43665,63.16502],[-136.4332,63.16123],[-136.4416,63.15967]]]}},{"type":"Feature","properties":{"c":"565.0","o":"Shawn Ryan - 100%","e":"2024-02-15"},"geometry":{"type":"Polygon","coordinates":[[[-136.45594,63.48776],[-136.4601,63.49141],[-136.45191,63.49326],[-136.44775,63.48961],[-136.45594,63.48776]]]}},{"type":"Feature","properties":{"c":"651.0","o":"Shawn Ryan - 100%","e":"2024-02-15"},"geometry":{"type":"Polygon","coordinates":[[[-136.37792,63.49161],[-136.38207,63.49526],[-136.37387,63.49711],[-136.36972,63.49346],[-136.37792,63.49161]]]}},{"type":"Feature","properties":{"c":"44.0","o":"Gordon Richards - 100%","e":"2027-06-14"},"geometry":{"type":"Polygon","coordinates":[[[-136.47222,63.17171],[-136.47568,63.1755],[-136.46728,63.17706],[-136.46382,63.17327],[-136.47222,63.17171]]]}},{"type":"Feature","properties":{"c":"62.0","o":"Gordon Richards - 100%","e":"2028-08-02"},"geometry":{"type":"Polygon","coordinates":[[[-136.43516,63.17416],[-136.43861,63.17795],[-136.43021,63.17951],[-136.42675,63.17572],[-136.43516,63.17416]]]}},{"type":"Feature","properties":{"c":"647.0","o":"Shawn Ryan - 100%","e":"2024-02-15"},"geometry":{"type":"Polygon","coordinates":[[[-136.38622,63.49892],[-136.39037,63.50257],[-136.38217,63.50442],[-136.37802,63.50077],[-136.38622,63.49892]]]}},{"type":"Feature","properties":{"c":"590.0","o":"Shawn Ryan - 100%","e":"2024-02-15"},"geometry":{"type":"Polygon","coordinates":[[[-136.43944,63.4823],[-136.44359,63.48596],[-136.4354,63.48781],[-136.43124,63.48416],[-136.43944,63.4823]]]}},{"type":"Feature","properties":{"c":"29.0","o":"Callum Ryan - 100%","e":"2027-02-25"},"geometry":{"type":"Polygon","coordinates":[[[-136.31092,63.10933],[-136.31602,63.11264],[-136.3087,63.11494],[-136.3036,63.11163],[-136.31092,63.10933]]]}},{"type":"Feature","properties":{"c":"41.0","o":"Gordon Richards - 100%","e":"2027-06-14"},"geometry":{"type":"Polygon","coordinates":[[[-136.46728,63.17706],[-136.47074,63.18085],[-136.46234,63.18241],[-136.45888,63.17862],[-136.46728,63.17706]]]}},{"type":"Feature","properties":{"c":"33.0","o":"Ryan Gold Corp. - 100%","e":"2015-03-11"},"geometry":{"type":"Polygon","coordinates":[[[-136.33672,63.06935],[-136.34271,63.07233],[-136.33612,63.07504],[-136.33013,63.07206],[-136.33133,63.07156],[-136.33672,63.06935]]]}},{"type":"Feature","properties":{"c":"66.0","o":"Gordon Richards - 100%","e":"2028-08-02"},"geometry":{"type":"Polygon","coordinates":[[[-136.42825,63.16658],[-136.4317,63.17037],[-136.4233,63.17193],[-136.41985,63.16814],[-136.42825,63.16658]]]}},{"type":"Feature","properties":{"c":"636.0","o":"Shawn Ryan - 100%","e":"2024-02-15"},"geometry":{"type":"Polygon","coordinates":[[[-136.39421,63.47875],[-136.39836,63.4824],[-136.39017,63.48425],[-136.38602,63.4806],[-136.39421,63.47875]]]}},{"type":"Feature","properties":{"c":"24.0","o":"Gordon Richards - 100%","e":"2027-06-14"},"geometry":{"type":"Polygon","coordinates":[[[-136.4975,63.15815],[-136.50083,63.16196],[-136.49396,63.16324],[-136.4905,63.15945],[-136.4975,63.15815]]]}},{"type":"Feature","properties":{"c":"28.0","o":"Gordon Richards - 100%","e":"2027-06-14"},"geometry":{"type":"Polygon","coordinates":[[[-136.49111,63.15048],[-136.49412,63.15435],[-136.48704,63.15566],[-136.48358,63.15188],[-136.49111,63.15048]]]}},{"type":"Feature","properties":{"c":"635.0","o":"Shawn Ryan - 100%","e":"2024-02-15"},"geometry":{"type":"Polygon","coordinates":[[[-136.38602,63.4806],[-136.39017,63.48425],[-136.38197,63.4861],[-136.37782,63.48245],[-136.38602,63.4806]]]}},{"type":"Feature","properties":{"c":"46.0","o":"Callum Ryan - 100%","e":"2027-02-25"},"geometry":{"type":"Polygon","coordinates":[[[-136.29562,63.0994],[-136.30072,63.10271],[-136.2934,63.10502],[-136.2883,63.1017],[-136.29562,63.0994]]]}},{"type":"Feature","properties":{"c":"603.0","o":"Shawn Ryan - 100%","e":"2024-02-15"},"geometry":{"type":"Polygon","coordinates":[[[-136.42732,63.49882],[-136.43148,63.50248],[-136.42328,63.50433],[-136.41912,63.50067],[-136.42732,63.49882]]]}},{"type":"Feature","properties":{"c":"577.0","o":"Shawn Ryan - 100%","e":"2024-02-15"},"geometry":{"type":"Polygon","coordinates":[[[-136.43101,63.46583],[-136.43517,63.46949],[-136.42698,63.47134],[-136.42283,63.46769],[-136.43101,63.46583]]]}},{"type":"Feature","properties":{"c":"632.0","o":"Shawn Ryan - 100%","e":"2024-02-15"},"geometry":{"type":"Polygon","coordinates":[[[-136.40251,63.48606],[-136.40666,63.48971],[-136.39847,63.49156],[-136.39431,63.48791],[-136.40251,63.48606]]]}},{"type":"Feature","properties":{"c":"638.0","o":"Shawn Ryan - 100%","e":"2024-02-15"},"geometry":{"type":"Polygon","coordinates":[[[-136.39006,63.47509],[-136.39421,63.47875],[-136.38602,63.4806],[-136.38187,63.47694],[-136.39006,63.47509]]]}},{"type":"Feature","properties":{"c":"593.0","o":"Shawn Ryan - 100%","e":"2024-02-15"},"geometry":{"type":"Polygon","coordinates":[[[-136.42294,63.47685],[-136.42709,63.4805],[-136.4189,63.48235],[-136.41475,63.4787],[-136.42294,63.47685]]]}},{"type":"Feature","properties":{"c":"68.0","o":"Gordon Richards - 100%","e":"2028-08-02"},"geometry":{"type":"Polygon","coordinates":[[[-136.4164,63.16435],[-136.41985,63.16814],[-136.41144,63.16969],[-136.40799,63.1659],[-136.4164,63.16435]]]}},{"type":"Feature","properties":{"c":"616.0","o":"Shawn Ryan - 100%","e":"2024-02-15"},"geometry":{"type":"Polygon","coordinates":[[[-136.4106,63.47505],[-136.41475,63.4787],[-136.40655,63.48055],[-136.4024,63.4769],[-136.4106,63.47505]]]}},{"type":"Feature","properties":{"c":"4.0","o":"Callum Ryan - 100%","e":"2027-02-25"},"geometry":{"type":"Polygon","coordinates":[[[-136.3189,63.12156],[-136.324,63.12487],[-136.31668,63.12718],[-136.31158,63.12387],[-136.3189,63.12156]]]}},{"type":"Feature","properties":{"c":"570.0","o":"Shawn Ryan - 100%","e":"2024-02-15"},"geometry":{"type":"Polygon","coordinates":[[[-136.45582,63.4786],[-136.45998,63.48225],[-136.45178,63.4841],[-136.44763,63.48045],[-136.45582,63.4786]]]}},{"type":"Feature","properties":{"c":"30.0","o":"Callum Ryan - 100%","e":"2027-02-25"},"geometry":{"type":"Polygon","coordinates":[[[-136.30582,63.10602],[-136.31092,63.10933],[-136.3036,63.11163],[-136.2985,63.10832],[-136.30582,63.10602]]]}},{"type":"Feature","properties":{"c":"676.0","o":"Shawn Ryan - 100%","e":"2024-02-15"},"geometry":{"type":"Polygon","coordinates":[[[-136.36143,63.48615],[-136.36557,63.4898],[-136.35737,63.49165],[-136.35323,63.48799],[-136.36143,63.48615]]]}},{"type":"Feature","properties":{"c":"607.0","o":"Shawn Ryan - 100%","e":"2024-02-15"},"geometry":{"type":"Polygon","coordinates":[[[-136.41901,63.49151],[-136.42316,63.49517],[-136.41497,63.49702],[-136.41081,63.49337],[-136.41901,63.49151]]]}},{"type":"Feature","properties":{"c":"73.0","o":"Gordon Richards - 100%","e":"2028-08-02"},"geometry":{"type":"Polygon","coordinates":[[[-136.43814,63.15588],[-136.4416,63.15967],[-136.4332,63.16123],[-136.42975,63.15744],[-136.43814,63.15588]]]}},{"type":"Feature","properties":{"c":"21.0","o":"Callum Ryan - 100%","e":"2027-02-25"},"geometry":{"type":"Polygon","coordinates":[[[-136.34019,63.10011],[-136.3453,63.10341],[-136.33798,63.10572],[-136.33288,63.10241],[-136.34019,63.10011]]]}},{"type":"Feature","properties":{"c":"24.0","o":"Callum Ryan - 100%","e":"2027-02-25"},"geometry":{"type":"Polygon","coordinates":[[[-136.32778,63.0991],[-136.33288,63.10241],[-136.32556,63.10472],[-136.32046,63.10141],[-136.32778,63.0991]]]}},{"type":"Feature","properties":{"c":"44.0","o":"Callum Ryan - 100%","e":"2027-02-25"},"geometry":{"type":"Polygon","coordinates":[[[-136.30294,63.0971],[-136.30804,63.10041],[-136.30072,63.10271],[-136.29562,63.0994],[-136.30294,63.0971]]]}},{"type":"Feature","properties":{"c":"631.0","o":"Shawn Ryan - 100%","e":"2024-02-15"},"geometry":{"type":"Polygon","coordinates":[[[-136.39431,63.48791],[-136.39847,63.49156],[-136.39027,63.49341],[-136.38612,63.48976],[-136.39431,63.48791]]]}},{"type":"Feature","properties":{"c":"50.0","o":"Gordon Richards - 100%","e":"2027-06-14"},"geometry":{"type":"Polygon","coordinates":[[[-136.46185,63.16034],[-136.46531,63.16413],[-136.45691,63.16569],[-136.45345,63.1619],[-136.46185,63.16034]]]}},{"type":"Feature","properties":{"c":"653.0","o":"Shawn Ryan - 100%","e":"2024-02-15"},"geometry":{"type":"Polygon","coordinates":[[[-136.37377,63.48795],[-136.37792,63.49161],[-136.36972,63.49346],[-136.36557,63.4898],[-136.37377,63.48795]]]}},{"type":"Feature","properties":{"c":"7.0","o":"Callum Ryan - 100%","e":"2027-02-25"},"geometry":{"type":"Polygon","coordinates":[[[-136.30935,63.12948],[-136.31446,63.13279],[-136.30713,63.1351],[-136.30203,63.13179],[-136.30935,63.12948]]]}},{"type":"Feature","properties":{"c":"596.0","o":"Shawn Ryan - 100%","e":"2024-02-15"},"geometry":{"type":"Polygon","coordinates":[[[-136.42698,63.47134],[-136.43113,63.475],[-136.42294,63.47685],[-136.41879,63.47319],[-136.42698,63.47134]]]}},{"type":"Feature","properties":{"c":"67.0","o":"Gordon Richards - 100%","e":"2028-08-02"},"geometry":{"type":"Polygon","coordinates":[[[-136.4164,63.16435],[-136.40799,63.1659],[-136.40454,63.16211],[-136.41295,63.16056],[-136.4164,63.16435]]]}},{"type":"Feature","properties":{"c":"27.0","o":"Callum Ryan - 100%","e":"2027-02-25"},"geometry":{"type":"Polygon","coordinates":[[[-136.31824,63.10702],[-136.32334,63.11033],[-136.31602,63.11264],[-136.31092,63.10933],[-136.31824,63.10702]]]}},{"type":"Feature","properties":{"c":"628.0","o":"Shawn Ryan - 100%","e":"2024-02-15"},"geometry":{"type":"Polygon","coordinates":[[[-136.41081,63.49337],[-136.41497,63.49702],[-136.40677,63.49887],[-136.40262,63.49522],[-136.41081,63.49337]]]}},{"type":"Feature","properties":{"c":"47.0","o":"Gordon Richards - 100%","e":"2027-06-14"},"geometry":{"type":"Polygon","coordinates":[[[-136.45691,63.16569],[-136.46036,63.16948],[-136.45196,63.17104],[-136.44851,63.16725],[-136.45691,63.16569]]]}},{"type":"Feature","properties":{"c":"612.0","o":"Shawn Ryan - 100%","e":"2024-02-15"},"geometry":{"type":"Polygon","coordinates":[[[-136.4189,63.48235],[-136.42305,63.48601],[-136.41486,63.48786],[-136.41071,63.48421],[-136.4189,63.48235]]]}},{"type":"Feature","properties":{"c":"18.0","o":"Callum Ryan - 100%","e":"2027-02-25"},"geometry":{"type":"Polygon","coordinates":[[[-136.30137,63.11725],[-136.30647,63.12056],[-136.29915,63.12286],[-136.29405,63.11955],[-136.30137,63.11725]]]}},{"type":"Feature","properties":{"c":"605.0","o":"Shawn Ryan - 100%","e":"2024-02-15"},"geometry":{"type":"Polygon","coordinates":[[[-136.42316,63.49517],[-136.42732,63.49882],[-136.41912,63.50067],[-136.41497,63.49702],[-136.42316,63.49517]]]}},{"type":"Feature","properties":{"c":"691.0","o":"Shawn Ryan - 100%","e":"2024-02-15"},"geometry":{"type":"Polygon","coordinates":[[[-136.34512,63.499],[-136.34926,63.50266],[-136.34106,63.50451],[-136.33691,63.50085],[-136.34512,63.499]]]}},{"type":"Feature","properties":{"c":"692.0","o":"Shawn Ryan - 100%","e":"2024-02-15"},"geometry":{"type":"Polygon","coordinates":[[[-136.35332,63.49715],[-136.35747,63.50081],[-136.34926,63.50266],[-136.34512,63.499],[-136.35332,63.49715]]]}},{"type":"Feature","properties":{"c":"45.0","o":"Gordon Richards - 100%","e":"2027-06-14"},"geometry":{"type":"Polygon","coordinates":[[[-136.46036,63.16948],[-136.46382,63.17327],[-136.45542,63.17483],[-136.45196,63.17104],[-136.46036,63.16948]]]}},{"type":"Feature","properties":{"c":"649.0","o":"Shawn Ryan - 100%","e":"2024-02-15"},"geometry":{"type":"Polygon","coordinates":[[[-136.38207,63.49526],[-136.38622,63.49892],[-136.37802,63.50077],[-136.37387,63.49711],[-136.38207,63.49526]]]}},{"type":"Feature","properties":{"c":"35.0","o":"Gordon Richards - 100%","e":"2027-06-14"},"geometry":{"type":"Polygon","coordinates":[[[-136.47716,63.16636],[-136.48062,63.17015],[-136.47222,63.17171],[-136.46876,63.16792],[-136.47716,63.16636]]]}},{"type":"Feature","properties":{"c":"75.0","o":"Gordon Richards - 100%","e":"2028-08-02"},"geometry":{"type":"Polygon","coordinates":[[[-136.44654,63.15433],[-136.45,63.15811],[-136.4416,63.15967],[-136.43814,63.15588],[-136.44654,63.15433]]]}},{"type":"Feature","properties":{"c":"33.0","o":"Callum Ryan - 100%","e":"2027-02-25"},"geometry":{"type":"Polygon","coordinates":[[[-136.29627,63.11394],[-136.30137,63.11725],[-136.29405,63.11955],[-136.28895,63.11624],[-136.29627,63.11394]]]}},{"type":"Feature","properties":{"c":"62.0","o":"Ryan Gold Corp. - 100%","e":"2014-03-11"},"geometry":{"type":"Polygon","coordinates":[[[-136.27978,63.07097],[-136.28577,63.07395],[-136.27917,63.07666],[-136.27318,63.07368],[-136.27978,63.07097]]]}},{"type":"Feature","properties":{"c":"9.0","o":"Callum Ryan - 100%","e":"2027-02-25"},"geometry":{"type":"Polygon","coordinates":[[[-136.33576,63.11134],[-136.34087,63.11464],[-136.33355,63.11695],[-136.32844,63.11364],[-136.33576,63.11134]]]}},{"type":"Feature","properties":{"c":"54.0","o":"Gordon Richards - 100%","e":"2027-06-14"},"geometry":{"type":"Polygon","coordinates":[[[-136.45542,63.17483],[-136.45888,63.17862],[-136.45047,63.18018],[-136.44702,63.17639],[-136.45542,63.17483]]]}},{"type":"Feature","properties":{"c":"33.0","o":"Gordon Richards - 100%","e":"2027-06-14"},"geometry":{"type":"Polygon","coordinates":[[[-136.48062,63.17015],[-136.48408,63.17394],[-136.47568,63.1755],[-136.47222,63.17171],[-136.48062,63.17015]]]}},{"type":"Feature","properties":{"c":"597.0","o":"Shawn Ryan - 100%","e":"2024-02-15"},"geometry":{"type":"Polygon","coordinates":[[[-136.41464,63.46954],[-136.41879,63.47319],[-136.4106,63.47505],[-136.40645,63.47139],[-136.41464,63.46954]]]}},{"type":"Feature","properties":{"c":"36.0","o":"Callum Ryan - 100%","e":"2027-02-25"},"geometry":{"type":"Polygon","coordinates":[[[-136.28385,63.11293],[-136.28895,63.11624],[-136.28162,63.11855],[-136.27652,63.11524],[-136.28385,63.11293]]]}},{"type":"Feature","properties":{"c":"22.0","o":"Gordon Richards - 100%","e":"2027-06-14"},"geometry":{"type":"Polygon","coordinates":[[[-136.50083,63.16196],[-136.50284,63.16602],[-136.49742,63.16703],[-136.49396,63.16324],[-136.50083,63.16196]]]}},{"type":"Feature","properties":{"c":"613.0","o":"Shawn Ryan - 100%","e":"2024-02-15"},"geometry":{"type":"Polygon","coordinates":[[[-136.40655,63.48055],[-136.41071,63.48421],[-136.40251,63.48606],[-136.39836,63.4824],[-136.40655,63.48055]]]}},{"type":"Feature","properties":{"c":"53.0","o":"Gordon Richards - 100%","e":"2027-06-14"},"geometry":{"type":"Polygon","coordinates":[[[-136.44702,63.17639],[-136.45047,63.18018],[-136.44207,63.18174],[-136.43861,63.17795],[-136.44702,63.17639]]]}},{"type":"Feature","properties":{"c":"698.0","o":"Shawn Ryan - 100%","e":"2024-02-15"},"geometry":{"type":"Polygon","coordinates":[[[-136.34089,63.48619],[-136.34503,63.48984],[-136.33683,63.49169],[-136.33269,63.48803],[-136.34089,63.48619]]]}},{"type":"Feature","properties":{"c":"652.0","o":"Shawn Ryan - 100%","e":"2024-02-15"},"geometry":{"type":"Polygon","coordinates":[[[-136.38612,63.48976],[-136.39027,63.49341],[-136.38207,63.49526],[-136.37792,63.49161],[-136.38612,63.48976]]]}},{"type":"Feature","properties":{"c":"72.0","o":"Gordon Richards - 100%","e":"2028-08-02"},"geometry":{"type":"Polygon","coordinates":[[[-136.4332,63.16123],[-136.43665,63.16502],[-136.42825,63.16658],[-136.4248,63.16279],[-136.4332,63.16123]]]}},{"type":"Feature","properties":{"c":"637.0","o":"Shawn Ryan - 100%","e":"2024-02-15"},"geometry":{"type":"Polygon","coordinates":[[[-136.38187,63.47694],[-136.38602,63.4806],[-136.37782,63.48245],[-136.37368,63.47879],[-136.38187,63.47694]]]}},{"type":"Feature","properties":{"c":"8.0","o":"Callum Ryan - 100%","e":"2027-02-25"},"geometry":{"type":"Polygon","coordinates":[[[-136.30425,63.12617],[-136.30935,63.12948],[-136.30203,63.13179],[-136.29692,63.12848],[-136.30425,63.12617]]]}},{"type":"Feature","properties":{"c":"37.0","o":"Gordon Richards - 100%","e":"2027-06-14"},"geometry":{"type":"Polygon","coordinates":[[[-136.47371,63.16257],[-136.47716,63.16636],[-136.46876,63.16792],[-136.46531,63.16413],[-136.47371,63.16257]]]}},{"type":"Feature","properties":{"c":"572.0","o":"Shawn Ryan - 100%","e":"2024-02-15"},"geometry":{"type":"Polygon","coordinates":[[[-136.45166,63.47494],[-136.45582,63.4786],[-136.44763,63.48045],[-136.44347,63.4768],[-136.45166,63.47494]]]}},{"type":"Feature","properties":{"c":"47.0","o":"Callum Ryan - 100%","e":"2027-02-25"},"geometry":{"type":"Polygon","coordinates":[[[-136.2934,63.10502],[-136.2985,63.10832],[-136.29117,63.11063],[-136.28608,63.10732],[-136.2934,63.10502]]]}}]}