{"type":"FeatureCollection","features":[{"type":"Feature","properties":{"c":"YF48391","o":"Small Hydro Investments Ltd. - 100%","e":"2027-12-16"},"geometry":{"type":"Polygon","coordinates":[[[-138.86067,64.02607],[-138.85697,64.02984],[-138.84834,64.02824],[-138.85202,64.0245],[-138.86067,64.02607]]]}},{"type":"Feature","properties":{"c":"YF48397","o":"Small Hydro Investments Ltd. - 100%","e":"2027-12-16"},"geometry":{"type":"Polygon","coordinates":[[[-138.83484,64.02125],[-138.83113,64.02501],[-138.82253,64.02339],[-138.82623,64.01964],[-138.83484,64.02125]]]}},{"type":"Feature","properties":{"c":"YF48358","o":"Small Hydro Investments Ltd. - 100%","e":"2027-12-16"},"geometry":{"type":"Polygon","coordinates":[[[-138.9829,64.0281],[-138.99226,64.02825],[-138.99192,64.03234],[-138.98256,64.03219],[-138.9829,64.0281]]]}},{"type":"Feature","properties":{"c":"YD89533","o":"Goldbank Mining Corporation - 50%, Goldbank Eastern Klondike Properties Inc. - 50%","e":"2029-10-31"},"geometry":{"type":"Polygon","coordinates":[[[-138.87018,64.0056],[-138.87879,64.00719],[-138.87515,64.01097],[-138.86653,64.00938],[-138.87018,64.0056]]]}},{"type":"Feature","properties":{"c":"YC03772","o":"Canadian United Minerals Inc. - 100%","e":"2027-03-10"},"geometry":{"type":"Polygon","coordinates":[[[-138.66097,64.44353],[-138.66435,64.44698],[-138.65582,64.44858],[-138.65244,64.44511],[-138.66097,64.44353]]]}},{"type":"Feature","properties":{"c":"YF48387","o":"Small Hydro Investments Ltd. - 100%","e":"2027-12-11"},"geometry":{"type":"Polygon","coordinates":[[[-138.87794,64.02926],[-138.87423,64.03302],[-138.8656,64.03143],[-138.86922,64.02775],[-138.87794,64.02926]]]}},{"type":"Feature","properties":{"c":"YF48334","o":"Small Hydro Investments Ltd. - 100%","e":"2027-12-16"},"geometry":{"type":"Polygon","coordinates":[[[-138.96452,64.02371],[-138.97388,64.02386],[-138.97354,64.02795],[-138.96418,64.0278],[-138.96452,64.02371]]]}},{"type":"Feature","properties":{"c":"YD11828","o":"Goldbank Mining Corporation - 50%, Goldbank Eastern Klondike Properties Inc. - 50%","e":"2029-10-31"},"geometry":{"type":"Polygon","coordinates":[[[-138.82735,63.99768],[-138.83599,63.99926],[-138.83238,64.00304],[-138.82374,64.00146],[-138.82667,63.9984],[-138.82735,63.99768]]]}},{"type":"Feature","properties":{"c":"YF48412","o":"Small Hydro Investments Ltd. - 100%","e":"2027-12-16"},"geometry":{"type":"Polygon","coordinates":[[[-138.83231,64.03415],[-138.84092,64.03577],[-138.83867,64.03804],[-138.83037,64.03611],[-138.83149,64.03498],[-138.83231,64.03415]]]}},{"type":"Feature","properties":{"c":"YF48281","o":"Small Hydro Investments Ltd. - 100%","e":"2027-12-16"},"geometry":{"type":"Polygon","coordinates":[[[-138.92778,64.01492],[-138.93714,64.01507],[-138.93679,64.01917],[-138.92744,64.01901],[-138.92778,64.01492]]]}},{"type":"Feature","properties":{"c":"YF48262","o":"Small Hydro Investments Ltd. - 100%","e":"2027-12-16"},"geometry":{"type":"Polygon","coordinates":[[[-138.91057,64.02694],[-138.91738,64.02705],[-138.91704,64.03114],[-138.90768,64.03099],[-138.90777,64.02985],[-138.91023,64.02729],[-138.91057,64.02694]]]}},{"type":"Feature","properties":{"c":"YD48547","o":"Goldbank Mining Corporation - 50%, Goldbank Eastern Klondike Properties Inc. - 50%","e":"2029-10-31"},"geometry":{"type":"Polygon","coordinates":[[[-138.86549,64.00022],[-138.86189,64.004],[-138.85325,64.00242],[-138.85675,63.99875],[-138.86549,64.00022]]]}},{"type":"Feature","properties":{"c":"YD89526","o":"Goldbank Mining Corporation - 50%, Goldbank Eastern Klondike Properties Inc. - 50%","e":"2029-10-31"},"geometry":{"type":"Polygon","coordinates":[[[-138.88514,64.02169],[-138.89377,64.02328],[-138.89013,64.02706],[-138.8815,64.02547],[-138.8841,64.02277],[-138.88514,64.02169]]]}},{"type":"Feature","properties":{"c":"YF48383","o":"Small Hydro Investments Ltd. - 100%","e":"2027-12-11"},"geometry":{"type":"Polygon","coordinates":[[[-138.8889,64.03128],[-138.8886,64.03477],[-138.89283,64.03484],[-138.8915,64.0362],[-138.88286,64.03461],[-138.88643,64.03099],[-138.8889,64.03128]]]}},{"type":"Feature","properties":{"c":"YF48330","o":"Small Hydro Investments Ltd. - 100%","e":"2027-12-16"},"geometry":{"type":"Polygon","coordinates":[[[-138.96521,64.01552],[-138.97456,64.01567],[-138.97422,64.01977],[-138.96486,64.01962],[-138.96521,64.01552]]]}},{"type":"Feature","properties":{"c":"YD89510","o":"Goldbank Mining Corporation - 50%, Goldbank Eastern Klondike Properties Inc. - 50%","e":"2029-10-31"},"geometry":{"type":"Polygon","coordinates":[[[-138.90603,64.0211],[-138.91466,64.02269],[-138.91103,64.02646],[-138.9024,64.02487],[-138.9039,64.02331],[-138.90603,64.0211]]]}},{"type":"Feature","properties":{"c":"YD89530","o":"Goldbank Mining Corporation - 50%, Goldbank Eastern Klondike Properties Inc. - 50%","e":"2029-10-31"},"geometry":{"type":"Polygon","coordinates":[[[-138.88605,63.99964],[-138.89467,64.00123],[-138.89104,64.00501],[-138.88242,64.00342],[-138.88605,63.99964]]]}},{"type":"Feature","properties":{"c":"YF48323","o":"Small Hydro Investments Ltd. - 100%","e":"2027-12-16"},"geometry":{"type":"Polygon","coordinates":[[[-138.95311,64.04812],[-138.95276,64.05221],[-138.94339,64.05206],[-138.94372,64.04814],[-138.95311,64.04812]]]}},{"type":"Feature","properties":{"c":"YD89540","o":"Goldbank Mining Corporation - 50%, Goldbank Eastern Klondike Properties Inc. - 50%","e":"2029-10-31"},"geometry":{"type":"Polygon","coordinates":[[[-138.86788,64.01851],[-138.87651,64.0201],[-138.87287,64.02388],[-138.86424,64.02229],[-138.86788,64.01851]]]}},{"type":"Feature","properties":{"c":"YF48338","o":"Small Hydro Investments Ltd. - 100%","e":"2027-12-16"},"geometry":{"type":"Polygon","coordinates":[[[-138.96384,64.0319],[-138.9732,64.03204],[-138.97286,64.03614],[-138.9635,64.03599],[-138.96354,64.03547],[-138.96384,64.0319]]]}},{"type":"Feature","properties":{"c":"YF48386","o":"Small Hydro Investments Ltd. - 100%","e":"2027-12-16"},"geometry":{"type":"Polygon","coordinates":[[[-138.87423,64.03302],[-138.87052,64.03678],[-138.86189,64.03519],[-138.86552,64.03151],[-138.87423,64.03302]]]}},{"type":"Feature","properties":{"c":"YF48313","o":"Small Hydro Investments Ltd. - 100%","e":"2027-12-16"},"geometry":{"type":"Polygon","coordinates":[[[-138.94546,64.0275],[-138.95482,64.02765],[-138.95448,64.03175],[-138.94512,64.0316],[-138.94542,64.02801],[-138.94546,64.0275]]]}},{"type":"Feature","properties":{"c":"YD89507","o":"Goldbank Mining Corporation - 50%, Goldbank Eastern Klondike Properties Inc. - 50%","e":"2029-10-31"},"geometry":{"type":"Polygon","coordinates":[[[-138.90103,64.01573],[-138.90966,64.01732],[-138.90603,64.0211],[-138.8974,64.01951],[-138.90103,64.01573]]]}},{"type":"Feature","properties":{"c":"YF48290","o":"Small Hydro Investments Ltd. - 100%","e":"2027-12-16"},"geometry":{"type":"Polygon","coordinates":[[[-138.93541,64.03554],[-138.94477,64.03569],[-138.94443,64.03978],[-138.93506,64.03963],[-138.93541,64.03554]]]}},{"type":"Feature","properties":{"c":"YD44288","o":"Goldbank Mining Corporation - 50%, Goldbank Eastern Klondike Properties Inc. - 50%","e":"2029-10-31"},"geometry":{"type":"Polygon","coordinates":[[[-138.90693,63.99905],[-138.91555,64.00063],[-138.91192,64.00441],[-138.9033,64.00282],[-138.90585,64.00017],[-138.90693,63.99905]]]}},{"type":"Feature","properties":{"c":"YD89506","o":"Goldbank Mining Corporation - 50%, Goldbank Eastern Klondike Properties Inc. - 50%","e":"2029-10-31"},"geometry":{"type":"Polygon","coordinates":[[[-138.91329,64.01355],[-138.92192,64.01514],[-138.91829,64.01891],[-138.90966,64.01732],[-138.91329,64.01355]]]}},{"type":"Feature","properties":{"c":"YD89525","o":"Goldbank Mining Corporation - 50%, Goldbank Eastern Klondike Properties Inc. - 50%","e":"2029-10-31"},"geometry":{"type":"Polygon","coordinates":[[[-138.87651,64.0201],[-138.88514,64.02169],[-138.8815,64.02547],[-138.87287,64.02388],[-138.87651,64.0201]]]}},{"type":"Feature","properties":{"c":"YF48371","o":"Small Hydro Investments Ltd. - 100%","e":"2027-12-16"},"geometry":{"type":"Polygon","coordinates":[[[-138.96378,64.05648],[-138.97315,64.05663],[-138.97281,64.06073],[-138.96344,64.06058],[-138.96375,64.05684],[-138.96378,64.05648]]]}},{"type":"Feature","properties":{"c":"YF48395","o":"Small Hydro Investments Ltd. - 100%","e":"2027-12-16"},"geometry":{"type":"Polygon","coordinates":[[[-138.84344,64.02287],[-138.83973,64.02663],[-138.83113,64.02501],[-138.83483,64.02126],[-138.84344,64.02287]]]}},{"type":"Feature","properties":{"c":"YF48366","o":"Small Hydro Investments Ltd. - 100%","e":"2027-12-16"},"geometry":{"type":"Polygon","coordinates":[[[-138.99091,64.04462],[-138.99057,64.04871],[-138.9812,64.04856],[-138.98154,64.04454],[-138.99091,64.04462]]]}},{"type":"Feature","properties":{"c":"YD44237","o":"Goldbank Mining Corporation - 50%, Goldbank Eastern Klondike Properties Inc. - 50%","e":"2029-10-31"},"geometry":{"type":"Polygon","coordinates":[[[-138.83959,63.99548],[-138.84823,63.99706],[-138.84462,64.00084],[-138.83599,63.99926],[-138.83803,63.99712],[-138.83959,63.99548]]]}},{"type":"Feature","properties":{"c":"YF48373","o":"Small Hydro Investments Ltd. - 100%","e":"2027-12-16"},"geometry":{"type":"Polygon","coordinates":[[[-138.95441,64.05633],[-138.96378,64.05648],[-138.96344,64.06058],[-138.95407,64.06043],[-138.95436,64.05697],[-138.95441,64.05633]]]}},{"type":"Feature","properties":{"c":"YD44286","o":"Goldbank Mining Corporation - 50%, Goldbank Eastern Klondike Properties Inc. - 50%","e":"2029-10-31"},"geometry":{"type":"Polygon","coordinates":[[[-138.91918,63.99686],[-138.91555,64.00063],[-138.90693,63.99905],[-138.91048,63.99535],[-138.91918,63.99686]]]}},{"type":"Feature","properties":{"c":"YF48322","o":"Small Hydro Investments Ltd. - 100%","e":"2027-12-16"},"geometry":{"type":"Polygon","coordinates":[[[-138.95311,64.04812],[-138.96247,64.04827],[-138.96213,64.05236],[-138.95276,64.05221],[-138.95301,64.0493],[-138.95311,64.04812]]]}},{"type":"Feature","properties":{"c":"YF48293","o":"Small Hydro Investments Ltd. - 100%","e":"2027-12-16"},"geometry":{"type":"Polygon","coordinates":[[[-138.9257,64.03948],[-138.93506,64.03963],[-138.93472,64.04372],[-138.92535,64.04357],[-138.92565,64.04013],[-138.9257,64.03948]]]}},{"type":"Feature","properties":{"c":"YF48389","o":"Small Hydro Investments Ltd. - 100%","e":"2027-12-11"},"geometry":{"type":"Polygon","coordinates":[[[-138.8693,64.02767],[-138.8656,64.03143],[-138.85697,64.02984],[-138.86062,64.02613],[-138.8693,64.02767]]]}},{"type":"Feature","properties":{"c":"YF48311","o":"Small Hydro Investments Ltd. - 100%","e":"2027-12-16"},"geometry":{"type":"Polygon","coordinates":[[[-138.94581,64.02341],[-138.95516,64.02356],[-138.95482,64.02765],[-138.94546,64.0275],[-138.94571,64.02461],[-138.94581,64.02341]]]}},{"type":"Feature","properties":{"c":"YF48342","o":"Small Hydro Investments Ltd. - 100%","e":"2027-12-16"},"geometry":{"type":"Polygon","coordinates":[[[-138.96316,64.04008],[-138.97252,64.04023],[-138.97218,64.04432],[-138.96281,64.04417],[-138.96316,64.04008]]]}},{"type":"Feature","properties":{"c":"YF48362","o":"Small Hydro Investments Ltd. - 100%","e":"2027-12-16"},"geometry":{"type":"Polygon","coordinates":[[[-138.98222,64.03629],[-138.99159,64.03643],[-138.99125,64.04053],[-138.98188,64.04038],[-138.98222,64.03629]]]}},{"type":"Feature","properties":{"c":"YF48435","o":"Small Hydro Investments Ltd. - 100%","e":"2027-12-11"},"geometry":{"type":"Polygon","coordinates":[[[-139.0039,64.00738],[-139.00264,64.00792],[-138.99166,64.00775],[-138.99066,64.0073],[-138.99737,64.00444],[-139.0039,64.00738]]]}},{"type":"Feature","properties":{"c":"YE79855","o":"Anthony Beruschi - 100%","e":"2036-11-05"},"geometry":{"type":"Polygon","coordinates":[[[-138.97104,64.0043],[-138.97776,64.00145],[-138.98426,64.0044],[-138.97754,64.00725],[-138.97534,64.00625],[-138.97104,64.0043]]]}},{"type":"Feature","properties":{"c":"YF48308","o":"Small Hydro Investments Ltd. - 100%","e":"2027-12-16"},"geometry":{"type":"Polygon","coordinates":[[[-138.95551,64.01947],[-138.96486,64.01962],[-138.96452,64.02371],[-138.95516,64.02356],[-138.9554,64.02074],[-138.95551,64.01947]]]}},{"type":"Feature","properties":{"c":"YD89549","o":"Goldbank Mining Corporation - 50%, Goldbank Eastern Klondike Properties Inc. - 50%","e":"2029-10-31"},"geometry":{"type":"Polygon","coordinates":[[[-138.8352,64.02132],[-138.83881,64.01754],[-138.84741,64.01916],[-138.8438,64.02293],[-138.84344,64.02287],[-138.8352,64.02132]]]}},{"type":"Feature","properties":{"c":"YF48316","o":"Small Hydro Investments Ltd. - 100%","e":"2027-12-16"},"geometry":{"type":"Polygon","coordinates":[[[-138.95414,64.03584],[-138.9635,64.03599],[-138.96316,64.04008],[-138.95379,64.03993],[-138.95414,64.03584]]]}},{"type":"Feature","properties":{"c":"YD89513","o":"Goldbank Mining Corporation - 50%, Goldbank Eastern Klondike Properties Inc. - 50%","e":"2029-10-31"},"geometry":{"type":"Polygon","coordinates":[[[-138.89013,64.02706],[-138.89876,64.02865],[-138.89513,64.03242],[-138.8865,64.03083],[-138.88943,64.02779],[-138.89013,64.02706]]]}},{"type":"Feature","properties":{"c":"YC03774","o":"Canadian United Minerals Inc. - 100%","e":"2027-03-10"},"geometry":{"type":"Polygon","coordinates":[[[-138.62683,64.44073],[-138.62241,64.43653],[-138.62685,64.43555],[-138.63229,64.4356],[-138.63584,64.43897],[-138.62683,64.44073]]]}},{"type":"Feature","properties":{"c":"YF48299","o":"Small Hydro Investments Ltd. - 100%","e":"2027-12-11"},"geometry":{"type":"Polygon","coordinates":[[[-138.95718,63.99951],[-138.95688,64.0031],[-138.95378,64.00305],[-138.95718,63.99951]]]}},{"type":"Feature","properties":{"c":"YF48256","o":"Small Hydro Investments Ltd. - 100%","e":"2027-12-16"},"geometry":{"type":"Polygon","coordinates":[[[-138.92221,64.01483],[-138.92778,64.01492],[-138.92744,64.01901],[-138.91833,64.01887],[-138.92221,64.01483]]]}},{"type":"Feature","properties":{"c":"YD89555","o":"Goldbank Mining Corporation - 50%, Goldbank Eastern Klondike Properties Inc. - 50%","e":"2029-10-31"},"geometry":{"type":"Polygon","coordinates":[[[-138.83743,64.00836],[-138.84603,64.00998],[-138.84242,64.01376],[-138.83382,64.01214],[-138.83743,64.00836]]]}},{"type":"Feature","properties":{"c":"YD89557","o":"Goldbank Mining Corporation - 50%, Goldbank Eastern Klondike Properties Inc. - 50%","e":"2029-10-31"},"geometry":{"type":"Polygon","coordinates":[[[-138.84603,64.00998],[-138.85463,64.0116],[-138.85102,64.01538],[-138.84242,64.01376],[-138.84603,64.00998]]]}},{"type":"Feature","properties":{"c":"YF48341","o":"Small Hydro Investments Ltd. - 100%","e":"2027-12-16"},"geometry":{"type":"Polygon","coordinates":[[[-138.97252,64.04023],[-138.98188,64.04038],[-138.98154,64.04447],[-138.97218,64.04432],[-138.97252,64.04023]]]}},{"type":"Feature","properties":{"c":"YF48359","o":"Small Hydro Investments Ltd. - 100%","e":"2027-12-16"},"geometry":{"type":"Polygon","coordinates":[[[-138.99192,64.03234],[-139.00128,64.03249],[-139.00095,64.03658],[-138.99159,64.03643],[-138.99192,64.03234]]]}},{"type":"Feature","properties":{"c":"YD89598","o":"Goldbank Mining Corporation - 50%, Goldbank Eastern Klondike Properties Inc. - 50%","e":"2029-10-31"},"geometry":{"type":"Polygon","coordinates":[[[-138.80289,64.00205],[-138.81152,64.00363],[-138.80803,64.00728],[-138.79943,64.00566],[-138.79987,64.00521],[-138.80289,64.00205]]]}},{"type":"Feature","properties":{"c":"YC03766","o":"Canadian United Minerals Inc. - 100%","e":"2027-03-10"},"geometry":{"type":"Polygon","coordinates":[[[-138.65706,64.43962],[-138.65386,64.4364],[-138.66587,64.43797],[-138.65706,64.43962]]]}},{"type":"Feature","properties":{"c":"YD89515","o":"Goldbank Mining Corporation - 50%, Goldbank Eastern Klondike Properties Inc. - 50%","e":"2029-10-31"},"geometry":{"type":"Polygon","coordinates":[[[-138.89467,64.00123],[-138.9033,64.00282],[-138.89967,64.0066],[-138.89104,64.00501],[-138.89426,64.00166],[-138.89467,64.00123]]]}},{"type":"Feature","properties":{"c":"YF48414","o":"Small Hydro Investments Ltd. - 100%","e":"2027-12-16"},"geometry":{"type":"Polygon","coordinates":[[[-138.82371,64.03253],[-138.83231,64.03415],[-138.83037,64.03611],[-138.82208,64.03418],[-138.82309,64.03316],[-138.82371,64.03253]]]}},{"type":"Feature","properties":{"c":"YF48266","o":"Small Hydro Investments Ltd. - 100%","e":"2027-12-16"},"geometry":{"type":"Polygon","coordinates":[[[-138.90732,64.03508],[-138.91669,64.03523],[-138.91634,64.03933],[-138.90697,64.03917],[-138.90707,64.03808],[-138.90732,64.03508]]]}},{"type":"Feature","properties":{"c":"YF48361","o":"Small Hydro Investments Ltd. - 100%","e":"2027-12-16"},"geometry":{"type":"Polygon","coordinates":[[[-138.99159,64.03643],[-139.00095,64.03658],[-139.00061,64.04067],[-138.99125,64.04053],[-138.99142,64.03846],[-138.99159,64.03643]]]}},{"type":"Feature","properties":{"c":"YF48287","o":"Small Hydro Investments Ltd. - 100%","e":"2027-12-16"},"geometry":{"type":"Polygon","coordinates":[[[-138.92674,64.0272],[-138.9361,64.02735],[-138.93576,64.03144],[-138.9264,64.03129],[-138.92653,64.02975],[-138.92674,64.0272]]]}},{"type":"Feature","properties":{"c":"YD05491","o":"Joel Robert White - 100%","e":"2027-01-27"},"geometry":{"type":"Polygon","coordinates":[[[-138.80163,64.49226],[-138.81114,64.49203],[-138.81168,64.49612],[-138.80216,64.49635],[-138.80163,64.49226]]]}},{"type":"Feature","properties":{"c":"YF48274","o":"Small Hydro Investments Ltd. - 100%","e":"2027-12-16"},"geometry":{"type":"Polygon","coordinates":[[[-138.93818,64.00279],[-138.94753,64.00295],[-138.94718,64.00704],[-138.93783,64.00689],[-138.93818,64.00279]]]}},{"type":"Feature","properties":{"c":"YF48321","o":"Small Hydro Investments Ltd. - 100%","e":"2027-12-16"},"geometry":{"type":"Polygon","coordinates":[[[-138.94408,64.04387],[-138.95345,64.04402],[-138.95311,64.04812],[-138.94374,64.04797],[-138.94389,64.04621],[-138.94408,64.04387]]]}},{"type":"Feature","properties":{"c":"YF48301","o":"Small Hydro Investments Ltd. - 100%","e":"2027-12-11"},"geometry":{"type":"Polygon","coordinates":[[[-138.95653,64.00719],[-138.94718,64.00704],[-138.94753,64.00295],[-138.95688,64.0031],[-138.95685,64.00341],[-138.95653,64.00719]]]}},{"type":"Feature","properties":{"c":"YF48413","o":"Small Hydro Investments Ltd. - 100%","e":"2027-12-16"},"geometry":{"type":"Polygon","coordinates":[[[-138.83602,64.03039],[-138.84463,64.032],[-138.84092,64.03577],[-138.83231,64.03415],[-138.83397,64.03247],[-138.83602,64.03039]]]}},{"type":"Feature","properties":{"c":"YF48294","o":"Small Hydro Investments Ltd. - 100%","e":"2027-12-16"},"geometry":{"type":"Polygon","coordinates":[[[-138.93472,64.04372],[-138.94408,64.04387],[-138.94374,64.04797],[-138.93437,64.04782],[-138.93451,64.04621],[-138.93472,64.04372]]]}},{"type":"Feature","properties":{"c":"YF48336","o":"Small Hydro Investments Ltd. - 100%","e":"2027-12-16"},"geometry":{"type":"Polygon","coordinates":[[[-138.96418,64.0278],[-138.97354,64.02795],[-138.9732,64.03204],[-138.96384,64.0319],[-138.96418,64.0278]]]}},{"type":"Feature","properties":{"c":"YF48355","o":"Small Hydro Investments Ltd. - 100%","e":"2027-12-16"},"geometry":{"type":"Polygon","coordinates":[[[-138.9926,64.02416],[-139.00196,64.0243],[-139.00162,64.0284],[-138.99226,64.02825],[-138.9926,64.02416]]]}},{"type":"Feature","properties":{"c":"YD11838","o":"Goldbank Mining Corporation - 50%, Goldbank Eastern Klondike Properties Inc. - 50%","e":"2029-10-31"},"geometry":{"type":"Polygon","coordinates":[[[-138.88973,63.99588],[-138.89835,63.99747],[-138.89471,64.00124],[-138.88609,63.99965],[-138.88881,63.99682],[-138.88973,63.99588]]]}},{"type":"Feature","properties":{"c":"YF48263","o":"Small Hydro Investments Ltd. - 100%","e":"2027-12-16"},"geometry":{"type":"Polygon","coordinates":[[[-138.91704,64.03114],[-138.9264,64.03129],[-138.92605,64.03539],[-138.91669,64.03523],[-138.91704,64.03114]]]}},{"type":"Feature","properties":{"c":"YD89505","o":"Goldbank Mining Corporation - 50%, Goldbank Eastern Klondike Properties Inc. - 50%","e":"2029-10-31"},"geometry":{"type":"Polygon","coordinates":[[[-138.90466,64.01196],[-138.91329,64.01355],[-138.90966,64.01732],[-138.90103,64.01573],[-138.90466,64.01196]]]}},{"type":"Feature","properties":{"c":"YC63889","o":"Goldbank Mining Corporation - 50%, Goldbank Eastern Klondike Properties Inc. - 50%","e":"2029-10-31"},"geometry":{"type":"Polygon","coordinates":[[[-138.80289,64.00205],[-138.79426,64.00047],[-138.79788,63.99669],[-138.80649,63.99828],[-138.80289,64.00205]]]}},{"type":"Feature","properties":{"c":"YF48364","o":"Small Hydro Investments Ltd. - 100%","e":"2027-12-16"},"geometry":{"type":"Polygon","coordinates":[[[-138.98188,64.04038],[-138.99125,64.04053],[-138.99091,64.04462],[-138.98154,64.04447],[-138.98167,64.04301],[-138.98188,64.04038]]]}},{"type":"Feature","properties":{"c":"YD11972","o":"Goldbank Mining Corporation - 50%, Goldbank Eastern Klondike Properties Inc. - 50%","e":"2029-10-31"},"geometry":{"type":"Polygon","coordinates":[[[-138.81663,64.0089],[-138.81301,64.01268],[-138.80441,64.01106],[-138.80796,64.00736],[-138.81663,64.0089]]]}},{"type":"Feature","properties":{"c":"YD89556","o":"Goldbank Mining Corporation - 50%, Goldbank Eastern Klondike Properties Inc. - 50%","e":"2029-10-31"},"geometry":{"type":"Polygon","coordinates":[[[-138.84101,64.00462],[-138.84964,64.0062],[-138.84603,64.00998],[-138.83743,64.00836],[-138.84101,64.00462]]]}},{"type":"Feature","properties":{"c":"YD89509","o":"Goldbank Mining Corporation - 50%, Goldbank Eastern Klondike Properties Inc. - 50%","e":"2029-10-31"},"geometry":{"type":"Polygon","coordinates":[[[-138.8974,64.01951],[-138.90603,64.0211],[-138.9024,64.02487],[-138.89377,64.02328],[-138.8965,64.02044],[-138.8974,64.01951]]]}},{"type":"Feature","properties":{"c":"YD89501","o":"Goldbank Mining Corporation - 50%, Goldbank Eastern Klondike Properties Inc. - 50%","e":"2029-10-31"},"geometry":{"type":"Polygon","coordinates":[[[-138.91192,64.00441],[-138.92055,64.006],[-138.91692,64.00977],[-138.90829,64.00818],[-138.91192,64.00441]]]}},{"type":"Feature","properties":{"c":"YF48375","o":"Small Hydro Investments Ltd. - 100%","e":"2027-12-16"},"geometry":{"type":"Polygon","coordinates":[[[-138.94504,64.05618],[-138.95441,64.05633],[-138.95407,64.06043],[-138.9447,64.06028],[-138.94474,64.05973],[-138.94504,64.05618]]]}},{"type":"Feature","properties":{"c":"YF48318","o":"Small Hydro Investments Ltd. - 100%","e":"2027-12-16"},"geometry":{"type":"Polygon","coordinates":[[[-138.95379,64.03993],[-138.96316,64.04008],[-138.96281,64.04417],[-138.95345,64.04402],[-138.95379,64.03993]]]}},{"type":"Feature","properties":{"c":"YD89546","o":"Goldbank Mining Corporation - 50%, Goldbank Eastern Klondike Properties Inc. - 50%","e":"2029-10-31"},"geometry":{"type":"Polygon","coordinates":[[[-138.83382,64.01214],[-138.83021,64.01592],[-138.82161,64.0143],[-138.82522,64.01052],[-138.83382,64.01214]]]}},{"type":"Feature","properties":{"c":"YD89552","o":"Goldbank Mining Corporation - 50%, Goldbank Eastern Klondike Properties Inc. - 50%","e":"2029-10-31"},"geometry":{"type":"Polygon","coordinates":[[[-138.85102,64.01538],[-138.85924,64.01692],[-138.85559,64.02069],[-138.84741,64.01916],[-138.85102,64.01538]]]}},{"type":"Feature","properties":{"c":"YF48360","o":"Small Hydro Investments Ltd. - 100%","e":"2027-12-16"},"geometry":{"type":"Polygon","coordinates":[[[-138.98256,64.03219],[-138.99192,64.03234],[-138.99159,64.03643],[-138.98222,64.03629],[-138.98234,64.03481],[-138.98256,64.03219]]]}},{"type":"Feature","properties":{"c":"YF48370","o":"Small Hydro Investments Ltd. - 100%","e":"2027-12-16"},"geometry":{"type":"Polygon","coordinates":[[[-138.97349,64.05254],[-138.98286,64.05269],[-138.98252,64.05678],[-138.97315,64.05663],[-138.97337,64.05398],[-138.97349,64.05254]]]}},{"type":"Feature","properties":{"c":"YF48356","o":"Small Hydro Investments Ltd. - 100%","e":"2027-12-16"},"geometry":{"type":"Polygon","coordinates":[[[-138.98324,64.02401],[-138.9926,64.02416],[-138.99226,64.02825],[-138.9829,64.0281],[-138.98324,64.02401]]]}},{"type":"Feature","properties":{"c":"YF48314","o":"Small Hydro Investments Ltd. - 100%","e":"2027-12-16"},"geometry":{"type":"Polygon","coordinates":[[[-138.95448,64.03175],[-138.96384,64.0319],[-138.9635,64.03599],[-138.95414,64.03584],[-138.95448,64.03175]]]}},{"type":"Feature","properties":{"c":"YF48312","o":"Small Hydro Investments Ltd. - 100%","e":"2027-12-16"},"geometry":{"type":"Polygon","coordinates":[[[-138.95482,64.02765],[-138.96418,64.0278],[-138.96384,64.0319],[-138.95448,64.03175],[-138.95482,64.02765]]]}},{"type":"Feature","properties":{"c":"YD89503","o":"Goldbank Mining Corporation - 50%, Goldbank Eastern Klondike Properties Inc. - 50%","e":"2029-10-31"},"geometry":{"type":"Polygon","coordinates":[[[-138.90829,64.00818],[-138.91692,64.00977],[-138.91329,64.01355],[-138.90466,64.01196],[-138.90829,64.00818]]]}},{"type":"Feature","properties":{"c":"YD44236","o":"Goldbank Mining Corporation - 50%, Goldbank Eastern Klondike Properties Inc. - 50%","e":"2029-10-31"},"geometry":{"type":"Polygon","coordinates":[[[-138.85686,63.99864],[-138.85325,64.00242],[-138.84462,64.00084],[-138.84816,63.99713],[-138.85686,63.99864]]]}},{"type":"Feature","properties":{"c":"YE79858","o":"Anthony Beruschi - 100%","e":"2036-11-05"},"geometry":{"type":"Polygon","coordinates":[[[-138.95818,63.99847],[-138.96476,63.99556],[-138.97126,63.99851],[-138.96454,64.00136],[-138.9606,63.99957],[-138.95818,63.99847]]]}},{"type":"Feature","properties":{"c":"YD11969","o":"Goldbank Mining Corporation - 50%, Goldbank Eastern Klondike Properties Inc. - 50%","e":"2029-10-31"},"geometry":{"type":"Polygon","coordinates":[[[-138.83238,64.00304],[-138.82884,64.00674],[-138.82018,64.00519],[-138.82367,64.00153],[-138.83238,64.00304]]]}},{"type":"Feature","properties":{"c":"YD89550","o":"Goldbank Mining Corporation - 50%, Goldbank Eastern Klondike Properties Inc. - 50%","e":"2029-10-31"},"geometry":{"type":"Polygon","coordinates":[[[-138.84242,64.01376],[-138.85102,64.01538],[-138.84741,64.01916],[-138.83881,64.01754],[-138.84242,64.01376]]]}},{"type":"Feature","properties":{"c":"YD11829","o":"Goldbank Mining Corporation - 50%, Goldbank Eastern Klondike Properties Inc. - 50%","e":"2029-10-31"},"geometry":{"type":"Polygon","coordinates":[[[-138.82735,63.99768],[-138.82374,64.00146],[-138.81511,63.99988],[-138.81872,63.9961],[-138.82735,63.99768]]]}},{"type":"Feature","properties":{"c":"YD89559","o":"Goldbank Mining Corporation - 50%, Goldbank Eastern Klondike Properties Inc. - 50%","e":"2029-10-31"},"geometry":{"type":"Polygon","coordinates":[[[-138.86189,64.004],[-138.87018,64.0056],[-138.86653,64.00938],[-138.85824,64.00782],[-138.86189,64.004]]]}},{"type":"Feature","properties":{"c":"YF48353","o":"Small Hydro Investments Ltd. - 100%","e":"2027-12-16"},"geometry":{"type":"Polygon","coordinates":[[[-138.99293,64.02006],[-139.00229,64.02021],[-139.00196,64.0243],[-138.9926,64.02416],[-138.99293,64.02006]]]}},{"type":"Feature","properties":{"c":"YD89544","o":"Goldbank Mining Corporation - 50%, Goldbank Eastern Klondike Properties Inc. - 50%","e":"2029-10-31"},"geometry":{"type":"Polygon","coordinates":[[[-138.85824,64.00782],[-138.86653,64.00938],[-138.86289,64.01315],[-138.85463,64.0116],[-138.85824,64.00782]]]}},{"type":"Feature","properties":{"c":"YD89541","o":"Goldbank Mining Corporation - 50%, Goldbank Eastern Klondike Properties Inc. - 50%","e":"2029-10-31"},"geometry":{"type":"Polygon","coordinates":[[[-138.85559,64.02069],[-138.86424,64.02229],[-138.8606,64.02606],[-138.85194,64.02446],[-138.85292,64.02346],[-138.85559,64.02069]]]}},{"type":"Feature","properties":{"c":"YF48372","o":"Small Hydro Investments Ltd. - 100%","e":"2027-12-16"},"geometry":{"type":"Polygon","coordinates":[[[-138.96412,64.05239],[-138.97349,64.05254],[-138.97315,64.05663],[-138.96378,64.05648],[-138.96398,64.05411],[-138.96412,64.05239]]]}},{"type":"Feature","properties":{"c":"YF48289","o":"Small Hydro Investments Ltd. - 100%","e":"2027-12-16"},"geometry":{"type":"Polygon","coordinates":[[[-138.9264,64.03129],[-138.93576,64.03144],[-138.93541,64.03554],[-138.92605,64.03539],[-138.92624,64.03307],[-138.9264,64.03129]]]}},{"type":"Feature","properties":{"c":"YF48307","o":"Small Hydro Investments Ltd. - 100%","e":"2027-12-16"},"geometry":{"type":"Polygon","coordinates":[[[-138.94649,64.01522],[-138.95585,64.01537],[-138.95551,64.01947],[-138.94615,64.01932],[-138.94649,64.01522]]]}},{"type":"Feature","properties":{"c":"YF48255","o":"Small Hydro Investments Ltd. - 100%","e":"2027-12-16"},"geometry":{"type":"Polygon","coordinates":[[[-138.92609,64.0108],[-138.92813,64.01083],[-138.92778,64.01492],[-138.92221,64.01483],[-138.92609,64.0108]]]}},{"type":"Feature","properties":{"c":"YD48545","o":"Goldbank Mining Corporation - 50%, Goldbank Eastern Klondike Properties Inc. - 50%","e":"2029-10-31"},"geometry":{"type":"Polygon","coordinates":[[[-138.86046,63.99486],[-138.86906,63.99648],[-138.86549,64.00022],[-138.85686,63.99864],[-138.85931,63.99607],[-138.86046,63.99486]]]}},{"type":"Feature","properties":{"c":"YC03763","o":"Canadian United Minerals Inc. - 100%","e":"2027-03-10"},"geometry":{"type":"Polygon","coordinates":[[[-138.65244,64.44511],[-138.64355,64.44675],[-138.63971,64.44287],[-138.64844,64.44123],[-138.65244,64.44511]]]}},{"type":"Feature","properties":{"c":"YF48270","o":"Small Hydro Investments Ltd. - 100%","e":"2027-12-16"},"geometry":{"type":"Polygon","coordinates":[[[-138.90662,64.04327],[-138.91599,64.04342],[-138.91564,64.04751],[-138.90627,64.04736],[-138.90652,64.04451],[-138.90662,64.04327]]]}},{"type":"Feature","properties":{"c":"YF48411","o":"Small Hydro Investments Ltd. - 100%","e":"2027-12-16"},"geometry":{"type":"Polygon","coordinates":[[[-138.84463,64.032],[-138.85326,64.0336],[-138.84955,64.03736],[-138.84092,64.03577],[-138.84321,64.03344],[-138.84463,64.032]]]}},{"type":"Feature","properties":{"c":"YD48557","o":"Goldbank Mining Corporation - 50%, Goldbank Eastern Klondike Properties Inc. - 50%","e":"2029-10-31"},"geometry":{"type":"Polygon","coordinates":[[[-138.93143,63.99467],[-138.94001,63.99625],[-138.93638,64.00002],[-138.9278,63.99845],[-138.93143,63.99467]]]}},{"type":"Feature","properties":{"c":"YD89514","o":"Goldbank Mining Corporation - 50%, Goldbank Eastern Klondike Properties Inc. - 50%","e":"2029-10-31"},"geometry":{"type":"Polygon","coordinates":[[[-138.89876,64.02865],[-138.9074,64.03024],[-138.90376,64.03401],[-138.89513,64.03242],[-138.89856,64.02886],[-138.89876,64.02865]]]}},{"type":"Feature","properties":{"c":"YF48279","o":"Small Hydro Investments Ltd. - 100%","e":"2027-12-16"},"geometry":{"type":"Polygon","coordinates":[[[-138.92813,64.01083],[-138.93748,64.01098],[-138.93714,64.01507],[-138.92778,64.01492],[-138.92813,64.01083]]]}},{"type":"Feature","properties":{"c":"YD89564","o":"Goldbank Mining Corporation - 50%, Goldbank Eastern Klondike Properties Inc. - 50%","e":"2029-10-31"},"geometry":{"type":"Polygon","coordinates":[[[-138.79084,64.00404],[-138.79943,64.00566],[-138.79582,64.00944],[-138.78722,64.00782],[-138.79084,64.00404]]]}},{"type":"Feature","properties":{"c":"YD11974","o":"Goldbank Mining Corporation - 50%, Goldbank Eastern Klondike Properties Inc. - 50%","e":"2029-10-31"},"geometry":{"type":"Polygon","coordinates":[[[-138.80441,64.01106],[-138.81301,64.01268],[-138.8094,64.01646],[-138.80705,64.01602],[-138.80205,64.01353],[-138.80256,64.01299],[-138.80441,64.01106]]]}},{"type":"Feature","properties":{"c":"YC63891","o":"Goldbank Mining Corporation - 50%, Goldbank Eastern Klondike Properties Inc. - 50%","e":"2029-10-31"},"geometry":{"type":"Polygon","coordinates":[[[-138.80649,63.99828],[-138.81511,63.99988],[-138.81152,64.00363],[-138.80289,64.00205],[-138.80649,63.99828]]]}},{"type":"Feature","properties":{"c":"YF48405","o":"Small Hydro Investments Ltd. - 100%","e":"2027-12-16"},"geometry":{"type":"Polygon","coordinates":[[[-138.88779,64.03996],[-138.88492,64.04288],[-138.87611,64.04147],[-138.87914,64.03839],[-138.88779,64.03996]]]}},{"type":"Feature","properties":{"c":"YF48365","o":"Small Hydro Investments Ltd. - 100%","e":"2027-12-16"},"geometry":{"type":"Polygon","coordinates":[[[-138.99091,64.04462],[-139.00027,64.04477],[-138.99994,64.04886],[-138.99057,64.04871],[-138.99086,64.04519],[-138.99091,64.04462]]]}},{"type":"Feature","properties":{"c":"YF48390","o":"Small Hydro Investments Ltd. - 100%","e":"2027-12-16"},"geometry":{"type":"Polygon","coordinates":[[[-138.85697,64.02984],[-138.85326,64.0336],[-138.84463,64.032],[-138.84832,64.02826],[-138.85697,64.02984]]]}},{"type":"Feature","properties":{"c":"YC03768","o":"Canadian United Minerals Inc. - 100%","e":"2027-03-10"},"geometry":{"type":"Polygon","coordinates":[[[-138.64355,64.44675],[-138.63496,64.44847],[-138.63083,64.44453],[-138.63971,64.44287],[-138.64355,64.44675]]]}},{"type":"Feature","properties":{"c":"YF48393","o":"Small Hydro Investments Ltd. - 100%","e":"2027-12-16"},"geometry":{"type":"Polygon","coordinates":[[[-138.85204,64.02448],[-138.84834,64.02824],[-138.83973,64.02663],[-138.84342,64.02288],[-138.85204,64.02448]]]}},{"type":"Feature","properties":{"c":"YF48354","o":"Small Hydro Investments Ltd. - 100%","e":"2027-12-16"},"geometry":{"type":"Polygon","coordinates":[[[-138.98358,64.01991],[-138.99293,64.02006],[-138.9926,64.02416],[-138.98324,64.02401],[-138.98358,64.01991]]]}},{"type":"Feature","properties":{"c":"YD89561","o":"Goldbank Mining Corporation - 50%, Goldbank Eastern Klondike Properties Inc. - 50%","e":"2029-10-31"},"geometry":{"type":"Polygon","coordinates":[[[-138.84462,64.00084],[-138.85325,64.00242],[-138.84964,64.0062],[-138.84101,64.00462],[-138.84337,64.00215],[-138.84462,64.00084]]]}},{"type":"Feature","properties":{"c":"YC03769","o":"Canadian United Minerals Inc. - 100%","e":"2027-03-10"},"geometry":{"type":"Polygon","coordinates":[[[-138.63971,64.44287],[-138.63083,64.44453],[-138.62683,64.44073],[-138.63584,64.43897],[-138.63971,64.44287]]]}},{"type":"Feature","properties":{"c":"YF48381","o":"Small Hydro Investments Ltd. - 100%","e":"2027-12-11"},"geometry":{"type":"Polygon","coordinates":[[[-138.89283,64.03484],[-138.90287,64.03501],[-138.90013,64.03779],[-138.8915,64.0362],[-138.89216,64.03553],[-138.89283,64.03484]]]}},{"type":"Feature","properties":{"c":"YF48357","o":"Small Hydro Investments Ltd. - 100%","e":"2027-12-16"},"geometry":{"type":"Polygon","coordinates":[[[-138.99226,64.02825],[-139.00162,64.0284],[-139.00128,64.03249],[-138.99192,64.03234],[-138.99226,64.02825]]]}},{"type":"Feature","properties":{"c":"YF48407","o":"Small Hydro Investments Ltd. - 100%","e":"2027-12-16"},"geometry":{"type":"Polygon","coordinates":[[[-138.85818,64.03895],[-138.86189,64.03519],[-138.87052,64.03678],[-138.86721,64.04015],[-138.86357,64.03994],[-138.85818,64.03895]]]}},{"type":"Feature","properties":{"c":"YF48257","o":"Small Hydro Investments Ltd. - 100%","e":"2027-12-16"},"geometry":{"type":"Polygon","coordinates":[[[-138.91806,64.01916],[-138.91833,64.01887],[-138.92744,64.01901],[-138.92709,64.02311],[-138.91773,64.02296],[-138.91806,64.01916]]]}},{"type":"Feature","properties":{"c":"YD89528","o":"Goldbank Mining Corporation - 50%, Goldbank Eastern Klondike Properties Inc. - 50%","e":"2029-10-31"},"geometry":{"type":"Polygon","coordinates":[[[-138.8815,64.02547],[-138.89013,64.02706],[-138.8865,64.03083],[-138.87787,64.02924],[-138.88099,64.026],[-138.8815,64.02547]]]}},{"type":"Feature","properties":{"c":"YD05494","o":"Joel Robert White - 100%","e":"2027-01-27"},"geometry":{"type":"Polygon","coordinates":[[[-138.81114,64.49203],[-138.80163,64.49226],[-138.80109,64.48817],[-138.8106,64.48794],[-138.81114,64.49203]]]}},{"type":"Feature","properties":{"c":"YC03767","o":"Canadian United Minerals Inc. - 100%","e":"2027-03-10"},"geometry":{"type":"Polygon","coordinates":[[[-138.66587,64.43797],[-138.66972,64.44181],[-138.66097,64.44353],[-138.65706,64.43962],[-138.66587,64.43797]]]}},{"type":"Feature","properties":{"c":"YF48282","o":"Small Hydro Investments Ltd. - 100%","e":"2027-12-16"},"geometry":{"type":"Polygon","coordinates":[[[-138.93679,64.01917],[-138.94615,64.01932],[-138.94581,64.02341],[-138.93645,64.02326],[-138.93679,64.01917]]]}},{"type":"Feature","properties":{"c":"YF48325","o":"Small Hydro Investments Ltd. - 100%","e":"2027-12-11"},"geometry":{"type":"Polygon","coordinates":[[[-138.97524,64.00749],[-138.98459,64.00764],[-138.98425,64.01173],[-138.9749,64.01158],[-138.97524,64.00749]]]}},{"type":"Feature","properties":{"c":"YC03773","o":"Canadian United Minerals Inc. - 100%","e":"2027-03-10"},"geometry":{"type":"Polygon","coordinates":[[[-138.65582,64.44858],[-138.64719,64.4502],[-138.64355,64.44675],[-138.65244,64.44511],[-138.65582,64.44858]]]}},{"type":"Feature","properties":{"c":"YC03762","o":"Canadian United Minerals Inc. - 100%","e":"2027-03-10"},"geometry":{"type":"Polygon","coordinates":[[[-138.63584,64.43897],[-138.64439,64.4373],[-138.64844,64.44123],[-138.63971,64.44287],[-138.63584,64.43897]]]}},{"type":"Feature","properties":{"c":"YD11975","o":"Goldbank Mining Corporation - 50%, Goldbank Eastern Klondike Properties Inc. - 50%","e":"2029-10-31"},"geometry":{"type":"Polygon","coordinates":[[[-138.81301,64.01268],[-138.82161,64.0143],[-138.818,64.01808],[-138.8094,64.01646],[-138.81251,64.01321],[-138.81301,64.01268]]]}},{"type":"Feature","properties":{"c":"YF48382","o":"Small Hydro Investments Ltd. - 100%","e":"2027-12-11"},"geometry":{"type":"Polygon","coordinates":[[[-138.8915,64.0362],[-138.88779,64.03996],[-138.87916,64.03837],[-138.88273,64.03475],[-138.8915,64.0362]]]}},{"type":"Feature","properties":{"c":"YF48329","o":"Small Hydro Investments Ltd. - 100%","e":"2027-12-16"},"geometry":{"type":"Polygon","coordinates":[[[-138.97456,64.01567],[-138.98392,64.01582],[-138.98358,64.01991],[-138.97422,64.01977],[-138.97456,64.01567]]]}},{"type":"Feature","properties":{"c":"YD89539","o":"Goldbank Mining Corporation - 50%, Goldbank Eastern Klondike Properties Inc. - 50%","e":"2029-10-31"},"geometry":{"type":"Polygon","coordinates":[[[-138.85924,64.01692],[-138.86788,64.01851],[-138.86424,64.02229],[-138.85559,64.02069],[-138.85924,64.01692]]]}},{"type":"Feature","properties":{"c":"YF48305","o":"Small Hydro Investments Ltd. - 100%","e":"2027-12-16"},"geometry":{"type":"Polygon","coordinates":[[[-138.94684,64.01113],[-138.95619,64.01128],[-138.95585,64.01537],[-138.94649,64.01522],[-138.9466,64.01397],[-138.94684,64.01113]]]}},{"type":"Feature","properties":{"c":"YD05492","o":"Joel Robert White - 100%","e":"2027-01-27"},"geometry":{"type":"Polygon","coordinates":[[[-138.79212,64.49249],[-138.80163,64.49226],[-138.80216,64.49635],[-138.79265,64.49658],[-138.79212,64.49249]]]}},{"type":"Feature","properties":{"c":"YD48561","o":"Goldbank Mining Corporation - 50%, Goldbank Eastern Klondike Properties Inc. - 50%","e":"2029-10-31"},"geometry":{"type":"Polygon","coordinates":[[[-138.92418,64.00222],[-138.93274,64.0038],[-138.92911,64.00757],[-138.92055,64.006],[-138.92418,64.00222]]]}},{"type":"Feature","properties":{"c":"YF48404","o":"Small Hydro Investments Ltd. - 100%","e":"2027-12-16"},"geometry":{"type":"Polygon","coordinates":[[[-138.88779,64.03996],[-138.89643,64.04155],[-138.89373,64.04429],[-138.88492,64.04288],[-138.88688,64.04088],[-138.88779,64.03996]]]}},{"type":"Feature","properties":{"c":"YF48264","o":"Small Hydro Investments Ltd. - 100%","e":"2027-12-16"},"geometry":{"type":"Polygon","coordinates":[[[-138.90768,64.03099],[-138.91704,64.03114],[-138.91669,64.03523],[-138.90732,64.03508],[-138.90768,64.03099]]]}},{"type":"Feature","properties":{"c":"YF48351","o":"Small Hydro Investments Ltd. - 100%","e":"2027-12-16"},"geometry":{"type":"Polygon","coordinates":[[[-138.99327,64.01597],[-139.00263,64.01612],[-139.00229,64.02021],[-138.99293,64.02006],[-138.99327,64.01597]]]}},{"type":"Feature","properties":{"c":"YF48398","o":"Small Hydro Investments Ltd. - 100%","e":"2027-12-16"},"geometry":{"type":"Polygon","coordinates":[[[-138.82253,64.02339],[-138.81881,64.02715],[-138.81021,64.02553],[-138.81392,64.02177],[-138.82253,64.02339]]]}},{"type":"Feature","properties":{"c":"YF48367","o":"Small Hydro Investments Ltd. - 100%","e":"2027-12-16"},"geometry":{"type":"Polygon","coordinates":[[[-138.9812,64.04856],[-138.99057,64.04871],[-138.99023,64.05281],[-138.98087,64.05266],[-138.98095,64.05167],[-138.9812,64.04856]]]}},{"type":"Feature","properties":{"c":"YF48396","o":"Small Hydro Investments Ltd. - 100%","e":"2027-12-16"},"geometry":{"type":"Polygon","coordinates":[[[-138.83113,64.02501],[-138.82742,64.02877],[-138.81881,64.02715],[-138.82252,64.0234],[-138.83113,64.02501]]]}},{"type":"Feature","properties":{"c":"YF48339","o":"Small Hydro Investments Ltd. - 100%","e":"2027-12-16"},"geometry":{"type":"Polygon","coordinates":[[[-138.97286,64.03614],[-138.98222,64.03629],[-138.98188,64.04038],[-138.97252,64.04023],[-138.97286,64.03614]]]}},{"type":"Feature","properties":{"c":"YE79857","o":"Anthony Beruschi - 100%","e":"2036-11-05"},"geometry":{"type":"Polygon","coordinates":[[[-138.96454,64.00136],[-138.97126,63.99851],[-138.97776,64.00145],[-138.97104,64.0043],[-138.9688,64.00329],[-138.96454,64.00136]]]}},{"type":"Feature","properties":{"c":"YF48291","o":"Small Hydro Investments Ltd. - 100%","e":"2027-12-16"},"geometry":{"type":"Polygon","coordinates":[[[-138.92605,64.03539],[-138.93541,64.03554],[-138.93506,64.03963],[-138.9257,64.03948],[-138.92599,64.03603],[-138.92605,64.03539]]]}},{"type":"Feature","properties":{"c":"YD89562","o":"Goldbank Mining Corporation - 50%, Goldbank Eastern Klondike Properties Inc. - 50%","e":"2029-10-31"},"geometry":{"type":"Polygon","coordinates":[[[-138.83599,63.99926],[-138.84462,64.00084],[-138.84101,64.00462],[-138.83238,64.00304],[-138.83551,63.99976],[-138.83599,63.99926]]]}},{"type":"Feature","properties":{"c":"YD48558","o":"Goldbank Mining Corporation - 50%, Goldbank Eastern Klondike Properties Inc. - 50%","e":"2029-10-31"},"geometry":{"type":"Polygon","coordinates":[[[-138.91918,63.99686],[-138.9278,63.99845],[-138.92418,64.00222],[-138.91555,64.00063],[-138.91918,63.99686]]]}},{"type":"Feature","properties":{"c":"YD89511","o":"Goldbank Mining Corporation - 50%, Goldbank Eastern Klondike Properties Inc. - 50%","e":"2029-10-31"},"geometry":{"type":"Polygon","coordinates":[[[-138.89377,64.02328],[-138.9024,64.02487],[-138.89876,64.02865],[-138.89013,64.02706],[-138.89355,64.02351],[-138.89377,64.02328]]]}},{"type":"Feature","properties":{"c":"YF48406","o":"Small Hydro Investments Ltd. - 100%","e":"2027-12-16"},"geometry":{"type":"Polygon","coordinates":[[[-138.87052,64.03678],[-138.87916,64.03837],[-138.87611,64.04147],[-138.86721,64.04015],[-138.87052,64.03678]]]}},{"type":"Feature","properties":{"c":"YF48285","o":"Small Hydro Investments Ltd. - 100%","e":"2027-12-16"},"geometry":{"type":"Polygon","coordinates":[[[-138.92709,64.02311],[-138.93645,64.02326],[-138.9361,64.02735],[-138.92674,64.0272],[-138.92709,64.02311]]]}},{"type":"Feature","properties":{"c":"YF48400","o":"Small Hydro Investments Ltd. - 100%","e":"2027-12-16"},"geometry":{"type":"Polygon","coordinates":[[[-138.80532,64.02015],[-138.81393,64.02177],[-138.81021,64.02553],[-138.80534,64.02461],[-138.80272,64.02279],[-138.80394,64.02155],[-138.80532,64.02015]]]}},{"type":"Feature","properties":{"c":"YF48319","o":"Small Hydro Investments Ltd. - 100%","e":"2027-12-16"},"geometry":{"type":"Polygon","coordinates":[[[-138.94443,64.03978],[-138.95379,64.03993],[-138.95345,64.04402],[-138.94408,64.04387],[-138.94443,64.03978]]]}},{"type":"Feature","properties":{"c":"YF48304","o":"Small Hydro Investments Ltd. - 100%","e":"2027-12-16"},"geometry":{"type":"Polygon","coordinates":[[[-138.95619,64.01128],[-138.96555,64.01143],[-138.96521,64.01552],[-138.95585,64.01537],[-138.95619,64.01128]]]}},{"type":"Feature","properties":{"c":"YF48378","o":"Small Hydro Investments Ltd. - 100%","e":"2027-12-16"},"geometry":{"type":"Polygon","coordinates":[[[-138.92665,64.05179],[-138.93602,64.05194],[-138.93567,64.05603],[-138.9263,64.05588],[-138.92645,64.05412],[-138.92665,64.05179]]]}},{"type":"Feature","properties":{"c":"YF48300","o":"Small Hydro Investments Ltd. - 100%","e":"2027-12-11"},"geometry":{"type":"Polygon","coordinates":[[[-138.95688,64.0031],[-138.96623,64.00325],[-138.96589,64.00734],[-138.95653,64.00719],[-138.95688,64.0031]]]}},{"type":"Feature","properties":{"c":"YF48317","o":"Small Hydro Investments Ltd. - 100%","e":"2027-12-16"},"geometry":{"type":"Polygon","coordinates":[[[-138.94477,64.03569],[-138.95414,64.03584],[-138.95379,64.03993],[-138.94443,64.03978],[-138.94477,64.03569]]]}},{"type":"Feature","properties":{"c":"YF48333","o":"Small Hydro Investments Ltd. - 100%","e":"2027-12-16"},"geometry":{"type":"Polygon","coordinates":[[[-138.97388,64.02386],[-138.98324,64.02401],[-138.9829,64.0281],[-138.97354,64.02795],[-138.97388,64.02386]]]}},{"type":"Feature","properties":{"c":"YF48402","o":"Small Hydro Investments Ltd. - 100%","e":"2027-12-16"},"geometry":{"type":"Polygon","coordinates":[[[-138.8987,64.04509],[-138.89373,64.04429],[-138.89643,64.04155],[-138.90507,64.04314],[-138.90191,64.04635],[-138.8987,64.04509]]]}},{"type":"Feature","properties":{"c":"YF48352","o":"Small Hydro Investments Ltd. - 100%","e":"2027-12-16"},"geometry":{"type":"Polygon","coordinates":[[[-138.98392,64.01582],[-138.99327,64.01597],[-138.99293,64.02006],[-138.98358,64.01991],[-138.98392,64.01582]]]}},{"type":"Feature","properties":{"c":"YF48343","o":"Small Hydro Investments Ltd. - 100%","e":"2027-12-16"},"geometry":{"type":"Polygon","coordinates":[[[-138.97218,64.04432],[-138.98154,64.04447],[-138.9812,64.04856],[-138.97184,64.04842],[-138.97218,64.04432]]]}},{"type":"Feature","properties":{"c":"YF48296","o":"Small Hydro Investments Ltd. - 100%","e":"2027-12-16"},"geometry":{"type":"Polygon","coordinates":[[[-138.94374,64.04797],[-138.94339,64.05206],[-138.93403,64.05191],[-138.93437,64.04789],[-138.94374,64.04797]]]}},{"type":"Feature","properties":{"c":"YD11970","o":"Goldbank Mining Corporation - 50%, Goldbank Eastern Klondike Properties Inc. - 50%","e":"2029-10-31"},"geometry":{"type":"Polygon","coordinates":[[[-138.82018,64.00519],[-138.82884,64.00674],[-138.82522,64.01052],[-138.81663,64.0089],[-138.82018,64.00519]]]}},{"type":"Feature","properties":{"c":"YF48349","o":"Small Hydro Investments Ltd. - 100%","e":"2027-12-11"},"geometry":{"type":"Polygon","coordinates":[[[-138.99361,64.01188],[-139.00296,64.01202],[-139.00263,64.01612],[-138.99327,64.01597],[-138.99361,64.01188]]]}},{"type":"Feature","properties":{"c":"YD89543","o":"Goldbank Mining Corporation - 50%, Goldbank Eastern Klondike Properties Inc. - 50%","e":"2029-10-31"},"geometry":{"type":"Polygon","coordinates":[[[-138.85463,64.0116],[-138.86289,64.01315],[-138.85924,64.01692],[-138.85102,64.01538],[-138.85463,64.0116]]]}},{"type":"Feature","properties":{"c":"YC03764","o":"Canadian United Minerals Inc. - 100%","e":"2027-03-10"},"geometry":{"type":"Polygon","coordinates":[[[-138.64844,64.44123],[-138.64439,64.4373],[-138.6502,64.43617],[-138.65386,64.4364],[-138.65706,64.43962],[-138.64844,64.44123]]]}},{"type":"Feature","properties":{"c":"YF48268","o":"Small Hydro Investments Ltd. - 100%","e":"2027-12-16"},"geometry":{"type":"Polygon","coordinates":[[[-138.90697,64.03917],[-138.91634,64.03933],[-138.91599,64.04342],[-138.90662,64.04327],[-138.90678,64.04139],[-138.90697,64.03917]]]}},{"type":"Feature","properties":{"c":"YF48272","o":"Small Hydro Investments Ltd. - 100%","e":"2027-12-16"},"geometry":{"type":"Polygon","coordinates":[[[-138.93838,64.00039],[-138.9476,64.00209],[-138.94753,64.00295],[-138.93818,64.00279],[-138.93838,64.00039]]]}},{"type":"Feature","properties":{"c":"YF48350","o":"Small Hydro Investments Ltd. - 100%","e":"2027-12-11"},"geometry":{"type":"Polygon","coordinates":[[[-138.98425,64.01173],[-138.99361,64.01188],[-138.99327,64.01597],[-138.98392,64.01582],[-138.98425,64.01173]]]}},{"type":"Feature","properties":{"c":"YF48261","o":"Small Hydro Investments Ltd. - 100%","e":"2027-12-16"},"geometry":{"type":"Polygon","coordinates":[[[-138.91738,64.02705],[-138.92674,64.0272],[-138.9264,64.03129],[-138.91704,64.03114],[-138.91738,64.02705]]]}},{"type":"Feature","properties":{"c":"YD11973","o":"Goldbank Mining Corporation - 50%, Goldbank Eastern Klondike Properties Inc. - 50%","e":"2029-10-31"},"geometry":{"type":"Polygon","coordinates":[[[-138.82522,64.01052],[-138.82161,64.0143],[-138.81301,64.01268],[-138.81659,64.00894],[-138.82522,64.01052]]]}},{"type":"Feature","properties":{"c":"YF48297","o":"Small Hydro Investments Ltd. - 100%","e":"2027-12-16"},"geometry":{"type":"Polygon","coordinates":[[[-138.92501,64.04766],[-138.93437,64.04782],[-138.93403,64.05191],[-138.92466,64.05176],[-138.92497,64.0481],[-138.92501,64.04766]]]}},{"type":"Feature","properties":{"c":"YF48420","o":"Small Hydro Investments Ltd. - 100%","e":"2026-12-16"},"geometry":{"type":"Polygon","coordinates":[[[-139.01062,64.00453],[-139.0039,64.00738],[-138.99737,64.00444],[-139.00409,64.00159],[-139.01062,64.00453]]]}},{"type":"Feature","properties":{"c":"YD89522","o":"Goldbank Mining Corporation - 50%, Goldbank Eastern Klondike Properties Inc. - 50%","e":"2029-10-31"},"geometry":{"type":"Polygon","coordinates":[[[-138.90103,64.01573],[-138.8974,64.01951],[-138.88877,64.01792],[-138.8924,64.01415],[-138.90103,64.01573]]]}},{"type":"Feature","properties":{"c":"YF48275","o":"Small Hydro Investments Ltd. - 100%","e":"2027-12-16"},"geometry":{"type":"Polygon","coordinates":[[[-138.93378,64.00272],[-138.93818,64.00279],[-138.93783,64.00689],[-138.92989,64.00676],[-138.93378,64.00272]]]}},{"type":"Feature","properties":{"c":"YD48546","o":"Goldbank Mining Corporation - 50%, Goldbank Eastern Klondike Properties Inc. - 50%","e":"2029-10-31"},"geometry":{"type":"Polygon","coordinates":[[[-138.86906,63.99648],[-138.87746,63.99806],[-138.87389,64.00176],[-138.86549,64.00022],[-138.86906,63.99648]]]}},{"type":"Feature","properties":{"c":"YF48368","o":"Small Hydro Investments Ltd. - 100%","e":"2027-12-16"},"geometry":{"type":"Polygon","coordinates":[[[-138.98286,64.05269],[-138.99223,64.05284],[-138.99189,64.05693],[-138.98252,64.05678],[-138.98267,64.05491],[-138.98286,64.05269]]]}},{"type":"Feature","properties":{"c":"YD48548","o":"Goldbank Mining Corporation - 50%, Goldbank Eastern Klondike Properties Inc. - 50%","e":"2029-10-31"},"geometry":{"type":"Polygon","coordinates":[[[-138.86549,64.00022],[-138.87389,64.00176],[-138.87018,64.0056],[-138.86189,64.004],[-138.86549,64.00022]]]}},{"type":"Feature","properties":{"c":"YF48310","o":"Small Hydro Investments Ltd. - 100%","e":"2027-12-16"},"geometry":{"type":"Polygon","coordinates":[[[-138.95516,64.02356],[-138.96452,64.02371],[-138.96418,64.0278],[-138.95482,64.02765],[-138.95512,64.02405],[-138.95516,64.02356]]]}},{"type":"Feature","properties":{"c":"YF48284","o":"Small Hydro Investments Ltd. - 100%","e":"2027-12-16"},"geometry":{"type":"Polygon","coordinates":[[[-138.93645,64.02326],[-138.94581,64.02341],[-138.94546,64.0275],[-138.9361,64.02735],[-138.93624,64.02568],[-138.93645,64.02326]]]}},{"type":"Feature","properties":{"c":"YD89560","o":"Goldbank Mining Corporation - 50%, Goldbank Eastern Klondike Properties Inc. - 50%","e":"2029-10-31"},"geometry":{"type":"Polygon","coordinates":[[[-138.85325,64.00242],[-138.86189,64.004],[-138.85824,64.00782],[-138.84964,64.0062],[-138.85325,64.00242]]]}},{"type":"Feature","properties":{"c":"YF48276","o":"Small Hydro Investments Ltd. - 100%","e":"2027-12-16"},"geometry":{"type":"Polygon","coordinates":[[[-138.93783,64.00689],[-138.94718,64.00704],[-138.94684,64.01113],[-138.93748,64.01098],[-138.93783,64.00689]]]}},{"type":"Feature","properties":{"c":"YF48332","o":"Small Hydro Investments Ltd. - 100%","e":"2027-12-16"},"geometry":{"type":"Polygon","coordinates":[[[-138.96486,64.01962],[-138.97422,64.01977],[-138.97388,64.02386],[-138.96452,64.02371],[-138.96486,64.01962]]]}},{"type":"Feature","properties":{"c":"YF48401","o":"Small Hydro Investments Ltd. - 100%","e":"2027-12-16"},"geometry":{"type":"Polygon","coordinates":[[[-138.81764,64.01801],[-138.81393,64.02177],[-138.80532,64.02015],[-138.80818,64.01726],[-138.80891,64.01695],[-138.80863,64.0168],[-138.80904,64.01639],[-138.81764,64.01801]]]}},{"type":"Feature","properties":{"c":"YF48340","o":"Small Hydro Investments Ltd. - 100%","e":"2027-12-16"},"geometry":{"type":"Polygon","coordinates":[[[-138.9635,64.03599],[-138.97286,64.03614],[-138.97252,64.04023],[-138.96316,64.04008],[-138.9635,64.03599]]]}},{"type":"Feature","properties":{"c":"YD89524","o":"Goldbank Mining Corporation - 50%, Goldbank Eastern Klondike Properties Inc. - 50%","e":"2029-10-31"},"geometry":{"type":"Polygon","coordinates":[[[-138.88877,64.01792],[-138.8974,64.01951],[-138.89377,64.02328],[-138.88514,64.02169],[-138.88853,64.01817],[-138.88877,64.01792]]]}},{"type":"Feature","properties":{"c":"YD11971","o":"Goldbank Mining Corporation - 50%, Goldbank Eastern Klondike Properties Inc. - 50%","e":"2029-10-31"},"geometry":{"type":"Polygon","coordinates":[[[-138.81152,64.00363],[-138.82018,64.00519],[-138.81663,64.0089],[-138.80803,64.00728],[-138.81031,64.0049],[-138.81152,64.00363]]]}},{"type":"Feature","properties":{"c":"YD89537","o":"Goldbank Mining Corporation - 50%, Goldbank Eastern Klondike Properties Inc. - 50%","e":"2029-10-31"},"geometry":{"type":"Polygon","coordinates":[[[-138.86289,64.01315],[-138.87152,64.01474],[-138.86788,64.01851],[-138.85924,64.01692],[-138.86289,64.01315]]]}},{"type":"Feature","properties":{"c":"YD11813","o":"Goldbank Mining Corporation - 50%, Goldbank Eastern Klondike Properties Inc. - 50%","e":"2029-10-31"},"geometry":{"type":"Polygon","coordinates":[[[-138.93638,64.00002],[-138.94001,63.99625],[-138.94864,63.99784],[-138.94501,64.00161],[-138.93838,64.00039],[-138.93638,64.00002]]]}},{"type":"Feature","properties":{"c":"YD89520","o":"Goldbank Mining Corporation - 50%, Goldbank Eastern Klondike Properties Inc. - 50%","e":"2029-10-31"},"geometry":{"type":"Polygon","coordinates":[[[-138.89604,64.01037],[-138.90466,64.01196],[-138.90103,64.01573],[-138.8924,64.01415],[-138.89581,64.01061],[-138.89604,64.01037]]]}},{"type":"Feature","properties":{"c":"YF48306","o":"Small Hydro Investments Ltd. - 100%","e":"2027-12-16"},"geometry":{"type":"Polygon","coordinates":[[[-138.95585,64.01537],[-138.96521,64.01552],[-138.96486,64.01962],[-138.95551,64.01947],[-138.95585,64.01537]]]}},{"type":"Feature","properties":{"c":"YF48388","o":"Small Hydro Investments Ltd. - 100%","e":"2027-12-11"},"geometry":{"type":"Polygon","coordinates":[[[-138.8656,64.03143],[-138.86189,64.03519],[-138.85326,64.0336],[-138.85692,64.02988],[-138.8656,64.03143]]]}},{"type":"Feature","properties":{"c":"YC03777","o":"Canadian United Minerals Inc. - 100%","e":"2027-03-10"},"geometry":{"type":"Polygon","coordinates":[[[-138.61104,64.43572],[-138.6214,64.43557],[-138.62377,64.43782],[-138.61497,64.43947],[-138.61104,64.43572]]]}},{"type":"Feature","properties":{"c":"YD89502","o":"Goldbank Mining Corporation - 50%, Goldbank Eastern Klondike Properties Inc. - 50%","e":"2029-10-31"},"geometry":{"type":"Polygon","coordinates":[[[-138.92055,64.006],[-138.92918,64.00758],[-138.92555,64.01136],[-138.91692,64.00977],[-138.92055,64.006]]]}},{"type":"Feature","properties":{"c":"YF48283","o":"Small Hydro Investments Ltd. - 100%","e":"2027-12-16"},"geometry":{"type":"Polygon","coordinates":[[[-138.92744,64.01901],[-138.93679,64.01917],[-138.93645,64.02326],[-138.92709,64.02311],[-138.92744,64.01901]]]}},{"type":"Feature","properties":{"c":"YF48344","o":"Small Hydro Investments Ltd. - 100%","e":"2027-12-16"},"geometry":{"type":"Polygon","coordinates":[[[-138.96281,64.04417],[-138.97218,64.04432],[-138.97184,64.04842],[-138.96247,64.04827],[-138.96281,64.04417]]]}},{"type":"Feature","properties":{"c":"YF48298","o":"Small Hydro Investments Ltd. - 100%","e":"2027-12-11"},"geometry":{"type":"Polygon","coordinates":[[[-138.95718,63.99951],[-138.9606,63.99957],[-138.96632,64.00216],[-138.96623,64.00325],[-138.95688,64.0031],[-138.95718,63.99951]]]}},{"type":"Feature","properties":{"c":"YD89534","o":"Goldbank Mining Corporation - 50%, Goldbank Eastern Klondike Properties Inc. - 50%","e":"2029-10-31"},"geometry":{"type":"Polygon","coordinates":[[[-138.87879,64.00719],[-138.88741,64.00878],[-138.88378,64.01256],[-138.87515,64.01097],[-138.87796,64.00805],[-138.87879,64.00719]]]}},{"type":"Feature","properties":{"c":"YF48380","o":"Small Hydro Investments Ltd. - 100%","e":"2027-12-11"},"geometry":{"type":"Polygon","coordinates":[[[-138.90013,64.03779],[-138.89643,64.04155],[-138.88779,64.03996],[-138.89133,64.03636],[-138.90013,64.03779]]]}},{"type":"Feature","properties":{"c":"YD89599","o":"Goldbank Mining Corporation - 50%, Goldbank Eastern Klondike Properties Inc. - 50%","e":"2029-10-31"},"geometry":{"type":"Polygon","coordinates":[[[-138.82374,64.00146],[-138.82018,64.00519],[-138.81152,64.00363],[-138.81511,63.99988],[-138.82374,64.00146]]]}},{"type":"Feature","properties":{"c":"YD89535","o":"Goldbank Mining Corporation - 50%, Goldbank Eastern Klondike Properties Inc. - 50%","e":"2029-10-31"},"geometry":{"type":"Polygon","coordinates":[[[-138.86653,64.00938],[-138.87515,64.01097],[-138.87152,64.01474],[-138.86289,64.01315],[-138.86653,64.00938]]]}},{"type":"Feature","properties":{"c":"YF48271","o":"Small Hydro Investments Ltd. - 100%","e":"2027-12-16"},"geometry":{"type":"Polygon","coordinates":[[[-138.91564,64.04751],[-138.92501,64.04766],[-138.92466,64.05176],[-138.91529,64.0516],[-138.91549,64.04925],[-138.91564,64.04751]]]}},{"type":"Feature","properties":{"c":"YC03771","o":"Canadian United Minerals Inc. - 100%","e":"2027-03-10"},"geometry":{"type":"Polygon","coordinates":[[[-138.62278,64.44714],[-138.61885,64.44318],[-138.62758,64.44144],[-138.63168,64.44534],[-138.62278,64.44714]]]}},{"type":"Feature","properties":{"c":"YD89523","o":"Goldbank Mining Corporation - 50%, Goldbank Eastern Klondike Properties Inc. - 50%","e":"2029-10-31"},"geometry":{"type":"Polygon","coordinates":[[[-138.88014,64.01633],[-138.88877,64.01792],[-138.88514,64.02169],[-138.87651,64.0201],[-138.87877,64.01776],[-138.88014,64.01633]]]}},{"type":"Feature","properties":{"c":"YF48394","o":"Small Hydro Investments Ltd. - 100%","e":"2027-12-16"},"geometry":{"type":"Polygon","coordinates":[[[-138.83973,64.02663],[-138.83602,64.03039],[-138.82742,64.02877],[-138.83112,64.02502],[-138.83973,64.02663]]]}},{"type":"Feature","properties":{"c":"YF48324","o":"Small Hydro Investments Ltd. - 100%","e":"2027-12-11"},"geometry":{"type":"Polygon","coordinates":[[[-138.96623,64.00325],[-138.9688,64.00329],[-138.97534,64.00625],[-138.97524,64.00749],[-138.96589,64.00734],[-138.96623,64.00325]]]}},{"type":"Feature","properties":{"c":"YF48280","o":"Small Hydro Investments Ltd. - 100%","e":"2027-12-16"},"geometry":{"type":"Polygon","coordinates":[[[-138.93714,64.01507],[-138.94649,64.01522],[-138.94615,64.01932],[-138.93679,64.01917],[-138.93714,64.01507]]]}},{"type":"Feature","properties":{"c":"YD89554","o":"Goldbank Mining Corporation - 50%, Goldbank Eastern Klondike Properties Inc. - 50%","e":"2029-10-31"},"geometry":{"type":"Polygon","coordinates":[[[-138.83238,64.00304],[-138.84101,64.00462],[-138.83743,64.00836],[-138.82884,64.00674],[-138.83199,64.00344],[-138.83238,64.00304]]]}},{"type":"Feature","properties":{"c":"YD89545","o":"Goldbank Mining Corporation - 50%, Goldbank Eastern Klondike Properties Inc. - 50%","e":"2029-10-31"},"geometry":{"type":"Polygon","coordinates":[[[-138.83021,64.01592],[-138.8266,64.0197],[-138.818,64.01808],[-138.82155,64.01436],[-138.83021,64.01592]]]}},{"type":"Feature","properties":{"c":"YC03776","o":"Canadian United Minerals Inc. - 100%","e":"2027-03-10"},"geometry":{"type":"Polygon","coordinates":[[[-138.62377,64.43782],[-138.62758,64.44144],[-138.61885,64.44318],[-138.61497,64.43947],[-138.62377,64.43782]]]}},{"type":"Feature","properties":{"c":"YF48292","o":"Small Hydro Investments Ltd. - 100%","e":"2027-12-16"},"geometry":{"type":"Polygon","coordinates":[[[-138.93506,64.03963],[-138.94443,64.03978],[-138.94408,64.04387],[-138.93473,64.04364],[-138.93506,64.03963]]]}},{"type":"Feature","properties":{"c":"YD89517","o":"Goldbank Mining Corporation - 50%, Goldbank Eastern Klondike Properties Inc. - 50%","e":"2029-10-31"},"geometry":{"type":"Polygon","coordinates":[[[-138.89104,64.00501],[-138.89967,64.0066],[-138.89604,64.01037],[-138.88741,64.00878],[-138.89013,64.00595],[-138.89104,64.00501]]]}},{"type":"Feature","properties":{"c":"YF48416","o":"Small Hydro Investments Ltd. - 100%","e":"2027-12-16"},"geometry":{"type":"Polygon","coordinates":[[[-138.8151,64.03091],[-138.82371,64.03253],[-138.82208,64.03418],[-138.81765,64.03315],[-138.81483,64.03119],[-138.8151,64.03091]]]}},{"type":"Feature","properties":{"c":"YC03775","o":"Canadian United Minerals Inc. - 100%","e":"2027-03-10"},"geometry":{"type":"Polygon","coordinates":[[[-138.63229,64.4356],[-138.639,64.43557],[-138.64224,64.43522],[-138.64439,64.4373],[-138.63584,64.43897],[-138.63229,64.4356]]]}},{"type":"Feature","properties":{"c":"YD05493","o":"Joel Robert White - 100%","e":"2027-01-27"},"geometry":{"type":"Polygon","coordinates":[[[-138.80109,64.48817],[-138.80163,64.49226],[-138.79212,64.49249],[-138.79158,64.4884],[-138.80109,64.48817]]]}},{"type":"Feature","properties":{"c":"YD89527","o":"Goldbank Mining Corporation - 50%, Goldbank Eastern Klondike Properties Inc. - 50%","e":"2029-10-31"},"geometry":{"type":"Polygon","coordinates":[[[-138.87287,64.02388],[-138.8815,64.02547],[-138.87787,64.02924],[-138.86923,64.02765],[-138.87287,64.02388]]]}},{"type":"Feature","properties":{"c":"YF48385","o":"Small Hydro Investments Ltd. - 100%","e":"2027-12-11"},"geometry":{"type":"Polygon","coordinates":[[[-138.88657,64.03085],[-138.88286,64.03461],[-138.87423,64.03302],[-138.87783,64.02937],[-138.88657,64.03085]]]}},{"type":"Feature","properties":{"c":"YF48374","o":"Small Hydro Investments Ltd. - 100%","e":"2027-12-16"},"geometry":{"type":"Polygon","coordinates":[[[-138.95475,64.05224],[-138.96412,64.05239],[-138.96378,64.05648],[-138.95441,64.05633],[-138.95466,64.05333],[-138.95475,64.05224]]]}},{"type":"Feature","properties":{"c":"YF48302","o":"Small Hydro Investments Ltd. - 100%","e":"2027-12-11"},"geometry":{"type":"Polygon","coordinates":[[[-138.95653,64.00719],[-138.96589,64.00734],[-138.96555,64.01143],[-138.95619,64.01128],[-138.95638,64.00899],[-138.95653,64.00719]]]}},{"type":"Feature","properties":{"c":"YD89508","o":"Goldbank Mining Corporation - 50%, Goldbank Eastern Klondike Properties Inc. - 50%","e":"2029-10-31"},"geometry":{"type":"Polygon","coordinates":[[[-138.90966,64.01732],[-138.91829,64.01891],[-138.91466,64.02269],[-138.90603,64.0211],[-138.90966,64.01732]]]}},{"type":"Feature","properties":{"c":"YF48258","o":"Small Hydro Investments Ltd. - 100%","e":"2027-12-16"},"geometry":{"type":"Polygon","coordinates":[[[-138.91806,64.01916],[-138.91773,64.02296],[-138.91445,64.0229],[-138.91806,64.01916]]]}},{"type":"Feature","properties":{"c":"YF48320","o":"Small Hydro Investments Ltd. - 100%","e":"2027-12-16"},"geometry":{"type":"Polygon","coordinates":[[[-138.95345,64.04402],[-138.96281,64.04417],[-138.96247,64.04827],[-138.95311,64.04812],[-138.95345,64.04402]]]}},{"type":"Feature","properties":{"c":"YF48408","o":"Small Hydro Investments Ltd. - 100%","e":"2027-12-16"},"geometry":{"type":"Polygon","coordinates":[[[-138.84955,64.03736],[-138.85818,64.03895],[-138.85733,64.03982],[-138.84735,64.03959],[-138.84831,64.03862],[-138.84955,64.03736]]]}},{"type":"Feature","properties":{"c":"YC03778","o":"Canadian United Minerals Inc. - 100%","e":"2027-03-10"},"geometry":{"type":"Polygon","coordinates":[[[-138.61885,64.44318],[-138.61298,64.44427],[-138.61027,64.44258],[-138.60637,64.44108],[-138.61497,64.43947],[-138.61885,64.44318]]]}},{"type":"Feature","properties":{"c":"YE79851","o":"Anthony Beruschi - 100%","e":"2036-11-05"},"geometry":{"type":"Polygon","coordinates":[[[-139.00409,64.00159],[-138.99737,64.00444],[-138.99097,64.00155],[-138.99766,63.99871],[-139.00409,64.00159]]]}},{"type":"Feature","properties":{"c":"YF48348","o":"Small Hydro Investments Ltd. - 100%","e":"2027-12-11"},"geometry":{"type":"Polygon","coordinates":[[[-138.98459,64.00764],[-138.99395,64.00778],[-138.99361,64.01188],[-138.98425,64.01173],[-138.98459,64.00764]]]}},{"type":"Feature","properties":{"c":"YF48295","o":"Small Hydro Investments Ltd. - 100%","e":"2027-12-16"},"geometry":{"type":"Polygon","coordinates":[[[-138.92535,64.04357],[-138.93472,64.04372],[-138.93437,64.04782],[-138.92501,64.04766],[-138.9253,64.04423],[-138.92535,64.04357]]]}},{"type":"Feature","properties":{"c":"YF48345","o":"Small Hydro Investments Ltd. - 100%","e":"2027-12-16"},"geometry":{"type":"Polygon","coordinates":[[[-138.97184,64.04842],[-138.9812,64.04856],[-138.98087,64.05266],[-138.9715,64.05251],[-138.97175,64.04951],[-138.97184,64.04842]]]}},{"type":"Feature","properties":{"c":"YD44289","o":"Goldbank Mining Corporation - 50%, Goldbank Eastern Klondike Properties Inc. - 50%","e":"2029-10-31"},"geometry":{"type":"Polygon","coordinates":[[[-138.89835,63.99747],[-138.90693,63.99905],[-138.9033,64.00282],[-138.89471,64.00124],[-138.89743,63.99842],[-138.89835,63.99747]]]}},{"type":"Feature","properties":{"c":"YD89551","o":"Goldbank Mining Corporation - 50%, Goldbank Eastern Klondike Properties Inc. - 50%","e":"2029-10-31"},"geometry":{"type":"Polygon","coordinates":[[[-138.84741,64.01916],[-138.85559,64.02069],[-138.85194,64.02446],[-138.8438,64.02293],[-138.84741,64.01916]]]}},{"type":"Feature","properties":{"c":"YE79856","o":"Anthony Beruschi - 100%","e":"2036-11-05"},"geometry":{"type":"Polygon","coordinates":[[[-138.97797,63.99565],[-138.98447,63.9986],[-138.97776,64.00145],[-138.97126,63.99851],[-138.97797,63.99565]]]}},{"type":"Feature","properties":{"c":"YC03770","o":"Canadian United Minerals Inc. - 100%","e":"2027-03-10"},"geometry":{"type":"Polygon","coordinates":[[[-138.63564,64.44909],[-138.62646,64.45084],[-138.62278,64.44714],[-138.63168,64.44534],[-138.63564,64.44909]]]}},{"type":"Feature","properties":{"c":"YF48410","o":"Small Hydro Investments Ltd. - 100%","e":"2027-12-16"},"geometry":{"type":"Polygon","coordinates":[[[-138.84092,64.03577],[-138.84955,64.03736],[-138.84735,64.03959],[-138.84381,64.03924],[-138.83867,64.03804],[-138.8399,64.0368],[-138.84092,64.03577]]]}},{"type":"Feature","properties":{"c":"YF48260","o":"Small Hydro Investments Ltd. - 100%","e":"2027-12-16"},"geometry":{"type":"Polygon","coordinates":[[[-138.91445,64.0229],[-138.91773,64.02296],[-138.91738,64.02705],[-138.91057,64.02694],[-138.91103,64.02646],[-138.91445,64.0229]]]}},{"type":"Feature","properties":{"c":"YC03779","o":"Canadian United Minerals Inc. - 100%","e":"2027-03-10"},"geometry":{"type":"Polygon","coordinates":[[[-138.60637,64.44108],[-138.60375,64.43953],[-138.60401,64.4388],[-138.60588,64.43737],[-138.61104,64.43572],[-138.61497,64.43947],[-138.60637,64.44108]]]}},{"type":"Feature","properties":{"c":"YD48560","o":"Goldbank Mining Corporation - 50%, Goldbank Eastern Klondike Properties Inc. - 50%","e":"2029-10-31"},"geometry":{"type":"Polygon","coordinates":[[[-138.91555,64.00063],[-138.92418,64.00222],[-138.92055,64.006],[-138.91192,64.00441],[-138.91422,64.00202],[-138.91555,64.00063]]]}},{"type":"Feature","properties":{"c":"YF48337","o":"Small Hydro Investments Ltd. - 100%","e":"2027-12-16"},"geometry":{"type":"Polygon","coordinates":[[[-138.9732,64.03204],[-138.98256,64.03219],[-138.98222,64.03629],[-138.97286,64.03614],[-138.9732,64.03204]]]}},{"type":"Feature","properties":{"c":"YD48559","o":"Goldbank Mining Corporation - 50%, Goldbank Eastern Klondike Properties Inc. - 50%","e":"2029-10-31"},"geometry":{"type":"Polygon","coordinates":[[[-138.9278,63.99845],[-138.93638,64.00002],[-138.93274,64.0038],[-138.92418,64.00222],[-138.9278,63.99845]]]}},{"type":"Feature","properties":{"c":"YE79849","o":"Anthony Beruschi - 100%","e":"2036-11-05"},"geometry":{"type":"Polygon","coordinates":[[[-139.0108,63.99874],[-139.00409,64.00159],[-138.99769,63.99869],[-139.00439,63.99585],[-139.0108,63.99874]]]}},{"type":"Feature","properties":{"c":"YF48417","o":"Small Hydro Investments Ltd. - 100%","e":"2027-12-16"},"geometry":{"type":"Polygon","coordinates":[[[-138.81881,64.02715],[-138.82742,64.02877],[-138.82371,64.03253],[-138.8151,64.03091],[-138.81605,64.02995],[-138.81881,64.02715]]]}},{"type":"Feature","properties":{"c":"YC03765","o":"Canadian United Minerals Inc. - 100%","e":"2027-03-10"},"geometry":{"type":"Polygon","coordinates":[[[-138.64844,64.44123],[-138.65706,64.43962],[-138.66097,64.44353],[-138.65244,64.44511],[-138.64844,64.44123]]]}},{"type":"Feature","properties":{"c":"YF48269","o":"Small Hydro Investments Ltd. - 100%","e":"2027-12-16"},"geometry":{"type":"Polygon","coordinates":[[[-138.91599,64.04342],[-138.92535,64.04357],[-138.92501,64.04766],[-138.91564,64.04751],[-138.91581,64.04551],[-138.91599,64.04342]]]}},{"type":"Feature","properties":{"c":"YD11812","o":"Goldbank Mining Corporation - 50%, Goldbank Eastern Klondike Properties Inc. - 50%","e":"2029-10-31"},"geometry":{"type":"Polygon","coordinates":[[[-138.94501,64.00161],[-138.94864,63.99784],[-138.95727,63.99942],[-138.95363,64.0032],[-138.95272,64.00303],[-138.94501,64.00161]]]}},{"type":"Feature","properties":{"c":"YF48328","o":"Small Hydro Investments Ltd. - 100%","e":"2027-12-11"},"geometry":{"type":"Polygon","coordinates":[[[-138.96555,64.01143],[-138.9749,64.01158],[-138.97456,64.01567],[-138.96521,64.01552],[-138.96555,64.01143]]]}},{"type":"Feature","properties":{"c":"YE79853","o":"Anthony Beruschi - 100%","e":"2036-11-05"},"geometry":{"type":"Polygon","coordinates":[[[-138.97817,64.00753],[-138.97754,64.00725],[-138.98426,64.0044],[-138.99066,64.0073],[-138.98967,64.00772],[-138.98459,64.00764],[-138.97817,64.00753]]]}},{"type":"Feature","properties":{"c":"YF48403","o":"Small Hydro Investments Ltd. - 100%","e":"2027-12-16"},"geometry":{"type":"Polygon","coordinates":[[[-138.90013,64.03779],[-138.90699,64.03905],[-138.90678,64.04139],[-138.90507,64.04314],[-138.89643,64.04155],[-138.89994,64.03798],[-138.90013,64.03779]]]}},{"type":"Feature","properties":{"c":"YF48309","o":"Small Hydro Investments Ltd. - 100%","e":"2027-12-16"},"geometry":{"type":"Polygon","coordinates":[[[-138.94615,64.01932],[-138.95551,64.01947],[-138.95516,64.02356],[-138.94581,64.02341],[-138.94602,64.02081],[-138.94615,64.01932]]]}},{"type":"Feature","properties":{"c":"YD89529","o":"Goldbank Mining Corporation - 50%, Goldbank Eastern Klondike Properties Inc. - 50%","e":"2029-10-31"},"geometry":{"type":"Polygon","coordinates":[[[-138.87746,63.99806],[-138.88605,63.99964],[-138.88242,64.00342],[-138.87382,64.00183],[-138.87746,63.99806]]]}},{"type":"Feature","properties":{"c":"YD89548","o":"Goldbank Mining Corporation - 50%, Goldbank Eastern Klondike Properties Inc. - 50%","e":"2029-10-31"},"geometry":{"type":"Polygon","coordinates":[[[-138.83382,64.01214],[-138.84242,64.01376],[-138.83881,64.01754],[-138.83021,64.01592],[-138.83382,64.01214]]]}},{"type":"Feature","properties":{"c":"YF48331","o":"Small Hydro Investments Ltd. - 100%","e":"2027-12-16"},"geometry":{"type":"Polygon","coordinates":[[[-138.97422,64.01977],[-138.98358,64.01991],[-138.98324,64.02401],[-138.97388,64.02386],[-138.97422,64.01977]]]}},{"type":"Feature","properties":{"c":"YF48277","o":"Small Hydro Investments Ltd. - 100%","e":"2027-12-16"},"geometry":{"type":"Polygon","coordinates":[[[-138.92989,64.00676],[-138.93783,64.00689],[-138.93748,64.01098],[-138.92813,64.01083],[-138.92834,64.00839],[-138.92911,64.00757],[-138.92989,64.00676]]]}},{"type":"Feature","properties":{"c":"YF48327","o":"Small Hydro Investments Ltd. - 100%","e":"2027-12-11"},"geometry":{"type":"Polygon","coordinates":[[[-138.9749,64.01158],[-138.98425,64.01173],[-138.98392,64.01582],[-138.97456,64.01567],[-138.9749,64.01158]]]}},{"type":"Feature","properties":{"c":"YE79854","o":"Anthony Beruschi - 100%","e":"2036-11-05"},"geometry":{"type":"Polygon","coordinates":[[[-138.99097,64.00155],[-138.98426,64.0044],[-138.97776,64.00145],[-138.98447,63.9986],[-138.99097,64.00155]]]}},{"type":"Feature","properties":{"c":"YD89518","o":"Goldbank Mining Corporation - 50%, Goldbank Eastern Klondike Properties Inc. - 50%","e":"2029-10-31"},"geometry":{"type":"Polygon","coordinates":[[[-138.89967,64.0066],[-138.90829,64.00818],[-138.90466,64.01196],[-138.89604,64.01037],[-138.89846,64.00785],[-138.89967,64.0066]]]}},{"type":"Feature","properties":{"c":"YF48384","o":"Small Hydro Investments Ltd. - 100%","e":"2027-12-16"},"geometry":{"type":"Polygon","coordinates":[[[-138.88286,64.03461],[-138.87916,64.03837],[-138.87052,64.03678],[-138.87412,64.03313],[-138.88286,64.03461]]]}},{"type":"Feature","properties":{"c":"YF48377","o":"Small Hydro Investments Ltd. - 100%","e":"2027-12-16"},"geometry":{"type":"Polygon","coordinates":[[[-138.93602,64.05194],[-138.94539,64.05209],[-138.94504,64.05618],[-138.93567,64.05603],[-138.93585,64.05393],[-138.93602,64.05194]]]}},{"type":"Feature","properties":{"c":"YF48369","o":"Small Hydro Investments Ltd. - 100%","e":"2027-12-16"},"geometry":{"type":"Polygon","coordinates":[[[-138.98252,64.05678],[-138.98218,64.06088],[-138.97281,64.06073],[-138.97314,64.05671],[-138.98252,64.05678]]]}},{"type":"Feature","properties":{"c":"YD89512","o":"Goldbank Mining Corporation - 50%, Goldbank Eastern Klondike Properties Inc. - 50%","e":"2029-10-31"},"geometry":{"type":"Polygon","coordinates":[[[-138.9024,64.02487],[-138.91103,64.02646],[-138.9074,64.03024],[-138.89876,64.02865],[-138.90063,64.02671],[-138.9024,64.02487]]]}},{"type":"Feature","properties":{"c":"YF48335","o":"Small Hydro Investments Ltd. - 100%","e":"2027-12-16"},"geometry":{"type":"Polygon","coordinates":[[[-138.97354,64.02795],[-138.9829,64.0281],[-138.98256,64.03219],[-138.9732,64.03204],[-138.97354,64.02795]]]}},{"type":"Feature","properties":{"c":"YF48265","o":"Small Hydro Investments Ltd. - 100%","e":"2027-12-16"},"geometry":{"type":"Polygon","coordinates":[[[-138.91669,64.03523],[-138.92605,64.03539],[-138.9257,64.03948],[-138.91634,64.03933],[-138.91669,64.03523]]]}},{"type":"Feature","properties":{"c":"YF48259","o":"Small Hydro Investments Ltd. - 100%","e":"2027-12-16"},"geometry":{"type":"Polygon","coordinates":[[[-138.91773,64.02296],[-138.92709,64.02311],[-138.92674,64.0272],[-138.91738,64.02705],[-138.91773,64.02296]]]}},{"type":"Feature","properties":{"c":"YF48267","o":"Small Hydro Investments Ltd. - 100%","e":"2027-12-16"},"geometry":{"type":"Polygon","coordinates":[[[-138.91634,64.03933],[-138.9257,64.03948],[-138.92535,64.04357],[-138.91599,64.04342],[-138.91634,64.03933]]]}},{"type":"Feature","properties":{"c":"YD89536","o":"Goldbank Mining Corporation - 50%, Goldbank Eastern Klondike Properties Inc. - 50%","e":"2029-10-31"},"geometry":{"type":"Polygon","coordinates":[[[-138.87515,64.01097],[-138.88378,64.01256],[-138.88014,64.01633],[-138.87152,64.01474],[-138.87485,64.01128],[-138.87515,64.01097]]]}},{"type":"Feature","properties":{"c":"YF48286","o":"Small Hydro Investments Ltd. - 100%","e":"2027-12-16"},"geometry":{"type":"Polygon","coordinates":[[[-138.9361,64.02735],[-138.94546,64.0275],[-138.94512,64.0316],[-138.93576,64.03144],[-138.93607,64.02769],[-138.9361,64.02735]]]}},{"type":"Feature","properties":{"c":"YE79852","o":"Anthony Beruschi - 100%","e":"2036-11-05"},"geometry":{"type":"Polygon","coordinates":[[[-138.99097,64.00155],[-138.99737,64.00444],[-138.99066,64.0073],[-138.98426,64.0044],[-138.99097,64.00155]]]}},{"type":"Feature","properties":{"c":"YF48399","o":"Small Hydro Investments Ltd. - 100%","e":"2027-12-16"},"geometry":{"type":"Polygon","coordinates":[[[-138.82624,64.01963],[-138.82253,64.02339],[-138.81393,64.02177],[-138.81763,64.01802],[-138.82624,64.01963]]]}},{"type":"Feature","properties":{"c":"YD89531","o":"Goldbank Mining Corporation - 50%, Goldbank Eastern Klondike Properties Inc. - 50%","e":"2029-10-31"},"geometry":{"type":"Polygon","coordinates":[[[-138.87382,64.00183],[-138.88242,64.00342],[-138.87879,64.00719],[-138.87025,64.00553],[-138.87382,64.00183]]]}},{"type":"Feature","properties":{"c":"YD89542","o":"Goldbank Mining Corporation - 50%, Goldbank Eastern Klondike Properties Inc. - 50%","e":"2029-10-31"},"geometry":{"type":"Polygon","coordinates":[[[-138.86424,64.02229],[-138.87287,64.02388],[-138.86923,64.02765],[-138.86067,64.02607],[-138.86424,64.02229]]]}},{"type":"Feature","properties":{"c":"YF48288","o":"Small Hydro Investments Ltd. - 100%","e":"2027-12-16"},"geometry":{"type":"Polygon","coordinates":[[[-138.94512,64.0316],[-138.94477,64.03569],[-138.93541,64.03554],[-138.93575,64.03149],[-138.94512,64.0316]]]}},{"type":"Feature","properties":{"c":"YD89558","o":"Goldbank Mining Corporation - 50%, Goldbank Eastern Klondike Properties Inc. - 50%","e":"2029-10-31"},"geometry":{"type":"Polygon","coordinates":[[[-138.84964,64.0062],[-138.85824,64.00782],[-138.85463,64.0116],[-138.84603,64.00998],[-138.84964,64.0062]]]}},{"type":"Feature","properties":{"c":"YF48418","o":"Small Hydro Investments Ltd. - 100%","e":"2027-12-11"},"geometry":{"type":"Polygon","coordinates":[[[-138.81021,64.02553],[-138.81881,64.02715],[-138.8151,64.03091],[-138.81417,64.03073],[-138.80877,64.02699],[-138.81,64.02575],[-138.81021,64.02553]]]}},{"type":"Feature","properties":{"c":"YF48415","o":"Small Hydro Investments Ltd. - 100%","e":"2027-12-16"},"geometry":{"type":"Polygon","coordinates":[[[-138.82742,64.02877],[-138.83602,64.03039],[-138.83231,64.03415],[-138.82371,64.03253],[-138.82557,64.03065],[-138.82742,64.02877]]]}},{"type":"Feature","properties":{"c":"YD89521","o":"Goldbank Mining Corporation - 50%, Goldbank Eastern Klondike Properties Inc. - 50%","e":"2029-10-31"},"geometry":{"type":"Polygon","coordinates":[[[-138.88378,64.01256],[-138.8924,64.01415],[-138.88877,64.01792],[-138.88014,64.01633],[-138.88343,64.01292],[-138.88378,64.01256]]]}},{"type":"Feature","properties":{"c":"YD89516","o":"Goldbank Mining Corporation - 50%, Goldbank Eastern Klondike Properties Inc. - 50%","e":"2029-10-31"},"geometry":{"type":"Polygon","coordinates":[[[-138.91192,64.00441],[-138.90829,64.00818],[-138.89967,64.0066],[-138.90325,64.00287],[-138.91192,64.00441]]]}},{"type":"Feature","properties":{"c":"YD89504","o":"Goldbank Mining Corporation - 50%, Goldbank Eastern Klondike Properties Inc. - 50%","e":"2029-10-31"},"geometry":{"type":"Polygon","coordinates":[[[-138.91692,64.00977],[-138.92555,64.01136],[-138.92192,64.01514],[-138.91329,64.01355],[-138.91692,64.00977]]]}},{"type":"Feature","properties":{"c":"YF48392","o":"Small Hydro Investments Ltd. - 100%","e":"2027-12-16"},"geometry":{"type":"Polygon","coordinates":[[[-138.84834,64.02824],[-138.84463,64.032],[-138.83602,64.03039],[-138.83972,64.02664],[-138.84834,64.02824]]]}},{"type":"Feature","properties":{"c":"YF48346","o":"Small Hydro Investments Ltd. - 100%","e":"2027-12-16"},"geometry":{"type":"Polygon","coordinates":[[[-138.96247,64.04827],[-138.97184,64.04842],[-138.9715,64.05251],[-138.96213,64.05236],[-138.96232,64.0501],[-138.96247,64.04827]]]}},{"type":"Feature","properties":{"c":"YD89547","o":"Goldbank Mining Corporation - 50%, Goldbank Eastern Klondike Properties Inc. - 50%","e":"2029-10-31"},"geometry":{"type":"Polygon","coordinates":[[[-138.83021,64.01592],[-138.83881,64.01754],[-138.8352,64.02132],[-138.8266,64.0197],[-138.82827,64.01795],[-138.83021,64.01592]]]}},{"type":"Feature","properties":{"c":"YD89563","o":"Goldbank Mining Corporation - 50%, Goldbank Eastern Klondike Properties Inc. - 50%","e":"2029-10-31"},"geometry":{"type":"Polygon","coordinates":[[[-138.79943,64.00566],[-138.80803,64.00728],[-138.80441,64.01106],[-138.79582,64.00944],[-138.79755,64.00763],[-138.79943,64.00566]]]}},{"type":"Feature","properties":{"c":"YD89538","o":"Goldbank Mining Corporation - 50%, Goldbank Eastern Klondike Properties Inc. - 50%","e":"2029-10-31"},"geometry":{"type":"Polygon","coordinates":[[[-138.87152,64.01474],[-138.88014,64.01633],[-138.87651,64.0201],[-138.86788,64.01851],[-138.87152,64.01474]]]}},{"type":"Feature","properties":{"c":"YF48376","o":"Small Hydro Investments Ltd. - 100%","e":"2027-12-16"},"geometry":{"type":"Polygon","coordinates":[[[-138.94539,64.05209],[-138.95475,64.05224],[-138.95441,64.05633],[-138.94504,64.05618],[-138.94519,64.05437],[-138.94539,64.05209]]]}},{"type":"Feature","properties":{"c":"YF48273","o":"Small Hydro Investments Ltd. - 100%","e":"2027-12-16"},"geometry":{"type":"Polygon","coordinates":[[[-138.93378,64.00272],[-138.93606,64.00035],[-138.93838,64.00039],[-138.93818,64.00279],[-138.93378,64.00272]]]}},{"type":"Feature","properties":{"c":"YF48326","o":"Small Hydro Investments Ltd. - 100%","e":"2027-12-11"},"geometry":{"type":"Polygon","coordinates":[[[-138.96589,64.00734],[-138.97524,64.00749],[-138.9749,64.01158],[-138.96555,64.01143],[-138.96589,64.00734]]]}},{"type":"Feature","properties":{"c":"YE79850","o":"Anthony Beruschi - 100%","e":"2036-11-05"},"geometry":{"type":"Polygon","coordinates":[[[-138.99769,63.99869],[-138.99097,64.00155],[-138.98447,63.9986],[-138.99115,63.99577],[-138.99769,63.99869]]]}},{"type":"Feature","properties":{"c":"YF48347","o":"Small Hydro Investments Ltd. - 100%","e":"2027-12-11"},"geometry":{"type":"Polygon","coordinates":[[[-138.99395,64.00778],[-139.0033,64.00793],[-139.00296,64.01202],[-138.99361,64.01188],[-138.99395,64.00778]]]}},{"type":"Feature","properties":{"c":"YD89532","o":"Goldbank Mining Corporation - 50%, Goldbank Eastern Klondike Properties Inc. - 50%","e":"2029-10-31"},"geometry":{"type":"Polygon","coordinates":[[[-138.88242,64.00342],[-138.89104,64.00501],[-138.88741,64.00878],[-138.87879,64.00719],[-138.87972,64.00622],[-138.88242,64.00342]]]}},{"type":"Feature","properties":{"c":"YF48363","o":"Small Hydro Investments Ltd. - 100%","e":"2027-12-16"},"geometry":{"type":"Polygon","coordinates":[[[-138.99125,64.04053],[-139.00061,64.04067],[-139.00027,64.04477],[-138.99091,64.04462],[-138.99112,64.04212],[-138.99125,64.04053]]]}},{"type":"Feature","properties":{"c":"YF48303","o":"Small Hydro Investments Ltd. - 100%","e":"2027-12-11"},"geometry":{"type":"Polygon","coordinates":[[[-138.94718,64.00704],[-138.95653,64.00719],[-138.95619,64.01128],[-138.94684,64.01113],[-138.94718,64.00704]]]}},{"type":"Feature","properties":{"c":"YF48315","o":"Small Hydro Investments Ltd. - 100%","e":"2027-12-16"},"geometry":{"type":"Polygon","coordinates":[[[-138.94512,64.0316],[-138.95448,64.03175],[-138.95414,64.03584],[-138.94477,64.03569],[-138.94512,64.0316]]]}},{"type":"Feature","properties":{"c":"YF48409","o":"Small Hydro Investments Ltd. - 100%","e":"2027-12-16"},"geometry":{"type":"Polygon","coordinates":[[[-138.85326,64.0336],[-138.86189,64.03519],[-138.85818,64.03895],[-138.84955,64.03736],[-138.85084,64.03605],[-138.85326,64.0336]]]}},{"type":"Feature","properties":{"c":"YF48278","o":"Small Hydro Investments Ltd. - 100%","e":"2027-12-16"},"geometry":{"type":"Polygon","coordinates":[[[-138.93748,64.01098],[-138.94684,64.01113],[-138.94649,64.01522],[-138.93714,64.01507],[-138.93748,64.01098]]]}},{"type":"Feature","properties":{"c":"YD89519","o":"Goldbank Mining Corporation - 50%, Goldbank Eastern Klondike Properties Inc. - 50%","e":"2029-10-31"},"geometry":{"type":"Polygon","coordinates":[[[-138.89604,64.01037],[-138.8924,64.01415],[-138.88378,64.01256],[-138.88738,64.00882],[-138.89604,64.01037]]]}},{"type":"Feature","properties":{"c":"YD89553","o":"Goldbank Mining Corporation - 50%, Goldbank Eastern Klondike Properties Inc. - 50%","e":"2029-10-31"},"geometry":{"type":"Polygon","coordinates":[[[-138.83743,64.00836],[-138.83382,64.01214],[-138.82522,64.01052],[-138.82884,64.00674],[-138.83743,64.00836]]]}}]}